[{"zip":"01101","city":"Springfield","state":"MA","lat":42.1015,"long":-72.5898},{"zip":"01102","city":"Springfield","state":"MA","lat":42.1707,"long":-72.6048},{"zip":"01103","city":"Springfield","state":"MA","lat":42.1029,"long":-72.5887},{"zip":"01104","city":"Springfield","state":"MA","lat":42.1288,"long":-72.5778},{"zip":"01105","city":"Springfield","state":"MA","lat":42.0999,"long":-72.5783},{"zip":"01106","city":"Longmeadow","state":"MA","lat":42.0507,"long":-72.5676},{"zip":"01107","city":"Springfield","state":"MA","lat":42.1179,"long":-72.6065},{"zip":"01108","city":"Springfield","state":"MA","lat":42.0853,"long":-72.5584},{"zip":"01109","city":"Springfield","state":"MA","lat":42.1145,"long":-72.5543},{"zip":"01111","city":"Springfield","state":"MA","lat":42.1707,"long":-72.6048},{"zip":"01115","city":"Springfield","state":"MA","lat":42.1029,"long":-72.5916},{"zip":"01116","city":"Longmeadow","state":"MA","lat":42.1707,"long":-72.6048},{"zip":"01118","city":"Springfield","state":"MA","lat":42.0929,"long":-72.5274},{"zip":"01119","city":"Springfield","state":"MA","lat":42.1247,"long":-72.5121},{"zip":"01128","city":"Springfield","state":"MA","lat":42.0944,"long":-72.4889},{"zip":"01129","city":"Springfield","state":"MA","lat":42.1223,"long":-72.4876},{"zip":"01138","city":"Springfield","state":"MA","lat":42.1707,"long":-72.6048},{"zip":"01139","city":"Springfield","state":"MA","lat":42.1707,"long":-72.6048},{"zip":"01144","city":"Springfield","state":"MA","lat":42.1018,"long":-72.5915},{"zip":"01151","city":"Indian Orchard","state":"MA","lat":42.1532,"long":-72.505},{"zip":"01152","city":"Springfield","state":"MA","lat":42.1707,"long":-72.6048},{"zip":"01199","city":"Springfield","state":"MA","lat":42.1199,"long":-72.605}]
