[{"zip":"01201","city":"Pittsfield","state":"MA","lat":42.4531,"long":-73.2471},{"zip":"01202","city":"Pittsfield","state":"MA","lat":42.3929,"long":-73.2285},{"zip":"01203","city":"Pittsfield","state":"MA","lat":42.3929,"long":-73.2285},{"zip":"01220","city":"Adams","state":"MA","lat":42.6223,"long":-73.1172},{"zip":"01222","city":"Ashley Falls","state":"MA","lat":42.0596,"long":-73.3202},{"zip":"01223","city":"Becket","state":"MA","lat":42.3594,"long":-73.1203},{"zip":"01224","city":"Berkshire","state":"MA","lat":42.5126,"long":-73.1929},{"zip":"01225","city":"Cheshire","state":"MA","lat":42.5611,"long":-73.158},{"zip":"01226","city":"Dalton","state":"MA","lat":42.475,"long":-73.1603},{"zip":"01227","city":"Dalton","state":"MA","lat":42.4737,"long":-73.1662},{"zip":"01229","city":"Glendale","state":"MA","lat":42.2793,"long":-73.3435},{"zip":"01230","city":"Great Barrington","state":"MA","lat":42.1959,"long":-73.3607},{"zip":"01235","city":"Hinsdale","state":"MA","lat":42.4298,"long":-73.0724},{"zip":"01236","city":"Housatonic","state":"MA","lat":42.2653,"long":-73.3745},{"zip":"01237","city":"Lanesborough","state":"MA","lat":42.5173,"long":-73.2282},{"zip":"01238","city":"Lee","state":"MA","lat":42.299,"long":-73.2317},{"zip":"01240","city":"Lenox","state":"MA","lat":42.3642,"long":-73.2713},{"zip":"01242","city":"Lenox Dale","state":"MA","lat":42.3386,"long":-73.2509},{"zip":"01244","city":"Mill River","state":"MA","lat":42.1228,"long":-73.254},{"zip":"01245","city":"Monterey","state":"MA","lat":42.1867,"long":-73.2065},{"zip":"01247","city":"North Adams","state":"MA","lat":42.6955,"long":-73.08},{"zip":"01252","city":"North Egremont","state":"MA","lat":42.1986,"long":-73.4462},{"zip":"01253","city":"Otis","state":"MA","lat":42.1931,"long":-73.0918},{"zip":"01254","city":"Richmond","state":"MA","lat":42.3784,"long":-73.3645},{"zip":"01255","city":"Sandisfield","state":"MA","lat":42.1094,"long":-73.1163},{"zip":"01256","city":"Savoy","state":"MA","lat":42.577,"long":-73.0233},{"zip":"01257","city":"Sheffield","state":"MA","lat":42.1001,"long":-73.3611},{"zip":"01258","city":"South Egremont","state":"MA","lat":42.1012,"long":-73.4566},{"zip":"01259","city":"Southfield","state":"MA","lat":42.078,"long":-73.2609},{"zip":"01260","city":"South Lee","state":"MA","lat":42.2779,"long":-73.2773},{"zip":"01262","city":"Stockbridge","state":"MA","lat":42.301,"long":-73.3223},{"zip":"01263","city":"Stockbridge","state":"MA","lat":42.3929,"long":-73.2285},{"zip":"01264","city":"Tyringham","state":"MA","lat":42.22,"long":-73.1979},{"zip":"01266","city":"West Stockbridge","state":"MA","lat":42.3348,"long":-73.3825},{"zip":"01267","city":"Williamstown","state":"MA","lat":42.7089,"long":-73.2036},{"zip":"01270","city":"Windsor","state":"MA","lat":42.515,"long":-73.0412},{"zip":"01243","city":"Middlefield","state":"MA","lat":42.3561,"long":-73.0104}]
