[{"zip":"01343","city":"Drury","state":"MA","lat":42.6427,"long":-72.9862},{"zip":"01301","city":"Greenfield","state":"MA","lat":42.6013,"long":-72.6236},{"zip":"01302","city":"Greenfield","state":"MA","lat":42.5222,"long":-72.6242},{"zip":"01330","city":"Ashfield","state":"MA","lat":42.5232,"long":-72.811},{"zip":"01337","city":"Bernardston","state":"MA","lat":42.6952,"long":-72.5772},{"zip":"01338","city":"Buckland","state":"MA","lat":42.5736,"long":-72.8213},{"zip":"01339","city":"Charlemont","state":"MA","lat":42.608,"long":-72.8901},{"zip":"01340","city":"Colrain","state":"MA","lat":42.679,"long":-72.7265},{"zip":"01341","city":"Conway","state":"MA","lat":42.5138,"long":-72.7025},{"zip":"01342","city":"Deerfield","state":"MA","lat":42.5406,"long":-72.6072},{"zip":"01344","city":"Erving","state":"MA","lat":42.6076,"long":-72.4292},{"zip":"01346","city":"Heath","state":"MA","lat":42.6853,"long":-72.8391},{"zip":"01347","city":"Lake Pleasant","state":"MA","lat":42.5566,"long":-72.5181},{"zip":"01349","city":"Millers Falls","state":"MA","lat":42.582,"long":-72.4926},{"zip":"01350","city":"Monroe Bridge","state":"MA","lat":42.7215,"long":-72.9762},{"zip":"01351","city":"Montague","state":"MA","lat":42.5429,"long":-72.5328},{"zip":"01354","city":"Gill","state":"MA","lat":42.6404,"long":-72.4995},{"zip":"01355","city":"New Salem","state":"MA","lat":42.5146,"long":-72.3062},{"zip":"01360","city":"Northfield","state":"MA","lat":42.6887,"long":-72.451},{"zip":"01364","city":"Orange","state":"MA","lat":42.6129,"long":-72.2924},{"zip":"01367","city":"Rowe","state":"MA","lat":42.6953,"long":-72.9258},{"zip":"01370","city":"Shelburne Falls","state":"MA","lat":42.6022,"long":-72.7391},{"zip":"01373","city":"South Deerfield","state":"MA","lat":42.4756,"long":-72.6153},{"zip":"01375","city":"Sunderland","state":"MA","lat":42.4539,"long":-72.5676},{"zip":"01376","city":"Turners Falls","state":"MA","lat":42.5954,"long":-72.5557},{"zip":"01378","city":"Warwick","state":"MA","lat":42.6671,"long":-72.3397},{"zip":"01379","city":"Wendell","state":"MA","lat":42.5656,"long":-72.4009},{"zip":"01380","city":"Wendell Depot","state":"MA","lat":42.5534,"long":-72.3927},{"zip":"01331","city":"Athol","state":"MA","lat":42.5959,"long":-72.2267},{"zip":"01366","city":"Petersham","state":"MA","lat":42.4898,"long":-72.1893},{"zip":"01368","city":"Royalston","state":"MA","lat":42.6722,"long":-72.1964}]
