[{"zip":"01431","city":"Ashby","state":"MA","lat":42.6745,"long":-71.8174},{"zip":"01432","city":"Ayer","state":"MA","lat":42.5591,"long":-71.5788},{"zip":"01450","city":"Groton","state":"MA","lat":42.6124,"long":-71.5584},{"zip":"01460","city":"Littleton","state":"MA","lat":42.5401,"long":-71.4877},{"zip":"01463","city":"Pepperell","state":"MA","lat":42.6689,"long":-71.5934},{"zip":"01464","city":"Shirley","state":"MA","lat":42.5734,"long":-71.6483},{"zip":"01469","city":"Townsend","state":"MA","lat":42.6525,"long":-71.6896},{"zip":"01470","city":"Groton","state":"MA","lat":42.6112,"long":-71.5745},{"zip":"01471","city":"Groton","state":"MA","lat":42.6112,"long":-71.5745},{"zip":"01472","city":"West Groton","state":"MA","lat":42.6043,"long":-71.6273},{"zip":"01474","city":"West Townsend","state":"MA","lat":42.6678,"long":-71.7522},{"zip":"01420","city":"Fitchburg","state":"MA","lat":42.5796,"long":-71.8031},{"zip":"01430","city":"Ashburnham","state":"MA","lat":42.6496,"long":-71.9267},{"zip":"01434","city":"Devens","state":"MA","lat":42.5385,"long":-71.6115},{"zip":"01436","city":"Baldwinville","state":"MA","lat":42.5936,"long":-72.0646},{"zip":"01438","city":"East Templeton","state":"MA","lat":42.5631,"long":-72.037},{"zip":"01440","city":"Gardner","state":"MA","lat":42.574,"long":-71.9898},{"zip":"01441","city":"Westminster","state":"MA","lat":42.5459,"long":-71.9106},{"zip":"01451","city":"Harvard","state":"MA","lat":42.4986,"long":-71.5753},{"zip":"01452","city":"Hubbardston","state":"MA","lat":42.4865,"long":-72.0012},{"zip":"01453","city":"Leominster","state":"MA","lat":42.5274,"long":-71.7563},{"zip":"01462","city":"Lunenburg","state":"MA","lat":42.5884,"long":-71.7266},{"zip":"01467","city":"Still River","state":"MA","lat":42.4871,"long":-71.6131},{"zip":"01468","city":"Templeton","state":"MA","lat":42.546,"long":-72.065},{"zip":"01473","city":"Westminster","state":"MA","lat":42.5483,"long":-71.9096},{"zip":"01475","city":"Winchendon","state":"MA","lat":42.6789,"long":-72.0475}]
