[{"zip":"01521","city":"Holland","state":"MA","lat":42.0403,"long":-72.1544},{"zip":"01501","city":"Auburn","state":"MA","lat":42.2055,"long":-71.8391},{"zip":"01503","city":"Berlin","state":"MA","lat":42.3844,"long":-71.6356},{"zip":"01504","city":"Blackstone","state":"MA","lat":42.0287,"long":-71.5269},{"zip":"01505","city":"Boylston","state":"MA","lat":42.3377,"long":-71.731},{"zip":"01506","city":"Brookfield","state":"MA","lat":42.1991,"long":-72.0989},{"zip":"01507","city":"Charlton","state":"MA","lat":42.1379,"long":-71.9664},{"zip":"01508","city":"Charlton City","state":"MA","lat":42.1459,"long":-71.9884},{"zip":"01509","city":"Charlton Depot","state":"MA","lat":42.1731,"long":-71.9787},{"zip":"01510","city":"Clinton","state":"MA","lat":42.4181,"long":-71.6828},{"zip":"01515","city":"East Brookfield","state":"MA","lat":42.2193,"long":-72.0481},{"zip":"01516","city":"Douglas","state":"MA","lat":42.0528,"long":-71.7509},{"zip":"01518","city":"Fiskdale","state":"MA","lat":42.1228,"long":-72.1178},{"zip":"01519","city":"Grafton","state":"MA","lat":42.2004,"long":-71.6868},{"zip":"01520","city":"Holden","state":"MA","lat":42.342,"long":-71.8414},{"zip":"01522","city":"Jefferson","state":"MA","lat":42.3755,"long":-71.8706},{"zip":"01523","city":"Lancaster","state":"MA","lat":42.451,"long":-71.6868},{"zip":"01524","city":"Leicester","state":"MA","lat":42.237,"long":-71.9188},{"zip":"01525","city":"Linwood","state":"MA","lat":42.0973,"long":-71.6448},{"zip":"01526","city":"Manchaug","state":"MA","lat":42.0945,"long":-71.7476},{"zip":"01527","city":"Millbury","state":"MA","lat":42.1968,"long":-71.7644},{"zip":"01529","city":"Millville","state":"MA","lat":42.0331,"long":-71.5798},{"zip":"01531","city":"New Braintree","state":"MA","lat":42.3198,"long":-72.1306},{"zip":"01532","city":"Northborough","state":"MA","lat":42.3182,"long":-71.6464},{"zip":"01534","city":"Northbridge","state":"MA","lat":42.1494,"long":-71.6564},{"zip":"01535","city":"North Brookfield","state":"MA","lat":42.2665,"long":-72.0821},{"zip":"01536","city":"North Grafton","state":"MA","lat":42.2297,"long":-71.7037},{"zip":"01537","city":"North Oxford","state":"MA","lat":42.1655,"long":-71.886},{"zip":"01538","city":"North Uxbridge","state":"MA","lat":42.0876,"long":-71.6412},{"zip":"01540","city":"Oxford","state":"MA","lat":42.1129,"long":-71.8687},{"zip":"01541","city":"Princeton","state":"MA","lat":42.4508,"long":-71.8762},{"zip":"01542","city":"Rochdale","state":"MA","lat":42.1997,"long":-71.9069},{"zip":"01543","city":"Rutland","state":"MA","lat":42.3762,"long":-71.949},{"zip":"01545","city":"Shrewsbury","state":"MA","lat":42.2848,"long":-71.7205},{"zip":"01546","city":"Shrewsbury","state":"MA","lat":42.3648,"long":-71.8969},{"zip":"01550","city":"Southbridge","state":"MA","lat":42.075,"long":-72.0353},{"zip":"01560","city":"South Grafton","state":"MA","lat":42.176,"long":-71.6927},{"zip":"01561","city":"South Lancaster","state":"MA","lat":42.4435,"long":-71.6861},{"zip":"01562","city":"Spencer","state":"MA","lat":42.2441,"long":-71.9906},{"zip":"01564","city":"Sterling","state":"MA","lat":42.4354,"long":-71.7752},{"zip":"01566","city":"Sturbridge","state":"MA","lat":42.1126,"long":-72.0842},{"zip":"01568","city":"Upton","state":"MA","lat":42.1756,"long":-71.6032},{"zip":"01569","city":"Uxbridge","state":"MA","lat":42.0744,"long":-71.6329},{"zip":"01570","city":"Webster","state":"MA","lat":42.0521,"long":-71.8486},{"zip":"01571","city":"Dudley","state":"MA","lat":42.0489,"long":-71.8932},{"zip":"01581","city":"Westborough","state":"MA","lat":42.2679,"long":-71.6176},{"zip":"01583","city":"West Boylston","state":"MA","lat":42.3584,"long":-71.7838},{"zip":"01585","city":"West Brookfield","state":"MA","lat":42.2441,"long":-72.1511},{"zip":"01586","city":"West Millbury","state":"MA","lat":42.1712,"long":-71.8037},{"zip":"01588","city":"Whitinsville","state":"MA","lat":42.1153,"long":-71.6644},{"zip":"01590","city":"Sutton","state":"MA","lat":42.1266,"long":-71.7552}]
