[{"zip":"01601","city":"Worcester","state":"MA","lat":42.2626,"long":-71.8023},{"zip":"01602","city":"Worcester","state":"MA","lat":42.2703,"long":-71.8417},{"zip":"01603","city":"Worcester","state":"MA","lat":42.245,"long":-71.838},{"zip":"01604","city":"Worcester","state":"MA","lat":42.2541,"long":-71.7746},{"zip":"01605","city":"Worcester","state":"MA","lat":42.2894,"long":-71.7888},{"zip":"01606","city":"Worcester","state":"MA","lat":42.311,"long":-71.7958},{"zip":"01607","city":"Worcester","state":"MA","lat":42.2303,"long":-71.7938},{"zip":"01608","city":"Worcester","state":"MA","lat":42.2624,"long":-71.8003},{"zip":"01609","city":"Worcester","state":"MA","lat":42.2826,"long":-71.8277},{"zip":"01610","city":"Worcester","state":"MA","lat":42.2492,"long":-71.8108},{"zip":"01611","city":"Cherry Valley","state":"MA","lat":42.2373,"long":-71.875},{"zip":"01612","city":"Paxton","state":"MA","lat":42.3066,"long":-71.9202},{"zip":"01613","city":"Worcester","state":"MA","lat":42.2933,"long":-71.802},{"zip":"01614","city":"Worcester","state":"MA","lat":42.2626,"long":-71.8023},{"zip":"01615","city":"Worcester","state":"MA","lat":42.2626,"long":-71.8023},{"zip":"01653","city":"Worcester","state":"MA","lat":42.3648,"long":-71.8969},{"zip":"01655","city":"Worcester","state":"MA","lat":42.3648,"long":-71.8969}]
