[{"zip":"01701","city":"Framingham","state":"MA","lat":42.3007,"long":-71.4255},{"zip":"01702","city":"Framingham","state":"MA","lat":42.2822,"long":-71.4339},{"zip":"01703","city":"Framingham","state":"MA","lat":42.4464,"long":-71.4594},{"zip":"01704","city":"Framingham","state":"MA","lat":42.4464,"long":-71.4594},{"zip":"01705","city":"Framingham","state":"MA","lat":42.4464,"long":-71.4594},{"zip":"01718","city":"Acton","state":"MA","lat":42.4851,"long":-71.4328},{"zip":"01719","city":"Boxborough","state":"MA","lat":42.4884,"long":-71.5178},{"zip":"01720","city":"Acton","state":"MA","lat":42.4751,"long":-71.4483},{"zip":"01721","city":"Ashland","state":"MA","lat":42.2539,"long":-71.4583},{"zip":"01730","city":"Bedford","state":"MA","lat":42.4843,"long":-71.2768},{"zip":"01731","city":"Hanscom Afb","state":"MA","lat":42.4567,"long":-71.2795},{"zip":"01741","city":"Carlisle","state":"MA","lat":42.5286,"long":-71.3519},{"zip":"01742","city":"Concord","state":"MA","lat":42.4567,"long":-71.3747},{"zip":"01746","city":"Holliston","state":"MA","lat":42.2026,"long":-71.4361},{"zip":"01748","city":"Hopkinton","state":"MA","lat":42.219,"long":-71.5302},{"zip":"01749","city":"Hudson","state":"MA","lat":42.3918,"long":-71.5609},{"zip":"01752","city":"Marlborough","state":"MA","lat":42.3509,"long":-71.5434},{"zip":"01754","city":"Maynard","state":"MA","lat":42.4321,"long":-71.455},{"zip":"01760","city":"Natick","state":"MA","lat":42.2875,"long":-71.3574},{"zip":"01770","city":"Sherborn","state":"MA","lat":42.2331,"long":-71.3787},{"zip":"01773","city":"Lincoln","state":"MA","lat":42.4217,"long":-71.3137},{"zip":"01775","city":"Stow","state":"MA","lat":42.4308,"long":-71.515},{"zip":"01776","city":"Sudbury","state":"MA","lat":42.3837,"long":-71.4282},{"zip":"01778","city":"Wayland","state":"MA","lat":42.3486,"long":-71.3588},{"zip":"01784","city":"Woodville","state":"MA","lat":42.2376,"long":-71.562},{"zip":"01740","city":"Bolton","state":"MA","lat":42.4365,"long":-71.6076},{"zip":"01745","city":"Fayville","state":"MA","lat":42.2934,"long":-71.5028},{"zip":"01747","city":"Hopedale","state":"MA","lat":42.1268,"long":-71.5376},{"zip":"01756","city":"Mendon","state":"MA","lat":42.0967,"long":-71.5499},{"zip":"01757","city":"Milford","state":"MA","lat":42.1511,"long":-71.5274},{"zip":"01772","city":"Southborough","state":"MA","lat":42.2939,"long":-71.532}]
