[{"zip":"01810","city":"Andover","state":"MA","lat":42.6496,"long":-71.1565},{"zip":"01812","city":"Andover","state":"MA","lat":42.6472,"long":-71.1842},{"zip":"01830","city":"Haverhill","state":"MA","lat":42.7856,"long":-71.0721},{"zip":"01831","city":"Haverhill","state":"MA","lat":42.7711,"long":-71.1221},{"zip":"01832","city":"Haverhill","state":"MA","lat":42.7792,"long":-71.1095},{"zip":"01833","city":"Georgetown","state":"MA","lat":42.7281,"long":-70.9822},{"zip":"01834","city":"Groveland","state":"MA","lat":42.753,"long":-71.027},{"zip":"01835","city":"Haverhill","state":"MA","lat":42.7528,"long":-71.0843},{"zip":"01840","city":"Lawrence","state":"MA","lat":42.708,"long":-71.1638},{"zip":"01841","city":"Lawrence","state":"MA","lat":42.7115,"long":-71.167},{"zip":"01842","city":"Lawrence","state":"MA","lat":42.707,"long":-71.1631},{"zip":"01843","city":"Lawrence","state":"MA","lat":42.6911,"long":-71.1605},{"zip":"01844","city":"Methuen","state":"MA","lat":42.728,"long":-71.181},{"zip":"01845","city":"North Andover","state":"MA","lat":42.6826,"long":-71.109},{"zip":"01860","city":"Merrimac","state":"MA","lat":42.8346,"long":-71.0047},{"zip":"01885","city":"West Boxford","state":"MA","lat":42.707,"long":-71.0639},{"zip":"01899","city":"Andover","state":"MA","lat":42.6584,"long":-71.137},{"zip":"01801","city":"Woburn","state":"MA","lat":42.4829,"long":-71.1574},{"zip":"01803","city":"Burlington","state":"MA","lat":42.5089,"long":-71.2004},{"zip":"01805","city":"Burlington","state":"MA","lat":42.5048,"long":-71.1956},{"zip":"01813","city":"Woburn","state":"MA","lat":42.4793,"long":-71.1523},{"zip":"01815","city":"Woburn","state":"MA","lat":42.4793,"long":-71.1523},{"zip":"01821","city":"Billerica","state":"MA","lat":42.5519,"long":-71.2518},{"zip":"01822","city":"Billerica","state":"MA","lat":42.5584,"long":-71.2689},{"zip":"01824","city":"Chelmsford","state":"MA","lat":42.5911,"long":-71.3556},{"zip":"01826","city":"Dracut","state":"MA","lat":42.6764,"long":-71.3186},{"zip":"01827","city":"Dunstable","state":"MA","lat":42.6739,"long":-71.4952},{"zip":"01850","city":"Lowell","state":"MA","lat":42.656,"long":-71.3051},{"zip":"01851","city":"Lowell","state":"MA","lat":42.6315,"long":-71.3329},{"zip":"01852","city":"Lowell","state":"MA","lat":42.6344,"long":-71.2983},{"zip":"01853","city":"Lowell","state":"MA","lat":42.6334,"long":-71.3162},{"zip":"01854","city":"Lowell","state":"MA","lat":42.6493,"long":-71.3355},{"zip":"01862","city":"North Billerica","state":"MA","lat":42.5757,"long":-71.2902},{"zip":"01863","city":"North Chelmsford","state":"MA","lat":42.6347,"long":-71.3908},{"zip":"01864","city":"North Reading","state":"MA","lat":42.5819,"long":-71.0947},{"zip":"01865","city":"Nutting Lake","state":"MA","lat":42.5379,"long":-71.2689},{"zip":"01866","city":"Pinehurst","state":"MA","lat":42.5293,"long":-71.2281},{"zip":"01867","city":"Reading","state":"MA","lat":42.528,"long":-71.109},{"zip":"01876","city":"Tewksbury","state":"MA","lat":42.6028,"long":-71.2232},{"zip":"01879","city":"Tyngsboro","state":"MA","lat":42.6724,"long":-71.4158},{"zip":"01880","city":"Wakefield","state":"MA","lat":42.5009,"long":-71.0685},{"zip":"01886","city":"Westford","state":"MA","lat":42.5864,"long":-71.4401},{"zip":"01887","city":"Wilmington","state":"MA","lat":42.5581,"long":-71.1723},{"zip":"01888","city":"Woburn","state":"MA","lat":42.4793,"long":-71.1523},{"zip":"01889","city":"North Reading","state":"MA","lat":42.5716,"long":-71.1096},{"zip":"01890","city":"Winchester","state":"MA","lat":42.453,"long":-71.1441}]
