[{"zip":"01901","city":"Lynn","state":"MA","lat":42.4612,"long":-70.9467},{"zip":"01902","city":"Lynn","state":"MA","lat":42.4698,"long":-70.942},{"zip":"01903","city":"Lynn","state":"MA","lat":42.4668,"long":-70.9495},{"zip":"01904","city":"Lynn","state":"MA","lat":42.4889,"long":-70.9647},{"zip":"01905","city":"Lynn","state":"MA","lat":42.4694,"long":-70.9728},{"zip":"01906","city":"Saugus","state":"MA","lat":42.4633,"long":-71.0111},{"zip":"01907","city":"Swampscott","state":"MA","lat":42.4746,"long":-70.9098},{"zip":"01908","city":"Nahant","state":"MA","lat":42.4261,"long":-70.9277},{"zip":"01910","city":"Lynn","state":"MA","lat":42.4548,"long":-70.9747},{"zip":"01913","city":"Amesbury","state":"MA","lat":42.8559,"long":-70.9367},{"zip":"01915","city":"Beverly","state":"MA","lat":42.5608,"long":-70.8759},{"zip":"01921","city":"Boxford","state":"MA","lat":42.6797,"long":-71.0114},{"zip":"01922","city":"Byfield","state":"MA","lat":42.7568,"long":-70.9351},{"zip":"01923","city":"Danvers","state":"MA","lat":42.5694,"long":-70.9425},{"zip":"01929","city":"Essex","state":"MA","lat":42.6286,"long":-70.7828},{"zip":"01930","city":"Gloucester","state":"MA","lat":42.6208,"long":-70.6721},{"zip":"01931","city":"Gloucester","state":"MA","lat":42.6159,"long":-70.662},{"zip":"01936","city":"Hamilton","state":"MA","lat":42.6354,"long":-70.8791},{"zip":"01937","city":"Hathorne","state":"MA","lat":42.6354,"long":-70.8791},{"zip":"01938","city":"Ipswich","state":"MA","lat":42.6809,"long":-70.8494},{"zip":"01940","city":"Lynnfield","state":"MA","lat":42.5327,"long":-71.0339},{"zip":"01944","city":"Manchester","state":"MA","lat":42.5796,"long":-70.7674},{"zip":"01945","city":"Marblehead","state":"MA","lat":42.4984,"long":-70.8653},{"zip":"01949","city":"Middleton","state":"MA","lat":42.5942,"long":-71.013},{"zip":"01950","city":"Newburyport","state":"MA","lat":42.813,"long":-70.8847},{"zip":"01951","city":"Newbury","state":"MA","lat":42.7835,"long":-70.8474},{"zip":"01952","city":"Salisbury","state":"MA","lat":42.8507,"long":-70.8588},{"zip":"01960","city":"Peabody","state":"MA","lat":42.5326,"long":-70.9612},{"zip":"01961","city":"Peabody","state":"MA","lat":42.6354,"long":-70.8791},{"zip":"01965","city":"Prides Crossing","state":"MA","lat":42.5581,"long":-70.8257},{"zip":"01966","city":"Rockport","state":"MA","lat":42.658,"long":-70.6194},{"zip":"01969","city":"Rowley","state":"MA","lat":42.7138,"long":-70.907},{"zip":"01970","city":"Salem","state":"MA","lat":42.5151,"long":-70.9003},{"zip":"01971","city":"Salem","state":"MA","lat":42.6354,"long":-70.8791},{"zip":"01982","city":"South Hamilton","state":"MA","lat":42.6185,"long":-70.8561},{"zip":"01983","city":"Topsfield","state":"MA","lat":42.6415,"long":-70.9488},{"zip":"01984","city":"Wenham","state":"MA","lat":42.6017,"long":-70.8786},{"zip":"01985","city":"West Newbury","state":"MA","lat":42.7949,"long":-70.9778}]
