[{"zip":"02048","city":"Mansfield","state":"MA","lat":42.0212,"long":-71.2178},{"zip":"02019","city":"Bellingham","state":"MA","lat":42.0746,"long":-71.4768},{"zip":"02021","city":"Canton","state":"MA","lat":42.1645,"long":-71.1355},{"zip":"02025","city":"Cohasset","state":"MA","lat":42.2395,"long":-70.8128},{"zip":"02026","city":"Dedham","state":"MA","lat":42.2437,"long":-71.1637},{"zip":"02027","city":"Dedham","state":"MA","lat":42.18,"long":-71.0892},{"zip":"02030","city":"Dover","state":"MA","lat":42.2362,"long":-71.2854},{"zip":"02032","city":"East Walpole","state":"MA","lat":42.1532,"long":-71.2179},{"zip":"02035","city":"Foxboro","state":"MA","lat":42.0649,"long":-71.2441},{"zip":"02038","city":"Franklin","state":"MA","lat":42.0935,"long":-71.4058},{"zip":"02052","city":"Medfield","state":"MA","lat":42.1845,"long":-71.3048},{"zip":"02053","city":"Medway","state":"MA","lat":42.1514,"long":-71.4217},{"zip":"02054","city":"Millis","state":"MA","lat":42.1669,"long":-71.3607},{"zip":"02056","city":"Norfolk","state":"MA","lat":42.1177,"long":-71.3269},{"zip":"02062","city":"Norwood","state":"MA","lat":42.1868,"long":-71.2033},{"zip":"02067","city":"Sharon","state":"MA","lat":42.1094,"long":-71.1759},{"zip":"02070","city":"Sheldonville","state":"MA","lat":42.0348,"long":-71.387},{"zip":"02071","city":"South Walpole","state":"MA","lat":42.0992,"long":-71.2752},{"zip":"02072","city":"Stoughton","state":"MA","lat":42.1253,"long":-71.1074},{"zip":"02081","city":"Walpole","state":"MA","lat":42.1444,"long":-71.2544},{"zip":"02090","city":"Westwood","state":"MA","lat":42.2148,"long":-71.2104},{"zip":"02093","city":"Wrentham","state":"MA","lat":42.0617,"long":-71.3396},{"zip":"02018","city":"Accord","state":"MA","lat":42.1745,"long":-70.8837},{"zip":"02020","city":"Brant Rock","state":"MA","lat":42.0818,"long":-70.6439},{"zip":"02040","city":"Greenbush","state":"MA","lat":42.1793,"long":-70.7495},{"zip":"02041","city":"Green Harbor","state":"MA","lat":42.0696,"long":-70.6491},{"zip":"02043","city":"Hingham","state":"MA","lat":42.2245,"long":-70.8911},{"zip":"02044","city":"Hingham","state":"MA","lat":42.2418,"long":-70.8898},{"zip":"02045","city":"Hull","state":"MA","lat":42.2853,"long":-70.8754},{"zip":"02047","city":"Humarock","state":"MA","lat":42.1428,"long":-70.6935},{"zip":"02050","city":"Marshfield","state":"MA","lat":42.1062,"long":-70.6993},{"zip":"02051","city":"Marshfield Hills","state":"MA","lat":42.1512,"long":-70.7341},{"zip":"02055","city":"Minot","state":"MA","lat":42.2404,"long":-70.762},{"zip":"02059","city":"North Marshfield","state":"MA","lat":42.1432,"long":-70.7703},{"zip":"02060","city":"North Scituate","state":"MA","lat":42.219,"long":-70.7856},{"zip":"02061","city":"Norwell","state":"MA","lat":42.1596,"long":-70.8217},{"zip":"02065","city":"Ocean Bluff","state":"MA","lat":42.0972,"long":-70.6516},{"zip":"02066","city":"Scituate","state":"MA","lat":42.2032,"long":-70.7525}]
