[{"zip":"02138","city":"Cambridge","state":"MA","lat":42.377,"long":-71.1256},{"zip":"02139","city":"Cambridge","state":"MA","lat":42.3647,"long":-71.1042},{"zip":"02140","city":"Cambridge","state":"MA","lat":42.3932,"long":-71.1338},{"zip":"02141","city":"Cambridge","state":"MA","lat":42.3687,"long":-71.0836},{"zip":"02142","city":"Cambridge","state":"MA","lat":42.362,"long":-71.083},{"zip":"02143","city":"Somerville","state":"MA","lat":42.3829,"long":-71.1028},{"zip":"02144","city":"Somerville","state":"MA","lat":42.4003,"long":-71.1221},{"zip":"02145","city":"Somerville","state":"MA","lat":42.3907,"long":-71.0929},{"zip":"02148","city":"Malden","state":"MA","lat":42.4291,"long":-71.0605},{"zip":"02149","city":"Everett","state":"MA","lat":42.4112,"long":-71.0514},{"zip":"02153","city":"Medford","state":"MA","lat":42.4184,"long":-71.1062},{"zip":"02155","city":"Medford","state":"MA","lat":42.4173,"long":-71.1087},{"zip":"02156","city":"West Medford","state":"MA","lat":42.4223,"long":-71.1328},{"zip":"02176","city":"Melrose","state":"MA","lat":42.4581,"long":-71.0632},{"zip":"02180","city":"Stoneham","state":"MA","lat":42.4828,"long":-71.0978},{"zip":"02169","city":"Quincy","state":"MA","lat":42.2491,"long":-70.9978},{"zip":"02170","city":"Quincy","state":"MA","lat":42.2671,"long":-71.0186},{"zip":"02171","city":"Quincy","state":"MA","lat":42.2825,"long":-71.0241},{"zip":"02184","city":"Braintree","state":"MA","lat":42.2093,"long":-70.9963},{"zip":"02185","city":"Braintree","state":"MA","lat":42.18,"long":-71.0892},{"zip":"02186","city":"Milton","state":"MA","lat":42.2537,"long":-71.0771},{"zip":"02187","city":"Milton Village","state":"MA","lat":42.2668,"long":-71.0717},{"zip":"02188","city":"Weymouth","state":"MA","lat":42.2113,"long":-70.9582},{"zip":"02189","city":"East Weymouth","state":"MA","lat":42.214,"long":-70.9203},{"zip":"02190","city":"South Weymouth","state":"MA","lat":42.1751,"long":-70.9495},{"zip":"02191","city":"North Weymouth","state":"MA","lat":42.2459,"long":-70.9467},{"zip":"02108","city":"Boston","state":"MA","lat":42.3576,"long":-71.0684},{"zip":"02109","city":"Boston","state":"MA","lat":42.36,"long":-71.0545},{"zip":"02110","city":"Boston","state":"MA","lat":42.3576,"long":-71.0514},{"zip":"02111","city":"Boston","state":"MA","lat":42.3503,"long":-71.0629},{"zip":"02112","city":"Boston","state":"MA","lat":42.3584,"long":-71.0598},{"zip":"02113","city":"Boston","state":"MA","lat":42.3657,"long":-71.056},{"zip":"02114","city":"Boston","state":"MA","lat":42.3611,"long":-71.0682},{"zip":"02115","city":"Boston","state":"MA","lat":42.3427,"long":-71.0922},{"zip":"02116","city":"Boston","state":"MA","lat":42.3492,"long":-71.0768},{"zip":"02117","city":"Boston","state":"MA","lat":42.3585,"long":-71.058},{"zip":"02118","city":"Boston","state":"MA","lat":42.3362,"long":-71.0729},{"zip":"02119","city":"Roxbury","state":"MA","lat":42.3251,"long":-71.0953},{"zip":"02120","city":"Roxbury Crossing","state":"MA","lat":42.3307,"long":-71.0912},{"zip":"02121","city":"Dorchester","state":"MA","lat":42.2973,"long":-71.0745},{"zip":"02122","city":"Dorchester","state":"MA","lat":42.2973,"long":-71.0745},{"zip":"02123","city":"Boston","state":"MA","lat":42.3389,"long":-70.9196},{"zip":"02124","city":"Dorchester Center","state":"MA","lat":42.2918,"long":-71.0717},{"zip":"02125","city":"Dorchester","state":"MA","lat":42.2973,"long":-71.0745},{"zip":"02126","city":"Mattapan","state":"MA","lat":42.2739,"long":-71.0939},{"zip":"02127","city":"Boston","state":"MA","lat":42.3347,"long":-71.0375},{"zip":"02128","city":"Boston","state":"MA","lat":42.3642,"long":-71.0257},{"zip":"02129","city":"Charlestown","state":"MA","lat":42.3778,"long":-71.0627},{"zip":"02130","city":"Jamaica Plain","state":"MA","lat":42.3126,"long":-71.1115},{"zip":"02131","city":"Roslindale","state":"MA","lat":42.2836,"long":-71.1295},{"zip":"02132","city":"West Roxbury","state":"MA","lat":42.2787,"long":-71.1589},{"zip":"02133","city":"Boston","state":"MA","lat":42.3584,"long":-71.0598},{"zip":"02134","city":"Allston","state":"MA","lat":42.3535,"long":-71.1329},{"zip":"02135","city":"Brighton","state":"MA","lat":42.3478,"long":-71.1566},{"zip":"02136","city":"Hyde Park","state":"MA","lat":42.254,"long":-71.1261},{"zip":"02137","city":"Readville","state":"MA","lat":42.2404,"long":-71.137},{"zip":"02150","city":"Chelsea","state":"MA","lat":42.3963,"long":-71.0325},{"zip":"02151","city":"Revere","state":"MA","lat":42.4138,"long":-71.0052},{"zip":"02152","city":"Winthrop","state":"MA","lat":42.3763,"long":-70.98},{"zip":"02163","city":"Boston","state":"MA","lat":42.3253,"long":-71.1122},{"zip":"02196","city":"Boston","state":"MA","lat":42.3584,"long":-71.0598},{"zip":"02199","city":"Boston","state":"MA","lat":42.3479,"long":-71.0825}]
