[{"zip":"02212","city":"Boston","state":"MA","lat":42.3584,"long":-71.0598},{"zip":"02238","city":"Cambridge","state":"MA","lat":42.3751,"long":-71.1056},{"zip":"02269","city":"Quincy","state":"MA","lat":42.2529,"long":-71.0023},{"zip":"02201","city":"Boston","state":"MA","lat":42.3584,"long":-71.0598},{"zip":"02203","city":"Boston","state":"MA","lat":42.3615,"long":-71.0604},{"zip":"02204","city":"Boston","state":"MA","lat":42.3389,"long":-70.9196},{"zip":"02205","city":"Boston","state":"MA","lat":42.3503,"long":-71.0539},{"zip":"02206","city":"Boston","state":"MA","lat":42.3389,"long":-70.9196},{"zip":"02210","city":"Boston","state":"MA","lat":42.3489,"long":-71.0465},{"zip":"02211","city":"Boston","state":"MA","lat":42.3584,"long":-71.0598},{"zip":"02215","city":"Boston","state":"MA","lat":42.3471,"long":-71.1027},{"zip":"02217","city":"Boston","state":"MA","lat":42.3389,"long":-70.9196},{"zip":"02222","city":"Boston","state":"MA","lat":42.3644,"long":-71.0633},{"zip":"02241","city":"Boston","state":"MA","lat":42.3584,"long":-71.0598},{"zip":"02266","city":"Boston","state":"MA","lat":42.3584,"long":-71.0598},{"zip":"02283","city":"Boston","state":"MA","lat":42.3389,"long":-70.9196},{"zip":"02284","city":"Boston","state":"MA","lat":42.3389,"long":-70.9196},{"zip":"02293","city":"Boston","state":"MA","lat":42.3584,"long":-71.0598},{"zip":"02297","city":"Boston","state":"MA","lat":42.3584,"long":-71.0598},{"zip":"02298","city":"Boston","state":"MA","lat":42.3823,"long":-71.0323}]
