[{"zip":"02334","city":"Easton","state":"MA","lat":42.0235,"long":-71.1324},{"zip":"02356","city":"North Easton","state":"MA","lat":42.059,"long":-71.1123},{"zip":"02357","city":"North Easton","state":"MA","lat":42.0645,"long":-71.0871},{"zip":"02375","city":"South Easton","state":"MA","lat":42.0257,"long":-71.0988},{"zip":"02322","city":"Avon","state":"MA","lat":42.1258,"long":-71.0437},{"zip":"02343","city":"Holbrook","state":"MA","lat":42.1464,"long":-71.0083},{"zip":"02368","city":"Randolph","state":"MA","lat":42.1736,"long":-71.0514},{"zip":"02301","city":"Brockton","state":"MA","lat":42.0794,"long":-71.04},{"zip":"02302","city":"Brockton","state":"MA","lat":42.0847,"long":-71.0002},{"zip":"02303","city":"Brockton","state":"MA","lat":42.0834,"long":-71.0184},{"zip":"02304","city":"Brockton","state":"MA","lat":42.0834,"long":-71.0184},{"zip":"02305","city":"Brockton","state":"MA","lat":42.0834,"long":-71.0184},{"zip":"02324","city":"Bridgewater","state":"MA","lat":41.9773,"long":-70.9723},{"zip":"02325","city":"Bridgewater","state":"MA","lat":41.9873,"long":-70.9728},{"zip":"02327","city":"Bryantville","state":"MA","lat":42.0407,"long":-70.8272},{"zip":"02330","city":"Carver","state":"MA","lat":41.8883,"long":-70.7678},{"zip":"02331","city":"Duxbury","state":"MA","lat":41.9705,"long":-70.7014},{"zip":"02332","city":"Duxbury","state":"MA","lat":42.0399,"long":-70.7163},{"zip":"02333","city":"East Bridgewater","state":"MA","lat":42.0315,"long":-70.945},{"zip":"02337","city":"Elmwood","state":"MA","lat":42.0098,"long":-70.962},{"zip":"02338","city":"Halifax","state":"MA","lat":42.0002,"long":-70.8448},{"zip":"02339","city":"Hanover","state":"MA","lat":42.1214,"long":-70.857},{"zip":"02340","city":"Hanover","state":"MA","lat":42.1137,"long":-70.8161},{"zip":"02341","city":"Hanson","state":"MA","lat":42.0616,"long":-70.8651},{"zip":"02344","city":"Middleboro","state":"MA","lat":41.8932,"long":-70.9112},{"zip":"02345","city":"Manomet","state":"MA","lat":41.8882,"long":-70.581},{"zip":"02346","city":"Middleboro","state":"MA","lat":41.8884,"long":-70.893},{"zip":"02347","city":"Lakeville","state":"MA","lat":41.8374,"long":-70.9582},{"zip":"02348","city":"Lakeville","state":"MA","lat":41.8459,"long":-70.9495},{"zip":"02349","city":"Middleboro","state":"MA","lat":41.8932,"long":-70.9112},{"zip":"02350","city":"Monponsett","state":"MA","lat":42.0185,"long":-70.8475},{"zip":"02351","city":"Abington","state":"MA","lat":42.1167,"long":-70.9543},{"zip":"02355","city":"North Carver","state":"MA","lat":41.9169,"long":-70.8013},{"zip":"02358","city":"North Pembroke","state":"MA","lat":42.0932,"long":-70.7925},{"zip":"02359","city":"Pembroke","state":"MA","lat":42.0621,"long":-70.8044},{"zip":"02360","city":"Plymouth","state":"MA","lat":41.9104,"long":-70.642},{"zip":"02361","city":"Plymouth","state":"MA","lat":41.9705,"long":-70.7014},{"zip":"02362","city":"Plymouth","state":"MA","lat":41.9584,"long":-70.6673},{"zip":"02364","city":"Kingston","state":"MA","lat":41.995,"long":-70.741},{"zip":"02366","city":"South Carver","state":"MA","lat":41.8501,"long":-70.7044},{"zip":"02367","city":"Plympton","state":"MA","lat":41.9655,"long":-70.8046},{"zip":"02370","city":"Rockland","state":"MA","lat":42.1293,"long":-70.9133},{"zip":"02379","city":"West Bridgewater","state":"MA","lat":42.0255,"long":-71.0161},{"zip":"02381","city":"White Horse Beach","state":"MA","lat":41.9316,"long":-70.5611},{"zip":"02382","city":"Whitman","state":"MA","lat":42.0816,"long":-70.9381}]
