[{"zip":"02420","city":"Lexington","state":"MA","lat":42.4563,"long":-71.2167},{"zip":"02421","city":"Lexington","state":"MA","lat":42.4426,"long":-71.2265},{"zip":"02451","city":"Waltham","state":"MA","lat":42.3986,"long":-71.2451},{"zip":"02452","city":"Waltham","state":"MA","lat":42.3943,"long":-71.218},{"zip":"02453","city":"Waltham","state":"MA","lat":42.3654,"long":-71.2317},{"zip":"02454","city":"Waltham","state":"MA","lat":42.3567,"long":-71.2505},{"zip":"02455","city":"North Waltham","state":"MA","lat":42.3621,"long":-71.2055},{"zip":"02456","city":"New Town","state":"MA","lat":42.4464,"long":-71.4594},{"zip":"02458","city":"Newton","state":"MA","lat":42.3528,"long":-71.1875},{"zip":"02459","city":"Newton Center","state":"MA","lat":42.3341,"long":-71.1833},{"zip":"02460","city":"Newtonville","state":"MA","lat":42.352,"long":-71.2084},{"zip":"02461","city":"Newton Highlands","state":"MA","lat":42.3168,"long":-71.2084},{"zip":"02462","city":"Newton Lower Falls","state":"MA","lat":42.3299,"long":-71.2562},{"zip":"02464","city":"Newton Upper Falls","state":"MA","lat":42.3129,"long":-71.2195},{"zip":"02465","city":"West Newton","state":"MA","lat":42.3492,"long":-71.2267},{"zip":"02466","city":"Auburndale","state":"MA","lat":42.3441,"long":-71.248},{"zip":"02467","city":"Chestnut Hill","state":"MA","lat":42.3164,"long":-71.1612},{"zip":"02468","city":"Waban","state":"MA","lat":42.3271,"long":-71.2315},{"zip":"02471","city":"Watertown","state":"MA","lat":42.3709,"long":-71.1828},{"zip":"02472","city":"Watertown","state":"MA","lat":42.37,"long":-71.1773},{"zip":"02474","city":"Arlington","state":"MA","lat":42.4202,"long":-71.1565},{"zip":"02475","city":"Arlington Heights","state":"MA","lat":42.4204,"long":-71.1801},{"zip":"02476","city":"Arlington","state":"MA","lat":42.4162,"long":-71.1752},{"zip":"02477","city":"Watertown","state":"MA","lat":42.3709,"long":-71.1828},{"zip":"02478","city":"Belmont","state":"MA","lat":42.3959,"long":-71.1787},{"zip":"02479","city":"Waverley","state":"MA","lat":42.3876,"long":-71.1828},{"zip":"02493","city":"Weston","state":"MA","lat":42.3589,"long":-71.3001},{"zip":"02495","city":"Nonantum","state":"MA","lat":42.3626,"long":-71.2023},{"zip":"02445","city":"Brookline","state":"MA","lat":42.3259,"long":-71.1341},{"zip":"02446","city":"Brookline","state":"MA","lat":42.3431,"long":-71.123},{"zip":"02447","city":"Brookline Village","state":"MA","lat":42.3329,"long":-71.1162},{"zip":"02457","city":"Babson Park","state":"MA","lat":42.18,"long":-71.0892},{"zip":"02481","city":"Wellesley Hills","state":"MA","lat":42.3106,"long":-71.2747},{"zip":"02482","city":"Wellesley","state":"MA","lat":42.2945,"long":-71.2992},{"zip":"02492","city":"Needham","state":"MA","lat":42.2798,"long":-71.2501},{"zip":"02494","city":"Needham Heights","state":"MA","lat":42.2945,"long":-71.2328}]
