[{"zip":"02532","city":"Buzzards Bay","state":"MA","lat":41.7455,"long":-70.5905},{"zip":"02534","city":"Cataumet","state":"MA","lat":41.6694,"long":-70.6234},{"zip":"02536","city":"East Falmouth","state":"MA","lat":41.5968,"long":-70.5671},{"zip":"02537","city":"East Sandwich","state":"MA","lat":41.7283,"long":-70.44},{"zip":"02540","city":"Falmouth","state":"MA","lat":41.5648,"long":-70.6217},{"zip":"02541","city":"Falmouth","state":"MA","lat":41.5515,"long":-70.6148},{"zip":"02542","city":"Buzzards Bay","state":"MA","lat":41.6531,"long":-70.5537},{"zip":"02543","city":"Woods Hole","state":"MA","lat":41.5263,"long":-70.6643},{"zip":"02553","city":"Monument Beach","state":"MA","lat":41.6734,"long":-70.608},{"zip":"02556","city":"North Falmouth","state":"MA","lat":41.6417,"long":-70.623},{"zip":"02559","city":"Pocasset","state":"MA","lat":41.6881,"long":-70.6105},{"zip":"02561","city":"Sagamore","state":"MA","lat":41.7703,"long":-70.5337},{"zip":"02562","city":"Sagamore Beach","state":"MA","lat":41.7933,"long":-70.5196},{"zip":"02563","city":"Sandwich","state":"MA","lat":41.7113,"long":-70.4775},{"zip":"02574","city":"West Falmouth","state":"MA","lat":41.6039,"long":-70.6382},{"zip":"02535","city":"Chilmark","state":"MA","lat":41.3575,"long":-70.7416},{"zip":"02539","city":"Edgartown","state":"MA","lat":41.3889,"long":-70.5339},{"zip":"02552","city":"Menemsha","state":"MA","lat":41.3798,"long":-70.6431},{"zip":"02557","city":"Oak Bluffs","state":"MA","lat":41.4543,"long":-70.562},{"zip":"02568","city":"Vineyard Haven","state":"MA","lat":41.45,"long":-70.5937},{"zip":"02575","city":"West Tisbury","state":"MA","lat":41.4213,"long":-70.6428},{"zip":"02554","city":"Nantucket","state":"MA","lat":41.2725,"long":-70.0932},{"zip":"02564","city":"Siasconset","state":"MA","lat":41.2639,"long":-69.9626},{"zip":"02584","city":"Nantucket","state":"MA","lat":41.2778,"long":-70.046},{"zip":"02538","city":"East Wareham","state":"MA","lat":41.7682,"long":-70.6532},{"zip":"02558","city":"Onset","state":"MA","lat":41.7476,"long":-70.6582},{"zip":"02571","city":"Wareham","state":"MA","lat":41.7541,"long":-70.7116},{"zip":"02576","city":"West Wareham","state":"MA","lat":41.7796,"long":-70.7642}]
