[{"zip":"02601","city":"Hyannis","state":"MA","lat":41.6601,"long":-70.2967},{"zip":"02630","city":"Barnstable","state":"MA","lat":41.6983,"long":-70.3001},{"zip":"02631","city":"Brewster","state":"MA","lat":41.7492,"long":-70.0699},{"zip":"02632","city":"Centerville","state":"MA","lat":41.6606,"long":-70.3532},{"zip":"02633","city":"Chatham","state":"MA","lat":41.6889,"long":-69.9722},{"zip":"02634","city":"Centerville","state":"MA","lat":41.6487,"long":-70.3481},{"zip":"02635","city":"Cotuit","state":"MA","lat":41.6243,"long":-70.4364},{"zip":"02637","city":"Cummaquid","state":"MA","lat":41.7014,"long":-70.2772},{"zip":"02638","city":"Dennis","state":"MA","lat":41.7322,"long":-70.1911},{"zip":"02639","city":"Dennis Port","state":"MA","lat":41.6649,"long":-70.1327},{"zip":"02641","city":"East Dennis","state":"MA","lat":41.7426,"long":-70.162},{"zip":"02642","city":"Eastham","state":"MA","lat":41.8408,"long":-69.9849},{"zip":"02643","city":"East Orleans","state":"MA","lat":41.7843,"long":-69.962},{"zip":"02644","city":"Forestdale","state":"MA","lat":41.6827,"long":-70.5143},{"zip":"02645","city":"Harwich","state":"MA","lat":41.7008,"long":-70.0579},{"zip":"02646","city":"Harwich Port","state":"MA","lat":41.6703,"long":-70.0722},{"zip":"02647","city":"Hyannis Port","state":"MA","lat":41.635,"long":-70.3063},{"zip":"02648","city":"Marstons Mills","state":"MA","lat":41.6703,"long":-70.4163},{"zip":"02649","city":"Mashpee","state":"MA","lat":41.6181,"long":-70.4854},{"zip":"02650","city":"North Chatham","state":"MA","lat":41.703,"long":-69.9666},{"zip":"02651","city":"North Eastham","state":"MA","lat":41.8243,"long":-69.9818},{"zip":"02652","city":"North Truro","state":"MA","lat":42.0338,"long":-70.0875},{"zip":"02653","city":"Orleans","state":"MA","lat":41.7792,"long":-69.9822},{"zip":"02655","city":"Osterville","state":"MA","lat":41.63,"long":-70.3837},{"zip":"02657","city":"Provincetown","state":"MA","lat":42.0534,"long":-70.1865},{"zip":"02659","city":"South Chatham","state":"MA","lat":41.6801,"long":-70.0241},{"zip":"02660","city":"South Dennis","state":"MA","lat":41.7097,"long":-70.1585},{"zip":"02661","city":"South Harwich","state":"MA","lat":41.6862,"long":-70.0329},{"zip":"02662","city":"South Orleans","state":"MA","lat":41.7567,"long":-69.9841},{"zip":"02663","city":"South Wellfleet","state":"MA","lat":41.8005,"long":-70.0768},{"zip":"02664","city":"South Yarmouth","state":"MA","lat":41.6739,"long":-70.1949},{"zip":"02666","city":"Truro","state":"MA","lat":41.9988,"long":-70.0564},{"zip":"02667","city":"Wellfleet","state":"MA","lat":41.9289,"long":-70.0186},{"zip":"02668","city":"West Barnstable","state":"MA","lat":41.7002,"long":-70.372},{"zip":"02669","city":"West Chatham","state":"MA","lat":41.6812,"long":-69.9911},{"zip":"02670","city":"West Dennis","state":"MA","lat":41.6626,"long":-70.1681},{"zip":"02671","city":"West Harwich","state":"MA","lat":41.6694,"long":-70.1135},{"zip":"02672","city":"West Hyannisport","state":"MA","lat":41.6356,"long":-70.3233},{"zip":"02673","city":"West Yarmouth","state":"MA","lat":41.6614,"long":-70.2363},{"zip":"02675","city":"Yarmouth Port","state":"MA","lat":41.7051,"long":-70.227}]
