[{"zip":"02702","city":"Assonet","state":"MA","lat":41.7975,"long":-71.0607},{"zip":"02703","city":"Attleboro","state":"MA","lat":41.9296,"long":-71.3009},{"zip":"02712","city":"Chartley","state":"MA","lat":41.9487,"long":-71.2259},{"zip":"02714","city":"Dartmouth","state":"MA","lat":41.7562,"long":-71.0671},{"zip":"02715","city":"Dighton","state":"MA","lat":41.8125,"long":-71.1427},{"zip":"02717","city":"East Freetown","state":"MA","lat":41.7635,"long":-70.9677},{"zip":"02718","city":"East Taunton","state":"MA","lat":41.8736,"long":-71.0192},{"zip":"02719","city":"Fairhaven","state":"MA","lat":41.6409,"long":-70.8896},{"zip":"02720","city":"Fall River","state":"MA","lat":41.7182,"long":-71.14},{"zip":"02721","city":"Fall River","state":"MA","lat":41.6883,"long":-71.1574},{"zip":"02722","city":"Fall River","state":"MA","lat":41.7015,"long":-71.155},{"zip":"02723","city":"Fall River","state":"MA","lat":41.6926,"long":-71.1332},{"zip":"02724","city":"Fall River","state":"MA","lat":41.685,"long":-71.1748},{"zip":"02725","city":"Somerset","state":"MA","lat":41.7223,"long":-71.178},{"zip":"02726","city":"Somerset","state":"MA","lat":41.756,"long":-71.1492},{"zip":"02740","city":"New Bedford","state":"MA","lat":41.6347,"long":-70.9372},{"zip":"02741","city":"New Bedford","state":"MA","lat":41.6362,"long":-70.9342},{"zip":"02742","city":"New Bedford","state":"MA","lat":41.6362,"long":-70.9342},{"zip":"02743","city":"Acushnet","state":"MA","lat":41.6997,"long":-70.9087},{"zip":"02744","city":"New Bedford","state":"MA","lat":41.6127,"long":-70.9167},{"zip":"02745","city":"New Bedford","state":"MA","lat":41.6913,"long":-70.9355},{"zip":"02746","city":"New Bedford","state":"MA","lat":41.66,"long":-70.9324},{"zip":"02747","city":"North Dartmouth","state":"MA","lat":41.6338,"long":-70.9958},{"zip":"02748","city":"South Dartmouth","state":"MA","lat":41.5665,"long":-70.9843},{"zip":"02760","city":"North Attleboro","state":"MA","lat":41.9775,"long":-71.3298},{"zip":"02761","city":"North Attleboro","state":"MA","lat":41.9834,"long":-71.3328},{"zip":"02763","city":"Attleboro Falls","state":"MA","lat":41.9726,"long":-71.3082},{"zip":"02764","city":"North Dighton","state":"MA","lat":41.8529,"long":-71.1485},{"zip":"02766","city":"Norton","state":"MA","lat":41.9718,"long":-71.1894},{"zip":"02767","city":"Raynham","state":"MA","lat":41.9324,"long":-71.0469},{"zip":"02768","city":"Raynham Center","state":"MA","lat":41.7562,"long":-71.0671},{"zip":"02769","city":"Rehoboth","state":"MA","lat":41.8515,"long":-71.2545},{"zip":"02771","city":"Seekonk","state":"MA","lat":41.8378,"long":-71.3224},{"zip":"02777","city":"Swansea","state":"MA","lat":41.7473,"long":-71.2122},{"zip":"02779","city":"Berkley","state":"MA","lat":41.8353,"long":-71.0765},{"zip":"02780","city":"Taunton","state":"MA","lat":41.905,"long":-71.1026},{"zip":"02783","city":"Taunton","state":"MA","lat":41.7562,"long":-71.0671},{"zip":"02790","city":"Westport","state":"MA","lat":41.6211,"long":-71.089},{"zip":"02791","city":"Westport Point","state":"MA","lat":41.5223,"long":-71.0745},{"zip":"02713","city":"Cuttyhunk","state":"MA","lat":41.4218,"long":-70.9313},{"zip":"02762","city":"Plainville","state":"MA","lat":42.0124,"long":-71.3275},{"zip":"02738","city":"Marion","state":"MA","lat":41.7095,"long":-70.7613},{"zip":"02739","city":"Mattapoisett","state":"MA","lat":41.6618,"long":-70.8164},{"zip":"02770","city":"Rochester","state":"MA","lat":41.7591,"long":-70.8523}]
