[{"zip":"02806","city":"Barrington","state":"RI","lat":41.7443,"long":-71.3175},{"zip":"02809","city":"Bristol","state":"RI","lat":41.6825,"long":-71.2676},{"zip":"02872","city":"Prudence Island","state":"RI","lat":41.7071,"long":-71.2868},{"zip":"02885","city":"Warren","state":"RI","lat":41.7256,"long":-71.2702},{"zip":"02816","city":"Coventry","state":"RI","lat":41.6914,"long":-71.5768},{"zip":"02817","city":"West Greenwich","state":"RI","lat":41.64,"long":-71.6435},{"zip":"02818","city":"East Greenwich","state":"RI","lat":41.6498,"long":-71.474},{"zip":"02827","city":"Greene","state":"RI","lat":41.7062,"long":-71.7356},{"zip":"02886","city":"Warwick","state":"RI","lat":41.7026,"long":-71.4476},{"zip":"02887","city":"Warwick","state":"RI","lat":41.7001,"long":-71.4162},{"zip":"02888","city":"Warwick","state":"RI","lat":41.7494,"long":-71.4084},{"zip":"02889","city":"Warwick","state":"RI","lat":41.7141,"long":-71.3901},{"zip":"02893","city":"West Warwick","state":"RI","lat":41.7004,"long":-71.5183},{"zip":"02801","city":"Adamsville","state":"RI","lat":41.5301,"long":-71.2841},{"zip":"02835","city":"Jamestown","state":"RI","lat":41.5164,"long":-71.3761},{"zip":"02837","city":"Little Compton","state":"RI","lat":41.522,"long":-71.1612},{"zip":"02840","city":"Newport","state":"RI","lat":41.4876,"long":-71.3271},{"zip":"02841","city":"Newport","state":"RI","lat":41.499,"long":-71.299},{"zip":"02842","city":"Middletown","state":"RI","lat":41.5198,"long":-71.2731},{"zip":"02871","city":"Portsmouth","state":"RI","lat":41.5944,"long":-71.252},{"zip":"02878","city":"Tiverton","state":"RI","lat":41.6338,"long":-71.1808},{"zip":"02802","city":"Albion","state":"RI","lat":41.9512,"long":-71.4545},{"zip":"02814","city":"Chepachet","state":"RI","lat":41.9155,"long":-71.6795},{"zip":"02815","city":"Clayville","state":"RI","lat":41.7778,"long":-71.6706},{"zip":"02823","city":"Fiskeville","state":"RI","lat":41.7312,"long":-71.5468},{"zip":"02824","city":"Forestdale","state":"RI","lat":42.0002,"long":-71.5631},{"zip":"02825","city":"Foster","state":"RI","lat":41.7815,"long":-71.7187},{"zip":"02826","city":"Glendale","state":"RI","lat":41.9762,"long":-71.6326},{"zip":"02828","city":"Greenville","state":"RI","lat":41.8734,"long":-71.5569},{"zip":"02829","city":"Harmony","state":"RI","lat":41.8793,"long":-71.5894},{"zip":"02830","city":"Harrisville","state":"RI","lat":41.9764,"long":-71.6534},{"zip":"02831","city":"Hope","state":"RI","lat":41.7516,"long":-71.5612},{"zip":"02838","city":"Manville","state":"RI","lat":41.9689,"long":-71.4741},{"zip":"02839","city":"Mapleville","state":"RI","lat":41.9417,"long":-71.6376},{"zip":"02857","city":"North Scituate","state":"RI","lat":41.8439,"long":-71.6242},{"zip":"02858","city":"Oakland","state":"RI","lat":41.9573,"long":-71.6478},{"zip":"02859","city":"Pascoag","state":"RI","lat":41.9627,"long":-71.7099},{"zip":"02860","city":"Pawtucket","state":"RI","lat":41.8729,"long":-71.3907},{"zip":"02861","city":"Pawtucket","state":"RI","lat":41.8814,"long":-71.356},{"zip":"02862","city":"Pawtucket","state":"RI","lat":41.8612,"long":-71.3691},{"zip":"02863","city":"Central Falls","state":"RI","lat":41.8883,"long":-71.3945},{"zip":"02864","city":"Cumberland","state":"RI","lat":41.9484,"long":-71.4154},{"zip":"02865","city":"Lincoln","state":"RI","lat":41.9089,"long":-71.4348},{"zip":"02876","city":"Slatersville","state":"RI","lat":41.9984,"long":-71.5763},{"zip":"02895","city":"Woonsocket","state":"RI","lat":41.9846,"long":-71.5194},{"zip":"02896","city":"North Smithfield","state":"RI","lat":41.9724,"long":-71.5508},{"zip":"02804","city":"Ashaway","state":"RI","lat":41.4231,"long":-71.7837},{"zip":"02807","city":"Block Island","state":"RI","lat":41.1715,"long":-71.5748},{"zip":"02808","city":"Bradford","state":"RI","lat":41.4114,"long":-71.7465},{"zip":"02812","city":"Carolina","state":"RI","lat":41.4691,"long":-71.6751},{"zip":"02813","city":"Charlestown","state":"RI","lat":41.4007,"long":-71.6615},{"zip":"02822","city":"Exeter","state":"RI","lat":41.574,"long":-71.6076},{"zip":"02832","city":"Hope Valley","state":"RI","lat":41.5096,"long":-71.7339},{"zip":"02833","city":"Hopkinton","state":"RI","lat":41.4751,"long":-71.7726},{"zip":"02836","city":"Kenyon","state":"RI","lat":41.4474,"long":-71.6204},{"zip":"02852","city":"North Kingstown","state":"RI","lat":41.5894,"long":-71.4625},{"zip":"02873","city":"Rockville","state":"RI","lat":41.5199,"long":-71.774},{"zip":"02874","city":"Saunderstown","state":"RI","lat":41.5105,"long":-71.4427},{"zip":"02875","city":"Shannock","state":"RI","lat":41.456,"long":-71.6355},{"zip":"02877","city":"Slocum","state":"RI","lat":41.5289,"long":-71.5299},{"zip":"02879","city":"Wakefield","state":"RI","lat":41.4437,"long":-71.5342},{"zip":"02880","city":"Wakefield","state":"RI","lat":41.3753,"long":-71.6439},{"zip":"02881","city":"Kingston","state":"RI","lat":41.4803,"long":-71.5292},{"zip":"02882","city":"Narragansett","state":"RI","lat":41.4353,"long":-71.4616},{"zip":"02883","city":"Peace Dale","state":"RI","lat":41.4512,"long":-71.4987},{"zip":"02891","city":"Westerly","state":"RI","lat":41.3691,"long":-71.8126},{"zip":"02892","city":"West Kingston","state":"RI","lat":41.5058,"long":-71.6211},{"zip":"02894","city":"Wood River Junction","state":"RI","lat":41.45,"long":-71.7074},{"zip":"02898","city":"Wyoming","state":"RI","lat":41.5041,"long":-71.663}]
