[{"zip":"02901","city":"Providence","state":"RI","lat":41.8227,"long":-71.4145},{"zip":"02902","city":"Providence","state":"RI","lat":41.8184,"long":-71.4249},{"zip":"02903","city":"Providence","state":"RI","lat":41.82,"long":-71.4158},{"zip":"02904","city":"Providence","state":"RI","lat":41.8541,"long":-71.4378},{"zip":"02905","city":"Providence","state":"RI","lat":41.7845,"long":-71.3959},{"zip":"02906","city":"Providence","state":"RI","lat":41.8351,"long":-71.3971},{"zip":"02907","city":"Providence","state":"RI","lat":41.7971,"long":-71.4255},{"zip":"02908","city":"Providence","state":"RI","lat":41.8383,"long":-71.4377},{"zip":"02909","city":"Providence","state":"RI","lat":41.8206,"long":-71.4443},{"zip":"02910","city":"Cranston","state":"RI","lat":41.7766,"long":-71.4383},{"zip":"02911","city":"North Providence","state":"RI","lat":41.8547,"long":-71.4735},{"zip":"02912","city":"Providence","state":"RI","lat":41.8267,"long":-71.3977},{"zip":"02914","city":"East Providence","state":"RI","lat":41.8138,"long":-71.3688},{"zip":"02915","city":"Riverside","state":"RI","lat":41.7723,"long":-71.3542},{"zip":"02916","city":"Rumford","state":"RI","lat":41.8425,"long":-71.3559},{"zip":"02917","city":"Smithfield","state":"RI","lat":41.8964,"long":-71.5207},{"zip":"02918","city":"Providence","state":"RI","lat":41.8415,"long":-71.4404},{"zip":"02919","city":"Johnston","state":"RI","lat":41.8274,"long":-71.52},{"zip":"02920","city":"Cranston","state":"RI","lat":41.7716,"long":-71.4659},{"zip":"02921","city":"Cranston","state":"RI","lat":41.7614,"long":-71.5061},{"zip":"02940","city":"Providence","state":"RI","lat":41.824,"long":-71.4128}]
