[{"zip":"03901","city":"Berwick","state":"ME","lat":43.2899,"long":-70.855},{"zip":"03902","city":"Cape Neddick","state":"ME","lat":43.2133,"long":-70.6397},{"zip":"03903","city":"Eliot","state":"ME","lat":43.1309,"long":-70.7822},{"zip":"03904","city":"Kittery","state":"ME","lat":43.0921,"long":-70.7429},{"zip":"03905","city":"Kittery Point","state":"ME","lat":43.0976,"long":-70.7121},{"zip":"03906","city":"North Berwick","state":"ME","lat":43.3254,"long":-70.7212},{"zip":"03907","city":"Ogunquit","state":"ME","lat":43.2541,"long":-70.6094},{"zip":"03908","city":"South Berwick","state":"ME","lat":43.2292,"long":-70.7859},{"zip":"03909","city":"York","state":"ME","lat":43.1544,"long":-70.6578},{"zip":"03910","city":"York Beach","state":"ME","lat":43.2117,"long":-70.732},{"zip":"03911","city":"York Harbor","state":"ME","lat":43.1368,"long":-70.6456},{"zip":"03218","city":"Barnstead","state":"NH","lat":43.3349,"long":-71.2887},{"zip":"03220","city":"Belmont","state":"NH","lat":43.4512,"long":-71.489},{"zip":"03225","city":"Center Barnstead","state":"NH","lat":43.3566,"long":-71.2424},{"zip":"03226","city":"Center Harbor","state":"NH","lat":43.7107,"long":-71.4797},{"zip":"03237","city":"Gilmanton","state":"NH","lat":43.4175,"long":-71.4121},{"zip":"03246","city":"Laconia","state":"NH","lat":43.5727,"long":-71.4781},{"zip":"03247","city":"Laconia","state":"NH","lat":43.589,"long":-71.4455},{"zip":"03249","city":"Gilford","state":"NH","lat":43.5475,"long":-71.4072},{"zip":"03252","city":"Lochmere","state":"NH","lat":43.4686,"long":-71.5371},{"zip":"03253","city":"Meredith","state":"NH","lat":43.6311,"long":-71.4997},{"zip":"03256","city":"New Hampton","state":"NH","lat":43.6184,"long":-71.6435},{"zip":"03269","city":"Sanbornton","state":"NH","lat":43.5496,"long":-71.6003},{"zip":"03276","city":"Tilton","state":"NH","lat":43.4603,"long":-71.5774},{"zip":"03289","city":"Winnisquam","state":"NH","lat":43.4964,"long":-71.5197},{"zip":"03298","city":"Tilton","state":"NH","lat":43.5249,"long":-71.4458},{"zip":"03299","city":"Tilton","state":"NH","lat":43.5249,"long":-71.4458},{"zip":"03809","city":"Alton","state":"NH","lat":43.463,"long":-71.2297},{"zip":"03810","city":"Alton Bay","state":"NH","lat":43.4845,"long":-71.2489},{"zip":"03837","city":"Gilmanton Iron Works","state":"NH","lat":43.4466,"long":-71.2995},{"zip":"03227","city":"Center Sandwich","state":"NH","lat":43.8162,"long":-71.4506},{"zip":"03254","city":"Moultonborough","state":"NH","lat":43.7281,"long":-71.3922},{"zip":"03259","city":"North Sandwich","state":"NH","lat":43.8452,"long":-71.385},{"zip":"03812","city":"Bartlett","state":"NH","lat":44.0802,"long":-71.292},{"zip":"03813","city":"Center Conway","state":"NH","lat":43.9878,"long":-71.0607},{"zip":"03814","city":"Center Ossipee","state":"NH","lat":43.7682,"long":-71.1349},{"zip":"03816","city":"Center Tuftonboro","state":"NH","lat":43.6849,"long":-71.2551},{"zip":"03817","city":"Chocorua","state":"NH","lat":43.8909,"long":-71.2407},{"zip":"03818","city":"Conway","state":"NH","lat":43.9742,"long":-71.1503},{"zip":"03830","city":"East Wakefield","state":"NH","lat":43.6142,"long":-71.0051},{"zip":"03832","city":"Eaton Center","state":"NH","lat":43.9092,"long":-71.0837},{"zip":"03836","city":"Freedom","state":"NH","lat":43.8172,"long":-71.0628},{"zip":"03838","city":"Glen","state":"NH","lat":44.1018,"long":-71.1925},{"zip":"03845","city":"Intervale","state":"NH","lat":44.0955,"long":-71.1194},{"zip":"03846","city":"Jackson","state":"NH","lat":44.167,"long":-71.1878},{"zip":"03847","city":"Kearsarge","state":"NH","lat":43.8839,"long":-71.2577},{"zip":"03849","city":"Madison","state":"NH","lat":43.9152,"long":-71.1254},{"zip":"03850","city":"Melvin Village","state":"NH","lat":43.7077,"long":-71.3017},{"zip":"03853","city":"Mirror Lake","state":"NH","lat":43.6366,"long":-71.2729},{"zip":"03860","city":"North Conway","state":"NH","lat":44.0336,"long":-71.1238},{"zip":"03861","city":"Lee","state":"NH","lat":43.1192,"long":-70.9969},{"zip":"03864","city":"Ossipee","state":"NH","lat":43.6945,"long":-71.1129},{"zip":"03872","city":"Sanbornville","state":"NH","lat":43.5513,"long":-71.02},{"zip":"03875","city":"Silver Lake","state":"NH","lat":43.879,"long":-71.1905},{"zip":"03882","city":"Effingham","state":"NH","lat":43.7012,"long":-70.9834},{"zip":"03883","city":"South Tamworth","state":"NH","lat":43.8077,"long":-71.308},{"zip":"03886","city":"Tamworth","state":"NH","lat":43.862,"long":-71.2645},{"zip":"03890","city":"West Ossipee","state":"NH","lat":43.8118,"long":-71.1946},{"zip":"03894","city":"Wolfeboro","state":"NH","lat":43.595,"long":-71.1908},{"zip":"03896","city":"Wolfeboro Falls","state":"NH","lat":43.5892,"long":-71.2189},{"zip":"03897","city":"Wonalancet","state":"NH","lat":43.9073,"long":-71.3506},{"zip":"03431","city":"Keene","state":"NH","lat":42.9627,"long":-72.2955},{"zip":"03435","city":"Keene","state":"NH","lat":42.9337,"long":-72.2781},{"zip":"03441","city":"Ashuelot","state":"NH","lat":42.7851,"long":-72.4349},{"zip":"03443","city":"Chesterfield","state":"NH","lat":42.8839,"long":-72.4548},{"zip":"03444","city":"Dublin","state":"NH","lat":42.8972,"long":-72.0505},{"zip":"03445","city":"Sullivan","state":"NH","lat":42.9982,"long":-72.2019},{"zip":"03446","city":"Swanzey","state":"NH","lat":42.8411,"long":-72.3301},{"zip":"03447","city":"Fitzwilliam","state":"NH","lat":42.7611,"long":-72.145},{"zip":"03448","city":"Gilsum","state":"NH","lat":43.0399,"long":-72.2719},{"zip":"03450","city":"Harrisville","state":"NH","lat":42.9399,"long":-72.0972},{"zip":"03451","city":"Hinsdale","state":"NH","lat":42.8027,"long":-72.5015},{"zip":"03452","city":"Jaffrey","state":"NH","lat":42.8178,"long":-72.0275},{"zip":"03455","city":"Marlborough","state":"NH","lat":42.8988,"long":-72.2013},{"zip":"03456","city":"Marlow","state":"NH","lat":43.1326,"long":-72.2109},{"zip":"03457","city":"Nelson","state":"NH","lat":42.9906,"long":-72.1309},{"zip":"03461","city":"Rindge","state":"NH","lat":42.7544,"long":-72.019},{"zip":"03462","city":"Spofford","state":"NH","lat":42.912,"long":-72.4103},{"zip":"03464","city":"Stoddard","state":"NH","lat":43.0739,"long":-72.1088},{"zip":"03465","city":"Troy","state":"NH","lat":42.827,"long":-72.1848},{"zip":"03466","city":"West Chesterfield","state":"NH","lat":42.8956,"long":-72.5097},{"zip":"03467","city":"Westmoreland","state":"NH","lat":42.969,"long":-72.4358},{"zip":"03469","city":"West Swanzey","state":"NH","lat":42.8734,"long":-72.3151},{"zip":"03470","city":"Winchester","state":"NH","lat":42.7788,"long":-72.344},{"zip":"03602","city":"Alstead","state":"NH","lat":43.1265,"long":-72.3281},{"zip":"03604","city":"Drewsville","state":"NH","lat":43.1281,"long":-72.392},{"zip":"03608","city":"Walpole","state":"NH","lat":43.0765,"long":-72.4155},{"zip":"03609","city":"North Walpole","state":"NH","lat":43.1428,"long":-72.4483},{"zip":"03570","city":"Berlin","state":"NH","lat":44.4811,"long":-71.1892},{"zip":"03575","city":"Bretton Woods","state":"NH","lat":44.2581,"long":-71.4412},{"zip":"03576","city":"Colebrook","state":"NH","lat":44.9078,"long":-71.4793},{"zip":"03579","city":"Errol","state":"NH","lat":44.8003,"long":-71.1436},{"zip":"03581","city":"Gorham","state":"NH","lat":44.4048,"long":-71.1548},{"zip":"03582","city":"Groveton","state":"NH","lat":44.5984,"long":-71.5064},{"zip":"03583","city":"Jefferson","state":"NH","lat":44.3999,"long":-71.4518},{"zip":"03584","city":"Lancaster","state":"NH","lat":44.4921,"long":-71.5591},{"zip":"03588","city":"Milan","state":"NH","lat":44.587,"long":-71.181},{"zip":"03589","city":"Mount Washington","state":"NH","lat":44.6956,"long":-71.3874},{"zip":"03590","city":"North Stratford","state":"NH","lat":44.7149,"long":-71.5644},{"zip":"03592","city":"Pittsburg","state":"NH","lat":45.0866,"long":-71.3636},{"zip":"03593","city":"Randolph","state":"NH","lat":44.4753,"long":-71.1777},{"zip":"03595","city":"Twin Mountain","state":"NH","lat":44.2689,"long":-71.5471},{"zip":"03597","city":"West Stewartstown","state":"NH","lat":44.6956,"long":-71.3874},{"zip":"03598","city":"Whitefield","state":"NH","lat":44.3681,"long":-71.6035},{"zip":"03215","city":"Waterville Valley","state":"NH","lat":43.9501,"long":-71.4995},{"zip":"03217","city":"Ashland","state":"NH","lat":43.7034,"long":-71.6121},{"zip":"03222","city":"Bristol","state":"NH","lat":43.612,"long":-71.7507},{"zip":"03223","city":"Campton","state":"NH","lat":43.8418,"long":-71.6652},{"zip":"03238","city":"Glencliff","state":"NH","lat":43.9828,"long":-71.8934},{"zip":"03240","city":"Grafton","state":"NH","lat":43.5727,"long":-71.9634},{"zip":"03241","city":"Hebron","state":"NH","lat":43.7186,"long":-71.827},{"zip":"03245","city":"Holderness","state":"NH","lat":43.7378,"long":-71.6044},{"zip":"03251","city":"Lincoln","state":"NH","lat":44.0582,"long":-71.6727},{"zip":"03258","city":"Chichester","state":"NH","lat":43.244,"long":-71.4105},{"zip":"03262","city":"North Woodstock","state":"NH","lat":44.0354,"long":-71.6863},{"zip":"03264","city":"Plymouth","state":"NH","lat":43.757,"long":-71.6881},{"zip":"03266","city":"Rumney","state":"NH","lat":43.8044,"long":-71.848},{"zip":"03279","city":"Warren","state":"NH","lat":43.9447,"long":-71.8901},{"zip":"03282","city":"Wentworth","state":"NH","lat":43.8685,"long":-71.9097},{"zip":"03285","city":"Thornton","state":"NH","lat":43.905,"long":-71.647},{"zip":"03293","city":"Woodstock","state":"NH","lat":43.9675,"long":-71.8409},{"zip":"03561","city":"Littleton","state":"NH","lat":44.3112,"long":-71.7768},{"zip":"03574","city":"Bethlehem","state":"NH","lat":44.2808,"long":-71.6829},{"zip":"03580","city":"Franconia","state":"NH","lat":44.2053,"long":-71.7518},{"zip":"03585","city":"Lisbon","state":"NH","lat":44.2148,"long":-71.8966},{"zip":"03586","city":"Sugar Hill","state":"NH","lat":44.2203,"long":-71.7964},{"zip":"03740","city":"Bath","state":"NH","lat":44.1808,"long":-71.9828},{"zip":"03741","city":"Canaan","state":"NH","lat":43.6601,"long":-72.0297},{"zip":"03748","city":"Enfield","state":"NH","lat":43.6256,"long":-72.127},{"zip":"03749","city":"Enfield Center","state":"NH","lat":43.5796,"long":-72.0854},{"zip":"03750","city":"Etna","state":"NH","lat":43.7113,"long":-72.2125},{"zip":"03755","city":"Hanover","state":"NH","lat":43.7045,"long":-72.285},{"zip":"03756","city":"Lebanon","state":"NH","lat":43.6423,"long":-72.2518},{"zip":"03765","city":"Haverhill","state":"NH","lat":44.0394,"long":-72.0573},{"zip":"03766","city":"Lebanon","state":"NH","lat":43.6447,"long":-72.2428},{"zip":"03768","city":"Lyme","state":"NH","lat":43.7913,"long":-72.162},{"zip":"03769","city":"Lyme Center","state":"NH","lat":43.7863,"long":-72.1205},{"zip":"03771","city":"Monroe","state":"NH","lat":44.2734,"long":-72.025},{"zip":"03774","city":"North Haverhill","state":"NH","lat":44.0978,"long":-72.0191},{"zip":"03777","city":"Orford","state":"NH","lat":43.8941,"long":-72.0978},{"zip":"03779","city":"Piermont","state":"NH","lat":43.9906,"long":-72.0813},{"zip":"03780","city":"Pike","state":"NH","lat":44.0255,"long":-72.0096},{"zip":"03784","city":"West Lebanon","state":"NH","lat":43.644,"long":-72.3007},{"zip":"03785","city":"Woodsville","state":"NH","lat":44.1385,"long":-71.9892},{"zip":"03031","city":"Amherst","state":"NH","lat":42.8569,"long":-71.6075},{"zip":"03033","city":"Brookline","state":"NH","lat":42.7384,"long":-71.6663},{"zip":"03043","city":"Francestown","state":"NH","lat":42.992,"long":-71.8113},{"zip":"03045","city":"Goffstown","state":"NH","lat":43.0201,"long":-71.5697},{"zip":"03047","city":"Greenfield","state":"NH","lat":42.9493,"long":-71.8728},{"zip":"03048","city":"Greenville","state":"NH","lat":42.7482,"long":-71.7619},{"zip":"03049","city":"Hollis","state":"NH","lat":42.7485,"long":-71.5772},{"zip":"03051","city":"Hudson","state":"NH","lat":42.769,"long":-71.4121},{"zip":"03052","city":"Litchfield","state":"NH","lat":42.843,"long":-71.455},{"zip":"03054","city":"Merrimack","state":"NH","lat":42.8667,"long":-71.5128},{"zip":"03055","city":"Milford","state":"NH","lat":42.8285,"long":-71.6606},{"zip":"03057","city":"Mont Vernon","state":"NH","lat":42.8976,"long":-71.6762},{"zip":"03060","city":"Nashua","state":"NH","lat":42.7564,"long":-71.4667},{"zip":"03061","city":"Nashua","state":"NH","lat":42.7654,"long":-71.4676},{"zip":"03062","city":"Nashua","state":"NH","lat":42.7235,"long":-71.4893},{"zip":"03063","city":"Nashua","state":"NH","lat":42.7717,"long":-71.5132},{"zip":"03064","city":"Nashua","state":"NH","lat":42.779,"long":-71.4748},{"zip":"03070","city":"New Boston","state":"NH","lat":42.9722,"long":-71.6864},{"zip":"03071","city":"New Ipswich","state":"NH","lat":42.7511,"long":-71.8703},{"zip":"03076","city":"Pelham","state":"NH","lat":42.7288,"long":-71.3046},{"zip":"03082","city":"Lyndeborough","state":"NH","lat":42.8954,"long":-71.7744},{"zip":"03084","city":"Temple","state":"NH","lat":42.82,"long":-71.8523},{"zip":"03086","city":"Wilton","state":"NH","lat":42.8368,"long":-71.7541},{"zip":"03101","city":"Manchester","state":"NH","lat":42.9929,"long":-71.4633},{"zip":"03102","city":"Manchester","state":"NH","lat":42.9944,"long":-71.4884},{"zip":"03103","city":"Manchester","state":"NH","lat":42.9656,"long":-71.4493},{"zip":"03104","city":"Manchester","state":"NH","lat":43.0073,"long":-71.4482},{"zip":"03105","city":"Manchester","state":"NH","lat":42.9956,"long":-71.4548},{"zip":"03108","city":"Manchester","state":"NH","lat":42.9956,"long":-71.4548},{"zip":"03109","city":"Manchester","state":"NH","lat":42.9713,"long":-71.4135},{"zip":"03110","city":"Bedford","state":"NH","lat":42.9403,"long":-71.5213},{"zip":"03111","city":"Manchester","state":"NH","lat":42.9956,"long":-71.4548},{"zip":"03244","city":"Hillsborough","state":"NH","lat":43.1141,"long":-71.8992},{"zip":"03281","city":"Weare","state":"NH","lat":43.0714,"long":-71.7038},{"zip":"03440","city":"Antrim","state":"NH","lat":43.0595,"long":-71.9387},{"zip":"03442","city":"Bennington","state":"NH","lat":43.0103,"long":-71.9153},{"zip":"03449","city":"Hancock","state":"NH","lat":42.9768,"long":-71.9819},{"zip":"03458","city":"Peterborough","state":"NH","lat":42.8856,"long":-71.947},{"zip":"03468","city":"West Peterborough","state":"NH","lat":42.8908,"long":-71.9334},{"zip":"03046","city":"Dunbarton","state":"NH","lat":43.1025,"long":-71.6169},{"zip":"03106","city":"Hooksett","state":"NH","lat":43.0617,"long":-71.4444},{"zip":"03216","city":"Andover","state":"NH","lat":43.4287,"long":-71.783},{"zip":"03221","city":"Bradford","state":"NH","lat":43.2517,"long":-71.9617},{"zip":"03224","city":"Canterbury","state":"NH","lat":43.357,"long":-71.557},{"zip":"03229","city":"Contoocook","state":"NH","lat":43.1978,"long":-71.6968},{"zip":"03230","city":"Danbury","state":"NH","lat":43.5115,"long":-71.8691},{"zip":"03231","city":"East Andover","state":"NH","lat":43.4662,"long":-71.7365},{"zip":"03233","city":"Elkins","state":"NH","lat":43.4209,"long":-71.9373},{"zip":"03234","city":"Epsom","state":"NH","lat":43.2174,"long":-71.3546},{"zip":"03235","city":"Franklin","state":"NH","lat":43.4426,"long":-71.6491},{"zip":"03242","city":"Henniker","state":"NH","lat":43.1791,"long":-71.8159},{"zip":"03243","city":"Hill","state":"NH","lat":43.5274,"long":-71.7292},{"zip":"03255","city":"Newbury","state":"NH","lat":43.3217,"long":-72.0118},{"zip":"03257","city":"New London","state":"NH","lat":43.4145,"long":-71.9857},{"zip":"03260","city":"North Sutton","state":"NH","lat":43.3653,"long":-71.9341},{"zip":"03263","city":"Pittsfield","state":"NH","lat":43.2874,"long":-71.333},{"zip":"03268","city":"Salisbury","state":"NH","lat":43.4067,"long":-71.7045},{"zip":"03272","city":"South Newbury","state":"NH","lat":43.2956,"long":-71.9967},{"zip":"03273","city":"South Sutton","state":"NH","lat":43.3042,"long":-71.9289},{"zip":"03275","city":"Suncook","state":"NH","lat":43.1604,"long":-71.4179},{"zip":"03278","city":"Warner","state":"NH","lat":43.3035,"long":-71.8353},{"zip":"03287","city":"Wilmot","state":"NH","lat":43.4485,"long":-71.9158},{"zip":"03301","city":"Concord","state":"NH","lat":43.2185,"long":-71.5277},{"zip":"03302","city":"Concord","state":"NH","lat":43.3103,"long":-71.6629},{"zip":"03303","city":"Concord","state":"NH","lat":43.2817,"long":-71.6595},{"zip":"03304","city":"Bow","state":"NH","lat":43.1388,"long":-71.5448},{"zip":"03305","city":"Concord","state":"NH","lat":43.2134,"long":-71.5172},{"zip":"03307","city":"Loudon","state":"NH","lat":43.3193,"long":-71.467},{"zip":"03032","city":"Auburn","state":"NH","lat":42.9925,"long":-71.3449},{"zip":"03034","city":"Candia","state":"NH","lat":43.0585,"long":-71.3049},{"zip":"03036","city":"Chester","state":"NH","lat":42.9678,"long":-71.245},{"zip":"03037","city":"Deerfield","state":"NH","lat":43.1378,"long":-71.2513},{"zip":"03038","city":"Derry","state":"NH","lat":42.8874,"long":-71.302},{"zip":"03040","city":"East Candia","state":"NH","lat":43.0481,"long":-71.2487},{"zip":"03041","city":"East Derry","state":"NH","lat":42.8945,"long":-71.2912},{"zip":"03042","city":"Epping","state":"NH","lat":43.0411,"long":-71.0764},{"zip":"03044","city":"Fremont","state":"NH","lat":42.984,"long":-71.1218},{"zip":"03053","city":"Londonderry","state":"NH","lat":42.8656,"long":-71.3772},{"zip":"03073","city":"North Salem","state":"NH","lat":42.837,"long":-71.2206},{"zip":"03077","city":"Raymond","state":"NH","lat":43.0325,"long":-71.1912},{"zip":"03079","city":"Salem","state":"NH","lat":42.7846,"long":-71.2176},{"zip":"03087","city":"Windham","state":"NH","lat":42.8051,"long":-71.3067},{"zip":"03261","city":"Northwood","state":"NH","lat":43.207,"long":-71.2004},{"zip":"03290","city":"Nottingham","state":"NH","lat":43.1196,"long":-71.111},{"zip":"03291","city":"West Nottingham","state":"NH","lat":43.1823,"long":-71.1396},{"zip":"03801","city":"Portsmouth","state":"NH","lat":43.0729,"long":-70.8052},{"zip":"03802","city":"Portsmouth","state":"NH","lat":43.0718,"long":-70.7626},{"zip":"03803","city":"Portsmouth","state":"NH","lat":43.0718,"long":-70.7626},{"zip":"03804","city":"Portsmouth","state":"NH","lat":43.0718,"long":-70.7626},{"zip":"03811","city":"Atkinson","state":"NH","lat":42.837,"long":-71.1603},{"zip":"03819","city":"Danville","state":"NH","lat":42.9234,"long":-71.121},{"zip":"03826","city":"East Hampstead","state":"NH","lat":42.8877,"long":-71.128},{"zip":"03827","city":"East Kingston","state":"NH","lat":42.907,"long":-70.9876},{"zip":"03833","city":"Exeter","state":"NH","lat":42.9815,"long":-70.9478},{"zip":"03840","city":"Greenland","state":"NH","lat":43.0353,"long":-70.8475},{"zip":"03841","city":"Hampstead","state":"NH","lat":42.882,"long":-71.1758},{"zip":"03842","city":"Hampton","state":"NH","lat":42.9359,"long":-70.8243},{"zip":"03843","city":"Hampton","state":"NH","lat":43.0059,"long":-71.0132},{"zip":"03844","city":"Hampton Falls","state":"NH","lat":42.9263,"long":-70.8876},{"zip":"03848","city":"Kingston","state":"NH","lat":42.9133,"long":-71.0639},{"zip":"03854","city":"New Castle","state":"NH","lat":43.0681,"long":-70.7199},{"zip":"03856","city":"Newfields","state":"NH","lat":43.0374,"long":-70.9782},{"zip":"03857","city":"Newmarket","state":"NH","lat":43.0726,"long":-70.9553},{"zip":"03858","city":"Newton","state":"NH","lat":42.8678,"long":-71.042},{"zip":"03859","city":"Newton Junction","state":"NH","lat":42.8619,"long":-71.04},{"zip":"03862","city":"North Hampton","state":"NH","lat":42.9776,"long":-70.8267},{"zip":"03865","city":"Plaistow","state":"NH","lat":42.8356,"long":-71.0934},{"zip":"03870","city":"Rye","state":"NH","lat":43.0095,"long":-70.7652},{"zip":"03871","city":"Rye Beach","state":"NH","lat":42.9806,"long":-70.7719},{"zip":"03873","city":"Sandown","state":"NH","lat":42.9308,"long":-71.1861},{"zip":"03874","city":"Seabrook","state":"NH","lat":42.8854,"long":-70.8646},{"zip":"03885","city":"Stratham","state":"NH","lat":43.0194,"long":-70.8997},{"zip":"03815","city":"Center Strafford","state":"NH","lat":43.2629,"long":-71.1071},{"zip":"03820","city":"Dover","state":"NH","lat":43.1888,"long":-70.8868},{"zip":"03821","city":"Dover","state":"NH","lat":43.1979,"long":-70.8737},{"zip":"03822","city":"Dover","state":"NH","lat":43.1979,"long":-70.8737},{"zip":"03823","city":"Madbury","state":"NH","lat":43.1729,"long":-70.9412},{"zip":"03824","city":"Durham","state":"NH","lat":43.1174,"long":-70.9197},{"zip":"03825","city":"Barrington","state":"NH","lat":43.2027,"long":-71.0377},{"zip":"03835","city":"Farmington","state":"NH","lat":43.3884,"long":-71.0647},{"zip":"03839","city":"Rochester","state":"NH","lat":43.262,"long":-70.9837},{"zip":"03851","city":"Milton","state":"NH","lat":43.4229,"long":-71.0114},{"zip":"03852","city":"Milton Mills","state":"NH","lat":43.5025,"long":-70.9697},{"zip":"03855","city":"New Durham","state":"NH","lat":43.443,"long":-71.1408},{"zip":"03866","city":"Rochester","state":"NH","lat":43.3045,"long":-70.9756},{"zip":"03867","city":"Rochester","state":"NH","lat":43.3045,"long":-70.9756},{"zip":"03868","city":"Rochester","state":"NH","lat":43.32,"long":-70.9413},{"zip":"03869","city":"Rollinsford","state":"NH","lat":43.2269,"long":-70.8332},{"zip":"03878","city":"Somersworth","state":"NH","lat":43.2525,"long":-70.8756},{"zip":"03884","city":"Strafford","state":"NH","lat":43.2506,"long":-71.1625},{"zip":"03887","city":"Union","state":"NH","lat":43.4861,"long":-71.063},{"zip":"03280","city":"Washington","state":"NH","lat":43.1747,"long":-72.0824},{"zip":"03284","city":"Springfield","state":"NH","lat":43.4938,"long":-72.047},{"zip":"03601","city":"Acworth","state":"NH","lat":43.196,"long":-72.3001},{"zip":"03603","city":"Charlestown","state":"NH","lat":43.2573,"long":-72.4064},{"zip":"03605","city":"Lempster","state":"NH","lat":43.2136,"long":-72.1968},{"zip":"03607","city":"South Acworth","state":"NH","lat":43.1956,"long":-72.2686},{"zip":"03743","city":"Claremont","state":"NH","lat":43.3679,"long":-72.3422},{"zip":"03745","city":"Cornish","state":"NH","lat":43.4963,"long":-72.3394},{"zip":"03746","city":"Cornish Flat","state":"NH","lat":43.4973,"long":-72.2795},{"zip":"03751","city":"Georges Mills","state":"NH","lat":43.4317,"long":-72.0673},{"zip":"03752","city":"Goshen","state":"NH","lat":43.3026,"long":-72.1241},{"zip":"03753","city":"Grantham","state":"NH","lat":43.5103,"long":-72.1334},{"zip":"03754","city":"Guild","state":"NH","lat":43.3767,"long":-72.1381},{"zip":"03770","city":"Meriden","state":"NH","lat":43.5299,"long":-72.2756},{"zip":"03773","city":"Newport","state":"NH","lat":43.3532,"long":-72.1838},{"zip":"03781","city":"Plainfield","state":"NH","lat":43.5519,"long":-72.2704},{"zip":"03782","city":"Sunapee","state":"NH","lat":43.3868,"long":-72.095}]
