[{"zip":"03031","city":"Amherst","state":"NH","lat":42.8569,"long":-71.6075},{"zip":"03033","city":"Brookline","state":"NH","lat":42.7384,"long":-71.6663},{"zip":"03043","city":"Francestown","state":"NH","lat":42.992,"long":-71.8113},{"zip":"03045","city":"Goffstown","state":"NH","lat":43.0201,"long":-71.5697},{"zip":"03047","city":"Greenfield","state":"NH","lat":42.9493,"long":-71.8728},{"zip":"03048","city":"Greenville","state":"NH","lat":42.7482,"long":-71.7619},{"zip":"03049","city":"Hollis","state":"NH","lat":42.7485,"long":-71.5772},{"zip":"03051","city":"Hudson","state":"NH","lat":42.769,"long":-71.4121},{"zip":"03052","city":"Litchfield","state":"NH","lat":42.843,"long":-71.455},{"zip":"03054","city":"Merrimack","state":"NH","lat":42.8667,"long":-71.5128},{"zip":"03055","city":"Milford","state":"NH","lat":42.8285,"long":-71.6606},{"zip":"03057","city":"Mont Vernon","state":"NH","lat":42.8976,"long":-71.6762},{"zip":"03060","city":"Nashua","state":"NH","lat":42.7564,"long":-71.4667},{"zip":"03061","city":"Nashua","state":"NH","lat":42.7654,"long":-71.4676},{"zip":"03062","city":"Nashua","state":"NH","lat":42.7235,"long":-71.4893},{"zip":"03063","city":"Nashua","state":"NH","lat":42.7717,"long":-71.5132},{"zip":"03064","city":"Nashua","state":"NH","lat":42.779,"long":-71.4748},{"zip":"03070","city":"New Boston","state":"NH","lat":42.9722,"long":-71.6864},{"zip":"03071","city":"New Ipswich","state":"NH","lat":42.7511,"long":-71.8703},{"zip":"03076","city":"Pelham","state":"NH","lat":42.7288,"long":-71.3046},{"zip":"03082","city":"Lyndeborough","state":"NH","lat":42.8954,"long":-71.7744},{"zip":"03084","city":"Temple","state":"NH","lat":42.82,"long":-71.8523},{"zip":"03086","city":"Wilton","state":"NH","lat":42.8368,"long":-71.7541},{"zip":"03046","city":"Dunbarton","state":"NH","lat":43.1025,"long":-71.6169},{"zip":"03032","city":"Auburn","state":"NH","lat":42.9925,"long":-71.3449},{"zip":"03034","city":"Candia","state":"NH","lat":43.0585,"long":-71.3049},{"zip":"03036","city":"Chester","state":"NH","lat":42.9678,"long":-71.245},{"zip":"03037","city":"Deerfield","state":"NH","lat":43.1378,"long":-71.2513},{"zip":"03038","city":"Derry","state":"NH","lat":42.8874,"long":-71.302},{"zip":"03040","city":"East Candia","state":"NH","lat":43.0481,"long":-71.2487},{"zip":"03041","city":"East Derry","state":"NH","lat":42.8945,"long":-71.2912},{"zip":"03042","city":"Epping","state":"NH","lat":43.0411,"long":-71.0764},{"zip":"03044","city":"Fremont","state":"NH","lat":42.984,"long":-71.1218},{"zip":"03053","city":"Londonderry","state":"NH","lat":42.8656,"long":-71.3772},{"zip":"03073","city":"North Salem","state":"NH","lat":42.837,"long":-71.2206},{"zip":"03077","city":"Raymond","state":"NH","lat":43.0325,"long":-71.1912},{"zip":"03079","city":"Salem","state":"NH","lat":42.7846,"long":-71.2176},{"zip":"03087","city":"Windham","state":"NH","lat":42.8051,"long":-71.3067}]
