[{"zip":"03431","city":"Keene","state":"NH","lat":42.9627,"long":-72.2955},{"zip":"03435","city":"Keene","state":"NH","lat":42.9337,"long":-72.2781},{"zip":"03441","city":"Ashuelot","state":"NH","lat":42.7851,"long":-72.4349},{"zip":"03443","city":"Chesterfield","state":"NH","lat":42.8839,"long":-72.4548},{"zip":"03444","city":"Dublin","state":"NH","lat":42.8972,"long":-72.0505},{"zip":"03445","city":"Sullivan","state":"NH","lat":42.9982,"long":-72.2019},{"zip":"03446","city":"Swanzey","state":"NH","lat":42.8411,"long":-72.3301},{"zip":"03447","city":"Fitzwilliam","state":"NH","lat":42.7611,"long":-72.145},{"zip":"03448","city":"Gilsum","state":"NH","lat":43.0399,"long":-72.2719},{"zip":"03450","city":"Harrisville","state":"NH","lat":42.9399,"long":-72.0972},{"zip":"03451","city":"Hinsdale","state":"NH","lat":42.8027,"long":-72.5015},{"zip":"03452","city":"Jaffrey","state":"NH","lat":42.8178,"long":-72.0275},{"zip":"03455","city":"Marlborough","state":"NH","lat":42.8988,"long":-72.2013},{"zip":"03456","city":"Marlow","state":"NH","lat":43.1326,"long":-72.2109},{"zip":"03457","city":"Nelson","state":"NH","lat":42.9906,"long":-72.1309},{"zip":"03461","city":"Rindge","state":"NH","lat":42.7544,"long":-72.019},{"zip":"03462","city":"Spofford","state":"NH","lat":42.912,"long":-72.4103},{"zip":"03464","city":"Stoddard","state":"NH","lat":43.0739,"long":-72.1088},{"zip":"03465","city":"Troy","state":"NH","lat":42.827,"long":-72.1848},{"zip":"03466","city":"West Chesterfield","state":"NH","lat":42.8956,"long":-72.5097},{"zip":"03467","city":"Westmoreland","state":"NH","lat":42.969,"long":-72.4358},{"zip":"03469","city":"West Swanzey","state":"NH","lat":42.8734,"long":-72.3151},{"zip":"03470","city":"Winchester","state":"NH","lat":42.7788,"long":-72.344},{"zip":"03440","city":"Antrim","state":"NH","lat":43.0595,"long":-71.9387},{"zip":"03442","city":"Bennington","state":"NH","lat":43.0103,"long":-71.9153},{"zip":"03449","city":"Hancock","state":"NH","lat":42.9768,"long":-71.9819},{"zip":"03458","city":"Peterborough","state":"NH","lat":42.8856,"long":-71.947},{"zip":"03468","city":"West Peterborough","state":"NH","lat":42.8908,"long":-71.9334}]
