[{"zip":"03570","city":"Berlin","state":"NH","lat":44.4811,"long":-71.1892},{"zip":"03575","city":"Bretton Woods","state":"NH","lat":44.2581,"long":-71.4412},{"zip":"03576","city":"Colebrook","state":"NH","lat":44.9078,"long":-71.4793},{"zip":"03579","city":"Errol","state":"NH","lat":44.8003,"long":-71.1436},{"zip":"03581","city":"Gorham","state":"NH","lat":44.4048,"long":-71.1548},{"zip":"03582","city":"Groveton","state":"NH","lat":44.5984,"long":-71.5064},{"zip":"03583","city":"Jefferson","state":"NH","lat":44.3999,"long":-71.4518},{"zip":"03584","city":"Lancaster","state":"NH","lat":44.4921,"long":-71.5591},{"zip":"03588","city":"Milan","state":"NH","lat":44.587,"long":-71.181},{"zip":"03589","city":"Mount Washington","state":"NH","lat":44.6956,"long":-71.3874},{"zip":"03590","city":"North Stratford","state":"NH","lat":44.7149,"long":-71.5644},{"zip":"03592","city":"Pittsburg","state":"NH","lat":45.0866,"long":-71.3636},{"zip":"03593","city":"Randolph","state":"NH","lat":44.4753,"long":-71.1777},{"zip":"03595","city":"Twin Mountain","state":"NH","lat":44.2689,"long":-71.5471},{"zip":"03597","city":"West Stewartstown","state":"NH","lat":44.6956,"long":-71.3874},{"zip":"03598","city":"Whitefield","state":"NH","lat":44.3681,"long":-71.6035},{"zip":"03561","city":"Littleton","state":"NH","lat":44.3112,"long":-71.7768},{"zip":"03574","city":"Bethlehem","state":"NH","lat":44.2808,"long":-71.6829},{"zip":"03580","city":"Franconia","state":"NH","lat":44.2053,"long":-71.7518},{"zip":"03585","city":"Lisbon","state":"NH","lat":44.2148,"long":-71.8966},{"zip":"03586","city":"Sugar Hill","state":"NH","lat":44.2203,"long":-71.7964}]
