[{"zip":"03740","city":"Bath","state":"NH","lat":44.1808,"long":-71.9828},{"zip":"03741","city":"Canaan","state":"NH","lat":43.6601,"long":-72.0297},{"zip":"03748","city":"Enfield","state":"NH","lat":43.6256,"long":-72.127},{"zip":"03749","city":"Enfield Center","state":"NH","lat":43.5796,"long":-72.0854},{"zip":"03750","city":"Etna","state":"NH","lat":43.7113,"long":-72.2125},{"zip":"03755","city":"Hanover","state":"NH","lat":43.7045,"long":-72.285},{"zip":"03756","city":"Lebanon","state":"NH","lat":43.6423,"long":-72.2518},{"zip":"03765","city":"Haverhill","state":"NH","lat":44.0394,"long":-72.0573},{"zip":"03766","city":"Lebanon","state":"NH","lat":43.6447,"long":-72.2428},{"zip":"03768","city":"Lyme","state":"NH","lat":43.7913,"long":-72.162},{"zip":"03769","city":"Lyme Center","state":"NH","lat":43.7863,"long":-72.1205},{"zip":"03771","city":"Monroe","state":"NH","lat":44.2734,"long":-72.025},{"zip":"03774","city":"North Haverhill","state":"NH","lat":44.0978,"long":-72.0191},{"zip":"03777","city":"Orford","state":"NH","lat":43.8941,"long":-72.0978},{"zip":"03779","city":"Piermont","state":"NH","lat":43.9906,"long":-72.0813},{"zip":"03780","city":"Pike","state":"NH","lat":44.0255,"long":-72.0096},{"zip":"03784","city":"West Lebanon","state":"NH","lat":43.644,"long":-72.3007},{"zip":"03785","city":"Woodsville","state":"NH","lat":44.1385,"long":-71.9892},{"zip":"03743","city":"Claremont","state":"NH","lat":43.3679,"long":-72.3422},{"zip":"03745","city":"Cornish","state":"NH","lat":43.4963,"long":-72.3394},{"zip":"03746","city":"Cornish Flat","state":"NH","lat":43.4973,"long":-72.2795},{"zip":"03751","city":"Georges Mills","state":"NH","lat":43.4317,"long":-72.0673},{"zip":"03752","city":"Goshen","state":"NH","lat":43.3026,"long":-72.1241},{"zip":"03753","city":"Grantham","state":"NH","lat":43.5103,"long":-72.1334},{"zip":"03754","city":"Guild","state":"NH","lat":43.3767,"long":-72.1381},{"zip":"03770","city":"Meriden","state":"NH","lat":43.5299,"long":-72.2756},{"zip":"03773","city":"Newport","state":"NH","lat":43.3532,"long":-72.1838},{"zip":"03781","city":"Plainfield","state":"NH","lat":43.5519,"long":-72.2704},{"zip":"03782","city":"Sunapee","state":"NH","lat":43.3868,"long":-72.095}]
