[{"zip":"03809","city":"Alton","state":"NH","lat":43.463,"long":-71.2297},{"zip":"03810","city":"Alton Bay","state":"NH","lat":43.4845,"long":-71.2489},{"zip":"03837","city":"Gilmanton Iron Works","state":"NH","lat":43.4466,"long":-71.2995},{"zip":"03812","city":"Bartlett","state":"NH","lat":44.0802,"long":-71.292},{"zip":"03813","city":"Center Conway","state":"NH","lat":43.9878,"long":-71.0607},{"zip":"03814","city":"Center Ossipee","state":"NH","lat":43.7682,"long":-71.1349},{"zip":"03816","city":"Center Tuftonboro","state":"NH","lat":43.6849,"long":-71.2551},{"zip":"03817","city":"Chocorua","state":"NH","lat":43.8909,"long":-71.2407},{"zip":"03818","city":"Conway","state":"NH","lat":43.9742,"long":-71.1503},{"zip":"03830","city":"East Wakefield","state":"NH","lat":43.6142,"long":-71.0051},{"zip":"03832","city":"Eaton Center","state":"NH","lat":43.9092,"long":-71.0837},{"zip":"03836","city":"Freedom","state":"NH","lat":43.8172,"long":-71.0628},{"zip":"03838","city":"Glen","state":"NH","lat":44.1018,"long":-71.1925},{"zip":"03845","city":"Intervale","state":"NH","lat":44.0955,"long":-71.1194},{"zip":"03846","city":"Jackson","state":"NH","lat":44.167,"long":-71.1878},{"zip":"03847","city":"Kearsarge","state":"NH","lat":43.8839,"long":-71.2577},{"zip":"03849","city":"Madison","state":"NH","lat":43.9152,"long":-71.1254},{"zip":"03850","city":"Melvin Village","state":"NH","lat":43.7077,"long":-71.3017},{"zip":"03853","city":"Mirror Lake","state":"NH","lat":43.6366,"long":-71.2729},{"zip":"03860","city":"North Conway","state":"NH","lat":44.0336,"long":-71.1238},{"zip":"03861","city":"Lee","state":"NH","lat":43.1192,"long":-70.9969},{"zip":"03864","city":"Ossipee","state":"NH","lat":43.6945,"long":-71.1129},{"zip":"03872","city":"Sanbornville","state":"NH","lat":43.5513,"long":-71.02},{"zip":"03875","city":"Silver Lake","state":"NH","lat":43.879,"long":-71.1905},{"zip":"03882","city":"Effingham","state":"NH","lat":43.7012,"long":-70.9834},{"zip":"03883","city":"South Tamworth","state":"NH","lat":43.8077,"long":-71.308},{"zip":"03886","city":"Tamworth","state":"NH","lat":43.862,"long":-71.2645},{"zip":"03890","city":"West Ossipee","state":"NH","lat":43.8118,"long":-71.1946},{"zip":"03894","city":"Wolfeboro","state":"NH","lat":43.595,"long":-71.1908},{"zip":"03896","city":"Wolfeboro Falls","state":"NH","lat":43.5892,"long":-71.2189},{"zip":"03897","city":"Wonalancet","state":"NH","lat":43.9073,"long":-71.3506},{"zip":"03801","city":"Portsmouth","state":"NH","lat":43.0729,"long":-70.8052},{"zip":"03802","city":"Portsmouth","state":"NH","lat":43.0718,"long":-70.7626},{"zip":"03803","city":"Portsmouth","state":"NH","lat":43.0718,"long":-70.7626},{"zip":"03804","city":"Portsmouth","state":"NH","lat":43.0718,"long":-70.7626},{"zip":"03811","city":"Atkinson","state":"NH","lat":42.837,"long":-71.1603},{"zip":"03819","city":"Danville","state":"NH","lat":42.9234,"long":-71.121},{"zip":"03826","city":"East Hampstead","state":"NH","lat":42.8877,"long":-71.128},{"zip":"03827","city":"East Kingston","state":"NH","lat":42.907,"long":-70.9876},{"zip":"03833","city":"Exeter","state":"NH","lat":42.9815,"long":-70.9478},{"zip":"03840","city":"Greenland","state":"NH","lat":43.0353,"long":-70.8475},{"zip":"03841","city":"Hampstead","state":"NH","lat":42.882,"long":-71.1758},{"zip":"03842","city":"Hampton","state":"NH","lat":42.9359,"long":-70.8243},{"zip":"03843","city":"Hampton","state":"NH","lat":43.0059,"long":-71.0132},{"zip":"03844","city":"Hampton Falls","state":"NH","lat":42.9263,"long":-70.8876},{"zip":"03848","city":"Kingston","state":"NH","lat":42.9133,"long":-71.0639},{"zip":"03854","city":"New Castle","state":"NH","lat":43.0681,"long":-70.7199},{"zip":"03856","city":"Newfields","state":"NH","lat":43.0374,"long":-70.9782},{"zip":"03857","city":"Newmarket","state":"NH","lat":43.0726,"long":-70.9553},{"zip":"03858","city":"Newton","state":"NH","lat":42.8678,"long":-71.042},{"zip":"03859","city":"Newton Junction","state":"NH","lat":42.8619,"long":-71.04},{"zip":"03862","city":"North Hampton","state":"NH","lat":42.9776,"long":-70.8267},{"zip":"03865","city":"Plaistow","state":"NH","lat":42.8356,"long":-71.0934},{"zip":"03870","city":"Rye","state":"NH","lat":43.0095,"long":-70.7652},{"zip":"03871","city":"Rye Beach","state":"NH","lat":42.9806,"long":-70.7719},{"zip":"03873","city":"Sandown","state":"NH","lat":42.9308,"long":-71.1861},{"zip":"03874","city":"Seabrook","state":"NH","lat":42.8854,"long":-70.8646},{"zip":"03885","city":"Stratham","state":"NH","lat":43.0194,"long":-70.8997},{"zip":"03815","city":"Center Strafford","state":"NH","lat":43.2629,"long":-71.1071},{"zip":"03820","city":"Dover","state":"NH","lat":43.1888,"long":-70.8868},{"zip":"03821","city":"Dover","state":"NH","lat":43.1979,"long":-70.8737},{"zip":"03822","city":"Dover","state":"NH","lat":43.1979,"long":-70.8737},{"zip":"03823","city":"Madbury","state":"NH","lat":43.1729,"long":-70.9412},{"zip":"03824","city":"Durham","state":"NH","lat":43.1174,"long":-70.9197},{"zip":"03825","city":"Barrington","state":"NH","lat":43.2027,"long":-71.0377},{"zip":"03835","city":"Farmington","state":"NH","lat":43.3884,"long":-71.0647},{"zip":"03839","city":"Rochester","state":"NH","lat":43.262,"long":-70.9837},{"zip":"03851","city":"Milton","state":"NH","lat":43.4229,"long":-71.0114},{"zip":"03852","city":"Milton Mills","state":"NH","lat":43.5025,"long":-70.9697},{"zip":"03855","city":"New Durham","state":"NH","lat":43.443,"long":-71.1408},{"zip":"03866","city":"Rochester","state":"NH","lat":43.3045,"long":-70.9756},{"zip":"03867","city":"Rochester","state":"NH","lat":43.3045,"long":-70.9756},{"zip":"03868","city":"Rochester","state":"NH","lat":43.32,"long":-70.9413},{"zip":"03869","city":"Rollinsford","state":"NH","lat":43.2269,"long":-70.8332},{"zip":"03878","city":"Somersworth","state":"NH","lat":43.2525,"long":-70.8756},{"zip":"03884","city":"Strafford","state":"NH","lat":43.2506,"long":-71.1625},{"zip":"03887","city":"Union","state":"NH","lat":43.4861,"long":-71.063}]
