[{"zip":"04210","city":"Auburn","state":"ME","lat":44.0948,"long":-70.239},{"zip":"04211","city":"Auburn","state":"ME","lat":44.197,"long":-70.2395},{"zip":"04212","city":"Auburn","state":"ME","lat":44.197,"long":-70.2395},{"zip":"04222","city":"Durham","state":"ME","lat":43.9684,"long":-70.1846},{"zip":"04223","city":"Danville","state":"ME","lat":44.0239,"long":-70.2857},{"zip":"04228","city":"East Livermore","state":"ME","lat":44.3994,"long":-70.1303},{"zip":"04230","city":"East Poland","state":"ME","lat":44.0627,"long":-70.327},{"zip":"04236","city":"Greene","state":"ME","lat":44.1891,"long":-70.1455},{"zip":"04240","city":"Lewiston","state":"ME","lat":44.0985,"long":-70.1916},{"zip":"04241","city":"Lewiston","state":"ME","lat":44.197,"long":-70.2395},{"zip":"04243","city":"Lewiston","state":"ME","lat":44.197,"long":-70.2395},{"zip":"04250","city":"Lisbon","state":"ME","lat":44.0255,"long":-70.1139},{"zip":"04252","city":"Lisbon Falls","state":"ME","lat":43.9978,"long":-70.0734},{"zip":"04253","city":"Livermore","state":"ME","lat":44.4079,"long":-70.215},{"zip":"04254","city":"Livermore Falls","state":"ME","lat":44.4325,"long":-70.1427},{"zip":"04256","city":"Mechanic Falls","state":"ME","lat":44.1117,"long":-70.3917},{"zip":"04258","city":"Minot","state":"ME","lat":44.1461,"long":-70.3399},{"zip":"04263","city":"Leeds","state":"ME","lat":44.2834,"long":-70.1253},{"zip":"04266","city":"North Turner","state":"ME","lat":44.358,"long":-70.2558},{"zip":"04274","city":"Poland","state":"ME","lat":44.0474,"long":-70.3899},{"zip":"04280","city":"Sabattus","state":"ME","lat":44.1133,"long":-70.0748},{"zip":"04282","city":"Turner","state":"ME","lat":44.2557,"long":-70.2494},{"zip":"04288","city":"West Minot","state":"ME","lat":44.1712,"long":-70.3659},{"zip":"04291","city":"West Poland","state":"ME","lat":44.0409,"long":-70.453},{"zip":"04471","city":"Orient","state":"ME","lat":45.8911,"long":-67.8471},{"zip":"04497","city":"Wytopitlock","state":"ME","lat":45.6645,"long":-68.1055},{"zip":"04730","city":"Houlton","state":"ME","lat":46.1189,"long":-67.863},{"zip":"04732","city":"Ashland","state":"ME","lat":46.6184,"long":-68.3876},{"zip":"04733","city":"Benedicta","state":"ME","lat":45.8125,"long":-68.4089},{"zip":"04734","city":"Blaine","state":"ME","lat":46.5048,"long":-67.8686},{"zip":"04735","city":"Bridgewater","state":"ME","lat":46.4222,"long":-67.8415},{"zip":"04736","city":"Caribou","state":"ME","lat":46.8706,"long":-68.0204},{"zip":"04737","city":"Clayton Lake","state":"ME","lat":46.6109,"long":-69.5223},{"zip":"04738","city":"Crouseville","state":"ME","lat":46.755,"long":-68.0964},{"zip":"04739","city":"Eagle Lake","state":"ME","lat":47.01,"long":-68.691},{"zip":"04740","city":"Easton","state":"ME","lat":46.6357,"long":-67.9018},{"zip":"04741","city":"Estcourt Station","state":"ME","lat":47.4589,"long":-69.2243},{"zip":"04742","city":"Fort Fairfield","state":"ME","lat":46.7623,"long":-67.8402},{"zip":"04743","city":"Fort Kent","state":"ME","lat":47.2587,"long":-68.5895},{"zip":"04744","city":"Fort Kent Mills","state":"ME","lat":47.2389,"long":-68.5839},{"zip":"04745","city":"Frenchville","state":"ME","lat":47.2826,"long":-68.3917},{"zip":"04746","city":"Grand Isle","state":"ME","lat":47.3044,"long":-68.1542},{"zip":"04747","city":"Island Falls","state":"ME","lat":46.0169,"long":-68.2667},{"zip":"04750","city":"Limestone","state":"ME","lat":46.9248,"long":-67.8451},{"zip":"04751","city":"Limestone","state":"ME","lat":46.8929,"long":-67.9643},{"zip":"04756","city":"Madawaska","state":"ME","lat":47.3294,"long":-68.3328},{"zip":"04757","city":"Mapleton","state":"ME","lat":46.6746,"long":-68.1536},{"zip":"04758","city":"Mars Hill","state":"ME","lat":46.5223,"long":-67.863},{"zip":"04760","city":"Monticello","state":"ME","lat":46.3007,"long":-67.8414},{"zip":"04761","city":"New Limerick","state":"ME","lat":46.1004,"long":-68.0034},{"zip":"04762","city":"New Sweden","state":"ME","lat":46.9559,"long":-68.1154},{"zip":"04763","city":"Oakfield","state":"ME","lat":46.1088,"long":-68.1298},{"zip":"04764","city":"Oxbow","state":"ME","lat":46.402,"long":-68.5218},{"zip":"04766","city":"Perham","state":"ME","lat":46.8816,"long":-68.2391},{"zip":"04768","city":"Portage","state":"ME","lat":46.7753,"long":-68.4877},{"zip":"04769","city":"Presque Isle","state":"ME","lat":46.6842,"long":-68.0118},{"zip":"04772","city":"Saint Agatha","state":"ME","lat":47.2387,"long":-68.3232},{"zip":"04773","city":"Saint David","state":"ME","lat":47.3343,"long":-68.2314},{"zip":"04774","city":"Saint Francis","state":"ME","lat":47.1407,"long":-68.9503},{"zip":"04775","city":"Sheridan","state":"ME","lat":46.6573,"long":-68.405},{"zip":"04776","city":"Sherman","state":"ME","lat":45.8731,"long":-68.3847},{"zip":"04779","city":"Sinclair","state":"ME","lat":47.1222,"long":-68.323},{"zip":"04780","city":"Smyrna Mills","state":"ME","lat":46.1464,"long":-68.2064},{"zip":"04781","city":"Wallagrass","state":"ME","lat":47.1295,"long":-68.5973},{"zip":"04783","city":"Stockholm","state":"ME","lat":47.0423,"long":-68.1395},{"zip":"04785","city":"Van Buren","state":"ME","lat":47.1589,"long":-67.9459},{"zip":"04786","city":"Washburn","state":"ME","lat":46.7883,"long":-68.1338},{"zip":"04787","city":"Westfield","state":"ME","lat":46.5945,"long":-67.9302},{"zip":"04003","city":"Bailey Island","state":"ME","lat":43.7341,"long":-69.9952},{"zip":"04009","city":"Bridgton","state":"ME","lat":44.052,"long":-70.7241},{"zip":"04011","city":"Brunswick","state":"ME","lat":43.8973,"long":-69.9779},{"zip":"04013","city":"Bustins Island","state":"ME","lat":43.799,"long":-70.0698},{"zip":"04015","city":"Casco","state":"ME","lat":43.9596,"long":-70.526},{"zip":"04017","city":"Chebeague Island","state":"ME","lat":43.7354,"long":-70.1169},{"zip":"04019","city":"Cliff Island","state":"ME","lat":43.6955,"long":-70.1071},{"zip":"04021","city":"Cumberland Center","state":"ME","lat":43.7974,"long":-70.2649},{"zip":"04024","city":"East Baldwin","state":"ME","lat":43.8646,"long":-70.6922},{"zip":"04029","city":"Sebago","state":"ME","lat":43.9017,"long":-70.6878},{"zip":"04032","city":"Freeport","state":"ME","lat":43.857,"long":-70.1031},{"zip":"04033","city":"Freeport","state":"ME","lat":43.857,"long":-70.1031},{"zip":"04034","city":"Freeport","state":"ME","lat":43.857,"long":-70.1031},{"zip":"04038","city":"Gorham","state":"ME","lat":43.6843,"long":-70.468},{"zip":"04039","city":"Gray","state":"ME","lat":43.8942,"long":-70.3429},{"zip":"04040","city":"Harrison","state":"ME","lat":44.1071,"long":-70.6539},{"zip":"04050","city":"Long Island","state":"ME","lat":43.692,"long":-70.1551},{"zip":"04055","city":"Naples","state":"ME","lat":43.9681,"long":-70.5988},{"zip":"04057","city":"North Bridgton","state":"ME","lat":44.0987,"long":-70.6987},{"zip":"04062","city":"Windham","state":"ME","lat":43.7958,"long":-70.4143},{"zip":"04066","city":"Orrs Island","state":"ME","lat":43.7727,"long":-69.9668},{"zip":"04069","city":"Pownal","state":"ME","lat":43.89,"long":-70.1955},{"zip":"04070","city":"Scarborough","state":"ME","lat":43.577,"long":-70.2736},{"zip":"04071","city":"Raymond","state":"ME","lat":43.9219,"long":-70.4498},{"zip":"04074","city":"Scarborough","state":"ME","lat":43.5835,"long":-70.3457},{"zip":"04077","city":"South Casco","state":"ME","lat":43.91,"long":-70.5245},{"zip":"04078","city":"South Freeport","state":"ME","lat":43.8208,"long":-70.1208},{"zip":"04079","city":"Harpswell","state":"ME","lat":43.7811,"long":-69.9955},{"zip":"04082","city":"South Windham","state":"ME","lat":43.7362,"long":-70.4237},{"zip":"04084","city":"Standish","state":"ME","lat":43.8142,"long":-70.4807},{"zip":"04085","city":"Steep Falls","state":"ME","lat":43.7719,"long":-70.6396},{"zip":"04091","city":"West Baldwin","state":"ME","lat":43.8299,"long":-70.749},{"zip":"04092","city":"Westbrook","state":"ME","lat":43.6843,"long":-70.358},{"zip":"04096","city":"Yarmouth","state":"ME","lat":43.8009,"long":-70.175},{"zip":"04097","city":"North Yarmouth","state":"ME","lat":43.838,"long":-70.2001},{"zip":"04098","city":"Westbrook","state":"ME","lat":43.677,"long":-70.3712},{"zip":"04101","city":"Portland","state":"ME","lat":43.6606,"long":-70.2589},{"zip":"04102","city":"Portland","state":"ME","lat":43.6602,"long":-70.2898},{"zip":"04103","city":"Portland","state":"ME","lat":43.6876,"long":-70.2876},{"zip":"04104","city":"Portland","state":"ME","lat":43.6615,"long":-70.2553},{"zip":"04105","city":"Falmouth","state":"ME","lat":43.734,"long":-70.2625},{"zip":"04106","city":"South Portland","state":"ME","lat":43.6318,"long":-70.2709},{"zip":"04107","city":"Cape Elizabeth","state":"ME","lat":43.6017,"long":-70.2301},{"zip":"04108","city":"Peaks Island","state":"ME","lat":43.6589,"long":-70.194},{"zip":"04109","city":"Portland","state":"ME","lat":43.6783,"long":-70.1987},{"zip":"04110","city":"Cumberland Foreside","state":"ME","lat":43.759,"long":-70.1993},{"zip":"04112","city":"Portland","state":"ME","lat":43.6615,"long":-70.2553},{"zip":"04116","city":"South Portland","state":"ME","lat":43.6415,"long":-70.2409},{"zip":"04122","city":"Portland","state":"ME","lat":43.6615,"long":-70.2553},{"zip":"04123","city":"Portland","state":"ME","lat":43.6615,"long":-70.2553},{"zip":"04124","city":"Portland","state":"ME","lat":43.6615,"long":-70.2553},{"zip":"04260","city":"New Gloucester","state":"ME","lat":43.9608,"long":-70.2974},{"zip":"04225","city":"Dryden","state":"ME","lat":44.6027,"long":-70.2265},{"zip":"04227","city":"East Dixfield","state":"ME","lat":44.5791,"long":-70.3263},{"zip":"04234","city":"East Wilton","state":"ME","lat":44.6159,"long":-70.1928},{"zip":"04239","city":"Jay","state":"ME","lat":44.516,"long":-70.2099},{"zip":"04262","city":"North Jay","state":"ME","lat":44.5473,"long":-70.2381},{"zip":"04285","city":"Weld","state":"ME","lat":44.7016,"long":-70.4249},{"zip":"04294","city":"Wilton","state":"ME","lat":44.5928,"long":-70.2281},{"zip":"04936","city":"Eustis","state":"ME","lat":45.3356,"long":-70.6283},{"zip":"04938","city":"Farmington","state":"ME","lat":44.6653,"long":-70.1329},{"zip":"04940","city":"Farmington Falls","state":"ME","lat":44.6226,"long":-70.0752},{"zip":"04947","city":"Kingfield","state":"ME","lat":44.9854,"long":-70.1832},{"zip":"04955","city":"New Sharon","state":"ME","lat":44.6458,"long":-70.0139},{"zip":"04956","city":"New Vineyard","state":"ME","lat":44.7967,"long":-70.122},{"zip":"04964","city":"Oquossoc","state":"ME","lat":44.9664,"long":-70.7737},{"zip":"04966","city":"Phillips","state":"ME","lat":44.8375,"long":-70.3601},{"zip":"04970","city":"Rangeley","state":"ME","lat":44.9631,"long":-70.6658},{"zip":"04982","city":"Stratton","state":"ME","lat":45.1116,"long":-70.423},{"zip":"04983","city":"Strong","state":"ME","lat":44.8224,"long":-70.2221},{"zip":"04984","city":"Temple","state":"ME","lat":44.6954,"long":-70.2426},{"zip":"04992","city":"West Farmington","state":"ME","lat":44.6628,"long":-70.153},{"zip":"04408","city":"Aurora","state":"ME","lat":44.8861,"long":-68.2959},{"zip":"04416","city":"Bucksport","state":"ME","lat":44.6015,"long":-68.7768},{"zip":"04420","city":"Castine","state":"ME","lat":44.413,"long":-68.798},{"zip":"04421","city":"Castine","state":"ME","lat":44.4156,"long":-68.7929},{"zip":"04431","city":"East Orland","state":"ME","lat":44.5612,"long":-68.6647},{"zip":"04472","city":"Orland","state":"ME","lat":44.5458,"long":-68.7313},{"zip":"04476","city":"Penobscot","state":"ME","lat":44.4645,"long":-68.7111},{"zip":"04605","city":"Ellsworth","state":"ME","lat":44.5548,"long":-68.4121},{"zip":"04607","city":"Gouldsboro","state":"ME","lat":44.4731,"long":-68.0899},{"zip":"04609","city":"Bar Harbor","state":"ME","lat":44.3738,"long":-68.2448},{"zip":"04612","city":"Bernard","state":"ME","lat":44.2415,"long":-68.358},{"zip":"04613","city":"Birch Harbor","state":"ME","lat":44.3842,"long":-68.0317},{"zip":"04614","city":"Blue Hill","state":"ME","lat":44.4343,"long":-68.5885},{"zip":"04616","city":"Brooklin","state":"ME","lat":44.2541,"long":-68.5565},{"zip":"04617","city":"Brooksville","state":"ME","lat":44.3756,"long":-68.7313},{"zip":"04624","city":"Corea","state":"ME","lat":44.4053,"long":-67.985},{"zip":"04625","city":"Cranberry Isles","state":"ME","lat":44.2484,"long":-68.2603},{"zip":"04627","city":"Deer Isle","state":"ME","lat":44.234,"long":-68.6448},{"zip":"04629","city":"East Blue Hill","state":"ME","lat":44.4176,"long":-68.5225},{"zip":"04634","city":"Franklin","state":"ME","lat":44.6087,"long":-68.2417},{"zip":"04635","city":"Frenchboro","state":"ME","lat":44.1181,"long":-68.3625},{"zip":"04640","city":"Hancock","state":"ME","lat":44.5046,"long":-68.2402},{"zip":"04642","city":"Harborside","state":"ME","lat":44.334,"long":-68.8042},{"zip":"04644","city":"Hulls Cove","state":"ME","lat":44.6419,"long":-68.3915},{"zip":"04646","city":"Islesford","state":"ME","lat":44.262,"long":-68.2339},{"zip":"04650","city":"Little Deer Isle","state":"ME","lat":44.2847,"long":-68.7058},{"zip":"04653","city":"Bass Harbor","state":"ME","lat":44.2401,"long":-68.3439},{"zip":"04660","city":"Mount Desert","state":"ME","lat":44.3347,"long":-68.3087},{"zip":"04662","city":"Northeast Harbor","state":"ME","lat":44.2941,"long":-68.2849},{"zip":"04664","city":"Sullivan","state":"ME","lat":44.5458,"long":-68.1279},{"zip":"04669","city":"Prospect Harbor","state":"ME","lat":44.411,"long":-68.0141},{"zip":"04672","city":"Salsbury Cove","state":"ME","lat":44.4306,"long":-68.2836},{"zip":"04673","city":"Sargentville","state":"ME","lat":44.3136,"long":-68.6863},{"zip":"04674","city":"Seal Cove","state":"ME","lat":44.2859,"long":-68.3986},{"zip":"04675","city":"Seal Harbor","state":"ME","lat":44.299,"long":-68.2463},{"zip":"04676","city":"Sedgwick","state":"ME","lat":44.3355,"long":-68.6377},{"zip":"04677","city":"Sorrento","state":"ME","lat":44.4907,"long":-68.1787},{"zip":"04679","city":"Southwest Harbor","state":"ME","lat":44.2823,"long":-68.3265},{"zip":"04681","city":"Stonington","state":"ME","lat":44.1752,"long":-68.6746},{"zip":"04683","city":"Sunset","state":"ME","lat":44.2059,"long":-68.7047},{"zip":"04684","city":"Surry","state":"ME","lat":44.4883,"long":-68.5063},{"zip":"04685","city":"Swans Island","state":"ME","lat":44.1451,"long":-68.4517},{"zip":"04693","city":"Winter Harbor","state":"ME","lat":44.39,"long":-68.0843},{"zip":"04259","city":"Monmouth","state":"ME","lat":44.2208,"long":-70.0263},{"zip":"04265","city":"North Monmouth","state":"ME","lat":44.2753,"long":-70.0367},{"zip":"04284","city":"Wayne","state":"ME","lat":44.3493,"long":-70.0712},{"zip":"04330","city":"Augusta","state":"ME","lat":44.3232,"long":-69.7665},{"zip":"04332","city":"Augusta","state":"ME","lat":44.4141,"long":-69.7519},{"zip":"04333","city":"Augusta","state":"ME","lat":44.3106,"long":-69.7795},{"zip":"04336","city":"Augusta","state":"ME","lat":44.3157,"long":-69.818},{"zip":"04338","city":"Augusta","state":"ME","lat":44.3106,"long":-69.7795},{"zip":"04343","city":"East Winthrop","state":"ME","lat":44.4141,"long":-69.7519},{"zip":"04344","city":"Farmingdale","state":"ME","lat":44.2523,"long":-69.7913},{"zip":"04345","city":"Gardiner","state":"ME","lat":44.207,"long":-69.7858},{"zip":"04346","city":"Randolph","state":"ME","lat":44.2347,"long":-69.7506},{"zip":"04347","city":"Hallowell","state":"ME","lat":44.2864,"long":-69.8057},{"zip":"04349","city":"Kents Hill","state":"ME","lat":44.4383,"long":-70.0748},{"zip":"04350","city":"Litchfield","state":"ME","lat":44.1634,"long":-69.9581},{"zip":"04351","city":"Manchester","state":"ME","lat":44.358,"long":-69.867},{"zip":"04352","city":"Mount Vernon","state":"ME","lat":44.4993,"long":-69.9903},{"zip":"04355","city":"Readfield","state":"ME","lat":44.4032,"long":-69.9506},{"zip":"04358","city":"South China","state":"ME","lat":44.3953,"long":-69.5804},{"zip":"04359","city":"South Gardiner","state":"ME","lat":44.1801,"long":-69.7567},{"zip":"04360","city":"Vienna","state":"ME","lat":44.5475,"long":-70.003},{"zip":"04363","city":"Windsor","state":"ME","lat":44.3009,"long":-69.5806},{"zip":"04364","city":"Winthrop","state":"ME","lat":44.3229,"long":-69.9576},{"zip":"04901","city":"Waterville","state":"ME","lat":44.5543,"long":-69.6178},{"zip":"04903","city":"Waterville","state":"ME","lat":44.5492,"long":-69.7132},{"zip":"04910","city":"Albion","state":"ME","lat":44.5355,"long":-69.4683},{"zip":"04917","city":"Belgrade","state":"ME","lat":44.4688,"long":-69.8606},{"zip":"04918","city":"Belgrade Lakes","state":"ME","lat":44.5265,"long":-69.887},{"zip":"04926","city":"China Village","state":"ME","lat":44.8526,"long":-69.502},{"zip":"04927","city":"Clinton","state":"ME","lat":44.644,"long":-69.5284},{"zip":"04935","city":"East Vassalboro","state":"ME","lat":44.4478,"long":-69.6059},{"zip":"04962","city":"North Vassalboro","state":"ME","lat":44.4862,"long":-69.6225},{"zip":"04963","city":"Oakland","state":"ME","lat":44.5173,"long":-69.7401},{"zip":"04989","city":"Vassalboro","state":"ME","lat":44.4405,"long":-69.6519},{"zip":"04547","city":"Friendship","state":"ME","lat":43.9807,"long":-69.3349},{"zip":"04563","city":"Cushing","state":"ME","lat":43.9867,"long":-69.2721},{"zip":"04574","city":"Washington","state":"ME","lat":44.2693,"long":-69.3842},{"zip":"04645","city":"Isle Au Haut","state":"ME","lat":44.0561,"long":-68.6206},{"zip":"04841","city":"Rockland","state":"ME","lat":44.1123,"long":-69.1139},{"zip":"04843","city":"Camden","state":"ME","lat":44.2137,"long":-69.0767},{"zip":"04847","city":"Hope","state":"ME","lat":44.2589,"long":-69.1467},{"zip":"04851","city":"Matinicus","state":"ME","lat":43.8651,"long":-68.887},{"zip":"04853","city":"North Haven","state":"ME","lat":44.1436,"long":-68.8667},{"zip":"04854","city":"Owls Head","state":"ME","lat":44.0732,"long":-69.0894},{"zip":"04855","city":"Port Clyde","state":"ME","lat":43.9273,"long":-69.2528},{"zip":"04856","city":"Rockport","state":"ME","lat":44.1888,"long":-69.0901},{"zip":"04858","city":"South Thomaston","state":"ME","lat":44.0378,"long":-69.1359},{"zip":"04859","city":"Spruce Head","state":"ME","lat":44.0104,"long":-69.1707},{"zip":"04860","city":"Tenants Harbor","state":"ME","lat":43.9555,"long":-69.2315},{"zip":"04861","city":"Thomaston","state":"ME","lat":44.0846,"long":-69.1888},{"zip":"04862","city":"Union","state":"ME","lat":44.2619,"long":-69.2771},{"zip":"04863","city":"Vinalhaven","state":"ME","lat":44.0397,"long":-68.8368},{"zip":"04864","city":"Warren","state":"ME","lat":44.1271,"long":-69.2479},{"zip":"04865","city":"West Rockport","state":"ME","lat":44.1924,"long":-69.1211},{"zip":"04341","city":"Coopers Mills","state":"ME","lat":44.2588,"long":-69.551},{"zip":"04342","city":"Dresden","state":"ME","lat":44.0785,"long":-69.7457},{"zip":"04348","city":"Jefferson","state":"ME","lat":44.2204,"long":-69.5133},{"zip":"04353","city":"Whitefield","state":"ME","lat":44.1884,"long":-69.5751},{"zip":"04535","city":"Alna","state":"ME","lat":44.0878,"long":-69.6344},{"zip":"04537","city":"Boothbay","state":"ME","lat":43.8945,"long":-69.6273},{"zip":"04538","city":"Boothbay Harbor","state":"ME","lat":43.8518,"long":-69.6278},{"zip":"04539","city":"Bristol","state":"ME","lat":43.9519,"long":-69.4954},{"zip":"04541","city":"Chamberlain","state":"ME","lat":43.8843,"long":-69.4792},{"zip":"04543","city":"Damariscotta","state":"ME","lat":44.0293,"long":-69.5042},{"zip":"04544","city":"East Boothbay","state":"ME","lat":43.8262,"long":-69.5939},{"zip":"04549","city":"Isle Of Springs","state":"ME","lat":44.0213,"long":-69.5233},{"zip":"04551","city":"Bremen","state":"ME","lat":44.0104,"long":-69.4402},{"zip":"04553","city":"Newcastle","state":"ME","lat":44.0499,"long":-69.5331},{"zip":"04554","city":"New Harbor","state":"ME","lat":43.8605,"long":-69.5079},{"zip":"04555","city":"Nobleboro","state":"ME","lat":44.0943,"long":-69.4828},{"zip":"04556","city":"Edgecomb","state":"ME","lat":43.9792,"long":-69.6197},{"zip":"04558","city":"Pemaquid","state":"ME","lat":43.8924,"long":-69.5289},{"zip":"04564","city":"Round Pond","state":"ME","lat":43.925,"long":-69.4662},{"zip":"04568","city":"South Bristol","state":"ME","lat":43.8677,"long":-69.5614},{"zip":"04570","city":"Squirrel Island","state":"ME","lat":44.0213,"long":-69.5233},{"zip":"04571","city":"Trevett","state":"ME","lat":43.8826,"long":-69.6801},{"zip":"04572","city":"Waldoboro","state":"ME","lat":44.1046,"long":-69.3745},{"zip":"04573","city":"Walpole","state":"ME","lat":43.9462,"long":-69.5516},{"zip":"04575","city":"West Boothbay Harbor","state":"ME","lat":43.8545,"long":-69.6608},{"zip":"04576","city":"Southport","state":"ME","lat":43.8199,"long":-69.6626},{"zip":"04578","city":"Wiscasset","state":"ME","lat":44.0074,"long":-69.6826},{"zip":"04852","city":"Monhegan","state":"ME","lat":43.7642,"long":-69.3164},{"zip":"04010","city":"Brownfield","state":"ME","lat":43.9381,"long":-70.9087},{"zip":"04016","city":"Center Lovell","state":"ME","lat":44.181,"long":-70.8917},{"zip":"04022","city":"Denmark","state":"ME","lat":43.9755,"long":-70.7924},{"zip":"04037","city":"Fryeburg","state":"ME","lat":44.0313,"long":-70.9668},{"zip":"04041","city":"Hiram","state":"ME","lat":43.8622,"long":-70.8531},{"zip":"04051","city":"Lovell","state":"ME","lat":44.1614,"long":-70.93},{"zip":"04068","city":"Porter","state":"ME","lat":43.8262,"long":-70.9243},{"zip":"04088","city":"Waterford","state":"ME","lat":44.1931,"long":-70.7163},{"zip":"04216","city":"Andover","state":"ME","lat":44.6637,"long":-70.7967},{"zip":"04217","city":"Bethel","state":"ME","lat":44.4162,"long":-70.8037},{"zip":"04219","city":"Bryant Pond","state":"ME","lat":44.3957,"long":-70.6435},{"zip":"04220","city":"Buckfield","state":"ME","lat":44.2877,"long":-70.3683},{"zip":"04221","city":"Canton","state":"ME","lat":44.4602,"long":-70.2998},{"zip":"04224","city":"Dixfield","state":"ME","lat":44.5548,"long":-70.4241},{"zip":"04226","city":"East Andover","state":"ME","lat":44.6084,"long":-70.6993},{"zip":"04231","city":"Stoneham","state":"ME","lat":44.2641,"long":-70.8875},{"zip":"04237","city":"Hanover","state":"ME","lat":44.4959,"long":-70.7167},{"zip":"04238","city":"Hebron","state":"ME","lat":44.2021,"long":-70.3754},{"zip":"04255","city":"Greenwood","state":"ME","lat":44.3184,"long":-70.6509},{"zip":"04257","city":"Mexico","state":"ME","lat":44.5628,"long":-70.5358},{"zip":"04261","city":"Newry","state":"ME","lat":44.6895,"long":-71.0112},{"zip":"04267","city":"North Waterford","state":"ME","lat":44.2317,"long":-70.7687},{"zip":"04268","city":"Norway","state":"ME","lat":44.2127,"long":-70.5601},{"zip":"04270","city":"Oxford","state":"ME","lat":44.1118,"long":-70.5098},{"zip":"04271","city":"Paris","state":"ME","lat":44.2641,"long":-70.4985},{"zip":"04275","city":"Roxbury","state":"ME","lat":44.6566,"long":-70.6092},{"zip":"04276","city":"Rumford","state":"ME","lat":44.5434,"long":-70.5645},{"zip":"04281","city":"South Paris","state":"ME","lat":44.2167,"long":-70.5012},{"zip":"04286","city":"West Bethel","state":"ME","lat":44.4021,"long":-70.8601},{"zip":"04289","city":"West Paris","state":"ME","lat":44.3253,"long":-70.5732},{"zip":"04290","city":"Peru","state":"ME","lat":44.4944,"long":-70.4435},{"zip":"04292","city":"Sumner","state":"ME","lat":44.374,"long":-70.4469},{"zip":"04401","city":"Bangor","state":"ME","lat":44.8242,"long":-68.7918},{"zip":"04402","city":"Bangor","state":"ME","lat":44.8012,"long":-68.7778},{"zip":"04410","city":"Bradford","state":"ME","lat":45.0855,"long":-68.9235},{"zip":"04411","city":"Bradley","state":"ME","lat":44.9015,"long":-68.6263},{"zip":"04412","city":"Brewer","state":"ME","lat":44.7874,"long":-68.7539},{"zip":"04417","city":"Burlington","state":"ME","lat":45.2349,"long":-68.379},{"zip":"04418","city":"Greenbush","state":"ME","lat":45.0803,"long":-68.6509},{"zip":"04419","city":"Carmel","state":"ME","lat":44.8053,"long":-68.9942},{"zip":"04422","city":"Charleston","state":"ME","lat":45.067,"long":-69.0869},{"zip":"04427","city":"Corinth","state":"ME","lat":44.9805,"long":-69.0109},{"zip":"04428","city":"Eddington","state":"ME","lat":44.7917,"long":-68.5777},{"zip":"04429","city":"Holden","state":"ME","lat":44.7208,"long":-68.6165},{"zip":"04430","city":"East Millinocket","state":"ME","lat":45.63,"long":-68.5728},{"zip":"04434","city":"Etna","state":"ME","lat":44.7932,"long":-69.1322},{"zip":"04435","city":"Exeter","state":"ME","lat":44.9679,"long":-69.1079},{"zip":"04444","city":"Hampden","state":"ME","lat":44.7411,"long":-68.8731},{"zip":"04448","city":"Howland","state":"ME","lat":45.2456,"long":-68.6666},{"zip":"04449","city":"Hudson","state":"ME","lat":44.9914,"long":-68.8878},{"zip":"04450","city":"Kenduskeag","state":"ME","lat":44.9183,"long":-68.9342},{"zip":"04451","city":"Kingman","state":"ME","lat":45.5984,"long":-68.2366},{"zip":"04453","city":"Lagrange","state":"ME","lat":45.1789,"long":-68.8345},{"zip":"04455","city":"Lee","state":"ME","lat":45.3635,"long":-68.2909},{"zip":"04456","city":"Levant","state":"ME","lat":44.8843,"long":-68.9837},{"zip":"04457","city":"Lincoln","state":"ME","lat":45.3508,"long":-68.5077},{"zip":"04459","city":"Mattawamkeag","state":"ME","lat":45.5264,"long":-68.352},{"zip":"04460","city":"Medway","state":"ME","lat":45.607,"long":-68.5227},{"zip":"04461","city":"Milford","state":"ME","lat":44.9393,"long":-68.6296},{"zip":"04462","city":"Millinocket","state":"ME","lat":45.6596,"long":-68.7101},{"zip":"04468","city":"Old Town","state":"ME","lat":44.943,"long":-68.675},{"zip":"04469","city":"Orono","state":"ME","lat":45.0028,"long":-68.6334},{"zip":"04473","city":"Orono","state":"ME","lat":44.8865,"long":-68.7172},{"zip":"04474","city":"Orrington","state":"ME","lat":44.7263,"long":-68.7876},{"zip":"04475","city":"Passadumkeag","state":"ME","lat":45.1815,"long":-68.5871},{"zip":"04487","city":"Springfield","state":"ME","lat":45.4264,"long":-68.1108},{"zip":"04488","city":"Stetson","state":"ME","lat":44.8843,"long":-69.1069},{"zip":"04489","city":"Stillwater","state":"ME","lat":44.9224,"long":-68.6868},{"zip":"04493","city":"West Enfield","state":"ME","lat":45.2378,"long":-68.5338},{"zip":"04495","city":"Winn","state":"ME","lat":45.4568,"long":-68.3575},{"zip":"04765","city":"Patten","state":"ME","lat":46.0132,"long":-68.4647},{"zip":"04777","city":"Stacyville","state":"ME","lat":45.8637,"long":-68.5053},{"zip":"04928","city":"Corinna","state":"ME","lat":44.926,"long":-69.2323},{"zip":"04930","city":"Dexter","state":"ME","lat":45.0203,"long":-69.2797},{"zip":"04932","city":"Dixmont","state":"ME","lat":44.6991,"long":-69.1025},{"zip":"04933","city":"East Newport","state":"ME","lat":44.8209,"long":-69.2225},{"zip":"04939","city":"Garland","state":"ME","lat":45.0149,"long":-69.157},{"zip":"04953","city":"Newport","state":"ME","lat":44.8393,"long":-69.2675},{"zip":"04969","city":"Plymouth","state":"ME","lat":44.7699,"long":-69.2266},{"zip":"04406","city":"Abbot","state":"ME","lat":45.2345,"long":-69.5699},{"zip":"04414","city":"Brownville","state":"ME","lat":45.3412,"long":-69.0423},{"zip":"04415","city":"Brownville Junction","state":"ME","lat":45.3512,"long":-69.0581},{"zip":"04426","city":"Dover Foxcroft","state":"ME","lat":45.1877,"long":-69.2045},{"zip":"04441","city":"Greenville","state":"ME","lat":45.4716,"long":-69.5844},{"zip":"04442","city":"Greenville Junction","state":"ME","lat":45.4796,"long":-69.6939},{"zip":"04443","city":"Guilford","state":"ME","lat":45.1735,"long":-69.3975},{"zip":"04463","city":"Milo","state":"ME","lat":45.2446,"long":-68.976},{"zip":"04464","city":"Monson","state":"ME","lat":45.2981,"long":-69.488},{"zip":"04479","city":"Sangerville","state":"ME","lat":45.1406,"long":-69.3218},{"zip":"04481","city":"Sebec","state":"ME","lat":45.2465,"long":-69.1021},{"zip":"04485","city":"Shirley Mills","state":"ME","lat":45.3609,"long":-69.6202},{"zip":"04008","city":"Bowdoinham","state":"ME","lat":44.0101,"long":-69.8984},{"zip":"04086","city":"Topsham","state":"ME","lat":43.9814,"long":-69.9378},{"zip":"04287","city":"Bowdoin","state":"ME","lat":44.0575,"long":-69.9656},{"zip":"04357","city":"Richmond","state":"ME","lat":44.1042,"long":-69.8211},{"zip":"04530","city":"Bath","state":"ME","lat":43.9062,"long":-69.8266},{"zip":"04548","city":"Georgetown","state":"ME","lat":43.8054,"long":-69.7453},{"zip":"04562","city":"Phippsburg","state":"ME","lat":43.7688,"long":-69.815},{"zip":"04565","city":"Sebasco Estates","state":"ME","lat":43.7733,"long":-69.8635},{"zip":"04579","city":"Woolwich","state":"ME","lat":43.9503,"long":-69.7891},{"zip":"04478","city":"Rockwood","state":"ME","lat":45.8641,"long":-69.8768},{"zip":"04911","city":"Anson","state":"ME","lat":44.7831,"long":-69.9309},{"zip":"04912","city":"Athens","state":"ME","lat":44.9388,"long":-69.6695},{"zip":"04920","city":"Bingham","state":"ME","lat":45.0682,"long":-69.8857},{"zip":"04923","city":"Cambridge","state":"ME","lat":45.0513,"long":-69.4419},{"zip":"04924","city":"Canaan","state":"ME","lat":44.745,"long":-69.5498},{"zip":"04925","city":"Caratunk","state":"ME","lat":45.241,"long":-69.9386},{"zip":"04929","city":"Detroit","state":"ME","lat":44.7615,"long":-69.3227},{"zip":"04937","city":"Fairfield","state":"ME","lat":44.6463,"long":-69.6802},{"zip":"04942","city":"Harmony","state":"ME","lat":44.973,"long":-69.5481},{"zip":"04943","city":"Hartland","state":"ME","lat":44.8782,"long":-69.4718},{"zip":"04944","city":"Hinckley","state":"ME","lat":44.6847,"long":-69.6425},{"zip":"04945","city":"Jackman","state":"ME","lat":45.6351,"long":-70.2492},{"zip":"04950","city":"Madison","state":"ME","lat":44.8096,"long":-69.8449},{"zip":"04954","city":"New Portland","state":"ME","lat":44.8842,"long":-70.0967},{"zip":"04957","city":"Norridgewock","state":"ME","lat":44.6899,"long":-69.8306},{"zip":"04958","city":"North Anson","state":"ME","lat":44.8797,"long":-69.9119},{"zip":"04961","city":"New Portland","state":"ME","lat":44.9251,"long":-70.0231},{"zip":"04965","city":"Palmyra","state":"ME","lat":44.8576,"long":-69.3811},{"zip":"04967","city":"Pittsfield","state":"ME","lat":44.7871,"long":-69.4022},{"zip":"04971","city":"Saint Albans","state":"ME","lat":44.9293,"long":-69.3992},{"zip":"04975","city":"Shawmut","state":"ME","lat":44.6245,"long":-69.5869},{"zip":"04976","city":"Skowhegan","state":"ME","lat":44.7772,"long":-69.6976},{"zip":"04978","city":"Smithfield","state":"ME","lat":44.6301,"long":-69.8075},{"zip":"04979","city":"Solon","state":"ME","lat":44.9676,"long":-69.833},{"zip":"04985","city":"West Forks","state":"ME","lat":45.3839,"long":-69.9841},{"zip":"04354","city":"Palermo","state":"ME","lat":44.3843,"long":-69.4334},{"zip":"04438","city":"Frankfort","state":"ME","lat":44.5979,"long":-68.934},{"zip":"04496","city":"Winterport","state":"ME","lat":44.6552,"long":-68.8862},{"zip":"04848","city":"Islesboro","state":"ME","lat":44.3082,"long":-68.9073},{"zip":"04849","city":"Lincolnville","state":"ME","lat":44.3048,"long":-69.0824},{"zip":"04850","city":"Lincolnville Center","state":"ME","lat":44.2979,"long":-69.1075},{"zip":"04915","city":"Belfast","state":"ME","lat":44.4354,"long":-69.0148},{"zip":"04921","city":"Brooks","state":"ME","lat":44.5678,"long":-69.1404},{"zip":"04922","city":"Burnham","state":"ME","lat":44.6848,"long":-69.38},{"zip":"04941","city":"Freedom","state":"ME","lat":44.4633,"long":-69.319},{"zip":"04949","city":"Liberty","state":"ME","lat":44.3741,"long":-69.3306},{"zip":"04951","city":"Monroe","state":"ME","lat":44.5927,"long":-69.0317},{"zip":"04952","city":"Morrill","state":"ME","lat":44.4107,"long":-69.1471},{"zip":"04972","city":"Sandy Point","state":"ME","lat":44.5148,"long":-68.8128},{"zip":"04973","city":"Searsmont","state":"ME","lat":44.377,"long":-69.2196},{"zip":"04974","city":"Searsport","state":"ME","lat":44.4877,"long":-68.9311},{"zip":"04981","city":"Stockton Springs","state":"ME","lat":44.5141,"long":-68.856},{"zip":"04986","city":"Thorndike","state":"ME","lat":44.5744,"long":-69.2487},{"zip":"04987","city":"Troy","state":"ME","lat":44.6757,"long":-69.2549},{"zip":"04988","city":"Unity","state":"ME","lat":44.6007,"long":-69.3328},{"zip":"04413","city":"Brookton","state":"ME","lat":45.5507,"long":-67.7436},{"zip":"04424","city":"Danforth","state":"ME","lat":45.6687,"long":-67.8688},{"zip":"04454","city":"Lambert Lake","state":"ME","lat":45.5459,"long":-67.5269},{"zip":"04490","city":"Topsfield","state":"ME","lat":45.4304,"long":-67.7473},{"zip":"04491","city":"Vanceboro","state":"ME","lat":45.5634,"long":-67.4297},{"zip":"04492","city":"Waite","state":"ME","lat":45.3492,"long":-67.678},{"zip":"04606","city":"Addison","state":"ME","lat":44.583,"long":-67.7146},{"zip":"04611","city":"Beals","state":"ME","lat":44.513,"long":-67.6056},{"zip":"04619","city":"Calais","state":"ME","lat":45.1715,"long":-67.2641},{"zip":"04622","city":"Cherryfield","state":"ME","lat":44.6228,"long":-67.9436},{"zip":"04623","city":"Columbia Falls","state":"ME","lat":44.6699,"long":-67.7534},{"zip":"04626","city":"Cutler","state":"ME","lat":44.6753,"long":-67.2499},{"zip":"04628","city":"Dennysville","state":"ME","lat":44.8961,"long":-67.2244},{"zip":"04630","city":"East Machias","state":"ME","lat":44.7424,"long":-67.3821},{"zip":"04631","city":"Eastport","state":"ME","lat":44.92,"long":-67.0074},{"zip":"04637","city":"Grand Lake Stream","state":"ME","lat":45.1795,"long":-67.7744},{"zip":"04643","city":"Harrington","state":"ME","lat":44.6122,"long":-67.8147},{"zip":"04648","city":"Jonesboro","state":"ME","lat":44.6582,"long":-67.5777},{"zip":"04649","city":"Jonesport","state":"ME","lat":44.5509,"long":-67.6044},{"zip":"04652","city":"Lubec","state":"ME","lat":44.9043,"long":-67.0408},{"zip":"04654","city":"Machias","state":"ME","lat":44.7215,"long":-67.482},{"zip":"04655","city":"Machiasport","state":"ME","lat":44.682,"long":-67.4073},{"zip":"04657","city":"Meddybemps","state":"ME","lat":45.0193,"long":-67.3829},{"zip":"04658","city":"Milbridge","state":"ME","lat":44.5366,"long":-67.8844},{"zip":"04666","city":"Pembroke","state":"ME","lat":44.9654,"long":-67.2002},{"zip":"04667","city":"Perry","state":"ME","lat":44.9888,"long":-67.0929},{"zip":"04668","city":"Princeton","state":"ME","lat":45.2131,"long":-67.6008},{"zip":"04671","city":"Robbinston","state":"ME","lat":45.067,"long":-67.1433},{"zip":"04680","city":"Steuben","state":"ME","lat":44.4971,"long":-67.9503},{"zip":"04686","city":"Wesley","state":"ME","lat":44.9854,"long":-67.6991},{"zip":"04691","city":"Whiting","state":"ME","lat":44.7622,"long":-67.2515},{"zip":"04694","city":"Baileyville","state":"ME","lat":45.1035,"long":-67.4722},{"zip":"04001","city":"Acton","state":"ME","lat":43.5494,"long":-70.9307},{"zip":"04002","city":"Alfred","state":"ME","lat":43.4875,"long":-70.6961},{"zip":"04004","city":"Bar Mills","state":"ME","lat":43.6131,"long":-70.5498},{"zip":"04005","city":"Biddeford","state":"ME","lat":43.4935,"long":-70.4883},{"zip":"04006","city":"Biddeford Pool","state":"ME","lat":43.4448,"long":-70.3414},{"zip":"04007","city":"Biddeford","state":"ME","lat":43.4581,"long":-70.5053},{"zip":"04014","city":"Cape Porpoise","state":"ME","lat":43.3657,"long":-70.6044},{"zip":"04020","city":"Cornish","state":"ME","lat":43.7796,"long":-70.7784},{"zip":"04027","city":"Lebanon","state":"ME","lat":43.4597,"long":-70.9152},{"zip":"04028","city":"East Parsonsfield","state":"ME","lat":43.7334,"long":-70.8434},{"zip":"04030","city":"East Waterboro","state":"ME","lat":43.5995,"long":-70.6906},{"zip":"04042","city":"Hollis Center","state":"ME","lat":43.5946,"long":-70.6051},{"zip":"04043","city":"Kennebunk","state":"ME","lat":43.3881,"long":-70.5478},{"zip":"04046","city":"Kennebunkport","state":"ME","lat":43.3923,"long":-70.4729},{"zip":"04047","city":"Parsonsfield","state":"ME","lat":43.745,"long":-70.9092},{"zip":"04048","city":"Limerick","state":"ME","lat":43.6963,"long":-70.7866},{"zip":"04049","city":"Limington","state":"ME","lat":43.726,"long":-70.6752},{"zip":"04054","city":"Moody","state":"ME","lat":43.2763,"long":-70.5978},{"zip":"04056","city":"Newfield","state":"ME","lat":43.6584,"long":-70.8689},{"zip":"04061","city":"North Waterboro","state":"ME","lat":43.64,"long":-70.7298},{"zip":"04063","city":"Ocean Park","state":"ME","lat":43.5006,"long":-70.3862},{"zip":"04064","city":"Old Orchard Beach","state":"ME","lat":43.5254,"long":-70.3883},{"zip":"04072","city":"Saco","state":"ME","lat":43.5209,"long":-70.4546},{"zip":"04073","city":"Sanford","state":"ME","lat":43.4285,"long":-70.7585},{"zip":"04076","city":"Shapleigh","state":"ME","lat":43.5674,"long":-70.8286},{"zip":"04083","city":"Springvale","state":"ME","lat":43.4715,"long":-70.8064},{"zip":"04087","city":"Waterboro","state":"ME","lat":43.5661,"long":-70.7431},{"zip":"04090","city":"Wells","state":"ME","lat":43.3144,"long":-70.5969},{"zip":"04093","city":"Buxton","state":"ME","lat":43.6379,"long":-70.5189},{"zip":"04094","city":"West Kennebunk","state":"ME","lat":43.4061,"long":-70.5733},{"zip":"04095","city":"West Newfield","state":"ME","lat":43.601,"long":-70.9027}]
