[{"zip":"04003","city":"Bailey Island","state":"ME","lat":43.7341,"long":-69.9952},{"zip":"04009","city":"Bridgton","state":"ME","lat":44.052,"long":-70.7241},{"zip":"04011","city":"Brunswick","state":"ME","lat":43.8973,"long":-69.9779},{"zip":"04013","city":"Bustins Island","state":"ME","lat":43.799,"long":-70.0698},{"zip":"04015","city":"Casco","state":"ME","lat":43.9596,"long":-70.526},{"zip":"04017","city":"Chebeague Island","state":"ME","lat":43.7354,"long":-70.1169},{"zip":"04019","city":"Cliff Island","state":"ME","lat":43.6955,"long":-70.1071},{"zip":"04021","city":"Cumberland Center","state":"ME","lat":43.7974,"long":-70.2649},{"zip":"04024","city":"East Baldwin","state":"ME","lat":43.8646,"long":-70.6922},{"zip":"04029","city":"Sebago","state":"ME","lat":43.9017,"long":-70.6878},{"zip":"04032","city":"Freeport","state":"ME","lat":43.857,"long":-70.1031},{"zip":"04033","city":"Freeport","state":"ME","lat":43.857,"long":-70.1031},{"zip":"04034","city":"Freeport","state":"ME","lat":43.857,"long":-70.1031},{"zip":"04038","city":"Gorham","state":"ME","lat":43.6843,"long":-70.468},{"zip":"04039","city":"Gray","state":"ME","lat":43.8942,"long":-70.3429},{"zip":"04040","city":"Harrison","state":"ME","lat":44.1071,"long":-70.6539},{"zip":"04050","city":"Long Island","state":"ME","lat":43.692,"long":-70.1551},{"zip":"04055","city":"Naples","state":"ME","lat":43.9681,"long":-70.5988},{"zip":"04057","city":"North Bridgton","state":"ME","lat":44.0987,"long":-70.6987},{"zip":"04062","city":"Windham","state":"ME","lat":43.7958,"long":-70.4143},{"zip":"04066","city":"Orrs Island","state":"ME","lat":43.7727,"long":-69.9668},{"zip":"04069","city":"Pownal","state":"ME","lat":43.89,"long":-70.1955},{"zip":"04070","city":"Scarborough","state":"ME","lat":43.577,"long":-70.2736},{"zip":"04071","city":"Raymond","state":"ME","lat":43.9219,"long":-70.4498},{"zip":"04074","city":"Scarborough","state":"ME","lat":43.5835,"long":-70.3457},{"zip":"04077","city":"South Casco","state":"ME","lat":43.91,"long":-70.5245},{"zip":"04078","city":"South Freeport","state":"ME","lat":43.8208,"long":-70.1208},{"zip":"04079","city":"Harpswell","state":"ME","lat":43.7811,"long":-69.9955},{"zip":"04082","city":"South Windham","state":"ME","lat":43.7362,"long":-70.4237},{"zip":"04084","city":"Standish","state":"ME","lat":43.8142,"long":-70.4807},{"zip":"04085","city":"Steep Falls","state":"ME","lat":43.7719,"long":-70.6396},{"zip":"04091","city":"West Baldwin","state":"ME","lat":43.8299,"long":-70.749},{"zip":"04092","city":"Westbrook","state":"ME","lat":43.6843,"long":-70.358},{"zip":"04096","city":"Yarmouth","state":"ME","lat":43.8009,"long":-70.175},{"zip":"04097","city":"North Yarmouth","state":"ME","lat":43.838,"long":-70.2001},{"zip":"04098","city":"Westbrook","state":"ME","lat":43.677,"long":-70.3712},{"zip":"04010","city":"Brownfield","state":"ME","lat":43.9381,"long":-70.9087},{"zip":"04016","city":"Center Lovell","state":"ME","lat":44.181,"long":-70.8917},{"zip":"04022","city":"Denmark","state":"ME","lat":43.9755,"long":-70.7924},{"zip":"04037","city":"Fryeburg","state":"ME","lat":44.0313,"long":-70.9668},{"zip":"04041","city":"Hiram","state":"ME","lat":43.8622,"long":-70.8531},{"zip":"04051","city":"Lovell","state":"ME","lat":44.1614,"long":-70.93},{"zip":"04068","city":"Porter","state":"ME","lat":43.8262,"long":-70.9243},{"zip":"04088","city":"Waterford","state":"ME","lat":44.1931,"long":-70.7163},{"zip":"04008","city":"Bowdoinham","state":"ME","lat":44.0101,"long":-69.8984},{"zip":"04086","city":"Topsham","state":"ME","lat":43.9814,"long":-69.9378},{"zip":"04001","city":"Acton","state":"ME","lat":43.5494,"long":-70.9307},{"zip":"04002","city":"Alfred","state":"ME","lat":43.4875,"long":-70.6961},{"zip":"04004","city":"Bar Mills","state":"ME","lat":43.6131,"long":-70.5498},{"zip":"04005","city":"Biddeford","state":"ME","lat":43.4935,"long":-70.4883},{"zip":"04006","city":"Biddeford Pool","state":"ME","lat":43.4448,"long":-70.3414},{"zip":"04007","city":"Biddeford","state":"ME","lat":43.4581,"long":-70.5053},{"zip":"04014","city":"Cape Porpoise","state":"ME","lat":43.3657,"long":-70.6044},{"zip":"04020","city":"Cornish","state":"ME","lat":43.7796,"long":-70.7784},{"zip":"04027","city":"Lebanon","state":"ME","lat":43.4597,"long":-70.9152},{"zip":"04028","city":"East Parsonsfield","state":"ME","lat":43.7334,"long":-70.8434},{"zip":"04030","city":"East Waterboro","state":"ME","lat":43.5995,"long":-70.6906},{"zip":"04042","city":"Hollis Center","state":"ME","lat":43.5946,"long":-70.6051},{"zip":"04043","city":"Kennebunk","state":"ME","lat":43.3881,"long":-70.5478},{"zip":"04046","city":"Kennebunkport","state":"ME","lat":43.3923,"long":-70.4729},{"zip":"04047","city":"Parsonsfield","state":"ME","lat":43.745,"long":-70.9092},{"zip":"04048","city":"Limerick","state":"ME","lat":43.6963,"long":-70.7866},{"zip":"04049","city":"Limington","state":"ME","lat":43.726,"long":-70.6752},{"zip":"04054","city":"Moody","state":"ME","lat":43.2763,"long":-70.5978},{"zip":"04056","city":"Newfield","state":"ME","lat":43.6584,"long":-70.8689},{"zip":"04061","city":"North Waterboro","state":"ME","lat":43.64,"long":-70.7298},{"zip":"04063","city":"Ocean Park","state":"ME","lat":43.5006,"long":-70.3862},{"zip":"04064","city":"Old Orchard Beach","state":"ME","lat":43.5254,"long":-70.3883},{"zip":"04072","city":"Saco","state":"ME","lat":43.5209,"long":-70.4546},{"zip":"04073","city":"Sanford","state":"ME","lat":43.4285,"long":-70.7585},{"zip":"04076","city":"Shapleigh","state":"ME","lat":43.5674,"long":-70.8286},{"zip":"04083","city":"Springvale","state":"ME","lat":43.4715,"long":-70.8064},{"zip":"04087","city":"Waterboro","state":"ME","lat":43.5661,"long":-70.7431},{"zip":"04090","city":"Wells","state":"ME","lat":43.3144,"long":-70.5969},{"zip":"04093","city":"Buxton","state":"ME","lat":43.6379,"long":-70.5189},{"zip":"04094","city":"West Kennebunk","state":"ME","lat":43.4061,"long":-70.5733},{"zip":"04095","city":"West Newfield","state":"ME","lat":43.601,"long":-70.9027}]
