[{"zip":"04101","city":"Portland","state":"ME","lat":43.6606,"long":-70.2589},{"zip":"04102","city":"Portland","state":"ME","lat":43.6602,"long":-70.2898},{"zip":"04103","city":"Portland","state":"ME","lat":43.6876,"long":-70.2876},{"zip":"04104","city":"Portland","state":"ME","lat":43.6615,"long":-70.2553},{"zip":"04105","city":"Falmouth","state":"ME","lat":43.734,"long":-70.2625},{"zip":"04106","city":"South Portland","state":"ME","lat":43.6318,"long":-70.2709},{"zip":"04107","city":"Cape Elizabeth","state":"ME","lat":43.6017,"long":-70.2301},{"zip":"04108","city":"Peaks Island","state":"ME","lat":43.6589,"long":-70.194},{"zip":"04109","city":"Portland","state":"ME","lat":43.6783,"long":-70.1987},{"zip":"04110","city":"Cumberland Foreside","state":"ME","lat":43.759,"long":-70.1993},{"zip":"04112","city":"Portland","state":"ME","lat":43.6615,"long":-70.2553},{"zip":"04116","city":"South Portland","state":"ME","lat":43.6415,"long":-70.2409},{"zip":"04122","city":"Portland","state":"ME","lat":43.6615,"long":-70.2553},{"zip":"04123","city":"Portland","state":"ME","lat":43.6615,"long":-70.2553},{"zip":"04124","city":"Portland","state":"ME","lat":43.6615,"long":-70.2553}]
