[{"zip":"04210","city":"Auburn","state":"ME","lat":44.0948,"long":-70.239},{"zip":"04211","city":"Auburn","state":"ME","lat":44.197,"long":-70.2395},{"zip":"04212","city":"Auburn","state":"ME","lat":44.197,"long":-70.2395},{"zip":"04222","city":"Durham","state":"ME","lat":43.9684,"long":-70.1846},{"zip":"04223","city":"Danville","state":"ME","lat":44.0239,"long":-70.2857},{"zip":"04228","city":"East Livermore","state":"ME","lat":44.3994,"long":-70.1303},{"zip":"04230","city":"East Poland","state":"ME","lat":44.0627,"long":-70.327},{"zip":"04236","city":"Greene","state":"ME","lat":44.1891,"long":-70.1455},{"zip":"04240","city":"Lewiston","state":"ME","lat":44.0985,"long":-70.1916},{"zip":"04241","city":"Lewiston","state":"ME","lat":44.197,"long":-70.2395},{"zip":"04243","city":"Lewiston","state":"ME","lat":44.197,"long":-70.2395},{"zip":"04250","city":"Lisbon","state":"ME","lat":44.0255,"long":-70.1139},{"zip":"04252","city":"Lisbon Falls","state":"ME","lat":43.9978,"long":-70.0734},{"zip":"04253","city":"Livermore","state":"ME","lat":44.4079,"long":-70.215},{"zip":"04254","city":"Livermore Falls","state":"ME","lat":44.4325,"long":-70.1427},{"zip":"04256","city":"Mechanic Falls","state":"ME","lat":44.1117,"long":-70.3917},{"zip":"04258","city":"Minot","state":"ME","lat":44.1461,"long":-70.3399},{"zip":"04263","city":"Leeds","state":"ME","lat":44.2834,"long":-70.1253},{"zip":"04266","city":"North Turner","state":"ME","lat":44.358,"long":-70.2558},{"zip":"04274","city":"Poland","state":"ME","lat":44.0474,"long":-70.3899},{"zip":"04280","city":"Sabattus","state":"ME","lat":44.1133,"long":-70.0748},{"zip":"04282","city":"Turner","state":"ME","lat":44.2557,"long":-70.2494},{"zip":"04288","city":"West Minot","state":"ME","lat":44.1712,"long":-70.3659},{"zip":"04291","city":"West Poland","state":"ME","lat":44.0409,"long":-70.453},{"zip":"04260","city":"New Gloucester","state":"ME","lat":43.9608,"long":-70.2974},{"zip":"04225","city":"Dryden","state":"ME","lat":44.6027,"long":-70.2265},{"zip":"04227","city":"East Dixfield","state":"ME","lat":44.5791,"long":-70.3263},{"zip":"04234","city":"East Wilton","state":"ME","lat":44.6159,"long":-70.1928},{"zip":"04239","city":"Jay","state":"ME","lat":44.516,"long":-70.2099},{"zip":"04262","city":"North Jay","state":"ME","lat":44.5473,"long":-70.2381},{"zip":"04285","city":"Weld","state":"ME","lat":44.7016,"long":-70.4249},{"zip":"04294","city":"Wilton","state":"ME","lat":44.5928,"long":-70.2281},{"zip":"04259","city":"Monmouth","state":"ME","lat":44.2208,"long":-70.0263},{"zip":"04265","city":"North Monmouth","state":"ME","lat":44.2753,"long":-70.0367},{"zip":"04284","city":"Wayne","state":"ME","lat":44.3493,"long":-70.0712},{"zip":"04216","city":"Andover","state":"ME","lat":44.6637,"long":-70.7967},{"zip":"04217","city":"Bethel","state":"ME","lat":44.4162,"long":-70.8037},{"zip":"04219","city":"Bryant Pond","state":"ME","lat":44.3957,"long":-70.6435},{"zip":"04220","city":"Buckfield","state":"ME","lat":44.2877,"long":-70.3683},{"zip":"04221","city":"Canton","state":"ME","lat":44.4602,"long":-70.2998},{"zip":"04224","city":"Dixfield","state":"ME","lat":44.5548,"long":-70.4241},{"zip":"04226","city":"East Andover","state":"ME","lat":44.6084,"long":-70.6993},{"zip":"04231","city":"Stoneham","state":"ME","lat":44.2641,"long":-70.8875},{"zip":"04237","city":"Hanover","state":"ME","lat":44.4959,"long":-70.7167},{"zip":"04238","city":"Hebron","state":"ME","lat":44.2021,"long":-70.3754},{"zip":"04255","city":"Greenwood","state":"ME","lat":44.3184,"long":-70.6509},{"zip":"04257","city":"Mexico","state":"ME","lat":44.5628,"long":-70.5358},{"zip":"04261","city":"Newry","state":"ME","lat":44.6895,"long":-71.0112},{"zip":"04267","city":"North Waterford","state":"ME","lat":44.2317,"long":-70.7687},{"zip":"04268","city":"Norway","state":"ME","lat":44.2127,"long":-70.5601},{"zip":"04270","city":"Oxford","state":"ME","lat":44.1118,"long":-70.5098},{"zip":"04271","city":"Paris","state":"ME","lat":44.2641,"long":-70.4985},{"zip":"04275","city":"Roxbury","state":"ME","lat":44.6566,"long":-70.6092},{"zip":"04276","city":"Rumford","state":"ME","lat":44.5434,"long":-70.5645},{"zip":"04281","city":"South Paris","state":"ME","lat":44.2167,"long":-70.5012},{"zip":"04286","city":"West Bethel","state":"ME","lat":44.4021,"long":-70.8601},{"zip":"04289","city":"West Paris","state":"ME","lat":44.3253,"long":-70.5732},{"zip":"04290","city":"Peru","state":"ME","lat":44.4944,"long":-70.4435},{"zip":"04292","city":"Sumner","state":"ME","lat":44.374,"long":-70.4469},{"zip":"04287","city":"Bowdoin","state":"ME","lat":44.0575,"long":-69.9656}]
