[{"zip":"04330","city":"Augusta","state":"ME","lat":44.3232,"long":-69.7665},{"zip":"04332","city":"Augusta","state":"ME","lat":44.4141,"long":-69.7519},{"zip":"04333","city":"Augusta","state":"ME","lat":44.3106,"long":-69.7795},{"zip":"04336","city":"Augusta","state":"ME","lat":44.3157,"long":-69.818},{"zip":"04338","city":"Augusta","state":"ME","lat":44.3106,"long":-69.7795},{"zip":"04343","city":"East Winthrop","state":"ME","lat":44.4141,"long":-69.7519},{"zip":"04344","city":"Farmingdale","state":"ME","lat":44.2523,"long":-69.7913},{"zip":"04345","city":"Gardiner","state":"ME","lat":44.207,"long":-69.7858},{"zip":"04346","city":"Randolph","state":"ME","lat":44.2347,"long":-69.7506},{"zip":"04347","city":"Hallowell","state":"ME","lat":44.2864,"long":-69.8057},{"zip":"04349","city":"Kents Hill","state":"ME","lat":44.4383,"long":-70.0748},{"zip":"04350","city":"Litchfield","state":"ME","lat":44.1634,"long":-69.9581},{"zip":"04351","city":"Manchester","state":"ME","lat":44.358,"long":-69.867},{"zip":"04352","city":"Mount Vernon","state":"ME","lat":44.4993,"long":-69.9903},{"zip":"04355","city":"Readfield","state":"ME","lat":44.4032,"long":-69.9506},{"zip":"04358","city":"South China","state":"ME","lat":44.3953,"long":-69.5804},{"zip":"04359","city":"South Gardiner","state":"ME","lat":44.1801,"long":-69.7567},{"zip":"04360","city":"Vienna","state":"ME","lat":44.5475,"long":-70.003},{"zip":"04363","city":"Windsor","state":"ME","lat":44.3009,"long":-69.5806},{"zip":"04364","city":"Winthrop","state":"ME","lat":44.3229,"long":-69.9576},{"zip":"04341","city":"Coopers Mills","state":"ME","lat":44.2588,"long":-69.551},{"zip":"04342","city":"Dresden","state":"ME","lat":44.0785,"long":-69.7457},{"zip":"04348","city":"Jefferson","state":"ME","lat":44.2204,"long":-69.5133},{"zip":"04353","city":"Whitefield","state":"ME","lat":44.1884,"long":-69.5751},{"zip":"04357","city":"Richmond","state":"ME","lat":44.1042,"long":-69.8211},{"zip":"04354","city":"Palermo","state":"ME","lat":44.3843,"long":-69.4334}]
