[{"zip":"04471","city":"Orient","state":"ME","lat":45.8911,"long":-67.8471},{"zip":"04497","city":"Wytopitlock","state":"ME","lat":45.6645,"long":-68.1055},{"zip":"04408","city":"Aurora","state":"ME","lat":44.8861,"long":-68.2959},{"zip":"04416","city":"Bucksport","state":"ME","lat":44.6015,"long":-68.7768},{"zip":"04420","city":"Castine","state":"ME","lat":44.413,"long":-68.798},{"zip":"04421","city":"Castine","state":"ME","lat":44.4156,"long":-68.7929},{"zip":"04431","city":"East Orland","state":"ME","lat":44.5612,"long":-68.6647},{"zip":"04472","city":"Orland","state":"ME","lat":44.5458,"long":-68.7313},{"zip":"04476","city":"Penobscot","state":"ME","lat":44.4645,"long":-68.7111},{"zip":"04401","city":"Bangor","state":"ME","lat":44.8242,"long":-68.7918},{"zip":"04402","city":"Bangor","state":"ME","lat":44.8012,"long":-68.7778},{"zip":"04410","city":"Bradford","state":"ME","lat":45.0855,"long":-68.9235},{"zip":"04411","city":"Bradley","state":"ME","lat":44.9015,"long":-68.6263},{"zip":"04412","city":"Brewer","state":"ME","lat":44.7874,"long":-68.7539},{"zip":"04417","city":"Burlington","state":"ME","lat":45.2349,"long":-68.379},{"zip":"04418","city":"Greenbush","state":"ME","lat":45.0803,"long":-68.6509},{"zip":"04419","city":"Carmel","state":"ME","lat":44.8053,"long":-68.9942},{"zip":"04422","city":"Charleston","state":"ME","lat":45.067,"long":-69.0869},{"zip":"04427","city":"Corinth","state":"ME","lat":44.9805,"long":-69.0109},{"zip":"04428","city":"Eddington","state":"ME","lat":44.7917,"long":-68.5777},{"zip":"04429","city":"Holden","state":"ME","lat":44.7208,"long":-68.6165},{"zip":"04430","city":"East Millinocket","state":"ME","lat":45.63,"long":-68.5728},{"zip":"04434","city":"Etna","state":"ME","lat":44.7932,"long":-69.1322},{"zip":"04435","city":"Exeter","state":"ME","lat":44.9679,"long":-69.1079},{"zip":"04444","city":"Hampden","state":"ME","lat":44.7411,"long":-68.8731},{"zip":"04448","city":"Howland","state":"ME","lat":45.2456,"long":-68.6666},{"zip":"04449","city":"Hudson","state":"ME","lat":44.9914,"long":-68.8878},{"zip":"04450","city":"Kenduskeag","state":"ME","lat":44.9183,"long":-68.9342},{"zip":"04451","city":"Kingman","state":"ME","lat":45.5984,"long":-68.2366},{"zip":"04453","city":"Lagrange","state":"ME","lat":45.1789,"long":-68.8345},{"zip":"04455","city":"Lee","state":"ME","lat":45.3635,"long":-68.2909},{"zip":"04456","city":"Levant","state":"ME","lat":44.8843,"long":-68.9837},{"zip":"04457","city":"Lincoln","state":"ME","lat":45.3508,"long":-68.5077},{"zip":"04459","city":"Mattawamkeag","state":"ME","lat":45.5264,"long":-68.352},{"zip":"04460","city":"Medway","state":"ME","lat":45.607,"long":-68.5227},{"zip":"04461","city":"Milford","state":"ME","lat":44.9393,"long":-68.6296},{"zip":"04462","city":"Millinocket","state":"ME","lat":45.6596,"long":-68.7101},{"zip":"04468","city":"Old Town","state":"ME","lat":44.943,"long":-68.675},{"zip":"04469","city":"Orono","state":"ME","lat":45.0028,"long":-68.6334},{"zip":"04473","city":"Orono","state":"ME","lat":44.8865,"long":-68.7172},{"zip":"04474","city":"Orrington","state":"ME","lat":44.7263,"long":-68.7876},{"zip":"04475","city":"Passadumkeag","state":"ME","lat":45.1815,"long":-68.5871},{"zip":"04487","city":"Springfield","state":"ME","lat":45.4264,"long":-68.1108},{"zip":"04488","city":"Stetson","state":"ME","lat":44.8843,"long":-69.1069},{"zip":"04489","city":"Stillwater","state":"ME","lat":44.9224,"long":-68.6868},{"zip":"04493","city":"West Enfield","state":"ME","lat":45.2378,"long":-68.5338},{"zip":"04495","city":"Winn","state":"ME","lat":45.4568,"long":-68.3575},{"zip":"04406","city":"Abbot","state":"ME","lat":45.2345,"long":-69.5699},{"zip":"04414","city":"Brownville","state":"ME","lat":45.3412,"long":-69.0423},{"zip":"04415","city":"Brownville Junction","state":"ME","lat":45.3512,"long":-69.0581},{"zip":"04426","city":"Dover Foxcroft","state":"ME","lat":45.1877,"long":-69.2045},{"zip":"04441","city":"Greenville","state":"ME","lat":45.4716,"long":-69.5844},{"zip":"04442","city":"Greenville Junction","state":"ME","lat":45.4796,"long":-69.6939},{"zip":"04443","city":"Guilford","state":"ME","lat":45.1735,"long":-69.3975},{"zip":"04463","city":"Milo","state":"ME","lat":45.2446,"long":-68.976},{"zip":"04464","city":"Monson","state":"ME","lat":45.2981,"long":-69.488},{"zip":"04479","city":"Sangerville","state":"ME","lat":45.1406,"long":-69.3218},{"zip":"04481","city":"Sebec","state":"ME","lat":45.2465,"long":-69.1021},{"zip":"04485","city":"Shirley Mills","state":"ME","lat":45.3609,"long":-69.6202},{"zip":"04478","city":"Rockwood","state":"ME","lat":45.8641,"long":-69.8768},{"zip":"04438","city":"Frankfort","state":"ME","lat":44.5979,"long":-68.934},{"zip":"04496","city":"Winterport","state":"ME","lat":44.6552,"long":-68.8862},{"zip":"04413","city":"Brookton","state":"ME","lat":45.5507,"long":-67.7436},{"zip":"04424","city":"Danforth","state":"ME","lat":45.6687,"long":-67.8688},{"zip":"04454","city":"Lambert Lake","state":"ME","lat":45.5459,"long":-67.5269},{"zip":"04490","city":"Topsfield","state":"ME","lat":45.4304,"long":-67.7473},{"zip":"04491","city":"Vanceboro","state":"ME","lat":45.5634,"long":-67.4297},{"zip":"04492","city":"Waite","state":"ME","lat":45.3492,"long":-67.678}]
