[{"zip":"04547","city":"Friendship","state":"ME","lat":43.9807,"long":-69.3349},{"zip":"04563","city":"Cushing","state":"ME","lat":43.9867,"long":-69.2721},{"zip":"04574","city":"Washington","state":"ME","lat":44.2693,"long":-69.3842},{"zip":"04535","city":"Alna","state":"ME","lat":44.0878,"long":-69.6344},{"zip":"04537","city":"Boothbay","state":"ME","lat":43.8945,"long":-69.6273},{"zip":"04538","city":"Boothbay Harbor","state":"ME","lat":43.8518,"long":-69.6278},{"zip":"04539","city":"Bristol","state":"ME","lat":43.9519,"long":-69.4954},{"zip":"04541","city":"Chamberlain","state":"ME","lat":43.8843,"long":-69.4792},{"zip":"04543","city":"Damariscotta","state":"ME","lat":44.0293,"long":-69.5042},{"zip":"04544","city":"East Boothbay","state":"ME","lat":43.8262,"long":-69.5939},{"zip":"04549","city":"Isle Of Springs","state":"ME","lat":44.0213,"long":-69.5233},{"zip":"04551","city":"Bremen","state":"ME","lat":44.0104,"long":-69.4402},{"zip":"04553","city":"Newcastle","state":"ME","lat":44.0499,"long":-69.5331},{"zip":"04554","city":"New Harbor","state":"ME","lat":43.8605,"long":-69.5079},{"zip":"04555","city":"Nobleboro","state":"ME","lat":44.0943,"long":-69.4828},{"zip":"04556","city":"Edgecomb","state":"ME","lat":43.9792,"long":-69.6197},{"zip":"04558","city":"Pemaquid","state":"ME","lat":43.8924,"long":-69.5289},{"zip":"04564","city":"Round Pond","state":"ME","lat":43.925,"long":-69.4662},{"zip":"04568","city":"South Bristol","state":"ME","lat":43.8677,"long":-69.5614},{"zip":"04570","city":"Squirrel Island","state":"ME","lat":44.0213,"long":-69.5233},{"zip":"04571","city":"Trevett","state":"ME","lat":43.8826,"long":-69.6801},{"zip":"04572","city":"Waldoboro","state":"ME","lat":44.1046,"long":-69.3745},{"zip":"04573","city":"Walpole","state":"ME","lat":43.9462,"long":-69.5516},{"zip":"04575","city":"West Boothbay Harbor","state":"ME","lat":43.8545,"long":-69.6608},{"zip":"04576","city":"Southport","state":"ME","lat":43.8199,"long":-69.6626},{"zip":"04578","city":"Wiscasset","state":"ME","lat":44.0074,"long":-69.6826},{"zip":"04530","city":"Bath","state":"ME","lat":43.9062,"long":-69.8266},{"zip":"04548","city":"Georgetown","state":"ME","lat":43.8054,"long":-69.7453},{"zip":"04562","city":"Phippsburg","state":"ME","lat":43.7688,"long":-69.815},{"zip":"04565","city":"Sebasco Estates","state":"ME","lat":43.7733,"long":-69.8635},{"zip":"04579","city":"Woolwich","state":"ME","lat":43.9503,"long":-69.7891}]
