[{"zip":"04841","city":"Rockland","state":"ME","lat":44.1123,"long":-69.1139},{"zip":"04843","city":"Camden","state":"ME","lat":44.2137,"long":-69.0767},{"zip":"04847","city":"Hope","state":"ME","lat":44.2589,"long":-69.1467},{"zip":"04851","city":"Matinicus","state":"ME","lat":43.8651,"long":-68.887},{"zip":"04853","city":"North Haven","state":"ME","lat":44.1436,"long":-68.8667},{"zip":"04854","city":"Owls Head","state":"ME","lat":44.0732,"long":-69.0894},{"zip":"04855","city":"Port Clyde","state":"ME","lat":43.9273,"long":-69.2528},{"zip":"04856","city":"Rockport","state":"ME","lat":44.1888,"long":-69.0901},{"zip":"04858","city":"South Thomaston","state":"ME","lat":44.0378,"long":-69.1359},{"zip":"04859","city":"Spruce Head","state":"ME","lat":44.0104,"long":-69.1707},{"zip":"04860","city":"Tenants Harbor","state":"ME","lat":43.9555,"long":-69.2315},{"zip":"04861","city":"Thomaston","state":"ME","lat":44.0846,"long":-69.1888},{"zip":"04862","city":"Union","state":"ME","lat":44.2619,"long":-69.2771},{"zip":"04863","city":"Vinalhaven","state":"ME","lat":44.0397,"long":-68.8368},{"zip":"04864","city":"Warren","state":"ME","lat":44.1271,"long":-69.2479},{"zip":"04865","city":"West Rockport","state":"ME","lat":44.1924,"long":-69.1211},{"zip":"04852","city":"Monhegan","state":"ME","lat":43.7642,"long":-69.3164},{"zip":"04848","city":"Islesboro","state":"ME","lat":44.3082,"long":-68.9073},{"zip":"04849","city":"Lincolnville","state":"ME","lat":44.3048,"long":-69.0824},{"zip":"04850","city":"Lincolnville Center","state":"ME","lat":44.2979,"long":-69.1075}]
