[{"zip":"04936","city":"Eustis","state":"ME","lat":45.3356,"long":-70.6283},{"zip":"04938","city":"Farmington","state":"ME","lat":44.6653,"long":-70.1329},{"zip":"04940","city":"Farmington Falls","state":"ME","lat":44.6226,"long":-70.0752},{"zip":"04947","city":"Kingfield","state":"ME","lat":44.9854,"long":-70.1832},{"zip":"04955","city":"New Sharon","state":"ME","lat":44.6458,"long":-70.0139},{"zip":"04956","city":"New Vineyard","state":"ME","lat":44.7967,"long":-70.122},{"zip":"04964","city":"Oquossoc","state":"ME","lat":44.9664,"long":-70.7737},{"zip":"04966","city":"Phillips","state":"ME","lat":44.8375,"long":-70.3601},{"zip":"04970","city":"Rangeley","state":"ME","lat":44.9631,"long":-70.6658},{"zip":"04982","city":"Stratton","state":"ME","lat":45.1116,"long":-70.423},{"zip":"04983","city":"Strong","state":"ME","lat":44.8224,"long":-70.2221},{"zip":"04984","city":"Temple","state":"ME","lat":44.6954,"long":-70.2426},{"zip":"04992","city":"West Farmington","state":"ME","lat":44.6628,"long":-70.153},{"zip":"04901","city":"Waterville","state":"ME","lat":44.5543,"long":-69.6178},{"zip":"04903","city":"Waterville","state":"ME","lat":44.5492,"long":-69.7132},{"zip":"04910","city":"Albion","state":"ME","lat":44.5355,"long":-69.4683},{"zip":"04917","city":"Belgrade","state":"ME","lat":44.4688,"long":-69.8606},{"zip":"04918","city":"Belgrade Lakes","state":"ME","lat":44.5265,"long":-69.887},{"zip":"04926","city":"China Village","state":"ME","lat":44.8526,"long":-69.502},{"zip":"04927","city":"Clinton","state":"ME","lat":44.644,"long":-69.5284},{"zip":"04935","city":"East Vassalboro","state":"ME","lat":44.4478,"long":-69.6059},{"zip":"04962","city":"North Vassalboro","state":"ME","lat":44.4862,"long":-69.6225},{"zip":"04963","city":"Oakland","state":"ME","lat":44.5173,"long":-69.7401},{"zip":"04989","city":"Vassalboro","state":"ME","lat":44.4405,"long":-69.6519},{"zip":"04928","city":"Corinna","state":"ME","lat":44.926,"long":-69.2323},{"zip":"04930","city":"Dexter","state":"ME","lat":45.0203,"long":-69.2797},{"zip":"04932","city":"Dixmont","state":"ME","lat":44.6991,"long":-69.1025},{"zip":"04933","city":"East Newport","state":"ME","lat":44.8209,"long":-69.2225},{"zip":"04939","city":"Garland","state":"ME","lat":45.0149,"long":-69.157},{"zip":"04953","city":"Newport","state":"ME","lat":44.8393,"long":-69.2675},{"zip":"04969","city":"Plymouth","state":"ME","lat":44.7699,"long":-69.2266},{"zip":"04911","city":"Anson","state":"ME","lat":44.7831,"long":-69.9309},{"zip":"04912","city":"Athens","state":"ME","lat":44.9388,"long":-69.6695},{"zip":"04920","city":"Bingham","state":"ME","lat":45.0682,"long":-69.8857},{"zip":"04923","city":"Cambridge","state":"ME","lat":45.0513,"long":-69.4419},{"zip":"04924","city":"Canaan","state":"ME","lat":44.745,"long":-69.5498},{"zip":"04925","city":"Caratunk","state":"ME","lat":45.241,"long":-69.9386},{"zip":"04929","city":"Detroit","state":"ME","lat":44.7615,"long":-69.3227},{"zip":"04937","city":"Fairfield","state":"ME","lat":44.6463,"long":-69.6802},{"zip":"04942","city":"Harmony","state":"ME","lat":44.973,"long":-69.5481},{"zip":"04943","city":"Hartland","state":"ME","lat":44.8782,"long":-69.4718},{"zip":"04944","city":"Hinckley","state":"ME","lat":44.6847,"long":-69.6425},{"zip":"04945","city":"Jackman","state":"ME","lat":45.6351,"long":-70.2492},{"zip":"04950","city":"Madison","state":"ME","lat":44.8096,"long":-69.8449},{"zip":"04954","city":"New Portland","state":"ME","lat":44.8842,"long":-70.0967},{"zip":"04957","city":"Norridgewock","state":"ME","lat":44.6899,"long":-69.8306},{"zip":"04958","city":"North Anson","state":"ME","lat":44.8797,"long":-69.9119},{"zip":"04961","city":"New Portland","state":"ME","lat":44.9251,"long":-70.0231},{"zip":"04965","city":"Palmyra","state":"ME","lat":44.8576,"long":-69.3811},{"zip":"04967","city":"Pittsfield","state":"ME","lat":44.7871,"long":-69.4022},{"zip":"04971","city":"Saint Albans","state":"ME","lat":44.9293,"long":-69.3992},{"zip":"04975","city":"Shawmut","state":"ME","lat":44.6245,"long":-69.5869},{"zip":"04976","city":"Skowhegan","state":"ME","lat":44.7772,"long":-69.6976},{"zip":"04978","city":"Smithfield","state":"ME","lat":44.6301,"long":-69.8075},{"zip":"04979","city":"Solon","state":"ME","lat":44.9676,"long":-69.833},{"zip":"04985","city":"West Forks","state":"ME","lat":45.3839,"long":-69.9841},{"zip":"04915","city":"Belfast","state":"ME","lat":44.4354,"long":-69.0148},{"zip":"04921","city":"Brooks","state":"ME","lat":44.5678,"long":-69.1404},{"zip":"04922","city":"Burnham","state":"ME","lat":44.6848,"long":-69.38},{"zip":"04941","city":"Freedom","state":"ME","lat":44.4633,"long":-69.319},{"zip":"04949","city":"Liberty","state":"ME","lat":44.3741,"long":-69.3306},{"zip":"04951","city":"Monroe","state":"ME","lat":44.5927,"long":-69.0317},{"zip":"04952","city":"Morrill","state":"ME","lat":44.4107,"long":-69.1471},{"zip":"04972","city":"Sandy Point","state":"ME","lat":44.5148,"long":-68.8128},{"zip":"04973","city":"Searsmont","state":"ME","lat":44.377,"long":-69.2196},{"zip":"04974","city":"Searsport","state":"ME","lat":44.4877,"long":-68.9311},{"zip":"04981","city":"Stockton Springs","state":"ME","lat":44.5141,"long":-68.856},{"zip":"04986","city":"Thorndike","state":"ME","lat":44.5744,"long":-69.2487},{"zip":"04987","city":"Troy","state":"ME","lat":44.6757,"long":-69.2549},{"zip":"04988","city":"Unity","state":"ME","lat":44.6007,"long":-69.3328}]
