[{"zip":"05501","city":"Andover","state":"MA","lat":42.6472,"long":-71.1842},{"zip":"05544","city":"Andover","state":"MA","lat":42.6472,"long":-71.1842},{"zip":"05443","city":"Bristol","state":"VT","lat":44.146,"long":-73.0717},{"zip":"05456","city":"Ferrisburgh","state":"VT","lat":44.2056,"long":-73.2462},{"zip":"05469","city":"Monkton","state":"VT","lat":44.2404,"long":-73.1347},{"zip":"05472","city":"New Haven","state":"VT","lat":44.1126,"long":-73.1735},{"zip":"05473","city":"North Ferrisburgh","state":"VT","lat":44.2595,"long":-73.2112},{"zip":"05487","city":"Starksboro","state":"VT","lat":44.2261,"long":-73.0157},{"zip":"05491","city":"Vergennes","state":"VT","lat":44.1326,"long":-73.2793},{"zip":"05669","city":"Roxbury","state":"VT","lat":44.0846,"long":-72.7202},{"zip":"05734","city":"Bridport","state":"VT","lat":43.9538,"long":-73.3476},{"zip":"05740","city":"East Middlebury","state":"VT","lat":43.9715,"long":-73.0914},{"zip":"05747","city":"Granville","state":"VT","lat":43.9849,"long":-72.8245},{"zip":"05748","city":"Hancock","state":"VT","lat":43.9125,"long":-72.9133},{"zip":"05753","city":"Middlebury","state":"VT","lat":43.9919,"long":-73.1716},{"zip":"05760","city":"Orwell","state":"VT","lat":43.7837,"long":-73.2949},{"zip":"05766","city":"Ripton","state":"VT","lat":43.9929,"long":-73.0187},{"zip":"05769","city":"Salisbury","state":"VT","lat":43.9017,"long":-73.1008},{"zip":"05770","city":"Shoreham","state":"VT","lat":43.8862,"long":-73.3054},{"zip":"05778","city":"Whiting","state":"VT","lat":43.894,"long":-73.203},{"zip":"05152","city":"Peru","state":"VT","lat":43.2565,"long":-72.8868},{"zip":"05201","city":"Bennington","state":"VT","lat":42.8827,"long":-73.1923},{"zip":"05250","city":"Arlington","state":"VT","lat":43.0857,"long":-73.1594},{"zip":"05251","city":"Dorset","state":"VT","lat":43.2636,"long":-73.0766},{"zip":"05252","city":"East Arlington","state":"VT","lat":43.0668,"long":-73.0611},{"zip":"05253","city":"East Dorset","state":"VT","lat":43.237,"long":-73.0081},{"zip":"05254","city":"Manchester","state":"VT","lat":43.1637,"long":-73.0723},{"zip":"05255","city":"Manchester Center","state":"VT","lat":43.1693,"long":-73.0474},{"zip":"05257","city":"North Bennington","state":"VT","lat":42.9304,"long":-73.2426},{"zip":"05260","city":"North Pownal","state":"VT","lat":42.8098,"long":-73.2534},{"zip":"05261","city":"Pownal","state":"VT","lat":42.788,"long":-73.2162},{"zip":"05262","city":"Shaftsbury","state":"VT","lat":42.9614,"long":-73.2166},{"zip":"05340","city":"Bondville","state":"VT","lat":43.1618,"long":-72.9128},{"zip":"05350","city":"Readsboro","state":"VT","lat":42.7837,"long":-72.9609},{"zip":"05352","city":"Stamford","state":"VT","lat":42.7562,"long":-73.0679},{"zip":"05768","city":"Rupert","state":"VT","lat":43.2598,"long":-73.2229},{"zip":"05776","city":"West Rupert","state":"VT","lat":43.2636,"long":-73.1905},{"zip":"05042","city":"East Ryegate","state":"VT","lat":44.2275,"long":-72.0996},{"zip":"05046","city":"Groton","state":"VT","lat":44.2204,"long":-72.2175},{"zip":"05050","city":"Mc Indoe Falls","state":"VT","lat":44.4624,"long":-72.1358},{"zip":"05069","city":"South Ryegate","state":"VT","lat":44.1978,"long":-72.1104},{"zip":"05819","city":"Saint Johnsbury","state":"VT","lat":44.4272,"long":-72.0051},{"zip":"05821","city":"Barnet","state":"VT","lat":44.3179,"long":-72.0783},{"zip":"05828","city":"Danville","state":"VT","lat":44.4332,"long":-72.1133},{"zip":"05832","city":"East Burke","state":"VT","lat":44.6078,"long":-71.9357},{"zip":"05836","city":"East Hardwick","state":"VT","lat":44.5288,"long":-72.3034},{"zip":"05838","city":"East Saint Johnsbury","state":"VT","lat":44.4387,"long":-71.9456},{"zip":"05843","city":"Hardwick","state":"VT","lat":44.507,"long":-72.3638},{"zip":"05848","city":"Lower Waterford","state":"VT","lat":44.3821,"long":-71.9195},{"zip":"05849","city":"Lyndon","state":"VT","lat":44.4976,"long":-71.9505},{"zip":"05850","city":"Lyndon Center","state":"VT","lat":44.5416,"long":-72.0175},{"zip":"05851","city":"Lyndonville","state":"VT","lat":44.5555,"long":-72.0715},{"zip":"05861","city":"Passumpsic","state":"VT","lat":44.3767,"long":-72.0276},{"zip":"05862","city":"Peacham","state":"VT","lat":44.3289,"long":-72.169},{"zip":"05863","city":"Saint Johnsbury Center","state":"VT","lat":44.4567,"long":-72.0157},{"zip":"05866","city":"Sheffield","state":"VT","lat":44.6178,"long":-72.1239},{"zip":"05867","city":"Sutton","state":"VT","lat":44.6465,"long":-72.0211},{"zip":"05871","city":"West Burke","state":"VT","lat":44.6636,"long":-71.9572},{"zip":"05873","city":"West Danville","state":"VT","lat":44.4465,"long":-72.2198},{"zip":"05401","city":"Burlington","state":"VT","lat":44.484,"long":-73.2199},{"zip":"05402","city":"Burlington","state":"VT","lat":44.4421,"long":-73.0825},{"zip":"05403","city":"South Burlington","state":"VT","lat":44.4513,"long":-73.1796},{"zip":"05404","city":"Winooski","state":"VT","lat":44.4949,"long":-73.1874},{"zip":"05405","city":"Burlington","state":"VT","lat":44.4421,"long":-73.0825},{"zip":"05406","city":"Burlington","state":"VT","lat":44.4421,"long":-73.0825},{"zip":"05407","city":"South Burlington","state":"VT","lat":44.4421,"long":-73.0825},{"zip":"05408","city":"Burlington","state":"VT","lat":44.512,"long":-73.2492},{"zip":"05439","city":"Colchester","state":"VT","lat":44.4952,"long":-73.1651},{"zip":"05445","city":"Charlotte","state":"VT","lat":44.3113,"long":-73.228},{"zip":"05446","city":"Colchester","state":"VT","lat":44.536,"long":-73.2022},{"zip":"05449","city":"Colchester","state":"VT","lat":44.5439,"long":-73.1479},{"zip":"05451","city":"Essex","state":"VT","lat":44.5084,"long":-73.0503},{"zip":"05452","city":"Essex Junction","state":"VT","lat":44.5035,"long":-73.0906},{"zip":"05453","city":"Essex Junction","state":"VT","lat":44.4421,"long":-73.0825},{"zip":"05461","city":"Hinesburg","state":"VT","lat":44.3346,"long":-73.098},{"zip":"05462","city":"Huntington","state":"VT","lat":44.3227,"long":-72.9964},{"zip":"05465","city":"Jericho","state":"VT","lat":44.459,"long":-72.9552},{"zip":"05466","city":"Jonesville","state":"VT","lat":44.3839,"long":-72.9376},{"zip":"05468","city":"Milton","state":"VT","lat":44.6483,"long":-73.1317},{"zip":"05477","city":"Richmond","state":"VT","lat":44.3873,"long":-72.9533},{"zip":"05482","city":"Shelburne","state":"VT","lat":44.39,"long":-73.2171},{"zip":"05489","city":"Underhill","state":"VT","lat":44.5391,"long":-72.9258},{"zip":"05490","city":"Underhill Center","state":"VT","lat":44.5047,"long":-72.8853},{"zip":"05494","city":"Westford","state":"VT","lat":44.6182,"long":-73.006},{"zip":"05495","city":"Williston","state":"VT","lat":44.4367,"long":-73.0957},{"zip":"05824","city":"Concord","state":"VT","lat":44.4461,"long":-71.8676},{"zip":"05837","city":"East Haven","state":"VT","lat":44.6517,"long":-71.8675},{"zip":"05840","city":"Granby","state":"VT","lat":44.6808,"long":-71.7194},{"zip":"05846","city":"Island Pond","state":"VT","lat":44.8095,"long":-71.884},{"zip":"05858","city":"North Concord","state":"VT","lat":44.5501,"long":-71.7867},{"zip":"05901","city":"Averill","state":"VT","lat":44.6808,"long":-71.7194},{"zip":"05902","city":"Beecher Falls","state":"VT","lat":45.0085,"long":-71.4907},{"zip":"05903","city":"Canaan","state":"VT","lat":44.9764,"long":-71.5602},{"zip":"05904","city":"Gilman","state":"VT","lat":44.414,"long":-71.7179},{"zip":"05905","city":"Guildhall","state":"VT","lat":44.6902,"long":-71.5991},{"zip":"05906","city":"Lunenburg","state":"VT","lat":44.4663,"long":-71.693},{"zip":"05907","city":"Norton","state":"VT","lat":44.9888,"long":-71.7884},{"zip":"05441","city":"Bakersfield","state":"VT","lat":44.7914,"long":-72.7697},{"zip":"05447","city":"East Berkshire","state":"VT","lat":44.931,"long":-72.7028},{"zip":"05448","city":"East Fairfield","state":"VT","lat":44.7412,"long":-72.8827},{"zip":"05450","city":"Enosburg Falls","state":"VT","lat":44.8985,"long":-72.791},{"zip":"05454","city":"Fairfax","state":"VT","lat":44.6924,"long":-73.0241},{"zip":"05455","city":"Fairfield","state":"VT","lat":44.7841,"long":-73.0222},{"zip":"05457","city":"Franklin","state":"VT","lat":44.9614,"long":-72.9037},{"zip":"05459","city":"Highgate Center","state":"VT","lat":44.9404,"long":-73.0155},{"zip":"05460","city":"Highgate Springs","state":"VT","lat":44.9748,"long":-73.1052},{"zip":"05470","city":"Montgomery","state":"VT","lat":44.9025,"long":-72.6382},{"zip":"05471","city":"Montgomery Center","state":"VT","lat":44.8781,"long":-72.6023},{"zip":"05476","city":"Richford","state":"VT","lat":44.9715,"long":-72.6905},{"zip":"05478","city":"Saint Albans","state":"VT","lat":44.8111,"long":-73.089},{"zip":"05479","city":"Saint Albans","state":"VT","lat":44.8109,"long":-73.0832},{"zip":"05481","city":"Saint Albans Bay","state":"VT","lat":44.8078,"long":-73.1393},{"zip":"05483","city":"Sheldon","state":"VT","lat":44.8872,"long":-72.953},{"zip":"05485","city":"Sheldon Springs","state":"VT","lat":44.9056,"long":-72.9632},{"zip":"05488","city":"Swanton","state":"VT","lat":44.9168,"long":-73.1211},{"zip":"05440","city":"Alburgh","state":"VT","lat":44.6031,"long":-72.9527},{"zip":"05458","city":"Grand Isle","state":"VT","lat":44.7197,"long":-73.3056},{"zip":"05463","city":"Isle La Motte","state":"VT","lat":44.8781,"long":-73.3386},{"zip":"05474","city":"North Hero","state":"VT","lat":44.8353,"long":-73.2778},{"zip":"05486","city":"South Hero","state":"VT","lat":44.64,"long":-73.3113},{"zip":"05442","city":"Belvidere Center","state":"VT","lat":44.7248,"long":-72.7016},{"zip":"05444","city":"Cambridge","state":"VT","lat":44.6222,"long":-72.8812},{"zip":"05464","city":"Jeffersonville","state":"VT","lat":44.6388,"long":-72.822},{"zip":"05492","city":"Waterville","state":"VT","lat":44.7124,"long":-72.7596},{"zip":"05652","city":"Eden","state":"VT","lat":44.7343,"long":-72.5863},{"zip":"05653","city":"Eden Mills","state":"VT","lat":44.6931,"long":-72.5134},{"zip":"05655","city":"Hyde Park","state":"VT","lat":44.6225,"long":-72.595},{"zip":"05656","city":"Johnson","state":"VT","lat":44.642,"long":-72.6712},{"zip":"05657","city":"Lake Elmore","state":"VT","lat":44.5999,"long":-72.6475},{"zip":"05661","city":"Morrisville","state":"VT","lat":44.5543,"long":-72.6026},{"zip":"05662","city":"Moscow","state":"VT","lat":44.442,"long":-72.7188},{"zip":"05665","city":"North Hyde Park","state":"VT","lat":44.6731,"long":-72.5971},{"zip":"05672","city":"Stowe","state":"VT","lat":44.4695,"long":-72.6923},{"zip":"05680","city":"Wolcott","state":"VT","lat":44.5558,"long":-72.4844},{"zip":"05033","city":"Bradford","state":"VT","lat":44.0006,"long":-72.1406},{"zip":"05036","city":"Brookfield","state":"VT","lat":44.0321,"long":-72.5953},{"zip":"05038","city":"Chelsea","state":"VT","lat":44.0039,"long":-72.4793},{"zip":"05039","city":"Corinth","state":"VT","lat":44.0325,"long":-72.2822},{"zip":"05040","city":"East Corinth","state":"VT","lat":44.0619,"long":-72.2151},{"zip":"05041","city":"East Randolph","state":"VT","lat":43.9553,"long":-72.5487},{"zip":"05043","city":"East Thetford","state":"VT","lat":43.8073,"long":-72.2147},{"zip":"05045","city":"Fairlee","state":"VT","lat":43.901,"long":-72.1902},{"zip":"05051","city":"Newbury","state":"VT","lat":44.0683,"long":-72.1187},{"zip":"05054","city":"North Thetford","state":"VT","lat":43.8431,"long":-72.1856},{"zip":"05058","city":"Post Mills","state":"VT","lat":43.8858,"long":-72.27},{"zip":"05060","city":"Randolph","state":"VT","lat":43.9444,"long":-72.6726},{"zip":"05061","city":"Randolph Center","state":"VT","lat":43.9379,"long":-72.597},{"zip":"05070","city":"South Strafford","state":"VT","lat":43.8282,"long":-72.37},{"zip":"05072","city":"Strafford","state":"VT","lat":43.8723,"long":-72.3636},{"zip":"05074","city":"Thetford","state":"VT","lat":43.996,"long":-72.4114},{"zip":"05075","city":"Thetford Center","state":"VT","lat":43.8149,"long":-72.2662},{"zip":"05076","city":"Topsham","state":"VT","lat":43.7982,"long":-72.4008},{"zip":"05077","city":"Tunbridge","state":"VT","lat":43.9169,"long":-72.4786},{"zip":"05079","city":"Vershire","state":"VT","lat":43.9618,"long":-72.319},{"zip":"05081","city":"Wells River","state":"VT","lat":44.1524,"long":-72.053},{"zip":"05083","city":"West Fairlee","state":"VT","lat":43.9189,"long":-72.2681},{"zip":"05085","city":"West Newbury","state":"VT","lat":44.0645,"long":-72.1248},{"zip":"05086","city":"West Topsham","state":"VT","lat":44.1199,"long":-72.2701},{"zip":"05675","city":"Washington","state":"VT","lat":44.0782,"long":-72.4263},{"zip":"05679","city":"Williamstown","state":"VT","lat":44.1182,"long":-72.5381},{"zip":"05820","city":"Albany","state":"VT","lat":44.7417,"long":-72.3646},{"zip":"05822","city":"Barton","state":"VT","lat":44.7395,"long":-72.16},{"zip":"05823","city":"Beebe Plain","state":"VT","lat":45.0058,"long":-72.1383},{"zip":"05825","city":"Coventry","state":"VT","lat":44.8656,"long":-72.2648},{"zip":"05826","city":"Craftsbury","state":"VT","lat":44.6434,"long":-72.366},{"zip":"05827","city":"Craftsbury Common","state":"VT","lat":44.6788,"long":-72.3594},{"zip":"05829","city":"Derby","state":"VT","lat":44.9502,"long":-72.1376},{"zip":"05830","city":"Derby Line","state":"VT","lat":44.9902,"long":-72.0824},{"zip":"05833","city":"East Charleston","state":"VT","lat":44.8299,"long":-71.9763},{"zip":"05839","city":"Glover","state":"VT","lat":44.6747,"long":-72.2131},{"zip":"05841","city":"Greensboro","state":"VT","lat":44.5951,"long":-72.285},{"zip":"05842","city":"Greensboro Bend","state":"VT","lat":44.5489,"long":-72.2648},{"zip":"05845","city":"Irasburg","state":"VT","lat":44.8081,"long":-72.2763},{"zip":"05847","city":"Lowell","state":"VT","lat":44.7961,"long":-72.4501},{"zip":"05853","city":"Morgan","state":"VT","lat":44.8787,"long":-71.9714},{"zip":"05855","city":"Newport","state":"VT","lat":44.9393,"long":-72.2065},{"zip":"05857","city":"Newport Center","state":"VT","lat":44.9442,"long":-72.2974},{"zip":"05859","city":"North Troy","state":"VT","lat":44.9378,"long":-72.4334},{"zip":"05860","city":"Orleans","state":"VT","lat":44.8238,"long":-72.102},{"zip":"05868","city":"Troy","state":"VT","lat":44.9014,"long":-72.4015},{"zip":"05872","city":"West Charleston","state":"VT","lat":44.8729,"long":-72.0521},{"zip":"05874","city":"Westfield","state":"VT","lat":44.8825,"long":-72.4396},{"zip":"05875","city":"Barton","state":"VT","lat":44.7481,"long":-72.1762},{"zip":"05701","city":"Rutland","state":"VT","lat":43.6141,"long":-72.9708},{"zip":"05702","city":"Rutland","state":"VT","lat":43.6106,"long":-72.9726},{"zip":"05730","city":"Belmont","state":"VT","lat":43.4284,"long":-72.8257},{"zip":"05731","city":"Benson","state":"VT","lat":43.6877,"long":-73.2919},{"zip":"05732","city":"Bomoseen","state":"VT","lat":43.6437,"long":-73.2094},{"zip":"05733","city":"Brandon","state":"VT","lat":43.8065,"long":-73.0882},{"zip":"05735","city":"Castleton","state":"VT","lat":43.6223,"long":-73.1708},{"zip":"05736","city":"Center Rutland","state":"VT","lat":43.6023,"long":-73.017},{"zip":"05737","city":"Chittenden","state":"VT","lat":43.7132,"long":-72.9252},{"zip":"05738","city":"Cuttingsville","state":"VT","lat":43.5221,"long":-72.8691},{"zip":"05739","city":"Danby","state":"VT","lat":43.3583,"long":-73.0129},{"zip":"05741","city":"East Poultney","state":"VT","lat":43.5265,"long":-73.2046},{"zip":"05742","city":"East Wallingford","state":"VT","lat":43.4461,"long":-72.8844},{"zip":"05743","city":"Fair Haven","state":"VT","lat":43.6234,"long":-73.2701},{"zip":"05744","city":"Florence","state":"VT","lat":43.7093,"long":-73.079},{"zip":"05745","city":"Forest Dale","state":"VT","lat":43.8278,"long":-73.0537},{"zip":"05750","city":"Hydeville","state":"VT","lat":43.5994,"long":-73.251},{"zip":"05751","city":"Killington","state":"VT","lat":43.6634,"long":-72.7963},{"zip":"05757","city":"Middletown Springs","state":"VT","lat":43.4856,"long":-73.1182},{"zip":"05758","city":"Mount Holly","state":"VT","lat":43.4487,"long":-72.7956},{"zip":"05759","city":"North Clarendon","state":"VT","lat":43.5522,"long":-72.9561},{"zip":"05761","city":"Pawlet","state":"VT","lat":43.3587,"long":-73.1444},{"zip":"05762","city":"Pittsfield","state":"VT","lat":43.7723,"long":-72.8129},{"zip":"05763","city":"Pittsford","state":"VT","lat":43.7152,"long":-73.0135},{"zip":"05764","city":"Poultney","state":"VT","lat":43.5332,"long":-73.2253},{"zip":"05765","city":"Proctor","state":"VT","lat":43.658,"long":-73.0348},{"zip":"05773","city":"Wallingford","state":"VT","lat":43.4573,"long":-72.9877},{"zip":"05774","city":"Wells","state":"VT","lat":43.4305,"long":-73.2027},{"zip":"05775","city":"West Pawlet","state":"VT","lat":43.3667,"long":-73.2313},{"zip":"05777","city":"West Rutland","state":"VT","lat":43.5781,"long":-73.0424},{"zip":"05601","city":"Montpelier","state":"VT","lat":44.1991,"long":-72.5596},{"zip":"05602","city":"Montpelier","state":"VT","lat":44.2641,"long":-72.577},{"zip":"05603","city":"Montpelier","state":"VT","lat":44.2601,"long":-72.5754},{"zip":"05604","city":"Montpelier","state":"VT","lat":44.2595,"long":-72.585},{"zip":"05609","city":"Montpelier","state":"VT","lat":44.2595,"long":-72.585},{"zip":"05620","city":"Montpelier","state":"VT","lat":44.2595,"long":-72.585},{"zip":"05633","city":"Montpelier","state":"VT","lat":44.2595,"long":-72.585},{"zip":"05640","city":"Adamant","state":"VT","lat":44.3575,"long":-72.5046},{"zip":"05641","city":"Barre","state":"VT","lat":44.1945,"long":-72.4936},{"zip":"05647","city":"Cabot","state":"VT","lat":44.4042,"long":-72.3064},{"zip":"05648","city":"Calais","state":"VT","lat":44.3934,"long":-72.4741},{"zip":"05649","city":"East Barre","state":"VT","lat":44.1576,"long":-72.4533},{"zip":"05650","city":"East Calais","state":"VT","lat":44.38,"long":-72.4419},{"zip":"05651","city":"East Montpelier","state":"VT","lat":44.2828,"long":-72.4926},{"zip":"05654","city":"Graniteville","state":"VT","lat":44.1512,"long":-72.4929},{"zip":"05658","city":"Marshfield","state":"VT","lat":44.3509,"long":-72.354},{"zip":"05660","city":"Moretown","state":"VT","lat":44.2596,"long":-72.7494},{"zip":"05663","city":"Northfield","state":"VT","lat":44.1512,"long":-72.6565},{"zip":"05664","city":"Northfield Falls","state":"VT","lat":44.1835,"long":-72.6466},{"zip":"05666","city":"North Montpelier","state":"VT","lat":44.2595,"long":-72.585},{"zip":"05667","city":"Plainfield","state":"VT","lat":44.2622,"long":-72.4224},{"zip":"05670","city":"South Barre","state":"VT","lat":44.1757,"long":-72.5025},{"zip":"05671","city":"Waterbury","state":"VT","lat":44.3378,"long":-72.7562},{"zip":"05673","city":"Waitsfield","state":"VT","lat":44.1889,"long":-72.8283},{"zip":"05674","city":"Warren","state":"VT","lat":44.111,"long":-72.8609},{"zip":"05676","city":"Waterbury","state":"VT","lat":44.3451,"long":-72.7798},{"zip":"05677","city":"Waterbury Center","state":"VT","lat":44.3828,"long":-72.708},{"zip":"05678","city":"Websterville","state":"VT","lat":44.1558,"long":-72.4658},{"zip":"05681","city":"Woodbury","state":"VT","lat":44.4548,"long":-72.4036},{"zip":"05682","city":"Worcester","state":"VT","lat":44.3944,"long":-72.5609},{"zip":"05101","city":"Bellows Falls","state":"VT","lat":43.1482,"long":-72.4664},{"zip":"05141","city":"Cambridgeport","state":"VT","lat":43.1515,"long":-72.5604},{"zip":"05146","city":"Grafton","state":"VT","lat":43.1601,"long":-72.5972},{"zip":"05148","city":"Londonderry","state":"VT","lat":43.2281,"long":-72.788},{"zip":"05154","city":"Saxtons River","state":"VT","lat":43.1379,"long":-72.5098},{"zip":"05155","city":"South Londonderry","state":"VT","lat":43.1699,"long":-72.8515},{"zip":"05158","city":"Westminster","state":"VT","lat":43.0826,"long":-72.4749},{"zip":"05159","city":"Westminster Station","state":"VT","lat":43.094,"long":-72.4565},{"zip":"05301","city":"Brattleboro","state":"VT","lat":42.8574,"long":-72.5933},{"zip":"05302","city":"Brattleboro","state":"VT","lat":42.8509,"long":-72.5579},{"zip":"05303","city":"Brattleboro","state":"VT","lat":42.8509,"long":-72.5579},{"zip":"05304","city":"Brattleboro","state":"VT","lat":42.8509,"long":-72.5579},{"zip":"05341","city":"East Dover","state":"VT","lat":42.9505,"long":-72.783},{"zip":"05342","city":"Jacksonville","state":"VT","lat":42.7778,"long":-72.8071},{"zip":"05343","city":"Jamaica","state":"VT","lat":43.1042,"long":-72.7944},{"zip":"05344","city":"Marlboro","state":"VT","lat":42.9947,"long":-72.7204},{"zip":"05345","city":"Newfane","state":"VT","lat":42.9704,"long":-72.6781},{"zip":"05346","city":"Putney","state":"VT","lat":43.0356,"long":-72.5123},{"zip":"05351","city":"South Newfane","state":"VT","lat":42.9391,"long":-72.7292},{"zip":"05353","city":"Townshend","state":"VT","lat":43.0622,"long":-72.6687},{"zip":"05354","city":"Vernon","state":"VT","lat":42.7565,"long":-72.5115},{"zip":"05355","city":"Wardsboro","state":"VT","lat":43.0326,"long":-72.8077},{"zip":"05356","city":"West Dover","state":"VT","lat":42.9535,"long":-72.8687},{"zip":"05357","city":"West Dummerston","state":"VT","lat":42.9265,"long":-72.6154},{"zip":"05358","city":"West Halifax","state":"VT","lat":42.7761,"long":-72.7501},{"zip":"05359","city":"West Townshend","state":"VT","lat":43.13,"long":-72.721},{"zip":"05360","city":"West Wardsboro","state":"VT","lat":43.0472,"long":-72.8805},{"zip":"05361","city":"Whitingham","state":"VT","lat":42.7892,"long":-72.8851},{"zip":"05362","city":"Williamsville","state":"VT","lat":42.9364,"long":-72.6611},{"zip":"05363","city":"Wilmington","state":"VT","lat":42.8812,"long":-72.8613},{"zip":"05001","city":"White River Junction","state":"VT","lat":43.6722,"long":-72.3813},{"zip":"05009","city":"White River Junction","state":"VT","lat":43.649,"long":-72.3193},{"zip":"05030","city":"Ascutney","state":"VT","lat":43.4107,"long":-72.4298},{"zip":"05031","city":"Barnard","state":"VT","lat":43.7287,"long":-72.619},{"zip":"05032","city":"Bethel","state":"VT","lat":43.8195,"long":-72.6528},{"zip":"05034","city":"Bridgewater","state":"VT","lat":43.5804,"long":-72.6467},{"zip":"05035","city":"Bridgewater Corners","state":"VT","lat":43.5998,"long":-72.6752},{"zip":"05037","city":"Brownsville","state":"VT","lat":43.4646,"long":-72.4944},{"zip":"05047","city":"Hartford","state":"VT","lat":43.6721,"long":-72.3555},{"zip":"05048","city":"Hartland","state":"VT","lat":43.5708,"long":-72.4131},{"zip":"05049","city":"Hartland Four Corners","state":"VT","lat":43.5465,"long":-72.4245},{"zip":"05052","city":"North Hartland","state":"VT","lat":43.5967,"long":-72.3526},{"zip":"05053","city":"North Pomfret","state":"VT","lat":43.7204,"long":-72.4943},{"zip":"05055","city":"Norwich","state":"VT","lat":43.7404,"long":-72.3016},{"zip":"05056","city":"Plymouth","state":"VT","lat":43.4987,"long":-72.7107},{"zip":"05059","city":"Quechee","state":"VT","lat":43.6641,"long":-72.4331},{"zip":"05062","city":"Reading","state":"VT","lat":43.4793,"long":-72.5704},{"zip":"05065","city":"Sharon","state":"VT","lat":43.7748,"long":-72.4243},{"zip":"05067","city":"South Pomfret","state":"VT","lat":43.6797,"long":-72.5349},{"zip":"05068","city":"South Royalton","state":"VT","lat":43.8089,"long":-72.5232},{"zip":"05071","city":"South Woodstock","state":"VT","lat":43.5601,"long":-72.5384},{"zip":"05073","city":"Taftsville","state":"VT","lat":43.6309,"long":-72.4891},{"zip":"05084","city":"West Hartford","state":"VT","lat":43.7185,"long":-72.4439},{"zip":"05088","city":"Wilder","state":"VT","lat":43.6735,"long":-72.312},{"zip":"05089","city":"Windsor","state":"VT","lat":43.476,"long":-72.411},{"zip":"05091","city":"Woodstock","state":"VT","lat":43.6248,"long":-72.5385},{"zip":"05142","city":"Cavendish","state":"VT","lat":43.3766,"long":-72.6092},{"zip":"05143","city":"Chester","state":"VT","lat":43.2831,"long":-72.6031},{"zip":"05149","city":"Ludlow","state":"VT","lat":43.3929,"long":-72.7002},{"zip":"05150","city":"North Springfield","state":"VT","lat":43.338,"long":-72.5277},{"zip":"05151","city":"Perkinsville","state":"VT","lat":43.3879,"long":-72.5038},{"zip":"05153","city":"Proctorsville","state":"VT","lat":43.3823,"long":-72.6384},{"zip":"05156","city":"Springfield","state":"VT","lat":43.3034,"long":-72.4778},{"zip":"05161","city":"Weston","state":"VT","lat":43.2941,"long":-72.7935},{"zip":"05746","city":"Gaysville","state":"VT","lat":43.7784,"long":-72.699},{"zip":"05767","city":"Rochester","state":"VT","lat":43.8804,"long":-72.8159},{"zip":"05772","city":"Stockbridge","state":"VT","lat":43.7738,"long":-72.7814}]
