[{"zip":"05042","city":"East Ryegate","state":"VT","lat":44.2275,"long":-72.0996},{"zip":"05046","city":"Groton","state":"VT","lat":44.2204,"long":-72.2175},{"zip":"05050","city":"Mc Indoe Falls","state":"VT","lat":44.4624,"long":-72.1358},{"zip":"05069","city":"South Ryegate","state":"VT","lat":44.1978,"long":-72.1104},{"zip":"05033","city":"Bradford","state":"VT","lat":44.0006,"long":-72.1406},{"zip":"05036","city":"Brookfield","state":"VT","lat":44.0321,"long":-72.5953},{"zip":"05038","city":"Chelsea","state":"VT","lat":44.0039,"long":-72.4793},{"zip":"05039","city":"Corinth","state":"VT","lat":44.0325,"long":-72.2822},{"zip":"05040","city":"East Corinth","state":"VT","lat":44.0619,"long":-72.2151},{"zip":"05041","city":"East Randolph","state":"VT","lat":43.9553,"long":-72.5487},{"zip":"05043","city":"East Thetford","state":"VT","lat":43.8073,"long":-72.2147},{"zip":"05045","city":"Fairlee","state":"VT","lat":43.901,"long":-72.1902},{"zip":"05051","city":"Newbury","state":"VT","lat":44.0683,"long":-72.1187},{"zip":"05054","city":"North Thetford","state":"VT","lat":43.8431,"long":-72.1856},{"zip":"05058","city":"Post Mills","state":"VT","lat":43.8858,"long":-72.27},{"zip":"05060","city":"Randolph","state":"VT","lat":43.9444,"long":-72.6726},{"zip":"05061","city":"Randolph Center","state":"VT","lat":43.9379,"long":-72.597},{"zip":"05070","city":"South Strafford","state":"VT","lat":43.8282,"long":-72.37},{"zip":"05072","city":"Strafford","state":"VT","lat":43.8723,"long":-72.3636},{"zip":"05074","city":"Thetford","state":"VT","lat":43.996,"long":-72.4114},{"zip":"05075","city":"Thetford Center","state":"VT","lat":43.8149,"long":-72.2662},{"zip":"05076","city":"Topsham","state":"VT","lat":43.7982,"long":-72.4008},{"zip":"05077","city":"Tunbridge","state":"VT","lat":43.9169,"long":-72.4786},{"zip":"05079","city":"Vershire","state":"VT","lat":43.9618,"long":-72.319},{"zip":"05081","city":"Wells River","state":"VT","lat":44.1524,"long":-72.053},{"zip":"05083","city":"West Fairlee","state":"VT","lat":43.9189,"long":-72.2681},{"zip":"05085","city":"West Newbury","state":"VT","lat":44.0645,"long":-72.1248},{"zip":"05086","city":"West Topsham","state":"VT","lat":44.1199,"long":-72.2701},{"zip":"05001","city":"White River Junction","state":"VT","lat":43.6722,"long":-72.3813},{"zip":"05009","city":"White River Junction","state":"VT","lat":43.649,"long":-72.3193},{"zip":"05030","city":"Ascutney","state":"VT","lat":43.4107,"long":-72.4298},{"zip":"05031","city":"Barnard","state":"VT","lat":43.7287,"long":-72.619},{"zip":"05032","city":"Bethel","state":"VT","lat":43.8195,"long":-72.6528},{"zip":"05034","city":"Bridgewater","state":"VT","lat":43.5804,"long":-72.6467},{"zip":"05035","city":"Bridgewater Corners","state":"VT","lat":43.5998,"long":-72.6752},{"zip":"05037","city":"Brownsville","state":"VT","lat":43.4646,"long":-72.4944},{"zip":"05047","city":"Hartford","state":"VT","lat":43.6721,"long":-72.3555},{"zip":"05048","city":"Hartland","state":"VT","lat":43.5708,"long":-72.4131},{"zip":"05049","city":"Hartland Four Corners","state":"VT","lat":43.5465,"long":-72.4245},{"zip":"05052","city":"North Hartland","state":"VT","lat":43.5967,"long":-72.3526},{"zip":"05053","city":"North Pomfret","state":"VT","lat":43.7204,"long":-72.4943},{"zip":"05055","city":"Norwich","state":"VT","lat":43.7404,"long":-72.3016},{"zip":"05056","city":"Plymouth","state":"VT","lat":43.4987,"long":-72.7107},{"zip":"05059","city":"Quechee","state":"VT","lat":43.6641,"long":-72.4331},{"zip":"05062","city":"Reading","state":"VT","lat":43.4793,"long":-72.5704},{"zip":"05065","city":"Sharon","state":"VT","lat":43.7748,"long":-72.4243},{"zip":"05067","city":"South Pomfret","state":"VT","lat":43.6797,"long":-72.5349},{"zip":"05068","city":"South Royalton","state":"VT","lat":43.8089,"long":-72.5232},{"zip":"05071","city":"South Woodstock","state":"VT","lat":43.5601,"long":-72.5384},{"zip":"05073","city":"Taftsville","state":"VT","lat":43.6309,"long":-72.4891},{"zip":"05084","city":"West Hartford","state":"VT","lat":43.7185,"long":-72.4439},{"zip":"05088","city":"Wilder","state":"VT","lat":43.6735,"long":-72.312},{"zip":"05089","city":"Windsor","state":"VT","lat":43.476,"long":-72.411},{"zip":"05091","city":"Woodstock","state":"VT","lat":43.6248,"long":-72.5385}]
