[{"zip":"05340","city":"Bondville","state":"VT","lat":43.1618,"long":-72.9128},{"zip":"05350","city":"Readsboro","state":"VT","lat":42.7837,"long":-72.9609},{"zip":"05352","city":"Stamford","state":"VT","lat":42.7562,"long":-73.0679},{"zip":"05301","city":"Brattleboro","state":"VT","lat":42.8574,"long":-72.5933},{"zip":"05302","city":"Brattleboro","state":"VT","lat":42.8509,"long":-72.5579},{"zip":"05303","city":"Brattleboro","state":"VT","lat":42.8509,"long":-72.5579},{"zip":"05304","city":"Brattleboro","state":"VT","lat":42.8509,"long":-72.5579},{"zip":"05341","city":"East Dover","state":"VT","lat":42.9505,"long":-72.783},{"zip":"05342","city":"Jacksonville","state":"VT","lat":42.7778,"long":-72.8071},{"zip":"05343","city":"Jamaica","state":"VT","lat":43.1042,"long":-72.7944},{"zip":"05344","city":"Marlboro","state":"VT","lat":42.9947,"long":-72.7204},{"zip":"05345","city":"Newfane","state":"VT","lat":42.9704,"long":-72.6781},{"zip":"05346","city":"Putney","state":"VT","lat":43.0356,"long":-72.5123},{"zip":"05351","city":"South Newfane","state":"VT","lat":42.9391,"long":-72.7292},{"zip":"05353","city":"Townshend","state":"VT","lat":43.0622,"long":-72.6687},{"zip":"05354","city":"Vernon","state":"VT","lat":42.7565,"long":-72.5115},{"zip":"05355","city":"Wardsboro","state":"VT","lat":43.0326,"long":-72.8077},{"zip":"05356","city":"West Dover","state":"VT","lat":42.9535,"long":-72.8687},{"zip":"05357","city":"West Dummerston","state":"VT","lat":42.9265,"long":-72.6154},{"zip":"05358","city":"West Halifax","state":"VT","lat":42.7761,"long":-72.7501},{"zip":"05359","city":"West Townshend","state":"VT","lat":43.13,"long":-72.721},{"zip":"05360","city":"West Wardsboro","state":"VT","lat":43.0472,"long":-72.8805},{"zip":"05361","city":"Whitingham","state":"VT","lat":42.7892,"long":-72.8851},{"zip":"05362","city":"Williamsville","state":"VT","lat":42.9364,"long":-72.6611},{"zip":"05363","city":"Wilmington","state":"VT","lat":42.8812,"long":-72.8613}]
