[{"zip":"05669","city":"Roxbury","state":"VT","lat":44.0846,"long":-72.7202},{"zip":"05652","city":"Eden","state":"VT","lat":44.7343,"long":-72.5863},{"zip":"05653","city":"Eden Mills","state":"VT","lat":44.6931,"long":-72.5134},{"zip":"05655","city":"Hyde Park","state":"VT","lat":44.6225,"long":-72.595},{"zip":"05656","city":"Johnson","state":"VT","lat":44.642,"long":-72.6712},{"zip":"05657","city":"Lake Elmore","state":"VT","lat":44.5999,"long":-72.6475},{"zip":"05661","city":"Morrisville","state":"VT","lat":44.5543,"long":-72.6026},{"zip":"05662","city":"Moscow","state":"VT","lat":44.442,"long":-72.7188},{"zip":"05665","city":"North Hyde Park","state":"VT","lat":44.6731,"long":-72.5971},{"zip":"05672","city":"Stowe","state":"VT","lat":44.4695,"long":-72.6923},{"zip":"05680","city":"Wolcott","state":"VT","lat":44.5558,"long":-72.4844},{"zip":"05675","city":"Washington","state":"VT","lat":44.0782,"long":-72.4263},{"zip":"05679","city":"Williamstown","state":"VT","lat":44.1182,"long":-72.5381},{"zip":"05601","city":"Montpelier","state":"VT","lat":44.1991,"long":-72.5596},{"zip":"05602","city":"Montpelier","state":"VT","lat":44.2641,"long":-72.577},{"zip":"05603","city":"Montpelier","state":"VT","lat":44.2601,"long":-72.5754},{"zip":"05604","city":"Montpelier","state":"VT","lat":44.2595,"long":-72.585},{"zip":"05609","city":"Montpelier","state":"VT","lat":44.2595,"long":-72.585},{"zip":"05620","city":"Montpelier","state":"VT","lat":44.2595,"long":-72.585},{"zip":"05633","city":"Montpelier","state":"VT","lat":44.2595,"long":-72.585},{"zip":"05640","city":"Adamant","state":"VT","lat":44.3575,"long":-72.5046},{"zip":"05641","city":"Barre","state":"VT","lat":44.1945,"long":-72.4936},{"zip":"05647","city":"Cabot","state":"VT","lat":44.4042,"long":-72.3064},{"zip":"05648","city":"Calais","state":"VT","lat":44.3934,"long":-72.4741},{"zip":"05649","city":"East Barre","state":"VT","lat":44.1576,"long":-72.4533},{"zip":"05650","city":"East Calais","state":"VT","lat":44.38,"long":-72.4419},{"zip":"05651","city":"East Montpelier","state":"VT","lat":44.2828,"long":-72.4926},{"zip":"05654","city":"Graniteville","state":"VT","lat":44.1512,"long":-72.4929},{"zip":"05658","city":"Marshfield","state":"VT","lat":44.3509,"long":-72.354},{"zip":"05660","city":"Moretown","state":"VT","lat":44.2596,"long":-72.7494},{"zip":"05663","city":"Northfield","state":"VT","lat":44.1512,"long":-72.6565},{"zip":"05664","city":"Northfield Falls","state":"VT","lat":44.1835,"long":-72.6466},{"zip":"05666","city":"North Montpelier","state":"VT","lat":44.2595,"long":-72.585},{"zip":"05667","city":"Plainfield","state":"VT","lat":44.2622,"long":-72.4224},{"zip":"05670","city":"South Barre","state":"VT","lat":44.1757,"long":-72.5025},{"zip":"05671","city":"Waterbury","state":"VT","lat":44.3378,"long":-72.7562},{"zip":"05673","city":"Waitsfield","state":"VT","lat":44.1889,"long":-72.8283},{"zip":"05674","city":"Warren","state":"VT","lat":44.111,"long":-72.8609},{"zip":"05676","city":"Waterbury","state":"VT","lat":44.3451,"long":-72.7798},{"zip":"05677","city":"Waterbury Center","state":"VT","lat":44.3828,"long":-72.708},{"zip":"05678","city":"Websterville","state":"VT","lat":44.1558,"long":-72.4658},{"zip":"05681","city":"Woodbury","state":"VT","lat":44.4548,"long":-72.4036},{"zip":"05682","city":"Worcester","state":"VT","lat":44.3944,"long":-72.5609}]
