[{"zip":"05734","city":"Bridport","state":"VT","lat":43.9538,"long":-73.3476},{"zip":"05740","city":"East Middlebury","state":"VT","lat":43.9715,"long":-73.0914},{"zip":"05747","city":"Granville","state":"VT","lat":43.9849,"long":-72.8245},{"zip":"05748","city":"Hancock","state":"VT","lat":43.9125,"long":-72.9133},{"zip":"05753","city":"Middlebury","state":"VT","lat":43.9919,"long":-73.1716},{"zip":"05760","city":"Orwell","state":"VT","lat":43.7837,"long":-73.2949},{"zip":"05766","city":"Ripton","state":"VT","lat":43.9929,"long":-73.0187},{"zip":"05769","city":"Salisbury","state":"VT","lat":43.9017,"long":-73.1008},{"zip":"05770","city":"Shoreham","state":"VT","lat":43.8862,"long":-73.3054},{"zip":"05778","city":"Whiting","state":"VT","lat":43.894,"long":-73.203},{"zip":"05768","city":"Rupert","state":"VT","lat":43.2598,"long":-73.2229},{"zip":"05776","city":"West Rupert","state":"VT","lat":43.2636,"long":-73.1905},{"zip":"05701","city":"Rutland","state":"VT","lat":43.6141,"long":-72.9708},{"zip":"05702","city":"Rutland","state":"VT","lat":43.6106,"long":-72.9726},{"zip":"05730","city":"Belmont","state":"VT","lat":43.4284,"long":-72.8257},{"zip":"05731","city":"Benson","state":"VT","lat":43.6877,"long":-73.2919},{"zip":"05732","city":"Bomoseen","state":"VT","lat":43.6437,"long":-73.2094},{"zip":"05733","city":"Brandon","state":"VT","lat":43.8065,"long":-73.0882},{"zip":"05735","city":"Castleton","state":"VT","lat":43.6223,"long":-73.1708},{"zip":"05736","city":"Center Rutland","state":"VT","lat":43.6023,"long":-73.017},{"zip":"05737","city":"Chittenden","state":"VT","lat":43.7132,"long":-72.9252},{"zip":"05738","city":"Cuttingsville","state":"VT","lat":43.5221,"long":-72.8691},{"zip":"05739","city":"Danby","state":"VT","lat":43.3583,"long":-73.0129},{"zip":"05741","city":"East Poultney","state":"VT","lat":43.5265,"long":-73.2046},{"zip":"05742","city":"East Wallingford","state":"VT","lat":43.4461,"long":-72.8844},{"zip":"05743","city":"Fair Haven","state":"VT","lat":43.6234,"long":-73.2701},{"zip":"05744","city":"Florence","state":"VT","lat":43.7093,"long":-73.079},{"zip":"05745","city":"Forest Dale","state":"VT","lat":43.8278,"long":-73.0537},{"zip":"05750","city":"Hydeville","state":"VT","lat":43.5994,"long":-73.251},{"zip":"05751","city":"Killington","state":"VT","lat":43.6634,"long":-72.7963},{"zip":"05757","city":"Middletown Springs","state":"VT","lat":43.4856,"long":-73.1182},{"zip":"05758","city":"Mount Holly","state":"VT","lat":43.4487,"long":-72.7956},{"zip":"05759","city":"North Clarendon","state":"VT","lat":43.5522,"long":-72.9561},{"zip":"05761","city":"Pawlet","state":"VT","lat":43.3587,"long":-73.1444},{"zip":"05762","city":"Pittsfield","state":"VT","lat":43.7723,"long":-72.8129},{"zip":"05763","city":"Pittsford","state":"VT","lat":43.7152,"long":-73.0135},{"zip":"05764","city":"Poultney","state":"VT","lat":43.5332,"long":-73.2253},{"zip":"05765","city":"Proctor","state":"VT","lat":43.658,"long":-73.0348},{"zip":"05773","city":"Wallingford","state":"VT","lat":43.4573,"long":-72.9877},{"zip":"05774","city":"Wells","state":"VT","lat":43.4305,"long":-73.2027},{"zip":"05775","city":"West Pawlet","state":"VT","lat":43.3667,"long":-73.2313},{"zip":"05777","city":"West Rutland","state":"VT","lat":43.5781,"long":-73.0424},{"zip":"05746","city":"Gaysville","state":"VT","lat":43.7784,"long":-72.699},{"zip":"05767","city":"Rochester","state":"VT","lat":43.8804,"long":-72.8159},{"zip":"05772","city":"Stockbridge","state":"VT","lat":43.7738,"long":-72.7814}]
