[{"zip":"06001","city":"Avon","state":"CT","lat":41.7905,"long":-72.8653},{"zip":"06002","city":"Bloomfield","state":"CT","lat":41.8316,"long":-72.7249},{"zip":"06006","city":"Windsor","state":"CT","lat":41.8526,"long":-72.6437},{"zip":"06010","city":"Bristol","state":"CT","lat":41.6823,"long":-72.9302},{"zip":"06011","city":"Bristol","state":"CT","lat":41.6718,"long":-72.9493},{"zip":"06013","city":"Burlington","state":"CT","lat":41.7573,"long":-72.9444},{"zip":"06016","city":"Broad Brook","state":"CT","lat":41.9042,"long":-72.5444},{"zip":"06019","city":"Canton","state":"CT","lat":41.8384,"long":-72.8987},{"zip":"06020","city":"Canton Center","state":"CT","lat":41.8539,"long":-72.9028},{"zip":"06022","city":"Collinsville","state":"CT","lat":41.8513,"long":-72.9283},{"zip":"06023","city":"East Berlin","state":"CT","lat":41.6128,"long":-72.719},{"zip":"06025","city":"East Glastonbury","state":"CT","lat":41.6889,"long":-72.5345},{"zip":"06026","city":"East Granby","state":"CT","lat":41.9322,"long":-72.7459},{"zip":"06027","city":"East Hartland","state":"CT","lat":42.0016,"long":-72.9242},{"zip":"06028","city":"East Windsor Hill","state":"CT","lat":41.8592,"long":-72.603},{"zip":"06030","city":"Farmington","state":"CT","lat":41.7918,"long":-72.7188},{"zip":"06032","city":"Farmington","state":"CT","lat":41.7284,"long":-72.8415},{"zip":"06033","city":"Glastonbury","state":"CT","lat":41.7073,"long":-72.5727},{"zip":"06034","city":"Farmington","state":"CT","lat":41.7918,"long":-72.7188},{"zip":"06035","city":"Granby","state":"CT","lat":41.9602,"long":-72.7994},{"zip":"06037","city":"Berlin","state":"CT","lat":41.6215,"long":-72.7457},{"zip":"06040","city":"Manchester","state":"CT","lat":41.7777,"long":-72.5244},{"zip":"06041","city":"Manchester","state":"CT","lat":41.7759,"long":-72.5215},{"zip":"06042","city":"Manchester","state":"CT","lat":41.7966,"long":-72.5292},{"zip":"06045","city":"Manchester","state":"CT","lat":41.7759,"long":-72.5215},{"zip":"06050","city":"New Britain","state":"CT","lat":41.666,"long":-72.7784},{"zip":"06051","city":"New Britain","state":"CT","lat":41.6667,"long":-72.7722},{"zip":"06052","city":"New Britain","state":"CT","lat":41.6588,"long":-72.7989},{"zip":"06053","city":"New Britain","state":"CT","lat":41.6867,"long":-72.7908},{"zip":"06059","city":"North Canton","state":"CT","lat":41.8997,"long":-72.8907},{"zip":"06060","city":"North Granby","state":"CT","lat":42.0219,"long":-72.8409},{"zip":"06062","city":"Plainville","state":"CT","lat":41.6727,"long":-72.8644},{"zip":"06064","city":"Poquonock","state":"CT","lat":41.9048,"long":-72.6787},{"zip":"06067","city":"Rocky Hill","state":"CT","lat":41.6583,"long":-72.6632},{"zip":"06070","city":"Simsbury","state":"CT","lat":41.8759,"long":-72.8012},{"zip":"06073","city":"South Glastonbury","state":"CT","lat":41.6571,"long":-72.5722},{"zip":"06074","city":"South Windsor","state":"CT","lat":41.8341,"long":-72.5576},{"zip":"06078","city":"Suffield","state":"CT","lat":41.99,"long":-72.642},{"zip":"06080","city":"Suffield","state":"CT","lat":41.9818,"long":-72.6506},{"zip":"06081","city":"Tariffville","state":"CT","lat":41.9077,"long":-72.7678},{"zip":"06082","city":"Enfield","state":"CT","lat":41.989,"long":-72.5652},{"zip":"06083","city":"Enfield","state":"CT","lat":41.9762,"long":-72.5918},{"zip":"06085","city":"Unionville","state":"CT","lat":41.7477,"long":-72.8874},{"zip":"06087","city":"Unionville","state":"CT","lat":41.7576,"long":-72.885},{"zip":"06088","city":"East Windsor","state":"CT","lat":41.9099,"long":-72.6029},{"zip":"06089","city":"Weatogue","state":"CT","lat":41.8372,"long":-72.8253},{"zip":"06090","city":"West Granby","state":"CT","lat":41.9556,"long":-72.862},{"zip":"06091","city":"West Hartland","state":"CT","lat":42.0076,"long":-72.9707},{"zip":"06092","city":"West Simsbury","state":"CT","lat":41.8718,"long":-72.8577},{"zip":"06093","city":"West Suffield","state":"CT","lat":42.0115,"long":-72.7362},{"zip":"06095","city":"Windsor","state":"CT","lat":41.8561,"long":-72.6639},{"zip":"06096","city":"Windsor Locks","state":"CT","lat":41.9261,"long":-72.6458},{"zip":"06018","city":"Canaan","state":"CT","lat":42.0248,"long":-73.3232},{"zip":"06021","city":"Colebrook","state":"CT","lat":42.0282,"long":-73.1041},{"zip":"06024","city":"East Canaan","state":"CT","lat":42.0158,"long":-73.2913},{"zip":"06031","city":"Falls Village","state":"CT","lat":41.9559,"long":-73.3632},{"zip":"06039","city":"Lakeville","state":"CT","lat":41.9516,"long":-73.4377},{"zip":"06057","city":"New Hartford","state":"CT","lat":41.8468,"long":-73.0104},{"zip":"06058","city":"Norfolk","state":"CT","lat":41.9854,"long":-73.1992},{"zip":"06061","city":"Pine Meadow","state":"CT","lat":41.8765,"long":-72.967},{"zip":"06063","city":"Barkhamsted","state":"CT","lat":41.9293,"long":-72.914},{"zip":"06065","city":"Riverton","state":"CT","lat":41.9686,"long":-73.0145},{"zip":"06068","city":"Salisbury","state":"CT","lat":42.0015,"long":-73.4215},{"zip":"06069","city":"Sharon","state":"CT","lat":41.8714,"long":-73.4578},{"zip":"06079","city":"Taconic","state":"CT","lat":42.032,"long":-73.4038},{"zip":"06094","city":"Winchester Center","state":"CT","lat":41.8963,"long":-73.1463},{"zip":"06098","city":"Winsted","state":"CT","lat":41.9252,"long":-73.0663},{"zip":"06029","city":"Ellington","state":"CT","lat":41.9114,"long":-72.4626},{"zip":"06043","city":"Bolton","state":"CT","lat":41.7689,"long":-72.4396},{"zip":"06066","city":"Vernon Rockville","state":"CT","lat":41.8501,"long":-72.4649},{"zip":"06071","city":"Somers","state":"CT","lat":41.9978,"long":-72.4583},{"zip":"06072","city":"Somersville","state":"CT","lat":41.9765,"long":-72.4906},{"zip":"06075","city":"Stafford","state":"CT","lat":41.9848,"long":-72.289},{"zip":"06076","city":"Stafford Springs","state":"CT","lat":41.9661,"long":-72.2899},{"zip":"06077","city":"Staffordville","state":"CT","lat":41.9916,"long":-72.2577},{"zip":"06084","city":"Tolland","state":"CT","lat":41.8696,"long":-72.3718}]
