[{"zip":"06101","city":"Hartford","state":"CT","lat":41.7801,"long":-72.6771},{"zip":"06102","city":"Hartford","state":"CT","lat":41.7918,"long":-72.7188},{"zip":"06103","city":"Hartford","state":"CT","lat":41.7672,"long":-72.676},{"zip":"06104","city":"Hartford","state":"CT","lat":41.7918,"long":-72.7188},{"zip":"06105","city":"Hartford","state":"CT","lat":41.7691,"long":-72.701},{"zip":"06106","city":"Hartford","state":"CT","lat":41.7498,"long":-72.6947},{"zip":"06107","city":"West Hartford","state":"CT","lat":41.7556,"long":-72.7532},{"zip":"06108","city":"East Hartford","state":"CT","lat":41.7803,"long":-72.618},{"zip":"06109","city":"Wethersfield","state":"CT","lat":41.7013,"long":-72.6763},{"zip":"06110","city":"West Hartford","state":"CT","lat":41.7326,"long":-72.7337},{"zip":"06111","city":"Newington","state":"CT","lat":41.686,"long":-72.7296},{"zip":"06112","city":"Hartford","state":"CT","lat":41.7905,"long":-72.6964},{"zip":"06114","city":"Hartford","state":"CT","lat":41.7403,"long":-72.6807},{"zip":"06115","city":"Hartford","state":"CT","lat":41.7588,"long":-72.6794},{"zip":"06117","city":"West Hartford","state":"CT","lat":41.79,"long":-72.7457},{"zip":"06118","city":"East Hartford","state":"CT","lat":41.7472,"long":-72.6103},{"zip":"06119","city":"West Hartford","state":"CT","lat":41.7628,"long":-72.7268},{"zip":"06120","city":"Hartford","state":"CT","lat":41.786,"long":-72.6758},{"zip":"06123","city":"Hartford","state":"CT","lat":41.7637,"long":-72.6851},{"zip":"06126","city":"Hartford","state":"CT","lat":41.7637,"long":-72.6851},{"zip":"06127","city":"West Hartford","state":"CT","lat":41.7918,"long":-72.7188},{"zip":"06128","city":"East Hartford","state":"CT","lat":41.7918,"long":-72.7188},{"zip":"06129","city":"Wethersfield","state":"CT","lat":41.7918,"long":-72.7188},{"zip":"06131","city":"Newington","state":"CT","lat":41.7918,"long":-72.7188},{"zip":"06132","city":"Hartford","state":"CT","lat":41.7637,"long":-72.6851},{"zip":"06133","city":"West Hartford","state":"CT","lat":41.7918,"long":-72.7188},{"zip":"06134","city":"Hartford","state":"CT","lat":41.7637,"long":-72.6851},{"zip":"06137","city":"West Hartford","state":"CT","lat":41.7918,"long":-72.7188},{"zip":"06138","city":"East Hartford","state":"CT","lat":41.7918,"long":-72.7188},{"zip":"06140","city":"Hartford","state":"CT","lat":41.7918,"long":-72.7188},{"zip":"06141","city":"Hartford","state":"CT","lat":41.7918,"long":-72.7188},{"zip":"06142","city":"Hartford","state":"CT","lat":41.7918,"long":-72.7188},{"zip":"06143","city":"Hartford","state":"CT","lat":41.7918,"long":-72.7188},{"zip":"06144","city":"Hartford","state":"CT","lat":41.7918,"long":-72.7188},{"zip":"06145","city":"Hartford","state":"CT","lat":41.7918,"long":-72.7188},{"zip":"06146","city":"Hartford","state":"CT","lat":41.7918,"long":-72.7188},{"zip":"06147","city":"Hartford","state":"CT","lat":41.7918,"long":-72.7188},{"zip":"06150","city":"Hartford","state":"CT","lat":41.7918,"long":-72.7188},{"zip":"06151","city":"Hartford","state":"CT","lat":41.7918,"long":-72.7188},{"zip":"06152","city":"Hartford","state":"CT","lat":41.7637,"long":-72.6851},{"zip":"06153","city":"Hartford","state":"CT","lat":41.7918,"long":-72.7188},{"zip":"06154","city":"Hartford","state":"CT","lat":41.7715,"long":-72.6867},{"zip":"06155","city":"Hartford","state":"CT","lat":41.7693,"long":-72.6865},{"zip":"06156","city":"Hartford","state":"CT","lat":41.7679,"long":-72.6907},{"zip":"06160","city":"Hartford","state":"CT","lat":41.7665,"long":-72.6933},{"zip":"06161","city":"Hartford","state":"CT","lat":41.766,"long":-72.6718},{"zip":"06167","city":"Hartford","state":"CT","lat":41.7637,"long":-72.6851},{"zip":"06176","city":"Hartford","state":"CT","lat":41.7918,"long":-72.7188},{"zip":"06180","city":"Hartford","state":"CT","lat":41.7918,"long":-72.7188},{"zip":"06183","city":"Hartford","state":"CT","lat":41.7638,"long":-72.673},{"zip":"06199","city":"Hartford","state":"CT","lat":41.9274,"long":-72.6804}]
