[{"zip":"06249","city":"Lebanon","state":"CT","lat":41.633,"long":-72.244},{"zip":"06254","city":"North Franklin","state":"CT","lat":41.6161,"long":-72.1425},{"zip":"06231","city":"Amston","state":"CT","lat":41.629,"long":-72.3646},{"zip":"06232","city":"Andover","state":"CT","lat":41.7332,"long":-72.3767},{"zip":"06237","city":"Columbia","state":"CT","lat":41.6973,"long":-72.3072},{"zip":"06238","city":"Coventry","state":"CT","lat":41.7822,"long":-72.3332},{"zip":"06248","city":"Hebron","state":"CT","lat":41.6842,"long":-72.3986},{"zip":"06250","city":"Mansfield Center","state":"CT","lat":41.7698,"long":-72.2011},{"zip":"06251","city":"Mansfield Depot","state":"CT","lat":41.7993,"long":-72.3065},{"zip":"06265","city":"South Willington","state":"CT","lat":41.8554,"long":-72.3015},{"zip":"06268","city":"Storrs Mansfield","state":"CT","lat":41.7997,"long":-72.2478},{"zip":"06269","city":"Storrs Mansfield","state":"CT","lat":41.808,"long":-72.251},{"zip":"06279","city":"Willington","state":"CT","lat":41.8966,"long":-72.2622},{"zip":"06226","city":"Willimantic","state":"CT","lat":41.7149,"long":-72.2134},{"zip":"06230","city":"Abington","state":"CT","lat":41.8473,"long":-72.0253},{"zip":"06233","city":"Ballouville","state":"CT","lat":41.8768,"long":-71.8612},{"zip":"06234","city":"Brooklyn","state":"CT","lat":41.7807,"long":-71.9541},{"zip":"06235","city":"Chaplin","state":"CT","lat":41.8026,"long":-72.1372},{"zip":"06239","city":"Danielson","state":"CT","lat":41.7982,"long":-71.8807},{"zip":"06241","city":"Dayville","state":"CT","lat":41.854,"long":-71.8683},{"zip":"06242","city":"Eastford","state":"CT","lat":41.8771,"long":-72.0895},{"zip":"06243","city":"East Killingly","state":"CT","lat":41.8452,"long":-71.8026},{"zip":"06244","city":"East Woodstock","state":"CT","lat":41.9843,"long":-71.981},{"zip":"06245","city":"Fabyan","state":"CT","lat":42.0198,"long":-71.9417},{"zip":"06246","city":"Grosvenor Dale","state":"CT","lat":41.9711,"long":-71.8917},{"zip":"06247","city":"Hampton","state":"CT","lat":41.7671,"long":-72.0662},{"zip":"06255","city":"North Grosvenordale","state":"CT","lat":41.9784,"long":-71.8997},{"zip":"06256","city":"North Windham","state":"CT","lat":41.7451,"long":-72.1601},{"zip":"06258","city":"Pomfret","state":"CT","lat":41.889,"long":-71.9682},{"zip":"06259","city":"Pomfret Center","state":"CT","lat":41.8697,"long":-71.982},{"zip":"06260","city":"Putnam","state":"CT","lat":41.9185,"long":-71.8968},{"zip":"06262","city":"Quinebaug","state":"CT","lat":42.0217,"long":-71.9391},{"zip":"06263","city":"Rogers","state":"CT","lat":41.8391,"long":-71.9063},{"zip":"06264","city":"Scotland","state":"CT","lat":41.6958,"long":-72.087},{"zip":"06266","city":"South Windham","state":"CT","lat":41.6677,"long":-72.1681},{"zip":"06267","city":"South Woodstock","state":"CT","lat":41.9439,"long":-71.9453},{"zip":"06277","city":"Thompson","state":"CT","lat":41.9803,"long":-71.8376},{"zip":"06278","city":"Ashford","state":"CT","lat":41.889,"long":-72.1476},{"zip":"06280","city":"Windham","state":"CT","lat":41.7027,"long":-72.1526},{"zip":"06281","city":"Woodstock","state":"CT","lat":41.9602,"long":-72.004},{"zip":"06282","city":"Woodstock Valley","state":"CT","lat":41.9153,"long":-72.0937}]
