[{"zip":"06320","city":"New London","state":"CT","lat":41.3507,"long":-72.1062},{"zip":"06330","city":"Baltic","state":"CT","lat":41.6263,"long":-72.0775},{"zip":"06333","city":"East Lyme","state":"CT","lat":41.3668,"long":-72.233},{"zip":"06334","city":"Bozrah","state":"CT","lat":41.5465,"long":-72.1711},{"zip":"06335","city":"Gales Ferry","state":"CT","lat":41.4285,"long":-72.0672},{"zip":"06336","city":"Gilman","state":"CT","lat":41.5795,"long":-72.1963},{"zip":"06338","city":"Mashantucket","state":"CT","lat":41.4757,"long":-71.9574},{"zip":"06339","city":"Ledyard","state":"CT","lat":41.4401,"long":-71.9956},{"zip":"06340","city":"Groton","state":"CT","lat":41.3572,"long":-72.0579},{"zip":"06349","city":"Groton","state":"CT","lat":41.3997,"long":-72.0904},{"zip":"06350","city":"Hanover","state":"CT","lat":41.6445,"long":-72.0677},{"zip":"06351","city":"Jewett City","state":"CT","lat":41.6052,"long":-71.9808},{"zip":"06353","city":"Montville","state":"CT","lat":41.4525,"long":-72.1375},{"zip":"06355","city":"Mystic","state":"CT","lat":41.3616,"long":-71.9774},{"zip":"06357","city":"Niantic","state":"CT","lat":41.3253,"long":-72.2108},{"zip":"06359","city":"North Stonington","state":"CT","lat":41.4531,"long":-71.8727},{"zip":"06360","city":"Norwich","state":"CT","lat":41.5371,"long":-72.0849},{"zip":"06365","city":"Preston","state":"CT","lat":41.5224,"long":-71.9934},{"zip":"06370","city":"Oakdale","state":"CT","lat":41.4706,"long":-72.1904},{"zip":"06371","city":"Old Lyme","state":"CT","lat":41.3347,"long":-72.3086},{"zip":"06372","city":"Old Mystic","state":"CT","lat":41.3882,"long":-71.9495},{"zip":"06375","city":"Quaker Hill","state":"CT","lat":41.4032,"long":-72.1172},{"zip":"06376","city":"South Lyme","state":"CT","lat":41.2967,"long":-72.2633},{"zip":"06378","city":"Stonington","state":"CT","lat":41.3664,"long":-71.9155},{"zip":"06379","city":"Pawcatuck","state":"CT","lat":41.3735,"long":-71.8478},{"zip":"06380","city":"Taftville","state":"CT","lat":41.5653,"long":-72.0529},{"zip":"06382","city":"Uncasville","state":"CT","lat":41.4622,"long":-72.1126},{"zip":"06383","city":"Versailles","state":"CT","lat":41.6016,"long":-72.0404},{"zip":"06384","city":"Voluntown","state":"CT","lat":41.5831,"long":-71.855},{"zip":"06385","city":"Waterford","state":"CT","lat":41.3469,"long":-72.1458},{"zip":"06388","city":"West Mystic","state":"CT","lat":41.3441,"long":-71.9765},{"zip":"06389","city":"Yantic","state":"CT","lat":41.5598,"long":-72.1237},{"zip":"06331","city":"Canterbury","state":"CT","lat":41.6844,"long":-72.001},{"zip":"06332","city":"Central Village","state":"CT","lat":41.7229,"long":-71.9067},{"zip":"06354","city":"Moosup","state":"CT","lat":41.721,"long":-71.885},{"zip":"06373","city":"Oneco","state":"CT","lat":41.6785,"long":-71.8178},{"zip":"06374","city":"Plainfield","state":"CT","lat":41.6775,"long":-71.922},{"zip":"06377","city":"Sterling","state":"CT","lat":41.7156,"long":-71.8196},{"zip":"06387","city":"Wauregan","state":"CT","lat":41.7445,"long":-71.9133},{"zip":"06390","city":"Fishers Island","state":"NY","lat":41.2639,"long":-72.0178}]
