[{"zip":"06404","city":"Botsford","state":"CT","lat":41.3665,"long":-73.2571},{"zip":"06440","city":"Hawleyville","state":"CT","lat":41.4276,"long":-73.3551},{"zip":"06468","city":"Monroe","state":"CT","lat":41.3312,"long":-73.2243},{"zip":"06470","city":"Newtown","state":"CT","lat":41.3931,"long":-73.3167},{"zip":"06482","city":"Sandy Hook","state":"CT","lat":41.4087,"long":-73.2485},{"zip":"06484","city":"Shelton","state":"CT","lat":41.3047,"long":-73.1294},{"zip":"06491","city":"Stevenson","state":"CT","lat":41.3866,"long":-73.1872},{"zip":"06444","city":"Marion","state":"CT","lat":41.5637,"long":-72.9257},{"zip":"06447","city":"Marlborough","state":"CT","lat":41.6412,"long":-72.4609},{"zip":"06467","city":"Milldale","state":"CT","lat":41.5657,"long":-72.9037},{"zip":"06479","city":"Plantsville","state":"CT","lat":41.5797,"long":-72.899},{"zip":"06489","city":"Southington","state":"CT","lat":41.6052,"long":-72.8727},{"zip":"06409","city":"Centerbrook","state":"CT","lat":41.3474,"long":-72.4173},{"zip":"06412","city":"Chester","state":"CT","lat":41.4049,"long":-72.4643},{"zip":"06413","city":"Clinton","state":"CT","lat":41.2912,"long":-72.528},{"zip":"06414","city":"Cobalt","state":"CT","lat":41.5667,"long":-72.5581},{"zip":"06416","city":"Cromwell","state":"CT","lat":41.6105,"long":-72.6663},{"zip":"06417","city":"Deep River","state":"CT","lat":41.3765,"long":-72.4486},{"zip":"06419","city":"Killingworth","state":"CT","lat":41.3696,"long":-72.5712},{"zip":"06422","city":"Durham","state":"CT","lat":41.465,"long":-72.6875},{"zip":"06423","city":"East Haddam","state":"CT","lat":41.4696,"long":-72.4059},{"zip":"06424","city":"East Hampton","state":"CT","lat":41.5761,"long":-72.5093},{"zip":"06426","city":"Essex","state":"CT","lat":41.3549,"long":-72.3965},{"zip":"06438","city":"Haddam","state":"CT","lat":41.4627,"long":-72.505},{"zip":"06441","city":"Higganum","state":"CT","lat":41.4682,"long":-72.5751},{"zip":"06442","city":"Ivoryton","state":"CT","lat":41.3421,"long":-72.4404},{"zip":"06455","city":"Middlefield","state":"CT","lat":41.5168,"long":-72.7186},{"zip":"06456","city":"Middle Haddam","state":"CT","lat":41.554,"long":-72.5501},{"zip":"06457","city":"Middletown","state":"CT","lat":41.5569,"long":-72.6652},{"zip":"06459","city":"Middletown","state":"CT","lat":41.5565,"long":-72.6582},{"zip":"06469","city":"Moodus","state":"CT","lat":41.5078,"long":-72.4419},{"zip":"06475","city":"Old Saybrook","state":"CT","lat":41.2913,"long":-72.385},{"zip":"06480","city":"Portland","state":"CT","lat":41.5852,"long":-72.6128},{"zip":"06481","city":"Rockfall","state":"CT","lat":41.5341,"long":-72.6997},{"zip":"06498","city":"Westbrook","state":"CT","lat":41.2927,"long":-72.4563},{"zip":"06401","city":"Ansonia","state":"CT","lat":41.3427,"long":-73.0742},{"zip":"06403","city":"Beacon Falls","state":"CT","lat":41.4369,"long":-73.0597},{"zip":"06405","city":"Branford","state":"CT","lat":41.28,"long":-72.8106},{"zip":"06408","city":"Cheshire","state":"CT","lat":41.3657,"long":-72.9275},{"zip":"06410","city":"Cheshire","state":"CT","lat":41.5055,"long":-72.9081},{"zip":"06411","city":"Cheshire","state":"CT","lat":41.499,"long":-72.9007},{"zip":"06418","city":"Derby","state":"CT","lat":41.3229,"long":-73.08},{"zip":"06437","city":"Guilford","state":"CT","lat":41.3154,"long":-72.6968},{"zip":"06443","city":"Madison","state":"CT","lat":41.309,"long":-72.6153},{"zip":"06450","city":"Meriden","state":"CT","lat":41.5334,"long":-72.7997},{"zip":"06451","city":"Meriden","state":"CT","lat":41.5401,"long":-72.8189},{"zip":"06460","city":"Milford","state":"CT","lat":41.2175,"long":-73.0549},{"zip":"06461","city":"Milford","state":"CT","lat":41.2338,"long":-73.0747},{"zip":"06471","city":"North Branford","state":"CT","lat":41.3323,"long":-72.7809},{"zip":"06472","city":"Northford","state":"CT","lat":41.3962,"long":-72.7809},{"zip":"06473","city":"North Haven","state":"CT","lat":41.3822,"long":-72.8585},{"zip":"06477","city":"Orange","state":"CT","lat":41.2815,"long":-73.0287},{"zip":"06478","city":"Oxford","state":"CT","lat":41.4202,"long":-73.1296},{"zip":"06483","city":"Seymour","state":"CT","lat":41.3862,"long":-73.0817},{"zip":"06487","city":"South Britain","state":"CT","lat":41.4709,"long":-73.2515},{"zip":"06488","city":"Southbury","state":"CT","lat":41.4767,"long":-73.2241},{"zip":"06492","city":"Wallingford","state":"CT","lat":41.46,"long":-72.8222},{"zip":"06493","city":"Wallingford","state":"CT","lat":41.3657,"long":-72.9275},{"zip":"06494","city":"Wallingford","state":"CT","lat":41.3657,"long":-72.9275},{"zip":"06495","city":"Wallingford","state":"CT","lat":41.3885,"long":-72.8795},{"zip":"06415","city":"Colchester","state":"CT","lat":41.5662,"long":-72.3441},{"zip":"06420","city":"Salem","state":"CT","lat":41.4966,"long":-72.2725},{"zip":"06439","city":"Hadlyme","state":"CT","lat":41.4212,"long":-72.4141},{"zip":"06474","city":"North Westchester","state":"CT","lat":41.5809,"long":-72.4012}]
