[{"zip":"06501","city":"New Haven","state":"CT","lat":41.3082,"long":-72.9282},{"zip":"06502","city":"New Haven","state":"CT","lat":41.3082,"long":-72.9282},{"zip":"06503","city":"New Haven","state":"CT","lat":41.3082,"long":-72.9282},{"zip":"06504","city":"New Haven","state":"CT","lat":41.3657,"long":-72.9275},{"zip":"06505","city":"New Haven","state":"CT","lat":41.3082,"long":-72.9282},{"zip":"06506","city":"New Haven","state":"CT","lat":41.3082,"long":-72.9282},{"zip":"06507","city":"New Haven","state":"CT","lat":41.3082,"long":-72.9282},{"zip":"06508","city":"New Haven","state":"CT","lat":41.3082,"long":-72.9282},{"zip":"06509","city":"New Haven","state":"CT","lat":41.3082,"long":-72.9282},{"zip":"06510","city":"New Haven","state":"CT","lat":41.3087,"long":-72.9271},{"zip":"06511","city":"New Haven","state":"CT","lat":41.3184,"long":-72.9318},{"zip":"06512","city":"New Haven","state":"CT","lat":41.3082,"long":-72.9282},{"zip":"06513","city":"New Haven","state":"CT","lat":41.3072,"long":-72.8654},{"zip":"06514","city":"Hamden","state":"CT","lat":41.362,"long":-72.9361},{"zip":"06515","city":"New Haven","state":"CT","lat":41.3293,"long":-72.9664},{"zip":"06516","city":"West Haven","state":"CT","lat":41.2701,"long":-72.9638},{"zip":"06517","city":"Hamden","state":"CT","lat":41.3484,"long":-72.9117},{"zip":"06518","city":"Hamden","state":"CT","lat":41.4097,"long":-72.911},{"zip":"06519","city":"New Haven","state":"CT","lat":41.2963,"long":-72.9373},{"zip":"06520","city":"New Haven","state":"CT","lat":41.3082,"long":-72.9282},{"zip":"06521","city":"New Haven","state":"CT","lat":41.3082,"long":-72.9282},{"zip":"06524","city":"Bethany","state":"CT","lat":41.4262,"long":-73.0007},{"zip":"06525","city":"New Haven","state":"CT","lat":41.3082,"long":-72.9282},{"zip":"06530","city":"New Haven","state":"CT","lat":41.3082,"long":-72.9282},{"zip":"06531","city":"New Haven","state":"CT","lat":41.3082,"long":-72.9282},{"zip":"06532","city":"New Haven","state":"CT","lat":41.3082,"long":-72.9282},{"zip":"06533","city":"New Haven","state":"CT","lat":41.3082,"long":-72.9282},{"zip":"06534","city":"New Haven","state":"CT","lat":41.3082,"long":-72.9282},{"zip":"06535","city":"New Haven","state":"CT","lat":41.3082,"long":-72.9282},{"zip":"06536","city":"New Haven","state":"CT","lat":41.3082,"long":-72.9282},{"zip":"06537","city":"New Haven","state":"CT","lat":41.3657,"long":-72.9275},{"zip":"06538","city":"New Haven","state":"CT","lat":41.3657,"long":-72.9275},{"zip":"06540","city":"New Haven","state":"CT","lat":41.2996,"long":-72.9188}]
