[{"zip":"06601","city":"Bridgeport","state":"CT","lat":41.167,"long":-73.2048},{"zip":"06602","city":"Bridgeport","state":"CT","lat":41.1798,"long":-73.189},{"zip":"06604","city":"Bridgeport","state":"CT","lat":41.1796,"long":-73.2019},{"zip":"06605","city":"Bridgeport","state":"CT","lat":41.1668,"long":-73.2163},{"zip":"06606","city":"Bridgeport","state":"CT","lat":41.2091,"long":-73.2086},{"zip":"06607","city":"Bridgeport","state":"CT","lat":41.1784,"long":-73.165},{"zip":"06608","city":"Bridgeport","state":"CT","lat":41.1895,"long":-73.1811},{"zip":"06610","city":"Bridgeport","state":"CT","lat":41.2005,"long":-73.1688},{"zip":"06611","city":"Trumbull","state":"CT","lat":41.2564,"long":-73.2111},{"zip":"06612","city":"Easton","state":"CT","lat":41.2523,"long":-73.2871},{"zip":"06614","city":"Stratford","state":"CT","lat":41.216,"long":-73.1304},{"zip":"06615","city":"Stratford","state":"CT","lat":41.177,"long":-73.1336},{"zip":"06673","city":"Bridgeport","state":"CT","lat":41.167,"long":-73.2048},{"zip":"06699","city":"Bridgeport","state":"CT","lat":41.167,"long":-73.2048}]
