[{"zip":"06784","city":"Sherman","state":"CT","lat":41.5714,"long":-73.4947},{"zip":"06750","city":"Bantam","state":"CT","lat":41.7215,"long":-73.252},{"zip":"06751","city":"Bethlehem","state":"CT","lat":41.6387,"long":-73.2091},{"zip":"06752","city":"Bridgewater","state":"CT","lat":41.5287,"long":-73.3609},{"zip":"06753","city":"Cornwall","state":"CT","lat":41.8281,"long":-73.3323},{"zip":"06754","city":"Cornwall Bridge","state":"CT","lat":41.8187,"long":-73.371},{"zip":"06755","city":"Gaylordsville","state":"CT","lat":41.6486,"long":-73.4835},{"zip":"06756","city":"Goshen","state":"CT","lat":41.8335,"long":-73.2429},{"zip":"06757","city":"Kent","state":"CT","lat":41.7316,"long":-73.4583},{"zip":"06758","city":"Lakeside","state":"CT","lat":41.6754,"long":-73.242},{"zip":"06759","city":"Litchfield","state":"CT","lat":41.7541,"long":-73.2},{"zip":"06763","city":"Morris","state":"CT","lat":41.6881,"long":-73.1765},{"zip":"06776","city":"New Milford","state":"CT","lat":41.5817,"long":-73.4128},{"zip":"06777","city":"New Preston Marble Dale","state":"CT","lat":41.6903,"long":-73.3103},{"zip":"06778","city":"Northfield","state":"CT","lat":41.7077,"long":-73.109},{"zip":"06779","city":"Oakville","state":"CT","lat":41.5909,"long":-73.0873},{"zip":"06781","city":"Pequabuck","state":"CT","lat":41.6699,"long":-72.9915},{"zip":"06782","city":"Plymouth","state":"CT","lat":41.6611,"long":-73.0449},{"zip":"06783","city":"Roxbury","state":"CT","lat":41.5509,"long":-73.2993},{"zip":"06785","city":"South Kent","state":"CT","lat":41.6951,"long":-73.469},{"zip":"06786","city":"Terryville","state":"CT","lat":41.6762,"long":-73.0092},{"zip":"06787","city":"Thomaston","state":"CT","lat":41.6786,"long":-73.0886},{"zip":"06790","city":"Torrington","state":"CT","lat":41.8131,"long":-73.1156},{"zip":"06791","city":"Harwinton","state":"CT","lat":41.7701,"long":-73.0728},{"zip":"06792","city":"Torrington","state":"CT","lat":41.7549,"long":-73.0582},{"zip":"06793","city":"Washington","state":"CT","lat":41.6296,"long":-73.2884},{"zip":"06794","city":"Washington Depot","state":"CT","lat":41.6559,"long":-73.3274},{"zip":"06795","city":"Watertown","state":"CT","lat":41.6057,"long":-73.1221},{"zip":"06796","city":"West Cornwall","state":"CT","lat":41.8689,"long":-73.3313},{"zip":"06798","city":"Woodbury","state":"CT","lat":41.5521,"long":-73.2083},{"zip":"06701","city":"Waterbury","state":"CT","lat":41.5582,"long":-73.0515},{"zip":"06702","city":"Waterbury","state":"CT","lat":41.5566,"long":-73.0385},{"zip":"06703","city":"Waterbury","state":"CT","lat":41.5582,"long":-73.0515},{"zip":"06704","city":"Waterbury","state":"CT","lat":41.5754,"long":-73.0318},{"zip":"06705","city":"Waterbury","state":"CT","lat":41.5503,"long":-72.9963},{"zip":"06706","city":"Waterbury","state":"CT","lat":41.5363,"long":-73.0306},{"zip":"06708","city":"Waterbury","state":"CT","lat":41.5511,"long":-73.0645},{"zip":"06710","city":"Waterbury","state":"CT","lat":41.5675,"long":-73.0468},{"zip":"06712","city":"Prospect","state":"CT","lat":41.5022,"long":-72.9788},{"zip":"06716","city":"Wolcott","state":"CT","lat":41.597,"long":-72.9828},{"zip":"06720","city":"Waterbury","state":"CT","lat":41.5582,"long":-73.0515},{"zip":"06721","city":"Waterbury","state":"CT","lat":41.5582,"long":-73.0515},{"zip":"06722","city":"Waterbury","state":"CT","lat":41.5582,"long":-73.0515},{"zip":"06723","city":"Waterbury","state":"CT","lat":41.5582,"long":-73.0515},{"zip":"06724","city":"Waterbury","state":"CT","lat":41.5582,"long":-73.0515},{"zip":"06725","city":"Waterbury","state":"CT","lat":41.5582,"long":-73.0515},{"zip":"06726","city":"Waterbury","state":"CT","lat":41.5582,"long":-73.0515},{"zip":"06749","city":"Waterbury","state":"CT","lat":41.5582,"long":-73.0515},{"zip":"06762","city":"Middlebury","state":"CT","lat":41.5343,"long":-73.1131},{"zip":"06770","city":"Naugatuck","state":"CT","lat":41.492,"long":-73.0493}]
