[{"zip":"06801","city":"Bethel","state":"CT","lat":41.3813,"long":-73.4008},{"zip":"06804","city":"Brookfield","state":"CT","lat":41.465,"long":-73.398},{"zip":"06807","city":"Cos Cob","state":"CT","lat":41.053,"long":-73.5935},{"zip":"06810","city":"Danbury","state":"CT","lat":41.3917,"long":-73.4532},{"zip":"06811","city":"Danbury","state":"CT","lat":41.424,"long":-73.4716},{"zip":"06812","city":"New Fairfield","state":"CT","lat":41.473,"long":-73.4978},{"zip":"06813","city":"Danbury","state":"CT","lat":41.3948,"long":-73.454},{"zip":"06814","city":"Danbury","state":"CT","lat":41.3089,"long":-73.3637},{"zip":"06816","city":"Danbury","state":"CT","lat":41.3089,"long":-73.3637},{"zip":"06817","city":"Danbury","state":"CT","lat":41.3948,"long":-73.454},{"zip":"06820","city":"Darien","state":"CT","lat":41.0768,"long":-73.4853},{"zip":"06824","city":"Fairfield","state":"CT","lat":41.1692,"long":-73.2681},{"zip":"06825","city":"Fairfield","state":"CT","lat":41.1928,"long":-73.2402},{"zip":"06828","city":"Fairfield","state":"CT","lat":41.169,"long":-73.2334},{"zip":"06829","city":"Georgetown","state":"CT","lat":41.2555,"long":-73.4279},{"zip":"06830","city":"Greenwich","state":"CT","lat":41.0427,"long":-73.6262},{"zip":"06831","city":"Greenwich","state":"CT","lat":41.0549,"long":-73.6594},{"zip":"06836","city":"Greenwich","state":"CT","lat":41.0265,"long":-73.6285},{"zip":"06838","city":"Greens Farms","state":"CT","lat":41.1238,"long":-73.3195},{"zip":"06840","city":"New Canaan","state":"CT","lat":41.151,"long":-73.4944},{"zip":"06850","city":"Norwalk","state":"CT","lat":41.1222,"long":-73.4358},{"zip":"06851","city":"Norwalk","state":"CT","lat":41.1323,"long":-73.4058},{"zip":"06852","city":"Norwalk","state":"CT","lat":41.3089,"long":-73.3637},{"zip":"06853","city":"Norwalk","state":"CT","lat":41.0702,"long":-73.4397},{"zip":"06854","city":"Norwalk","state":"CT","lat":41.0957,"long":-73.4285},{"zip":"06855","city":"Norwalk","state":"CT","lat":41.1014,"long":-73.4011},{"zip":"06856","city":"Norwalk","state":"CT","lat":41.1112,"long":-73.4204},{"zip":"06857","city":"Norwalk","state":"CT","lat":41.3089,"long":-73.3637},{"zip":"06858","city":"Norwalk","state":"CT","lat":41.1105,"long":-73.4162},{"zip":"06860","city":"Norwalk","state":"CT","lat":41.3089,"long":-73.3637},{"zip":"06870","city":"Old Greenwich","state":"CT","lat":41.0354,"long":-73.5673},{"zip":"06875","city":"Redding Center","state":"CT","lat":41.3089,"long":-73.3637},{"zip":"06876","city":"Redding Ridge","state":"CT","lat":41.314,"long":-73.3504},{"zip":"06877","city":"Ridgefield","state":"CT","lat":41.2977,"long":-73.4973},{"zip":"06878","city":"Riverside","state":"CT","lat":41.038,"long":-73.5811},{"zip":"06879","city":"Ridgefield","state":"CT","lat":41.2815,"long":-73.4982},{"zip":"06880","city":"Westport","state":"CT","lat":41.1434,"long":-73.3496},{"zip":"06881","city":"Westport","state":"CT","lat":41.1415,"long":-73.3579},{"zip":"06883","city":"Weston","state":"CT","lat":41.2195,"long":-73.3715},{"zip":"06888","city":"Westport","state":"CT","lat":41.3089,"long":-73.3637},{"zip":"06889","city":"Westport","state":"CT","lat":41.141,"long":-73.3469},{"zip":"06890","city":"Southport","state":"CT","lat":41.1428,"long":-73.2884},{"zip":"06896","city":"Redding","state":"CT","lat":41.2711,"long":-73.3863},{"zip":"06897","city":"Wilton","state":"CT","lat":41.2018,"long":-73.4383}]
