[{"zip":"06901","city":"Stamford","state":"CT","lat":41.0531,"long":-73.539},{"zip":"06902","city":"Stamford","state":"CT","lat":41.0602,"long":-73.5445},{"zip":"06903","city":"Stamford","state":"CT","lat":41.1352,"long":-73.5684},{"zip":"06904","city":"Stamford","state":"CT","lat":41.0534,"long":-73.5387},{"zip":"06905","city":"Stamford","state":"CT","lat":41.0888,"long":-73.5435},{"zip":"06906","city":"Stamford","state":"CT","lat":41.0692,"long":-73.5236},{"zip":"06907","city":"Stamford","state":"CT","lat":41.0942,"long":-73.5203},{"zip":"06910","city":"Stamford","state":"CT","lat":41.0391,"long":-73.5591},{"zip":"06911","city":"Stamford","state":"CT","lat":41.0534,"long":-73.5387},{"zip":"06912","city":"Stamford","state":"CT","lat":41.0534,"long":-73.5387},{"zip":"06913","city":"Stamford","state":"CT","lat":41.0534,"long":-73.5387},{"zip":"06914","city":"Stamford","state":"CT","lat":41.0534,"long":-73.5387},{"zip":"06920","city":"Stamford","state":"CT","lat":41.0534,"long":-73.5387},{"zip":"06921","city":"Stamford","state":"CT","lat":41.0499,"long":-73.538},{"zip":"06922","city":"Stamford","state":"CT","lat":41.0516,"long":-73.5143},{"zip":"06926","city":"Stamford","state":"CT","lat":41.0412,"long":-73.5386},{"zip":"06927","city":"Stamford","state":"CT","lat":41.0534,"long":-73.5387}]
