[{"zip":"07010","city":"Cliffside Park","state":"NJ","lat":40.8222,"long":-73.988},{"zip":"07020","city":"Edgewater","state":"NJ","lat":40.8317,"long":-73.9738},{"zip":"07022","city":"Fairview","state":"NJ","lat":40.817,"long":-74},{"zip":"07024","city":"Fort Lee","state":"NJ","lat":40.8503,"long":-73.9745},{"zip":"07026","city":"Garfield","state":"NJ","lat":40.8789,"long":-74.1081},{"zip":"07031","city":"North Arlington","state":"NJ","lat":40.7898,"long":-74.1343},{"zip":"07057","city":"Wallington","state":"NJ","lat":40.8536,"long":-74.1079},{"zip":"07070","city":"Rutherford","state":"NJ","lat":40.8292,"long":-74.1121},{"zip":"07071","city":"Lyndhurst","state":"NJ","lat":40.8094,"long":-74.1245},{"zip":"07072","city":"Carlstadt","state":"NJ","lat":40.8403,"long":-74.0925},{"zip":"07073","city":"East Rutherford","state":"NJ","lat":40.8385,"long":-74.1041},{"zip":"07074","city":"Moonachie","state":"NJ","lat":40.8394,"long":-74.0566},{"zip":"07075","city":"Wood Ridge","state":"NJ","lat":40.8493,"long":-74.0878},{"zip":"07003","city":"Bloomfield","state":"NJ","lat":40.8035,"long":-74.1891},{"zip":"07004","city":"Fairfield","state":"NJ","lat":40.8822,"long":-74.296},{"zip":"07006","city":"Caldwell","state":"NJ","lat":40.8545,"long":-74.2789},{"zip":"07007","city":"Caldwell","state":"NJ","lat":40.8398,"long":-74.2765},{"zip":"07009","city":"Cedar Grove","state":"NJ","lat":40.8534,"long":-74.2297},{"zip":"07017","city":"East Orange","state":"NJ","lat":40.7696,"long":-74.2077},{"zip":"07018","city":"East Orange","state":"NJ","lat":40.7558,"long":-74.2198},{"zip":"07019","city":"East Orange","state":"NJ","lat":40.7673,"long":-74.2049},{"zip":"07021","city":"Essex Fells","state":"NJ","lat":40.8279,"long":-74.2797},{"zip":"07028","city":"Glen Ridge","state":"NJ","lat":40.804,"long":-74.2055},{"zip":"07039","city":"Livingston","state":"NJ","lat":40.7896,"long":-74.3202},{"zip":"07040","city":"Maplewood","state":"NJ","lat":40.7279,"long":-74.2656},{"zip":"07041","city":"Millburn","state":"NJ","lat":40.7228,"long":-74.3015},{"zip":"07042","city":"Montclair","state":"NJ","lat":40.8131,"long":-74.2165},{"zip":"07043","city":"Montclair","state":"NJ","lat":40.843,"long":-74.2011},{"zip":"07044","city":"Verona","state":"NJ","lat":40.8319,"long":-74.2428},{"zip":"07050","city":"Orange","state":"NJ","lat":40.7692,"long":-74.2355},{"zip":"07051","city":"Orange","state":"NJ","lat":40.7918,"long":-74.2452},{"zip":"07052","city":"West Orange","state":"NJ","lat":40.7859,"long":-74.2568},{"zip":"07068","city":"Roseland","state":"NJ","lat":40.8203,"long":-74.3047},{"zip":"07078","city":"Short Hills","state":"NJ","lat":40.7368,"long":-74.3271},{"zip":"07079","city":"South Orange","state":"NJ","lat":40.7465,"long":-74.2575},{"zip":"07002","city":"Bayonne","state":"NJ","lat":40.6664,"long":-74.1192},{"zip":"07029","city":"Harrison","state":"NJ","lat":40.7445,"long":-74.1508},{"zip":"07030","city":"Hoboken","state":"NJ","lat":40.7445,"long":-74.0329},{"zip":"07032","city":"Kearny","state":"NJ","lat":40.7647,"long":-74.1471},{"zip":"07047","city":"North Bergen","state":"NJ","lat":40.7939,"long":-74.0258},{"zip":"07086","city":"Weehawken","state":"NJ","lat":40.7681,"long":-74.0208},{"zip":"07087","city":"Union City","state":"NJ","lat":40.7674,"long":-74.0323},{"zip":"07093","city":"West New York","state":"NJ","lat":40.7888,"long":-74.0115},{"zip":"07094","city":"Secaucus","state":"NJ","lat":40.791,"long":-74.0634},{"zip":"07096","city":"Secaucus","state":"NJ","lat":40.7328,"long":-74.0755},{"zip":"07097","city":"Jersey City","state":"NJ","lat":40.7328,"long":-74.0755},{"zip":"07099","city":"Kearny","state":"NJ","lat":40.7328,"long":-74.0755},{"zip":"07001","city":"Avenel","state":"NJ","lat":40.5826,"long":-74.2785},{"zip":"07008","city":"Carteret","state":"NJ","lat":40.5823,"long":-74.2313},{"zip":"07064","city":"Port Reading","state":"NJ","lat":40.5709,"long":-74.2466},{"zip":"07067","city":"Colonia","state":"NJ","lat":40.5937,"long":-74.3164},{"zip":"07077","city":"Sewaren","state":"NJ","lat":40.5542,"long":-74.2607},{"zip":"07080","city":"South Plainfield","state":"NJ","lat":40.5839,"long":-74.4147},{"zip":"07095","city":"Woodbridge","state":"NJ","lat":40.556,"long":-74.2845},{"zip":"07005","city":"Boonton","state":"NJ","lat":40.9115,"long":-74.414},{"zip":"07034","city":"Lake Hiawatha","state":"NJ","lat":40.8825,"long":-74.383},{"zip":"07035","city":"Lincoln Park","state":"NJ","lat":40.9208,"long":-74.2995},{"zip":"07045","city":"Montville","state":"NJ","lat":40.9049,"long":-74.3646},{"zip":"07046","city":"Mountain Lakes","state":"NJ","lat":40.8904,"long":-74.4415},{"zip":"07054","city":"Parsippany","state":"NJ","lat":40.8621,"long":-74.4117},{"zip":"07058","city":"Pine Brook","state":"NJ","lat":40.8742,"long":-74.35},{"zip":"07082","city":"Towaco","state":"NJ","lat":40.9277,"long":-74.3428},{"zip":"07011","city":"Clifton","state":"NJ","lat":40.8789,"long":-74.1425},{"zip":"07012","city":"Clifton","state":"NJ","lat":40.8488,"long":-74.1612},{"zip":"07013","city":"Clifton","state":"NJ","lat":40.8693,"long":-74.1711},{"zip":"07014","city":"Clifton","state":"NJ","lat":40.8344,"long":-74.1377},{"zip":"07015","city":"Clifton","state":"NJ","lat":40.8584,"long":-74.1638},{"zip":"07055","city":"Passaic","state":"NJ","lat":40.8601,"long":-74.1283},{"zip":"07059","city":"Warren","state":"NJ","lat":40.6318,"long":-74.5105},{"zip":"07016","city":"Cranford","state":"NJ","lat":40.6554,"long":-74.3057},{"zip":"07023","city":"Fanwood","state":"NJ","lat":40.6419,"long":-74.3868},{"zip":"07027","city":"Garwood","state":"NJ","lat":40.6512,"long":-74.3239},{"zip":"07033","city":"Kenilworth","state":"NJ","lat":40.6759,"long":-74.2944},{"zip":"07036","city":"Linden","state":"NJ","lat":40.6354,"long":-74.2556},{"zip":"07060","city":"Plainfield","state":"NJ","lat":40.6152,"long":-74.415},{"zip":"07061","city":"Plainfield","state":"NJ","lat":40.6657,"long":-74.2997},{"zip":"07062","city":"Plainfield","state":"NJ","lat":40.6323,"long":-74.3997},{"zip":"07063","city":"Plainfield","state":"NJ","lat":40.6048,"long":-74.4427},{"zip":"07065","city":"Rahway","state":"NJ","lat":40.6087,"long":-74.2819},{"zip":"07066","city":"Clark","state":"NJ","lat":40.6203,"long":-74.3106},{"zip":"07069","city":"Watchung","state":"NJ","lat":40.6378,"long":-74.4514},{"zip":"07076","city":"Scotch Plains","state":"NJ","lat":40.6379,"long":-74.3682},{"zip":"07081","city":"Springfield","state":"NJ","lat":40.7015,"long":-74.3227},{"zip":"07083","city":"Union","state":"NJ","lat":40.6952,"long":-74.2677},{"zip":"07088","city":"Vauxhall","state":"NJ","lat":40.7179,"long":-74.2829},{"zip":"07090","city":"Westfield","state":"NJ","lat":40.6479,"long":-74.3451},{"zip":"07091","city":"Westfield","state":"NJ","lat":40.6657,"long":-74.2997},{"zip":"07092","city":"Mountainside","state":"NJ","lat":40.6785,"long":-74.3588}]
