[{"zip":"07101","city":"Newark","state":"NJ","lat":40.7361,"long":-74.2251},{"zip":"07102","city":"Newark","state":"NJ","lat":40.732,"long":-74.1765},{"zip":"07103","city":"Newark","state":"NJ","lat":40.737,"long":-74.1964},{"zip":"07104","city":"Newark","state":"NJ","lat":40.7664,"long":-74.1695},{"zip":"07105","city":"Newark","state":"NJ","lat":40.7271,"long":-74.1563},{"zip":"07106","city":"Newark","state":"NJ","lat":40.7415,"long":-74.233},{"zip":"07107","city":"Newark","state":"NJ","lat":40.7607,"long":-74.1882},{"zip":"07108","city":"Newark","state":"NJ","lat":40.7236,"long":-74.2015},{"zip":"07109","city":"Belleville","state":"NJ","lat":40.7946,"long":-74.1631},{"zip":"07110","city":"Nutley","state":"NJ","lat":40.8185,"long":-74.1589},{"zip":"07111","city":"Irvington","state":"NJ","lat":40.7261,"long":-74.2313},{"zip":"07112","city":"Newark","state":"NJ","lat":40.7107,"long":-74.2131},{"zip":"07114","city":"Newark","state":"NJ","lat":40.7082,"long":-74.1891},{"zip":"07175","city":"Newark","state":"NJ","lat":40.7357,"long":-74.1724},{"zip":"07184","city":"Newark","state":"NJ","lat":40.7918,"long":-74.2452},{"zip":"07188","city":"Newark","state":"NJ","lat":40.7357,"long":-74.1724},{"zip":"07189","city":"Newark","state":"NJ","lat":40.7918,"long":-74.2452},{"zip":"07191","city":"Newark","state":"NJ","lat":40.7918,"long":-74.2452},{"zip":"07192","city":"Newark","state":"NJ","lat":40.7357,"long":-74.1724},{"zip":"07193","city":"Newark","state":"NJ","lat":40.7357,"long":-74.1724},{"zip":"07195","city":"Newark","state":"NJ","lat":40.7357,"long":-74.1724},{"zip":"07198","city":"Newark","state":"NJ","lat":40.7918,"long":-74.2452},{"zip":"07199","city":"Newark","state":"NJ","lat":40.7357,"long":-74.1724}]
