[{"zip":"07401","city":"Allendale","state":"NJ","lat":41.0327,"long":-74.1342},{"zip":"07407","city":"Elmwood Park","state":"NJ","lat":40.9069,"long":-74.1209},{"zip":"07410","city":"Fair Lawn","state":"NJ","lat":40.9343,"long":-74.1166},{"zip":"07417","city":"Franklin Lakes","state":"NJ","lat":41.0081,"long":-74.2113},{"zip":"07423","city":"Ho Ho Kus","state":"NJ","lat":41.0004,"long":-74.1025},{"zip":"07430","city":"Mahwah","state":"NJ","lat":41.0817,"long":-74.1861},{"zip":"07432","city":"Midland Park","state":"NJ","lat":40.9957,"long":-74.1409},{"zip":"07436","city":"Oakland","state":"NJ","lat":41.0294,"long":-74.2338},{"zip":"07446","city":"Ramsey","state":"NJ","lat":41.0577,"long":-74.1445},{"zip":"07450","city":"Ridgewood","state":"NJ","lat":40.982,"long":-74.1131},{"zip":"07451","city":"Ridgewood","state":"NJ","lat":40.9793,"long":-74.1165},{"zip":"07452","city":"Glen Rock","state":"NJ","lat":40.9602,"long":-74.1254},{"zip":"07458","city":"Saddle River","state":"NJ","lat":41.0443,"long":-74.0981},{"zip":"07463","city":"Waldwick","state":"NJ","lat":41.013,"long":-74.1243},{"zip":"07481","city":"Wyckoff","state":"NJ","lat":40.9978,"long":-74.166},{"zip":"07495","city":"Mahwah","state":"NJ","lat":41.1039,"long":-74.1644},{"zip":"07405","city":"Butler","state":"NJ","lat":40.9988,"long":-74.4261},{"zip":"07440","city":"Pequannock","state":"NJ","lat":40.9473,"long":-74.296},{"zip":"07444","city":"Pompton Plains","state":"NJ","lat":40.9655,"long":-74.3016},{"zip":"07457","city":"Riverdale","state":"NJ","lat":40.9931,"long":-74.3088},{"zip":"07403","city":"Bloomingdale","state":"NJ","lat":41.0128,"long":-74.3338},{"zip":"07420","city":"Haskell","state":"NJ","lat":41.0301,"long":-74.2965},{"zip":"07421","city":"Hewitt","state":"NJ","lat":41.1709,"long":-74.3686},{"zip":"07424","city":"Little Falls","state":"NJ","lat":40.8835,"long":-74.2144},{"zip":"07435","city":"Newfoundland","state":"NJ","lat":41.0647,"long":-74.4359},{"zip":"07438","city":"Oak Ridge","state":"NJ","lat":41.0302,"long":-74.5198},{"zip":"07442","city":"Pompton Lakes","state":"NJ","lat":40.9993,"long":-74.2876},{"zip":"07456","city":"Ringwood","state":"NJ","lat":41.0928,"long":-74.2659},{"zip":"07465","city":"Wanaque","state":"NJ","lat":41.0544,"long":-74.279},{"zip":"07470","city":"Wayne","state":"NJ","lat":40.9471,"long":-74.2466},{"zip":"07474","city":"Wayne","state":"NJ","lat":40.9481,"long":-74.245},{"zip":"07480","city":"West Milford","state":"NJ","lat":41.0915,"long":-74.375},{"zip":"07416","city":"Franklin","state":"NJ","lat":41.1164,"long":-74.5865},{"zip":"07418","city":"Glenwood","state":"NJ","lat":41.2356,"long":-74.4885},{"zip":"07419","city":"Hamburg","state":"NJ","lat":41.1467,"long":-74.5874},{"zip":"07422","city":"Highland Lakes","state":"NJ","lat":41.1826,"long":-74.4564},{"zip":"07428","city":"Mc Afee","state":"NJ","lat":41.2065,"long":-74.5381},{"zip":"07439","city":"Ogdensburg","state":"NJ","lat":41.0767,"long":-74.5982},{"zip":"07460","city":"Stockholm","state":"NJ","lat":41.0992,"long":-74.5283},{"zip":"07461","city":"Sussex","state":"NJ","lat":41.2292,"long":-74.5992},{"zip":"07462","city":"Vernon","state":"NJ","lat":41.185,"long":-74.5332}]
