[{"zip":"07501","city":"Paterson","state":"NJ","lat":40.9143,"long":-74.1671},{"zip":"07502","city":"Paterson","state":"NJ","lat":40.9199,"long":-74.1932},{"zip":"07503","city":"Paterson","state":"NJ","lat":40.897,"long":-74.1573},{"zip":"07504","city":"Paterson","state":"NJ","lat":40.9122,"long":-74.1452},{"zip":"07505","city":"Paterson","state":"NJ","lat":40.9166,"long":-74.174},{"zip":"07506","city":"Hawthorne","state":"NJ","lat":40.9564,"long":-74.1569},{"zip":"07507","city":"Hawthorne","state":"NJ","lat":40.9493,"long":-74.1538},{"zip":"07508","city":"Haledon","state":"NJ","lat":40.9457,"long":-74.1826},{"zip":"07509","city":"Paterson","state":"NJ","lat":40.9168,"long":-74.1718},{"zip":"07510","city":"Paterson","state":"NJ","lat":40.9168,"long":-74.1718},{"zip":"07511","city":"Totowa","state":"NJ","lat":41.0114,"long":-74.3048},{"zip":"07512","city":"Totowa","state":"NJ","lat":40.9048,"long":-74.2168},{"zip":"07513","city":"Paterson","state":"NJ","lat":40.907,"long":-74.1529},{"zip":"07514","city":"Paterson","state":"NJ","lat":40.9248,"long":-74.1467},{"zip":"07522","city":"Paterson","state":"NJ","lat":40.9252,"long":-74.1781},{"zip":"07524","city":"Paterson","state":"NJ","lat":40.9309,"long":-74.1555},{"zip":"07533","city":"Paterson","state":"NJ","lat":41.0114,"long":-74.3048},{"zip":"07538","city":"Haledon","state":"NJ","lat":40.9357,"long":-74.1863},{"zip":"07543","city":"Paterson","state":"NJ","lat":41.0114,"long":-74.3048},{"zip":"07544","city":"Paterson","state":"NJ","lat":41.0114,"long":-74.3048}]
