[{"zip":"07601","city":"Hackensack","state":"NJ","lat":40.8882,"long":-74.0503},{"zip":"07602","city":"Hackensack","state":"NJ","lat":40.8859,"long":-74.0435},{"zip":"07603","city":"Bogota","state":"NJ","lat":40.8744,"long":-74.0281},{"zip":"07604","city":"Hasbrouck Heights","state":"NJ","lat":40.8623,"long":-74.0756},{"zip":"07605","city":"Leonia","state":"NJ","lat":40.8629,"long":-73.9879},{"zip":"07606","city":"South Hackensack","state":"NJ","lat":40.8634,"long":-74.0456},{"zip":"07607","city":"Maywood","state":"NJ","lat":40.9024,"long":-74.0629},{"zip":"07608","city":"Teterboro","state":"NJ","lat":40.864,"long":-74.0556},{"zip":"07620","city":"Alpine","state":"NJ","lat":40.9511,"long":-73.9308},{"zip":"07621","city":"Bergenfield","state":"NJ","lat":40.9238,"long":-73.9989},{"zip":"07624","city":"Closter","state":"NJ","lat":40.9721,"long":-73.959},{"zip":"07626","city":"Cresskill","state":"NJ","lat":40.9418,"long":-73.9652},{"zip":"07627","city":"Demarest","state":"NJ","lat":40.9548,"long":-73.9602},{"zip":"07628","city":"Dumont","state":"NJ","lat":40.9447,"long":-73.9921},{"zip":"07630","city":"Emerson","state":"NJ","lat":40.9755,"long":-74.0285},{"zip":"07631","city":"Englewood","state":"NJ","lat":40.8943,"long":-73.9772},{"zip":"07632","city":"Englewood Cliffs","state":"NJ","lat":40.882,"long":-73.9544},{"zip":"07640","city":"Harrington Park","state":"NJ","lat":40.9918,"long":-73.98},{"zip":"07641","city":"Haworth","state":"NJ","lat":40.9608,"long":-73.9874},{"zip":"07642","city":"Hillsdale","state":"NJ","lat":41.0069,"long":-74.0426},{"zip":"07643","city":"Little Ferry","state":"NJ","lat":40.8493,"long":-74.0405},{"zip":"07644","city":"Lodi","state":"NJ","lat":40.8764,"long":-74.0838},{"zip":"07645","city":"Montvale","state":"NJ","lat":41.0495,"long":-74.0384},{"zip":"07646","city":"New Milford","state":"NJ","lat":40.9331,"long":-74.0195},{"zip":"07647","city":"Northvale","state":"NJ","lat":41.0086,"long":-73.9389},{"zip":"07648","city":"Norwood","state":"NJ","lat":40.9952,"long":-73.9582},{"zip":"07649","city":"Oradell","state":"NJ","lat":40.9535,"long":-74.0335},{"zip":"07650","city":"Palisades Park","state":"NJ","lat":40.8462,"long":-73.9954},{"zip":"07652","city":"Paramus","state":"NJ","lat":40.9477,"long":-74.0672},{"zip":"07653","city":"Paramus","state":"NJ","lat":40.9481,"long":-74.0832},{"zip":"07656","city":"Park Ridge","state":"NJ","lat":41.0343,"long":-74.0396},{"zip":"07657","city":"Ridgefield","state":"NJ","lat":40.8326,"long":-74.0015},{"zip":"07660","city":"Ridgefield Park","state":"NJ","lat":40.8562,"long":-74.023},{"zip":"07661","city":"River Edge","state":"NJ","lat":40.9265,"long":-74.0392},{"zip":"07662","city":"Rochelle Park","state":"NJ","lat":40.9057,"long":-74.079},{"zip":"07663","city":"Saddle Brook","state":"NJ","lat":40.9031,"long":-74.0955},{"zip":"07666","city":"Teaneck","state":"NJ","lat":40.8915,"long":-74.0119},{"zip":"07670","city":"Tenafly","state":"NJ","lat":40.9216,"long":-73.9659},{"zip":"07675","city":"Westwood","state":"NJ","lat":41.0092,"long":-74.0041},{"zip":"07676","city":"Township Of Washington","state":"NJ","lat":40.9883,"long":-74.0635},{"zip":"07677","city":"Woodcliff Lake","state":"NJ","lat":41.0234,"long":-74.0603},{"zip":"07699","city":"Teterboro","state":"NJ","lat":40.8463,"long":-74.0611}]
