[{"zip":"07701","city":"Red Bank","state":"NJ","lat":40.3584,"long":-74.0681},{"zip":"07702","city":"Shrewsbury","state":"NJ","lat":40.3282,"long":-74.0589},{"zip":"07703","city":"Fort Monmouth","state":"NJ","lat":40.3177,"long":-74.039},{"zip":"07704","city":"Fair Haven","state":"NJ","lat":40.3599,"long":-74.0389},{"zip":"07710","city":"Adelphia","state":"NJ","lat":40.2182,"long":-74.2563},{"zip":"07711","city":"Allenhurst","state":"NJ","lat":40.2367,"long":-74.0067},{"zip":"07712","city":"Asbury Park","state":"NJ","lat":40.2507,"long":-74.0486},{"zip":"07715","city":"Belmar","state":"NJ","lat":40.1784,"long":-74.0218},{"zip":"07716","city":"Atlantic Highlands","state":"NJ","lat":40.4015,"long":-74.0309},{"zip":"07717","city":"Avon By The Sea","state":"NJ","lat":40.1918,"long":-74.0167},{"zip":"07718","city":"Belford","state":"NJ","lat":40.4173,"long":-74.0889},{"zip":"07719","city":"Belmar","state":"NJ","lat":40.1688,"long":-74.072},{"zip":"07720","city":"Bradley Beach","state":"NJ","lat":40.2023,"long":-74.0132},{"zip":"07721","city":"Cliffwood","state":"NJ","lat":40.4353,"long":-74.2358},{"zip":"07722","city":"Colts Neck","state":"NJ","lat":40.3012,"long":-74.178},{"zip":"07723","city":"Deal","state":"NJ","lat":40.2506,"long":-74.002},{"zip":"07724","city":"Eatontown","state":"NJ","lat":40.3028,"long":-74.0698},{"zip":"07726","city":"Englishtown","state":"NJ","lat":40.2825,"long":-74.3424},{"zip":"07727","city":"Farmingdale","state":"NJ","lat":40.2043,"long":-74.1779},{"zip":"07728","city":"Freehold","state":"NJ","lat":40.2458,"long":-74.2768},{"zip":"07730","city":"Hazlet","state":"NJ","lat":40.4226,"long":-74.1799},{"zip":"07731","city":"Howell","state":"NJ","lat":40.1481,"long":-74.2137},{"zip":"07732","city":"Highlands","state":"NJ","lat":40.4037,"long":-73.9915},{"zip":"07733","city":"Holmdel","state":"NJ","lat":40.3859,"long":-74.174},{"zip":"07734","city":"Keansburg","state":"NJ","lat":40.4414,"long":-74.1306},{"zip":"07735","city":"Keyport","state":"NJ","lat":40.4332,"long":-74.1996},{"zip":"07737","city":"Leonardo","state":"NJ","lat":40.4177,"long":-74.0623},{"zip":"07738","city":"Lincroft","state":"NJ","lat":40.3369,"long":-74.1205},{"zip":"07739","city":"Little Silver","state":"NJ","lat":40.3354,"long":-74.0413},{"zip":"07740","city":"Long Branch","state":"NJ","lat":40.2992,"long":-73.9912},{"zip":"07746","city":"Marlboro","state":"NJ","lat":40.3182,"long":-74.2639},{"zip":"07747","city":"Matawan","state":"NJ","lat":40.4109,"long":-74.238},{"zip":"07748","city":"Middletown","state":"NJ","lat":40.3944,"long":-74.1157},{"zip":"07750","city":"Monmouth Beach","state":"NJ","lat":40.333,"long":-73.9809},{"zip":"07751","city":"Morganville","state":"NJ","lat":40.3529,"long":-74.2779},{"zip":"07752","city":"Navesink","state":"NJ","lat":40.4023,"long":-74.0273},{"zip":"07753","city":"Neptune","state":"NJ","lat":40.2096,"long":-74.0714},{"zip":"07754","city":"Neptune","state":"NJ","lat":40.2001,"long":-74.0279},{"zip":"07755","city":"Oakhurst","state":"NJ","lat":40.2648,"long":-74.0184},{"zip":"07756","city":"Ocean Grove","state":"NJ","lat":40.2116,"long":-74.0093},{"zip":"07757","city":"Oceanport","state":"NJ","lat":40.3157,"long":-74.0164},{"zip":"07758","city":"Port Monmouth","state":"NJ","lat":40.4289,"long":-74.1083},{"zip":"07760","city":"Rumson","state":"NJ","lat":40.3707,"long":-74.0084},{"zip":"07762","city":"Spring Lake","state":"NJ","lat":40.1542,"long":-74.0379},{"zip":"07763","city":"Tennent","state":"NJ","lat":40.2796,"long":-74.3343},{"zip":"07764","city":"West Long Branch","state":"NJ","lat":40.2878,"long":-74.0162},{"zip":"07765","city":"Wickatunk","state":"NJ","lat":40.3501,"long":-74.2479},{"zip":"07799","city":"Eatontown","state":"NJ","lat":40.3027,"long":-74.2493}]
