[{"zip":"07979","city":"Pottersville","state":"NJ","lat":40.7026,"long":-74.7276},{"zip":"07926","city":"Brookside","state":"NJ","lat":40.8004,"long":-74.5718},{"zip":"07927","city":"Cedar Knolls","state":"NJ","lat":40.8223,"long":-74.4569},{"zip":"07928","city":"Chatham","state":"NJ","lat":40.7305,"long":-74.4017},{"zip":"07930","city":"Chester","state":"NJ","lat":40.7892,"long":-74.6776},{"zip":"07932","city":"Florham Park","state":"NJ","lat":40.7757,"long":-74.3928},{"zip":"07933","city":"Gillette","state":"NJ","lat":40.6877,"long":-74.4681},{"zip":"07935","city":"Green Village","state":"NJ","lat":40.7416,"long":-74.4517},{"zip":"07936","city":"East Hanover","state":"NJ","lat":40.8192,"long":-74.3636},{"zip":"07940","city":"Madison","state":"NJ","lat":40.7599,"long":-74.4179},{"zip":"07945","city":"Mendham","state":"NJ","lat":40.7789,"long":-74.6},{"zip":"07946","city":"Millington","state":"NJ","lat":40.6727,"long":-74.5183},{"zip":"07950","city":"Morris Plains","state":"NJ","lat":40.8445,"long":-74.4824},{"zip":"07960","city":"Morristown","state":"NJ","lat":40.7952,"long":-74.4873},{"zip":"07961","city":"Convent Station","state":"NJ","lat":40.7968,"long":-74.4815},{"zip":"07962","city":"Morristown","state":"NJ","lat":40.8673,"long":-74.5783},{"zip":"07963","city":"Morristown","state":"NJ","lat":40.7968,"long":-74.4815},{"zip":"07970","city":"Mount Freedom","state":"NJ","lat":40.8055,"long":-74.5738},{"zip":"07976","city":"New Vernon","state":"NJ","lat":40.7347,"long":-74.4845},{"zip":"07980","city":"Stirling","state":"NJ","lat":40.6774,"long":-74.4968},{"zip":"07981","city":"Whippany","state":"NJ","lat":40.8219,"long":-74.42},{"zip":"07999","city":"Whippany","state":"NJ","lat":40.8673,"long":-74.5783},{"zip":"07920","city":"Basking Ridge","state":"NJ","lat":40.6789,"long":-74.5605},{"zip":"07921","city":"Bedminster","state":"NJ","lat":40.6571,"long":-74.6432},{"zip":"07924","city":"Bernardsville","state":"NJ","lat":40.7225,"long":-74.5778},{"zip":"07931","city":"Far Hills","state":"NJ","lat":40.6996,"long":-74.6536},{"zip":"07934","city":"Gladstone","state":"NJ","lat":40.7219,"long":-74.6707},{"zip":"07938","city":"Liberty Corner","state":"NJ","lat":40.6554,"long":-74.5862},{"zip":"07939","city":"Lyons","state":"NJ","lat":40.6674,"long":-74.5539},{"zip":"07977","city":"Peapack","state":"NJ","lat":40.7079,"long":-74.6541},{"zip":"07978","city":"Pluckemin","state":"NJ","lat":40.6425,"long":-74.6396},{"zip":"07901","city":"Summit","state":"NJ","lat":40.7149,"long":-74.3642},{"zip":"07902","city":"Summit","state":"NJ","lat":40.7156,"long":-74.3647},{"zip":"07922","city":"Berkeley Heights","state":"NJ","lat":40.6752,"long":-74.4346},{"zip":"07974","city":"New Providence","state":"NJ","lat":40.7004,"long":-74.4023}]
