[{"zip":"08037","city":"Hammonton","state":"NJ","lat":39.638,"long":-74.7728},{"zip":"08201","city":"Absecon","state":"NJ","lat":39.4218,"long":-74.4949},{"zip":"08203","city":"Brigantine","state":"NJ","lat":39.4101,"long":-74.3646},{"zip":"08205","city":"Absecon","state":"NJ","lat":39.4745,"long":-74.4575},{"zip":"08213","city":"Cologne","state":"NJ","lat":39.5092,"long":-74.6086},{"zip":"08215","city":"Egg Harbor City","state":"NJ","lat":39.5331,"long":-74.6177},{"zip":"08217","city":"Elwood","state":"NJ","lat":39.5737,"long":-74.72},{"zip":"08220","city":"Leeds Point","state":"NJ","lat":39.4921,"long":-74.429},{"zip":"08221","city":"Linwood","state":"NJ","lat":39.3469,"long":-74.5807},{"zip":"08225","city":"Northfield","state":"NJ","lat":39.3703,"long":-74.5552},{"zip":"08231","city":"Oceanville","state":"NJ","lat":39.4712,"long":-74.4604},{"zip":"08232","city":"Pleasantville","state":"NJ","lat":39.3876,"long":-74.5149},{"zip":"08234","city":"Egg Harbor Township","state":"NJ","lat":39.3741,"long":-74.6118},{"zip":"08240","city":"Pomona","state":"NJ","lat":39.4877,"long":-74.5543},{"zip":"08241","city":"Port Republic","state":"NJ","lat":39.5272,"long":-74.4903},{"zip":"08244","city":"Somers Point","state":"NJ","lat":39.3223,"long":-74.6008},{"zip":"08310","city":"Buena","state":"NJ","lat":39.537,"long":-74.8895},{"zip":"08317","city":"Dorothy","state":"NJ","lat":39.4031,"long":-74.8316},{"zip":"08319","city":"Estell Manor","state":"NJ","lat":39.3783,"long":-74.8165},{"zip":"08326","city":"Landisville","state":"NJ","lat":39.5239,"long":-74.9377},{"zip":"08330","city":"Mays Landing","state":"NJ","lat":39.432,"long":-74.6962},{"zip":"08340","city":"Milmay","state":"NJ","lat":39.4451,"long":-74.8667},{"zip":"08341","city":"Minotola","state":"NJ","lat":39.5155,"long":-74.9467},{"zip":"08342","city":"Mizpah","state":"NJ","lat":39.5021,"long":-74.8335},{"zip":"08346","city":"Newtonville","state":"NJ","lat":39.5645,"long":-74.859},{"zip":"08350","city":"Richland","state":"NJ","lat":39.485,"long":-74.8776},{"zip":"08401","city":"Atlantic City","state":"NJ","lat":39.3664,"long":-74.4317},{"zip":"08402","city":"Margate City","state":"NJ","lat":39.3286,"long":-74.509},{"zip":"08403","city":"Longport","state":"NJ","lat":39.3194,"long":-74.5356},{"zip":"08404","city":"Atlantic City","state":"NJ","lat":39.3643,"long":-74.4229},{"zip":"08405","city":"Atlantic City","state":"NJ","lat":39.3643,"long":-74.4229},{"zip":"08406","city":"Ventnor City","state":"NJ","lat":39.346,"long":-74.4723},{"zip":"08010","city":"Beverly","state":"NJ","lat":40.0565,"long":-74.9114},{"zip":"08011","city":"Birmingham","state":"NJ","lat":39.976,"long":-74.7114},{"zip":"08015","city":"Browns Mills","state":"NJ","lat":39.9597,"long":-74.5655},{"zip":"08016","city":"Burlington","state":"NJ","lat":40.068,"long":-74.8454},{"zip":"08019","city":"Chatsworth","state":"NJ","lat":39.8019,"long":-74.5256},{"zip":"08022","city":"Columbus","state":"NJ","lat":40.0642,"long":-74.6899},{"zip":"08036","city":"Hainesport","state":"NJ","lat":39.9872,"long":-74.8293},{"zip":"08041","city":"Jobstown","state":"NJ","lat":40.0387,"long":-74.6873},{"zip":"08042","city":"Juliustown","state":"NJ","lat":40.0123,"long":-74.6646},{"zip":"08046","city":"Willingboro","state":"NJ","lat":40.029,"long":-74.8835},{"zip":"08048","city":"Lumberton","state":"NJ","lat":39.9651,"long":-74.8067},{"zip":"08052","city":"Maple Shade","state":"NJ","lat":39.9511,"long":-74.9946},{"zip":"08053","city":"Marlton","state":"NJ","lat":39.8845,"long":-74.9067},{"zip":"08054","city":"Mount Laurel","state":"NJ","lat":39.9478,"long":-74.9036},{"zip":"08055","city":"Medford","state":"NJ","lat":39.8637,"long":-74.8223},{"zip":"08057","city":"Moorestown","state":"NJ","lat":39.9683,"long":-74.9533},{"zip":"08060","city":"Mount Holly","state":"NJ","lat":40.0086,"long":-74.7896},{"zip":"08064","city":"New Lisbon","state":"NJ","lat":39.9582,"long":-74.6279},{"zip":"08065","city":"Palmyra","state":"NJ","lat":40.0037,"long":-75.0257},{"zip":"08068","city":"Pemberton","state":"NJ","lat":39.9712,"long":-74.6676},{"zip":"08073","city":"Rancocas","state":"NJ","lat":40.0095,"long":-74.8668},{"zip":"08075","city":"Riverside","state":"NJ","lat":40.0293,"long":-74.9497},{"zip":"08076","city":"Riverton","state":"NJ","lat":40.0115,"long":-75.0149},{"zip":"08077","city":"Riverton","state":"NJ","lat":40.002,"long":-74.9952},{"zip":"08088","city":"Vincentown","state":"NJ","lat":39.8604,"long":-74.6693},{"zip":"08224","city":"New Gretna","state":"NJ","lat":39.5923,"long":-74.451},{"zip":"08505","city":"Bordentown","state":"NJ","lat":40.1431,"long":-74.7032},{"zip":"08511","city":"Cookstown","state":"NJ","lat":40.0481,"long":-74.5595},{"zip":"08515","city":"Chesterfield","state":"NJ","lat":40.1151,"long":-74.6393},{"zip":"08518","city":"Florence","state":"NJ","lat":40.118,"long":-74.8055},{"zip":"08554","city":"Roebling","state":"NJ","lat":40.1154,"long":-74.7772},{"zip":"08562","city":"Wrightstown","state":"NJ","lat":40.072,"long":-74.5731},{"zip":"08640","city":"Joint Base Mdl","state":"NJ","lat":40.2171,"long":-74.7429},{"zip":"08641","city":"Joint Base Mdl","state":"NJ","lat":40.2171,"long":-74.7429},{"zip":"08002","city":"Cherry Hill","state":"NJ","lat":39.9308,"long":-75.0175},{"zip":"08003","city":"Cherry Hill","state":"NJ","lat":39.8805,"long":-74.9706},{"zip":"08004","city":"Atco","state":"NJ","lat":39.76,"long":-74.8665},{"zip":"08007","city":"Barrington","state":"NJ","lat":39.8651,"long":-75.0564},{"zip":"08009","city":"Berlin","state":"NJ","lat":39.7788,"long":-74.9308},{"zip":"08012","city":"Blackwood","state":"NJ","lat":39.7901,"long":-75.0367},{"zip":"08018","city":"Cedar Brook","state":"NJ","lat":39.7154,"long":-74.9007},{"zip":"08021","city":"Clementon","state":"NJ","lat":39.8036,"long":-75.0058},{"zip":"08026","city":"Gibbsboro","state":"NJ","lat":39.8365,"long":-74.971},{"zip":"08029","city":"Glendora","state":"NJ","lat":39.8404,"long":-75.0697},{"zip":"08030","city":"Gloucester City","state":"NJ","lat":39.8911,"long":-75.117},{"zip":"08031","city":"Bellmawr","state":"NJ","lat":39.8689,"long":-75.0944},{"zip":"08033","city":"Haddonfield","state":"NJ","lat":39.8954,"long":-75.0417},{"zip":"08034","city":"Cherry Hill","state":"NJ","lat":39.9074,"long":-75.0008},{"zip":"08035","city":"Haddon Heights","state":"NJ","lat":39.8788,"long":-75.0664},{"zip":"08043","city":"Voorhees","state":"NJ","lat":39.8504,"long":-74.9646},{"zip":"08045","city":"Lawnside","state":"NJ","lat":39.8676,"long":-75.0317},{"zip":"08049","city":"Magnolia","state":"NJ","lat":39.8538,"long":-75.0393},{"zip":"08059","city":"Mount Ephraim","state":"NJ","lat":39.8827,"long":-75.0929},{"zip":"08078","city":"Runnemede","state":"NJ","lat":39.8508,"long":-75.0742},{"zip":"08081","city":"Sicklerville","state":"NJ","lat":39.7354,"long":-74.9864},{"zip":"08083","city":"Somerdale","state":"NJ","lat":39.84,"long":-75.0309},{"zip":"08084","city":"Stratford","state":"NJ","lat":39.8288,"long":-75.0147},{"zip":"08089","city":"Waterford Works","state":"NJ","lat":39.7215,"long":-74.8609},{"zip":"08091","city":"West Berlin","state":"NJ","lat":39.8051,"long":-74.9255},{"zip":"08095","city":"Winslow","state":"NJ","lat":39.6549,"long":-74.8685},{"zip":"08099","city":"Bellmawr","state":"NJ","lat":39.8676,"long":-75.0946},{"zip":"08101","city":"Camden","state":"NJ","lat":39.9259,"long":-75.1196},{"zip":"08102","city":"Camden","state":"NJ","lat":39.9512,"long":-75.1186},{"zip":"08103","city":"Camden","state":"NJ","lat":39.9351,"long":-75.1117},{"zip":"08104","city":"Camden","state":"NJ","lat":39.9186,"long":-75.1078},{"zip":"08105","city":"Camden","state":"NJ","lat":39.9484,"long":-75.0864},{"zip":"08106","city":"Audubon","state":"NJ","lat":39.891,"long":-75.0724},{"zip":"08107","city":"Oaklyn","state":"NJ","lat":39.908,"long":-75.0849},{"zip":"08108","city":"Collingswood","state":"NJ","lat":39.9157,"long":-75.0634},{"zip":"08109","city":"Merchantville","state":"NJ","lat":39.9519,"long":-75.0482},{"zip":"08110","city":"Pennsauken","state":"NJ","lat":39.9723,"long":-75.0607},{"zip":"08202","city":"Avalon","state":"NJ","lat":39.0951,"long":-74.7262},{"zip":"08204","city":"Cape May","state":"NJ","lat":38.9711,"long":-74.9214},{"zip":"08210","city":"Cape May Court House","state":"NJ","lat":39.1378,"long":-74.7806},{"zip":"08212","city":"Cape May Point","state":"NJ","lat":38.9372,"long":-74.9654},{"zip":"08214","city":"Dennisville","state":"NJ","lat":39.1932,"long":-74.8252},{"zip":"08218","city":"Goshen","state":"NJ","lat":39.1415,"long":-74.8529},{"zip":"08219","city":"Green Creek","state":"NJ","lat":39.0462,"long":-74.9013},{"zip":"08223","city":"Marmora","state":"NJ","lat":39.2586,"long":-74.6593},{"zip":"08226","city":"Ocean City","state":"NJ","lat":39.2709,"long":-74.5875},{"zip":"08230","city":"Ocean View","state":"NJ","lat":39.2154,"long":-74.7075},{"zip":"08242","city":"Rio Grande","state":"NJ","lat":39.0196,"long":-74.8756},{"zip":"08243","city":"Sea Isle City","state":"NJ","lat":39.154,"long":-74.7005},{"zip":"08245","city":"South Dennis","state":"NJ","lat":39.1,"long":-74.8487},{"zip":"08246","city":"South Seaville","state":"NJ","lat":39.0565,"long":-74.8166},{"zip":"08247","city":"Stone Harbor","state":"NJ","lat":39.0533,"long":-74.762},{"zip":"08248","city":"Strathmere","state":"NJ","lat":39.1992,"long":-74.6554},{"zip":"08250","city":"Tuckahoe","state":"NJ","lat":39.2901,"long":-74.7538},{"zip":"08251","city":"Villas","state":"NJ","lat":39.0219,"long":-74.9354},{"zip":"08252","city":"Whitesboro","state":"NJ","lat":39.0421,"long":-74.8618},{"zip":"08260","city":"Wildwood","state":"NJ","lat":38.9949,"long":-74.838},{"zip":"08270","city":"Woodbine","state":"NJ","lat":39.2716,"long":-74.7968},{"zip":"08302","city":"Bridgeton","state":"NJ","lat":39.3762,"long":-75.1617},{"zip":"08311","city":"Cedarville","state":"NJ","lat":39.337,"long":-75.1994},{"zip":"08313","city":"Deerfield Street","state":"NJ","lat":39.5293,"long":-75.2249},{"zip":"08314","city":"Delmont","state":"NJ","lat":39.2023,"long":-74.9705},{"zip":"08315","city":"Dividing Creek","state":"NJ","lat":39.2732,"long":-75.095},{"zip":"08316","city":"Dorchester","state":"NJ","lat":39.2679,"long":-74.9791},{"zip":"08320","city":"Fairton","state":"NJ","lat":39.3799,"long":-75.2217},{"zip":"08321","city":"Fortescue","state":"NJ","lat":39.2189,"long":-75.1403},{"zip":"08323","city":"Greenwich","state":"NJ","lat":39.4055,"long":-75.3209},{"zip":"08324","city":"Heislerville","state":"NJ","lat":39.224,"long":-74.9942},{"zip":"08327","city":"Leesburg","state":"NJ","lat":39.2568,"long":-74.9874},{"zip":"08329","city":"Mauricetown","state":"NJ","lat":39.2853,"long":-74.9983},{"zip":"08332","city":"Millville","state":"NJ","lat":39.3673,"long":-75.0293},{"zip":"08345","city":"Newport","state":"NJ","lat":39.2832,"long":-75.1716},{"zip":"08348","city":"Port Elizabeth","state":"NJ","lat":39.3131,"long":-74.9807},{"zip":"08349","city":"Port Norris","state":"NJ","lat":39.2563,"long":-75.0506},{"zip":"08352","city":"Rosenhayn","state":"NJ","lat":39.4782,"long":-75.1313},{"zip":"08353","city":"Shiloh","state":"NJ","lat":39.4594,"long":-75.297},{"zip":"08360","city":"Vineland","state":"NJ","lat":39.4818,"long":-75.0091},{"zip":"08361","city":"Vineland","state":"NJ","lat":39.4655,"long":-74.9653},{"zip":"08362","city":"Vineland","state":"NJ","lat":39.4862,"long":-75.0257},{"zip":"08014","city":"Bridgeport","state":"NJ","lat":39.8016,"long":-75.3478},{"zip":"08020","city":"Clarksboro","state":"NJ","lat":39.7992,"long":-75.2237},{"zip":"08025","city":"Ewan","state":"NJ","lat":39.7015,"long":-75.1629},{"zip":"08027","city":"Gibbstown","state":"NJ","lat":39.8231,"long":-75.2751},{"zip":"08028","city":"Glassboro","state":"NJ","lat":39.7068,"long":-75.1172},{"zip":"08032","city":"Grenloch","state":"NJ","lat":39.7788,"long":-75.0601},{"zip":"08039","city":"Harrisonville","state":"NJ","lat":39.6931,"long":-75.2711},{"zip":"08051","city":"Mantua","state":"NJ","lat":39.787,"long":-75.1785},{"zip":"08056","city":"Mickleton","state":"NJ","lat":39.7857,"long":-75.2498},{"zip":"08061","city":"Mount Royal","state":"NJ","lat":39.8097,"long":-75.2082},{"zip":"08062","city":"Mullica Hill","state":"NJ","lat":39.7252,"long":-75.2065},{"zip":"08063","city":"National Park","state":"NJ","lat":39.8664,"long":-75.1794},{"zip":"08066","city":"Paulsboro","state":"NJ","lat":39.8312,"long":-75.2242},{"zip":"08071","city":"Pitman","state":"NJ","lat":39.7312,"long":-75.1297},{"zip":"08074","city":"Richwood","state":"NJ","lat":39.7206,"long":-75.1681},{"zip":"08080","city":"Sewell","state":"NJ","lat":39.7473,"long":-75.0899},{"zip":"08085","city":"Swedesboro","state":"NJ","lat":39.7529,"long":-75.3362},{"zip":"08086","city":"Thorofare","state":"NJ","lat":39.8457,"long":-75.1943},{"zip":"08090","city":"Wenonah","state":"NJ","lat":39.7993,"long":-75.1536},{"zip":"08093","city":"Westville","state":"NJ","lat":39.8605,"long":-75.1323},{"zip":"08094","city":"Williamstown","state":"NJ","lat":39.665,"long":-74.971},{"zip":"08096","city":"Deptford","state":"NJ","lat":39.7539,"long":-74.996},{"zip":"08097","city":"Woodbury Heights","state":"NJ","lat":39.8142,"long":-75.153},{"zip":"08312","city":"Clayton","state":"NJ","lat":39.659,"long":-75.0942},{"zip":"08322","city":"Franklinville","state":"NJ","lat":39.6156,"long":-75.0409},{"zip":"08328","city":"Malaga","state":"NJ","lat":39.5755,"long":-75.0582},{"zip":"08343","city":"Monroeville","state":"NJ","lat":39.6442,"long":-75.1568},{"zip":"08344","city":"Newfield","state":"NJ","lat":39.5553,"long":-75.0276},{"zip":"08530","city":"Lambertville","state":"NJ","lat":40.3731,"long":-74.9266},{"zip":"08551","city":"Ringoes","state":"NJ","lat":40.4459,"long":-74.8288},{"zip":"08556","city":"Rosemont","state":"NJ","lat":40.42,"long":-74.9886},{"zip":"08557","city":"Sergeantsville","state":"NJ","lat":40.4459,"long":-74.9435},{"zip":"08559","city":"Stockton","state":"NJ","lat":40.4397,"long":-74.9554},{"zip":"08801","city":"Annandale","state":"NJ","lat":40.6287,"long":-74.8855},{"zip":"08803","city":"Baptistown","state":"NJ","lat":40.5218,"long":-75.006},{"zip":"08804","city":"Bloomsbury","state":"NJ","lat":40.6437,"long":-75.0966},{"zip":"08809","city":"Clinton","state":"NJ","lat":40.6412,"long":-74.9088},{"zip":"08822","city":"Flemington","state":"NJ","lat":40.518,"long":-74.8453},{"zip":"08825","city":"Frenchtown","state":"NJ","lat":40.5208,"long":-75.0325},{"zip":"08826","city":"Glen Gardner","state":"NJ","lat":40.7134,"long":-74.9162},{"zip":"08827","city":"Hampton","state":"NJ","lat":40.6774,"long":-74.9622},{"zip":"08829","city":"High Bridge","state":"NJ","lat":40.6684,"long":-74.8937},{"zip":"08833","city":"Lebanon","state":"NJ","lat":40.6466,"long":-74.829},{"zip":"08834","city":"Little York","state":"NJ","lat":40.5637,"long":-74.9494},{"zip":"08848","city":"Milford","state":"NJ","lat":40.5929,"long":-75.1025},{"zip":"08858","city":"Oldwick","state":"NJ","lat":40.6726,"long":-74.7474},{"zip":"08867","city":"Pittstown","state":"NJ","lat":40.5992,"long":-74.9576},{"zip":"08868","city":"Quakertown","state":"NJ","lat":40.5655,"long":-74.9389},{"zip":"08870","city":"Readington","state":"NJ","lat":40.5687,"long":-74.7377},{"zip":"08885","city":"Stanton","state":"NJ","lat":40.5764,"long":-74.8311},{"zip":"08887","city":"Three Bridges","state":"NJ","lat":40.5206,"long":-74.7946},{"zip":"08888","city":"Whitehouse","state":"NJ","lat":40.6194,"long":-74.7406},{"zip":"08889","city":"Whitehouse Station","state":"NJ","lat":40.6156,"long":-74.7724},{"zip":"08520","city":"Hightstown","state":"NJ","lat":40.2669,"long":-74.525},{"zip":"08525","city":"Hopewell","state":"NJ","lat":40.3902,"long":-74.771},{"zip":"08534","city":"Pennington","state":"NJ","lat":40.3339,"long":-74.7944},{"zip":"08540","city":"Princeton","state":"NJ","lat":40.3666,"long":-74.6408},{"zip":"08541","city":"Princeton","state":"NJ","lat":40.3487,"long":-74.659},{"zip":"08542","city":"Princeton","state":"NJ","lat":40.3535,"long":-74.6594},{"zip":"08543","city":"Princeton","state":"NJ","lat":40.2805,"long":-74.712},{"zip":"08544","city":"Princeton","state":"NJ","lat":40.3492,"long":-74.6528},{"zip":"08550","city":"Princeton Junction","state":"NJ","lat":40.2669,"long":-74.6511},{"zip":"08560","city":"Titusville","state":"NJ","lat":40.3077,"long":-74.8655},{"zip":"08561","city":"Windsor","state":"NJ","lat":40.2423,"long":-74.5787},{"zip":"08601","city":"Trenton","state":"NJ","lat":40.2805,"long":-74.712},{"zip":"08602","city":"Trenton","state":"NJ","lat":40.2805,"long":-74.712},{"zip":"08603","city":"Trenton","state":"NJ","lat":40.2805,"long":-74.712},{"zip":"08604","city":"Trenton","state":"NJ","lat":40.2805,"long":-74.712},{"zip":"08605","city":"Trenton","state":"NJ","lat":40.2805,"long":-74.712},{"zip":"08606","city":"Trenton","state":"NJ","lat":40.2805,"long":-74.712},{"zip":"08607","city":"Trenton","state":"NJ","lat":40.2805,"long":-74.712},{"zip":"08608","city":"Trenton","state":"NJ","lat":40.2204,"long":-74.7622},{"zip":"08609","city":"Trenton","state":"NJ","lat":40.2248,"long":-74.741},{"zip":"08610","city":"Trenton","state":"NJ","lat":40.2016,"long":-74.705},{"zip":"08611","city":"Trenton","state":"NJ","lat":40.1967,"long":-74.7416},{"zip":"08618","city":"Trenton","state":"NJ","lat":40.2377,"long":-74.7821},{"zip":"08619","city":"Trenton","state":"NJ","lat":40.2418,"long":-74.6962},{"zip":"08620","city":"Trenton","state":"NJ","lat":40.167,"long":-74.6488},{"zip":"08625","city":"Trenton","state":"NJ","lat":40.2805,"long":-74.712},{"zip":"08628","city":"Trenton","state":"NJ","lat":40.2655,"long":-74.8168},{"zip":"08629","city":"Trenton","state":"NJ","lat":40.2196,"long":-74.7334},{"zip":"08638","city":"Trenton","state":"NJ","lat":40.251,"long":-74.7627},{"zip":"08644","city":"Trenton","state":"NJ","lat":40.2171,"long":-74.7429},{"zip":"08645","city":"Trenton","state":"NJ","lat":40.2805,"long":-74.712},{"zip":"08646","city":"Trenton","state":"NJ","lat":40.2805,"long":-74.712},{"zip":"08647","city":"Trenton","state":"NJ","lat":40.2805,"long":-74.712},{"zip":"08648","city":"Lawrence Township","state":"NJ","lat":40.2171,"long":-74.7429},{"zip":"08650","city":"Trenton","state":"NJ","lat":40.2805,"long":-74.712},{"zip":"08666","city":"Trenton","state":"NJ","lat":40.2805,"long":-74.712},{"zip":"08690","city":"Trenton","state":"NJ","lat":40.2336,"long":-74.6576},{"zip":"08691","city":"Trenton","state":"NJ","lat":40.2197,"long":-74.5939},{"zip":"08695","city":"Trenton","state":"NJ","lat":40.2805,"long":-74.712},{"zip":"08512","city":"Cranbury","state":"NJ","lat":40.3039,"long":-74.5065},{"zip":"08536","city":"Plainsboro","state":"NJ","lat":40.3324,"long":-74.5688},{"zip":"08810","city":"Dayton","state":"NJ","lat":40.3825,"long":-74.5111},{"zip":"08812","city":"Dunellen","state":"NJ","lat":40.5897,"long":-74.4639},{"zip":"08816","city":"East Brunswick","state":"NJ","lat":40.4284,"long":-74.4064},{"zip":"08817","city":"Edison","state":"NJ","lat":40.5171,"long":-74.3973},{"zip":"08818","city":"Edison","state":"NJ","lat":40.43,"long":-74.4173},{"zip":"08820","city":"Edison","state":"NJ","lat":40.578,"long":-74.3589},{"zip":"08824","city":"Kendall Park","state":"NJ","lat":40.4208,"long":-74.5529},{"zip":"08828","city":"Helmetta","state":"NJ","lat":40.3777,"long":-74.4204},{"zip":"08830","city":"Iselin","state":"NJ","lat":40.5716,"long":-74.3167},{"zip":"08831","city":"Monroe Township","state":"NJ","lat":40.5723,"long":-74.5855},{"zip":"08832","city":"Keasbey","state":"NJ","lat":40.5192,"long":-74.3021},{"zip":"08837","city":"Edison","state":"NJ","lat":40.5325,"long":-74.3375},{"zip":"08840","city":"Metuchen","state":"NJ","lat":40.5449,"long":-74.3517},{"zip":"08846","city":"Middlesex","state":"NJ","lat":40.5759,"long":-74.5008},{"zip":"08850","city":"Milltown","state":"NJ","lat":40.4493,"long":-74.439},{"zip":"08852","city":"Monmouth Junction","state":"NJ","lat":40.3869,"long":-74.5558},{"zip":"08854","city":"Piscataway","state":"NJ","lat":40.5515,"long":-74.459},{"zip":"08855","city":"Piscataway","state":"NJ","lat":40.43,"long":-74.4173},{"zip":"08857","city":"Old Bridge","state":"NJ","lat":40.398,"long":-74.3236},{"zip":"08859","city":"Parlin","state":"NJ","lat":40.4587,"long":-74.305},{"zip":"08861","city":"Perth Amboy","state":"NJ","lat":40.5176,"long":-74.2754},{"zip":"08862","city":"Perth Amboy","state":"NJ","lat":40.43,"long":-74.4173},{"zip":"08863","city":"Fords","state":"NJ","lat":40.5393,"long":-74.3117},{"zip":"08871","city":"Sayreville","state":"NJ","lat":40.43,"long":-74.4173},{"zip":"08872","city":"Sayreville","state":"NJ","lat":40.46,"long":-74.3478},{"zip":"08879","city":"South Amboy","state":"NJ","lat":40.464,"long":-74.2742},{"zip":"08882","city":"South River","state":"NJ","lat":40.4444,"long":-74.3801},{"zip":"08884","city":"Spotswood","state":"NJ","lat":40.3847,"long":-74.3894},{"zip":"08899","city":"Edison","state":"NJ","lat":40.5203,"long":-74.4205},{"zip":"08901","city":"New Brunswick","state":"NJ","lat":40.4891,"long":-74.4482},{"zip":"08902","city":"North Brunswick","state":"NJ","lat":40.4538,"long":-74.4823},{"zip":"08903","city":"New Brunswick","state":"NJ","lat":40.5139,"long":-74.4451},{"zip":"08904","city":"Highland Park","state":"NJ","lat":40.4991,"long":-74.4266},{"zip":"08906","city":"New Brunswick","state":"NJ","lat":40.4862,"long":-74.4518},{"zip":"08933","city":"New Brunswick","state":"NJ","lat":40.4862,"long":-74.4518},{"zip":"08989","city":"New Brunswick","state":"NJ","lat":40.43,"long":-74.4173},{"zip":"08501","city":"Allentown","state":"NJ","lat":40.1589,"long":-74.5909},{"zip":"08510","city":"Millstone Township","state":"NJ","lat":40.147,"long":-74.609},{"zip":"08514","city":"Cream Ridge","state":"NJ","lat":40.1399,"long":-74.465},{"zip":"08526","city":"Imlaystown","state":"NJ","lat":40.1623,"long":-74.4759},{"zip":"08535","city":"Millstone Township","state":"NJ","lat":40.2739,"long":-74.7162},{"zip":"08555","city":"Roosevelt","state":"NJ","lat":40.2214,"long":-74.4747},{"zip":"08720","city":"Allenwood","state":"NJ","lat":40.1389,"long":-74.1122},{"zip":"08730","city":"Brielle","state":"NJ","lat":40.1077,"long":-74.0635},{"zip":"08736","city":"Manasquan","state":"NJ","lat":40.1217,"long":-74.0611},{"zip":"08750","city":"Sea Girt","state":"NJ","lat":40.1345,"long":-74.0436},{"zip":"08005","city":"Barnegat","state":"NJ","lat":39.7552,"long":-74.247},{"zip":"08006","city":"Barnegat Light","state":"NJ","lat":39.7512,"long":-74.1146},{"zip":"08008","city":"Beach Haven","state":"NJ","lat":39.6411,"long":-74.1922},{"zip":"08050","city":"Manahawkin","state":"NJ","lat":39.705,"long":-74.2604},{"zip":"08087","city":"Tuckerton","state":"NJ","lat":39.5881,"long":-74.3646},{"zip":"08092","city":"West Creek","state":"NJ","lat":39.6627,"long":-74.2885},{"zip":"08527","city":"Jackson","state":"NJ","lat":40.121,"long":-74.3017},{"zip":"08533","city":"New Egypt","state":"NJ","lat":40.0713,"long":-74.5067},{"zip":"08701","city":"Lakewood","state":"NJ","lat":40.085,"long":-74.2042},{"zip":"08721","city":"Bayville","state":"NJ","lat":39.9093,"long":-74.1549},{"zip":"08722","city":"Beachwood","state":"NJ","lat":39.9302,"long":-74.1961},{"zip":"08723","city":"Brick","state":"NJ","lat":40.0389,"long":-74.1109},{"zip":"08724","city":"Brick","state":"NJ","lat":40.0874,"long":-74.1152},{"zip":"08731","city":"Forked River","state":"NJ","lat":39.8444,"long":-74.1973},{"zip":"08732","city":"Island Heights","state":"NJ","lat":39.9432,"long":-74.1468},{"zip":"08733","city":"Lakehurst","state":"NJ","lat":40.0263,"long":-74.3254},{"zip":"08734","city":"Lanoka Harbor","state":"NJ","lat":39.862,"long":-74.1668},{"zip":"08735","city":"Lavallette","state":"NJ","lat":39.9775,"long":-74.0704},{"zip":"08738","city":"Mantoloking","state":"NJ","lat":40.0261,"long":-74.0562},{"zip":"08739","city":"Normandy Beach","state":"NJ","lat":40.0026,"long":-74.0604},{"zip":"08740","city":"Ocean Gate","state":"NJ","lat":39.926,"long":-74.1351},{"zip":"08741","city":"Pine Beach","state":"NJ","lat":39.9347,"long":-74.168},{"zip":"08742","city":"Point Pleasant Beach","state":"NJ","lat":40.0806,"long":-74.0595},{"zip":"08751","city":"Seaside Heights","state":"NJ","lat":39.9466,"long":-74.0765},{"zip":"08752","city":"Seaside Park","state":"NJ","lat":39.9222,"long":-74.0795},{"zip":"08753","city":"Toms River","state":"NJ","lat":39.9771,"long":-74.1565},{"zip":"08754","city":"Toms River","state":"NJ","lat":40.0008,"long":-74.2493},{"zip":"08755","city":"Toms River","state":"NJ","lat":39.9999,"long":-74.2228},{"zip":"08756","city":"Toms River","state":"NJ","lat":39.788,"long":-74.1911},{"zip":"08757","city":"Toms River","state":"NJ","lat":39.9715,"long":-74.2512},{"zip":"08758","city":"Waretown","state":"NJ","lat":39.7896,"long":-74.1954},{"zip":"08759","city":"Manchester Township","state":"NJ","lat":39.9515,"long":-74.1521},{"zip":"08001","city":"Alloway","state":"NJ","lat":39.5591,"long":-75.3506},{"zip":"08023","city":"Deepwater","state":"NJ","lat":39.6815,"long":-75.4934},{"zip":"08038","city":"Hancocks Bridge","state":"NJ","lat":39.4716,"long":-75.4902},{"zip":"08067","city":"Pedricktown","state":"NJ","lat":39.7435,"long":-75.412},{"zip":"08069","city":"Penns Grove","state":"NJ","lat":39.6994,"long":-75.4495},{"zip":"08070","city":"Pennsville","state":"NJ","lat":39.6491,"long":-75.5155},{"zip":"08072","city":"Quinton","state":"NJ","lat":39.5459,"long":-75.4124},{"zip":"08079","city":"Salem","state":"NJ","lat":39.5591,"long":-75.4521},{"zip":"08098","city":"Woodstown","state":"NJ","lat":39.6457,"long":-75.3248},{"zip":"08318","city":"Elmer","state":"NJ","lat":39.5691,"long":-75.163},{"zip":"08347","city":"Norma","state":"NJ","lat":39.4998,"long":-75.082},{"zip":"08502","city":"Belle Mead","state":"NJ","lat":40.4483,"long":-74.6557},{"zip":"08504","city":"Blawenburg","state":"NJ","lat":40.4076,"long":-74.7027},{"zip":"08528","city":"Kingston","state":"NJ","lat":40.3828,"long":-74.6096},{"zip":"08553","city":"Rocky Hill","state":"NJ","lat":40.401,"long":-74.64},{"zip":"08558","city":"Skillman","state":"NJ","lat":40.4173,"long":-74.6938},{"zip":"08805","city":"Bound Brook","state":"NJ","lat":40.5681,"long":-74.5397},{"zip":"08807","city":"Bridgewater","state":"NJ","lat":40.5904,"long":-74.6267},{"zip":"08821","city":"Flagtown","state":"NJ","lat":40.517,"long":-74.6843},{"zip":"08823","city":"Franklin Park","state":"NJ","lat":40.4421,"long":-74.5369},{"zip":"08835","city":"Manville","state":"NJ","lat":40.5399,"long":-74.5934},{"zip":"08836","city":"Martinsville","state":"NJ","lat":40.6,"long":-74.5572},{"zip":"08844","city":"Hillsborough","state":"NJ","lat":40.4775,"long":-74.6272},{"zip":"08853","city":"Neshanic Station","state":"NJ","lat":40.5293,"long":-74.7401},{"zip":"08869","city":"Raritan","state":"NJ","lat":40.5711,"long":-74.6377},{"zip":"08873","city":"Somerset","state":"NJ","lat":40.5007,"long":-74.5013},{"zip":"08875","city":"Somerset","state":"NJ","lat":40.4976,"long":-74.4885},{"zip":"08876","city":"Somerville","state":"NJ","lat":40.588,"long":-74.6874},{"zip":"08880","city":"South Bound Brook","state":"NJ","lat":40.5523,"long":-74.5311},{"zip":"08890","city":"Zarephath","state":"NJ","lat":40.5361,"long":-74.5789},{"zip":"08802","city":"Asbury","state":"NJ","lat":40.695,"long":-75.0281},{"zip":"08808","city":"Broadway","state":"NJ","lat":40.732,"long":-75.0516},{"zip":"08865","city":"Phillipsburg","state":"NJ","lat":40.7079,"long":-75.1507},{"zip":"08886","city":"Stewartsville","state":"NJ","lat":40.6937,"long":-75.111}]
