[{"zip":"08037","city":"Hammonton","state":"NJ","lat":39.638,"long":-74.7728},{"zip":"08010","city":"Beverly","state":"NJ","lat":40.0565,"long":-74.9114},{"zip":"08011","city":"Birmingham","state":"NJ","lat":39.976,"long":-74.7114},{"zip":"08015","city":"Browns Mills","state":"NJ","lat":39.9597,"long":-74.5655},{"zip":"08016","city":"Burlington","state":"NJ","lat":40.068,"long":-74.8454},{"zip":"08019","city":"Chatsworth","state":"NJ","lat":39.8019,"long":-74.5256},{"zip":"08022","city":"Columbus","state":"NJ","lat":40.0642,"long":-74.6899},{"zip":"08036","city":"Hainesport","state":"NJ","lat":39.9872,"long":-74.8293},{"zip":"08041","city":"Jobstown","state":"NJ","lat":40.0387,"long":-74.6873},{"zip":"08042","city":"Juliustown","state":"NJ","lat":40.0123,"long":-74.6646},{"zip":"08046","city":"Willingboro","state":"NJ","lat":40.029,"long":-74.8835},{"zip":"08048","city":"Lumberton","state":"NJ","lat":39.9651,"long":-74.8067},{"zip":"08052","city":"Maple Shade","state":"NJ","lat":39.9511,"long":-74.9946},{"zip":"08053","city":"Marlton","state":"NJ","lat":39.8845,"long":-74.9067},{"zip":"08054","city":"Mount Laurel","state":"NJ","lat":39.9478,"long":-74.9036},{"zip":"08055","city":"Medford","state":"NJ","lat":39.8637,"long":-74.8223},{"zip":"08057","city":"Moorestown","state":"NJ","lat":39.9683,"long":-74.9533},{"zip":"08060","city":"Mount Holly","state":"NJ","lat":40.0086,"long":-74.7896},{"zip":"08064","city":"New Lisbon","state":"NJ","lat":39.9582,"long":-74.6279},{"zip":"08065","city":"Palmyra","state":"NJ","lat":40.0037,"long":-75.0257},{"zip":"08068","city":"Pemberton","state":"NJ","lat":39.9712,"long":-74.6676},{"zip":"08073","city":"Rancocas","state":"NJ","lat":40.0095,"long":-74.8668},{"zip":"08075","city":"Riverside","state":"NJ","lat":40.0293,"long":-74.9497},{"zip":"08076","city":"Riverton","state":"NJ","lat":40.0115,"long":-75.0149},{"zip":"08077","city":"Riverton","state":"NJ","lat":40.002,"long":-74.9952},{"zip":"08088","city":"Vincentown","state":"NJ","lat":39.8604,"long":-74.6693},{"zip":"08002","city":"Cherry Hill","state":"NJ","lat":39.9308,"long":-75.0175},{"zip":"08003","city":"Cherry Hill","state":"NJ","lat":39.8805,"long":-74.9706},{"zip":"08004","city":"Atco","state":"NJ","lat":39.76,"long":-74.8665},{"zip":"08007","city":"Barrington","state":"NJ","lat":39.8651,"long":-75.0564},{"zip":"08009","city":"Berlin","state":"NJ","lat":39.7788,"long":-74.9308},{"zip":"08012","city":"Blackwood","state":"NJ","lat":39.7901,"long":-75.0367},{"zip":"08018","city":"Cedar Brook","state":"NJ","lat":39.7154,"long":-74.9007},{"zip":"08021","city":"Clementon","state":"NJ","lat":39.8036,"long":-75.0058},{"zip":"08026","city":"Gibbsboro","state":"NJ","lat":39.8365,"long":-74.971},{"zip":"08029","city":"Glendora","state":"NJ","lat":39.8404,"long":-75.0697},{"zip":"08030","city":"Gloucester City","state":"NJ","lat":39.8911,"long":-75.117},{"zip":"08031","city":"Bellmawr","state":"NJ","lat":39.8689,"long":-75.0944},{"zip":"08033","city":"Haddonfield","state":"NJ","lat":39.8954,"long":-75.0417},{"zip":"08034","city":"Cherry Hill","state":"NJ","lat":39.9074,"long":-75.0008},{"zip":"08035","city":"Haddon Heights","state":"NJ","lat":39.8788,"long":-75.0664},{"zip":"08043","city":"Voorhees","state":"NJ","lat":39.8504,"long":-74.9646},{"zip":"08045","city":"Lawnside","state":"NJ","lat":39.8676,"long":-75.0317},{"zip":"08049","city":"Magnolia","state":"NJ","lat":39.8538,"long":-75.0393},{"zip":"08059","city":"Mount Ephraim","state":"NJ","lat":39.8827,"long":-75.0929},{"zip":"08078","city":"Runnemede","state":"NJ","lat":39.8508,"long":-75.0742},{"zip":"08081","city":"Sicklerville","state":"NJ","lat":39.7354,"long":-74.9864},{"zip":"08083","city":"Somerdale","state":"NJ","lat":39.84,"long":-75.0309},{"zip":"08084","city":"Stratford","state":"NJ","lat":39.8288,"long":-75.0147},{"zip":"08089","city":"Waterford Works","state":"NJ","lat":39.7215,"long":-74.8609},{"zip":"08091","city":"West Berlin","state":"NJ","lat":39.8051,"long":-74.9255},{"zip":"08095","city":"Winslow","state":"NJ","lat":39.6549,"long":-74.8685},{"zip":"08099","city":"Bellmawr","state":"NJ","lat":39.8676,"long":-75.0946},{"zip":"08014","city":"Bridgeport","state":"NJ","lat":39.8016,"long":-75.3478},{"zip":"08020","city":"Clarksboro","state":"NJ","lat":39.7992,"long":-75.2237},{"zip":"08025","city":"Ewan","state":"NJ","lat":39.7015,"long":-75.1629},{"zip":"08027","city":"Gibbstown","state":"NJ","lat":39.8231,"long":-75.2751},{"zip":"08028","city":"Glassboro","state":"NJ","lat":39.7068,"long":-75.1172},{"zip":"08032","city":"Grenloch","state":"NJ","lat":39.7788,"long":-75.0601},{"zip":"08039","city":"Harrisonville","state":"NJ","lat":39.6931,"long":-75.2711},{"zip":"08051","city":"Mantua","state":"NJ","lat":39.787,"long":-75.1785},{"zip":"08056","city":"Mickleton","state":"NJ","lat":39.7857,"long":-75.2498},{"zip":"08061","city":"Mount Royal","state":"NJ","lat":39.8097,"long":-75.2082},{"zip":"08062","city":"Mullica Hill","state":"NJ","lat":39.7252,"long":-75.2065},{"zip":"08063","city":"National Park","state":"NJ","lat":39.8664,"long":-75.1794},{"zip":"08066","city":"Paulsboro","state":"NJ","lat":39.8312,"long":-75.2242},{"zip":"08071","city":"Pitman","state":"NJ","lat":39.7312,"long":-75.1297},{"zip":"08074","city":"Richwood","state":"NJ","lat":39.7206,"long":-75.1681},{"zip":"08080","city":"Sewell","state":"NJ","lat":39.7473,"long":-75.0899},{"zip":"08085","city":"Swedesboro","state":"NJ","lat":39.7529,"long":-75.3362},{"zip":"08086","city":"Thorofare","state":"NJ","lat":39.8457,"long":-75.1943},{"zip":"08090","city":"Wenonah","state":"NJ","lat":39.7993,"long":-75.1536},{"zip":"08093","city":"Westville","state":"NJ","lat":39.8605,"long":-75.1323},{"zip":"08094","city":"Williamstown","state":"NJ","lat":39.665,"long":-74.971},{"zip":"08096","city":"Deptford","state":"NJ","lat":39.7539,"long":-74.996},{"zip":"08097","city":"Woodbury Heights","state":"NJ","lat":39.8142,"long":-75.153},{"zip":"08005","city":"Barnegat","state":"NJ","lat":39.7552,"long":-74.247},{"zip":"08006","city":"Barnegat Light","state":"NJ","lat":39.7512,"long":-74.1146},{"zip":"08008","city":"Beach Haven","state":"NJ","lat":39.6411,"long":-74.1922},{"zip":"08050","city":"Manahawkin","state":"NJ","lat":39.705,"long":-74.2604},{"zip":"08087","city":"Tuckerton","state":"NJ","lat":39.5881,"long":-74.3646},{"zip":"08092","city":"West Creek","state":"NJ","lat":39.6627,"long":-74.2885},{"zip":"08001","city":"Alloway","state":"NJ","lat":39.5591,"long":-75.3506},{"zip":"08023","city":"Deepwater","state":"NJ","lat":39.6815,"long":-75.4934},{"zip":"08038","city":"Hancocks Bridge","state":"NJ","lat":39.4716,"long":-75.4902},{"zip":"08067","city":"Pedricktown","state":"NJ","lat":39.7435,"long":-75.412},{"zip":"08069","city":"Penns Grove","state":"NJ","lat":39.6994,"long":-75.4495},{"zip":"08070","city":"Pennsville","state":"NJ","lat":39.6491,"long":-75.5155},{"zip":"08072","city":"Quinton","state":"NJ","lat":39.5459,"long":-75.4124},{"zip":"08079","city":"Salem","state":"NJ","lat":39.5591,"long":-75.4521},{"zip":"08098","city":"Woodstown","state":"NJ","lat":39.6457,"long":-75.3248}]
