[{"zip":"08505","city":"Bordentown","state":"NJ","lat":40.1431,"long":-74.7032},{"zip":"08511","city":"Cookstown","state":"NJ","lat":40.0481,"long":-74.5595},{"zip":"08515","city":"Chesterfield","state":"NJ","lat":40.1151,"long":-74.6393},{"zip":"08518","city":"Florence","state":"NJ","lat":40.118,"long":-74.8055},{"zip":"08554","city":"Roebling","state":"NJ","lat":40.1154,"long":-74.7772},{"zip":"08562","city":"Wrightstown","state":"NJ","lat":40.072,"long":-74.5731},{"zip":"08530","city":"Lambertville","state":"NJ","lat":40.3731,"long":-74.9266},{"zip":"08551","city":"Ringoes","state":"NJ","lat":40.4459,"long":-74.8288},{"zip":"08556","city":"Rosemont","state":"NJ","lat":40.42,"long":-74.9886},{"zip":"08557","city":"Sergeantsville","state":"NJ","lat":40.4459,"long":-74.9435},{"zip":"08559","city":"Stockton","state":"NJ","lat":40.4397,"long":-74.9554},{"zip":"08520","city":"Hightstown","state":"NJ","lat":40.2669,"long":-74.525},{"zip":"08525","city":"Hopewell","state":"NJ","lat":40.3902,"long":-74.771},{"zip":"08534","city":"Pennington","state":"NJ","lat":40.3339,"long":-74.7944},{"zip":"08540","city":"Princeton","state":"NJ","lat":40.3666,"long":-74.6408},{"zip":"08541","city":"Princeton","state":"NJ","lat":40.3487,"long":-74.659},{"zip":"08542","city":"Princeton","state":"NJ","lat":40.3535,"long":-74.6594},{"zip":"08543","city":"Princeton","state":"NJ","lat":40.2805,"long":-74.712},{"zip":"08544","city":"Princeton","state":"NJ","lat":40.3492,"long":-74.6528},{"zip":"08550","city":"Princeton Junction","state":"NJ","lat":40.2669,"long":-74.6511},{"zip":"08560","city":"Titusville","state":"NJ","lat":40.3077,"long":-74.8655},{"zip":"08561","city":"Windsor","state":"NJ","lat":40.2423,"long":-74.5787},{"zip":"08512","city":"Cranbury","state":"NJ","lat":40.3039,"long":-74.5065},{"zip":"08536","city":"Plainsboro","state":"NJ","lat":40.3324,"long":-74.5688},{"zip":"08501","city":"Allentown","state":"NJ","lat":40.1589,"long":-74.5909},{"zip":"08510","city":"Millstone Township","state":"NJ","lat":40.147,"long":-74.609},{"zip":"08514","city":"Cream Ridge","state":"NJ","lat":40.1399,"long":-74.465},{"zip":"08526","city":"Imlaystown","state":"NJ","lat":40.1623,"long":-74.4759},{"zip":"08535","city":"Millstone Township","state":"NJ","lat":40.2739,"long":-74.7162},{"zip":"08555","city":"Roosevelt","state":"NJ","lat":40.2214,"long":-74.4747},{"zip":"08527","city":"Jackson","state":"NJ","lat":40.121,"long":-74.3017},{"zip":"08533","city":"New Egypt","state":"NJ","lat":40.0713,"long":-74.5067},{"zip":"08502","city":"Belle Mead","state":"NJ","lat":40.4483,"long":-74.6557},{"zip":"08504","city":"Blawenburg","state":"NJ","lat":40.4076,"long":-74.7027},{"zip":"08528","city":"Kingston","state":"NJ","lat":40.3828,"long":-74.6096},{"zip":"08553","city":"Rocky Hill","state":"NJ","lat":40.401,"long":-74.64},{"zip":"08558","city":"Skillman","state":"NJ","lat":40.4173,"long":-74.6938}]
