[{"zip":"08640","city":"Joint Base Mdl","state":"NJ","lat":40.2171,"long":-74.7429},{"zip":"08641","city":"Joint Base Mdl","state":"NJ","lat":40.2171,"long":-74.7429},{"zip":"08601","city":"Trenton","state":"NJ","lat":40.2805,"long":-74.712},{"zip":"08602","city":"Trenton","state":"NJ","lat":40.2805,"long":-74.712},{"zip":"08603","city":"Trenton","state":"NJ","lat":40.2805,"long":-74.712},{"zip":"08604","city":"Trenton","state":"NJ","lat":40.2805,"long":-74.712},{"zip":"08605","city":"Trenton","state":"NJ","lat":40.2805,"long":-74.712},{"zip":"08606","city":"Trenton","state":"NJ","lat":40.2805,"long":-74.712},{"zip":"08607","city":"Trenton","state":"NJ","lat":40.2805,"long":-74.712},{"zip":"08608","city":"Trenton","state":"NJ","lat":40.2204,"long":-74.7622},{"zip":"08609","city":"Trenton","state":"NJ","lat":40.2248,"long":-74.741},{"zip":"08610","city":"Trenton","state":"NJ","lat":40.2016,"long":-74.705},{"zip":"08611","city":"Trenton","state":"NJ","lat":40.1967,"long":-74.7416},{"zip":"08618","city":"Trenton","state":"NJ","lat":40.2377,"long":-74.7821},{"zip":"08619","city":"Trenton","state":"NJ","lat":40.2418,"long":-74.6962},{"zip":"08620","city":"Trenton","state":"NJ","lat":40.167,"long":-74.6488},{"zip":"08625","city":"Trenton","state":"NJ","lat":40.2805,"long":-74.712},{"zip":"08628","city":"Trenton","state":"NJ","lat":40.2655,"long":-74.8168},{"zip":"08629","city":"Trenton","state":"NJ","lat":40.2196,"long":-74.7334},{"zip":"08638","city":"Trenton","state":"NJ","lat":40.251,"long":-74.7627},{"zip":"08644","city":"Trenton","state":"NJ","lat":40.2171,"long":-74.7429},{"zip":"08645","city":"Trenton","state":"NJ","lat":40.2805,"long":-74.712},{"zip":"08646","city":"Trenton","state":"NJ","lat":40.2805,"long":-74.712},{"zip":"08647","city":"Trenton","state":"NJ","lat":40.2805,"long":-74.712},{"zip":"08648","city":"Lawrence Township","state":"NJ","lat":40.2171,"long":-74.7429},{"zip":"08650","city":"Trenton","state":"NJ","lat":40.2805,"long":-74.712},{"zip":"08666","city":"Trenton","state":"NJ","lat":40.2805,"long":-74.712},{"zip":"08690","city":"Trenton","state":"NJ","lat":40.2336,"long":-74.6576},{"zip":"08691","city":"Trenton","state":"NJ","lat":40.2197,"long":-74.5939},{"zip":"08695","city":"Trenton","state":"NJ","lat":40.2805,"long":-74.712}]
