[{"zip":"08720","city":"Allenwood","state":"NJ","lat":40.1389,"long":-74.1122},{"zip":"08730","city":"Brielle","state":"NJ","lat":40.1077,"long":-74.0635},{"zip":"08736","city":"Manasquan","state":"NJ","lat":40.1217,"long":-74.0611},{"zip":"08750","city":"Sea Girt","state":"NJ","lat":40.1345,"long":-74.0436},{"zip":"08701","city":"Lakewood","state":"NJ","lat":40.085,"long":-74.2042},{"zip":"08721","city":"Bayville","state":"NJ","lat":39.9093,"long":-74.1549},{"zip":"08722","city":"Beachwood","state":"NJ","lat":39.9302,"long":-74.1961},{"zip":"08723","city":"Brick","state":"NJ","lat":40.0389,"long":-74.1109},{"zip":"08724","city":"Brick","state":"NJ","lat":40.0874,"long":-74.1152},{"zip":"08731","city":"Forked River","state":"NJ","lat":39.8444,"long":-74.1973},{"zip":"08732","city":"Island Heights","state":"NJ","lat":39.9432,"long":-74.1468},{"zip":"08733","city":"Lakehurst","state":"NJ","lat":40.0263,"long":-74.3254},{"zip":"08734","city":"Lanoka Harbor","state":"NJ","lat":39.862,"long":-74.1668},{"zip":"08735","city":"Lavallette","state":"NJ","lat":39.9775,"long":-74.0704},{"zip":"08738","city":"Mantoloking","state":"NJ","lat":40.0261,"long":-74.0562},{"zip":"08739","city":"Normandy Beach","state":"NJ","lat":40.0026,"long":-74.0604},{"zip":"08740","city":"Ocean Gate","state":"NJ","lat":39.926,"long":-74.1351},{"zip":"08741","city":"Pine Beach","state":"NJ","lat":39.9347,"long":-74.168},{"zip":"08742","city":"Point Pleasant Beach","state":"NJ","lat":40.0806,"long":-74.0595},{"zip":"08751","city":"Seaside Heights","state":"NJ","lat":39.9466,"long":-74.0765},{"zip":"08752","city":"Seaside Park","state":"NJ","lat":39.9222,"long":-74.0795},{"zip":"08753","city":"Toms River","state":"NJ","lat":39.9771,"long":-74.1565},{"zip":"08754","city":"Toms River","state":"NJ","lat":40.0008,"long":-74.2493},{"zip":"08755","city":"Toms River","state":"NJ","lat":39.9999,"long":-74.2228},{"zip":"08756","city":"Toms River","state":"NJ","lat":39.788,"long":-74.1911},{"zip":"08757","city":"Toms River","state":"NJ","lat":39.9715,"long":-74.2512},{"zip":"08758","city":"Waretown","state":"NJ","lat":39.7896,"long":-74.1954},{"zip":"08759","city":"Manchester Township","state":"NJ","lat":39.9515,"long":-74.1521}]
