[{"zip":"08801","city":"Annandale","state":"NJ","lat":40.6287,"long":-74.8855},{"zip":"08803","city":"Baptistown","state":"NJ","lat":40.5218,"long":-75.006},{"zip":"08804","city":"Bloomsbury","state":"NJ","lat":40.6437,"long":-75.0966},{"zip":"08809","city":"Clinton","state":"NJ","lat":40.6412,"long":-74.9088},{"zip":"08822","city":"Flemington","state":"NJ","lat":40.518,"long":-74.8453},{"zip":"08825","city":"Frenchtown","state":"NJ","lat":40.5208,"long":-75.0325},{"zip":"08826","city":"Glen Gardner","state":"NJ","lat":40.7134,"long":-74.9162},{"zip":"08827","city":"Hampton","state":"NJ","lat":40.6774,"long":-74.9622},{"zip":"08829","city":"High Bridge","state":"NJ","lat":40.6684,"long":-74.8937},{"zip":"08833","city":"Lebanon","state":"NJ","lat":40.6466,"long":-74.829},{"zip":"08834","city":"Little York","state":"NJ","lat":40.5637,"long":-74.9494},{"zip":"08848","city":"Milford","state":"NJ","lat":40.5929,"long":-75.1025},{"zip":"08858","city":"Oldwick","state":"NJ","lat":40.6726,"long":-74.7474},{"zip":"08867","city":"Pittstown","state":"NJ","lat":40.5992,"long":-74.9576},{"zip":"08868","city":"Quakertown","state":"NJ","lat":40.5655,"long":-74.9389},{"zip":"08870","city":"Readington","state":"NJ","lat":40.5687,"long":-74.7377},{"zip":"08885","city":"Stanton","state":"NJ","lat":40.5764,"long":-74.8311},{"zip":"08887","city":"Three Bridges","state":"NJ","lat":40.5206,"long":-74.7946},{"zip":"08888","city":"Whitehouse","state":"NJ","lat":40.6194,"long":-74.7406},{"zip":"08889","city":"Whitehouse Station","state":"NJ","lat":40.6156,"long":-74.7724},{"zip":"08810","city":"Dayton","state":"NJ","lat":40.3825,"long":-74.5111},{"zip":"08812","city":"Dunellen","state":"NJ","lat":40.5897,"long":-74.4639},{"zip":"08816","city":"East Brunswick","state":"NJ","lat":40.4284,"long":-74.4064},{"zip":"08817","city":"Edison","state":"NJ","lat":40.5171,"long":-74.3973},{"zip":"08818","city":"Edison","state":"NJ","lat":40.43,"long":-74.4173},{"zip":"08820","city":"Edison","state":"NJ","lat":40.578,"long":-74.3589},{"zip":"08824","city":"Kendall Park","state":"NJ","lat":40.4208,"long":-74.5529},{"zip":"08828","city":"Helmetta","state":"NJ","lat":40.3777,"long":-74.4204},{"zip":"08830","city":"Iselin","state":"NJ","lat":40.5716,"long":-74.3167},{"zip":"08831","city":"Monroe Township","state":"NJ","lat":40.5723,"long":-74.5855},{"zip":"08832","city":"Keasbey","state":"NJ","lat":40.5192,"long":-74.3021},{"zip":"08837","city":"Edison","state":"NJ","lat":40.5325,"long":-74.3375},{"zip":"08840","city":"Metuchen","state":"NJ","lat":40.5449,"long":-74.3517},{"zip":"08846","city":"Middlesex","state":"NJ","lat":40.5759,"long":-74.5008},{"zip":"08850","city":"Milltown","state":"NJ","lat":40.4493,"long":-74.439},{"zip":"08852","city":"Monmouth Junction","state":"NJ","lat":40.3869,"long":-74.5558},{"zip":"08854","city":"Piscataway","state":"NJ","lat":40.5515,"long":-74.459},{"zip":"08855","city":"Piscataway","state":"NJ","lat":40.43,"long":-74.4173},{"zip":"08857","city":"Old Bridge","state":"NJ","lat":40.398,"long":-74.3236},{"zip":"08859","city":"Parlin","state":"NJ","lat":40.4587,"long":-74.305},{"zip":"08861","city":"Perth Amboy","state":"NJ","lat":40.5176,"long":-74.2754},{"zip":"08862","city":"Perth Amboy","state":"NJ","lat":40.43,"long":-74.4173},{"zip":"08863","city":"Fords","state":"NJ","lat":40.5393,"long":-74.3117},{"zip":"08871","city":"Sayreville","state":"NJ","lat":40.43,"long":-74.4173},{"zip":"08872","city":"Sayreville","state":"NJ","lat":40.46,"long":-74.3478},{"zip":"08879","city":"South Amboy","state":"NJ","lat":40.464,"long":-74.2742},{"zip":"08882","city":"South River","state":"NJ","lat":40.4444,"long":-74.3801},{"zip":"08884","city":"Spotswood","state":"NJ","lat":40.3847,"long":-74.3894},{"zip":"08899","city":"Edison","state":"NJ","lat":40.5203,"long":-74.4205},{"zip":"08805","city":"Bound Brook","state":"NJ","lat":40.5681,"long":-74.5397},{"zip":"08807","city":"Bridgewater","state":"NJ","lat":40.5904,"long":-74.6267},{"zip":"08821","city":"Flagtown","state":"NJ","lat":40.517,"long":-74.6843},{"zip":"08823","city":"Franklin Park","state":"NJ","lat":40.4421,"long":-74.5369},{"zip":"08835","city":"Manville","state":"NJ","lat":40.5399,"long":-74.5934},{"zip":"08836","city":"Martinsville","state":"NJ","lat":40.6,"long":-74.5572},{"zip":"08844","city":"Hillsborough","state":"NJ","lat":40.4775,"long":-74.6272},{"zip":"08853","city":"Neshanic Station","state":"NJ","lat":40.5293,"long":-74.7401},{"zip":"08869","city":"Raritan","state":"NJ","lat":40.5711,"long":-74.6377},{"zip":"08873","city":"Somerset","state":"NJ","lat":40.5007,"long":-74.5013},{"zip":"08875","city":"Somerset","state":"NJ","lat":40.4976,"long":-74.4885},{"zip":"08876","city":"Somerville","state":"NJ","lat":40.588,"long":-74.6874},{"zip":"08880","city":"South Bound Brook","state":"NJ","lat":40.5523,"long":-74.5311},{"zip":"08890","city":"Zarephath","state":"NJ","lat":40.5361,"long":-74.5789},{"zip":"08802","city":"Asbury","state":"NJ","lat":40.695,"long":-75.0281},{"zip":"08808","city":"Broadway","state":"NJ","lat":40.732,"long":-75.0516},{"zip":"08865","city":"Phillipsburg","state":"NJ","lat":40.7079,"long":-75.1507},{"zip":"08886","city":"Stewartsville","state":"NJ","lat":40.6937,"long":-75.111}]
