[{"zip":"10451","city":"Bronx","state":"NY","lat":40.8222,"long":-73.9217},{"zip":"10452","city":"Bronx","state":"NY","lat":40.8376,"long":-73.9216},{"zip":"10453","city":"Bronx","state":"NY","lat":40.852,"long":-73.9129},{"zip":"10454","city":"Bronx","state":"NY","lat":40.8085,"long":-73.9198},{"zip":"10455","city":"Bronx","state":"NY","lat":40.8153,"long":-73.9072},{"zip":"10456","city":"Bronx","state":"NY","lat":40.8316,"long":-73.9099},{"zip":"10457","city":"Bronx","state":"NY","lat":40.8486,"long":-73.8999},{"zip":"10458","city":"Bronx","state":"NY","lat":40.8633,"long":-73.8895},{"zip":"10459","city":"Bronx","state":"NY","lat":40.8247,"long":-73.894},{"zip":"10460","city":"Bronx","state":"NY","lat":40.8409,"long":-73.8794},{"zip":"10461","city":"Bronx","state":"NY","lat":40.8465,"long":-73.841},{"zip":"10462","city":"Bronx","state":"NY","lat":40.8434,"long":-73.8602},{"zip":"10463","city":"Bronx","state":"NY","lat":40.8798,"long":-73.9067},{"zip":"10464","city":"Bronx","state":"NY","lat":40.8469,"long":-73.7874},{"zip":"10465","city":"Bronx","state":"NY","lat":40.8261,"long":-73.8196},{"zip":"10466","city":"Bronx","state":"NY","lat":40.8904,"long":-73.8503},{"zip":"10467","city":"Bronx","state":"NY","lat":40.8737,"long":-73.8712},{"zip":"10468","city":"Bronx","state":"NY","lat":40.8662,"long":-73.9003},{"zip":"10469","city":"Bronx","state":"NY","lat":40.8702,"long":-73.8495},{"zip":"10470","city":"Bronx","state":"NY","lat":40.9,"long":-73.8622},{"zip":"10471","city":"Bronx","state":"NY","lat":40.9011,"long":-73.9053},{"zip":"10472","city":"Bronx","state":"NY","lat":40.8295,"long":-73.8716},{"zip":"10473","city":"Bronx","state":"NY","lat":40.8194,"long":-73.8606},{"zip":"10474","city":"Bronx","state":"NY","lat":40.8139,"long":-73.8841},{"zip":"10475","city":"Bronx","state":"NY","lat":40.8729,"long":-73.8278},{"zip":"10001","city":"New York","state":"NY","lat":40.7484,"long":-73.9967},{"zip":"10002","city":"New York","state":"NY","lat":40.7152,"long":-73.9877},{"zip":"10003","city":"New York","state":"NY","lat":40.7313,"long":-73.9892},{"zip":"10004","city":"New York","state":"NY","lat":40.6964,"long":-74.0253},{"zip":"10005","city":"New York","state":"NY","lat":40.7056,"long":-74.0083},{"zip":"10006","city":"New York","state":"NY","lat":40.7085,"long":-74.0135},{"zip":"10007","city":"New York","state":"NY","lat":40.7139,"long":-74.007},{"zip":"10008","city":"New York","state":"NY","lat":40.7143,"long":-74.006},{"zip":"10009","city":"New York","state":"NY","lat":40.7262,"long":-73.9796},{"zip":"10010","city":"New York","state":"NY","lat":40.7375,"long":-73.9813},{"zip":"10011","city":"New York","state":"NY","lat":40.7402,"long":-73.9996},{"zip":"10012","city":"New York","state":"NY","lat":40.7255,"long":-73.9983},{"zip":"10013","city":"New York","state":"NY","lat":40.7185,"long":-74.0025},{"zip":"10014","city":"New York","state":"NY","lat":40.7339,"long":-74.0054},{"zip":"10016","city":"New York","state":"NY","lat":40.7443,"long":-73.9781},{"zip":"10017","city":"New York","state":"NY","lat":40.7517,"long":-73.9707},{"zip":"10018","city":"New York","state":"NY","lat":40.7547,"long":-73.9925},{"zip":"10019","city":"New York","state":"NY","lat":40.7651,"long":-73.9858},{"zip":"10020","city":"New York","state":"NY","lat":40.7354,"long":-73.9968},{"zip":"10021","city":"New York","state":"NY","lat":40.7685,"long":-73.9588},{"zip":"10022","city":"New York","state":"NY","lat":40.7571,"long":-73.9657},{"zip":"10023","city":"New York","state":"NY","lat":40.7764,"long":-73.9827},{"zip":"10024","city":"New York","state":"NY","lat":40.7864,"long":-73.9764},{"zip":"10025","city":"New York","state":"NY","lat":40.7975,"long":-73.9683},{"zip":"10026","city":"New York","state":"NY","lat":40.8019,"long":-73.9531},{"zip":"10027","city":"New York","state":"NY","lat":40.8116,"long":-73.955},{"zip":"10028","city":"New York","state":"NY","lat":40.7763,"long":-73.9529},{"zip":"10029","city":"New York","state":"NY","lat":40.7918,"long":-73.9447},{"zip":"10030","city":"New York","state":"NY","lat":40.8183,"long":-73.9426},{"zip":"10031","city":"New York","state":"NY","lat":40.8246,"long":-73.9507},{"zip":"10032","city":"New York","state":"NY","lat":40.8382,"long":-73.942},{"zip":"10033","city":"New York","state":"NY","lat":40.8496,"long":-73.9356},{"zip":"10034","city":"New York","state":"NY","lat":40.8662,"long":-73.9221},{"zip":"10035","city":"New York","state":"NY","lat":40.8011,"long":-73.9371},{"zip":"10036","city":"New York","state":"NY","lat":40.7597,"long":-73.9918},{"zip":"10037","city":"New York","state":"NY","lat":40.8135,"long":-73.9381},{"zip":"10038","city":"New York","state":"NY","lat":40.7101,"long":-74.0013},{"zip":"10039","city":"New York","state":"NY","lat":40.8265,"long":-73.9383},{"zip":"10040","city":"New York","state":"NY","lat":40.8583,"long":-73.9296},{"zip":"10041","city":"New York","state":"NY","lat":40.7038,"long":-74.0098},{"zip":"10043","city":"New York","state":"NY","lat":40.7808,"long":-73.9772},{"zip":"10044","city":"New York","state":"NY","lat":40.7618,"long":-73.9505},{"zip":"10045","city":"New York","state":"NY","lat":40.7086,"long":-74.0087},{"zip":"10055","city":"New York","state":"NY","lat":40.7808,"long":-73.9772},{"zip":"10060","city":"New York","state":"NY","lat":40.7808,"long":-73.9772},{"zip":"10065","city":"New York","state":"NY","lat":40.7651,"long":-73.9638},{"zip":"10069","city":"New York","state":"NY","lat":40.778,"long":-73.9884},{"zip":"10075","city":"New York","state":"NY","lat":40.7143,"long":-74.006},{"zip":"10080","city":"New York","state":"NY","lat":40.7808,"long":-73.9772},{"zip":"10081","city":"New York","state":"NY","lat":40.7143,"long":-74.006},{"zip":"10087","city":"New York","state":"NY","lat":40.7808,"long":-73.9772},{"zip":"10090","city":"New York","state":"NY","lat":40.7808,"long":-73.9772},{"zip":"10101","city":"New York","state":"NY","lat":40.7808,"long":-73.9772},{"zip":"10102","city":"New York","state":"NY","lat":40.7808,"long":-73.9772},{"zip":"10103","city":"New York","state":"NY","lat":40.7603,"long":-73.9762},{"zip":"10104","city":"New York","state":"NY","lat":40.7609,"long":-73.9799},{"zip":"10105","city":"New York","state":"NY","lat":40.7628,"long":-73.9785},{"zip":"10106","city":"New York","state":"NY","lat":40.7652,"long":-73.9804},{"zip":"10107","city":"New York","state":"NY","lat":40.7664,"long":-73.9827},{"zip":"10108","city":"New York","state":"NY","lat":40.7808,"long":-73.9772},{"zip":"10109","city":"New York","state":"NY","lat":40.7808,"long":-73.9772},{"zip":"10110","city":"New York","state":"NY","lat":40.754,"long":-73.9808},{"zip":"10111","city":"New York","state":"NY","lat":40.7592,"long":-73.9778},{"zip":"10112","city":"New York","state":"NY","lat":40.7593,"long":-73.9798},{"zip":"10113","city":"New York","state":"NY","lat":40.7808,"long":-73.9772},{"zip":"10114","city":"New York","state":"NY","lat":40.7808,"long":-73.9772},{"zip":"10115","city":"New York","state":"NY","lat":40.8111,"long":-73.9642},{"zip":"10116","city":"New York","state":"NY","lat":40.7808,"long":-73.9772},{"zip":"10117","city":"New York","state":"NY","lat":40.7808,"long":-73.9772},{"zip":"10118","city":"New York","state":"NY","lat":40.749,"long":-73.9865},{"zip":"10119","city":"New York","state":"NY","lat":40.7808,"long":-73.9772},{"zip":"10120","city":"New York","state":"NY","lat":40.7506,"long":-73.9894},{"zip":"10121","city":"New York","state":"NY","lat":40.7496,"long":-73.9919},{"zip":"10122","city":"New York","state":"NY","lat":40.7518,"long":-73.9922},{"zip":"10123","city":"New York","state":"NY","lat":40.7515,"long":-73.9905},{"zip":"10124","city":"New York","state":"NY","lat":40.7808,"long":-73.9772},{"zip":"10125","city":"New York","state":"NY","lat":40.7808,"long":-73.9772},{"zip":"10126","city":"New York","state":"NY","lat":40.7808,"long":-73.9772},{"zip":"10128","city":"New York","state":"NY","lat":40.7816,"long":-73.9511},{"zip":"10129","city":"New York","state":"NY","lat":40.7808,"long":-73.9772},{"zip":"10130","city":"New York","state":"NY","lat":40.7808,"long":-73.9772},{"zip":"10131","city":"New York","state":"NY","lat":40.7808,"long":-73.9772},{"zip":"10132","city":"New York","state":"NY","lat":40.7808,"long":-73.9772},{"zip":"10133","city":"New York","state":"NY","lat":40.7808,"long":-73.9772},{"zip":"10138","city":"New York","state":"NY","lat":40.7808,"long":-73.9772},{"zip":"10150","city":"New York","state":"NY","lat":40.7808,"long":-73.9772},{"zip":"10151","city":"New York","state":"NY","lat":40.7634,"long":-73.974},{"zip":"10152","city":"New York","state":"NY","lat":40.7589,"long":-73.973},{"zip":"10153","city":"New York","state":"NY","lat":40.7641,"long":-73.9735},{"zip":"10154","city":"New York","state":"NY","lat":40.7583,"long":-73.9735},{"zip":"10155","city":"New York","state":"NY","lat":40.7611,"long":-73.968},{"zip":"10156","city":"New York","state":"NY","lat":40.7808,"long":-73.9772},{"zip":"10157","city":"New York","state":"NY","lat":40.7808,"long":-73.9772},{"zip":"10158","city":"New York","state":"NY","lat":40.7494,"long":-73.9758},{"zip":"10159","city":"New York","state":"NY","lat":40.7808,"long":-73.9772},{"zip":"10160","city":"New York","state":"NY","lat":40.7808,"long":-73.9772},{"zip":"10161","city":"New York","state":"NY","lat":40.7808,"long":-73.9772},{"zip":"10162","city":"New York","state":"NY","lat":40.7699,"long":-73.9511},{"zip":"10163","city":"New York","state":"NY","lat":40.7808,"long":-73.9772},{"zip":"10164","city":"New York","state":"NY","lat":40.7808,"long":-73.9772},{"zip":"10165","city":"New York","state":"NY","lat":40.7524,"long":-73.9791},{"zip":"10166","city":"New York","state":"NY","lat":40.7546,"long":-73.9762},{"zip":"10167","city":"New York","state":"NY","lat":40.7549,"long":-73.975},{"zip":"10168","city":"New York","state":"NY","lat":40.7519,"long":-73.9768},{"zip":"10169","city":"New York","state":"NY","lat":40.7547,"long":-73.9766},{"zip":"10170","city":"New York","state":"NY","lat":40.7526,"long":-73.9755},{"zip":"10171","city":"New York","state":"NY","lat":40.7564,"long":-73.9748},{"zip":"10172","city":"New York","state":"NY","lat":40.7558,"long":-73.9753},{"zip":"10173","city":"New York","state":"NY","lat":40.7543,"long":-73.9796},{"zip":"10174","city":"New York","state":"NY","lat":40.7517,"long":-73.9752},{"zip":"10175","city":"New York","state":"NY","lat":40.7543,"long":-73.9798},{"zip":"10176","city":"New York","state":"NY","lat":40.7556,"long":-73.9789},{"zip":"10177","city":"New York","state":"NY","lat":40.7553,"long":-73.9761},{"zip":"10178","city":"New York","state":"NY","lat":40.7514,"long":-73.9785},{"zip":"10179","city":"New York","state":"NY","lat":40.7808,"long":-73.9772},{"zip":"10185","city":"New York","state":"NY","lat":40.7808,"long":-73.9772},{"zip":"10199","city":"New York","state":"NY","lat":40.7503,"long":-74.0006},{"zip":"10203","city":"New York","state":"NY","lat":40.7143,"long":-74.006},{"zip":"10211","city":"New York","state":"NY","lat":40.7808,"long":-73.9772},{"zip":"10212","city":"New York","state":"NY","lat":40.7143,"long":-74.006},{"zip":"10213","city":"New York","state":"NY","lat":40.7143,"long":-74.006},{"zip":"10242","city":"New York","state":"NY","lat":40.7143,"long":-74.006},{"zip":"10249","city":"New York","state":"NY","lat":40.7143,"long":-74.006},{"zip":"10256","city":"New York","state":"NY","lat":40.7143,"long":-74.006},{"zip":"10258","city":"New York","state":"NY","lat":40.7143,"long":-74.006},{"zip":"10259","city":"New York","state":"NY","lat":40.7808,"long":-73.9772},{"zip":"10260","city":"New York","state":"NY","lat":40.7808,"long":-73.9772},{"zip":"10261","city":"New York","state":"NY","lat":40.7808,"long":-73.9772},{"zip":"10265","city":"New York","state":"NY","lat":40.7808,"long":-73.9772},{"zip":"10268","city":"New York","state":"NY","lat":40.7808,"long":-73.9772},{"zip":"10269","city":"New York","state":"NY","lat":40.7808,"long":-73.9772},{"zip":"10270","city":"New York","state":"NY","lat":40.7069,"long":-74.0082},{"zip":"10271","city":"New York","state":"NY","lat":40.7089,"long":-74.0111},{"zip":"10272","city":"New York","state":"NY","lat":40.7808,"long":-73.9772},{"zip":"10273","city":"New York","state":"NY","lat":40.7143,"long":-74.006},{"zip":"10274","city":"New York","state":"NY","lat":40.7808,"long":-73.9772},{"zip":"10275","city":"New York","state":"NY","lat":40.7808,"long":-73.9772},{"zip":"10276","city":"New York","state":"NY","lat":40.7808,"long":-73.9772},{"zip":"10277","city":"New York","state":"NY","lat":40.7808,"long":-73.9772},{"zip":"10278","city":"New York","state":"NY","lat":40.7152,"long":-74.0038},{"zip":"10279","city":"New York","state":"NY","lat":40.7127,"long":-74.0078},{"zip":"10280","city":"New York","state":"NY","lat":40.7105,"long":-74.0163},{"zip":"10281","city":"New York","state":"NY","lat":40.7146,"long":-74.015},{"zip":"10282","city":"New York","state":"NY","lat":40.7166,"long":-74.0146},{"zip":"10285","city":"New York","state":"NY","lat":40.7153,"long":-74.0163},{"zip":"10286","city":"New York","state":"NY","lat":40.7142,"long":-74.0119},{"zip":"10910","city":"Arden","state":"NY","lat":41.3862,"long":-74.1257},{"zip":"10912","city":"Bellvale","state":"NY","lat":41.2504,"long":-74.3107},{"zip":"10914","city":"Blooming Grove","state":"NY","lat":41.4093,"long":-74.1951},{"zip":"10915","city":"Bullville","state":"NY","lat":41.5443,"long":-74.3615},{"zip":"10916","city":"Campbell Hall","state":"NY","lat":41.443,"long":-74.2505},{"zip":"10917","city":"Central Valley","state":"NY","lat":41.3268,"long":-74.122},{"zip":"10918","city":"Chester","state":"NY","lat":41.3554,"long":-74.2651},{"zip":"10919","city":"Circleville","state":"NY","lat":41.5244,"long":-74.385},{"zip":"10921","city":"Florida","state":"NY","lat":41.3295,"long":-74.3528},{"zip":"10922","city":"Fort Montgomery","state":"NY","lat":41.3346,"long":-73.9917},{"zip":"10924","city":"Goshen","state":"NY","lat":41.3946,"long":-74.3302},{"zip":"10925","city":"Greenwood Lake","state":"NY","lat":41.2101,"long":-74.3033},{"zip":"10926","city":"Harriman","state":"NY","lat":41.3005,"long":-74.1249},{"zip":"10928","city":"Highland Falls","state":"NY","lat":41.3582,"long":-73.9746},{"zip":"10930","city":"Highland Mills","state":"NY","lat":41.3536,"long":-74.1197},{"zip":"10932","city":"Howells","state":"NY","lat":41.4852,"long":-74.4842},{"zip":"10933","city":"Johnson","state":"NY","lat":41.3653,"long":-74.5109},{"zip":"10940","city":"Middletown","state":"NY","lat":41.4512,"long":-74.4701},{"zip":"10941","city":"Middletown","state":"NY","lat":41.4886,"long":-74.345},{"zip":"10949","city":"Monroe","state":"NY","lat":41.3274,"long":-74.1911},{"zip":"10950","city":"Monroe","state":"NY","lat":41.3286,"long":-74.1885},{"zip":"10953","city":"Mountainville","state":"NY","lat":41.4009,"long":-74.0785},{"zip":"10958","city":"New Hampton","state":"NY","lat":41.3627,"long":-74.4435},{"zip":"10959","city":"New Milford","state":"NY","lat":41.2345,"long":-74.4138},{"zip":"10963","city":"Otisville","state":"NY","lat":41.4818,"long":-74.5294},{"zip":"10969","city":"Pine Island","state":"NY","lat":41.2926,"long":-74.4888},{"zip":"10973","city":"Slate Hill","state":"NY","lat":41.376,"long":-74.4847},{"zip":"10975","city":"Southfields","state":"NY","lat":41.248,"long":-74.1762},{"zip":"10979","city":"Sterling Forest","state":"NY","lat":41.1823,"long":-74.3184},{"zip":"10981","city":"Sugar Loaf","state":"NY","lat":41.3232,"long":-74.2886},{"zip":"10985","city":"Thompson Ridge","state":"NY","lat":41.575,"long":-74.3225},{"zip":"10987","city":"Tuxedo Park","state":"NY","lat":41.1925,"long":-74.2159},{"zip":"10988","city":"Unionville","state":"NY","lat":41.302,"long":-74.5615},{"zip":"10990","city":"Warwick","state":"NY","lat":41.2656,"long":-74.3604},{"zip":"10992","city":"Washingtonville","state":"NY","lat":41.4237,"long":-74.1601},{"zip":"10996","city":"West Point","state":"NY","lat":41.3945,"long":-73.9737},{"zip":"10997","city":"West Point","state":"NY","lat":41.3915,"long":-73.956},{"zip":"10998","city":"Westtown","state":"NY","lat":41.3214,"long":-74.5529},{"zip":"10509","city":"Brewster","state":"NY","lat":41.4097,"long":-73.5992},{"zip":"10512","city":"Carmel","state":"NY","lat":41.4432,"long":-73.6815},{"zip":"10516","city":"Cold Spring","state":"NY","lat":41.4414,"long":-73.9335},{"zip":"10524","city":"Garrison","state":"NY","lat":41.3621,"long":-73.92},{"zip":"10537","city":"Lake Peekskill","state":"NY","lat":41.3374,"long":-73.8838},{"zip":"10541","city":"Mahopac","state":"NY","lat":41.3717,"long":-73.7508},{"zip":"10542","city":"Mahopac Falls","state":"NY","lat":41.3726,"long":-73.7601},{"zip":"10579","city":"Putnam Valley","state":"NY","lat":41.3728,"long":-73.8502},{"zip":"10301","city":"Staten Island","state":"NY","lat":40.6316,"long":-74.0927},{"zip":"10302","city":"Staten Island","state":"NY","lat":40.6306,"long":-74.1379},{"zip":"10303","city":"Staten Island","state":"NY","lat":40.6301,"long":-74.1607},{"zip":"10304","city":"Staten Island","state":"NY","lat":40.6102,"long":-74.0878},{"zip":"10305","city":"Staten Island","state":"NY","lat":40.5973,"long":-74.0768},{"zip":"10306","city":"Staten Island","state":"NY","lat":40.5682,"long":-74.1184},{"zip":"10307","city":"Staten Island","state":"NY","lat":40.5085,"long":-74.2445},{"zip":"10308","city":"Staten Island","state":"NY","lat":40.5518,"long":-74.1526},{"zip":"10309","city":"Staten Island","state":"NY","lat":40.5352,"long":-74.2116},{"zip":"10310","city":"Staten Island","state":"NY","lat":40.6324,"long":-74.1171},{"zip":"10311","city":"Staten Island","state":"NY","lat":40.6052,"long":-74.1795},{"zip":"10312","city":"Staten Island","state":"NY","lat":40.5457,"long":-74.1792},{"zip":"10313","city":"Staten Island","state":"NY","lat":40.5644,"long":-74.1468},{"zip":"10314","city":"Staten Island","state":"NY","lat":40.6039,"long":-74.1472},{"zip":"10901","city":"Suffern","state":"NY","lat":41.1177,"long":-74.1241},{"zip":"10911","city":"Bear Mountain","state":"NY","lat":41.1609,"long":-74.0608},{"zip":"10913","city":"Blauvelt","state":"NY","lat":41.0626,"long":-73.9629},{"zip":"10920","city":"Congers","state":"NY","lat":41.1487,"long":-73.9413},{"zip":"10923","city":"Garnerville","state":"NY","lat":41.2021,"long":-74.0005},{"zip":"10927","city":"Haverstraw","state":"NY","lat":41.1971,"long":-73.969},{"zip":"10931","city":"Hillburn","state":"NY","lat":41.124,"long":-74.1702},{"zip":"10952","city":"Monsey","state":"NY","lat":41.1163,"long":-74.0736},{"zip":"10954","city":"Nanuet","state":"NY","lat":41.0977,"long":-74.0109},{"zip":"10956","city":"New City","state":"NY","lat":41.1472,"long":-73.9962},{"zip":"10960","city":"Nyack","state":"NY","lat":41.0914,"long":-73.9252},{"zip":"10962","city":"Orangeburg","state":"NY","lat":41.0442,"long":-73.9609},{"zip":"10964","city":"Palisades","state":"NY","lat":41.0103,"long":-73.925},{"zip":"10965","city":"Pearl River","state":"NY","lat":41.0629,"long":-74.0159},{"zip":"10968","city":"Piermont","state":"NY","lat":41.0395,"long":-73.9192},{"zip":"10970","city":"Pomona","state":"NY","lat":41.1901,"long":-74.0436},{"zip":"10974","city":"Sloatsburg","state":"NY","lat":41.1575,"long":-74.2008},{"zip":"10976","city":"Sparkill","state":"NY","lat":41.0256,"long":-73.9229},{"zip":"10977","city":"Spring Valley","state":"NY","lat":41.1158,"long":-74.0474},{"zip":"10980","city":"Stony Point","state":"NY","lat":41.2292,"long":-73.9962},{"zip":"10982","city":"Tallman","state":"NY","lat":41.1112,"long":-74.0999},{"zip":"10983","city":"Tappan","state":"NY","lat":41.0278,"long":-73.9491},{"zip":"10984","city":"Thiells","state":"NY","lat":41.2078,"long":-74.0154},{"zip":"10986","city":"Tomkins Cove","state":"NY","lat":41.2598,"long":-73.9892},{"zip":"10989","city":"Valley Cottage","state":"NY","lat":41.1183,"long":-73.943},{"zip":"10993","city":"West Haverstraw","state":"NY","lat":41.209,"long":-73.9821},{"zip":"10994","city":"West Nyack","state":"NY","lat":41.0973,"long":-73.9768},{"zip":"10501","city":"Amawalk","state":"NY","lat":41.2946,"long":-73.7611},{"zip":"10502","city":"Ardsley","state":"NY","lat":41.0113,"long":-73.8413},{"zip":"10503","city":"Ardsley On Hudson","state":"NY","lat":41.0259,"long":-73.8718},{"zip":"10504","city":"Armonk","state":"NY","lat":41.136,"long":-73.7009},{"zip":"10505","city":"Baldwin Place","state":"NY","lat":41.3421,"long":-73.7454},{"zip":"10506","city":"Bedford","state":"NY","lat":41.1909,"long":-73.6355},{"zip":"10507","city":"Bedford Hills","state":"NY","lat":41.2344,"long":-73.6915},{"zip":"10510","city":"Briarcliff Manor","state":"NY","lat":41.1444,"long":-73.835},{"zip":"10511","city":"Buchanan","state":"NY","lat":41.2583,"long":-73.9412},{"zip":"10514","city":"Chappaqua","state":"NY","lat":41.1705,"long":-73.7715},{"zip":"10517","city":"Crompond","state":"NY","lat":41.3006,"long":-73.8612},{"zip":"10518","city":"Cross River","state":"NY","lat":41.2722,"long":-73.602},{"zip":"10519","city":"Croton Falls","state":"NY","lat":41.3477,"long":-73.661},{"zip":"10520","city":"Croton On Hudson","state":"NY","lat":41.218,"long":-73.8924},{"zip":"10521","city":"Croton On Hudson","state":"NY","lat":41.2343,"long":-73.9262},{"zip":"10522","city":"Dobbs Ferry","state":"NY","lat":41.0118,"long":-73.8665},{"zip":"10523","city":"Elmsford","state":"NY","lat":41.0572,"long":-73.8136},{"zip":"10526","city":"Goldens Bridge","state":"NY","lat":41.3004,"long":-73.6479},{"zip":"10527","city":"Granite Springs","state":"NY","lat":41.3098,"long":-73.753},{"zip":"10528","city":"Harrison","state":"NY","lat":40.9719,"long":-73.7181},{"zip":"10530","city":"Hartsdale","state":"NY","lat":41.0197,"long":-73.8074},{"zip":"10532","city":"Hawthorne","state":"NY","lat":41.1073,"long":-73.796},{"zip":"10533","city":"Irvington","state":"NY","lat":41.0381,"long":-73.8597},{"zip":"10535","city":"Jefferson Valley","state":"NY","lat":41.3385,"long":-73.7947},{"zip":"10536","city":"Katonah","state":"NY","lat":41.2709,"long":-73.6841},{"zip":"10538","city":"Larchmont","state":"NY","lat":40.9351,"long":-73.7571},{"zip":"10540","city":"Lincolndale","state":"NY","lat":41.3334,"long":-73.7243},{"zip":"10543","city":"Mamaroneck","state":"NY","lat":40.9525,"long":-73.735},{"zip":"10545","city":"Maryknoll","state":"NY","lat":41.119,"long":-73.733},{"zip":"10546","city":"Millwood","state":"NY","lat":41.2015,"long":-73.7926},{"zip":"10547","city":"Mohegan Lake","state":"NY","lat":41.3143,"long":-73.8508},{"zip":"10548","city":"Montrose","state":"NY","lat":41.2496,"long":-73.9446},{"zip":"10549","city":"Mount Kisco","state":"NY","lat":41.205,"long":-73.7299},{"zip":"10550","city":"Mount Vernon","state":"NY","lat":40.9079,"long":-73.838},{"zip":"10551","city":"Mount Vernon","state":"NY","lat":40.9126,"long":-73.8371},{"zip":"10552","city":"Mount Vernon","state":"NY","lat":40.9231,"long":-73.8299},{"zip":"10553","city":"Mount Vernon","state":"NY","lat":40.9086,"long":-73.8221},{"zip":"10560","city":"North Salem","state":"NY","lat":41.3414,"long":-73.5929},{"zip":"10562","city":"Ossining","state":"NY","lat":41.1673,"long":-73.8538},{"zip":"10566","city":"Peekskill","state":"NY","lat":41.2892,"long":-73.9184},{"zip":"10567","city":"Cortlandt Manor","state":"NY","lat":41.284,"long":-73.8931},{"zip":"10570","city":"Pleasantville","state":"NY","lat":41.135,"long":-73.7845},{"zip":"10573","city":"Port Chester","state":"NY","lat":41.0222,"long":-73.6798},{"zip":"10576","city":"Pound Ridge","state":"NY","lat":41.2042,"long":-73.5732},{"zip":"10577","city":"Purchase","state":"NY","lat":41.0384,"long":-73.7156},{"zip":"10578","city":"Purdys","state":"NY","lat":41.3259,"long":-73.6551},{"zip":"10580","city":"Rye","state":"NY","lat":40.9734,"long":-73.6907},{"zip":"10583","city":"Scarsdale","state":"NY","lat":40.9927,"long":-73.7995},{"zip":"10587","city":"Shenorock","state":"NY","lat":41.3287,"long":-73.7423},{"zip":"10588","city":"Shrub Oak","state":"NY","lat":41.3286,"long":-73.8273},{"zip":"10589","city":"Somers","state":"NY","lat":41.3346,"long":-73.6951},{"zip":"10590","city":"South Salem","state":"NY","lat":41.2553,"long":-73.5402},{"zip":"10591","city":"Tarrytown","state":"NY","lat":41.0897,"long":-73.844},{"zip":"10594","city":"Thornwood","state":"NY","lat":41.1182,"long":-73.7733},{"zip":"10595","city":"Valhalla","state":"NY","lat":41.0856,"long":-73.7776},{"zip":"10596","city":"Verplanck","state":"NY","lat":41.2548,"long":-73.9587},{"zip":"10597","city":"Waccabuc","state":"NY","lat":41.3032,"long":-73.6032},{"zip":"10598","city":"Yorktown Heights","state":"NY","lat":41.2999,"long":-73.7924},{"zip":"10601","city":"White Plains","state":"NY","lat":41.033,"long":-73.7652},{"zip":"10602","city":"White Plains","state":"NY","lat":41.034,"long":-73.7629},{"zip":"10603","city":"White Plains","state":"NY","lat":41.0499,"long":-73.7776},{"zip":"10604","city":"West Harrison","state":"NY","lat":41.0592,"long":-73.7395},{"zip":"10605","city":"White Plains","state":"NY","lat":41.0141,"long":-73.7552},{"zip":"10606","city":"White Plains","state":"NY","lat":41.0247,"long":-73.7781},{"zip":"10607","city":"White Plains","state":"NY","lat":41.0398,"long":-73.8117},{"zip":"10610","city":"White Plains","state":"NY","lat":41.119,"long":-73.733},{"zip":"10701","city":"Yonkers","state":"NY","lat":40.9461,"long":-73.8669},{"zip":"10702","city":"Yonkers","state":"NY","lat":40.9312,"long":-73.8987},{"zip":"10703","city":"Yonkers","state":"NY","lat":40.9518,"long":-73.8852},{"zip":"10704","city":"Yonkers","state":"NY","lat":40.9176,"long":-73.8593},{"zip":"10705","city":"Yonkers","state":"NY","lat":40.9177,"long":-73.895},{"zip":"10706","city":"Hastings On Hudson","state":"NY","lat":40.9878,"long":-73.863},{"zip":"10707","city":"Tuckahoe","state":"NY","lat":40.9569,"long":-73.8198},{"zip":"10708","city":"Bronxville","state":"NY","lat":40.9391,"long":-73.8353},{"zip":"10709","city":"Eastchester","state":"NY","lat":40.955,"long":-73.8086},{"zip":"10710","city":"Yonkers","state":"NY","lat":40.9656,"long":-73.8434},{"zip":"10801","city":"New Rochelle","state":"NY","lat":40.9166,"long":-73.7877},{"zip":"10802","city":"New Rochelle","state":"NY","lat":40.9115,"long":-73.7824},{"zip":"10803","city":"Pelham","state":"NY","lat":40.9045,"long":-73.8073},{"zip":"10804","city":"New Rochelle","state":"NY","lat":40.9491,"long":-73.7863},{"zip":"10805","city":"New Rochelle","state":"NY","lat":40.9002,"long":-73.781}]
