[{"zip":"10203","city":"New York","state":"NY","lat":40.7143,"long":-74.006},{"zip":"10211","city":"New York","state":"NY","lat":40.7808,"long":-73.9772},{"zip":"10212","city":"New York","state":"NY","lat":40.7143,"long":-74.006},{"zip":"10213","city":"New York","state":"NY","lat":40.7143,"long":-74.006},{"zip":"10242","city":"New York","state":"NY","lat":40.7143,"long":-74.006},{"zip":"10249","city":"New York","state":"NY","lat":40.7143,"long":-74.006},{"zip":"10256","city":"New York","state":"NY","lat":40.7143,"long":-74.006},{"zip":"10258","city":"New York","state":"NY","lat":40.7143,"long":-74.006},{"zip":"10259","city":"New York","state":"NY","lat":40.7808,"long":-73.9772},{"zip":"10260","city":"New York","state":"NY","lat":40.7808,"long":-73.9772},{"zip":"10261","city":"New York","state":"NY","lat":40.7808,"long":-73.9772},{"zip":"10265","city":"New York","state":"NY","lat":40.7808,"long":-73.9772},{"zip":"10268","city":"New York","state":"NY","lat":40.7808,"long":-73.9772},{"zip":"10269","city":"New York","state":"NY","lat":40.7808,"long":-73.9772},{"zip":"10270","city":"New York","state":"NY","lat":40.7069,"long":-74.0082},{"zip":"10271","city":"New York","state":"NY","lat":40.7089,"long":-74.0111},{"zip":"10272","city":"New York","state":"NY","lat":40.7808,"long":-73.9772},{"zip":"10273","city":"New York","state":"NY","lat":40.7143,"long":-74.006},{"zip":"10274","city":"New York","state":"NY","lat":40.7808,"long":-73.9772},{"zip":"10275","city":"New York","state":"NY","lat":40.7808,"long":-73.9772},{"zip":"10276","city":"New York","state":"NY","lat":40.7808,"long":-73.9772},{"zip":"10277","city":"New York","state":"NY","lat":40.7808,"long":-73.9772},{"zip":"10278","city":"New York","state":"NY","lat":40.7152,"long":-74.0038},{"zip":"10279","city":"New York","state":"NY","lat":40.7127,"long":-74.0078},{"zip":"10280","city":"New York","state":"NY","lat":40.7105,"long":-74.0163},{"zip":"10281","city":"New York","state":"NY","lat":40.7146,"long":-74.015},{"zip":"10282","city":"New York","state":"NY","lat":40.7166,"long":-74.0146},{"zip":"10285","city":"New York","state":"NY","lat":40.7153,"long":-74.0163},{"zip":"10286","city":"New York","state":"NY","lat":40.7142,"long":-74.0119}]
