[{"zip":"10509","city":"Brewster","state":"NY","lat":41.4097,"long":-73.5992},{"zip":"10512","city":"Carmel","state":"NY","lat":41.4432,"long":-73.6815},{"zip":"10516","city":"Cold Spring","state":"NY","lat":41.4414,"long":-73.9335},{"zip":"10524","city":"Garrison","state":"NY","lat":41.3621,"long":-73.92},{"zip":"10537","city":"Lake Peekskill","state":"NY","lat":41.3374,"long":-73.8838},{"zip":"10541","city":"Mahopac","state":"NY","lat":41.3717,"long":-73.7508},{"zip":"10542","city":"Mahopac Falls","state":"NY","lat":41.3726,"long":-73.7601},{"zip":"10579","city":"Putnam Valley","state":"NY","lat":41.3728,"long":-73.8502},{"zip":"10501","city":"Amawalk","state":"NY","lat":41.2946,"long":-73.7611},{"zip":"10502","city":"Ardsley","state":"NY","lat":41.0113,"long":-73.8413},{"zip":"10503","city":"Ardsley On Hudson","state":"NY","lat":41.0259,"long":-73.8718},{"zip":"10504","city":"Armonk","state":"NY","lat":41.136,"long":-73.7009},{"zip":"10505","city":"Baldwin Place","state":"NY","lat":41.3421,"long":-73.7454},{"zip":"10506","city":"Bedford","state":"NY","lat":41.1909,"long":-73.6355},{"zip":"10507","city":"Bedford Hills","state":"NY","lat":41.2344,"long":-73.6915},{"zip":"10510","city":"Briarcliff Manor","state":"NY","lat":41.1444,"long":-73.835},{"zip":"10511","city":"Buchanan","state":"NY","lat":41.2583,"long":-73.9412},{"zip":"10514","city":"Chappaqua","state":"NY","lat":41.1705,"long":-73.7715},{"zip":"10517","city":"Crompond","state":"NY","lat":41.3006,"long":-73.8612},{"zip":"10518","city":"Cross River","state":"NY","lat":41.2722,"long":-73.602},{"zip":"10519","city":"Croton Falls","state":"NY","lat":41.3477,"long":-73.661},{"zip":"10520","city":"Croton On Hudson","state":"NY","lat":41.218,"long":-73.8924},{"zip":"10521","city":"Croton On Hudson","state":"NY","lat":41.2343,"long":-73.9262},{"zip":"10522","city":"Dobbs Ferry","state":"NY","lat":41.0118,"long":-73.8665},{"zip":"10523","city":"Elmsford","state":"NY","lat":41.0572,"long":-73.8136},{"zip":"10526","city":"Goldens Bridge","state":"NY","lat":41.3004,"long":-73.6479},{"zip":"10527","city":"Granite Springs","state":"NY","lat":41.3098,"long":-73.753},{"zip":"10528","city":"Harrison","state":"NY","lat":40.9719,"long":-73.7181},{"zip":"10530","city":"Hartsdale","state":"NY","lat":41.0197,"long":-73.8074},{"zip":"10532","city":"Hawthorne","state":"NY","lat":41.1073,"long":-73.796},{"zip":"10533","city":"Irvington","state":"NY","lat":41.0381,"long":-73.8597},{"zip":"10535","city":"Jefferson Valley","state":"NY","lat":41.3385,"long":-73.7947},{"zip":"10536","city":"Katonah","state":"NY","lat":41.2709,"long":-73.6841},{"zip":"10538","city":"Larchmont","state":"NY","lat":40.9351,"long":-73.7571},{"zip":"10540","city":"Lincolndale","state":"NY","lat":41.3334,"long":-73.7243},{"zip":"10543","city":"Mamaroneck","state":"NY","lat":40.9525,"long":-73.735},{"zip":"10545","city":"Maryknoll","state":"NY","lat":41.119,"long":-73.733},{"zip":"10546","city":"Millwood","state":"NY","lat":41.2015,"long":-73.7926},{"zip":"10547","city":"Mohegan Lake","state":"NY","lat":41.3143,"long":-73.8508},{"zip":"10548","city":"Montrose","state":"NY","lat":41.2496,"long":-73.9446},{"zip":"10549","city":"Mount Kisco","state":"NY","lat":41.205,"long":-73.7299},{"zip":"10550","city":"Mount Vernon","state":"NY","lat":40.9079,"long":-73.838},{"zip":"10551","city":"Mount Vernon","state":"NY","lat":40.9126,"long":-73.8371},{"zip":"10552","city":"Mount Vernon","state":"NY","lat":40.9231,"long":-73.8299},{"zip":"10553","city":"Mount Vernon","state":"NY","lat":40.9086,"long":-73.8221},{"zip":"10560","city":"North Salem","state":"NY","lat":41.3414,"long":-73.5929},{"zip":"10562","city":"Ossining","state":"NY","lat":41.1673,"long":-73.8538},{"zip":"10566","city":"Peekskill","state":"NY","lat":41.2892,"long":-73.9184},{"zip":"10567","city":"Cortlandt Manor","state":"NY","lat":41.284,"long":-73.8931},{"zip":"10570","city":"Pleasantville","state":"NY","lat":41.135,"long":-73.7845},{"zip":"10573","city":"Port Chester","state":"NY","lat":41.0222,"long":-73.6798},{"zip":"10576","city":"Pound Ridge","state":"NY","lat":41.2042,"long":-73.5732},{"zip":"10577","city":"Purchase","state":"NY","lat":41.0384,"long":-73.7156},{"zip":"10578","city":"Purdys","state":"NY","lat":41.3259,"long":-73.6551},{"zip":"10580","city":"Rye","state":"NY","lat":40.9734,"long":-73.6907},{"zip":"10583","city":"Scarsdale","state":"NY","lat":40.9927,"long":-73.7995},{"zip":"10587","city":"Shenorock","state":"NY","lat":41.3287,"long":-73.7423},{"zip":"10588","city":"Shrub Oak","state":"NY","lat":41.3286,"long":-73.8273},{"zip":"10589","city":"Somers","state":"NY","lat":41.3346,"long":-73.6951},{"zip":"10590","city":"South Salem","state":"NY","lat":41.2553,"long":-73.5402},{"zip":"10591","city":"Tarrytown","state":"NY","lat":41.0897,"long":-73.844},{"zip":"10594","city":"Thornwood","state":"NY","lat":41.1182,"long":-73.7733},{"zip":"10595","city":"Valhalla","state":"NY","lat":41.0856,"long":-73.7776},{"zip":"10596","city":"Verplanck","state":"NY","lat":41.2548,"long":-73.9587},{"zip":"10597","city":"Waccabuc","state":"NY","lat":41.3032,"long":-73.6032},{"zip":"10598","city":"Yorktown Heights","state":"NY","lat":41.2999,"long":-73.7924}]
