[{"zip":"11201","city":"Brooklyn","state":"NY","lat":40.694,"long":-73.9903},{"zip":"11202","city":"Brooklyn","state":"NY","lat":40.6451,"long":-73.945},{"zip":"11203","city":"Brooklyn","state":"NY","lat":40.6505,"long":-73.9349},{"zip":"11204","city":"Brooklyn","state":"NY","lat":40.6179,"long":-73.9856},{"zip":"11205","city":"Brooklyn","state":"NY","lat":40.6924,"long":-73.9666},{"zip":"11206","city":"Brooklyn","state":"NY","lat":40.7012,"long":-73.9436},{"zip":"11207","city":"Brooklyn","state":"NY","lat":40.6705,"long":-73.894},{"zip":"11208","city":"Brooklyn","state":"NY","lat":40.6762,"long":-73.8736},{"zip":"11209","city":"Brooklyn","state":"NY","lat":40.6251,"long":-74.0303},{"zip":"11210","city":"Brooklyn","state":"NY","lat":40.6281,"long":-73.9467},{"zip":"11211","city":"Brooklyn","state":"NY","lat":40.7095,"long":-73.9563},{"zip":"11212","city":"Brooklyn","state":"NY","lat":40.6625,"long":-73.9145},{"zip":"11213","city":"Brooklyn","state":"NY","lat":40.67,"long":-73.9367},{"zip":"11214","city":"Brooklyn","state":"NY","lat":40.6016,"long":-73.9968},{"zip":"11215","city":"Brooklyn","state":"NY","lat":40.6669,"long":-73.9828},{"zip":"11216","city":"Brooklyn","state":"NY","lat":40.6794,"long":-73.9496},{"zip":"11217","city":"Brooklyn","state":"NY","lat":40.6816,"long":-73.9798},{"zip":"11218","city":"Brooklyn","state":"NY","lat":40.6424,"long":-73.9758},{"zip":"11219","city":"Brooklyn","state":"NY","lat":40.6336,"long":-73.996},{"zip":"11220","city":"Brooklyn","state":"NY","lat":40.6412,"long":-74.0133},{"zip":"11221","city":"Brooklyn","state":"NY","lat":40.6907,"long":-73.9274},{"zip":"11222","city":"Brooklyn","state":"NY","lat":40.7272,"long":-73.9498},{"zip":"11223","city":"Brooklyn","state":"NY","lat":40.5979,"long":-73.9743},{"zip":"11224","city":"Brooklyn","state":"NY","lat":40.5767,"long":-73.9884},{"zip":"11225","city":"Brooklyn","state":"NY","lat":40.6628,"long":-73.9546},{"zip":"11226","city":"Brooklyn","state":"NY","lat":40.6467,"long":-73.957},{"zip":"11228","city":"Brooklyn","state":"NY","lat":40.6174,"long":-74.0121},{"zip":"11229","city":"Brooklyn","state":"NY","lat":40.6011,"long":-73.9475},{"zip":"11230","city":"Brooklyn","state":"NY","lat":40.6225,"long":-73.965},{"zip":"11231","city":"Brooklyn","state":"NY","lat":40.6794,"long":-74.0014},{"zip":"11232","city":"Brooklyn","state":"NY","lat":40.6521,"long":-74.0018},{"zip":"11233","city":"Brooklyn","state":"NY","lat":40.6784,"long":-73.9211},{"zip":"11234","city":"Brooklyn","state":"NY","lat":40.6205,"long":-73.9239},{"zip":"11235","city":"Brooklyn","state":"NY","lat":40.5839,"long":-73.9536},{"zip":"11236","city":"Brooklyn","state":"NY","lat":40.6407,"long":-73.9028},{"zip":"11237","city":"Brooklyn","state":"NY","lat":40.7006,"long":-73.918},{"zip":"11238","city":"Brooklyn","state":"NY","lat":40.679,"long":-73.9644},{"zip":"11239","city":"Brooklyn","state":"NY","lat":40.6497,"long":-73.8824},{"zip":"11241","city":"Brooklyn","state":"NY","lat":40.6451,"long":-73.945},{"zip":"11242","city":"Brooklyn","state":"NY","lat":40.6451,"long":-73.945},{"zip":"11243","city":"Brooklyn","state":"NY","lat":40.6451,"long":-73.945},{"zip":"11245","city":"Brooklyn","state":"NY","lat":40.6451,"long":-73.945},{"zip":"11247","city":"Brooklyn","state":"NY","lat":40.6451,"long":-73.945},{"zip":"11249","city":"Brooklyn","state":"NY","lat":40.6451,"long":-73.945},{"zip":"11251","city":"Brooklyn","state":"NY","lat":40.6451,"long":-73.945},{"zip":"11252","city":"Brooklyn","state":"NY","lat":40.6451,"long":-73.945},{"zip":"11256","city":"Brooklyn","state":"NY","lat":40.6451,"long":-73.945},{"zip":"11001","city":"Floral Park","state":"NY","lat":40.7236,"long":-73.7058},{"zip":"11002","city":"Floral Park","state":"NY","lat":40.7237,"long":-73.7049},{"zip":"11003","city":"Elmont","state":"NY","lat":40.6976,"long":-73.7049},{"zip":"11010","city":"Franklin Square","state":"NY","lat":40.701,"long":-73.6758},{"zip":"11020","city":"Great Neck","state":"NY","lat":40.7742,"long":-73.7189},{"zip":"11021","city":"Great Neck","state":"NY","lat":40.7867,"long":-73.727},{"zip":"11022","city":"Great Neck","state":"NY","lat":40.7548,"long":-73.6018},{"zip":"11023","city":"Great Neck","state":"NY","lat":40.7993,"long":-73.7343},{"zip":"11024","city":"Great Neck","state":"NY","lat":40.8171,"long":-73.7416},{"zip":"11026","city":"Great Neck","state":"NY","lat":40.7548,"long":-73.6018},{"zip":"11027","city":"Great Neck","state":"NY","lat":40.8007,"long":-73.7285},{"zip":"11030","city":"Manhasset","state":"NY","lat":40.7934,"long":-73.6888},{"zip":"11040","city":"New Hyde Park","state":"NY","lat":40.7294,"long":-73.6828},{"zip":"11042","city":"New Hyde Park","state":"NY","lat":40.7602,"long":-73.695},{"zip":"11050","city":"Port Washington","state":"NY","lat":40.835,"long":-73.6964},{"zip":"11051","city":"Port Washington","state":"NY","lat":40.7548,"long":-73.6018},{"zip":"11052","city":"Port Washington","state":"NY","lat":40.7548,"long":-73.6018},{"zip":"11053","city":"Port Washington","state":"NY","lat":40.7548,"long":-73.6018},{"zip":"11054","city":"Port Washington","state":"NY","lat":40.7548,"long":-73.6018},{"zip":"11055","city":"Port Washington","state":"NY","lat":40.7548,"long":-73.6018},{"zip":"11096","city":"Inwood","state":"NY","lat":40.6205,"long":-73.7474},{"zip":"11501","city":"Mineola","state":"NY","lat":40.7469,"long":-73.6398},{"zip":"11507","city":"Albertson","state":"NY","lat":40.7703,"long":-73.6514},{"zip":"11509","city":"Atlantic Beach","state":"NY","lat":40.5887,"long":-73.7255},{"zip":"11510","city":"Baldwin","state":"NY","lat":40.6548,"long":-73.6097},{"zip":"11514","city":"Carle Place","state":"NY","lat":40.7512,"long":-73.6119},{"zip":"11516","city":"Cedarhurst","state":"NY","lat":40.6236,"long":-73.7264},{"zip":"11518","city":"East Rockaway","state":"NY","lat":40.6404,"long":-73.6674},{"zip":"11520","city":"Freeport","state":"NY","lat":40.6536,"long":-73.5866},{"zip":"11530","city":"Garden City","state":"NY","lat":40.7245,"long":-73.6487},{"zip":"11531","city":"Garden City","state":"NY","lat":40.7268,"long":-73.6343},{"zip":"11542","city":"Glen Cove","state":"NY","lat":40.865,"long":-73.6277},{"zip":"11545","city":"Glen Head","state":"NY","lat":40.8281,"long":-73.6076},{"zip":"11547","city":"Glenwood Landing","state":"NY","lat":40.7548,"long":-73.6018},{"zip":"11548","city":"Greenvale","state":"NY","lat":40.8125,"long":-73.6261},{"zip":"11549","city":"Hempstead","state":"NY","lat":40.7172,"long":-73.6027},{"zip":"11550","city":"Hempstead","state":"NY","lat":40.7049,"long":-73.6176},{"zip":"11551","city":"Hempstead","state":"NY","lat":40.7062,"long":-73.6187},{"zip":"11552","city":"West Hempstead","state":"NY","lat":40.6929,"long":-73.6539},{"zip":"11553","city":"Uniondale","state":"NY","lat":40.702,"long":-73.592},{"zip":"11554","city":"East Meadow","state":"NY","lat":40.7149,"long":-73.5561},{"zip":"11555","city":"Uniondale","state":"NY","lat":40.7004,"long":-73.5929},{"zip":"11556","city":"Uniondale","state":"NY","lat":40.7548,"long":-73.6018},{"zip":"11557","city":"Hewlett","state":"NY","lat":40.6404,"long":-73.6957},{"zip":"11558","city":"Island Park","state":"NY","lat":40.604,"long":-73.6554},{"zip":"11559","city":"Lawrence","state":"NY","lat":40.614,"long":-73.733},{"zip":"11560","city":"Locust Valley","state":"NY","lat":40.8817,"long":-73.5927},{"zip":"11561","city":"Long Beach","state":"NY","lat":40.5877,"long":-73.6595},{"zip":"11563","city":"Lynbrook","state":"NY","lat":40.6571,"long":-73.6741},{"zip":"11565","city":"Malverne","state":"NY","lat":40.675,"long":-73.6731},{"zip":"11566","city":"Merrick","state":"NY","lat":40.6685,"long":-73.5536},{"zip":"11568","city":"Old Westbury","state":"NY","lat":40.7882,"long":-73.5875},{"zip":"11569","city":"Point Lookout","state":"NY","lat":40.5905,"long":-73.5808},{"zip":"11570","city":"Rockville Centre","state":"NY","lat":40.6637,"long":-73.638},{"zip":"11571","city":"Rockville Centre","state":"NY","lat":40.6587,"long":-73.6412},{"zip":"11572","city":"Oceanside","state":"NY","lat":40.6362,"long":-73.6375},{"zip":"11575","city":"Roosevelt","state":"NY","lat":40.6802,"long":-73.5867},{"zip":"11576","city":"Roslyn","state":"NY","lat":40.7984,"long":-73.6477},{"zip":"11577","city":"Roslyn Heights","state":"NY","lat":40.7845,"long":-73.6403},{"zip":"11579","city":"Sea Cliff","state":"NY","lat":40.846,"long":-73.6436},{"zip":"11580","city":"Valley Stream","state":"NY","lat":40.6742,"long":-73.7057},{"zip":"11581","city":"Valley Stream","state":"NY","lat":40.6523,"long":-73.7118},{"zip":"11582","city":"Valley Stream","state":"NY","lat":40.6643,"long":-73.7085},{"zip":"11590","city":"Westbury","state":"NY","lat":40.7557,"long":-73.5723},{"zip":"11596","city":"Williston Park","state":"NY","lat":40.7592,"long":-73.6449},{"zip":"11598","city":"Woodmere","state":"NY","lat":40.6326,"long":-73.7141},{"zip":"11599","city":"Garden City","state":"NY","lat":40.7268,"long":-73.6343},{"zip":"11709","city":"Bayville","state":"NY","lat":40.9074,"long":-73.5601},{"zip":"11710","city":"Bellmore","state":"NY","lat":40.6729,"long":-73.5365},{"zip":"11714","city":"Bethpage","state":"NY","lat":40.74,"long":-73.4857},{"zip":"11732","city":"East Norwich","state":"NY","lat":40.8472,"long":-73.5349},{"zip":"11735","city":"Farmingdale","state":"NY","lat":40.7315,"long":-73.4327},{"zip":"11737","city":"Farmingdale","state":"NY","lat":40.7326,"long":-73.4454},{"zip":"11753","city":"Jericho","state":"NY","lat":40.7881,"long":-73.5331},{"zip":"11756","city":"Levittown","state":"NY","lat":40.7254,"long":-73.5166},{"zip":"11758","city":"Massapequa","state":"NY","lat":40.6682,"long":-73.4588},{"zip":"11762","city":"Massapequa Park","state":"NY","lat":40.6807,"long":-73.4444},{"zip":"11765","city":"Mill Neck","state":"NY","lat":40.8857,"long":-73.5526},{"zip":"11771","city":"Oyster Bay","state":"NY","lat":40.866,"long":-73.5272},{"zip":"11773","city":"Syosset","state":"NY","lat":40.8262,"long":-73.5021},{"zip":"11783","city":"Seaford","state":"NY","lat":40.6795,"long":-73.491},{"zip":"11791","city":"Syosset","state":"NY","lat":40.8146,"long":-73.5024},{"zip":"11793","city":"Wantagh","state":"NY","lat":40.685,"long":-73.5103},{"zip":"11797","city":"Woodbury","state":"NY","lat":40.8154,"long":-73.4716},{"zip":"11801","city":"Hicksville","state":"NY","lat":40.7623,"long":-73.523},{"zip":"11802","city":"Hicksville","state":"NY","lat":40.7684,"long":-73.5251},{"zip":"11803","city":"Plainview","state":"NY","lat":40.7781,"long":-73.4816},{"zip":"11804","city":"Old Bethpage","state":"NY","lat":40.765,"long":-73.4575},{"zip":"11815","city":"Hicksville","state":"NY","lat":40.7548,"long":-73.6018},{"zip":"11819","city":"Hicksville","state":"NY","lat":40.7684,"long":-73.5251},{"zip":"11853","city":"Jericho","state":"NY","lat":40.792,"long":-73.5398},{"zip":"11004","city":"Glen Oaks","state":"NY","lat":40.7481,"long":-73.7114},{"zip":"11005","city":"Floral Park","state":"NY","lat":40.7571,"long":-73.7182},{"zip":"11101","city":"Long Island City","state":"NY","lat":40.7446,"long":-73.9345},{"zip":"11102","city":"Astoria","state":"NY","lat":40.7706,"long":-73.9265},{"zip":"11103","city":"Astoria","state":"NY","lat":40.7627,"long":-73.9149},{"zip":"11104","city":"Sunnyside","state":"NY","lat":40.7436,"long":-73.9216},{"zip":"11105","city":"Astoria","state":"NY","lat":40.7763,"long":-73.911},{"zip":"11106","city":"Astoria","state":"NY","lat":40.7608,"long":-73.9295},{"zip":"11109","city":"Long Island City","state":"NY","lat":40.7454,"long":-73.9575},{"zip":"11120","city":"Long Island City","state":"NY","lat":40.7448,"long":-73.9487},{"zip":"11351","city":"Flushing","state":"NY","lat":40.7817,"long":-73.8317},{"zip":"11352","city":"Flushing","state":"NY","lat":40.6514,"long":-73.8708},{"zip":"11354","city":"Flushing","state":"NY","lat":40.7667,"long":-73.8241},{"zip":"11355","city":"Flushing","state":"NY","lat":40.7536,"long":-73.8226},{"zip":"11356","city":"College Point","state":"NY","lat":40.7855,"long":-73.845},{"zip":"11357","city":"Whitestone","state":"NY","lat":40.7851,"long":-73.8096},{"zip":"11358","city":"Flushing","state":"NY","lat":40.7606,"long":-73.7968},{"zip":"11359","city":"Bayside","state":"NY","lat":40.7928,"long":-73.7767},{"zip":"11360","city":"Bayside","state":"NY","lat":40.7807,"long":-73.7812},{"zip":"11361","city":"Bayside","state":"NY","lat":40.7627,"long":-73.7745},{"zip":"11362","city":"Little Neck","state":"NY","lat":40.7591,"long":-73.7326},{"zip":"11363","city":"Little Neck","state":"NY","lat":40.7722,"long":-73.7454},{"zip":"11364","city":"Oakland Gardens","state":"NY","lat":40.7428,"long":-73.7588},{"zip":"11365","city":"Fresh Meadows","state":"NY","lat":40.7374,"long":-73.7951},{"zip":"11366","city":"Fresh Meadows","state":"NY","lat":40.7272,"long":-73.7949},{"zip":"11367","city":"Flushing","state":"NY","lat":40.728,"long":-73.8195},{"zip":"11368","city":"Corona","state":"NY","lat":40.7453,"long":-73.8611},{"zip":"11369","city":"East Elmhurst","state":"NY","lat":40.7613,"long":-73.8739},{"zip":"11370","city":"East Elmhurst","state":"NY","lat":40.7611,"long":-73.8916},{"zip":"11371","city":"Flushing","state":"NY","lat":40.7721,"long":-73.8735},{"zip":"11372","city":"Jackson Heights","state":"NY","lat":40.7513,"long":-73.883},{"zip":"11373","city":"Elmhurst","state":"NY","lat":40.7351,"long":-73.8776},{"zip":"11374","city":"Rego Park","state":"NY","lat":40.7278,"long":-73.8602},{"zip":"11375","city":"Forest Hills","state":"NY","lat":40.7229,"long":-73.8473},{"zip":"11377","city":"Woodside","state":"NY","lat":40.745,"long":-73.9069},{"zip":"11378","city":"Maspeth","state":"NY","lat":40.7239,"long":-73.8997},{"zip":"11379","city":"Middle Village","state":"NY","lat":40.7173,"long":-73.8792},{"zip":"11380","city":"Elmhurst","state":"NY","lat":40.7365,"long":-73.8779},{"zip":"11381","city":"Flushing","state":"NY","lat":40.6514,"long":-73.8708},{"zip":"11385","city":"Ridgewood","state":"NY","lat":40.7036,"long":-73.8961},{"zip":"11386","city":"Ridgewood","state":"NY","lat":40.7001,"long":-73.9057},{"zip":"11405","city":"Jamaica","state":"NY","lat":40.6514,"long":-73.8708},{"zip":"11411","city":"Cambria Heights","state":"NY","lat":40.6947,"long":-73.7374},{"zip":"11412","city":"Saint Albans","state":"NY","lat":40.6958,"long":-73.7617},{"zip":"11413","city":"Springfield Gardens","state":"NY","lat":40.6645,"long":-73.7559},{"zip":"11414","city":"Howard Beach","state":"NY","lat":40.6588,"long":-73.8438},{"zip":"11415","city":"Kew Gardens","state":"NY","lat":40.7069,"long":-73.8297},{"zip":"11416","city":"Ozone Park","state":"NY","lat":40.6838,"long":-73.8514},{"zip":"11417","city":"Ozone Park","state":"NY","lat":40.6769,"long":-73.8448},{"zip":"11418","city":"Richmond Hill","state":"NY","lat":40.6982,"long":-73.8345},{"zip":"11419","city":"South Richmond Hill","state":"NY","lat":40.6868,"long":-73.823},{"zip":"11420","city":"South Ozone Park","state":"NY","lat":40.6744,"long":-73.819},{"zip":"11421","city":"Woodhaven","state":"NY","lat":40.6913,"long":-73.8585},{"zip":"11422","city":"Rosedale","state":"NY","lat":40.6621,"long":-73.7353},{"zip":"11423","city":"Hollis","state":"NY","lat":40.7142,"long":-73.7677},{"zip":"11424","city":"Jamaica","state":"NY","lat":40.6514,"long":-73.8708},{"zip":"11425","city":"Jamaica","state":"NY","lat":40.6514,"long":-73.8708},{"zip":"11426","city":"Bellerose","state":"NY","lat":40.7347,"long":-73.723},{"zip":"11427","city":"Queens Village","state":"NY","lat":40.7277,"long":-73.7489},{"zip":"11428","city":"Queens Village","state":"NY","lat":40.7208,"long":-73.7433},{"zip":"11429","city":"Queens Village","state":"NY","lat":40.709,"long":-73.7401},{"zip":"11430","city":"Jamaica","state":"NY","lat":40.6472,"long":-73.7827},{"zip":"11431","city":"Jamaica","state":"NY","lat":40.6869,"long":-73.8501},{"zip":"11432","city":"Jamaica","state":"NY","lat":40.7119,"long":-73.7944},{"zip":"11433","city":"Jamaica","state":"NY","lat":40.6969,"long":-73.7877},{"zip":"11434","city":"Jamaica","state":"NY","lat":40.6775,"long":-73.7758},{"zip":"11435","city":"Jamaica","state":"NY","lat":40.7029,"long":-73.8111},{"zip":"11436","city":"Jamaica","state":"NY","lat":40.6763,"long":-73.7966},{"zip":"11439","city":"Jamaica","state":"NY","lat":40.722,"long":-73.7908},{"zip":"11451","city":"Jamaica","state":"NY","lat":40.6514,"long":-73.8708},{"zip":"11499","city":"Jamaica","state":"NY","lat":40.6514,"long":-73.8708},{"zip":"11690","city":"Far Rockaway","state":"NY","lat":40.6054,"long":-73.7551},{"zip":"11691","city":"Far Rockaway","state":"NY","lat":40.6006,"long":-73.758},{"zip":"11692","city":"Arverne","state":"NY","lat":40.5923,"long":-73.7933},{"zip":"11693","city":"Far Rockaway","state":"NY","lat":40.6076,"long":-73.8198},{"zip":"11694","city":"Rockaway Park","state":"NY","lat":40.5766,"long":-73.8428},{"zip":"11695","city":"Far Rockaway","state":"NY","lat":40.6514,"long":-73.8708},{"zip":"11697","city":"Breezy Point","state":"NY","lat":40.5594,"long":-73.9067},{"zip":"11701","city":"Amityville","state":"NY","lat":40.6842,"long":-73.4171},{"zip":"11702","city":"Babylon","state":"NY","lat":40.6957,"long":-73.3257},{"zip":"11703","city":"North Babylon","state":"NY","lat":40.7321,"long":-73.3236},{"zip":"11704","city":"West Babylon","state":"NY","lat":40.7135,"long":-73.3546},{"zip":"11705","city":"Bayport","state":"NY","lat":40.7444,"long":-73.0542},{"zip":"11706","city":"Bay Shore","state":"NY","lat":40.7051,"long":-73.243},{"zip":"11707","city":"West Babylon","state":"NY","lat":40.7182,"long":-73.3543},{"zip":"11713","city":"Bellport","state":"NY","lat":40.7733,"long":-72.9469},{"zip":"11715","city":"Blue Point","state":"NY","lat":40.7501,"long":-73.0352},{"zip":"11716","city":"Bohemia","state":"NY","lat":40.7678,"long":-73.1163},{"zip":"11717","city":"Brentwood","state":"NY","lat":40.7809,"long":-73.2503},{"zip":"11718","city":"Brightwaters","state":"NY","lat":40.728,"long":-73.2646},{"zip":"11719","city":"Brookhaven","state":"NY","lat":40.7843,"long":-72.8921},{"zip":"11720","city":"Centereach","state":"NY","lat":40.8705,"long":-73.0822},{"zip":"11721","city":"Centerport","state":"NY","lat":40.8929,"long":-73.3754},{"zip":"11722","city":"Central Islip","state":"NY","lat":40.7866,"long":-73.1961},{"zip":"11724","city":"Cold Spring Harbor","state":"NY","lat":40.8601,"long":-73.4423},{"zip":"11725","city":"Commack","state":"NY","lat":40.843,"long":-73.2799},{"zip":"11726","city":"Copiague","state":"NY","lat":40.6778,"long":-73.3963},{"zip":"11727","city":"Coram","state":"NY","lat":40.885,"long":-73.0069},{"zip":"11729","city":"Deer Park","state":"NY","lat":40.7591,"long":-73.3257},{"zip":"11730","city":"East Islip","state":"NY","lat":40.7282,"long":-73.1805},{"zip":"11731","city":"East Northport","state":"NY","lat":40.857,"long":-73.3146},{"zip":"11733","city":"East Setauket","state":"NY","lat":40.9426,"long":-73.1116},{"zip":"11738","city":"Farmingville","state":"NY","lat":40.8366,"long":-73.0413},{"zip":"11739","city":"Great River","state":"NY","lat":40.7297,"long":-73.1607},{"zip":"11740","city":"Greenlawn","state":"NY","lat":40.8621,"long":-73.3646},{"zip":"11741","city":"Holbrook","state":"NY","lat":40.7964,"long":-73.0718},{"zip":"11742","city":"Holtsville","state":"NY","lat":40.8105,"long":-73.0416},{"zip":"11743","city":"Huntington","state":"NY","lat":40.8676,"long":-73.4102},{"zip":"11746","city":"Huntington Station","state":"NY","lat":40.8143,"long":-73.3634},{"zip":"11747","city":"Melville","state":"NY","lat":40.7946,"long":-73.403},{"zip":"11749","city":"Islandia","state":"NY","lat":40.8067,"long":-73.1709},{"zip":"11751","city":"Islip","state":"NY","lat":40.7348,"long":-73.2221},{"zip":"11752","city":"Islip Terrace","state":"NY","lat":40.7548,"long":-73.1827},{"zip":"11754","city":"Kings Park","state":"NY","lat":40.8861,"long":-73.2438},{"zip":"11755","city":"Lake Grove","state":"NY","lat":40.8567,"long":-73.1168},{"zip":"11757","city":"Lindenhurst","state":"NY","lat":40.6884,"long":-73.3745},{"zip":"11760","city":"Melville","state":"NY","lat":40.7934,"long":-73.4151},{"zip":"11763","city":"Medford","state":"NY","lat":40.8174,"long":-72.9852},{"zip":"11764","city":"Miller Place","state":"NY","lat":40.9436,"long":-72.9913},{"zip":"11766","city":"Mount Sinai","state":"NY","lat":40.9271,"long":-73.0127},{"zip":"11767","city":"Nesconset","state":"NY","lat":40.8462,"long":-73.1482},{"zip":"11768","city":"Northport","state":"NY","lat":40.9051,"long":-73.3309},{"zip":"11769","city":"Oakdale","state":"NY","lat":40.7382,"long":-73.1297},{"zip":"11770","city":"Ocean Beach","state":"NY","lat":40.6443,"long":-73.1613},{"zip":"11772","city":"Patchogue","state":"NY","lat":40.7609,"long":-72.9871},{"zip":"11775","city":"Melville","state":"NY","lat":40.7934,"long":-73.4151},{"zip":"11776","city":"Port Jefferson Station","state":"NY","lat":40.9136,"long":-73.0464},{"zip":"11777","city":"Port Jefferson","state":"NY","lat":40.9457,"long":-73.0611},{"zip":"11778","city":"Rocky Point","state":"NY","lat":40.9492,"long":-72.9357},{"zip":"11779","city":"Ronkonkoma","state":"NY","lat":40.8083,"long":-73.1305},{"zip":"11780","city":"Saint James","state":"NY","lat":40.8813,"long":-73.1591},{"zip":"11782","city":"Sayville","state":"NY","lat":40.7459,"long":-73.0859},{"zip":"11784","city":"Selden","state":"NY","lat":40.8699,"long":-73.0448},{"zip":"11786","city":"Shoreham","state":"NY","lat":40.9485,"long":-72.8927},{"zip":"11787","city":"Smithtown","state":"NY","lat":40.8542,"long":-73.2138},{"zip":"11788","city":"Hauppauge","state":"NY","lat":40.8231,"long":-73.1958},{"zip":"11789","city":"Sound Beach","state":"NY","lat":40.9567,"long":-72.9742},{"zip":"11790","city":"Stony Brook","state":"NY","lat":40.9068,"long":-73.1277},{"zip":"11792","city":"Wading River","state":"NY","lat":40.952,"long":-72.8348},{"zip":"11794","city":"Stony Brook","state":"NY","lat":40.9257,"long":-73.1409},{"zip":"11795","city":"West Islip","state":"NY","lat":40.7117,"long":-73.3007},{"zip":"11796","city":"West Sayville","state":"NY","lat":40.732,"long":-73.1},{"zip":"11798","city":"Wyandanch","state":"NY","lat":40.7523,"long":-73.3761},{"zip":"11901","city":"Riverhead","state":"NY","lat":40.9262,"long":-72.652},{"zip":"11930","city":"Amagansett","state":"NY","lat":40.9895,"long":-72.0959},{"zip":"11931","city":"Aquebogue","state":"NY","lat":40.9223,"long":-72.6371},{"zip":"11932","city":"Bridgehampton","state":"NY","lat":40.9339,"long":-72.3077},{"zip":"11933","city":"Calverton","state":"NY","lat":40.9297,"long":-72.7423},{"zip":"11934","city":"Center Moriches","state":"NY","lat":40.7997,"long":-72.797},{"zip":"11935","city":"Cutchogue","state":"NY","lat":41.0139,"long":-72.4803},{"zip":"11937","city":"East Hampton","state":"NY","lat":40.993,"long":-72.179},{"zip":"11939","city":"East Marion","state":"NY","lat":41.1264,"long":-72.3419},{"zip":"11940","city":"East Moriches","state":"NY","lat":40.809,"long":-72.7538},{"zip":"11941","city":"Eastport","state":"NY","lat":40.8297,"long":-72.7283},{"zip":"11942","city":"East Quogue","state":"NY","lat":40.8428,"long":-72.5813},{"zip":"11944","city":"Greenport","state":"NY","lat":41.1039,"long":-72.3674},{"zip":"11946","city":"Hampton Bays","state":"NY","lat":40.8726,"long":-72.5202},{"zip":"11947","city":"Jamesport","state":"NY","lat":40.9223,"long":-72.6371},{"zip":"11948","city":"Laurel","state":"NY","lat":40.9674,"long":-72.554},{"zip":"11949","city":"Manorville","state":"NY","lat":40.8421,"long":-72.8002},{"zip":"11950","city":"Mastic","state":"NY","lat":40.8064,"long":-72.8566},{"zip":"11951","city":"Mastic Beach","state":"NY","lat":40.7657,"long":-72.8537},{"zip":"11952","city":"Mattituck","state":"NY","lat":40.9943,"long":-72.5363},{"zip":"11953","city":"Middle Island","state":"NY","lat":40.8782,"long":-72.9525},{"zip":"11954","city":"Montauk","state":"NY","lat":41.0459,"long":-71.944},{"zip":"11955","city":"Moriches","state":"NY","lat":40.8095,"long":-72.8229},{"zip":"11956","city":"New Suffolk","state":"NY","lat":40.9915,"long":-72.4759},{"zip":"11957","city":"Orient","state":"NY","lat":41.1437,"long":-72.2879},{"zip":"11958","city":"Peconic","state":"NY","lat":41.0392,"long":-72.4666},{"zip":"11959","city":"Quogue","state":"NY","lat":40.8226,"long":-72.6012},{"zip":"11960","city":"Remsenburg","state":"NY","lat":40.8086,"long":-72.7064},{"zip":"11961","city":"Ridge","state":"NY","lat":40.9018,"long":-72.8881},{"zip":"11962","city":"Sagaponack","state":"NY","lat":40.9305,"long":-72.2707},{"zip":"11963","city":"Sag Harbor","state":"NY","lat":40.982,"long":-72.3067},{"zip":"11964","city":"Shelter Island","state":"NY","lat":41.064,"long":-72.3366},{"zip":"11965","city":"Shelter Island Heights","state":"NY","lat":41.084,"long":-72.3559},{"zip":"11967","city":"Shirley","state":"NY","lat":40.8015,"long":-72.8676},{"zip":"11968","city":"Southampton","state":"NY","lat":40.9043,"long":-72.4103},{"zip":"11969","city":"Southampton","state":"NY","lat":40.8843,"long":-72.3895},{"zip":"11970","city":"South Jamesport","state":"NY","lat":40.9365,"long":-72.5773},{"zip":"11971","city":"Southold","state":"NY","lat":41.0555,"long":-72.429},{"zip":"11972","city":"Speonk","state":"NY","lat":40.8195,"long":-72.7054},{"zip":"11973","city":"Upton","state":"NY","lat":40.8678,"long":-72.8822},{"zip":"11975","city":"Wainscott","state":"NY","lat":40.9396,"long":-72.2425},{"zip":"11976","city":"Water Mill","state":"NY","lat":40.9209,"long":-72.3491},{"zip":"11977","city":"Westhampton","state":"NY","lat":40.818,"long":-72.6699},{"zip":"11978","city":"Westhampton Beach","state":"NY","lat":40.8295,"long":-72.6473},{"zip":"11980","city":"Yaphank","state":"NY","lat":40.837,"long":-72.9174}]
