[{"zip":"11001","city":"Floral Park","state":"NY","lat":40.7236,"long":-73.7058},{"zip":"11002","city":"Floral Park","state":"NY","lat":40.7237,"long":-73.7049},{"zip":"11003","city":"Elmont","state":"NY","lat":40.6976,"long":-73.7049},{"zip":"11010","city":"Franklin Square","state":"NY","lat":40.701,"long":-73.6758},{"zip":"11020","city":"Great Neck","state":"NY","lat":40.7742,"long":-73.7189},{"zip":"11021","city":"Great Neck","state":"NY","lat":40.7867,"long":-73.727},{"zip":"11022","city":"Great Neck","state":"NY","lat":40.7548,"long":-73.6018},{"zip":"11023","city":"Great Neck","state":"NY","lat":40.7993,"long":-73.7343},{"zip":"11024","city":"Great Neck","state":"NY","lat":40.8171,"long":-73.7416},{"zip":"11026","city":"Great Neck","state":"NY","lat":40.7548,"long":-73.6018},{"zip":"11027","city":"Great Neck","state":"NY","lat":40.8007,"long":-73.7285},{"zip":"11030","city":"Manhasset","state":"NY","lat":40.7934,"long":-73.6888},{"zip":"11040","city":"New Hyde Park","state":"NY","lat":40.7294,"long":-73.6828},{"zip":"11042","city":"New Hyde Park","state":"NY","lat":40.7602,"long":-73.695},{"zip":"11050","city":"Port Washington","state":"NY","lat":40.835,"long":-73.6964},{"zip":"11051","city":"Port Washington","state":"NY","lat":40.7548,"long":-73.6018},{"zip":"11052","city":"Port Washington","state":"NY","lat":40.7548,"long":-73.6018},{"zip":"11053","city":"Port Washington","state":"NY","lat":40.7548,"long":-73.6018},{"zip":"11054","city":"Port Washington","state":"NY","lat":40.7548,"long":-73.6018},{"zip":"11055","city":"Port Washington","state":"NY","lat":40.7548,"long":-73.6018},{"zip":"11096","city":"Inwood","state":"NY","lat":40.6205,"long":-73.7474},{"zip":"11004","city":"Glen Oaks","state":"NY","lat":40.7481,"long":-73.7114},{"zip":"11005","city":"Floral Park","state":"NY","lat":40.7571,"long":-73.7182}]
