[{"zip":"11201","city":"Brooklyn","state":"NY","lat":40.694,"long":-73.9903},{"zip":"11202","city":"Brooklyn","state":"NY","lat":40.6451,"long":-73.945},{"zip":"11203","city":"Brooklyn","state":"NY","lat":40.6505,"long":-73.9349},{"zip":"11204","city":"Brooklyn","state":"NY","lat":40.6179,"long":-73.9856},{"zip":"11205","city":"Brooklyn","state":"NY","lat":40.6924,"long":-73.9666},{"zip":"11206","city":"Brooklyn","state":"NY","lat":40.7012,"long":-73.9436},{"zip":"11207","city":"Brooklyn","state":"NY","lat":40.6705,"long":-73.894},{"zip":"11208","city":"Brooklyn","state":"NY","lat":40.6762,"long":-73.8736},{"zip":"11209","city":"Brooklyn","state":"NY","lat":40.6251,"long":-74.0303},{"zip":"11210","city":"Brooklyn","state":"NY","lat":40.6281,"long":-73.9467},{"zip":"11211","city":"Brooklyn","state":"NY","lat":40.7095,"long":-73.9563},{"zip":"11212","city":"Brooklyn","state":"NY","lat":40.6625,"long":-73.9145},{"zip":"11213","city":"Brooklyn","state":"NY","lat":40.67,"long":-73.9367},{"zip":"11214","city":"Brooklyn","state":"NY","lat":40.6016,"long":-73.9968},{"zip":"11215","city":"Brooklyn","state":"NY","lat":40.6669,"long":-73.9828},{"zip":"11216","city":"Brooklyn","state":"NY","lat":40.6794,"long":-73.9496},{"zip":"11217","city":"Brooklyn","state":"NY","lat":40.6816,"long":-73.9798},{"zip":"11218","city":"Brooklyn","state":"NY","lat":40.6424,"long":-73.9758},{"zip":"11219","city":"Brooklyn","state":"NY","lat":40.6336,"long":-73.996},{"zip":"11220","city":"Brooklyn","state":"NY","lat":40.6412,"long":-74.0133},{"zip":"11221","city":"Brooklyn","state":"NY","lat":40.6907,"long":-73.9274},{"zip":"11222","city":"Brooklyn","state":"NY","lat":40.7272,"long":-73.9498},{"zip":"11223","city":"Brooklyn","state":"NY","lat":40.5979,"long":-73.9743},{"zip":"11224","city":"Brooklyn","state":"NY","lat":40.5767,"long":-73.9884},{"zip":"11225","city":"Brooklyn","state":"NY","lat":40.6628,"long":-73.9546},{"zip":"11226","city":"Brooklyn","state":"NY","lat":40.6467,"long":-73.957},{"zip":"11228","city":"Brooklyn","state":"NY","lat":40.6174,"long":-74.0121},{"zip":"11229","city":"Brooklyn","state":"NY","lat":40.6011,"long":-73.9475},{"zip":"11230","city":"Brooklyn","state":"NY","lat":40.6225,"long":-73.965},{"zip":"11231","city":"Brooklyn","state":"NY","lat":40.6794,"long":-74.0014},{"zip":"11232","city":"Brooklyn","state":"NY","lat":40.6521,"long":-74.0018},{"zip":"11233","city":"Brooklyn","state":"NY","lat":40.6784,"long":-73.9211},{"zip":"11234","city":"Brooklyn","state":"NY","lat":40.6205,"long":-73.9239},{"zip":"11235","city":"Brooklyn","state":"NY","lat":40.5839,"long":-73.9536},{"zip":"11236","city":"Brooklyn","state":"NY","lat":40.6407,"long":-73.9028},{"zip":"11237","city":"Brooklyn","state":"NY","lat":40.7006,"long":-73.918},{"zip":"11238","city":"Brooklyn","state":"NY","lat":40.679,"long":-73.9644},{"zip":"11239","city":"Brooklyn","state":"NY","lat":40.6497,"long":-73.8824},{"zip":"11241","city":"Brooklyn","state":"NY","lat":40.6451,"long":-73.945},{"zip":"11242","city":"Brooklyn","state":"NY","lat":40.6451,"long":-73.945},{"zip":"11243","city":"Brooklyn","state":"NY","lat":40.6451,"long":-73.945},{"zip":"11245","city":"Brooklyn","state":"NY","lat":40.6451,"long":-73.945},{"zip":"11247","city":"Brooklyn","state":"NY","lat":40.6451,"long":-73.945},{"zip":"11249","city":"Brooklyn","state":"NY","lat":40.6451,"long":-73.945},{"zip":"11251","city":"Brooklyn","state":"NY","lat":40.6451,"long":-73.945},{"zip":"11252","city":"Brooklyn","state":"NY","lat":40.6451,"long":-73.945},{"zip":"11256","city":"Brooklyn","state":"NY","lat":40.6451,"long":-73.945}]
