[{"zip":"11351","city":"Flushing","state":"NY","lat":40.7817,"long":-73.8317},{"zip":"11352","city":"Flushing","state":"NY","lat":40.6514,"long":-73.8708},{"zip":"11354","city":"Flushing","state":"NY","lat":40.7667,"long":-73.8241},{"zip":"11355","city":"Flushing","state":"NY","lat":40.7536,"long":-73.8226},{"zip":"11356","city":"College Point","state":"NY","lat":40.7855,"long":-73.845},{"zip":"11357","city":"Whitestone","state":"NY","lat":40.7851,"long":-73.8096},{"zip":"11358","city":"Flushing","state":"NY","lat":40.7606,"long":-73.7968},{"zip":"11359","city":"Bayside","state":"NY","lat":40.7928,"long":-73.7767},{"zip":"11360","city":"Bayside","state":"NY","lat":40.7807,"long":-73.7812},{"zip":"11361","city":"Bayside","state":"NY","lat":40.7627,"long":-73.7745},{"zip":"11362","city":"Little Neck","state":"NY","lat":40.7591,"long":-73.7326},{"zip":"11363","city":"Little Neck","state":"NY","lat":40.7722,"long":-73.7454},{"zip":"11364","city":"Oakland Gardens","state":"NY","lat":40.7428,"long":-73.7588},{"zip":"11365","city":"Fresh Meadows","state":"NY","lat":40.7374,"long":-73.7951},{"zip":"11366","city":"Fresh Meadows","state":"NY","lat":40.7272,"long":-73.7949},{"zip":"11367","city":"Flushing","state":"NY","lat":40.728,"long":-73.8195},{"zip":"11368","city":"Corona","state":"NY","lat":40.7453,"long":-73.8611},{"zip":"11369","city":"East Elmhurst","state":"NY","lat":40.7613,"long":-73.8739},{"zip":"11370","city":"East Elmhurst","state":"NY","lat":40.7611,"long":-73.8916},{"zip":"11371","city":"Flushing","state":"NY","lat":40.7721,"long":-73.8735},{"zip":"11372","city":"Jackson Heights","state":"NY","lat":40.7513,"long":-73.883},{"zip":"11373","city":"Elmhurst","state":"NY","lat":40.7351,"long":-73.8776},{"zip":"11374","city":"Rego Park","state":"NY","lat":40.7278,"long":-73.8602},{"zip":"11375","city":"Forest Hills","state":"NY","lat":40.7229,"long":-73.8473},{"zip":"11377","city":"Woodside","state":"NY","lat":40.745,"long":-73.9069},{"zip":"11378","city":"Maspeth","state":"NY","lat":40.7239,"long":-73.8997},{"zip":"11379","city":"Middle Village","state":"NY","lat":40.7173,"long":-73.8792},{"zip":"11380","city":"Elmhurst","state":"NY","lat":40.7365,"long":-73.8779},{"zip":"11381","city":"Flushing","state":"NY","lat":40.6514,"long":-73.8708},{"zip":"11385","city":"Ridgewood","state":"NY","lat":40.7036,"long":-73.8961},{"zip":"11386","city":"Ridgewood","state":"NY","lat":40.7001,"long":-73.9057}]
