[{"zip":"11405","city":"Jamaica","state":"NY","lat":40.6514,"long":-73.8708},{"zip":"11411","city":"Cambria Heights","state":"NY","lat":40.6947,"long":-73.7374},{"zip":"11412","city":"Saint Albans","state":"NY","lat":40.6958,"long":-73.7617},{"zip":"11413","city":"Springfield Gardens","state":"NY","lat":40.6645,"long":-73.7559},{"zip":"11414","city":"Howard Beach","state":"NY","lat":40.6588,"long":-73.8438},{"zip":"11415","city":"Kew Gardens","state":"NY","lat":40.7069,"long":-73.8297},{"zip":"11416","city":"Ozone Park","state":"NY","lat":40.6838,"long":-73.8514},{"zip":"11417","city":"Ozone Park","state":"NY","lat":40.6769,"long":-73.8448},{"zip":"11418","city":"Richmond Hill","state":"NY","lat":40.6982,"long":-73.8345},{"zip":"11419","city":"South Richmond Hill","state":"NY","lat":40.6868,"long":-73.823},{"zip":"11420","city":"South Ozone Park","state":"NY","lat":40.6744,"long":-73.819},{"zip":"11421","city":"Woodhaven","state":"NY","lat":40.6913,"long":-73.8585},{"zip":"11422","city":"Rosedale","state":"NY","lat":40.6621,"long":-73.7353},{"zip":"11423","city":"Hollis","state":"NY","lat":40.7142,"long":-73.7677},{"zip":"11424","city":"Jamaica","state":"NY","lat":40.6514,"long":-73.8708},{"zip":"11425","city":"Jamaica","state":"NY","lat":40.6514,"long":-73.8708},{"zip":"11426","city":"Bellerose","state":"NY","lat":40.7347,"long":-73.723},{"zip":"11427","city":"Queens Village","state":"NY","lat":40.7277,"long":-73.7489},{"zip":"11428","city":"Queens Village","state":"NY","lat":40.7208,"long":-73.7433},{"zip":"11429","city":"Queens Village","state":"NY","lat":40.709,"long":-73.7401},{"zip":"11430","city":"Jamaica","state":"NY","lat":40.6472,"long":-73.7827},{"zip":"11431","city":"Jamaica","state":"NY","lat":40.6869,"long":-73.8501},{"zip":"11432","city":"Jamaica","state":"NY","lat":40.7119,"long":-73.7944},{"zip":"11433","city":"Jamaica","state":"NY","lat":40.6969,"long":-73.7877},{"zip":"11434","city":"Jamaica","state":"NY","lat":40.6775,"long":-73.7758},{"zip":"11435","city":"Jamaica","state":"NY","lat":40.7029,"long":-73.8111},{"zip":"11436","city":"Jamaica","state":"NY","lat":40.6763,"long":-73.7966},{"zip":"11439","city":"Jamaica","state":"NY","lat":40.722,"long":-73.7908},{"zip":"11451","city":"Jamaica","state":"NY","lat":40.6514,"long":-73.8708},{"zip":"11499","city":"Jamaica","state":"NY","lat":40.6514,"long":-73.8708}]
