[{"zip":"11501","city":"Mineola","state":"NY","lat":40.7469,"long":-73.6398},{"zip":"11507","city":"Albertson","state":"NY","lat":40.7703,"long":-73.6514},{"zip":"11509","city":"Atlantic Beach","state":"NY","lat":40.5887,"long":-73.7255},{"zip":"11510","city":"Baldwin","state":"NY","lat":40.6548,"long":-73.6097},{"zip":"11514","city":"Carle Place","state":"NY","lat":40.7512,"long":-73.6119},{"zip":"11516","city":"Cedarhurst","state":"NY","lat":40.6236,"long":-73.7264},{"zip":"11518","city":"East Rockaway","state":"NY","lat":40.6404,"long":-73.6674},{"zip":"11520","city":"Freeport","state":"NY","lat":40.6536,"long":-73.5866},{"zip":"11530","city":"Garden City","state":"NY","lat":40.7245,"long":-73.6487},{"zip":"11531","city":"Garden City","state":"NY","lat":40.7268,"long":-73.6343},{"zip":"11542","city":"Glen Cove","state":"NY","lat":40.865,"long":-73.6277},{"zip":"11545","city":"Glen Head","state":"NY","lat":40.8281,"long":-73.6076},{"zip":"11547","city":"Glenwood Landing","state":"NY","lat":40.7548,"long":-73.6018},{"zip":"11548","city":"Greenvale","state":"NY","lat":40.8125,"long":-73.6261},{"zip":"11549","city":"Hempstead","state":"NY","lat":40.7172,"long":-73.6027},{"zip":"11550","city":"Hempstead","state":"NY","lat":40.7049,"long":-73.6176},{"zip":"11551","city":"Hempstead","state":"NY","lat":40.7062,"long":-73.6187},{"zip":"11552","city":"West Hempstead","state":"NY","lat":40.6929,"long":-73.6539},{"zip":"11553","city":"Uniondale","state":"NY","lat":40.702,"long":-73.592},{"zip":"11554","city":"East Meadow","state":"NY","lat":40.7149,"long":-73.5561},{"zip":"11555","city":"Uniondale","state":"NY","lat":40.7004,"long":-73.5929},{"zip":"11556","city":"Uniondale","state":"NY","lat":40.7548,"long":-73.6018},{"zip":"11557","city":"Hewlett","state":"NY","lat":40.6404,"long":-73.6957},{"zip":"11558","city":"Island Park","state":"NY","lat":40.604,"long":-73.6554},{"zip":"11559","city":"Lawrence","state":"NY","lat":40.614,"long":-73.733},{"zip":"11560","city":"Locust Valley","state":"NY","lat":40.8817,"long":-73.5927},{"zip":"11561","city":"Long Beach","state":"NY","lat":40.5877,"long":-73.6595},{"zip":"11563","city":"Lynbrook","state":"NY","lat":40.6571,"long":-73.6741},{"zip":"11565","city":"Malverne","state":"NY","lat":40.675,"long":-73.6731},{"zip":"11566","city":"Merrick","state":"NY","lat":40.6685,"long":-73.5536},{"zip":"11568","city":"Old Westbury","state":"NY","lat":40.7882,"long":-73.5875},{"zip":"11569","city":"Point Lookout","state":"NY","lat":40.5905,"long":-73.5808},{"zip":"11570","city":"Rockville Centre","state":"NY","lat":40.6637,"long":-73.638},{"zip":"11571","city":"Rockville Centre","state":"NY","lat":40.6587,"long":-73.6412},{"zip":"11572","city":"Oceanside","state":"NY","lat":40.6362,"long":-73.6375},{"zip":"11575","city":"Roosevelt","state":"NY","lat":40.6802,"long":-73.5867},{"zip":"11576","city":"Roslyn","state":"NY","lat":40.7984,"long":-73.6477},{"zip":"11577","city":"Roslyn Heights","state":"NY","lat":40.7845,"long":-73.6403},{"zip":"11579","city":"Sea Cliff","state":"NY","lat":40.846,"long":-73.6436},{"zip":"11580","city":"Valley Stream","state":"NY","lat":40.6742,"long":-73.7057},{"zip":"11581","city":"Valley Stream","state":"NY","lat":40.6523,"long":-73.7118},{"zip":"11582","city":"Valley Stream","state":"NY","lat":40.6643,"long":-73.7085},{"zip":"11590","city":"Westbury","state":"NY","lat":40.7557,"long":-73.5723},{"zip":"11596","city":"Williston Park","state":"NY","lat":40.7592,"long":-73.6449},{"zip":"11598","city":"Woodmere","state":"NY","lat":40.6326,"long":-73.7141},{"zip":"11599","city":"Garden City","state":"NY","lat":40.7268,"long":-73.6343}]
