[{"zip":"11709","city":"Bayville","state":"NY","lat":40.9074,"long":-73.5601},{"zip":"11710","city":"Bellmore","state":"NY","lat":40.6729,"long":-73.5365},{"zip":"11714","city":"Bethpage","state":"NY","lat":40.74,"long":-73.4857},{"zip":"11732","city":"East Norwich","state":"NY","lat":40.8472,"long":-73.5349},{"zip":"11735","city":"Farmingdale","state":"NY","lat":40.7315,"long":-73.4327},{"zip":"11737","city":"Farmingdale","state":"NY","lat":40.7326,"long":-73.4454},{"zip":"11753","city":"Jericho","state":"NY","lat":40.7881,"long":-73.5331},{"zip":"11756","city":"Levittown","state":"NY","lat":40.7254,"long":-73.5166},{"zip":"11758","city":"Massapequa","state":"NY","lat":40.6682,"long":-73.4588},{"zip":"11762","city":"Massapequa Park","state":"NY","lat":40.6807,"long":-73.4444},{"zip":"11765","city":"Mill Neck","state":"NY","lat":40.8857,"long":-73.5526},{"zip":"11771","city":"Oyster Bay","state":"NY","lat":40.866,"long":-73.5272},{"zip":"11773","city":"Syosset","state":"NY","lat":40.8262,"long":-73.5021},{"zip":"11783","city":"Seaford","state":"NY","lat":40.6795,"long":-73.491},{"zip":"11791","city":"Syosset","state":"NY","lat":40.8146,"long":-73.5024},{"zip":"11793","city":"Wantagh","state":"NY","lat":40.685,"long":-73.5103},{"zip":"11797","city":"Woodbury","state":"NY","lat":40.8154,"long":-73.4716},{"zip":"11701","city":"Amityville","state":"NY","lat":40.6842,"long":-73.4171},{"zip":"11702","city":"Babylon","state":"NY","lat":40.6957,"long":-73.3257},{"zip":"11703","city":"North Babylon","state":"NY","lat":40.7321,"long":-73.3236},{"zip":"11704","city":"West Babylon","state":"NY","lat":40.7135,"long":-73.3546},{"zip":"11705","city":"Bayport","state":"NY","lat":40.7444,"long":-73.0542},{"zip":"11706","city":"Bay Shore","state":"NY","lat":40.7051,"long":-73.243},{"zip":"11707","city":"West Babylon","state":"NY","lat":40.7182,"long":-73.3543},{"zip":"11713","city":"Bellport","state":"NY","lat":40.7733,"long":-72.9469},{"zip":"11715","city":"Blue Point","state":"NY","lat":40.7501,"long":-73.0352},{"zip":"11716","city":"Bohemia","state":"NY","lat":40.7678,"long":-73.1163},{"zip":"11717","city":"Brentwood","state":"NY","lat":40.7809,"long":-73.2503},{"zip":"11718","city":"Brightwaters","state":"NY","lat":40.728,"long":-73.2646},{"zip":"11719","city":"Brookhaven","state":"NY","lat":40.7843,"long":-72.8921},{"zip":"11720","city":"Centereach","state":"NY","lat":40.8705,"long":-73.0822},{"zip":"11721","city":"Centerport","state":"NY","lat":40.8929,"long":-73.3754},{"zip":"11722","city":"Central Islip","state":"NY","lat":40.7866,"long":-73.1961},{"zip":"11724","city":"Cold Spring Harbor","state":"NY","lat":40.8601,"long":-73.4423},{"zip":"11725","city":"Commack","state":"NY","lat":40.843,"long":-73.2799},{"zip":"11726","city":"Copiague","state":"NY","lat":40.6778,"long":-73.3963},{"zip":"11727","city":"Coram","state":"NY","lat":40.885,"long":-73.0069},{"zip":"11729","city":"Deer Park","state":"NY","lat":40.7591,"long":-73.3257},{"zip":"11730","city":"East Islip","state":"NY","lat":40.7282,"long":-73.1805},{"zip":"11731","city":"East Northport","state":"NY","lat":40.857,"long":-73.3146},{"zip":"11733","city":"East Setauket","state":"NY","lat":40.9426,"long":-73.1116},{"zip":"11738","city":"Farmingville","state":"NY","lat":40.8366,"long":-73.0413},{"zip":"11739","city":"Great River","state":"NY","lat":40.7297,"long":-73.1607},{"zip":"11740","city":"Greenlawn","state":"NY","lat":40.8621,"long":-73.3646},{"zip":"11741","city":"Holbrook","state":"NY","lat":40.7964,"long":-73.0718},{"zip":"11742","city":"Holtsville","state":"NY","lat":40.8105,"long":-73.0416},{"zip":"11743","city":"Huntington","state":"NY","lat":40.8676,"long":-73.4102},{"zip":"11746","city":"Huntington Station","state":"NY","lat":40.8143,"long":-73.3634},{"zip":"11747","city":"Melville","state":"NY","lat":40.7946,"long":-73.403},{"zip":"11749","city":"Islandia","state":"NY","lat":40.8067,"long":-73.1709},{"zip":"11751","city":"Islip","state":"NY","lat":40.7348,"long":-73.2221},{"zip":"11752","city":"Islip Terrace","state":"NY","lat":40.7548,"long":-73.1827},{"zip":"11754","city":"Kings Park","state":"NY","lat":40.8861,"long":-73.2438},{"zip":"11755","city":"Lake Grove","state":"NY","lat":40.8567,"long":-73.1168},{"zip":"11757","city":"Lindenhurst","state":"NY","lat":40.6884,"long":-73.3745},{"zip":"11760","city":"Melville","state":"NY","lat":40.7934,"long":-73.4151},{"zip":"11763","city":"Medford","state":"NY","lat":40.8174,"long":-72.9852},{"zip":"11764","city":"Miller Place","state":"NY","lat":40.9436,"long":-72.9913},{"zip":"11766","city":"Mount Sinai","state":"NY","lat":40.9271,"long":-73.0127},{"zip":"11767","city":"Nesconset","state":"NY","lat":40.8462,"long":-73.1482},{"zip":"11768","city":"Northport","state":"NY","lat":40.9051,"long":-73.3309},{"zip":"11769","city":"Oakdale","state":"NY","lat":40.7382,"long":-73.1297},{"zip":"11770","city":"Ocean Beach","state":"NY","lat":40.6443,"long":-73.1613},{"zip":"11772","city":"Patchogue","state":"NY","lat":40.7609,"long":-72.9871},{"zip":"11775","city":"Melville","state":"NY","lat":40.7934,"long":-73.4151},{"zip":"11776","city":"Port Jefferson Station","state":"NY","lat":40.9136,"long":-73.0464},{"zip":"11777","city":"Port Jefferson","state":"NY","lat":40.9457,"long":-73.0611},{"zip":"11778","city":"Rocky Point","state":"NY","lat":40.9492,"long":-72.9357},{"zip":"11779","city":"Ronkonkoma","state":"NY","lat":40.8083,"long":-73.1305},{"zip":"11780","city":"Saint James","state":"NY","lat":40.8813,"long":-73.1591},{"zip":"11782","city":"Sayville","state":"NY","lat":40.7459,"long":-73.0859},{"zip":"11784","city":"Selden","state":"NY","lat":40.8699,"long":-73.0448},{"zip":"11786","city":"Shoreham","state":"NY","lat":40.9485,"long":-72.8927},{"zip":"11787","city":"Smithtown","state":"NY","lat":40.8542,"long":-73.2138},{"zip":"11788","city":"Hauppauge","state":"NY","lat":40.8231,"long":-73.1958},{"zip":"11789","city":"Sound Beach","state":"NY","lat":40.9567,"long":-72.9742},{"zip":"11790","city":"Stony Brook","state":"NY","lat":40.9068,"long":-73.1277},{"zip":"11792","city":"Wading River","state":"NY","lat":40.952,"long":-72.8348},{"zip":"11794","city":"Stony Brook","state":"NY","lat":40.9257,"long":-73.1409},{"zip":"11795","city":"West Islip","state":"NY","lat":40.7117,"long":-73.3007},{"zip":"11796","city":"West Sayville","state":"NY","lat":40.732,"long":-73.1},{"zip":"11798","city":"Wyandanch","state":"NY","lat":40.7523,"long":-73.3761}]
