[{"zip":"12007","city":"Alcove","state":"NY","lat":42.4561,"long":-73.9277},{"zip":"12009","city":"Altamont","state":"NY","lat":42.7063,"long":-74.0193},{"zip":"12023","city":"Berne","state":"NY","lat":42.6108,"long":-74.1466},{"zip":"12041","city":"Clarksville","state":"NY","lat":42.5759,"long":-73.964},{"zip":"12045","city":"Coeymans","state":"NY","lat":42.4757,"long":-73.7977},{"zip":"12046","city":"Coeymans Hollow","state":"NY","lat":42.4865,"long":-73.9206},{"zip":"12047","city":"Cohoes","state":"NY","lat":42.7754,"long":-73.7124},{"zip":"12054","city":"Delmar","state":"NY","lat":42.6158,"long":-73.8373},{"zip":"12055","city":"Dormansville","state":"NY","lat":42.6149,"long":-73.9708},{"zip":"12059","city":"East Berne","state":"NY","lat":42.6191,"long":-74.0555},{"zip":"12067","city":"Feura Bush","state":"NY","lat":42.555,"long":-73.9237},{"zip":"12077","city":"Glenmont","state":"NY","lat":42.5971,"long":-73.7959},{"zip":"12084","city":"Guilderland","state":"NY","lat":42.6973,"long":-73.8975},{"zip":"12085","city":"Guilderland Center","state":"NY","lat":42.6948,"long":-73.9053},{"zip":"12107","city":"Knox","state":"NY","lat":42.66,"long":-74.1168},{"zip":"12110","city":"Latham","state":"NY","lat":42.7462,"long":-73.763},{"zip":"12120","city":"Medusa","state":"NY","lat":42.4515,"long":-74.1315},{"zip":"12128","city":"Newtonville","state":"NY","lat":42.725,"long":-73.7643},{"zip":"12143","city":"Ravena","state":"NY","lat":42.4754,"long":-73.822},{"zip":"12147","city":"Rensselaerville","state":"NY","lat":42.5133,"long":-74.1474},{"zip":"12158","city":"Selkirk","state":"NY","lat":42.5486,"long":-73.8129},{"zip":"12159","city":"Slingerlands","state":"NY","lat":42.6485,"long":-73.8711},{"zip":"12161","city":"South Bethlehem","state":"NY","lat":42.5317,"long":-73.8473},{"zip":"12183","city":"Troy","state":"NY","lat":42.746,"long":-73.6943},{"zip":"12186","city":"Voorheesville","state":"NY","lat":42.6431,"long":-73.9448},{"zip":"12189","city":"Watervliet","state":"NY","lat":42.7298,"long":-73.7123},{"zip":"12193","city":"Westerlo","state":"NY","lat":42.5156,"long":-74.0394},{"zip":"12201","city":"Albany","state":"NY","lat":42.6526,"long":-73.7562},{"zip":"12202","city":"Albany","state":"NY","lat":42.6413,"long":-73.7641},{"zip":"12203","city":"Albany","state":"NY","lat":42.7003,"long":-73.8575},{"zip":"12204","city":"Albany","state":"NY","lat":42.6847,"long":-73.7354},{"zip":"12205","city":"Albany","state":"NY","lat":42.7198,"long":-73.8207},{"zip":"12206","city":"Albany","state":"NY","lat":42.6683,"long":-73.7744},{"zip":"12207","city":"Albany","state":"NY","lat":42.6526,"long":-73.7562},{"zip":"12208","city":"Albany","state":"NY","lat":42.656,"long":-73.7964},{"zip":"12209","city":"Albany","state":"NY","lat":42.6417,"long":-73.7854},{"zip":"12210","city":"Albany","state":"NY","lat":42.6568,"long":-73.7605},{"zip":"12211","city":"Albany","state":"NY","lat":42.713,"long":-73.7739},{"zip":"12212","city":"Albany","state":"NY","lat":42.7168,"long":-73.8104},{"zip":"12214","city":"Albany","state":"NY","lat":42.6526,"long":-73.7562},{"zip":"12220","city":"Albany","state":"NY","lat":42.6526,"long":-73.7562},{"zip":"12222","city":"Albany","state":"NY","lat":42.6853,"long":-73.8253},{"zip":"12223","city":"Albany","state":"NY","lat":42.6526,"long":-73.7562},{"zip":"12224","city":"Albany","state":"NY","lat":42.6526,"long":-73.7562},{"zip":"12225","city":"Albany","state":"NY","lat":42.6526,"long":-73.7562},{"zip":"12226","city":"Albany","state":"NY","lat":42.6526,"long":-73.7562},{"zip":"12227","city":"Albany","state":"NY","lat":42.6526,"long":-73.7562},{"zip":"12228","city":"Albany","state":"NY","lat":42.6526,"long":-73.7562},{"zip":"12229","city":"Albany","state":"NY","lat":42.6526,"long":-73.7562},{"zip":"12230","city":"Albany","state":"NY","lat":42.6526,"long":-73.7562},{"zip":"12231","city":"Albany","state":"NY","lat":42.6526,"long":-73.7562},{"zip":"12232","city":"Albany","state":"NY","lat":42.6526,"long":-73.7562},{"zip":"12233","city":"Albany","state":"NY","lat":42.6526,"long":-73.7562},{"zip":"12234","city":"Albany","state":"NY","lat":42.6526,"long":-73.7562},{"zip":"12235","city":"Albany","state":"NY","lat":42.6526,"long":-73.7562},{"zip":"12236","city":"Albany","state":"NY","lat":42.6526,"long":-73.7562},{"zip":"12237","city":"Albany","state":"NY","lat":42.6526,"long":-73.7562},{"zip":"12238","city":"Albany","state":"NY","lat":42.6526,"long":-73.7562},{"zip":"12239","city":"Albany","state":"NY","lat":42.6526,"long":-73.7562},{"zip":"12240","city":"Albany","state":"NY","lat":42.6526,"long":-73.7562},{"zip":"12241","city":"Albany","state":"NY","lat":42.6526,"long":-73.7562},{"zip":"12242","city":"Albany","state":"NY","lat":42.6526,"long":-73.7562},{"zip":"12243","city":"Albany","state":"NY","lat":42.6526,"long":-73.7562},{"zip":"12244","city":"Albany","state":"NY","lat":42.6526,"long":-73.7562},{"zip":"12245","city":"Albany","state":"NY","lat":42.6526,"long":-73.7562},{"zip":"12246","city":"Albany","state":"NY","lat":42.6471,"long":-73.7503},{"zip":"12247","city":"Albany","state":"NY","lat":42.6526,"long":-73.7562},{"zip":"12248","city":"Albany","state":"NY","lat":42.6526,"long":-73.7562},{"zip":"12249","city":"Albany","state":"NY","lat":42.6526,"long":-73.7562},{"zip":"12250","city":"Albany","state":"NY","lat":42.6526,"long":-73.7562},{"zip":"12252","city":"Albany","state":"NY","lat":42.6526,"long":-73.7562},{"zip":"12255","city":"Albany","state":"NY","lat":42.6526,"long":-73.7562},{"zip":"12256","city":"Albany","state":"NY","lat":42.6526,"long":-73.7562},{"zip":"12257","city":"Albany","state":"NY","lat":42.6526,"long":-73.7562},{"zip":"12260","city":"Albany","state":"NY","lat":42.6526,"long":-73.7562},{"zip":"12261","city":"Albany","state":"NY","lat":42.6526,"long":-73.7562},{"zip":"12288","city":"Albany","state":"NY","lat":42.6526,"long":-73.7562},{"zip":"12469","city":"Preston Hollow","state":"NY","lat":42.4563,"long":-74.242},{"zip":"12901","city":"Plattsburgh","state":"NY","lat":44.6927,"long":-73.466},{"zip":"12903","city":"Plattsburgh","state":"NY","lat":44.6854,"long":-73.4474},{"zip":"12910","city":"Altona","state":"NY","lat":44.8816,"long":-73.6408},{"zip":"12911","city":"Keeseville","state":"NY","lat":44.5281,"long":-73.4719},{"zip":"12912","city":"Au Sable Forks","state":"NY","lat":44.4499,"long":-73.6857},{"zip":"12918","city":"Cadyville","state":"NY","lat":44.6862,"long":-73.6702},{"zip":"12919","city":"Champlain","state":"NY","lat":44.9773,"long":-73.4466},{"zip":"12921","city":"Chazy","state":"NY","lat":44.8884,"long":-73.4501},{"zip":"12923","city":"Churubusco","state":"NY","lat":44.9432,"long":-73.9355},{"zip":"12924","city":"Keeseville","state":"NY","lat":44.4777,"long":-73.5843},{"zip":"12929","city":"Dannemora","state":"NY","lat":44.72,"long":-73.7192},{"zip":"12933","city":"Ellenburg","state":"NY","lat":44.882,"long":-73.9633},{"zip":"12934","city":"Ellenburg Center","state":"NY","lat":44.8444,"long":-73.8685},{"zip":"12935","city":"Ellenburg Depot","state":"NY","lat":44.9163,"long":-73.7876},{"zip":"12952","city":"Lyon Mountain","state":"NY","lat":44.7255,"long":-73.9195},{"zip":"12955","city":"Lyon Mountain","state":"NY","lat":44.8043,"long":-73.973},{"zip":"12958","city":"Mooers","state":"NY","lat":44.9592,"long":-73.5834},{"zip":"12959","city":"Mooers Forks","state":"NY","lat":44.9602,"long":-73.673},{"zip":"12962","city":"Morrisonville","state":"NY","lat":44.6894,"long":-73.5772},{"zip":"12972","city":"Peru","state":"NY","lat":44.5851,"long":-73.5293},{"zip":"12978","city":"Redford","state":"NY","lat":44.6164,"long":-73.8087},{"zip":"12979","city":"Rouses Point","state":"NY","lat":44.9884,"long":-73.3691},{"zip":"12981","city":"Saranac","state":"NY","lat":44.7032,"long":-73.7481},{"zip":"12985","city":"Schuyler Falls","state":"NY","lat":44.6287,"long":-73.5579},{"zip":"12992","city":"West Chazy","state":"NY","lat":44.797,"long":-73.5112},{"zip":"12017","city":"Austerlitz","state":"NY","lat":42.3223,"long":-73.455},{"zip":"12029","city":"Canaan","state":"NY","lat":42.4132,"long":-73.4159},{"zip":"12037","city":"Chatham","state":"NY","lat":42.3496,"long":-73.5873},{"zip":"12050","city":"Columbiaville","state":"NY","lat":42.3172,"long":-73.7486},{"zip":"12060","city":"East Chatham","state":"NY","lat":42.433,"long":-73.4903},{"zip":"12075","city":"Ghent","state":"NY","lat":42.3036,"long":-73.6486},{"zip":"12106","city":"Kinderhook","state":"NY","lat":42.3767,"long":-73.7183},{"zip":"12115","city":"Malden Bridge","state":"NY","lat":42.4725,"long":-73.5807},{"zip":"12125","city":"New Lebanon","state":"NY","lat":42.4759,"long":-73.3773},{"zip":"12130","city":"Niverville","state":"NY","lat":42.44,"long":-73.6663},{"zip":"12132","city":"North Chatham","state":"NY","lat":42.4705,"long":-73.63},{"zip":"12136","city":"Old Chatham","state":"NY","lat":42.4357,"long":-73.5545},{"zip":"12165","city":"Spencertown","state":"NY","lat":42.3091,"long":-73.5008},{"zip":"12172","city":"Stottville","state":"NY","lat":42.2857,"long":-73.7335},{"zip":"12173","city":"Stuyvesant","state":"NY","lat":42.3596,"long":-73.7613},{"zip":"12174","city":"Stuyvesant Falls","state":"NY","lat":42.344,"long":-73.7348},{"zip":"12184","city":"Valatie","state":"NY","lat":42.4321,"long":-73.6683},{"zip":"12195","city":"West Lebanon","state":"NY","lat":42.4862,"long":-73.4662},{"zip":"12502","city":"Ancram","state":"NY","lat":42.0851,"long":-73.6424},{"zip":"12503","city":"Ancramdale","state":"NY","lat":42.0381,"long":-73.5819},{"zip":"12513","city":"Claverack","state":"NY","lat":42.2251,"long":-73.7346},{"zip":"12516","city":"Copake","state":"NY","lat":42.1113,"long":-73.5526},{"zip":"12517","city":"Copake Falls","state":"NY","lat":42.1367,"long":-73.5108},{"zip":"12521","city":"Craryville","state":"NY","lat":42.176,"long":-73.6571},{"zip":"12523","city":"Elizaville","state":"NY","lat":42.0902,"long":-73.7818},{"zip":"12526","city":"Germantown","state":"NY","lat":42.1219,"long":-73.8625},{"zip":"12529","city":"Hillsdale","state":"NY","lat":42.1868,"long":-73.5483},{"zip":"12530","city":"Hollowville","state":"NY","lat":42.2054,"long":-73.6912},{"zip":"12534","city":"Hudson","state":"NY","lat":42.247,"long":-73.7552},{"zip":"12541","city":"Livingston","state":"NY","lat":42.1421,"long":-73.7574},{"zip":"12544","city":"Mellenville","state":"NY","lat":42.2596,"long":-73.668},{"zip":"12565","city":"Philmont","state":"NY","lat":42.2485,"long":-73.6463},{"zip":"12167","city":"Stamford","state":"NY","lat":42.4174,"long":-74.6098},{"zip":"12406","city":"Arkville","state":"NY","lat":42.1417,"long":-74.5721},{"zip":"12421","city":"Denver","state":"NY","lat":42.2522,"long":-74.5407},{"zip":"12430","city":"Fleischmanns","state":"NY","lat":42.1772,"long":-74.5473},{"zip":"12434","city":"Grand Gorge","state":"NY","lat":42.362,"long":-74.494},{"zip":"12438","city":"Halcottsville","state":"NY","lat":42.2079,"long":-74.6012},{"zip":"12455","city":"Margaretville","state":"NY","lat":42.1852,"long":-74.6178},{"zip":"12459","city":"New Kingston","state":"NY","lat":42.2094,"long":-74.6837},{"zip":"12474","city":"Roxbury","state":"NY","lat":42.2957,"long":-74.5631},{"zip":"12501","city":"Amenia","state":"NY","lat":41.8447,"long":-73.5542},{"zip":"12504","city":"Annandale On Hudson","state":"NY","lat":42.0354,"long":-73.9092},{"zip":"12506","city":"Bangall","state":"NY","lat":41.8756,"long":-73.6912},{"zip":"12507","city":"Barrytown","state":"NY","lat":42.0005,"long":-73.9199},{"zip":"12508","city":"Beacon","state":"NY","lat":41.5097,"long":-73.9634},{"zip":"12510","city":"Billings","state":"NY","lat":41.6712,"long":-73.7632},{"zip":"12511","city":"Castle Point","state":"NY","lat":41.5462,"long":-73.9596},{"zip":"12512","city":"Chelsea","state":"NY","lat":41.5528,"long":-73.9682},{"zip":"12514","city":"Clinton Corners","state":"NY","lat":41.8693,"long":-73.7659},{"zip":"12522","city":"Dover Plains","state":"NY","lat":41.7351,"long":-73.587},{"zip":"12524","city":"Fishkill","state":"NY","lat":41.5404,"long":-73.8979},{"zip":"12527","city":"Glenham","state":"NY","lat":41.5202,"long":-73.9333},{"zip":"12531","city":"Holmes","state":"NY","lat":41.5325,"long":-73.6628},{"zip":"12533","city":"Hopewell Junction","state":"NY","lat":41.5603,"long":-73.7939},{"zip":"12537","city":"Hughsonville","state":"NY","lat":41.5824,"long":-73.9363},{"zip":"12538","city":"Hyde Park","state":"NY","lat":41.7887,"long":-73.9063},{"zip":"12540","city":"Lagrangeville","state":"NY","lat":41.6615,"long":-73.745},{"zip":"12545","city":"Millbrook","state":"NY","lat":41.7803,"long":-73.6885},{"zip":"12546","city":"Millerton","state":"NY","lat":41.9536,"long":-73.5287},{"zip":"12564","city":"Pawling","state":"NY","lat":41.5749,"long":-73.5948},{"zip":"12567","city":"Pine Plains","state":"NY","lat":41.9896,"long":-73.6602},{"zip":"12569","city":"Pleasant Valley","state":"NY","lat":41.747,"long":-73.8143},{"zip":"12570","city":"Poughquag","state":"NY","lat":41.6194,"long":-73.6783},{"zip":"12571","city":"Red Hook","state":"NY","lat":42.0064,"long":-73.8546},{"zip":"12572","city":"Rhinebeck","state":"NY","lat":41.9272,"long":-73.8888},{"zip":"12574","city":"Rhinecliff","state":"NY","lat":41.9151,"long":-73.9517},{"zip":"12578","city":"Salt Point","state":"NY","lat":41.805,"long":-73.8013},{"zip":"12580","city":"Staatsburg","state":"NY","lat":41.8502,"long":-73.8988},{"zip":"12581","city":"Stanfordville","state":"NY","lat":41.8877,"long":-73.6945},{"zip":"12582","city":"Stormville","state":"NY","lat":41.5512,"long":-73.7255},{"zip":"12583","city":"Tivoli","state":"NY","lat":42.0579,"long":-73.9025},{"zip":"12585","city":"Verbank","state":"NY","lat":41.7227,"long":-73.7184},{"zip":"12590","city":"Wappingers Falls","state":"NY","lat":41.595,"long":-73.8876},{"zip":"12592","city":"Wassaic","state":"NY","lat":41.7759,"long":-73.5544},{"zip":"12594","city":"Wingdale","state":"NY","lat":41.6538,"long":-73.5556},{"zip":"12601","city":"Poughkeepsie","state":"NY","lat":41.7035,"long":-73.9117},{"zip":"12602","city":"Poughkeepsie","state":"NY","lat":41.7599,"long":-73.7437},{"zip":"12603","city":"Poughkeepsie","state":"NY","lat":41.6907,"long":-73.8621},{"zip":"12604","city":"Poughkeepsie","state":"NY","lat":41.7599,"long":-73.7437},{"zip":"12851","city":"Minerva","state":"NY","lat":43.7811,"long":-73.9835},{"zip":"12852","city":"Newcomb","state":"NY","lat":43.946,"long":-74.1299},{"zip":"12855","city":"North Hudson","state":"NY","lat":43.9869,"long":-73.7121},{"zip":"12857","city":"Olmstedville","state":"NY","lat":43.7799,"long":-73.9335},{"zip":"12858","city":"Paradox","state":"NY","lat":43.8914,"long":-73.645},{"zip":"12870","city":"Schroon Lake","state":"NY","lat":43.8412,"long":-73.7674},{"zip":"12872","city":"Severance","state":"NY","lat":43.8759,"long":-73.7304},{"zip":"12879","city":"Newcomb","state":"NY","lat":43.9697,"long":-74.1662},{"zip":"12883","city":"Ticonderoga","state":"NY","lat":43.8463,"long":-73.4426},{"zip":"12913","city":"Bloomingdale","state":"NY","lat":44.3985,"long":-74.0829},{"zip":"12928","city":"Crown Point","state":"NY","lat":43.9526,"long":-73.4665},{"zip":"12932","city":"Elizabethtown","state":"NY","lat":44.2245,"long":-73.6011},{"zip":"12936","city":"Essex","state":"NY","lat":44.2807,"long":-73.3731},{"zip":"12941","city":"Jay","state":"NY","lat":44.3734,"long":-73.7247},{"zip":"12942","city":"Keene","state":"NY","lat":44.2555,"long":-73.7915},{"zip":"12943","city":"Keene Valley","state":"NY","lat":44.2024,"long":-73.7731},{"zip":"12944","city":"Keeseville","state":"NY","lat":44.4999,"long":-73.4745},{"zip":"12946","city":"Lake Placid","state":"NY","lat":44.2796,"long":-73.982},{"zip":"12950","city":"Lewis","state":"NY","lat":44.3075,"long":-73.5491},{"zip":"12956","city":"Mineville","state":"NY","lat":44.0876,"long":-73.5236},{"zip":"12960","city":"Moriah","state":"NY","lat":44.0438,"long":-73.5079},{"zip":"12961","city":"Moriah Center","state":"NY","lat":44.0612,"long":-73.5098},{"zip":"12964","city":"New Russia","state":"NY","lat":44.1595,"long":-73.6059},{"zip":"12974","city":"Port Henry","state":"NY","lat":44.0465,"long":-73.4705},{"zip":"12975","city":"Port Kent","state":"NY","lat":44.5264,"long":-73.4092},{"zip":"12977","city":"Ray Brook","state":"NY","lat":44.2802,"long":-74.0795},{"zip":"12987","city":"Upper Jay","state":"NY","lat":44.3364,"long":-73.7757},{"zip":"12993","city":"Westport","state":"NY","lat":44.205,"long":-73.4702},{"zip":"12996","city":"Willsboro","state":"NY","lat":44.3604,"long":-73.3963},{"zip":"12997","city":"Wilmington","state":"NY","lat":44.3755,"long":-73.8431},{"zip":"12998","city":"Witherbee","state":"NY","lat":44.0827,"long":-73.5306},{"zip":"12914","city":"Bombay","state":"NY","lat":44.9479,"long":-74.5947},{"zip":"12915","city":"Brainardsville","state":"NY","lat":44.8578,"long":-74.0335},{"zip":"12916","city":"Brushton","state":"NY","lat":44.8282,"long":-74.5223},{"zip":"12917","city":"Burke","state":"NY","lat":44.9177,"long":-74.1731},{"zip":"12920","city":"Chateaugay","state":"NY","lat":44.9088,"long":-74.0741},{"zip":"12926","city":"Constable","state":"NY","lat":44.9417,"long":-74.3297},{"zip":"12930","city":"Dickinson Center","state":"NY","lat":44.7233,"long":-74.5523},{"zip":"12937","city":"Fort Covington","state":"NY","lat":44.9731,"long":-74.4929},{"zip":"12939","city":"Gabriels","state":"NY","lat":44.432,"long":-74.181},{"zip":"12945","city":"Lake Clear","state":"NY","lat":44.3375,"long":-74.2381},{"zip":"12953","city":"Malone","state":"NY","lat":44.8482,"long":-74.2928},{"zip":"12957","city":"Moira","state":"NY","lat":44.8504,"long":-74.5603},{"zip":"12966","city":"North Bangor","state":"NY","lat":44.8532,"long":-74.4191},{"zip":"12969","city":"Owls Head","state":"NY","lat":44.7308,"long":-74.1342},{"zip":"12970","city":"Paul Smiths","state":"NY","lat":44.445,"long":-74.2664},{"zip":"12976","city":"Rainbow Lake","state":"NY","lat":44.467,"long":-74.1729},{"zip":"12980","city":"Saint Regis Falls","state":"NY","lat":44.6578,"long":-74.5155},{"zip":"12983","city":"Saranac Lake","state":"NY","lat":44.3243,"long":-74.133},{"zip":"12986","city":"Tupper Lake","state":"NY","lat":44.232,"long":-74.4905},{"zip":"12989","city":"Vermontville","state":"NY","lat":44.4601,"long":-74.0573},{"zip":"12995","city":"Whippleville","state":"NY","lat":44.8057,"long":-74.2523},{"zip":"12025","city":"Broadalbin","state":"NY","lat":43.0727,"long":-74.1684},{"zip":"12032","city":"Caroga Lake","state":"NY","lat":43.1922,"long":-74.5169},{"zip":"12078","city":"Gloversville","state":"NY","lat":43.0616,"long":-74.3375},{"zip":"12095","city":"Johnstown","state":"NY","lat":43.0069,"long":-74.3715},{"zip":"12117","city":"Mayfield","state":"NY","lat":43.1411,"long":-74.2444},{"zip":"12134","city":"Northville","state":"NY","lat":43.2662,"long":-74.2288},{"zip":"12015","city":"Athens","state":"NY","lat":42.2736,"long":-73.8152},{"zip":"12042","city":"Climax","state":"NY","lat":42.3659,"long":-73.851},{"zip":"12051","city":"Coxsackie","state":"NY","lat":42.3501,"long":-73.8199},{"zip":"12058","city":"Earlton","state":"NY","lat":42.3527,"long":-73.9062},{"zip":"12083","city":"Greenville","state":"NY","lat":42.4113,"long":-74.0222},{"zip":"12087","city":"Hannacroix","state":"NY","lat":42.429,"long":-73.8093},{"zip":"12124","city":"New Baltimore","state":"NY","lat":42.4442,"long":-73.7882},{"zip":"12176","city":"Surprise","state":"NY","lat":42.3851,"long":-73.9587},{"zip":"12192","city":"West Coxsackie","state":"NY","lat":42.4029,"long":-73.8283},{"zip":"12405","city":"Acra","state":"NY","lat":42.3304,"long":-74.0857},{"zip":"12407","city":"Ashland","state":"NY","lat":42.3037,"long":-74.3335},{"zip":"12413","city":"Cairo","state":"NY","lat":42.3096,"long":-74.0115},{"zip":"12414","city":"Catskill","state":"NY","lat":42.2276,"long":-73.8985},{"zip":"12418","city":"Cornwallville","state":"NY","lat":42.3629,"long":-74.1631},{"zip":"12422","city":"Durham","state":"NY","lat":42.402,"long":-74.1849},{"zip":"12423","city":"East Durham","state":"NY","lat":42.386,"long":-74.1117},{"zip":"12424","city":"East Jewett","state":"NY","lat":42.2469,"long":-74.1353},{"zip":"12427","city":"Elka Park","state":"NY","lat":42.1643,"long":-74.1245},{"zip":"12431","city":"Freehold","state":"NY","lat":42.3815,"long":-74.0623},{"zip":"12436","city":"Haines Falls","state":"NY","lat":42.1955,"long":-74.1023},{"zip":"12439","city":"Hensonville","state":"NY","lat":42.2898,"long":-74.2165},{"zip":"12442","city":"Hunter","state":"NY","lat":42.2333,"long":-74.2416},{"zip":"12444","city":"Jewett","state":"NY","lat":42.2694,"long":-74.2793},{"zip":"12450","city":"Lanesville","state":"NY","lat":42.1332,"long":-74.2443},{"zip":"12451","city":"Leeds","state":"NY","lat":42.3045,"long":-73.9457},{"zip":"12452","city":"Lexington","state":"NY","lat":42.2404,"long":-74.3654},{"zip":"12454","city":"Maplecrest","state":"NY","lat":42.2995,"long":-74.1655},{"zip":"12460","city":"Oak Hill","state":"NY","lat":42.4098,"long":-74.1524},{"zip":"12463","city":"Palenville","state":"NY","lat":42.1729,"long":-74.0167},{"zip":"12468","city":"Prattsville","state":"NY","lat":42.2979,"long":-74.3895},{"zip":"12470","city":"Purling","state":"NY","lat":42.2959,"long":-74.0773},{"zip":"12473","city":"Round Top","state":"NY","lat":42.2678,"long":-74.0523},{"zip":"12482","city":"South Cairo","state":"NY","lat":42.2681,"long":-73.9554},{"zip":"12485","city":"Tannersville","state":"NY","lat":42.1956,"long":-74.1338},{"zip":"12492","city":"West Kill","state":"NY","lat":42.2046,"long":-74.362},{"zip":"12496","city":"Windham","state":"NY","lat":42.3175,"long":-74.262},{"zip":"12108","city":"Lake Pleasant","state":"NY","lat":43.6676,"long":-74.4569},{"zip":"12139","city":"Piseco","state":"NY","lat":43.4481,"long":-74.5263},{"zip":"12164","city":"Speculator","state":"NY","lat":43.5042,"long":-74.3667},{"zip":"12190","city":"Wells","state":"NY","lat":43.4012,"long":-74.2886},{"zip":"12812","city":"Blue Mountain Lake","state":"NY","lat":43.8553,"long":-74.4435},{"zip":"12842","city":"Indian Lake","state":"NY","lat":43.7606,"long":-74.2766},{"zip":"12847","city":"Long Lake","state":"NY","lat":43.9477,"long":-74.4662},{"zip":"12864","city":"Sabael","state":"NY","lat":43.6676,"long":-74.4569},{"zip":"12010","city":"Amsterdam","state":"NY","lat":42.9387,"long":-74.1882},{"zip":"12016","city":"Auriesville","state":"NY","lat":42.9295,"long":-74.3165},{"zip":"12066","city":"Esperance","state":"NY","lat":42.7717,"long":-74.2882},{"zip":"12068","city":"Fonda","state":"NY","lat":42.9571,"long":-74.4021},{"zip":"12069","city":"Fort Hunter","state":"NY","lat":42.9423,"long":-74.2851},{"zip":"12070","city":"Fort Johnson","state":"NY","lat":42.9765,"long":-74.2484},{"zip":"12072","city":"Fultonville","state":"NY","lat":42.9036,"long":-74.3598},{"zip":"12086","city":"Hagaman","state":"NY","lat":42.9695,"long":-74.1556},{"zip":"12166","city":"Sprakers","state":"NY","lat":42.8484,"long":-74.4536},{"zip":"12177","city":"Tribes Hill","state":"NY","lat":42.95,"long":-74.297},{"zip":"12518","city":"Cornwall","state":"NY","lat":41.4162,"long":-74.0395},{"zip":"12520","city":"Cornwall On Hudson","state":"NY","lat":41.433,"long":-74.0061},{"zip":"12543","city":"Maybrook","state":"NY","lat":41.4886,"long":-74.2163},{"zip":"12549","city":"Montgomery","state":"NY","lat":41.5333,"long":-74.2534},{"zip":"12550","city":"Newburgh","state":"NY","lat":41.5372,"long":-74.0526},{"zip":"12551","city":"Newburgh","state":"NY","lat":41.5034,"long":-74.0104},{"zip":"12552","city":"Newburgh","state":"NY","lat":41.5034,"long":-74.0104},{"zip":"12553","city":"New Windsor","state":"NY","lat":41.4724,"long":-74.0566},{"zip":"12555","city":"Newburgh","state":"NY","lat":41.5034,"long":-74.0104},{"zip":"12566","city":"Pine Bush","state":"NY","lat":41.6178,"long":-74.3263},{"zip":"12575","city":"Rock Tavern","state":"NY","lat":41.4575,"long":-74.1659},{"zip":"12577","city":"Salisbury Mills","state":"NY","lat":41.4497,"long":-74.1214},{"zip":"12584","city":"Vails Gate","state":"NY","lat":41.4641,"long":-74.0591},{"zip":"12586","city":"Walden","state":"NY","lat":41.5596,"long":-74.1764},{"zip":"12729","city":"Cuddebackville","state":"NY","lat":41.4776,"long":-74.5976},{"zip":"12746","city":"Huguenot","state":"NY","lat":41.4179,"long":-74.631},{"zip":"12771","city":"Port Jervis","state":"NY","lat":41.3786,"long":-74.6691},{"zip":"12780","city":"Sparrow Bush","state":"NY","lat":41.4443,"long":-74.7213},{"zip":"12064","city":"East Worcester","state":"NY","lat":42.6321,"long":-74.6674},{"zip":"12116","city":"Maryland","state":"NY","lat":42.5371,"long":-74.903},{"zip":"12155","city":"Schenevus","state":"NY","lat":42.59,"long":-74.8149},{"zip":"12197","city":"Worcester","state":"NY","lat":42.6049,"long":-74.7299},{"zip":"12563","city":"Patterson","state":"NY","lat":41.4888,"long":-73.5815},{"zip":"12018","city":"Averill Park","state":"NY","lat":42.6365,"long":-73.5504},{"zip":"12022","city":"Berlin","state":"NY","lat":42.6919,"long":-73.3702},{"zip":"12024","city":"Brainard","state":"NY","lat":42.495,"long":-73.5107},{"zip":"12028","city":"Buskirk","state":"NY","lat":42.9601,"long":-73.4497},{"zip":"12033","city":"Castleton On Hudson","state":"NY","lat":42.5376,"long":-73.7071},{"zip":"12040","city":"Cherry Plain","state":"NY","lat":42.6467,"long":-73.3716},{"zip":"12052","city":"Cropseyville","state":"NY","lat":42.7667,"long":-73.4719},{"zip":"12061","city":"East Greenbush","state":"NY","lat":42.5951,"long":-73.6826},{"zip":"12062","city":"East Nassau","state":"NY","lat":42.5352,"long":-73.4984},{"zip":"12063","city":"East Schodack","state":"NY","lat":42.5637,"long":-73.6274},{"zip":"12082","city":"Grafton","state":"NY","lat":42.7726,"long":-73.4468},{"zip":"12089","city":"Hoosick","state":"NY","lat":42.8667,"long":-73.3181},{"zip":"12090","city":"Hoosick Falls","state":"NY","lat":42.8937,"long":-73.3581},{"zip":"12094","city":"Johnsonville","state":"NY","lat":42.8769,"long":-73.4989},{"zip":"12121","city":"Melrose","state":"NY","lat":42.8412,"long":-73.6077},{"zip":"12123","city":"Nassau","state":"NY","lat":42.5271,"long":-73.6118},{"zip":"12133","city":"North Hoosick","state":"NY","lat":42.9261,"long":-73.3464},{"zip":"12138","city":"Petersburg","state":"NY","lat":42.7495,"long":-73.3401},{"zip":"12140","city":"Poestenkill","state":"NY","lat":42.6918,"long":-73.5627},{"zip":"12144","city":"Rensselaer","state":"NY","lat":42.6359,"long":-73.7219},{"zip":"12153","city":"Sand Lake","state":"NY","lat":42.6379,"long":-73.4989},{"zip":"12154","city":"Schaghticoke","state":"NY","lat":42.9144,"long":-73.6154},{"zip":"12156","city":"Schodack Landing","state":"NY","lat":42.4816,"long":-73.748},{"zip":"12168","city":"Stephentown","state":"NY","lat":42.5487,"long":-73.374},{"zip":"12169","city":"Stephentown","state":"NY","lat":42.5855,"long":-73.4154},{"zip":"12180","city":"Troy","state":"NY","lat":42.7287,"long":-73.6683},{"zip":"12181","city":"Troy","state":"NY","lat":42.7387,"long":-73.6739},{"zip":"12182","city":"Troy","state":"NY","lat":42.7829,"long":-73.6648},{"zip":"12185","city":"Valley Falls","state":"NY","lat":42.8855,"long":-73.5437},{"zip":"12196","city":"West Sand Lake","state":"NY","lat":42.638,"long":-73.6109},{"zip":"12198","city":"Wynantskill","state":"NY","lat":42.6878,"long":-73.6383},{"zip":"12922","city":"Childwold","state":"NY","lat":44.2867,"long":-74.6759},{"zip":"12927","city":"Cranberry Lake","state":"NY","lat":44.229,"long":-74.8581},{"zip":"12949","city":"Lawrenceville","state":"NY","lat":44.7469,"long":-74.6604},{"zip":"12965","city":"Nicholville","state":"NY","lat":44.703,"long":-74.6805},{"zip":"12967","city":"North Lawrence","state":"NY","lat":44.775,"long":-74.6653},{"zip":"12973","city":"Piercefield","state":"NY","lat":44.2343,"long":-74.556},{"zip":"12019","city":"Ballston Lake","state":"NY","lat":42.9192,"long":-73.8552},{"zip":"12020","city":"Ballston Spa","state":"NY","lat":43.005,"long":-73.8486},{"zip":"12027","city":"Burnt Hills","state":"NY","lat":42.9329,"long":-73.896},{"zip":"12065","city":"Clifton Park","state":"NY","lat":42.8499,"long":-73.7851},{"zip":"12074","city":"Galway","state":"NY","lat":43.0217,"long":-74.029},{"zip":"12118","city":"Mechanicville","state":"NY","lat":42.9168,"long":-73.7214},{"zip":"12148","city":"Rexford","state":"NY","lat":42.8524,"long":-73.8701},{"zip":"12151","city":"Round Lake","state":"NY","lat":42.9247,"long":-73.7859},{"zip":"12170","city":"Stillwater","state":"NY","lat":43.0019,"long":-73.6609},{"zip":"12188","city":"Waterford","state":"NY","lat":42.81,"long":-73.6995},{"zip":"12803","city":"South Glens Falls","state":"NY","lat":43.2836,"long":-73.6294},{"zip":"12822","city":"Corinth","state":"NY","lat":43.2426,"long":-73.8369},{"zip":"12831","city":"Gansevoort","state":"NY","lat":43.1803,"long":-73.7053},{"zip":"12833","city":"Greenfield Center","state":"NY","lat":43.1401,"long":-73.8398},{"zip":"12835","city":"Hadley","state":"NY","lat":43.3173,"long":-73.8482},{"zip":"12850","city":"Middle Grove","state":"NY","lat":43.0975,"long":-74.0167},{"zip":"12859","city":"Porter Corners","state":"NY","lat":43.1724,"long":-73.8839},{"zip":"12863","city":"Rock City Falls","state":"NY","lat":43.0662,"long":-73.9215},{"zip":"12866","city":"Saratoga Springs","state":"NY","lat":43.0708,"long":-73.7408},{"zip":"12871","city":"Schuylerville","state":"NY","lat":43.0878,"long":-73.6007},{"zip":"12884","city":"Victory Mills","state":"NY","lat":43.0884,"long":-73.5917},{"zip":"12008","city":"Alplaus","state":"NY","lat":42.8573,"long":-73.9002},{"zip":"12053","city":"Delanson","state":"NY","lat":42.748,"long":-74.1868},{"zip":"12056","city":"Duanesburg","state":"NY","lat":42.7708,"long":-74.0839},{"zip":"12137","city":"Pattersonville","state":"NY","lat":42.8499,"long":-74.1231},{"zip":"12141","city":"Quaker Street","state":"NY","lat":42.7318,"long":-74.1854},{"zip":"12150","city":"Rotterdam Junction","state":"NY","lat":42.8745,"long":-74.0465},{"zip":"12301","city":"Schenectady","state":"NY","lat":42.8142,"long":-73.9396},{"zip":"12302","city":"Schenectady","state":"NY","lat":42.88,"long":-73.9913},{"zip":"12303","city":"Schenectady","state":"NY","lat":42.7823,"long":-73.9448},{"zip":"12304","city":"Schenectady","state":"NY","lat":42.7841,"long":-73.9094},{"zip":"12305","city":"Schenectady","state":"NY","lat":42.8161,"long":-73.9398},{"zip":"12306","city":"Schenectady","state":"NY","lat":42.7904,"long":-73.9809},{"zip":"12307","city":"Schenectady","state":"NY","lat":42.8047,"long":-73.9363},{"zip":"12308","city":"Schenectady","state":"NY","lat":42.8179,"long":-73.9206},{"zip":"12309","city":"Schenectady","state":"NY","lat":42.8091,"long":-73.8693},{"zip":"12325","city":"Schenectady","state":"NY","lat":42.8333,"long":-74.058},{"zip":"12345","city":"Schenectady","state":"NY","lat":42.8142,"long":-73.9396},{"zip":"12031","city":"Carlisle","state":"NY","lat":42.7648,"long":-74.4569},{"zip":"12035","city":"Central Bridge","state":"NY","lat":42.737,"long":-74.3451},{"zip":"12036","city":"Charlotteville","state":"NY","lat":42.533,"long":-74.6819},{"zip":"12043","city":"Cobleskill","state":"NY","lat":42.684,"long":-74.4939},{"zip":"12071","city":"Fultonham","state":"NY","lat":42.5923,"long":-74.4381},{"zip":"12073","city":"Gallupville","state":"NY","lat":42.6626,"long":-74.2326},{"zip":"12076","city":"Gilboa","state":"NY","lat":42.4108,"long":-74.4003},{"zip":"12092","city":"Howes Cave","state":"NY","lat":42.7045,"long":-74.3648},{"zip":"12093","city":"Jefferson","state":"NY","lat":42.4999,"long":-74.6117},{"zip":"12122","city":"Middleburgh","state":"NY","lat":42.5637,"long":-74.3292},{"zip":"12131","city":"North Blenheim","state":"NY","lat":42.4899,"long":-74.4282},{"zip":"12149","city":"Richmondville","state":"NY","lat":42.6424,"long":-74.571},{"zip":"12157","city":"Schoharie","state":"NY","lat":42.6615,"long":-74.3047},{"zip":"12160","city":"Sloansville","state":"NY","lat":42.7599,"long":-74.3642},{"zip":"12175","city":"Summit","state":"NY","lat":42.535,"long":-74.5452},{"zip":"12187","city":"Warnerville","state":"NY","lat":42.5923,"long":-74.4381},{"zip":"12194","city":"West Fulton","state":"NY","lat":42.5506,"long":-74.4631},{"zip":"12701","city":"Monticello","state":"NY","lat":41.6516,"long":-74.7007},{"zip":"12719","city":"Barryville","state":"NY","lat":41.4912,"long":-74.9152},{"zip":"12720","city":"Bethel","state":"NY","lat":41.6693,"long":-74.894},{"zip":"12721","city":"Bloomingburg","state":"NY","lat":41.5644,"long":-74.4304},{"zip":"12722","city":"Burlingham","state":"NY","lat":41.5901,"long":-74.3821},{"zip":"12723","city":"Callicoon","state":"NY","lat":41.7673,"long":-75.0563},{"zip":"12724","city":"Callicoon Center","state":"NY","lat":41.8368,"long":-74.9466},{"zip":"12725","city":"Claryville","state":"NY","lat":41.9657,"long":-74.5293},{"zip":"12726","city":"Cochecton","state":"NY","lat":41.692,"long":-74.9741},{"zip":"12727","city":"Cochecton Center","state":"NY","lat":41.6548,"long":-74.9827},{"zip":"12732","city":"Eldred","state":"NY","lat":41.5328,"long":-74.8968},{"zip":"12733","city":"Fallsburg","state":"NY","lat":41.7273,"long":-74.6154},{"zip":"12734","city":"Ferndale","state":"NY","lat":41.7349,"long":-74.7345},{"zip":"12736","city":"Fremont Center","state":"NY","lat":41.8782,"long":-75.0343},{"zip":"12737","city":"Glen Spey","state":"NY","lat":41.4858,"long":-74.7995},{"zip":"12738","city":"Glen Wild","state":"NY","lat":41.6545,"long":-74.5833},{"zip":"12740","city":"Grahamsville","state":"NY","lat":41.8807,"long":-74.5127},{"zip":"12741","city":"Hankins","state":"NY","lat":41.8391,"long":-75.0534},{"zip":"12742","city":"Harris","state":"NY","lat":41.7143,"long":-74.7263},{"zip":"12743","city":"Highland Lake","state":"NY","lat":41.5309,"long":-74.8516},{"zip":"12745","city":"Hortonville","state":"NY","lat":41.7629,"long":-75.0306},{"zip":"12747","city":"Hurleyville","state":"NY","lat":41.7356,"long":-74.6743},{"zip":"12748","city":"Jeffersonville","state":"NY","lat":41.7784,"long":-74.9196},{"zip":"12749","city":"Kauneonga Lake","state":"NY","lat":41.6874,"long":-74.8358},{"zip":"12750","city":"Kenoza Lake","state":"NY","lat":41.7296,"long":-74.9611},{"zip":"12751","city":"Kiamesha Lake","state":"NY","lat":41.6838,"long":-74.6724},{"zip":"12752","city":"Lake Huntington","state":"NY","lat":41.6782,"long":-74.9949},{"zip":"12754","city":"Liberty","state":"NY","lat":41.7962,"long":-74.7484},{"zip":"12758","city":"Livingston Manor","state":"NY","lat":41.8778,"long":-74.827},{"zip":"12759","city":"Loch Sheldrake","state":"NY","lat":41.7789,"long":-74.6614},{"zip":"12760","city":"Long Eddy","state":"NY","lat":41.8644,"long":-75.0942},{"zip":"12762","city":"Mongaup Valley","state":"NY","lat":41.681,"long":-74.8028},{"zip":"12763","city":"Mountain Dale","state":"NY","lat":41.6918,"long":-74.5358},{"zip":"12764","city":"Narrowsburg","state":"NY","lat":41.5921,"long":-75.0107},{"zip":"12765","city":"Neversink","state":"NY","lat":41.8492,"long":-74.6127},{"zip":"12766","city":"North Branch","state":"NY","lat":41.8142,"long":-74.9824},{"zip":"12767","city":"Obernburg","state":"NY","lat":41.8448,"long":-75.0071},{"zip":"12768","city":"Parksville","state":"NY","lat":41.8517,"long":-74.7359},{"zip":"12769","city":"Phillipsport","state":"NY","lat":41.6515,"long":-74.4362},{"zip":"12770","city":"Pond Eddy","state":"NY","lat":41.4511,"long":-74.841},{"zip":"12775","city":"Rock Hill","state":"NY","lat":41.6134,"long":-74.5872},{"zip":"12776","city":"Roscoe","state":"NY","lat":41.9609,"long":-74.9346},{"zip":"12777","city":"Forestburgh","state":"NY","lat":41.5691,"long":-74.7241},{"zip":"12778","city":"Smallwood","state":"NY","lat":41.6615,"long":-74.8178},{"zip":"12779","city":"South Fallsburg","state":"NY","lat":41.7042,"long":-74.6444},{"zip":"12781","city":"Summitville","state":"NY","lat":41.6215,"long":-74.4507},{"zip":"12783","city":"Swan Lake","state":"NY","lat":41.7285,"long":-74.8341},{"zip":"12784","city":"Thompsonville","state":"NY","lat":41.7143,"long":-74.5841},{"zip":"12785","city":"Westbrookville","state":"NY","lat":41.719,"long":-74.7554},{"zip":"12786","city":"White Lake","state":"NY","lat":41.6485,"long":-74.8654},{"zip":"12787","city":"White Sulphur Springs","state":"NY","lat":41.8002,"long":-74.8286},{"zip":"12788","city":"Woodbourne","state":"NY","lat":41.7708,"long":-74.5928},{"zip":"12789","city":"Woodridge","state":"NY","lat":41.717,"long":-74.5815},{"zip":"12790","city":"Wurtsboro","state":"NY","lat":41.5877,"long":-74.5039},{"zip":"12791","city":"Youngsville","state":"NY","lat":41.8032,"long":-74.8888},{"zip":"12792","city":"Yulan","state":"NY","lat":41.5226,"long":-74.9329},{"zip":"12401","city":"Kingston","state":"NY","lat":41.9697,"long":-74.0668},{"zip":"12402","city":"Kingston","state":"NY","lat":41.927,"long":-73.9974},{"zip":"12404","city":"Accord","state":"NY","lat":41.8083,"long":-74.2353},{"zip":"12409","city":"Bearsville","state":"NY","lat":42.0406,"long":-74.1551},{"zip":"12410","city":"Big Indian","state":"NY","lat":42.074,"long":-74.453},{"zip":"12411","city":"Bloomington","state":"NY","lat":41.8752,"long":-74.0436},{"zip":"12412","city":"Boiceville","state":"NY","lat":42.0048,"long":-74.2658},{"zip":"12416","city":"Chichester","state":"NY","lat":42.095,"long":-74.2717},{"zip":"12417","city":"Connelly","state":"NY","lat":41.9076,"long":-73.9893},{"zip":"12419","city":"Cottekill","state":"NY","lat":41.8467,"long":-74.1038},{"zip":"12420","city":"Cragsmoor","state":"NY","lat":41.6698,"long":-74.3801},{"zip":"12428","city":"Ellenville","state":"NY","lat":41.7218,"long":-74.4141},{"zip":"12429","city":"Esopus","state":"NY","lat":41.8279,"long":-73.9651},{"zip":"12432","city":"Glasco","state":"NY","lat":42.0437,"long":-73.9474},{"zip":"12433","city":"Glenford","state":"NY","lat":42.0053,"long":-74.1532},{"zip":"12435","city":"Greenfield Park","state":"NY","lat":41.7281,"long":-74.5201},{"zip":"12440","city":"High Falls","state":"NY","lat":41.8167,"long":-74.1311},{"zip":"12441","city":"Highmount","state":"NY","lat":42.1443,"long":-74.4899},{"zip":"12443","city":"Hurley","state":"NY","lat":41.9327,"long":-74.0687},{"zip":"12446","city":"Kerhonkson","state":"NY","lat":41.7939,"long":-74.3035},{"zip":"12448","city":"Lake Hill","state":"NY","lat":42.0733,"long":-74.2123},{"zip":"12449","city":"Lake Katrine","state":"NY","lat":41.9918,"long":-73.9924},{"zip":"12453","city":"Malden On Hudson","state":"NY","lat":42.0987,"long":-73.9354},{"zip":"12456","city":"Mount Marion","state":"NY","lat":42.0357,"long":-74.0002},{"zip":"12457","city":"Mount Tremper","state":"NY","lat":42.0435,"long":-74.2485},{"zip":"12458","city":"Napanoch","state":"NY","lat":41.759,"long":-74.3804},{"zip":"12461","city":"Olivebridge","state":"NY","lat":41.875,"long":-74.2734},{"zip":"12464","city":"Phoenicia","state":"NY","lat":42.0848,"long":-74.3154},{"zip":"12465","city":"Pine Hill","state":"NY","lat":42.1331,"long":-74.4802},{"zip":"12466","city":"Port Ewen","state":"NY","lat":41.8948,"long":-73.9767},{"zip":"12471","city":"Rifton","state":"NY","lat":41.8403,"long":-74.0306},{"zip":"12472","city":"Rosendale","state":"NY","lat":41.8402,"long":-74.073},{"zip":"12475","city":"Ruby","state":"NY","lat":42.0176,"long":-74.0079},{"zip":"12477","city":"Saugerties","state":"NY","lat":42.0738,"long":-73.9797},{"zip":"12480","city":"Shandaken","state":"NY","lat":42.1363,"long":-74.3774},{"zip":"12481","city":"Shokan","state":"NY","lat":41.9767,"long":-74.2119},{"zip":"12483","city":"Spring Glen","state":"NY","lat":41.6639,"long":-74.4245},{"zip":"12484","city":"Stone Ridge","state":"NY","lat":41.8616,"long":-74.1697},{"zip":"12486","city":"Tillson","state":"NY","lat":41.8338,"long":-74.0626},{"zip":"12487","city":"Ulster Park","state":"NY","lat":41.8651,"long":-73.9948},{"zip":"12489","city":"Wawarsing","state":"NY","lat":41.7606,"long":-74.3535},{"zip":"12490","city":"West Camp","state":"NY","lat":42.1087,"long":-73.9346},{"zip":"12491","city":"West Hurley","state":"NY","lat":41.9973,"long":-74.1049},{"zip":"12493","city":"West Park","state":"NY","lat":41.7953,"long":-73.9809},{"zip":"12494","city":"West Shokan","state":"NY","lat":41.9673,"long":-74.2871},{"zip":"12495","city":"Willow","state":"NY","lat":42.0849,"long":-74.2407},{"zip":"12498","city":"Woodstock","state":"NY","lat":42.0348,"long":-74.112},{"zip":"12515","city":"Clintondale","state":"NY","lat":41.6749,"long":-74.0557},{"zip":"12525","city":"Gardiner","state":"NY","lat":41.6576,"long":-74.1672},{"zip":"12528","city":"Highland","state":"NY","lat":41.7167,"long":-73.9928},{"zip":"12542","city":"Marlboro","state":"NY","lat":41.6056,"long":-73.988},{"zip":"12547","city":"Milton","state":"NY","lat":41.6535,"long":-73.9772},{"zip":"12548","city":"Modena","state":"NY","lat":41.6503,"long":-74.1036},{"zip":"12561","city":"New Paltz","state":"NY","lat":41.7464,"long":-74.1092},{"zip":"12568","city":"Plattekill","state":"NY","lat":41.6412,"long":-74.0781},{"zip":"12588","city":"Walker Valley","state":"NY","lat":41.6337,"long":-74.3779},{"zip":"12589","city":"Wallkill","state":"NY","lat":41.616,"long":-74.1439},{"zip":"12801","city":"Glens Falls","state":"NY","lat":43.3115,"long":-73.6448},{"zip":"12804","city":"Queensbury","state":"NY","lat":43.329,"long":-73.6818},{"zip":"12808","city":"Adirondack","state":"NY","lat":43.7165,"long":-73.7825},{"zip":"12810","city":"Athol","state":"NY","lat":43.4839,"long":-73.8817},{"zip":"12811","city":"Bakers Mills","state":"NY","lat":43.6148,"long":-74.0249},{"zip":"12814","city":"Bolton Landing","state":"NY","lat":43.5766,"long":-73.6714},{"zip":"12815","city":"Brant Lake","state":"NY","lat":43.6989,"long":-73.7205},{"zip":"12817","city":"Chestertown","state":"NY","lat":43.6451,"long":-73.8066},{"zip":"12820","city":"Cleverdale","state":"NY","lat":43.4718,"long":-73.6393},{"zip":"12824","city":"Diamond Point","state":"NY","lat":43.5156,"long":-73.7001},{"zip":"12836","city":"Hague","state":"NY","lat":43.7463,"long":-73.5282},{"zip":"12843","city":"Johnsburg","state":"NY","lat":43.586,"long":-73.9165},{"zip":"12844","city":"Kattskill Bay","state":"NY","lat":43.4754,"long":-73.6272},{"zip":"12845","city":"Lake George","state":"NY","lat":43.4167,"long":-73.6975},{"zip":"12846","city":"Lake Luzerne","state":"NY","lat":43.3165,"long":-73.8228},{"zip":"12853","city":"North Creek","state":"NY","lat":43.6978,"long":-73.986},{"zip":"12856","city":"North River","state":"NY","lat":43.7237,"long":-74.0873},{"zip":"12860","city":"Pottersville","state":"NY","lat":43.7312,"long":-73.8193},{"zip":"12862","city":"Riparius","state":"NY","lat":43.6754,"long":-73.9325},{"zip":"12874","city":"Silver Bay","state":"NY","lat":43.6978,"long":-73.5071},{"zip":"12878","city":"Stony Creek","state":"NY","lat":43.4214,"long":-73.9495},{"zip":"12885","city":"Warrensburg","state":"NY","lat":43.5003,"long":-73.792},{"zip":"12886","city":"Wevertown","state":"NY","lat":43.6313,"long":-73.9364},{"zip":"12057","city":"Eagle Bridge","state":"NY","lat":42.9808,"long":-73.3522},{"zip":"12809","city":"Argyle","state":"NY","lat":43.2381,"long":-73.4641},{"zip":"12816","city":"Cambridge","state":"NY","lat":43.0466,"long":-73.3814},{"zip":"12819","city":"Clemons","state":"NY","lat":43.6435,"long":-73.4326},{"zip":"12821","city":"Comstock","state":"NY","lat":43.4614,"long":-73.4033},{"zip":"12823","city":"Cossayuna","state":"NY","lat":43.1837,"long":-73.4268},{"zip":"12827","city":"Fort Ann","state":"NY","lat":43.4285,"long":-73.4784},{"zip":"12828","city":"Fort Edward","state":"NY","lat":43.2653,"long":-73.5822},{"zip":"12832","city":"Granville","state":"NY","lat":43.3776,"long":-73.2978},{"zip":"12834","city":"Greenwich","state":"NY","lat":43.0947,"long":-73.503},{"zip":"12837","city":"Hampton","state":"NY","lat":43.5248,"long":-73.2518},{"zip":"12838","city":"Hartford","state":"NY","lat":43.3493,"long":-73.4049},{"zip":"12839","city":"Hudson Falls","state":"NY","lat":43.3149,"long":-73.5746},{"zip":"12841","city":"Huletts Landing","state":"NY","lat":43.6392,"long":-73.5071},{"zip":"12848","city":"Middle Falls","state":"NY","lat":43.1001,"long":-73.5246},{"zip":"12849","city":"Middle Granville","state":"NY","lat":43.4508,"long":-73.3031},{"zip":"12854","city":"North Granville","state":"NY","lat":43.4525,"long":-73.341},{"zip":"12861","city":"Putnam Station","state":"NY","lat":43.756,"long":-73.4123},{"zip":"12865","city":"Salem","state":"NY","lat":43.1828,"long":-73.3327},{"zip":"12873","city":"Shushan","state":"NY","lat":43.1106,"long":-73.3231},{"zip":"12887","city":"Whitehall","state":"NY","lat":43.5531,"long":-73.3864}]
