[{"zip":"12007","city":"Alcove","state":"NY","lat":42.4561,"long":-73.9277},{"zip":"12009","city":"Altamont","state":"NY","lat":42.7063,"long":-74.0193},{"zip":"12023","city":"Berne","state":"NY","lat":42.6108,"long":-74.1466},{"zip":"12041","city":"Clarksville","state":"NY","lat":42.5759,"long":-73.964},{"zip":"12045","city":"Coeymans","state":"NY","lat":42.4757,"long":-73.7977},{"zip":"12046","city":"Coeymans Hollow","state":"NY","lat":42.4865,"long":-73.9206},{"zip":"12047","city":"Cohoes","state":"NY","lat":42.7754,"long":-73.7124},{"zip":"12054","city":"Delmar","state":"NY","lat":42.6158,"long":-73.8373},{"zip":"12055","city":"Dormansville","state":"NY","lat":42.6149,"long":-73.9708},{"zip":"12059","city":"East Berne","state":"NY","lat":42.6191,"long":-74.0555},{"zip":"12067","city":"Feura Bush","state":"NY","lat":42.555,"long":-73.9237},{"zip":"12077","city":"Glenmont","state":"NY","lat":42.5971,"long":-73.7959},{"zip":"12084","city":"Guilderland","state":"NY","lat":42.6973,"long":-73.8975},{"zip":"12085","city":"Guilderland Center","state":"NY","lat":42.6948,"long":-73.9053},{"zip":"12017","city":"Austerlitz","state":"NY","lat":42.3223,"long":-73.455},{"zip":"12029","city":"Canaan","state":"NY","lat":42.4132,"long":-73.4159},{"zip":"12037","city":"Chatham","state":"NY","lat":42.3496,"long":-73.5873},{"zip":"12050","city":"Columbiaville","state":"NY","lat":42.3172,"long":-73.7486},{"zip":"12060","city":"East Chatham","state":"NY","lat":42.433,"long":-73.4903},{"zip":"12075","city":"Ghent","state":"NY","lat":42.3036,"long":-73.6486},{"zip":"12025","city":"Broadalbin","state":"NY","lat":43.0727,"long":-74.1684},{"zip":"12032","city":"Caroga Lake","state":"NY","lat":43.1922,"long":-74.5169},{"zip":"12078","city":"Gloversville","state":"NY","lat":43.0616,"long":-74.3375},{"zip":"12095","city":"Johnstown","state":"NY","lat":43.0069,"long":-74.3715},{"zip":"12015","city":"Athens","state":"NY","lat":42.2736,"long":-73.8152},{"zip":"12042","city":"Climax","state":"NY","lat":42.3659,"long":-73.851},{"zip":"12051","city":"Coxsackie","state":"NY","lat":42.3501,"long":-73.8199},{"zip":"12058","city":"Earlton","state":"NY","lat":42.3527,"long":-73.9062},{"zip":"12083","city":"Greenville","state":"NY","lat":42.4113,"long":-74.0222},{"zip":"12087","city":"Hannacroix","state":"NY","lat":42.429,"long":-73.8093},{"zip":"12010","city":"Amsterdam","state":"NY","lat":42.9387,"long":-74.1882},{"zip":"12016","city":"Auriesville","state":"NY","lat":42.9295,"long":-74.3165},{"zip":"12066","city":"Esperance","state":"NY","lat":42.7717,"long":-74.2882},{"zip":"12068","city":"Fonda","state":"NY","lat":42.9571,"long":-74.4021},{"zip":"12069","city":"Fort Hunter","state":"NY","lat":42.9423,"long":-74.2851},{"zip":"12070","city":"Fort Johnson","state":"NY","lat":42.9765,"long":-74.2484},{"zip":"12072","city":"Fultonville","state":"NY","lat":42.9036,"long":-74.3598},{"zip":"12086","city":"Hagaman","state":"NY","lat":42.9695,"long":-74.1556},{"zip":"12064","city":"East Worcester","state":"NY","lat":42.6321,"long":-74.6674},{"zip":"12018","city":"Averill Park","state":"NY","lat":42.6365,"long":-73.5504},{"zip":"12022","city":"Berlin","state":"NY","lat":42.6919,"long":-73.3702},{"zip":"12024","city":"Brainard","state":"NY","lat":42.495,"long":-73.5107},{"zip":"12028","city":"Buskirk","state":"NY","lat":42.9601,"long":-73.4497},{"zip":"12033","city":"Castleton On Hudson","state":"NY","lat":42.5376,"long":-73.7071},{"zip":"12040","city":"Cherry Plain","state":"NY","lat":42.6467,"long":-73.3716},{"zip":"12052","city":"Cropseyville","state":"NY","lat":42.7667,"long":-73.4719},{"zip":"12061","city":"East Greenbush","state":"NY","lat":42.5951,"long":-73.6826},{"zip":"12062","city":"East Nassau","state":"NY","lat":42.5352,"long":-73.4984},{"zip":"12063","city":"East Schodack","state":"NY","lat":42.5637,"long":-73.6274},{"zip":"12082","city":"Grafton","state":"NY","lat":42.7726,"long":-73.4468},{"zip":"12089","city":"Hoosick","state":"NY","lat":42.8667,"long":-73.3181},{"zip":"12090","city":"Hoosick Falls","state":"NY","lat":42.8937,"long":-73.3581},{"zip":"12094","city":"Johnsonville","state":"NY","lat":42.8769,"long":-73.4989},{"zip":"12019","city":"Ballston Lake","state":"NY","lat":42.9192,"long":-73.8552},{"zip":"12020","city":"Ballston Spa","state":"NY","lat":43.005,"long":-73.8486},{"zip":"12027","city":"Burnt Hills","state":"NY","lat":42.9329,"long":-73.896},{"zip":"12065","city":"Clifton Park","state":"NY","lat":42.8499,"long":-73.7851},{"zip":"12074","city":"Galway","state":"NY","lat":43.0217,"long":-74.029},{"zip":"12008","city":"Alplaus","state":"NY","lat":42.8573,"long":-73.9002},{"zip":"12053","city":"Delanson","state":"NY","lat":42.748,"long":-74.1868},{"zip":"12056","city":"Duanesburg","state":"NY","lat":42.7708,"long":-74.0839},{"zip":"12031","city":"Carlisle","state":"NY","lat":42.7648,"long":-74.4569},{"zip":"12035","city":"Central Bridge","state":"NY","lat":42.737,"long":-74.3451},{"zip":"12036","city":"Charlotteville","state":"NY","lat":42.533,"long":-74.6819},{"zip":"12043","city":"Cobleskill","state":"NY","lat":42.684,"long":-74.4939},{"zip":"12071","city":"Fultonham","state":"NY","lat":42.5923,"long":-74.4381},{"zip":"12073","city":"Gallupville","state":"NY","lat":42.6626,"long":-74.2326},{"zip":"12076","city":"Gilboa","state":"NY","lat":42.4108,"long":-74.4003},{"zip":"12092","city":"Howes Cave","state":"NY","lat":42.7045,"long":-74.3648},{"zip":"12093","city":"Jefferson","state":"NY","lat":42.4999,"long":-74.6117},{"zip":"12057","city":"Eagle Bridge","state":"NY","lat":42.9808,"long":-73.3522}]
