[{"zip":"12502","city":"Ancram","state":"NY","lat":42.0851,"long":-73.6424},{"zip":"12503","city":"Ancramdale","state":"NY","lat":42.0381,"long":-73.5819},{"zip":"12513","city":"Claverack","state":"NY","lat":42.2251,"long":-73.7346},{"zip":"12516","city":"Copake","state":"NY","lat":42.1113,"long":-73.5526},{"zip":"12517","city":"Copake Falls","state":"NY","lat":42.1367,"long":-73.5108},{"zip":"12521","city":"Craryville","state":"NY","lat":42.176,"long":-73.6571},{"zip":"12523","city":"Elizaville","state":"NY","lat":42.0902,"long":-73.7818},{"zip":"12526","city":"Germantown","state":"NY","lat":42.1219,"long":-73.8625},{"zip":"12529","city":"Hillsdale","state":"NY","lat":42.1868,"long":-73.5483},{"zip":"12530","city":"Hollowville","state":"NY","lat":42.2054,"long":-73.6912},{"zip":"12534","city":"Hudson","state":"NY","lat":42.247,"long":-73.7552},{"zip":"12541","city":"Livingston","state":"NY","lat":42.1421,"long":-73.7574},{"zip":"12544","city":"Mellenville","state":"NY","lat":42.2596,"long":-73.668},{"zip":"12565","city":"Philmont","state":"NY","lat":42.2485,"long":-73.6463},{"zip":"12501","city":"Amenia","state":"NY","lat":41.8447,"long":-73.5542},{"zip":"12504","city":"Annandale On Hudson","state":"NY","lat":42.0354,"long":-73.9092},{"zip":"12506","city":"Bangall","state":"NY","lat":41.8756,"long":-73.6912},{"zip":"12507","city":"Barrytown","state":"NY","lat":42.0005,"long":-73.9199},{"zip":"12508","city":"Beacon","state":"NY","lat":41.5097,"long":-73.9634},{"zip":"12510","city":"Billings","state":"NY","lat":41.6712,"long":-73.7632},{"zip":"12511","city":"Castle Point","state":"NY","lat":41.5462,"long":-73.9596},{"zip":"12512","city":"Chelsea","state":"NY","lat":41.5528,"long":-73.9682},{"zip":"12514","city":"Clinton Corners","state":"NY","lat":41.8693,"long":-73.7659},{"zip":"12522","city":"Dover Plains","state":"NY","lat":41.7351,"long":-73.587},{"zip":"12524","city":"Fishkill","state":"NY","lat":41.5404,"long":-73.8979},{"zip":"12527","city":"Glenham","state":"NY","lat":41.5202,"long":-73.9333},{"zip":"12531","city":"Holmes","state":"NY","lat":41.5325,"long":-73.6628},{"zip":"12533","city":"Hopewell Junction","state":"NY","lat":41.5603,"long":-73.7939},{"zip":"12537","city":"Hughsonville","state":"NY","lat":41.5824,"long":-73.9363},{"zip":"12538","city":"Hyde Park","state":"NY","lat":41.7887,"long":-73.9063},{"zip":"12540","city":"Lagrangeville","state":"NY","lat":41.6615,"long":-73.745},{"zip":"12545","city":"Millbrook","state":"NY","lat":41.7803,"long":-73.6885},{"zip":"12546","city":"Millerton","state":"NY","lat":41.9536,"long":-73.5287},{"zip":"12564","city":"Pawling","state":"NY","lat":41.5749,"long":-73.5948},{"zip":"12567","city":"Pine Plains","state":"NY","lat":41.9896,"long":-73.6602},{"zip":"12569","city":"Pleasant Valley","state":"NY","lat":41.747,"long":-73.8143},{"zip":"12570","city":"Poughquag","state":"NY","lat":41.6194,"long":-73.6783},{"zip":"12571","city":"Red Hook","state":"NY","lat":42.0064,"long":-73.8546},{"zip":"12572","city":"Rhinebeck","state":"NY","lat":41.9272,"long":-73.8888},{"zip":"12574","city":"Rhinecliff","state":"NY","lat":41.9151,"long":-73.9517},{"zip":"12578","city":"Salt Point","state":"NY","lat":41.805,"long":-73.8013},{"zip":"12580","city":"Staatsburg","state":"NY","lat":41.8502,"long":-73.8988},{"zip":"12581","city":"Stanfordville","state":"NY","lat":41.8877,"long":-73.6945},{"zip":"12582","city":"Stormville","state":"NY","lat":41.5512,"long":-73.7255},{"zip":"12583","city":"Tivoli","state":"NY","lat":42.0579,"long":-73.9025},{"zip":"12585","city":"Verbank","state":"NY","lat":41.7227,"long":-73.7184},{"zip":"12590","city":"Wappingers Falls","state":"NY","lat":41.595,"long":-73.8876},{"zip":"12592","city":"Wassaic","state":"NY","lat":41.7759,"long":-73.5544},{"zip":"12594","city":"Wingdale","state":"NY","lat":41.6538,"long":-73.5556},{"zip":"12518","city":"Cornwall","state":"NY","lat":41.4162,"long":-74.0395},{"zip":"12520","city":"Cornwall On Hudson","state":"NY","lat":41.433,"long":-74.0061},{"zip":"12543","city":"Maybrook","state":"NY","lat":41.4886,"long":-74.2163},{"zip":"12549","city":"Montgomery","state":"NY","lat":41.5333,"long":-74.2534},{"zip":"12550","city":"Newburgh","state":"NY","lat":41.5372,"long":-74.0526},{"zip":"12551","city":"Newburgh","state":"NY","lat":41.5034,"long":-74.0104},{"zip":"12552","city":"Newburgh","state":"NY","lat":41.5034,"long":-74.0104},{"zip":"12553","city":"New Windsor","state":"NY","lat":41.4724,"long":-74.0566},{"zip":"12555","city":"Newburgh","state":"NY","lat":41.5034,"long":-74.0104},{"zip":"12566","city":"Pine Bush","state":"NY","lat":41.6178,"long":-74.3263},{"zip":"12575","city":"Rock Tavern","state":"NY","lat":41.4575,"long":-74.1659},{"zip":"12577","city":"Salisbury Mills","state":"NY","lat":41.4497,"long":-74.1214},{"zip":"12584","city":"Vails Gate","state":"NY","lat":41.4641,"long":-74.0591},{"zip":"12586","city":"Walden","state":"NY","lat":41.5596,"long":-74.1764},{"zip":"12563","city":"Patterson","state":"NY","lat":41.4888,"long":-73.5815},{"zip":"12515","city":"Clintondale","state":"NY","lat":41.6749,"long":-74.0557},{"zip":"12525","city":"Gardiner","state":"NY","lat":41.6576,"long":-74.1672},{"zip":"12528","city":"Highland","state":"NY","lat":41.7167,"long":-73.9928},{"zip":"12542","city":"Marlboro","state":"NY","lat":41.6056,"long":-73.988},{"zip":"12547","city":"Milton","state":"NY","lat":41.6535,"long":-73.9772},{"zip":"12548","city":"Modena","state":"NY","lat":41.6503,"long":-74.1036},{"zip":"12561","city":"New Paltz","state":"NY","lat":41.7464,"long":-74.1092},{"zip":"12568","city":"Plattekill","state":"NY","lat":41.6412,"long":-74.0781},{"zip":"12588","city":"Walker Valley","state":"NY","lat":41.6337,"long":-74.3779},{"zip":"12589","city":"Wallkill","state":"NY","lat":41.616,"long":-74.1439}]
