[{"zip":"12729","city":"Cuddebackville","state":"NY","lat":41.4776,"long":-74.5976},{"zip":"12746","city":"Huguenot","state":"NY","lat":41.4179,"long":-74.631},{"zip":"12771","city":"Port Jervis","state":"NY","lat":41.3786,"long":-74.6691},{"zip":"12780","city":"Sparrow Bush","state":"NY","lat":41.4443,"long":-74.7213},{"zip":"12701","city":"Monticello","state":"NY","lat":41.6516,"long":-74.7007},{"zip":"12719","city":"Barryville","state":"NY","lat":41.4912,"long":-74.9152},{"zip":"12720","city":"Bethel","state":"NY","lat":41.6693,"long":-74.894},{"zip":"12721","city":"Bloomingburg","state":"NY","lat":41.5644,"long":-74.4304},{"zip":"12722","city":"Burlingham","state":"NY","lat":41.5901,"long":-74.3821},{"zip":"12723","city":"Callicoon","state":"NY","lat":41.7673,"long":-75.0563},{"zip":"12724","city":"Callicoon Center","state":"NY","lat":41.8368,"long":-74.9466},{"zip":"12725","city":"Claryville","state":"NY","lat":41.9657,"long":-74.5293},{"zip":"12726","city":"Cochecton","state":"NY","lat":41.692,"long":-74.9741},{"zip":"12727","city":"Cochecton Center","state":"NY","lat":41.6548,"long":-74.9827},{"zip":"12732","city":"Eldred","state":"NY","lat":41.5328,"long":-74.8968},{"zip":"12733","city":"Fallsburg","state":"NY","lat":41.7273,"long":-74.6154},{"zip":"12734","city":"Ferndale","state":"NY","lat":41.7349,"long":-74.7345},{"zip":"12736","city":"Fremont Center","state":"NY","lat":41.8782,"long":-75.0343},{"zip":"12737","city":"Glen Spey","state":"NY","lat":41.4858,"long":-74.7995},{"zip":"12738","city":"Glen Wild","state":"NY","lat":41.6545,"long":-74.5833},{"zip":"12740","city":"Grahamsville","state":"NY","lat":41.8807,"long":-74.5127},{"zip":"12741","city":"Hankins","state":"NY","lat":41.8391,"long":-75.0534},{"zip":"12742","city":"Harris","state":"NY","lat":41.7143,"long":-74.7263},{"zip":"12743","city":"Highland Lake","state":"NY","lat":41.5309,"long":-74.8516},{"zip":"12745","city":"Hortonville","state":"NY","lat":41.7629,"long":-75.0306},{"zip":"12747","city":"Hurleyville","state":"NY","lat":41.7356,"long":-74.6743},{"zip":"12748","city":"Jeffersonville","state":"NY","lat":41.7784,"long":-74.9196},{"zip":"12749","city":"Kauneonga Lake","state":"NY","lat":41.6874,"long":-74.8358},{"zip":"12750","city":"Kenoza Lake","state":"NY","lat":41.7296,"long":-74.9611},{"zip":"12751","city":"Kiamesha Lake","state":"NY","lat":41.6838,"long":-74.6724},{"zip":"12752","city":"Lake Huntington","state":"NY","lat":41.6782,"long":-74.9949},{"zip":"12754","city":"Liberty","state":"NY","lat":41.7962,"long":-74.7484},{"zip":"12758","city":"Livingston Manor","state":"NY","lat":41.8778,"long":-74.827},{"zip":"12759","city":"Loch Sheldrake","state":"NY","lat":41.7789,"long":-74.6614},{"zip":"12760","city":"Long Eddy","state":"NY","lat":41.8644,"long":-75.0942},{"zip":"12762","city":"Mongaup Valley","state":"NY","lat":41.681,"long":-74.8028},{"zip":"12763","city":"Mountain Dale","state":"NY","lat":41.6918,"long":-74.5358},{"zip":"12764","city":"Narrowsburg","state":"NY","lat":41.5921,"long":-75.0107},{"zip":"12765","city":"Neversink","state":"NY","lat":41.8492,"long":-74.6127},{"zip":"12766","city":"North Branch","state":"NY","lat":41.8142,"long":-74.9824},{"zip":"12767","city":"Obernburg","state":"NY","lat":41.8448,"long":-75.0071},{"zip":"12768","city":"Parksville","state":"NY","lat":41.8517,"long":-74.7359},{"zip":"12769","city":"Phillipsport","state":"NY","lat":41.6515,"long":-74.4362},{"zip":"12770","city":"Pond Eddy","state":"NY","lat":41.4511,"long":-74.841},{"zip":"12775","city":"Rock Hill","state":"NY","lat":41.6134,"long":-74.5872},{"zip":"12776","city":"Roscoe","state":"NY","lat":41.9609,"long":-74.9346},{"zip":"12777","city":"Forestburgh","state":"NY","lat":41.5691,"long":-74.7241},{"zip":"12778","city":"Smallwood","state":"NY","lat":41.6615,"long":-74.8178},{"zip":"12779","city":"South Fallsburg","state":"NY","lat":41.7042,"long":-74.6444},{"zip":"12781","city":"Summitville","state":"NY","lat":41.6215,"long":-74.4507},{"zip":"12783","city":"Swan Lake","state":"NY","lat":41.7285,"long":-74.8341},{"zip":"12784","city":"Thompsonville","state":"NY","lat":41.7143,"long":-74.5841},{"zip":"12785","city":"Westbrookville","state":"NY","lat":41.719,"long":-74.7554},{"zip":"12786","city":"White Lake","state":"NY","lat":41.6485,"long":-74.8654},{"zip":"12787","city":"White Sulphur Springs","state":"NY","lat":41.8002,"long":-74.8286},{"zip":"12788","city":"Woodbourne","state":"NY","lat":41.7708,"long":-74.5928},{"zip":"12789","city":"Woodridge","state":"NY","lat":41.717,"long":-74.5815},{"zip":"12790","city":"Wurtsboro","state":"NY","lat":41.5877,"long":-74.5039},{"zip":"12791","city":"Youngsville","state":"NY","lat":41.8032,"long":-74.8888},{"zip":"12792","city":"Yulan","state":"NY","lat":41.5226,"long":-74.9329}]
