[{"zip":"12901","city":"Plattsburgh","state":"NY","lat":44.6927,"long":-73.466},{"zip":"12903","city":"Plattsburgh","state":"NY","lat":44.6854,"long":-73.4474},{"zip":"12910","city":"Altona","state":"NY","lat":44.8816,"long":-73.6408},{"zip":"12911","city":"Keeseville","state":"NY","lat":44.5281,"long":-73.4719},{"zip":"12912","city":"Au Sable Forks","state":"NY","lat":44.4499,"long":-73.6857},{"zip":"12918","city":"Cadyville","state":"NY","lat":44.6862,"long":-73.6702},{"zip":"12919","city":"Champlain","state":"NY","lat":44.9773,"long":-73.4466},{"zip":"12921","city":"Chazy","state":"NY","lat":44.8884,"long":-73.4501},{"zip":"12923","city":"Churubusco","state":"NY","lat":44.9432,"long":-73.9355},{"zip":"12924","city":"Keeseville","state":"NY","lat":44.4777,"long":-73.5843},{"zip":"12929","city":"Dannemora","state":"NY","lat":44.72,"long":-73.7192},{"zip":"12933","city":"Ellenburg","state":"NY","lat":44.882,"long":-73.9633},{"zip":"12934","city":"Ellenburg Center","state":"NY","lat":44.8444,"long":-73.8685},{"zip":"12935","city":"Ellenburg Depot","state":"NY","lat":44.9163,"long":-73.7876},{"zip":"12952","city":"Lyon Mountain","state":"NY","lat":44.7255,"long":-73.9195},{"zip":"12955","city":"Lyon Mountain","state":"NY","lat":44.8043,"long":-73.973},{"zip":"12958","city":"Mooers","state":"NY","lat":44.9592,"long":-73.5834},{"zip":"12959","city":"Mooers Forks","state":"NY","lat":44.9602,"long":-73.673},{"zip":"12962","city":"Morrisonville","state":"NY","lat":44.6894,"long":-73.5772},{"zip":"12972","city":"Peru","state":"NY","lat":44.5851,"long":-73.5293},{"zip":"12978","city":"Redford","state":"NY","lat":44.6164,"long":-73.8087},{"zip":"12979","city":"Rouses Point","state":"NY","lat":44.9884,"long":-73.3691},{"zip":"12981","city":"Saranac","state":"NY","lat":44.7032,"long":-73.7481},{"zip":"12985","city":"Schuyler Falls","state":"NY","lat":44.6287,"long":-73.5579},{"zip":"12992","city":"West Chazy","state":"NY","lat":44.797,"long":-73.5112},{"zip":"12913","city":"Bloomingdale","state":"NY","lat":44.3985,"long":-74.0829},{"zip":"12928","city":"Crown Point","state":"NY","lat":43.9526,"long":-73.4665},{"zip":"12932","city":"Elizabethtown","state":"NY","lat":44.2245,"long":-73.6011},{"zip":"12936","city":"Essex","state":"NY","lat":44.2807,"long":-73.3731},{"zip":"12941","city":"Jay","state":"NY","lat":44.3734,"long":-73.7247},{"zip":"12942","city":"Keene","state":"NY","lat":44.2555,"long":-73.7915},{"zip":"12943","city":"Keene Valley","state":"NY","lat":44.2024,"long":-73.7731},{"zip":"12944","city":"Keeseville","state":"NY","lat":44.4999,"long":-73.4745},{"zip":"12946","city":"Lake Placid","state":"NY","lat":44.2796,"long":-73.982},{"zip":"12950","city":"Lewis","state":"NY","lat":44.3075,"long":-73.5491},{"zip":"12956","city":"Mineville","state":"NY","lat":44.0876,"long":-73.5236},{"zip":"12960","city":"Moriah","state":"NY","lat":44.0438,"long":-73.5079},{"zip":"12961","city":"Moriah Center","state":"NY","lat":44.0612,"long":-73.5098},{"zip":"12964","city":"New Russia","state":"NY","lat":44.1595,"long":-73.6059},{"zip":"12974","city":"Port Henry","state":"NY","lat":44.0465,"long":-73.4705},{"zip":"12975","city":"Port Kent","state":"NY","lat":44.5264,"long":-73.4092},{"zip":"12977","city":"Ray Brook","state":"NY","lat":44.2802,"long":-74.0795},{"zip":"12987","city":"Upper Jay","state":"NY","lat":44.3364,"long":-73.7757},{"zip":"12993","city":"Westport","state":"NY","lat":44.205,"long":-73.4702},{"zip":"12996","city":"Willsboro","state":"NY","lat":44.3604,"long":-73.3963},{"zip":"12997","city":"Wilmington","state":"NY","lat":44.3755,"long":-73.8431},{"zip":"12998","city":"Witherbee","state":"NY","lat":44.0827,"long":-73.5306},{"zip":"12914","city":"Bombay","state":"NY","lat":44.9479,"long":-74.5947},{"zip":"12915","city":"Brainardsville","state":"NY","lat":44.8578,"long":-74.0335},{"zip":"12916","city":"Brushton","state":"NY","lat":44.8282,"long":-74.5223},{"zip":"12917","city":"Burke","state":"NY","lat":44.9177,"long":-74.1731},{"zip":"12920","city":"Chateaugay","state":"NY","lat":44.9088,"long":-74.0741},{"zip":"12926","city":"Constable","state":"NY","lat":44.9417,"long":-74.3297},{"zip":"12930","city":"Dickinson Center","state":"NY","lat":44.7233,"long":-74.5523},{"zip":"12937","city":"Fort Covington","state":"NY","lat":44.9731,"long":-74.4929},{"zip":"12939","city":"Gabriels","state":"NY","lat":44.432,"long":-74.181},{"zip":"12945","city":"Lake Clear","state":"NY","lat":44.3375,"long":-74.2381},{"zip":"12953","city":"Malone","state":"NY","lat":44.8482,"long":-74.2928},{"zip":"12957","city":"Moira","state":"NY","lat":44.8504,"long":-74.5603},{"zip":"12966","city":"North Bangor","state":"NY","lat":44.8532,"long":-74.4191},{"zip":"12969","city":"Owls Head","state":"NY","lat":44.7308,"long":-74.1342},{"zip":"12970","city":"Paul Smiths","state":"NY","lat":44.445,"long":-74.2664},{"zip":"12976","city":"Rainbow Lake","state":"NY","lat":44.467,"long":-74.1729},{"zip":"12980","city":"Saint Regis Falls","state":"NY","lat":44.6578,"long":-74.5155},{"zip":"12983","city":"Saranac Lake","state":"NY","lat":44.3243,"long":-74.133},{"zip":"12986","city":"Tupper Lake","state":"NY","lat":44.232,"long":-74.4905},{"zip":"12989","city":"Vermontville","state":"NY","lat":44.4601,"long":-74.0573},{"zip":"12995","city":"Whippleville","state":"NY","lat":44.8057,"long":-74.2523},{"zip":"12922","city":"Childwold","state":"NY","lat":44.2867,"long":-74.6759},{"zip":"12927","city":"Cranberry Lake","state":"NY","lat":44.229,"long":-74.8581},{"zip":"12949","city":"Lawrenceville","state":"NY","lat":44.7469,"long":-74.6604},{"zip":"12965","city":"Nicholville","state":"NY","lat":44.703,"long":-74.6805},{"zip":"12967","city":"North Lawrence","state":"NY","lat":44.775,"long":-74.6653},{"zip":"12973","city":"Piercefield","state":"NY","lat":44.2343,"long":-74.556}]
