[{"zip":"13737","city":"Bible School Park","state":"NY","lat":42.0805,"long":-76.0973},{"zip":"13744","city":"Castle Creek","state":"NY","lat":42.2568,"long":-75.9087},{"zip":"13745","city":"Chenango Bridge","state":"NY","lat":42.1738,"long":-75.8728},{"zip":"13746","city":"Chenango Forks","state":"NY","lat":42.2778,"long":-75.8462},{"zip":"13748","city":"Conklin","state":"NY","lat":42.0454,"long":-75.8076},{"zip":"13749","city":"Corbettsville","state":"NY","lat":42.0156,"long":-75.7905},{"zip":"13754","city":"Deposit","state":"NY","lat":42.0666,"long":-75.4287},{"zip":"13760","city":"Endicott","state":"NY","lat":42.1506,"long":-76.0551},{"zip":"13761","city":"Endicott","state":"NY","lat":42.0984,"long":-76.0494},{"zip":"13762","city":"Endwell","state":"NY","lat":42.1129,"long":-76.021},{"zip":"13763","city":"Endicott","state":"NY","lat":42.0984,"long":-76.0494},{"zip":"13777","city":"Glen Aubrey","state":"NY","lat":42.2573,"long":-75.9805},{"zip":"13787","city":"Harpursville","state":"NY","lat":42.1823,"long":-75.6545},{"zip":"13790","city":"Johnson City","state":"NY","lat":42.1267,"long":-75.9685},{"zip":"13794","city":"Killawog","state":"NY","lat":42.4028,"long":-76.0366},{"zip":"13795","city":"Kirkwood","state":"NY","lat":42.0695,"long":-75.7967},{"zip":"13797","city":"Lisle","state":"NY","lat":42.3409,"long":-76.0302},{"zip":"13802","city":"Maine","state":"NY","lat":42.2538,"long":-76.0464},{"zip":"13813","city":"Nineveh","state":"NY","lat":42.1625,"long":-75.5484},{"zip":"13826","city":"Ouaquaga","state":"NY","lat":42.1121,"long":-75.6396},{"zip":"13833","city":"Port Crane","state":"NY","lat":42.1958,"long":-75.7591},{"zip":"13848","city":"Tunnel","state":"NY","lat":42.2147,"long":-75.7277},{"zip":"13850","city":"Vestal","state":"NY","lat":42.0771,"long":-76.0118},{"zip":"13851","city":"Vestal","state":"NY","lat":42.0851,"long":-76.0538},{"zip":"13862","city":"Whitney Point","state":"NY","lat":42.3384,"long":-75.9522},{"zip":"13865","city":"Windsor","state":"NY","lat":42.0759,"long":-75.6405},{"zip":"13901","city":"Binghamton","state":"NY","lat":42.1463,"long":-75.8865},{"zip":"13902","city":"Binghamton","state":"NY","lat":42.1054,"long":-75.8876},{"zip":"13903","city":"Binghamton","state":"NY","lat":42.0811,"long":-75.8977},{"zip":"13904","city":"Binghamton","state":"NY","lat":42.1171,"long":-75.8653},{"zip":"13905","city":"Binghamton","state":"NY","lat":42.1151,"long":-75.9309},{"zip":"13021","city":"Auburn","state":"NY","lat":42.93,"long":-76.5626},{"zip":"13022","city":"Auburn","state":"NY","lat":42.9317,"long":-76.5661},{"zip":"13024","city":"Auburn","state":"NY","lat":43.1634,"long":-76.5096},{"zip":"13026","city":"Aurora","state":"NY","lat":42.7472,"long":-76.6775},{"zip":"13033","city":"Cato","state":"NY","lat":43.1794,"long":-76.5648},{"zip":"13034","city":"Cayuga","state":"NY","lat":42.9142,"long":-76.7024},{"zip":"13071","city":"Genoa","state":"NY","lat":42.6746,"long":-76.5418},{"zip":"13081","city":"King Ferry","state":"NY","lat":42.6635,"long":-76.6216},{"zip":"13092","city":"Locke","state":"NY","lat":42.6558,"long":-76.4154},{"zip":"13111","city":"Martville","state":"NY","lat":43.2661,"long":-76.6289},{"zip":"13113","city":"Meridian","state":"NY","lat":43.1656,"long":-76.5369},{"zip":"13117","city":"Montezuma","state":"NY","lat":43.0101,"long":-76.7033},{"zip":"13118","city":"Moravia","state":"NY","lat":42.7355,"long":-76.399},{"zip":"13139","city":"Poplar Ridge","state":"NY","lat":42.7421,"long":-76.6285},{"zip":"13140","city":"Port Byron","state":"NY","lat":43.0427,"long":-76.6449},{"zip":"13147","city":"Scipio Center","state":"NY","lat":42.7708,"long":-76.5862},{"zip":"13156","city":"Sterling","state":"NY","lat":43.3296,"long":-76.6747},{"zip":"13160","city":"Union Springs","state":"NY","lat":42.8335,"long":-76.674},{"zip":"13166","city":"Weedsport","state":"NY","lat":43.0489,"long":-76.5425},{"zip":"13124","city":"North Pitcher","state":"NY","lat":42.6372,"long":-75.8164},{"zip":"13136","city":"Pitcher","state":"NY","lat":42.5969,"long":-75.8465},{"zip":"13155","city":"South Otselic","state":"NY","lat":42.6626,"long":-75.7669},{"zip":"13332","city":"Earlville","state":"NY","lat":42.7197,"long":-75.5589},{"zip":"13411","city":"New Berlin","state":"NY","lat":42.6224,"long":-75.3474},{"zip":"13460","city":"Sherburne","state":"NY","lat":42.6859,"long":-75.483},{"zip":"13464","city":"Smyrna","state":"NY","lat":42.6896,"long":-75.6121},{"zip":"13730","city":"Afton","state":"NY","lat":42.2417,"long":-75.5366},{"zip":"13733","city":"Bainbridge","state":"NY","lat":42.312,"long":-75.4894},{"zip":"13758","city":"East Pharsalia","state":"NY","lat":42.5835,"long":-75.7219},{"zip":"13778","city":"Greene","state":"NY","lat":42.3401,"long":-75.7342},{"zip":"13780","city":"Guilford","state":"NY","lat":42.4269,"long":-75.4823},{"zip":"13801","city":"Mc Donough","state":"NY","lat":42.5068,"long":-75.7623},{"zip":"13809","city":"Mount Upton","state":"NY","lat":42.4081,"long":-75.4003},{"zip":"13814","city":"North Norwich","state":"NY","lat":42.6036,"long":-75.5282},{"zip":"13815","city":"Norwich","state":"NY","lat":42.5414,"long":-75.5274},{"zip":"13830","city":"Oxford","state":"NY","lat":42.4379,"long":-75.5673},{"zip":"13832","city":"Plymouth","state":"NY","lat":42.6336,"long":-75.6172},{"zip":"13841","city":"Smithville Flats","state":"NY","lat":42.3989,"long":-75.8237},{"zip":"13843","city":"South New Berlin","state":"NY","lat":42.5295,"long":-75.3852},{"zip":"13844","city":"South Plymouth","state":"NY","lat":42.6053,"long":-75.633},{"zip":"13040","city":"Cincinnatus","state":"NY","lat":42.5385,"long":-75.903},{"zip":"13045","city":"Cortland","state":"NY","lat":42.5952,"long":-76.1857},{"zip":"13056","city":"East Homer","state":"NY","lat":42.6772,"long":-76.1052},{"zip":"13077","city":"Homer","state":"NY","lat":42.6726,"long":-76.1878},{"zip":"13087","city":"Little York","state":"NY","lat":42.707,"long":-76.1561},{"zip":"13101","city":"Mc Graw","state":"NY","lat":42.5948,"long":-76.082},{"zip":"13141","city":"Preble","state":"NY","lat":42.795,"long":-76.2141},{"zip":"13158","city":"Truxton","state":"NY","lat":42.7085,"long":-76.0189},{"zip":"13738","city":"Blodgett Mills","state":"NY","lat":42.5673,"long":-76.1238},{"zip":"13784","city":"Harford","state":"NY","lat":42.4262,"long":-76.2266},{"zip":"13803","city":"Marathon","state":"NY","lat":42.4527,"long":-76.0395},{"zip":"13863","city":"Willet","state":"NY","lat":42.452,"long":-75.9014},{"zip":"13731","city":"Andes","state":"NY","lat":42.1569,"long":-74.7887},{"zip":"13739","city":"Bloomville","state":"NY","lat":42.3522,"long":-74.8071},{"zip":"13740","city":"Bovina Center","state":"NY","lat":42.2709,"long":-74.7661},{"zip":"13750","city":"Davenport","state":"NY","lat":42.4711,"long":-74.8357},{"zip":"13751","city":"Davenport Center","state":"NY","lat":42.4508,"long":-74.9013},{"zip":"13752","city":"Delancey","state":"NY","lat":42.2884,"long":-75.1051},{"zip":"13753","city":"Delhi","state":"NY","lat":42.2937,"long":-74.9207},{"zip":"13755","city":"Downsville","state":"NY","lat":42.0716,"long":-75.0152},{"zip":"13756","city":"East Branch","state":"NY","lat":42.0039,"long":-75.1226},{"zip":"13757","city":"East Meredith","state":"NY","lat":42.4101,"long":-74.8987},{"zip":"13774","city":"Fishs Eddy","state":"NY","lat":41.9654,"long":-75.1594},{"zip":"13775","city":"Franklin","state":"NY","lat":42.3421,"long":-75.1485},{"zip":"13782","city":"Hamden","state":"NY","lat":42.1787,"long":-74.9984},{"zip":"13783","city":"Hancock","state":"NY","lat":41.9914,"long":-75.2647},{"zip":"13786","city":"Harpersfield","state":"NY","lat":42.4499,"long":-74.6871},{"zip":"13788","city":"Hobart","state":"NY","lat":42.3594,"long":-74.6759},{"zip":"13804","city":"Masonville","state":"NY","lat":42.2102,"long":-75.3739},{"zip":"13806","city":"Meridale","state":"NY","lat":42.3734,"long":-74.965},{"zip":"13838","city":"Sidney","state":"NY","lat":42.3074,"long":-75.3908},{"zip":"13839","city":"Sidney Center","state":"NY","lat":42.2441,"long":-75.2871},{"zip":"13842","city":"South Kortright","state":"NY","lat":42.377,"long":-74.7259},{"zip":"13846","city":"Treadwell","state":"NY","lat":42.363,"long":-75.0588},{"zip":"13847","city":"Trout Creek","state":"NY","lat":42.2037,"long":-75.2793},{"zip":"13856","city":"Walton","state":"NY","lat":42.1756,"long":-75.1532},{"zip":"13860","city":"West Davenport","state":"NY","lat":42.4459,"long":-74.9632},{"zip":"13655","city":"Hogansburg","state":"NY","lat":44.9825,"long":-74.6626},{"zip":"13470","city":"Stratford","state":"NY","lat":43.1791,"long":-74.6768},{"zip":"13353","city":"Hoffmeister","state":"NY","lat":43.3915,"long":-74.74},{"zip":"13360","city":"Inlet","state":"NY","lat":43.748,"long":-74.7846},{"zip":"13436","city":"Raquette Lake","state":"NY","lat":43.8131,"long":-74.6574},{"zip":"13324","city":"Cold Brook","state":"NY","lat":43.3024,"long":-74.9977},{"zip":"13329","city":"Dolgeville","state":"NY","lat":43.1042,"long":-74.7643},{"zip":"13331","city":"Eagle Bay","state":"NY","lat":43.8167,"long":-74.8862},{"zip":"13340","city":"Frankfort","state":"NY","lat":43.044,"long":-75.1072},{"zip":"13350","city":"Herkimer","state":"NY","lat":43.0307,"long":-74.9876},{"zip":"13357","city":"Ilion","state":"NY","lat":43.0064,"long":-75.0484},{"zip":"13361","city":"Jordanville","state":"NY","lat":42.9148,"long":-74.9515},{"zip":"13365","city":"Little Falls","state":"NY","lat":43.0474,"long":-74.8606},{"zip":"13406","city":"Middleville","state":"NY","lat":43.1369,"long":-74.924},{"zip":"13407","city":"Mohawk","state":"NY","lat":42.99,"long":-74.9853},{"zip":"13416","city":"Newport","state":"NY","lat":43.18,"long":-74.9861},{"zip":"13420","city":"Old Forge","state":"NY","lat":43.7435,"long":-74.8935},{"zip":"13431","city":"Poland","state":"NY","lat":43.2115,"long":-75.0731},{"zip":"13454","city":"Salisbury Center","state":"NY","lat":43.1625,"long":-74.7809},{"zip":"13472","city":"Thendara","state":"NY","lat":43.7001,"long":-75.0018},{"zip":"13475","city":"Van Hornesville","state":"NY","lat":42.8951,"long":-74.8276},{"zip":"13491","city":"West Winfield","state":"NY","lat":42.8826,"long":-75.1835},{"zip":"13601","city":"Watertown","state":"NY","lat":43.9743,"long":-75.9122},{"zip":"13602","city":"Fort Drum","state":"NY","lat":44.0354,"long":-75.754},{"zip":"13603","city":"Watertown","state":"NY","lat":43.9087,"long":-75.8967},{"zip":"13605","city":"Adams","state":"NY","lat":43.8062,"long":-76.049},{"zip":"13606","city":"Adams Center","state":"NY","lat":43.8631,"long":-76.0041},{"zip":"13607","city":"Alexandria Bay","state":"NY","lat":44.3359,"long":-75.9177},{"zip":"13608","city":"Antwerp","state":"NY","lat":44.2358,"long":-75.6005},{"zip":"13611","city":"Belleville","state":"NY","lat":43.778,"long":-76.1259},{"zip":"13612","city":"Black River","state":"NY","lat":44.0042,"long":-75.7958},{"zip":"13615","city":"Brownville","state":"NY","lat":44.007,"long":-75.9841},{"zip":"13616","city":"Calcium","state":"NY","lat":44.0265,"long":-75.8499},{"zip":"13618","city":"Cape Vincent","state":"NY","lat":44.1244,"long":-76.3164},{"zip":"13619","city":"Carthage","state":"NY","lat":43.9791,"long":-75.6013},{"zip":"13622","city":"Chaumont","state":"NY","lat":44.0848,"long":-76.1232},{"zip":"13624","city":"Clayton","state":"NY","lat":44.1442,"long":-76.062},{"zip":"13628","city":"Deferiet","state":"NY","lat":44.0356,"long":-75.6838},{"zip":"13632","city":"Depauville","state":"NY","lat":44.1395,"long":-76.0616},{"zip":"13634","city":"Dexter","state":"NY","lat":44.0069,"long":-76.065},{"zip":"13636","city":"Ellisburg","state":"NY","lat":43.7434,"long":-76.1165},{"zip":"13637","city":"Evans Mills","state":"NY","lat":44.0817,"long":-75.8305},{"zip":"13638","city":"Felts Mills","state":"NY","lat":44.0204,"long":-75.7524},{"zip":"13640","city":"Wellesley Island","state":"NY","lat":44.3213,"long":-76.0172},{"zip":"13641","city":"Fishers Landing","state":"NY","lat":44.2752,"long":-76.0049},{"zip":"13643","city":"Great Bend","state":"NY","lat":44.0147,"long":-75.7284},{"zip":"13650","city":"Henderson","state":"NY","lat":43.8467,"long":-76.2352},{"zip":"13651","city":"Henderson Harbor","state":"NY","lat":43.8708,"long":-76.1809},{"zip":"13656","city":"La Fargeville","state":"NY","lat":44.1987,"long":-75.9569},{"zip":"13657","city":"Limerick","state":"NY","lat":44.0292,"long":-76.043},{"zip":"13659","city":"Lorraine","state":"NY","lat":43.7568,"long":-75.9053},{"zip":"13661","city":"Mannsville","state":"NY","lat":43.7179,"long":-76.082},{"zip":"13665","city":"Natural Bridge","state":"NY","lat":44.063,"long":-75.5039},{"zip":"13671","city":"Oxbow","state":"NY","lat":44.2873,"long":-75.623},{"zip":"13673","city":"Philadelphia","state":"NY","lat":44.1589,"long":-75.7099},{"zip":"13674","city":"Pierrepont Manor","state":"NY","lat":43.7334,"long":-76.0543},{"zip":"13675","city":"Plessis","state":"NY","lat":44.2774,"long":-75.8496},{"zip":"13679","city":"Redwood","state":"NY","lat":44.3211,"long":-75.815},{"zip":"13682","city":"Rodman","state":"NY","lat":43.8622,"long":-75.8719},{"zip":"13685","city":"Sackets Harbor","state":"NY","lat":43.9398,"long":-76.105},{"zip":"13691","city":"Theresa","state":"NY","lat":44.2113,"long":-75.8014},{"zip":"13692","city":"Thousand Island Park","state":"NY","lat":44.2898,"long":-76.0262},{"zip":"13693","city":"Three Mile Bay","state":"NY","lat":44.0551,"long":-76.2689},{"zip":"13305","city":"Beaver Falls","state":"NY","lat":43.887,"long":-75.4274},{"zip":"13312","city":"Brantingham","state":"NY","lat":43.6887,"long":-75.2921},{"zip":"13325","city":"Constableville","state":"NY","lat":43.563,"long":-75.4584},{"zip":"13327","city":"Croghan","state":"NY","lat":43.9095,"long":-75.3542},{"zip":"13343","city":"Glenfield","state":"NY","lat":43.7323,"long":-75.3669},{"zip":"13345","city":"Greig","state":"NY","lat":43.6886,"long":-75.3302},{"zip":"13367","city":"Lowville","state":"NY","lat":43.7893,"long":-75.4156},{"zip":"13368","city":"Lyons Falls","state":"NY","lat":43.6262,"long":-75.3553},{"zip":"13404","city":"Martinsburg","state":"NY","lat":43.7376,"long":-75.4696},{"zip":"13433","city":"Port Leyden","state":"NY","lat":43.5802,"long":-75.3263},{"zip":"13473","city":"Turin","state":"NY","lat":43.6441,"long":-75.4132},{"zip":"13489","city":"West Leyden","state":"NY","lat":43.4597,"long":-75.5127},{"zip":"13620","city":"Castorland","state":"NY","lat":43.8843,"long":-75.4604},{"zip":"13626","city":"Copenhagen","state":"NY","lat":43.8801,"long":-75.6839},{"zip":"13627","city":"Deer River","state":"NY","lat":43.9298,"long":-75.5891},{"zip":"13631","city":"Denmark","state":"NY","lat":43.8998,"long":-75.5824},{"zip":"13648","city":"Harrisville","state":"NY","lat":44.1613,"long":-75.3252},{"zip":"13032","city":"Canastota","state":"NY","lat":43.0878,"long":-75.7602},{"zip":"13035","city":"Cazenovia","state":"NY","lat":42.938,"long":-75.8392},{"zip":"13037","city":"Chittenango","state":"NY","lat":43.0552,"long":-75.8768},{"zip":"13043","city":"Clockville","state":"NY","lat":43.042,"long":-75.7408},{"zip":"13052","city":"De Ruyter","state":"NY","lat":42.7494,"long":-75.8582},{"zip":"13061","city":"Erieville","state":"NY","lat":42.8562,"long":-75.7543},{"zip":"13072","city":"Georgetown","state":"NY","lat":42.7631,"long":-75.7443},{"zip":"13122","city":"New Woodstock","state":"NY","lat":42.8441,"long":-75.8635},{"zip":"13134","city":"Peterboro","state":"NY","lat":42.9686,"long":-75.6794},{"zip":"13163","city":"Wampsville","state":"NY","lat":43.0753,"long":-75.7069},{"zip":"13310","city":"Bouckville","state":"NY","lat":42.894,"long":-75.5678},{"zip":"13314","city":"Brookfield","state":"NY","lat":42.8128,"long":-75.3177},{"zip":"13334","city":"Eaton","state":"NY","lat":42.8484,"long":-75.6314},{"zip":"13346","city":"Hamilton","state":"NY","lat":42.8231,"long":-75.5434},{"zip":"13355","city":"Hubbardsville","state":"NY","lat":42.8237,"long":-75.4367},{"zip":"13364","city":"Leonardsville","state":"NY","lat":42.8087,"long":-75.2527},{"zip":"13402","city":"Madison","state":"NY","lat":42.8969,"long":-75.5076},{"zip":"13408","city":"Morrisville","state":"NY","lat":42.9108,"long":-75.6487},{"zip":"13409","city":"Munnsville","state":"NY","lat":42.9863,"long":-75.594},{"zip":"13418","city":"North Brookfield","state":"NY","lat":42.8501,"long":-75.3815},{"zip":"13421","city":"Oneida","state":"NY","lat":43.0862,"long":-75.6508},{"zip":"13465","city":"Solsville","state":"NY","lat":42.9106,"long":-75.5177},{"zip":"13484","city":"West Eaton","state":"NY","lat":42.8545,"long":-75.656},{"zip":"13317","city":"Canajoharie","state":"NY","lat":42.8671,"long":-74.5956},{"zip":"13339","city":"Fort Plain","state":"NY","lat":42.9372,"long":-74.6433},{"zip":"13410","city":"Nelliston","state":"NY","lat":42.9379,"long":-74.6117},{"zip":"13428","city":"Palatine Bridge","state":"NY","lat":42.9221,"long":-74.5708},{"zip":"13452","city":"Saint Johnsville","state":"NY","lat":43.017,"long":-74.646},{"zip":"13054","city":"Durhamville","state":"NY","lat":43.1579,"long":-75.6714},{"zip":"13123","city":"North Bay","state":"NY","lat":43.2364,"long":-75.7769},{"zip":"13157","city":"Sylvan Beach","state":"NY","lat":43.1965,"long":-75.7305},{"zip":"13162","city":"Verona Beach","state":"NY","lat":43.1885,"long":-75.7126},{"zip":"13301","city":"Alder Creek","state":"NY","lat":43.4157,"long":-75.2137},{"zip":"13303","city":"Ava","state":"NY","lat":43.3445,"long":-75.4509},{"zip":"13304","city":"Barneveld","state":"NY","lat":43.2237,"long":-75.1612},{"zip":"13308","city":"Blossvale","state":"NY","lat":43.2303,"long":-75.6873},{"zip":"13309","city":"Boonville","state":"NY","lat":43.4786,"long":-75.344},{"zip":"13313","city":"Bridgewater","state":"NY","lat":42.8792,"long":-75.2672},{"zip":"13316","city":"Camden","state":"NY","lat":43.3392,"long":-75.7543},{"zip":"13318","city":"Cassville","state":"NY","lat":42.9069,"long":-75.2607},{"zip":"13319","city":"Chadwicks","state":"NY","lat":43.0226,"long":-75.2656},{"zip":"13321","city":"Clark Mills","state":"NY","lat":43.0923,"long":-75.3796},{"zip":"13322","city":"Clayville","state":"NY","lat":42.9801,"long":-75.251},{"zip":"13323","city":"Clinton","state":"NY","lat":43.0586,"long":-75.3808},{"zip":"13328","city":"Deansboro","state":"NY","lat":42.9818,"long":-75.4383},{"zip":"13338","city":"Forestport","state":"NY","lat":43.4737,"long":-75.1787},{"zip":"13341","city":"Franklin Springs","state":"NY","lat":43.0361,"long":-75.3962},{"zip":"13352","city":"Hinckley","state":"NY","lat":43.3126,"long":-75.1169},{"zip":"13354","city":"Holland Patent","state":"NY","lat":43.2484,"long":-75.2535},{"zip":"13362","city":"Knoxboro","state":"NY","lat":42.9803,"long":-75.5186},{"zip":"13363","city":"Lee Center","state":"NY","lat":43.3148,"long":-75.5055},{"zip":"13401","city":"Mc Connellsville","state":"NY","lat":43.2672,"long":-75.6882},{"zip":"13403","city":"Marcy","state":"NY","lat":43.1639,"long":-75.2783},{"zip":"13413","city":"New Hartford","state":"NY","lat":43.0654,"long":-75.2906},{"zip":"13417","city":"New York Mills","state":"NY","lat":43.1,"long":-75.2937},{"zip":"13424","city":"Oriskany","state":"NY","lat":43.1524,"long":-75.3434},{"zip":"13425","city":"Oriskany Falls","state":"NY","lat":42.9576,"long":-75.4838},{"zip":"13435","city":"Prospect","state":"NY","lat":43.3052,"long":-75.1502},{"zip":"13438","city":"Remsen","state":"NY","lat":43.3385,"long":-75.1616},{"zip":"13440","city":"Rome","state":"NY","lat":43.2193,"long":-75.4498},{"zip":"13441","city":"Rome","state":"NY","lat":43.2264,"long":-75.4083},{"zip":"13442","city":"Rome","state":"NY","lat":43.2128,"long":-75.4557},{"zip":"13449","city":"Rome","state":"NY","lat":43.2393,"long":-75.478},{"zip":"13455","city":"Sangerfield","state":"NY","lat":42.9162,"long":-75.3545},{"zip":"13456","city":"Sauquoit","state":"NY","lat":43.0073,"long":-75.2626},{"zip":"13461","city":"Sherrill","state":"NY","lat":43.0704,"long":-75.599},{"zip":"13469","city":"Stittville","state":"NY","lat":43.2229,"long":-75.2899},{"zip":"13471","city":"Taberg","state":"NY","lat":43.3366,"long":-75.6027},{"zip":"13476","city":"Vernon","state":"NY","lat":43.0945,"long":-75.5627},{"zip":"13477","city":"Vernon Center","state":"NY","lat":43.0443,"long":-75.521},{"zip":"13478","city":"Verona","state":"NY","lat":43.1473,"long":-75.5724},{"zip":"13479","city":"Washington Mills","state":"NY","lat":43.0538,"long":-75.2716},{"zip":"13480","city":"Waterville","state":"NY","lat":42.9332,"long":-75.3815},{"zip":"13483","city":"Westdale","state":"NY","lat":43.4117,"long":-75.8226},{"zip":"13486","city":"Westernville","state":"NY","lat":43.3294,"long":-75.3151},{"zip":"13490","city":"Westmoreland","state":"NY","lat":43.1017,"long":-75.4533},{"zip":"13492","city":"Whitesboro","state":"NY","lat":43.1158,"long":-75.3095},{"zip":"13494","city":"Woodgate","state":"NY","lat":43.5249,"long":-75.1428},{"zip":"13495","city":"Yorkville","state":"NY","lat":43.1116,"long":-75.2756},{"zip":"13501","city":"Utica","state":"NY","lat":43.0871,"long":-75.2315},{"zip":"13502","city":"Utica","state":"NY","lat":43.1067,"long":-75.2314},{"zip":"13503","city":"Utica","state":"NY","lat":43.1019,"long":-75.2312},{"zip":"13504","city":"Utica","state":"NY","lat":43.1009,"long":-75.2327},{"zip":"13505","city":"Utica","state":"NY","lat":43.1009,"long":-75.2327},{"zip":"13599","city":"Utica","state":"NY","lat":43.1009,"long":-75.2327},{"zip":"13020","city":"Apulia Station","state":"NY","lat":42.8187,"long":-76.0724},{"zip":"13027","city":"Baldwinsville","state":"NY","lat":43.162,"long":-76.3237},{"zip":"13029","city":"Brewerton","state":"NY","lat":43.2252,"long":-76.1351},{"zip":"13030","city":"Bridgeport","state":"NY","lat":43.159,"long":-75.97},{"zip":"13031","city":"Camillus","state":"NY","lat":43.0417,"long":-76.2807},{"zip":"13039","city":"Cicero","state":"NY","lat":43.1707,"long":-76.0962},{"zip":"13041","city":"Clay","state":"NY","lat":43.1737,"long":-76.1707},{"zip":"13051","city":"Delphi Falls","state":"NY","lat":42.8765,"long":-75.9135},{"zip":"13057","city":"East Syracuse","state":"NY","lat":43.0734,"long":-76.0558},{"zip":"13060","city":"Elbridge","state":"NY","lat":43.0252,"long":-76.4352},{"zip":"13063","city":"Fabius","state":"NY","lat":42.8531,"long":-75.9836},{"zip":"13066","city":"Fayetteville","state":"NY","lat":43.0268,"long":-76.0145},{"zip":"13078","city":"Jamesville","state":"NY","lat":42.983,"long":-76.0766},{"zip":"13080","city":"Jordan","state":"NY","lat":43.0651,"long":-76.4598},{"zip":"13082","city":"Kirkville","state":"NY","lat":43.0981,"long":-75.955},{"zip":"13084","city":"La Fayette","state":"NY","lat":42.891,"long":-76.1061},{"zip":"13088","city":"Liverpool","state":"NY","lat":43.1099,"long":-76.187},{"zip":"13089","city":"Liverpool","state":"NY","lat":43.0214,"long":-76.1977},{"zip":"13090","city":"Liverpool","state":"NY","lat":43.1528,"long":-76.2235},{"zip":"13104","city":"Manlius","state":"NY","lat":42.9904,"long":-75.9703},{"zip":"13108","city":"Marcellus","state":"NY","lat":42.9821,"long":-76.3323},{"zip":"13110","city":"Marietta","state":"NY","lat":42.8974,"long":-76.2806},{"zip":"13112","city":"Memphis","state":"NY","lat":43.0934,"long":-76.403},{"zip":"13116","city":"Minoa","state":"NY","lat":43.0772,"long":-76.0098},{"zip":"13119","city":"Mottville","state":"NY","lat":42.9745,"long":-76.4408},{"zip":"13120","city":"Nedrow","state":"NY","lat":42.9559,"long":-76.1529},{"zip":"13137","city":"Plainville","state":"NY","lat":43.1577,"long":-76.447},{"zip":"13138","city":"Pompey","state":"NY","lat":42.8927,"long":-76.0265},{"zip":"13152","city":"Skaneateles","state":"NY","lat":42.9258,"long":-76.4052},{"zip":"13153","city":"Skaneateles Falls","state":"NY","lat":42.9931,"long":-76.456},{"zip":"13159","city":"Tully","state":"NY","lat":42.807,"long":-76.1394},{"zip":"13164","city":"Warners","state":"NY","lat":43.0932,"long":-76.2904},{"zip":"13201","city":"Syracuse","state":"NY","lat":43.0481,"long":-76.1474},{"zip":"13202","city":"Syracuse","state":"NY","lat":43.041,"long":-76.1489},{"zip":"13203","city":"Syracuse","state":"NY","lat":43.0607,"long":-76.1369},{"zip":"13204","city":"Syracuse","state":"NY","lat":43.0444,"long":-76.1758},{"zip":"13205","city":"Syracuse","state":"NY","lat":43.0123,"long":-76.1452},{"zip":"13206","city":"Syracuse","state":"NY","lat":43.0677,"long":-76.1102},{"zip":"13207","city":"Syracuse","state":"NY","lat":43.0195,"long":-76.165},{"zip":"13208","city":"Syracuse","state":"NY","lat":43.073,"long":-76.1486},{"zip":"13209","city":"Syracuse","state":"NY","lat":43.0847,"long":-76.2405},{"zip":"13210","city":"Syracuse","state":"NY","lat":43.0354,"long":-76.1282},{"zip":"13211","city":"Syracuse","state":"NY","lat":43.1036,"long":-76.1195},{"zip":"13212","city":"Syracuse","state":"NY","lat":43.1226,"long":-76.1284},{"zip":"13214","city":"Syracuse","state":"NY","lat":43.0397,"long":-76.0722},{"zip":"13215","city":"Syracuse","state":"NY","lat":42.9722,"long":-76.2276},{"zip":"13217","city":"Syracuse","state":"NY","lat":43.0214,"long":-76.1977},{"zip":"13218","city":"Syracuse","state":"NY","lat":43.0214,"long":-76.1977},{"zip":"13219","city":"Syracuse","state":"NY","lat":43.0409,"long":-76.2262},{"zip":"13220","city":"Syracuse","state":"NY","lat":43.1234,"long":-76.1282},{"zip":"13221","city":"Syracuse","state":"NY","lat":43.0481,"long":-76.1474},{"zip":"13224","city":"Syracuse","state":"NY","lat":43.0421,"long":-76.1046},{"zip":"13225","city":"Syracuse","state":"NY","lat":43.0214,"long":-76.1977},{"zip":"13235","city":"Syracuse","state":"NY","lat":43.0559,"long":-76.1526},{"zip":"13244","city":"Syracuse","state":"NY","lat":43.0377,"long":-76.1396},{"zip":"13250","city":"Syracuse","state":"NY","lat":43.0214,"long":-76.1977},{"zip":"13251","city":"Syracuse","state":"NY","lat":43.0214,"long":-76.1977},{"zip":"13252","city":"Syracuse","state":"NY","lat":43.051,"long":-76.1567},{"zip":"13261","city":"Syracuse","state":"NY","lat":43.0481,"long":-76.1474},{"zip":"13290","city":"Syracuse","state":"NY","lat":43.0676,"long":-76.1714},{"zip":"13028","city":"Bernhards Bay","state":"NY","lat":43.2717,"long":-75.9373},{"zip":"13036","city":"Central Square","state":"NY","lat":43.309,"long":-76.1849},{"zip":"13042","city":"Cleveland","state":"NY","lat":43.2432,"long":-75.8537},{"zip":"13044","city":"Constantia","state":"NY","lat":43.2728,"long":-76.0042},{"zip":"13064","city":"Fair Haven","state":"NY","lat":43.4313,"long":-76.2004},{"zip":"13069","city":"Fulton","state":"NY","lat":43.3211,"long":-76.4034},{"zip":"13074","city":"Hannibal","state":"NY","lat":43.3111,"long":-76.546},{"zip":"13076","city":"Hastings","state":"NY","lat":43.3527,"long":-76.1477},{"zip":"13083","city":"Lacona","state":"NY","lat":43.6429,"long":-76.0503},{"zip":"13093","city":"Lycoming","state":"NY","lat":43.4987,"long":-76.3858},{"zip":"13103","city":"Mallory","state":"NY","lat":43.3399,"long":-76.0964},{"zip":"13107","city":"Maple View","state":"NY","lat":43.4578,"long":-76.1534},{"zip":"13114","city":"Mexico","state":"NY","lat":43.4605,"long":-76.2446},{"zip":"13115","city":"Minetto","state":"NY","lat":43.3977,"long":-76.4824},{"zip":"13121","city":"New Haven","state":"NY","lat":43.4834,"long":-76.315},{"zip":"13126","city":"Oswego","state":"NY","lat":43.4394,"long":-76.4613},{"zip":"13131","city":"Parish","state":"NY","lat":43.4153,"long":-76.1},{"zip":"13132","city":"Pennellville","state":"NY","lat":43.2609,"long":-76.2395},{"zip":"13135","city":"Phoenix","state":"NY","lat":43.2468,"long":-76.3064},{"zip":"13142","city":"Pulaski","state":"NY","lat":43.5562,"long":-76.1252},{"zip":"13144","city":"Richland","state":"NY","lat":43.5776,"long":-76.0029},{"zip":"13145","city":"Sandy Creek","state":"NY","lat":43.6517,"long":-76.1264},{"zip":"13167","city":"West Monroe","state":"NY","lat":43.2882,"long":-76.0797},{"zip":"13302","city":"Altmar","state":"NY","lat":43.497,"long":-75.9719},{"zip":"13426","city":"Orwell","state":"NY","lat":43.5628,"long":-75.9968},{"zip":"13437","city":"Redfield","state":"NY","lat":43.5658,"long":-75.8242},{"zip":"13493","city":"Williamstown","state":"NY","lat":43.4106,"long":-75.9044},{"zip":"13315","city":"Burlington Flats","state":"NY","lat":42.7516,"long":-75.169},{"zip":"13320","city":"Cherry Valley","state":"NY","lat":42.7823,"long":-74.7444},{"zip":"13326","city":"Cooperstown","state":"NY","lat":42.7005,"long":-74.9243},{"zip":"13333","city":"East Springfield","state":"NY","lat":42.8336,"long":-74.8233},{"zip":"13335","city":"Edmeston","state":"NY","lat":42.6979,"long":-75.2438},{"zip":"13337","city":"Fly Creek","state":"NY","lat":42.7252,"long":-74.9869},{"zip":"13342","city":"Garrattsville","state":"NY","lat":42.6315,"long":-75.1866},{"zip":"13348","city":"Hartwick","state":"NY","lat":42.695,"long":-75.055},{"zip":"13415","city":"New Lisbon","state":"NY","lat":42.5904,"long":-75.1957},{"zip":"13439","city":"Richfield Springs","state":"NY","lat":42.8402,"long":-74.9716},{"zip":"13450","city":"Roseboom","state":"NY","lat":42.708,"long":-74.8025},{"zip":"13457","city":"Schuyler Lake","state":"NY","lat":42.7758,"long":-75.0485},{"zip":"13468","city":"Springfield Center","state":"NY","lat":42.8388,"long":-74.859},{"zip":"13482","city":"West Burlington","state":"NY","lat":42.7043,"long":-75.1849},{"zip":"13485","city":"West Edmeston","state":"NY","lat":42.7868,"long":-75.3149},{"zip":"13488","city":"Westford","state":"NY","lat":42.6809,"long":-74.7653},{"zip":"13747","city":"Colliersville","state":"NY","lat":42.5051,"long":-74.9821},{"zip":"13776","city":"Gilbertsville","state":"NY","lat":42.4715,"long":-75.3257},{"zip":"13796","city":"Laurens","state":"NY","lat":42.5383,"long":-75.1279},{"zip":"13807","city":"Milford","state":"NY","lat":42.6148,"long":-74.9685},{"zip":"13808","city":"Morris","state":"NY","lat":42.5478,"long":-75.2448},{"zip":"13810","city":"Mount Vision","state":"NY","lat":42.6068,"long":-75.1264},{"zip":"13820","city":"Oneonta","state":"NY","lat":42.4625,"long":-75.0491},{"zip":"13825","city":"Otego","state":"NY","lat":42.4133,"long":-75.2079},{"zip":"13834","city":"Portlandville","state":"NY","lat":42.5304,"long":-74.9671},{"zip":"13849","city":"Unadilla","state":"NY","lat":42.3252,"long":-75.3366},{"zip":"13859","city":"Wells Bridge","state":"NY","lat":42.3709,"long":-75.2486},{"zip":"13861","city":"West Oneonta","state":"NY","lat":42.5011,"long":-75.1409},{"zip":"13613","city":"Brasher Falls","state":"NY","lat":44.8467,"long":-74.7473},{"zip":"13614","city":"Brier Hill","state":"NY","lat":44.5525,"long":-75.6722},{"zip":"13617","city":"Canton","state":"NY","lat":44.5924,"long":-75.1628},{"zip":"13621","city":"Chase Mills","state":"NY","lat":44.8672,"long":-75.073},{"zip":"13623","city":"Chippewa Bay","state":"NY","lat":44.442,"long":-75.7569},{"zip":"13625","city":"Colton","state":"NY","lat":44.5016,"long":-74.9327},{"zip":"13630","city":"De Kalb Junction","state":"NY","lat":44.4896,"long":-75.2871},{"zip":"13633","city":"De Peyster","state":"NY","lat":44.4989,"long":-75.4772},{"zip":"13635","city":"Edwards","state":"NY","lat":44.311,"long":-75.2522},{"zip":"13639","city":"Fine","state":"NY","lat":44.2541,"long":-75.1379},{"zip":"13642","city":"Gouverneur","state":"NY","lat":44.3283,"long":-75.4651},{"zip":"13645","city":"Hailesboro","state":"NY","lat":44.3101,"long":-75.4463},{"zip":"13646","city":"Hammond","state":"NY","lat":44.4502,"long":-75.6727},{"zip":"13647","city":"Hannawa Falls","state":"NY","lat":44.6087,"long":-74.9732},{"zip":"13649","city":"Helena","state":"NY","lat":44.9217,"long":-74.7068},{"zip":"13652","city":"Hermon","state":"NY","lat":44.4448,"long":-75.1987},{"zip":"13654","city":"Heuvelton","state":"NY","lat":44.593,"long":-75.4203},{"zip":"13658","city":"Lisbon","state":"NY","lat":44.7184,"long":-75.2694},{"zip":"13660","city":"Madrid","state":"NY","lat":44.769,"long":-75.1413},{"zip":"13662","city":"Massena","state":"NY","lat":44.9322,"long":-74.8845},{"zip":"13664","city":"Morristown","state":"NY","lat":44.5843,"long":-75.6453},{"zip":"13666","city":"Newton Falls","state":"NY","lat":44.2177,"long":-74.9423},{"zip":"13667","city":"Norfolk","state":"NY","lat":44.8424,"long":-74.9577},{"zip":"13668","city":"Norwood","state":"NY","lat":44.7472,"long":-74.9992},{"zip":"13669","city":"Ogdensburg","state":"NY","lat":44.6902,"long":-75.4774},{"zip":"13670","city":"Oswegatchie","state":"NY","lat":44.1933,"long":-75.0659},{"zip":"13672","city":"Parishville","state":"NY","lat":44.5927,"long":-74.7941},{"zip":"13676","city":"Potsdam","state":"NY","lat":44.6592,"long":-74.9681},{"zip":"13677","city":"Pyrites","state":"NY","lat":44.5148,"long":-75.1858},{"zip":"13678","city":"Raymondville","state":"NY","lat":44.8287,"long":-74.9798},{"zip":"13680","city":"Rensselaer Falls","state":"NY","lat":44.5943,"long":-75.3237},{"zip":"13681","city":"Richville","state":"NY","lat":44.44,"long":-75.3777},{"zip":"13683","city":"Rooseveltown","state":"NY","lat":44.9728,"long":-74.731},{"zip":"13684","city":"Russell","state":"NY","lat":44.3824,"long":-75.1043},{"zip":"13687","city":"South Colton","state":"NY","lat":44.5041,"long":-74.8607},{"zip":"13690","city":"Star Lake","state":"NY","lat":44.1578,"long":-75.033},{"zip":"13694","city":"Waddington","state":"NY","lat":44.8564,"long":-75.2049},{"zip":"13695","city":"Wanakena","state":"NY","lat":44.1408,"long":-74.9125},{"zip":"13696","city":"West Stockholm","state":"NY","lat":44.6956,"long":-74.9},{"zip":"13697","city":"Winthrop","state":"NY","lat":44.7583,"long":-74.8066},{"zip":"13699","city":"Potsdam","state":"NY","lat":44.6698,"long":-74.9813},{"zip":"13459","city":"Sharon Springs","state":"NY","lat":42.7634,"long":-74.5919},{"zip":"13065","city":"Fayette","state":"NY","lat":42.8227,"long":-76.802},{"zip":"13148","city":"Seneca Falls","state":"NY","lat":42.9094,"long":-76.7925},{"zip":"13165","city":"Waterloo","state":"NY","lat":42.9045,"long":-76.8755},{"zip":"13732","city":"Apalachin","state":"NY","lat":42.0556,"long":-76.1519},{"zip":"13734","city":"Barton","state":"NY","lat":42.0695,"long":-76.3983},{"zip":"13736","city":"Berkshire","state":"NY","lat":42.3074,"long":-76.192},{"zip":"13743","city":"Candor","state":"NY","lat":42.2063,"long":-76.3322},{"zip":"13811","city":"Newark Valley","state":"NY","lat":42.2281,"long":-76.1625},{"zip":"13812","city":"Nichols","state":"NY","lat":42.0301,"long":-76.354},{"zip":"13827","city":"Owego","state":"NY","lat":42.1138,"long":-76.2528},{"zip":"13835","city":"Richford","state":"NY","lat":42.3945,"long":-76.1865},{"zip":"13840","city":"Smithboro","state":"NY","lat":42.0395,"long":-76.4004},{"zip":"13845","city":"Tioga Center","state":"NY","lat":42.0562,"long":-76.348},{"zip":"13864","city":"Willseyville","state":"NY","lat":42.3029,"long":-76.3897},{"zip":"13053","city":"Dryden","state":"NY","lat":42.4861,"long":-76.2872},{"zip":"13062","city":"Etna","state":"NY","lat":42.4851,"long":-76.3835},{"zip":"13068","city":"Freeville","state":"NY","lat":42.4998,"long":-76.3636},{"zip":"13073","city":"Groton","state":"NY","lat":42.5855,"long":-76.3633},{"zip":"13102","city":"Mc Lean","state":"NY","lat":42.5542,"long":-76.2927},{"zip":"13143","city":"Red Creek","state":"NY","lat":43.2291,"long":-76.7146},{"zip":"13146","city":"Savannah","state":"NY","lat":43.0934,"long":-76.7565},{"zip":"13154","city":"South Butler","state":"NY","lat":43.1344,"long":-76.7656}]
