[{"zip":"13021","city":"Auburn","state":"NY","lat":42.93,"long":-76.5626},{"zip":"13022","city":"Auburn","state":"NY","lat":42.9317,"long":-76.5661},{"zip":"13024","city":"Auburn","state":"NY","lat":43.1634,"long":-76.5096},{"zip":"13026","city":"Aurora","state":"NY","lat":42.7472,"long":-76.6775},{"zip":"13033","city":"Cato","state":"NY","lat":43.1794,"long":-76.5648},{"zip":"13034","city":"Cayuga","state":"NY","lat":42.9142,"long":-76.7024},{"zip":"13071","city":"Genoa","state":"NY","lat":42.6746,"long":-76.5418},{"zip":"13081","city":"King Ferry","state":"NY","lat":42.6635,"long":-76.6216},{"zip":"13092","city":"Locke","state":"NY","lat":42.6558,"long":-76.4154},{"zip":"13040","city":"Cincinnatus","state":"NY","lat":42.5385,"long":-75.903},{"zip":"13045","city":"Cortland","state":"NY","lat":42.5952,"long":-76.1857},{"zip":"13056","city":"East Homer","state":"NY","lat":42.6772,"long":-76.1052},{"zip":"13077","city":"Homer","state":"NY","lat":42.6726,"long":-76.1878},{"zip":"13087","city":"Little York","state":"NY","lat":42.707,"long":-76.1561},{"zip":"13032","city":"Canastota","state":"NY","lat":43.0878,"long":-75.7602},{"zip":"13035","city":"Cazenovia","state":"NY","lat":42.938,"long":-75.8392},{"zip":"13037","city":"Chittenango","state":"NY","lat":43.0552,"long":-75.8768},{"zip":"13043","city":"Clockville","state":"NY","lat":43.042,"long":-75.7408},{"zip":"13052","city":"De Ruyter","state":"NY","lat":42.7494,"long":-75.8582},{"zip":"13061","city":"Erieville","state":"NY","lat":42.8562,"long":-75.7543},{"zip":"13072","city":"Georgetown","state":"NY","lat":42.7631,"long":-75.7443},{"zip":"13054","city":"Durhamville","state":"NY","lat":43.1579,"long":-75.6714},{"zip":"13020","city":"Apulia Station","state":"NY","lat":42.8187,"long":-76.0724},{"zip":"13027","city":"Baldwinsville","state":"NY","lat":43.162,"long":-76.3237},{"zip":"13029","city":"Brewerton","state":"NY","lat":43.2252,"long":-76.1351},{"zip":"13030","city":"Bridgeport","state":"NY","lat":43.159,"long":-75.97},{"zip":"13031","city":"Camillus","state":"NY","lat":43.0417,"long":-76.2807},{"zip":"13039","city":"Cicero","state":"NY","lat":43.1707,"long":-76.0962},{"zip":"13041","city":"Clay","state":"NY","lat":43.1737,"long":-76.1707},{"zip":"13051","city":"Delphi Falls","state":"NY","lat":42.8765,"long":-75.9135},{"zip":"13057","city":"East Syracuse","state":"NY","lat":43.0734,"long":-76.0558},{"zip":"13060","city":"Elbridge","state":"NY","lat":43.0252,"long":-76.4352},{"zip":"13063","city":"Fabius","state":"NY","lat":42.8531,"long":-75.9836},{"zip":"13066","city":"Fayetteville","state":"NY","lat":43.0268,"long":-76.0145},{"zip":"13078","city":"Jamesville","state":"NY","lat":42.983,"long":-76.0766},{"zip":"13080","city":"Jordan","state":"NY","lat":43.0651,"long":-76.4598},{"zip":"13082","city":"Kirkville","state":"NY","lat":43.0981,"long":-75.955},{"zip":"13084","city":"La Fayette","state":"NY","lat":42.891,"long":-76.1061},{"zip":"13088","city":"Liverpool","state":"NY","lat":43.1099,"long":-76.187},{"zip":"13089","city":"Liverpool","state":"NY","lat":43.0214,"long":-76.1977},{"zip":"13090","city":"Liverpool","state":"NY","lat":43.1528,"long":-76.2235},{"zip":"13028","city":"Bernhards Bay","state":"NY","lat":43.2717,"long":-75.9373},{"zip":"13036","city":"Central Square","state":"NY","lat":43.309,"long":-76.1849},{"zip":"13042","city":"Cleveland","state":"NY","lat":43.2432,"long":-75.8537},{"zip":"13044","city":"Constantia","state":"NY","lat":43.2728,"long":-76.0042},{"zip":"13064","city":"Fair Haven","state":"NY","lat":43.4313,"long":-76.2004},{"zip":"13069","city":"Fulton","state":"NY","lat":43.3211,"long":-76.4034},{"zip":"13074","city":"Hannibal","state":"NY","lat":43.3111,"long":-76.546},{"zip":"13076","city":"Hastings","state":"NY","lat":43.3527,"long":-76.1477},{"zip":"13083","city":"Lacona","state":"NY","lat":43.6429,"long":-76.0503},{"zip":"13093","city":"Lycoming","state":"NY","lat":43.4987,"long":-76.3858},{"zip":"13065","city":"Fayette","state":"NY","lat":42.8227,"long":-76.802},{"zip":"13053","city":"Dryden","state":"NY","lat":42.4861,"long":-76.2872},{"zip":"13062","city":"Etna","state":"NY","lat":42.4851,"long":-76.3835},{"zip":"13068","city":"Freeville","state":"NY","lat":42.4998,"long":-76.3636},{"zip":"13073","city":"Groton","state":"NY","lat":42.5855,"long":-76.3633}]
