[{"zip":"13111","city":"Martville","state":"NY","lat":43.2661,"long":-76.6289},{"zip":"13113","city":"Meridian","state":"NY","lat":43.1656,"long":-76.5369},{"zip":"13117","city":"Montezuma","state":"NY","lat":43.0101,"long":-76.7033},{"zip":"13118","city":"Moravia","state":"NY","lat":42.7355,"long":-76.399},{"zip":"13139","city":"Poplar Ridge","state":"NY","lat":42.7421,"long":-76.6285},{"zip":"13140","city":"Port Byron","state":"NY","lat":43.0427,"long":-76.6449},{"zip":"13147","city":"Scipio Center","state":"NY","lat":42.7708,"long":-76.5862},{"zip":"13156","city":"Sterling","state":"NY","lat":43.3296,"long":-76.6747},{"zip":"13160","city":"Union Springs","state":"NY","lat":42.8335,"long":-76.674},{"zip":"13166","city":"Weedsport","state":"NY","lat":43.0489,"long":-76.5425},{"zip":"13124","city":"North Pitcher","state":"NY","lat":42.6372,"long":-75.8164},{"zip":"13136","city":"Pitcher","state":"NY","lat":42.5969,"long":-75.8465},{"zip":"13155","city":"South Otselic","state":"NY","lat":42.6626,"long":-75.7669},{"zip":"13101","city":"Mc Graw","state":"NY","lat":42.5948,"long":-76.082},{"zip":"13141","city":"Preble","state":"NY","lat":42.795,"long":-76.2141},{"zip":"13158","city":"Truxton","state":"NY","lat":42.7085,"long":-76.0189},{"zip":"13122","city":"New Woodstock","state":"NY","lat":42.8441,"long":-75.8635},{"zip":"13134","city":"Peterboro","state":"NY","lat":42.9686,"long":-75.6794},{"zip":"13163","city":"Wampsville","state":"NY","lat":43.0753,"long":-75.7069},{"zip":"13123","city":"North Bay","state":"NY","lat":43.2364,"long":-75.7769},{"zip":"13157","city":"Sylvan Beach","state":"NY","lat":43.1965,"long":-75.7305},{"zip":"13162","city":"Verona Beach","state":"NY","lat":43.1885,"long":-75.7126},{"zip":"13104","city":"Manlius","state":"NY","lat":42.9904,"long":-75.9703},{"zip":"13108","city":"Marcellus","state":"NY","lat":42.9821,"long":-76.3323},{"zip":"13110","city":"Marietta","state":"NY","lat":42.8974,"long":-76.2806},{"zip":"13112","city":"Memphis","state":"NY","lat":43.0934,"long":-76.403},{"zip":"13116","city":"Minoa","state":"NY","lat":43.0772,"long":-76.0098},{"zip":"13119","city":"Mottville","state":"NY","lat":42.9745,"long":-76.4408},{"zip":"13120","city":"Nedrow","state":"NY","lat":42.9559,"long":-76.1529},{"zip":"13137","city":"Plainville","state":"NY","lat":43.1577,"long":-76.447},{"zip":"13138","city":"Pompey","state":"NY","lat":42.8927,"long":-76.0265},{"zip":"13152","city":"Skaneateles","state":"NY","lat":42.9258,"long":-76.4052},{"zip":"13153","city":"Skaneateles Falls","state":"NY","lat":42.9931,"long":-76.456},{"zip":"13159","city":"Tully","state":"NY","lat":42.807,"long":-76.1394},{"zip":"13164","city":"Warners","state":"NY","lat":43.0932,"long":-76.2904},{"zip":"13103","city":"Mallory","state":"NY","lat":43.3399,"long":-76.0964},{"zip":"13107","city":"Maple View","state":"NY","lat":43.4578,"long":-76.1534},{"zip":"13114","city":"Mexico","state":"NY","lat":43.4605,"long":-76.2446},{"zip":"13115","city":"Minetto","state":"NY","lat":43.3977,"long":-76.4824},{"zip":"13121","city":"New Haven","state":"NY","lat":43.4834,"long":-76.315},{"zip":"13126","city":"Oswego","state":"NY","lat":43.4394,"long":-76.4613},{"zip":"13131","city":"Parish","state":"NY","lat":43.4153,"long":-76.1},{"zip":"13132","city":"Pennellville","state":"NY","lat":43.2609,"long":-76.2395},{"zip":"13135","city":"Phoenix","state":"NY","lat":43.2468,"long":-76.3064},{"zip":"13142","city":"Pulaski","state":"NY","lat":43.5562,"long":-76.1252},{"zip":"13144","city":"Richland","state":"NY","lat":43.5776,"long":-76.0029},{"zip":"13145","city":"Sandy Creek","state":"NY","lat":43.6517,"long":-76.1264},{"zip":"13167","city":"West Monroe","state":"NY","lat":43.2882,"long":-76.0797},{"zip":"13148","city":"Seneca Falls","state":"NY","lat":42.9094,"long":-76.7925},{"zip":"13165","city":"Waterloo","state":"NY","lat":42.9045,"long":-76.8755},{"zip":"13102","city":"Mc Lean","state":"NY","lat":42.5542,"long":-76.2927},{"zip":"13143","city":"Red Creek","state":"NY","lat":43.2291,"long":-76.7146},{"zip":"13146","city":"Savannah","state":"NY","lat":43.0934,"long":-76.7565},{"zip":"13154","city":"South Butler","state":"NY","lat":43.1344,"long":-76.7656}]
