[{"zip":"13201","city":"Syracuse","state":"NY","lat":43.0481,"long":-76.1474},{"zip":"13202","city":"Syracuse","state":"NY","lat":43.041,"long":-76.1489},{"zip":"13203","city":"Syracuse","state":"NY","lat":43.0607,"long":-76.1369},{"zip":"13204","city":"Syracuse","state":"NY","lat":43.0444,"long":-76.1758},{"zip":"13205","city":"Syracuse","state":"NY","lat":43.0123,"long":-76.1452},{"zip":"13206","city":"Syracuse","state":"NY","lat":43.0677,"long":-76.1102},{"zip":"13207","city":"Syracuse","state":"NY","lat":43.0195,"long":-76.165},{"zip":"13208","city":"Syracuse","state":"NY","lat":43.073,"long":-76.1486},{"zip":"13209","city":"Syracuse","state":"NY","lat":43.0847,"long":-76.2405},{"zip":"13210","city":"Syracuse","state":"NY","lat":43.0354,"long":-76.1282},{"zip":"13211","city":"Syracuse","state":"NY","lat":43.1036,"long":-76.1195},{"zip":"13212","city":"Syracuse","state":"NY","lat":43.1226,"long":-76.1284},{"zip":"13214","city":"Syracuse","state":"NY","lat":43.0397,"long":-76.0722},{"zip":"13215","city":"Syracuse","state":"NY","lat":42.9722,"long":-76.2276},{"zip":"13217","city":"Syracuse","state":"NY","lat":43.0214,"long":-76.1977},{"zip":"13218","city":"Syracuse","state":"NY","lat":43.0214,"long":-76.1977},{"zip":"13219","city":"Syracuse","state":"NY","lat":43.0409,"long":-76.2262},{"zip":"13220","city":"Syracuse","state":"NY","lat":43.1234,"long":-76.1282},{"zip":"13221","city":"Syracuse","state":"NY","lat":43.0481,"long":-76.1474},{"zip":"13224","city":"Syracuse","state":"NY","lat":43.0421,"long":-76.1046},{"zip":"13225","city":"Syracuse","state":"NY","lat":43.0214,"long":-76.1977},{"zip":"13235","city":"Syracuse","state":"NY","lat":43.0559,"long":-76.1526},{"zip":"13244","city":"Syracuse","state":"NY","lat":43.0377,"long":-76.1396},{"zip":"13250","city":"Syracuse","state":"NY","lat":43.0214,"long":-76.1977},{"zip":"13251","city":"Syracuse","state":"NY","lat":43.0214,"long":-76.1977},{"zip":"13252","city":"Syracuse","state":"NY","lat":43.051,"long":-76.1567},{"zip":"13261","city":"Syracuse","state":"NY","lat":43.0481,"long":-76.1474},{"zip":"13290","city":"Syracuse","state":"NY","lat":43.0676,"long":-76.1714}]
