[{"zip":"13332","city":"Earlville","state":"NY","lat":42.7197,"long":-75.5589},{"zip":"13353","city":"Hoffmeister","state":"NY","lat":43.3915,"long":-74.74},{"zip":"13360","city":"Inlet","state":"NY","lat":43.748,"long":-74.7846},{"zip":"13324","city":"Cold Brook","state":"NY","lat":43.3024,"long":-74.9977},{"zip":"13329","city":"Dolgeville","state":"NY","lat":43.1042,"long":-74.7643},{"zip":"13331","city":"Eagle Bay","state":"NY","lat":43.8167,"long":-74.8862},{"zip":"13340","city":"Frankfort","state":"NY","lat":43.044,"long":-75.1072},{"zip":"13350","city":"Herkimer","state":"NY","lat":43.0307,"long":-74.9876},{"zip":"13357","city":"Ilion","state":"NY","lat":43.0064,"long":-75.0484},{"zip":"13361","city":"Jordanville","state":"NY","lat":42.9148,"long":-74.9515},{"zip":"13365","city":"Little Falls","state":"NY","lat":43.0474,"long":-74.8606},{"zip":"13305","city":"Beaver Falls","state":"NY","lat":43.887,"long":-75.4274},{"zip":"13312","city":"Brantingham","state":"NY","lat":43.6887,"long":-75.2921},{"zip":"13325","city":"Constableville","state":"NY","lat":43.563,"long":-75.4584},{"zip":"13327","city":"Croghan","state":"NY","lat":43.9095,"long":-75.3542},{"zip":"13343","city":"Glenfield","state":"NY","lat":43.7323,"long":-75.3669},{"zip":"13345","city":"Greig","state":"NY","lat":43.6886,"long":-75.3302},{"zip":"13367","city":"Lowville","state":"NY","lat":43.7893,"long":-75.4156},{"zip":"13368","city":"Lyons Falls","state":"NY","lat":43.6262,"long":-75.3553},{"zip":"13310","city":"Bouckville","state":"NY","lat":42.894,"long":-75.5678},{"zip":"13314","city":"Brookfield","state":"NY","lat":42.8128,"long":-75.3177},{"zip":"13334","city":"Eaton","state":"NY","lat":42.8484,"long":-75.6314},{"zip":"13346","city":"Hamilton","state":"NY","lat":42.8231,"long":-75.5434},{"zip":"13355","city":"Hubbardsville","state":"NY","lat":42.8237,"long":-75.4367},{"zip":"13364","city":"Leonardsville","state":"NY","lat":42.8087,"long":-75.2527},{"zip":"13317","city":"Canajoharie","state":"NY","lat":42.8671,"long":-74.5956},{"zip":"13339","city":"Fort Plain","state":"NY","lat":42.9372,"long":-74.6433},{"zip":"13301","city":"Alder Creek","state":"NY","lat":43.4157,"long":-75.2137},{"zip":"13303","city":"Ava","state":"NY","lat":43.3445,"long":-75.4509},{"zip":"13304","city":"Barneveld","state":"NY","lat":43.2237,"long":-75.1612},{"zip":"13308","city":"Blossvale","state":"NY","lat":43.2303,"long":-75.6873},{"zip":"13309","city":"Boonville","state":"NY","lat":43.4786,"long":-75.344},{"zip":"13313","city":"Bridgewater","state":"NY","lat":42.8792,"long":-75.2672},{"zip":"13316","city":"Camden","state":"NY","lat":43.3392,"long":-75.7543},{"zip":"13318","city":"Cassville","state":"NY","lat":42.9069,"long":-75.2607},{"zip":"13319","city":"Chadwicks","state":"NY","lat":43.0226,"long":-75.2656},{"zip":"13321","city":"Clark Mills","state":"NY","lat":43.0923,"long":-75.3796},{"zip":"13322","city":"Clayville","state":"NY","lat":42.9801,"long":-75.251},{"zip":"13323","city":"Clinton","state":"NY","lat":43.0586,"long":-75.3808},{"zip":"13328","city":"Deansboro","state":"NY","lat":42.9818,"long":-75.4383},{"zip":"13338","city":"Forestport","state":"NY","lat":43.4737,"long":-75.1787},{"zip":"13341","city":"Franklin Springs","state":"NY","lat":43.0361,"long":-75.3962},{"zip":"13352","city":"Hinckley","state":"NY","lat":43.3126,"long":-75.1169},{"zip":"13354","city":"Holland Patent","state":"NY","lat":43.2484,"long":-75.2535},{"zip":"13362","city":"Knoxboro","state":"NY","lat":42.9803,"long":-75.5186},{"zip":"13363","city":"Lee Center","state":"NY","lat":43.3148,"long":-75.5055},{"zip":"13302","city":"Altmar","state":"NY","lat":43.497,"long":-75.9719},{"zip":"13315","city":"Burlington Flats","state":"NY","lat":42.7516,"long":-75.169},{"zip":"13320","city":"Cherry Valley","state":"NY","lat":42.7823,"long":-74.7444},{"zip":"13326","city":"Cooperstown","state":"NY","lat":42.7005,"long":-74.9243},{"zip":"13333","city":"East Springfield","state":"NY","lat":42.8336,"long":-74.8233},{"zip":"13335","city":"Edmeston","state":"NY","lat":42.6979,"long":-75.2438},{"zip":"13337","city":"Fly Creek","state":"NY","lat":42.7252,"long":-74.9869},{"zip":"13342","city":"Garrattsville","state":"NY","lat":42.6315,"long":-75.1866},{"zip":"13348","city":"Hartwick","state":"NY","lat":42.695,"long":-75.055}]
