[{"zip":"13737","city":"Bible School Park","state":"NY","lat":42.0805,"long":-76.0973},{"zip":"13744","city":"Castle Creek","state":"NY","lat":42.2568,"long":-75.9087},{"zip":"13745","city":"Chenango Bridge","state":"NY","lat":42.1738,"long":-75.8728},{"zip":"13746","city":"Chenango Forks","state":"NY","lat":42.2778,"long":-75.8462},{"zip":"13748","city":"Conklin","state":"NY","lat":42.0454,"long":-75.8076},{"zip":"13749","city":"Corbettsville","state":"NY","lat":42.0156,"long":-75.7905},{"zip":"13754","city":"Deposit","state":"NY","lat":42.0666,"long":-75.4287},{"zip":"13760","city":"Endicott","state":"NY","lat":42.1506,"long":-76.0551},{"zip":"13761","city":"Endicott","state":"NY","lat":42.0984,"long":-76.0494},{"zip":"13762","city":"Endwell","state":"NY","lat":42.1129,"long":-76.021},{"zip":"13763","city":"Endicott","state":"NY","lat":42.0984,"long":-76.0494},{"zip":"13777","city":"Glen Aubrey","state":"NY","lat":42.2573,"long":-75.9805},{"zip":"13787","city":"Harpursville","state":"NY","lat":42.1823,"long":-75.6545},{"zip":"13790","city":"Johnson City","state":"NY","lat":42.1267,"long":-75.9685},{"zip":"13794","city":"Killawog","state":"NY","lat":42.4028,"long":-76.0366},{"zip":"13795","city":"Kirkwood","state":"NY","lat":42.0695,"long":-75.7967},{"zip":"13797","city":"Lisle","state":"NY","lat":42.3409,"long":-76.0302},{"zip":"13730","city":"Afton","state":"NY","lat":42.2417,"long":-75.5366},{"zip":"13733","city":"Bainbridge","state":"NY","lat":42.312,"long":-75.4894},{"zip":"13758","city":"East Pharsalia","state":"NY","lat":42.5835,"long":-75.7219},{"zip":"13778","city":"Greene","state":"NY","lat":42.3401,"long":-75.7342},{"zip":"13780","city":"Guilford","state":"NY","lat":42.4269,"long":-75.4823},{"zip":"13738","city":"Blodgett Mills","state":"NY","lat":42.5673,"long":-76.1238},{"zip":"13784","city":"Harford","state":"NY","lat":42.4262,"long":-76.2266},{"zip":"13731","city":"Andes","state":"NY","lat":42.1569,"long":-74.7887},{"zip":"13739","city":"Bloomville","state":"NY","lat":42.3522,"long":-74.8071},{"zip":"13740","city":"Bovina Center","state":"NY","lat":42.2709,"long":-74.7661},{"zip":"13750","city":"Davenport","state":"NY","lat":42.4711,"long":-74.8357},{"zip":"13751","city":"Davenport Center","state":"NY","lat":42.4508,"long":-74.9013},{"zip":"13752","city":"Delancey","state":"NY","lat":42.2884,"long":-75.1051},{"zip":"13753","city":"Delhi","state":"NY","lat":42.2937,"long":-74.9207},{"zip":"13755","city":"Downsville","state":"NY","lat":42.0716,"long":-75.0152},{"zip":"13756","city":"East Branch","state":"NY","lat":42.0039,"long":-75.1226},{"zip":"13757","city":"East Meredith","state":"NY","lat":42.4101,"long":-74.8987},{"zip":"13774","city":"Fishs Eddy","state":"NY","lat":41.9654,"long":-75.1594},{"zip":"13775","city":"Franklin","state":"NY","lat":42.3421,"long":-75.1485},{"zip":"13782","city":"Hamden","state":"NY","lat":42.1787,"long":-74.9984},{"zip":"13783","city":"Hancock","state":"NY","lat":41.9914,"long":-75.2647},{"zip":"13786","city":"Harpersfield","state":"NY","lat":42.4499,"long":-74.6871},{"zip":"13788","city":"Hobart","state":"NY","lat":42.3594,"long":-74.6759},{"zip":"13747","city":"Colliersville","state":"NY","lat":42.5051,"long":-74.9821},{"zip":"13776","city":"Gilbertsville","state":"NY","lat":42.4715,"long":-75.3257},{"zip":"13796","city":"Laurens","state":"NY","lat":42.5383,"long":-75.1279},{"zip":"13732","city":"Apalachin","state":"NY","lat":42.0556,"long":-76.1519},{"zip":"13734","city":"Barton","state":"NY","lat":42.0695,"long":-76.3983},{"zip":"13736","city":"Berkshire","state":"NY","lat":42.3074,"long":-76.192},{"zip":"13743","city":"Candor","state":"NY","lat":42.2063,"long":-76.3322}]
