[{"zip":"13802","city":"Maine","state":"NY","lat":42.2538,"long":-76.0464},{"zip":"13813","city":"Nineveh","state":"NY","lat":42.1625,"long":-75.5484},{"zip":"13826","city":"Ouaquaga","state":"NY","lat":42.1121,"long":-75.6396},{"zip":"13833","city":"Port Crane","state":"NY","lat":42.1958,"long":-75.7591},{"zip":"13848","city":"Tunnel","state":"NY","lat":42.2147,"long":-75.7277},{"zip":"13850","city":"Vestal","state":"NY","lat":42.0771,"long":-76.0118},{"zip":"13851","city":"Vestal","state":"NY","lat":42.0851,"long":-76.0538},{"zip":"13862","city":"Whitney Point","state":"NY","lat":42.3384,"long":-75.9522},{"zip":"13865","city":"Windsor","state":"NY","lat":42.0759,"long":-75.6405},{"zip":"13801","city":"Mc Donough","state":"NY","lat":42.5068,"long":-75.7623},{"zip":"13809","city":"Mount Upton","state":"NY","lat":42.4081,"long":-75.4003},{"zip":"13814","city":"North Norwich","state":"NY","lat":42.6036,"long":-75.5282},{"zip":"13815","city":"Norwich","state":"NY","lat":42.5414,"long":-75.5274},{"zip":"13830","city":"Oxford","state":"NY","lat":42.4379,"long":-75.5673},{"zip":"13832","city":"Plymouth","state":"NY","lat":42.6336,"long":-75.6172},{"zip":"13841","city":"Smithville Flats","state":"NY","lat":42.3989,"long":-75.8237},{"zip":"13843","city":"South New Berlin","state":"NY","lat":42.5295,"long":-75.3852},{"zip":"13844","city":"South Plymouth","state":"NY","lat":42.6053,"long":-75.633},{"zip":"13803","city":"Marathon","state":"NY","lat":42.4527,"long":-76.0395},{"zip":"13863","city":"Willet","state":"NY","lat":42.452,"long":-75.9014},{"zip":"13804","city":"Masonville","state":"NY","lat":42.2102,"long":-75.3739},{"zip":"13806","city":"Meridale","state":"NY","lat":42.3734,"long":-74.965},{"zip":"13838","city":"Sidney","state":"NY","lat":42.3074,"long":-75.3908},{"zip":"13839","city":"Sidney Center","state":"NY","lat":42.2441,"long":-75.2871},{"zip":"13842","city":"South Kortright","state":"NY","lat":42.377,"long":-74.7259},{"zip":"13846","city":"Treadwell","state":"NY","lat":42.363,"long":-75.0588},{"zip":"13847","city":"Trout Creek","state":"NY","lat":42.2037,"long":-75.2793},{"zip":"13856","city":"Walton","state":"NY","lat":42.1756,"long":-75.1532},{"zip":"13860","city":"West Davenport","state":"NY","lat":42.4459,"long":-74.9632},{"zip":"13807","city":"Milford","state":"NY","lat":42.6148,"long":-74.9685},{"zip":"13808","city":"Morris","state":"NY","lat":42.5478,"long":-75.2448},{"zip":"13810","city":"Mount Vision","state":"NY","lat":42.6068,"long":-75.1264},{"zip":"13820","city":"Oneonta","state":"NY","lat":42.4625,"long":-75.0491},{"zip":"13825","city":"Otego","state":"NY","lat":42.4133,"long":-75.2079},{"zip":"13834","city":"Portlandville","state":"NY","lat":42.5304,"long":-74.9671},{"zip":"13849","city":"Unadilla","state":"NY","lat":42.3252,"long":-75.3366},{"zip":"13859","city":"Wells Bridge","state":"NY","lat":42.3709,"long":-75.2486},{"zip":"13861","city":"West Oneonta","state":"NY","lat":42.5011,"long":-75.1409},{"zip":"13811","city":"Newark Valley","state":"NY","lat":42.2281,"long":-76.1625},{"zip":"13812","city":"Nichols","state":"NY","lat":42.0301,"long":-76.354},{"zip":"13827","city":"Owego","state":"NY","lat":42.1138,"long":-76.2528},{"zip":"13835","city":"Richford","state":"NY","lat":42.3945,"long":-76.1865},{"zip":"13840","city":"Smithboro","state":"NY","lat":42.0395,"long":-76.4004},{"zip":"13845","city":"Tioga Center","state":"NY","lat":42.0562,"long":-76.348},{"zip":"13864","city":"Willseyville","state":"NY","lat":42.3029,"long":-76.3897}]
