[{"zip":"14029","city":"Centerville","state":"NY","lat":42.4743,"long":-78.2474},{"zip":"14707","city":"Allentown","state":"NY","lat":42.0737,"long":-78.0594},{"zip":"14708","city":"Alma","state":"NY","lat":42.0126,"long":-78.0578},{"zip":"14709","city":"Angelica","state":"NY","lat":42.3263,"long":-77.9947},{"zip":"14711","city":"Belfast","state":"NY","lat":42.32,"long":-78.0943},{"zip":"14714","city":"Black Creek","state":"NY","lat":42.2855,"long":-78.2312},{"zip":"14715","city":"Bolivar","state":"NY","lat":42.0704,"long":-78.1448},{"zip":"14717","city":"Caneadea","state":"NY","lat":42.364,"long":-78.184},{"zip":"14721","city":"Ceres","state":"NY","lat":42.0137,"long":-78.2648},{"zip":"14727","city":"Cuba","state":"NY","lat":42.1882,"long":-78.2751},{"zip":"14735","city":"Fillmore","state":"NY","lat":42.4508,"long":-78.1043},{"zip":"14739","city":"Friendship","state":"NY","lat":42.1907,"long":-78.1359},{"zip":"14744","city":"Houghton","state":"NY","lat":42.4228,"long":-78.2063},{"zip":"14745","city":"Hume","state":"NY","lat":42.4777,"long":-78.1403},{"zip":"14754","city":"Little Genesee","state":"NY","lat":42.0319,"long":-78.2097},{"zip":"14774","city":"Richburg","state":"NY","lat":42.1144,"long":-78.1681},{"zip":"14777","city":"Rushford","state":"NY","lat":42.3923,"long":-78.2536},{"zip":"14786","city":"West Clarksville","state":"NY","lat":42.1227,"long":-78.2213},{"zip":"14802","city":"Alfred","state":"NY","lat":42.2534,"long":-77.7893},{"zip":"14803","city":"Alfred Station","state":"NY","lat":42.2558,"long":-77.7781},{"zip":"14804","city":"Almond","state":"NY","lat":42.316,"long":-77.778},{"zip":"14806","city":"Andover","state":"NY","lat":42.1575,"long":-77.792},{"zip":"14813","city":"Belmont","state":"NY","lat":42.2334,"long":-78.011},{"zip":"14822","city":"Canaseraga","state":"NY","lat":42.4585,"long":-77.7954},{"zip":"14880","city":"Scio","state":"NY","lat":42.1697,"long":-77.99},{"zip":"14884","city":"Swain","state":"NY","lat":42.4773,"long":-77.889},{"zip":"14895","city":"Wellsville","state":"NY","lat":42.1108,"long":-77.9419},{"zip":"14897","city":"Whitesville","state":"NY","lat":42.0456,"long":-77.8106},{"zip":"14041","city":"Dayton","state":"NY","lat":42.4086,"long":-78.9844},{"zip":"14042","city":"Delevan","state":"NY","lat":42.4926,"long":-78.4793},{"zip":"14060","city":"Farmersville Station","state":"NY","lat":42.4276,"long":-78.3608},{"zip":"14065","city":"Freedom","state":"NY","lat":42.4897,"long":-78.3501},{"zip":"14070","city":"Gowanda","state":"NY","lat":42.4712,"long":-78.9339},{"zip":"14101","city":"Machias","state":"NY","lat":42.4083,"long":-78.5059},{"zip":"14129","city":"Perrysburg","state":"NY","lat":42.4723,"long":-78.9981},{"zip":"14133","city":"Sandusky","state":"NY","lat":42.4891,"long":-78.367},{"zip":"14138","city":"South Dayton","state":"NY","lat":42.3718,"long":-79.0501},{"zip":"14168","city":"Versailles","state":"NY","lat":42.5093,"long":-78.9995},{"zip":"14171","city":"West Valley","state":"NY","lat":42.4315,"long":-78.628},{"zip":"14173","city":"Yorkshire","state":"NY","lat":42.5247,"long":-78.4755},{"zip":"14706","city":"Allegany","state":"NY","lat":42.0918,"long":-78.4999},{"zip":"14719","city":"Cattaraugus","state":"NY","lat":42.3333,"long":-78.8885},{"zip":"14726","city":"Conewango Valley","state":"NY","lat":42.2625,"long":-79.022},{"zip":"14729","city":"East Otto","state":"NY","lat":42.3971,"long":-78.7432},{"zip":"14730","city":"East Randolph","state":"NY","lat":42.1747,"long":-78.9473},{"zip":"14731","city":"Ellicottville","state":"NY","lat":42.2959,"long":-78.6606},{"zip":"14737","city":"Franklinville","state":"NY","lat":42.3388,"long":-78.44},{"zip":"14741","city":"Great Valley","state":"NY","lat":42.2083,"long":-78.6208},{"zip":"14743","city":"Hinsdale","state":"NY","lat":42.1979,"long":-78.4159},{"zip":"14748","city":"Kill Buck","state":"NY","lat":42.145,"long":-78.6466},{"zip":"14751","city":"Leon","state":"NY","lat":42.2983,"long":-79.0062},{"zip":"14753","city":"Limestone","state":"NY","lat":42.0639,"long":-78.632},{"zip":"14755","city":"Little Valley","state":"NY","lat":42.2541,"long":-78.8093},{"zip":"14760","city":"Olean","state":"NY","lat":42.0821,"long":-78.426},{"zip":"14766","city":"Otto","state":"NY","lat":42.3575,"long":-78.8073},{"zip":"14770","city":"Portville","state":"NY","lat":42.0273,"long":-78.3314},{"zip":"14772","city":"Randolph","state":"NY","lat":42.1631,"long":-78.96},{"zip":"14778","city":"Saint Bonaventure","state":"NY","lat":42.2701,"long":-78.6847},{"zip":"14779","city":"Salamanca","state":"NY","lat":42.1604,"long":-78.7304},{"zip":"14783","city":"Steamburg","state":"NY","lat":42.082,"long":-78.9177},{"zip":"14788","city":"Westons Mills","state":"NY","lat":42.0621,"long":-78.378},{"zip":"14048","city":"Dunkirk","state":"NY","lat":42.4877,"long":-79.3283},{"zip":"14062","city":"Forestville","state":"NY","lat":42.4482,"long":-79.1607},{"zip":"14063","city":"Fredonia","state":"NY","lat":42.4333,"long":-79.3339},{"zip":"14081","city":"Irving","state":"NY","lat":42.5739,"long":-79.0596},{"zip":"14135","city":"Sheridan","state":"NY","lat":42.489,"long":-79.239},{"zip":"14136","city":"Silver Creek","state":"NY","lat":42.5357,"long":-79.1628},{"zip":"14166","city":"Van Buren Point","state":"NY","lat":42.4511,"long":-79.4154},{"zip":"14701","city":"Jamestown","state":"NY","lat":42.0928,"long":-79.244},{"zip":"14702","city":"Jamestown","state":"NY","lat":42.097,"long":-79.2353},{"zip":"14710","city":"Ashville","state":"NY","lat":42.1084,"long":-79.4056},{"zip":"14712","city":"Bemus Point","state":"NY","lat":42.1513,"long":-79.3581},{"zip":"14716","city":"Brocton","state":"NY","lat":42.394,"long":-79.4344},{"zip":"14718","city":"Cassadaga","state":"NY","lat":42.3504,"long":-79.2993},{"zip":"14720","city":"Celoron","state":"NY","lat":42.1095,"long":-79.2831},{"zip":"14722","city":"Chautauqua","state":"NY","lat":42.2098,"long":-79.4667},{"zip":"14723","city":"Cherry Creek","state":"NY","lat":42.3127,"long":-79.1203},{"zip":"14724","city":"Clymer","state":"NY","lat":42.0557,"long":-79.6685},{"zip":"14728","city":"Dewittville","state":"NY","lat":42.2394,"long":-79.4193},{"zip":"14732","city":"Ellington","state":"NY","lat":42.2291,"long":-79.1135},{"zip":"14733","city":"Falconer","state":"NY","lat":42.1239,"long":-79.1895},{"zip":"14736","city":"Findley Lake","state":"NY","lat":42.1204,"long":-79.7349},{"zip":"14738","city":"Frewsburg","state":"NY","lat":42.0528,"long":-79.1318},{"zip":"14740","city":"Gerry","state":"NY","lat":42.2147,"long":-79.1649},{"zip":"14742","city":"Greenhurst","state":"NY","lat":42.1205,"long":-79.3096},{"zip":"14747","city":"Kennedy","state":"NY","lat":42.1508,"long":-79.0964},{"zip":"14750","city":"Lakewood","state":"NY","lat":42.0973,"long":-79.3291},{"zip":"14752","city":"Lily Dale","state":"NY","lat":42.3524,"long":-79.3235},{"zip":"14756","city":"Maple Springs","state":"NY","lat":42.1967,"long":-79.4239},{"zip":"14757","city":"Mayville","state":"NY","lat":42.2409,"long":-79.4963},{"zip":"14758","city":"Niobe","state":"NY","lat":42.0126,"long":-79.4495},{"zip":"14767","city":"Panama","state":"NY","lat":42.057,"long":-79.4815},{"zip":"14769","city":"Portland","state":"NY","lat":42.3858,"long":-79.4589},{"zip":"14775","city":"Ripley","state":"NY","lat":42.2482,"long":-79.7121},{"zip":"14781","city":"Sherman","state":"NY","lat":42.1631,"long":-79.5857},{"zip":"14782","city":"Sinclairville","state":"NY","lat":42.2455,"long":-79.2673},{"zip":"14784","city":"Stockton","state":"NY","lat":42.3182,"long":-79.3758},{"zip":"14785","city":"Stow","state":"NY","lat":42.1557,"long":-79.4122},{"zip":"14787","city":"Westfield","state":"NY","lat":42.322,"long":-79.5726},{"zip":"14814","city":"Big Flats","state":"NY","lat":42.1455,"long":-76.9527},{"zip":"14816","city":"Breesport","state":"NY","lat":42.1939,"long":-76.7361},{"zip":"14825","city":"Chemung","state":"NY","lat":42.0392,"long":-76.6202},{"zip":"14838","city":"Erin","state":"NY","lat":42.1859,"long":-76.6819},{"zip":"14845","city":"Horseheads","state":"NY","lat":42.1805,"long":-76.8345},{"zip":"14861","city":"Lowman","state":"NY","lat":42.0694,"long":-76.693},{"zip":"14864","city":"Millport","state":"NY","lat":42.2581,"long":-76.8392},{"zip":"14871","city":"Pine City","state":"NY","lat":42.0419,"long":-76.8815},{"zip":"14872","city":"Pine Valley","state":"NY","lat":42.2348,"long":-76.8652},{"zip":"14889","city":"Van Etten","state":"NY","lat":42.2085,"long":-76.5717},{"zip":"14894","city":"Wellsburg","state":"NY","lat":42.0273,"long":-76.7723},{"zip":"14901","city":"Elmira","state":"NY","lat":42.1008,"long":-76.812},{"zip":"14902","city":"Elmira","state":"NY","lat":42.1473,"long":-76.7509},{"zip":"14903","city":"Elmira","state":"NY","lat":42.1198,"long":-76.8877},{"zip":"14904","city":"Elmira","state":"NY","lat":42.0729,"long":-76.8037},{"zip":"14905","city":"Elmira","state":"NY","lat":42.0869,"long":-76.8397},{"zip":"14001","city":"Akron","state":"NY","lat":43.0249,"long":-78.5084},{"zip":"14004","city":"Alden","state":"NY","lat":42.8984,"long":-78.5257},{"zip":"14006","city":"Angola","state":"NY","lat":42.6366,"long":-79.0497},{"zip":"14010","city":"Athol Springs","state":"NY","lat":42.7684,"long":-78.8871},{"zip":"14025","city":"Boston","state":"NY","lat":42.6314,"long":-78.7391},{"zip":"14026","city":"Bowmansville","state":"NY","lat":42.941,"long":-78.688},{"zip":"14027","city":"Brant","state":"NY","lat":42.5707,"long":-79.0308},{"zip":"14030","city":"Chaffee","state":"NY","lat":42.5605,"long":-78.5025},{"zip":"14031","city":"Clarence","state":"NY","lat":42.981,"long":-78.6162},{"zip":"14032","city":"Clarence Center","state":"NY","lat":43.0362,"long":-78.639},{"zip":"14033","city":"Colden","state":"NY","lat":42.6551,"long":-78.6921},{"zip":"14034","city":"Collins","state":"NY","lat":42.5001,"long":-78.893},{"zip":"14035","city":"Collins Center","state":"NY","lat":42.4906,"long":-78.8499},{"zip":"14038","city":"Crittenden","state":"NY","lat":42.9473,"long":-78.4744},{"zip":"14043","city":"Depew","state":"NY","lat":42.905,"long":-78.7041},{"zip":"14047","city":"Derby","state":"NY","lat":42.6974,"long":-78.9834},{"zip":"14051","city":"East Amherst","state":"NY","lat":43.0429,"long":-78.6988},{"zip":"14052","city":"East Aurora","state":"NY","lat":42.7701,"long":-78.602},{"zip":"14055","city":"East Concord","state":"NY","lat":42.5466,"long":-78.611},{"zip":"14057","city":"Eden","state":"NY","lat":42.6506,"long":-78.8781},{"zip":"14059","city":"Elma","state":"NY","lat":42.834,"long":-78.6343},{"zip":"14061","city":"Farnham","state":"NY","lat":42.5946,"long":-79.084},{"zip":"14068","city":"Getzville","state":"NY","lat":43.024,"long":-78.7532},{"zip":"14069","city":"Glenwood","state":"NY","lat":42.6001,"long":-78.6386},{"zip":"14072","city":"Grand Island","state":"NY","lat":43.0183,"long":-78.9591},{"zip":"14075","city":"Hamburg","state":"NY","lat":42.7334,"long":-78.8389},{"zip":"14080","city":"Holland","state":"NY","lat":42.6396,"long":-78.5439},{"zip":"14085","city":"Lake View","state":"NY","lat":42.7215,"long":-78.9327},{"zip":"14086","city":"Lancaster","state":"NY","lat":42.9017,"long":-78.6631},{"zip":"14091","city":"Lawtons","state":"NY","lat":42.5404,"long":-78.9212},{"zip":"14102","city":"Marilla","state":"NY","lat":42.8332,"long":-78.5587},{"zip":"14110","city":"North Boston","state":"NY","lat":42.6856,"long":-78.7767},{"zip":"14111","city":"North Collins","state":"NY","lat":42.5896,"long":-78.9107},{"zip":"14112","city":"North Evans","state":"NY","lat":42.6917,"long":-78.9927},{"zip":"14127","city":"Orchard Park","state":"NY","lat":42.7639,"long":-78.7518},{"zip":"14134","city":"Sardinia","state":"NY","lat":42.5323,"long":-78.5172},{"zip":"14139","city":"South Wales","state":"NY","lat":42.7063,"long":-78.5452},{"zip":"14140","city":"Spring Brook","state":"NY","lat":42.8072,"long":-78.6676},{"zip":"14141","city":"Springville","state":"NY","lat":42.52,"long":-78.6847},{"zip":"14150","city":"Tonawanda","state":"NY","lat":43.0028,"long":-78.8547},{"zip":"14151","city":"Tonawanda","state":"NY","lat":43.0203,"long":-78.8803},{"zip":"14169","city":"Wales Center","state":"NY","lat":42.7684,"long":-78.53},{"zip":"14170","city":"West Falls","state":"NY","lat":42.7053,"long":-78.6779},{"zip":"14201","city":"Buffalo","state":"NY","lat":42.8967,"long":-78.8846},{"zip":"14202","city":"Buffalo","state":"NY","lat":42.887,"long":-78.8779},{"zip":"14203","city":"Buffalo","state":"NY","lat":42.8939,"long":-78.8681},{"zip":"14204","city":"Buffalo","state":"NY","lat":42.884,"long":-78.8597},{"zip":"14205","city":"Buffalo","state":"NY","lat":42.8864,"long":-78.8784},{"zip":"14206","city":"Buffalo","state":"NY","lat":42.8811,"long":-78.8104},{"zip":"14207","city":"Buffalo","state":"NY","lat":42.9491,"long":-78.8978},{"zip":"14208","city":"Buffalo","state":"NY","lat":42.9154,"long":-78.8505},{"zip":"14209","city":"Buffalo","state":"NY","lat":42.913,"long":-78.8656},{"zip":"14210","city":"Buffalo","state":"NY","lat":42.8614,"long":-78.8205},{"zip":"14211","city":"Buffalo","state":"NY","lat":42.9082,"long":-78.8225},{"zip":"14212","city":"Buffalo","state":"NY","lat":42.8946,"long":-78.8245},{"zip":"14213","city":"Buffalo","state":"NY","lat":42.9167,"long":-78.8895},{"zip":"14214","city":"Buffalo","state":"NY","lat":42.9414,"long":-78.8374},{"zip":"14215","city":"Buffalo","state":"NY","lat":42.9335,"long":-78.8115},{"zip":"14216","city":"Buffalo","state":"NY","lat":42.9499,"long":-78.8599},{"zip":"14217","city":"Buffalo","state":"NY","lat":42.9719,"long":-78.8769},{"zip":"14218","city":"Buffalo","state":"NY","lat":42.8146,"long":-78.8078},{"zip":"14219","city":"Buffalo","state":"NY","lat":42.7863,"long":-78.8264},{"zip":"14220","city":"Buffalo","state":"NY","lat":42.8441,"long":-78.8182},{"zip":"14221","city":"Buffalo","state":"NY","lat":42.9685,"long":-78.7492},{"zip":"14222","city":"Buffalo","state":"NY","lat":42.9164,"long":-78.8763},{"zip":"14223","city":"Buffalo","state":"NY","lat":42.9731,"long":-78.845},{"zip":"14224","city":"Buffalo","state":"NY","lat":42.8371,"long":-78.7484},{"zip":"14225","city":"Buffalo","state":"NY","lat":42.9255,"long":-78.7481},{"zip":"14226","city":"Buffalo","state":"NY","lat":42.9744,"long":-78.7949},{"zip":"14227","city":"Buffalo","state":"NY","lat":42.8853,"long":-78.7462},{"zip":"14228","city":"Buffalo","state":"NY","lat":43.0408,"long":-78.7812},{"zip":"14231","city":"Buffalo","state":"NY","lat":42.7684,"long":-78.8871},{"zip":"14233","city":"Buffalo","state":"NY","lat":42.7684,"long":-78.8871},{"zip":"14240","city":"Buffalo","state":"NY","lat":42.7684,"long":-78.8871},{"zip":"14241","city":"Buffalo","state":"NY","lat":42.9383,"long":-78.7441},{"zip":"14260","city":"Buffalo","state":"NY","lat":42.7684,"long":-78.8871},{"zip":"14261","city":"Buffalo","state":"NY","lat":42.7684,"long":-78.8871},{"zip":"14263","city":"Buffalo","state":"NY","lat":42.7684,"long":-78.8871},{"zip":"14264","city":"Buffalo","state":"NY","lat":42.8856,"long":-78.8735},{"zip":"14265","city":"Buffalo","state":"NY","lat":42.7684,"long":-78.8871},{"zip":"14267","city":"Buffalo","state":"NY","lat":42.7684,"long":-78.8871},{"zip":"14269","city":"Buffalo","state":"NY","lat":42.7684,"long":-78.8871},{"zip":"14270","city":"Buffalo","state":"NY","lat":42.7684,"long":-78.8871},{"zip":"14272","city":"Buffalo","state":"NY","lat":42.7684,"long":-78.8871},{"zip":"14273","city":"Buffalo","state":"NY","lat":42.755,"long":-78.7849},{"zip":"14276","city":"Buffalo","state":"NY","lat":42.8864,"long":-78.8784},{"zip":"14280","city":"Buffalo","state":"NY","lat":42.8864,"long":-78.8784},{"zip":"14005","city":"Alexander","state":"NY","lat":42.9159,"long":-78.2589},{"zip":"14013","city":"Basom","state":"NY","lat":43.0807,"long":-78.3951},{"zip":"14020","city":"Batavia","state":"NY","lat":43.0003,"long":-78.1929},{"zip":"14021","city":"Batavia","state":"NY","lat":42.9981,"long":-78.1848},{"zip":"14036","city":"Corfu","state":"NY","lat":42.9777,"long":-78.3929},{"zip":"14040","city":"Darien Center","state":"NY","lat":42.8948,"long":-78.3878},{"zip":"14054","city":"East Bethany","state":"NY","lat":42.9166,"long":-78.1342},{"zip":"14056","city":"East Pembroke","state":"NY","lat":42.9912,"long":-78.3122},{"zip":"14058","city":"Elba","state":"NY","lat":43.0897,"long":-78.1704},{"zip":"14125","city":"Oakfield","state":"NY","lat":43.0717,"long":-78.2702},{"zip":"14143","city":"Stafford","state":"NY","lat":42.9829,"long":-78.0898},{"zip":"14416","city":"Bergen","state":"NY","lat":43.0869,"long":-77.9603},{"zip":"14422","city":"Byron","state":"NY","lat":43.0738,"long":-78.0629},{"zip":"14482","city":"Le Roy","state":"NY","lat":42.9774,"long":-77.9851},{"zip":"14486","city":"Linwood","state":"NY","lat":42.8943,"long":-77.9216},{"zip":"14525","city":"Pavilion","state":"NY","lat":42.9102,"long":-78.0269},{"zip":"14557","city":"South Byron","state":"NY","lat":43.0416,"long":-78.0573},{"zip":"14414","city":"Avon","state":"NY","lat":42.903,"long":-77.7274},{"zip":"14423","city":"Caledonia","state":"NY","lat":42.9567,"long":-77.8493},{"zip":"14435","city":"Conesus","state":"NY","lat":42.7216,"long":-77.6747},{"zip":"14437","city":"Dansville","state":"NY","lat":42.57,"long":-77.7109},{"zip":"14454","city":"Geneseo","state":"NY","lat":42.7938,"long":-77.7996},{"zip":"14462","city":"Groveland","state":"NY","lat":42.676,"long":-77.7573},{"zip":"14466","city":"Hemlock","state":"NY","lat":42.78,"long":-77.582},{"zip":"14480","city":"Lakeville","state":"NY","lat":42.8296,"long":-77.7149},{"zip":"14481","city":"Leicester","state":"NY","lat":42.7739,"long":-77.899},{"zip":"14485","city":"Lima","state":"NY","lat":42.9012,"long":-77.6083},{"zip":"14487","city":"Livonia","state":"NY","lat":42.8135,"long":-77.6635},{"zip":"14488","city":"Livonia Center","state":"NY","lat":42.8215,"long":-77.6386},{"zip":"14510","city":"Mount Morris","state":"NY","lat":42.6835,"long":-77.8664},{"zip":"14517","city":"Nunda","state":"NY","lat":42.5867,"long":-77.918},{"zip":"14533","city":"Piffard","state":"NY","lat":42.8435,"long":-77.8962},{"zip":"14539","city":"Retsof","state":"NY","lat":42.8343,"long":-77.8779},{"zip":"14545","city":"Scottsburg","state":"NY","lat":42.6649,"long":-77.701},{"zip":"14556","city":"Sonyea","state":"NY","lat":42.679,"long":-77.8272},{"zip":"14558","city":"South Lima","state":"NY","lat":42.8554,"long":-77.6876},{"zip":"14560","city":"Springwater","state":"NY","lat":42.6776,"long":-77.5775},{"zip":"14592","city":"York","state":"NY","lat":42.8757,"long":-77.8835},{"zip":"14836","city":"Dalton","state":"NY","lat":42.5449,"long":-77.9289},{"zip":"14846","city":"Hunt","state":"NY","lat":42.5388,"long":-77.9818},{"zip":"14410","city":"Adams Basin","state":"NY","lat":43.1953,"long":-77.8559},{"zip":"14420","city":"Brockport","state":"NY","lat":43.2128,"long":-77.9368},{"zip":"14428","city":"Churchville","state":"NY","lat":43.0749,"long":-77.835},{"zip":"14430","city":"Clarkson","state":"NY","lat":43.2331,"long":-77.9275},{"zip":"14445","city":"East Rochester","state":"NY","lat":43.1128,"long":-77.4906},{"zip":"14450","city":"Fairport","state":"NY","lat":43.0892,"long":-77.436},{"zip":"14464","city":"Hamlin","state":"NY","lat":43.3076,"long":-77.927},{"zip":"14467","city":"Henrietta","state":"NY","lat":43.0483,"long":-77.6122},{"zip":"14468","city":"Hilton","state":"NY","lat":43.2923,"long":-77.7905},{"zip":"14472","city":"Honeoye Falls","state":"NY","lat":42.9695,"long":-77.5781},{"zip":"14506","city":"Mendon","state":"NY","lat":42.9953,"long":-77.5001},{"zip":"14511","city":"Mumford","state":"NY","lat":42.9928,"long":-77.8603},{"zip":"14514","city":"North Chili","state":"NY","lat":43.1186,"long":-77.8005},{"zip":"14515","city":"North Greece","state":"NY","lat":43.2578,"long":-77.7351},{"zip":"14526","city":"Penfield","state":"NY","lat":43.1396,"long":-77.456},{"zip":"14534","city":"Pittsford","state":"NY","lat":43.0695,"long":-77.5141},{"zip":"14543","city":"Rush","state":"NY","lat":42.9966,"long":-77.6665},{"zip":"14546","city":"Scottsville","state":"NY","lat":43.0246,"long":-77.7743},{"zip":"14559","city":"Spencerport","state":"NY","lat":43.1895,"long":-77.8043},{"zip":"14580","city":"Webster","state":"NY","lat":43.2196,"long":-77.4616},{"zip":"14586","city":"West Henrietta","state":"NY","lat":43.0397,"long":-77.6871},{"zip":"14602","city":"Rochester","state":"NY","lat":43.286,"long":-77.6843},{"zip":"14603","city":"Rochester","state":"NY","lat":43.1616,"long":-77.6068},{"zip":"14604","city":"Rochester","state":"NY","lat":43.1577,"long":-77.608},{"zip":"14605","city":"Rochester","state":"NY","lat":43.1698,"long":-77.6007},{"zip":"14606","city":"Rochester","state":"NY","lat":43.1685,"long":-77.6845},{"zip":"14607","city":"Rochester","state":"NY","lat":43.1501,"long":-77.589},{"zip":"14608","city":"Rochester","state":"NY","lat":43.1521,"long":-77.6258},{"zip":"14609","city":"Rochester","state":"NY","lat":43.174,"long":-77.5637},{"zip":"14610","city":"Rochester","state":"NY","lat":43.1452,"long":-77.5495},{"zip":"14611","city":"Rochester","state":"NY","lat":43.1484,"long":-77.6394},{"zip":"14612","city":"Rochester","state":"NY","lat":43.2566,"long":-77.6652},{"zip":"14613","city":"Rochester","state":"NY","lat":43.1831,"long":-77.6393},{"zip":"14614","city":"Rochester","state":"NY","lat":43.1558,"long":-77.6142},{"zip":"14615","city":"Rochester","state":"NY","lat":43.2058,"long":-77.6521},{"zip":"14616","city":"Rochester","state":"NY","lat":43.2346,"long":-77.6577},{"zip":"14617","city":"Rochester","state":"NY","lat":43.2203,"long":-77.5994},{"zip":"14618","city":"Rochester","state":"NY","lat":43.1122,"long":-77.5618},{"zip":"14619","city":"Rochester","state":"NY","lat":43.1367,"long":-77.6481},{"zip":"14620","city":"Rochester","state":"NY","lat":43.1317,"long":-77.6062},{"zip":"14621","city":"Rochester","state":"NY","lat":43.1834,"long":-77.6043},{"zip":"14622","city":"Rochester","state":"NY","lat":43.214,"long":-77.5555},{"zip":"14623","city":"Rochester","state":"NY","lat":43.0834,"long":-77.6344},{"zip":"14624","city":"Rochester","state":"NY","lat":43.1216,"long":-77.7311},{"zip":"14625","city":"Rochester","state":"NY","lat":43.1522,"long":-77.5057},{"zip":"14626","city":"Rochester","state":"NY","lat":43.2126,"long":-77.704},{"zip":"14627","city":"Rochester","state":"NY","lat":43.1275,"long":-77.6277},{"zip":"14638","city":"Rochester","state":"NY","lat":43.286,"long":-77.6843},{"zip":"14639","city":"Rochester","state":"NY","lat":43.286,"long":-77.6843},{"zip":"14642","city":"Rochester","state":"NY","lat":43.286,"long":-77.6843},{"zip":"14643","city":"Rochester","state":"NY","lat":43.1548,"long":-77.6156},{"zip":"14644","city":"Rochester","state":"NY","lat":43.286,"long":-77.6843},{"zip":"14646","city":"Rochester","state":"NY","lat":43.286,"long":-77.6843},{"zip":"14647","city":"Rochester","state":"NY","lat":43.1548,"long":-77.6156},{"zip":"14649","city":"Rochester","state":"NY","lat":43.286,"long":-77.6843},{"zip":"14650","city":"Rochester","state":"NY","lat":43.1548,"long":-77.6156},{"zip":"14651","city":"Rochester","state":"NY","lat":43.1548,"long":-77.6156},{"zip":"14652","city":"Rochester","state":"NY","lat":43.286,"long":-77.6843},{"zip":"14653","city":"Rochester","state":"NY","lat":43.286,"long":-77.6843},{"zip":"14692","city":"Rochester","state":"NY","lat":43.286,"long":-77.6843},{"zip":"14694","city":"Rochester","state":"NY","lat":43.286,"long":-77.6843},{"zip":"14008","city":"Appleton","state":"NY","lat":43.3105,"long":-78.6372},{"zip":"14012","city":"Barker","state":"NY","lat":43.3368,"long":-78.542},{"zip":"14028","city":"Burt","state":"NY","lat":43.3221,"long":-78.7141},{"zip":"14067","city":"Gasport","state":"NY","lat":43.2106,"long":-78.5745},{"zip":"14092","city":"Lewiston","state":"NY","lat":43.1722,"long":-79.0215},{"zip":"14094","city":"Lockport","state":"NY","lat":43.16,"long":-78.6923},{"zip":"14095","city":"Lockport","state":"NY","lat":43.1706,"long":-78.6903},{"zip":"14105","city":"Middleport","state":"NY","lat":43.2183,"long":-78.4841},{"zip":"14107","city":"Model City","state":"NY","lat":43.1851,"long":-78.9837},{"zip":"14108","city":"Newfane","state":"NY","lat":43.2724,"long":-78.707},{"zip":"14109","city":"Niagara University","state":"NY","lat":43.138,"long":-79.0342},{"zip":"14120","city":"North Tonawanda","state":"NY","lat":43.0498,"long":-78.851},{"zip":"14126","city":"Olcott","state":"NY","lat":43.3304,"long":-78.7267},{"zip":"14131","city":"Ransomville","state":"NY","lat":43.2286,"long":-78.8982},{"zip":"14132","city":"Sanborn","state":"NY","lat":43.1419,"long":-78.8785},{"zip":"14144","city":"Stella Niagara","state":"NY","lat":43.1995,"long":-79.0425},{"zip":"14172","city":"Wilson","state":"NY","lat":43.2968,"long":-78.8244},{"zip":"14174","city":"Youngstown","state":"NY","lat":43.2461,"long":-79.0245},{"zip":"14301","city":"Niagara Falls","state":"NY","lat":43.0955,"long":-79.0414},{"zip":"14302","city":"Niagara Falls","state":"NY","lat":43.0945,"long":-79.0567},{"zip":"14303","city":"Niagara Falls","state":"NY","lat":43.0878,"long":-79.037},{"zip":"14304","city":"Niagara Falls","state":"NY","lat":43.0908,"long":-78.9644},{"zip":"14305","city":"Niagara Falls","state":"NY","lat":43.1146,"long":-79.0378},{"zip":"14424","city":"Canandaigua","state":"NY","lat":42.8689,"long":-77.2846},{"zip":"14425","city":"Farmington","state":"NY","lat":42.958,"long":-77.3083},{"zip":"14432","city":"Clifton Springs","state":"NY","lat":42.9632,"long":-77.144},{"zip":"14443","city":"East Bloomfield","state":"NY","lat":42.901,"long":-77.4233},{"zip":"14453","city":"Fishers","state":"NY","lat":43.0109,"long":-77.4705},{"zip":"14456","city":"Geneva","state":"NY","lat":42.8637,"long":-76.9913},{"zip":"14461","city":"Gorham","state":"NY","lat":42.799,"long":-77.1316},{"zip":"14463","city":"Hall","state":"NY","lat":42.7966,"long":-77.0639},{"zip":"14469","city":"Bloomfield","state":"NY","lat":42.8851,"long":-77.46},{"zip":"14471","city":"Honeoye","state":"NY","lat":42.7901,"long":-77.5169},{"zip":"14475","city":"Ionia","state":"NY","lat":42.938,"long":-77.5009},{"zip":"14504","city":"Manchester","state":"NY","lat":42.9689,"long":-77.2332},{"zip":"14512","city":"Naples","state":"NY","lat":42.6404,"long":-77.3901},{"zip":"14518","city":"Oaks Corners","state":"NY","lat":42.9319,"long":-77.0118},{"zip":"14532","city":"Phelps","state":"NY","lat":42.9582,"long":-77.0473},{"zip":"14537","city":"Port Gibson","state":"NY","lat":43.0345,"long":-77.1575},{"zip":"14547","city":"Seneca Castle","state":"NY","lat":42.887,"long":-77.0961},{"zip":"14548","city":"Shortsville","state":"NY","lat":42.9761,"long":-77.2439},{"zip":"14561","city":"Stanley","state":"NY","lat":42.8303,"long":-77.1207},{"zip":"14564","city":"Victor","state":"NY","lat":42.9866,"long":-77.418},{"zip":"14585","city":"West Bloomfield","state":"NY","lat":42.9063,"long":-77.5531},{"zip":"14098","city":"Lyndonville","state":"NY","lat":43.3233,"long":-78.3811},{"zip":"14103","city":"Medina","state":"NY","lat":43.2184,"long":-78.3874},{"zip":"14411","city":"Albion","state":"NY","lat":43.2398,"long":-78.2068},{"zip":"14429","city":"Clarendon","state":"NY","lat":43.1934,"long":-78.0647},{"zip":"14452","city":"Fancher","state":"NY","lat":43.2448,"long":-78.0911},{"zip":"14470","city":"Holley","state":"NY","lat":43.2159,"long":-78.0731},{"zip":"14476","city":"Kendall","state":"NY","lat":43.3284,"long":-78.0304},{"zip":"14477","city":"Kent","state":"NY","lat":43.3341,"long":-78.1355},{"zip":"14479","city":"Knowlesville","state":"NY","lat":43.2363,"long":-78.3138},{"zip":"14508","city":"Morton","state":"NY","lat":43.3281,"long":-77.9953},{"zip":"14571","city":"Waterport","state":"NY","lat":43.3326,"long":-78.243},{"zip":"14805","city":"Alpine","state":"NY","lat":42.351,"long":-76.7348},{"zip":"14812","city":"Beaver Dams","state":"NY","lat":42.2798,"long":-76.972},{"zip":"14818","city":"Burdett","state":"NY","lat":42.4394,"long":-76.8292},{"zip":"14824","city":"Cayuta","state":"NY","lat":42.2774,"long":-76.6974},{"zip":"14841","city":"Hector","state":"NY","lat":42.4966,"long":-76.8786},{"zip":"14863","city":"Mecklenburg","state":"NY","lat":42.4516,"long":-76.7067},{"zip":"14865","city":"Montour Falls","state":"NY","lat":42.3437,"long":-76.8396},{"zip":"14869","city":"Odessa","state":"NY","lat":42.3609,"long":-76.7717},{"zip":"14876","city":"Reading Center","state":"NY","lat":42.4297,"long":-76.9258},{"zip":"14887","city":"Tyrone","state":"NY","lat":42.3994,"long":-77.0268},{"zip":"14891","city":"Watkins Glen","state":"NY","lat":42.3771,"long":-76.9022},{"zip":"14893","city":"Wayne","state":"NY","lat":42.4741,"long":-77.0977},{"zip":"14521","city":"Ovid","state":"NY","lat":42.6898,"long":-76.7941},{"zip":"14541","city":"Romulus","state":"NY","lat":42.7497,"long":-76.8449},{"zip":"14588","city":"Willard","state":"NY","lat":42.6835,"long":-76.8724},{"zip":"14847","city":"Interlaken","state":"NY","lat":42.6165,"long":-76.7268},{"zip":"14860","city":"Lodi","state":"NY","lat":42.5966,"long":-76.8339},{"zip":"14529","city":"Perkinsville","state":"NY","lat":42.5398,"long":-77.6283},{"zip":"14572","city":"Wayland","state":"NY","lat":42.5593,"long":-77.5906},{"zip":"14801","city":"Addison","state":"NY","lat":42.0983,"long":-77.266},{"zip":"14807","city":"Arkport","state":"NY","lat":42.4225,"long":-77.6918},{"zip":"14808","city":"Atlanta","state":"NY","lat":42.5596,"long":-77.4669},{"zip":"14809","city":"Avoca","state":"NY","lat":42.3679,"long":-77.4641},{"zip":"14810","city":"Bath","state":"NY","lat":42.3575,"long":-77.3028},{"zip":"14815","city":"Bradford","state":"NY","lat":42.3825,"long":-77.0913},{"zip":"14819","city":"Cameron","state":"NY","lat":42.2128,"long":-77.4403},{"zip":"14820","city":"Cameron Mills","state":"NY","lat":42.1925,"long":-77.365},{"zip":"14821","city":"Campbell","state":"NY","lat":42.2386,"long":-77.2066},{"zip":"14823","city":"Canisteo","state":"NY","lat":42.2635,"long":-77.5897},{"zip":"14826","city":"Cohocton","state":"NY","lat":42.5003,"long":-77.4998},{"zip":"14827","city":"Coopers Plains","state":"NY","lat":42.1785,"long":-77.1414},{"zip":"14830","city":"Corning","state":"NY","lat":42.1383,"long":-77.0475},{"zip":"14831","city":"Corning","state":"NY","lat":42.1429,"long":-77.0547},{"zip":"14839","city":"Greenwood","state":"NY","lat":42.1398,"long":-77.636},{"zip":"14840","city":"Hammondsport","state":"NY","lat":42.4312,"long":-77.1977},{"zip":"14843","city":"Hornell","state":"NY","lat":42.3274,"long":-77.6569},{"zip":"14855","city":"Jasper","state":"NY","lat":42.129,"long":-77.4999},{"zip":"14856","city":"Kanona","state":"NY","lat":42.3742,"long":-77.3648},{"zip":"14858","city":"Lindley","state":"NY","lat":42.0284,"long":-77.1397},{"zip":"14870","city":"Painted Post","state":"NY","lat":42.171,"long":-77.1194},{"zip":"14873","city":"Prattsburgh","state":"NY","lat":42.5224,"long":-77.2983},{"zip":"14874","city":"Pulteney","state":"NY","lat":42.5233,"long":-77.1691},{"zip":"14877","city":"Rexville","state":"NY","lat":42.0726,"long":-77.6767},{"zip":"14879","city":"Savona","state":"NY","lat":42.3041,"long":-77.2083},{"zip":"14885","city":"Troupsburg","state":"NY","lat":42.0501,"long":-77.5502},{"zip":"14898","city":"Woodhull","state":"NY","lat":42.0736,"long":-77.4203},{"zip":"14859","city":"Lockwood","state":"NY","lat":42.1149,"long":-76.5366},{"zip":"14883","city":"Spencer","state":"NY","lat":42.2467,"long":-76.4899},{"zip":"14892","city":"Waverly","state":"NY","lat":42.0172,"long":-76.5333},{"zip":"14817","city":"Brooktondale","state":"NY","lat":42.3765,"long":-76.3668},{"zip":"14850","city":"Ithaca","state":"NY","lat":42.4406,"long":-76.4966},{"zip":"14851","city":"Ithaca","state":"NY","lat":42.4607,"long":-76.5054},{"zip":"14852","city":"Ithaca","state":"NY","lat":42.4451,"long":-76.4672},{"zip":"14853","city":"Ithaca","state":"NY","lat":42.4474,"long":-76.4837},{"zip":"14854","city":"Jacksonville","state":"NY","lat":42.5084,"long":-76.6149},{"zip":"14867","city":"Newfield","state":"NY","lat":42.3621,"long":-76.592},{"zip":"14881","city":"Slaterville Springs","state":"NY","lat":42.4025,"long":-76.3608},{"zip":"14882","city":"Lansing","state":"NY","lat":42.5645,"long":-76.5375},{"zip":"14886","city":"Trumansburg","state":"NY","lat":42.521,"long":-76.6681},{"zip":"14413","city":"Alton","state":"NY","lat":43.2227,"long":-76.9821},{"zip":"14433","city":"Clyde","state":"NY","lat":43.0855,"long":-76.8725},{"zip":"14449","city":"East Williamson","state":"NY","lat":43.2354,"long":-77.1376},{"zip":"14489","city":"Lyons","state":"NY","lat":43.0777,"long":-76.9896},{"zip":"14502","city":"Macedon","state":"NY","lat":43.0784,"long":-77.3372},{"zip":"14505","city":"Marion","state":"NY","lat":43.1546,"long":-77.1863},{"zip":"14513","city":"Newark","state":"NY","lat":43.0519,"long":-77.0946},{"zip":"14516","city":"North Rose","state":"NY","lat":43.1964,"long":-76.9152},{"zip":"14519","city":"Ontario","state":"NY","lat":43.2291,"long":-77.3088},{"zip":"14520","city":"Ontario Center","state":"NY","lat":43.2259,"long":-77.3058},{"zip":"14522","city":"Palmyra","state":"NY","lat":43.0622,"long":-77.2218},{"zip":"14538","city":"Pultneyville","state":"NY","lat":43.2836,"long":-77.142},{"zip":"14542","city":"Rose","state":"NY","lat":43.1448,"long":-76.8608},{"zip":"14551","city":"Sodus","state":"NY","lat":43.2217,"long":-77.0514},{"zip":"14555","city":"Sodus Point","state":"NY","lat":43.2546,"long":-76.9835},{"zip":"14563","city":"Union Hill","state":"NY","lat":43.2228,"long":-77.3717},{"zip":"14568","city":"Walworth","state":"NY","lat":43.1402,"long":-77.2858},{"zip":"14589","city":"Williamson","state":"NY","lat":43.2421,"long":-77.17},{"zip":"14590","city":"Wolcott","state":"NY","lat":43.2341,"long":-76.8217},{"zip":"14009","city":"Arcade","state":"NY","lat":42.563,"long":-78.4134},{"zip":"14011","city":"Attica","state":"NY","lat":42.8499,"long":-78.2798},{"zip":"14024","city":"Bliss","state":"NY","lat":42.5799,"long":-78.2581},{"zip":"14037","city":"Cowlesville","state":"NY","lat":42.8112,"long":-78.4481},{"zip":"14039","city":"Dale","state":"NY","lat":42.8263,"long":-78.1749},{"zip":"14066","city":"Gainesville","state":"NY","lat":42.619,"long":-78.1795},{"zip":"14082","city":"Java Center","state":"NY","lat":42.6634,"long":-78.3925},{"zip":"14083","city":"Java Village","state":"NY","lat":42.6769,"long":-78.441},{"zip":"14113","city":"North Java","state":"NY","lat":42.6776,"long":-78.338},{"zip":"14130","city":"Pike","state":"NY","lat":42.5565,"long":-78.1528},{"zip":"14145","city":"Strykersville","state":"NY","lat":42.7249,"long":-78.4347},{"zip":"14167","city":"Varysburg","state":"NY","lat":42.7459,"long":-78.3167},{"zip":"14427","city":"Castile","state":"NY","lat":42.6359,"long":-78.0547},{"zip":"14530","city":"Perry","state":"NY","lat":42.7229,"long":-78.0059},{"zip":"14536","city":"Portageville","state":"NY","lat":42.557,"long":-78.0856},{"zip":"14549","city":"Silver Lake","state":"NY","lat":42.6929,"long":-78.0224},{"zip":"14550","city":"Silver Springs","state":"NY","lat":42.6742,"long":-78.0845},{"zip":"14569","city":"Warsaw","state":"NY","lat":42.741,"long":-78.1429},{"zip":"14591","city":"Wyoming","state":"NY","lat":42.8317,"long":-78.0833},{"zip":"14415","city":"Bellona","state":"NY","lat":42.7554,"long":-77.0217},{"zip":"14418","city":"Branchport","state":"NY","lat":42.6065,"long":-77.2052},{"zip":"14441","city":"Dresden","state":"NY","lat":42.6846,"long":-76.9564},{"zip":"14478","city":"Keuka Park","state":"NY","lat":42.5708,"long":-77.1226},{"zip":"14507","city":"Middlesex","state":"NY","lat":42.6976,"long":-77.2805},{"zip":"14527","city":"Penn Yan","state":"NY","lat":42.6645,"long":-77.0569},{"zip":"14544","city":"Rushville","state":"NY","lat":42.7597,"long":-77.2395},{"zip":"14837","city":"Dundee","state":"NY","lat":42.5053,"long":-77.0028},{"zip":"14842","city":"Himrod","state":"NY","lat":42.5945,"long":-76.9508},{"zip":"14857","city":"Lakemont","state":"NY","lat":42.5126,"long":-76.927},{"zip":"14878","city":"Rock Stream","state":"NY","lat":42.4485,"long":-76.9364}]
