[{"zip":"14029","city":"Centerville","state":"NY","lat":42.4743,"long":-78.2474},{"zip":"14041","city":"Dayton","state":"NY","lat":42.4086,"long":-78.9844},{"zip":"14042","city":"Delevan","state":"NY","lat":42.4926,"long":-78.4793},{"zip":"14060","city":"Farmersville Station","state":"NY","lat":42.4276,"long":-78.3608},{"zip":"14065","city":"Freedom","state":"NY","lat":42.4897,"long":-78.3501},{"zip":"14070","city":"Gowanda","state":"NY","lat":42.4712,"long":-78.9339},{"zip":"14048","city":"Dunkirk","state":"NY","lat":42.4877,"long":-79.3283},{"zip":"14062","city":"Forestville","state":"NY","lat":42.4482,"long":-79.1607},{"zip":"14063","city":"Fredonia","state":"NY","lat":42.4333,"long":-79.3339},{"zip":"14081","city":"Irving","state":"NY","lat":42.5739,"long":-79.0596},{"zip":"14001","city":"Akron","state":"NY","lat":43.0249,"long":-78.5084},{"zip":"14004","city":"Alden","state":"NY","lat":42.8984,"long":-78.5257},{"zip":"14006","city":"Angola","state":"NY","lat":42.6366,"long":-79.0497},{"zip":"14010","city":"Athol Springs","state":"NY","lat":42.7684,"long":-78.8871},{"zip":"14025","city":"Boston","state":"NY","lat":42.6314,"long":-78.7391},{"zip":"14026","city":"Bowmansville","state":"NY","lat":42.941,"long":-78.688},{"zip":"14027","city":"Brant","state":"NY","lat":42.5707,"long":-79.0308},{"zip":"14030","city":"Chaffee","state":"NY","lat":42.5605,"long":-78.5025},{"zip":"14031","city":"Clarence","state":"NY","lat":42.981,"long":-78.6162},{"zip":"14032","city":"Clarence Center","state":"NY","lat":43.0362,"long":-78.639},{"zip":"14033","city":"Colden","state":"NY","lat":42.6551,"long":-78.6921},{"zip":"14034","city":"Collins","state":"NY","lat":42.5001,"long":-78.893},{"zip":"14035","city":"Collins Center","state":"NY","lat":42.4906,"long":-78.8499},{"zip":"14038","city":"Crittenden","state":"NY","lat":42.9473,"long":-78.4744},{"zip":"14043","city":"Depew","state":"NY","lat":42.905,"long":-78.7041},{"zip":"14047","city":"Derby","state":"NY","lat":42.6974,"long":-78.9834},{"zip":"14051","city":"East Amherst","state":"NY","lat":43.0429,"long":-78.6988},{"zip":"14052","city":"East Aurora","state":"NY","lat":42.7701,"long":-78.602},{"zip":"14055","city":"East Concord","state":"NY","lat":42.5466,"long":-78.611},{"zip":"14057","city":"Eden","state":"NY","lat":42.6506,"long":-78.8781},{"zip":"14059","city":"Elma","state":"NY","lat":42.834,"long":-78.6343},{"zip":"14061","city":"Farnham","state":"NY","lat":42.5946,"long":-79.084},{"zip":"14068","city":"Getzville","state":"NY","lat":43.024,"long":-78.7532},{"zip":"14069","city":"Glenwood","state":"NY","lat":42.6001,"long":-78.6386},{"zip":"14072","city":"Grand Island","state":"NY","lat":43.0183,"long":-78.9591},{"zip":"14075","city":"Hamburg","state":"NY","lat":42.7334,"long":-78.8389},{"zip":"14080","city":"Holland","state":"NY","lat":42.6396,"long":-78.5439},{"zip":"14085","city":"Lake View","state":"NY","lat":42.7215,"long":-78.9327},{"zip":"14086","city":"Lancaster","state":"NY","lat":42.9017,"long":-78.6631},{"zip":"14091","city":"Lawtons","state":"NY","lat":42.5404,"long":-78.9212},{"zip":"14005","city":"Alexander","state":"NY","lat":42.9159,"long":-78.2589},{"zip":"14013","city":"Basom","state":"NY","lat":43.0807,"long":-78.3951},{"zip":"14020","city":"Batavia","state":"NY","lat":43.0003,"long":-78.1929},{"zip":"14021","city":"Batavia","state":"NY","lat":42.9981,"long":-78.1848},{"zip":"14036","city":"Corfu","state":"NY","lat":42.9777,"long":-78.3929},{"zip":"14040","city":"Darien Center","state":"NY","lat":42.8948,"long":-78.3878},{"zip":"14054","city":"East Bethany","state":"NY","lat":42.9166,"long":-78.1342},{"zip":"14056","city":"East Pembroke","state":"NY","lat":42.9912,"long":-78.3122},{"zip":"14058","city":"Elba","state":"NY","lat":43.0897,"long":-78.1704},{"zip":"14008","city":"Appleton","state":"NY","lat":43.3105,"long":-78.6372},{"zip":"14012","city":"Barker","state":"NY","lat":43.3368,"long":-78.542},{"zip":"14028","city":"Burt","state":"NY","lat":43.3221,"long":-78.7141},{"zip":"14067","city":"Gasport","state":"NY","lat":43.2106,"long":-78.5745},{"zip":"14092","city":"Lewiston","state":"NY","lat":43.1722,"long":-79.0215},{"zip":"14094","city":"Lockport","state":"NY","lat":43.16,"long":-78.6923},{"zip":"14095","city":"Lockport","state":"NY","lat":43.1706,"long":-78.6903},{"zip":"14098","city":"Lyndonville","state":"NY","lat":43.3233,"long":-78.3811},{"zip":"14009","city":"Arcade","state":"NY","lat":42.563,"long":-78.4134},{"zip":"14011","city":"Attica","state":"NY","lat":42.8499,"long":-78.2798},{"zip":"14024","city":"Bliss","state":"NY","lat":42.5799,"long":-78.2581},{"zip":"14037","city":"Cowlesville","state":"NY","lat":42.8112,"long":-78.4481},{"zip":"14039","city":"Dale","state":"NY","lat":42.8263,"long":-78.1749},{"zip":"14066","city":"Gainesville","state":"NY","lat":42.619,"long":-78.1795},{"zip":"14082","city":"Java Center","state":"NY","lat":42.6634,"long":-78.3925},{"zip":"14083","city":"Java Village","state":"NY","lat":42.6769,"long":-78.441}]
