[{"zip":"14101","city":"Machias","state":"NY","lat":42.4083,"long":-78.5059},{"zip":"14129","city":"Perrysburg","state":"NY","lat":42.4723,"long":-78.9981},{"zip":"14133","city":"Sandusky","state":"NY","lat":42.4891,"long":-78.367},{"zip":"14138","city":"South Dayton","state":"NY","lat":42.3718,"long":-79.0501},{"zip":"14168","city":"Versailles","state":"NY","lat":42.5093,"long":-78.9995},{"zip":"14171","city":"West Valley","state":"NY","lat":42.4315,"long":-78.628},{"zip":"14173","city":"Yorkshire","state":"NY","lat":42.5247,"long":-78.4755},{"zip":"14135","city":"Sheridan","state":"NY","lat":42.489,"long":-79.239},{"zip":"14136","city":"Silver Creek","state":"NY","lat":42.5357,"long":-79.1628},{"zip":"14166","city":"Van Buren Point","state":"NY","lat":42.4511,"long":-79.4154},{"zip":"14102","city":"Marilla","state":"NY","lat":42.8332,"long":-78.5587},{"zip":"14110","city":"North Boston","state":"NY","lat":42.6856,"long":-78.7767},{"zip":"14111","city":"North Collins","state":"NY","lat":42.5896,"long":-78.9107},{"zip":"14112","city":"North Evans","state":"NY","lat":42.6917,"long":-78.9927},{"zip":"14127","city":"Orchard Park","state":"NY","lat":42.7639,"long":-78.7518},{"zip":"14134","city":"Sardinia","state":"NY","lat":42.5323,"long":-78.5172},{"zip":"14139","city":"South Wales","state":"NY","lat":42.7063,"long":-78.5452},{"zip":"14140","city":"Spring Brook","state":"NY","lat":42.8072,"long":-78.6676},{"zip":"14141","city":"Springville","state":"NY","lat":42.52,"long":-78.6847},{"zip":"14150","city":"Tonawanda","state":"NY","lat":43.0028,"long":-78.8547},{"zip":"14151","city":"Tonawanda","state":"NY","lat":43.0203,"long":-78.8803},{"zip":"14169","city":"Wales Center","state":"NY","lat":42.7684,"long":-78.53},{"zip":"14170","city":"West Falls","state":"NY","lat":42.7053,"long":-78.6779},{"zip":"14125","city":"Oakfield","state":"NY","lat":43.0717,"long":-78.2702},{"zip":"14143","city":"Stafford","state":"NY","lat":42.9829,"long":-78.0898},{"zip":"14105","city":"Middleport","state":"NY","lat":43.2183,"long":-78.4841},{"zip":"14107","city":"Model City","state":"NY","lat":43.1851,"long":-78.9837},{"zip":"14108","city":"Newfane","state":"NY","lat":43.2724,"long":-78.707},{"zip":"14109","city":"Niagara University","state":"NY","lat":43.138,"long":-79.0342},{"zip":"14120","city":"North Tonawanda","state":"NY","lat":43.0498,"long":-78.851},{"zip":"14126","city":"Olcott","state":"NY","lat":43.3304,"long":-78.7267},{"zip":"14131","city":"Ransomville","state":"NY","lat":43.2286,"long":-78.8982},{"zip":"14132","city":"Sanborn","state":"NY","lat":43.1419,"long":-78.8785},{"zip":"14144","city":"Stella Niagara","state":"NY","lat":43.1995,"long":-79.0425},{"zip":"14172","city":"Wilson","state":"NY","lat":43.2968,"long":-78.8244},{"zip":"14174","city":"Youngstown","state":"NY","lat":43.2461,"long":-79.0245},{"zip":"14103","city":"Medina","state":"NY","lat":43.2184,"long":-78.3874},{"zip":"14113","city":"North Java","state":"NY","lat":42.6776,"long":-78.338},{"zip":"14130","city":"Pike","state":"NY","lat":42.5565,"long":-78.1528},{"zip":"14145","city":"Strykersville","state":"NY","lat":42.7249,"long":-78.4347},{"zip":"14167","city":"Varysburg","state":"NY","lat":42.7459,"long":-78.3167}]
