[{"zip":"14416","city":"Bergen","state":"NY","lat":43.0869,"long":-77.9603},{"zip":"14422","city":"Byron","state":"NY","lat":43.0738,"long":-78.0629},{"zip":"14482","city":"Le Roy","state":"NY","lat":42.9774,"long":-77.9851},{"zip":"14486","city":"Linwood","state":"NY","lat":42.8943,"long":-77.9216},{"zip":"14414","city":"Avon","state":"NY","lat":42.903,"long":-77.7274},{"zip":"14423","city":"Caledonia","state":"NY","lat":42.9567,"long":-77.8493},{"zip":"14435","city":"Conesus","state":"NY","lat":42.7216,"long":-77.6747},{"zip":"14437","city":"Dansville","state":"NY","lat":42.57,"long":-77.7109},{"zip":"14454","city":"Geneseo","state":"NY","lat":42.7938,"long":-77.7996},{"zip":"14462","city":"Groveland","state":"NY","lat":42.676,"long":-77.7573},{"zip":"14466","city":"Hemlock","state":"NY","lat":42.78,"long":-77.582},{"zip":"14480","city":"Lakeville","state":"NY","lat":42.8296,"long":-77.7149},{"zip":"14481","city":"Leicester","state":"NY","lat":42.7739,"long":-77.899},{"zip":"14485","city":"Lima","state":"NY","lat":42.9012,"long":-77.6083},{"zip":"14487","city":"Livonia","state":"NY","lat":42.8135,"long":-77.6635},{"zip":"14488","city":"Livonia Center","state":"NY","lat":42.8215,"long":-77.6386},{"zip":"14410","city":"Adams Basin","state":"NY","lat":43.1953,"long":-77.8559},{"zip":"14420","city":"Brockport","state":"NY","lat":43.2128,"long":-77.9368},{"zip":"14428","city":"Churchville","state":"NY","lat":43.0749,"long":-77.835},{"zip":"14430","city":"Clarkson","state":"NY","lat":43.2331,"long":-77.9275},{"zip":"14445","city":"East Rochester","state":"NY","lat":43.1128,"long":-77.4906},{"zip":"14450","city":"Fairport","state":"NY","lat":43.0892,"long":-77.436},{"zip":"14464","city":"Hamlin","state":"NY","lat":43.3076,"long":-77.927},{"zip":"14467","city":"Henrietta","state":"NY","lat":43.0483,"long":-77.6122},{"zip":"14468","city":"Hilton","state":"NY","lat":43.2923,"long":-77.7905},{"zip":"14472","city":"Honeoye Falls","state":"NY","lat":42.9695,"long":-77.5781},{"zip":"14424","city":"Canandaigua","state":"NY","lat":42.8689,"long":-77.2846},{"zip":"14425","city":"Farmington","state":"NY","lat":42.958,"long":-77.3083},{"zip":"14432","city":"Clifton Springs","state":"NY","lat":42.9632,"long":-77.144},{"zip":"14443","city":"East Bloomfield","state":"NY","lat":42.901,"long":-77.4233},{"zip":"14453","city":"Fishers","state":"NY","lat":43.0109,"long":-77.4705},{"zip":"14456","city":"Geneva","state":"NY","lat":42.8637,"long":-76.9913},{"zip":"14461","city":"Gorham","state":"NY","lat":42.799,"long":-77.1316},{"zip":"14463","city":"Hall","state":"NY","lat":42.7966,"long":-77.0639},{"zip":"14469","city":"Bloomfield","state":"NY","lat":42.8851,"long":-77.46},{"zip":"14471","city":"Honeoye","state":"NY","lat":42.7901,"long":-77.5169},{"zip":"14475","city":"Ionia","state":"NY","lat":42.938,"long":-77.5009},{"zip":"14411","city":"Albion","state":"NY","lat":43.2398,"long":-78.2068},{"zip":"14429","city":"Clarendon","state":"NY","lat":43.1934,"long":-78.0647},{"zip":"14452","city":"Fancher","state":"NY","lat":43.2448,"long":-78.0911},{"zip":"14470","city":"Holley","state":"NY","lat":43.2159,"long":-78.0731},{"zip":"14476","city":"Kendall","state":"NY","lat":43.3284,"long":-78.0304},{"zip":"14477","city":"Kent","state":"NY","lat":43.3341,"long":-78.1355},{"zip":"14479","city":"Knowlesville","state":"NY","lat":43.2363,"long":-78.3138},{"zip":"14413","city":"Alton","state":"NY","lat":43.2227,"long":-76.9821},{"zip":"14433","city":"Clyde","state":"NY","lat":43.0855,"long":-76.8725},{"zip":"14449","city":"East Williamson","state":"NY","lat":43.2354,"long":-77.1376},{"zip":"14489","city":"Lyons","state":"NY","lat":43.0777,"long":-76.9896},{"zip":"14427","city":"Castile","state":"NY","lat":42.6359,"long":-78.0547},{"zip":"14415","city":"Bellona","state":"NY","lat":42.7554,"long":-77.0217},{"zip":"14418","city":"Branchport","state":"NY","lat":42.6065,"long":-77.2052},{"zip":"14441","city":"Dresden","state":"NY","lat":42.6846,"long":-76.9564},{"zip":"14478","city":"Keuka Park","state":"NY","lat":42.5708,"long":-77.1226}]
