[{"zip":"14525","city":"Pavilion","state":"NY","lat":42.9102,"long":-78.0269},{"zip":"14557","city":"South Byron","state":"NY","lat":43.0416,"long":-78.0573},{"zip":"14510","city":"Mount Morris","state":"NY","lat":42.6835,"long":-77.8664},{"zip":"14517","city":"Nunda","state":"NY","lat":42.5867,"long":-77.918},{"zip":"14533","city":"Piffard","state":"NY","lat":42.8435,"long":-77.8962},{"zip":"14539","city":"Retsof","state":"NY","lat":42.8343,"long":-77.8779},{"zip":"14545","city":"Scottsburg","state":"NY","lat":42.6649,"long":-77.701},{"zip":"14556","city":"Sonyea","state":"NY","lat":42.679,"long":-77.8272},{"zip":"14558","city":"South Lima","state":"NY","lat":42.8554,"long":-77.6876},{"zip":"14560","city":"Springwater","state":"NY","lat":42.6776,"long":-77.5775},{"zip":"14592","city":"York","state":"NY","lat":42.8757,"long":-77.8835},{"zip":"14506","city":"Mendon","state":"NY","lat":42.9953,"long":-77.5001},{"zip":"14511","city":"Mumford","state":"NY","lat":42.9928,"long":-77.8603},{"zip":"14514","city":"North Chili","state":"NY","lat":43.1186,"long":-77.8005},{"zip":"14515","city":"North Greece","state":"NY","lat":43.2578,"long":-77.7351},{"zip":"14526","city":"Penfield","state":"NY","lat":43.1396,"long":-77.456},{"zip":"14534","city":"Pittsford","state":"NY","lat":43.0695,"long":-77.5141},{"zip":"14543","city":"Rush","state":"NY","lat":42.9966,"long":-77.6665},{"zip":"14546","city":"Scottsville","state":"NY","lat":43.0246,"long":-77.7743},{"zip":"14559","city":"Spencerport","state":"NY","lat":43.1895,"long":-77.8043},{"zip":"14580","city":"Webster","state":"NY","lat":43.2196,"long":-77.4616},{"zip":"14586","city":"West Henrietta","state":"NY","lat":43.0397,"long":-77.6871},{"zip":"14504","city":"Manchester","state":"NY","lat":42.9689,"long":-77.2332},{"zip":"14512","city":"Naples","state":"NY","lat":42.6404,"long":-77.3901},{"zip":"14518","city":"Oaks Corners","state":"NY","lat":42.9319,"long":-77.0118},{"zip":"14532","city":"Phelps","state":"NY","lat":42.9582,"long":-77.0473},{"zip":"14537","city":"Port Gibson","state":"NY","lat":43.0345,"long":-77.1575},{"zip":"14547","city":"Seneca Castle","state":"NY","lat":42.887,"long":-77.0961},{"zip":"14548","city":"Shortsville","state":"NY","lat":42.9761,"long":-77.2439},{"zip":"14561","city":"Stanley","state":"NY","lat":42.8303,"long":-77.1207},{"zip":"14564","city":"Victor","state":"NY","lat":42.9866,"long":-77.418},{"zip":"14585","city":"West Bloomfield","state":"NY","lat":42.9063,"long":-77.5531},{"zip":"14508","city":"Morton","state":"NY","lat":43.3281,"long":-77.9953},{"zip":"14571","city":"Waterport","state":"NY","lat":43.3326,"long":-78.243},{"zip":"14521","city":"Ovid","state":"NY","lat":42.6898,"long":-76.7941},{"zip":"14541","city":"Romulus","state":"NY","lat":42.7497,"long":-76.8449},{"zip":"14588","city":"Willard","state":"NY","lat":42.6835,"long":-76.8724},{"zip":"14529","city":"Perkinsville","state":"NY","lat":42.5398,"long":-77.6283},{"zip":"14572","city":"Wayland","state":"NY","lat":42.5593,"long":-77.5906},{"zip":"14502","city":"Macedon","state":"NY","lat":43.0784,"long":-77.3372},{"zip":"14505","city":"Marion","state":"NY","lat":43.1546,"long":-77.1863},{"zip":"14513","city":"Newark","state":"NY","lat":43.0519,"long":-77.0946},{"zip":"14516","city":"North Rose","state":"NY","lat":43.1964,"long":-76.9152},{"zip":"14519","city":"Ontario","state":"NY","lat":43.2291,"long":-77.3088},{"zip":"14520","city":"Ontario Center","state":"NY","lat":43.2259,"long":-77.3058},{"zip":"14522","city":"Palmyra","state":"NY","lat":43.0622,"long":-77.2218},{"zip":"14538","city":"Pultneyville","state":"NY","lat":43.2836,"long":-77.142},{"zip":"14542","city":"Rose","state":"NY","lat":43.1448,"long":-76.8608},{"zip":"14551","city":"Sodus","state":"NY","lat":43.2217,"long":-77.0514},{"zip":"14555","city":"Sodus Point","state":"NY","lat":43.2546,"long":-76.9835},{"zip":"14563","city":"Union Hill","state":"NY","lat":43.2228,"long":-77.3717},{"zip":"14568","city":"Walworth","state":"NY","lat":43.1402,"long":-77.2858},{"zip":"14589","city":"Williamson","state":"NY","lat":43.2421,"long":-77.17},{"zip":"14590","city":"Wolcott","state":"NY","lat":43.2341,"long":-76.8217},{"zip":"14530","city":"Perry","state":"NY","lat":42.7229,"long":-78.0059},{"zip":"14536","city":"Portageville","state":"NY","lat":42.557,"long":-78.0856},{"zip":"14549","city":"Silver Lake","state":"NY","lat":42.6929,"long":-78.0224},{"zip":"14550","city":"Silver Springs","state":"NY","lat":42.6742,"long":-78.0845},{"zip":"14569","city":"Warsaw","state":"NY","lat":42.741,"long":-78.1429},{"zip":"14591","city":"Wyoming","state":"NY","lat":42.8317,"long":-78.0833},{"zip":"14507","city":"Middlesex","state":"NY","lat":42.6976,"long":-77.2805},{"zip":"14527","city":"Penn Yan","state":"NY","lat":42.6645,"long":-77.0569},{"zip":"14544","city":"Rushville","state":"NY","lat":42.7597,"long":-77.2395}]
