[{"zip":"14602","city":"Rochester","state":"NY","lat":43.286,"long":-77.6843},{"zip":"14603","city":"Rochester","state":"NY","lat":43.1616,"long":-77.6068},{"zip":"14604","city":"Rochester","state":"NY","lat":43.1577,"long":-77.608},{"zip":"14605","city":"Rochester","state":"NY","lat":43.1698,"long":-77.6007},{"zip":"14606","city":"Rochester","state":"NY","lat":43.1685,"long":-77.6845},{"zip":"14607","city":"Rochester","state":"NY","lat":43.1501,"long":-77.589},{"zip":"14608","city":"Rochester","state":"NY","lat":43.1521,"long":-77.6258},{"zip":"14609","city":"Rochester","state":"NY","lat":43.174,"long":-77.5637},{"zip":"14610","city":"Rochester","state":"NY","lat":43.1452,"long":-77.5495},{"zip":"14611","city":"Rochester","state":"NY","lat":43.1484,"long":-77.6394},{"zip":"14612","city":"Rochester","state":"NY","lat":43.2566,"long":-77.6652},{"zip":"14613","city":"Rochester","state":"NY","lat":43.1831,"long":-77.6393},{"zip":"14614","city":"Rochester","state":"NY","lat":43.1558,"long":-77.6142},{"zip":"14615","city":"Rochester","state":"NY","lat":43.2058,"long":-77.6521},{"zip":"14616","city":"Rochester","state":"NY","lat":43.2346,"long":-77.6577},{"zip":"14617","city":"Rochester","state":"NY","lat":43.2203,"long":-77.5994},{"zip":"14618","city":"Rochester","state":"NY","lat":43.1122,"long":-77.5618},{"zip":"14619","city":"Rochester","state":"NY","lat":43.1367,"long":-77.6481},{"zip":"14620","city":"Rochester","state":"NY","lat":43.1317,"long":-77.6062},{"zip":"14621","city":"Rochester","state":"NY","lat":43.1834,"long":-77.6043},{"zip":"14622","city":"Rochester","state":"NY","lat":43.214,"long":-77.5555},{"zip":"14623","city":"Rochester","state":"NY","lat":43.0834,"long":-77.6344},{"zip":"14624","city":"Rochester","state":"NY","lat":43.1216,"long":-77.7311},{"zip":"14625","city":"Rochester","state":"NY","lat":43.1522,"long":-77.5057},{"zip":"14626","city":"Rochester","state":"NY","lat":43.2126,"long":-77.704},{"zip":"14627","city":"Rochester","state":"NY","lat":43.1275,"long":-77.6277},{"zip":"14638","city":"Rochester","state":"NY","lat":43.286,"long":-77.6843},{"zip":"14639","city":"Rochester","state":"NY","lat":43.286,"long":-77.6843},{"zip":"14642","city":"Rochester","state":"NY","lat":43.286,"long":-77.6843},{"zip":"14643","city":"Rochester","state":"NY","lat":43.1548,"long":-77.6156},{"zip":"14644","city":"Rochester","state":"NY","lat":43.286,"long":-77.6843},{"zip":"14646","city":"Rochester","state":"NY","lat":43.286,"long":-77.6843},{"zip":"14647","city":"Rochester","state":"NY","lat":43.1548,"long":-77.6156},{"zip":"14649","city":"Rochester","state":"NY","lat":43.286,"long":-77.6843},{"zip":"14650","city":"Rochester","state":"NY","lat":43.1548,"long":-77.6156},{"zip":"14651","city":"Rochester","state":"NY","lat":43.1548,"long":-77.6156},{"zip":"14652","city":"Rochester","state":"NY","lat":43.286,"long":-77.6843},{"zip":"14653","city":"Rochester","state":"NY","lat":43.286,"long":-77.6843},{"zip":"14692","city":"Rochester","state":"NY","lat":43.286,"long":-77.6843},{"zip":"14694","city":"Rochester","state":"NY","lat":43.286,"long":-77.6843}]
