[{"zip":"14707","city":"Allentown","state":"NY","lat":42.0737,"long":-78.0594},{"zip":"14708","city":"Alma","state":"NY","lat":42.0126,"long":-78.0578},{"zip":"14709","city":"Angelica","state":"NY","lat":42.3263,"long":-77.9947},{"zip":"14711","city":"Belfast","state":"NY","lat":42.32,"long":-78.0943},{"zip":"14714","city":"Black Creek","state":"NY","lat":42.2855,"long":-78.2312},{"zip":"14715","city":"Bolivar","state":"NY","lat":42.0704,"long":-78.1448},{"zip":"14717","city":"Caneadea","state":"NY","lat":42.364,"long":-78.184},{"zip":"14721","city":"Ceres","state":"NY","lat":42.0137,"long":-78.2648},{"zip":"14727","city":"Cuba","state":"NY","lat":42.1882,"long":-78.2751},{"zip":"14735","city":"Fillmore","state":"NY","lat":42.4508,"long":-78.1043},{"zip":"14739","city":"Friendship","state":"NY","lat":42.1907,"long":-78.1359},{"zip":"14744","city":"Houghton","state":"NY","lat":42.4228,"long":-78.2063},{"zip":"14745","city":"Hume","state":"NY","lat":42.4777,"long":-78.1403},{"zip":"14754","city":"Little Genesee","state":"NY","lat":42.0319,"long":-78.2097},{"zip":"14774","city":"Richburg","state":"NY","lat":42.1144,"long":-78.1681},{"zip":"14777","city":"Rushford","state":"NY","lat":42.3923,"long":-78.2536},{"zip":"14786","city":"West Clarksville","state":"NY","lat":42.1227,"long":-78.2213},{"zip":"14706","city":"Allegany","state":"NY","lat":42.0918,"long":-78.4999},{"zip":"14719","city":"Cattaraugus","state":"NY","lat":42.3333,"long":-78.8885},{"zip":"14726","city":"Conewango Valley","state":"NY","lat":42.2625,"long":-79.022},{"zip":"14729","city":"East Otto","state":"NY","lat":42.3971,"long":-78.7432},{"zip":"14730","city":"East Randolph","state":"NY","lat":42.1747,"long":-78.9473},{"zip":"14731","city":"Ellicottville","state":"NY","lat":42.2959,"long":-78.6606},{"zip":"14737","city":"Franklinville","state":"NY","lat":42.3388,"long":-78.44},{"zip":"14741","city":"Great Valley","state":"NY","lat":42.2083,"long":-78.6208},{"zip":"14743","city":"Hinsdale","state":"NY","lat":42.1979,"long":-78.4159},{"zip":"14748","city":"Kill Buck","state":"NY","lat":42.145,"long":-78.6466},{"zip":"14751","city":"Leon","state":"NY","lat":42.2983,"long":-79.0062},{"zip":"14753","city":"Limestone","state":"NY","lat":42.0639,"long":-78.632},{"zip":"14755","city":"Little Valley","state":"NY","lat":42.2541,"long":-78.8093},{"zip":"14760","city":"Olean","state":"NY","lat":42.0821,"long":-78.426},{"zip":"14766","city":"Otto","state":"NY","lat":42.3575,"long":-78.8073},{"zip":"14770","city":"Portville","state":"NY","lat":42.0273,"long":-78.3314},{"zip":"14772","city":"Randolph","state":"NY","lat":42.1631,"long":-78.96},{"zip":"14778","city":"Saint Bonaventure","state":"NY","lat":42.2701,"long":-78.6847},{"zip":"14779","city":"Salamanca","state":"NY","lat":42.1604,"long":-78.7304},{"zip":"14783","city":"Steamburg","state":"NY","lat":42.082,"long":-78.9177},{"zip":"14788","city":"Westons Mills","state":"NY","lat":42.0621,"long":-78.378},{"zip":"14701","city":"Jamestown","state":"NY","lat":42.0928,"long":-79.244},{"zip":"14702","city":"Jamestown","state":"NY","lat":42.097,"long":-79.2353},{"zip":"14710","city":"Ashville","state":"NY","lat":42.1084,"long":-79.4056},{"zip":"14712","city":"Bemus Point","state":"NY","lat":42.1513,"long":-79.3581},{"zip":"14716","city":"Brocton","state":"NY","lat":42.394,"long":-79.4344},{"zip":"14718","city":"Cassadaga","state":"NY","lat":42.3504,"long":-79.2993},{"zip":"14720","city":"Celoron","state":"NY","lat":42.1095,"long":-79.2831},{"zip":"14722","city":"Chautauqua","state":"NY","lat":42.2098,"long":-79.4667},{"zip":"14723","city":"Cherry Creek","state":"NY","lat":42.3127,"long":-79.1203},{"zip":"14724","city":"Clymer","state":"NY","lat":42.0557,"long":-79.6685},{"zip":"14728","city":"Dewittville","state":"NY","lat":42.2394,"long":-79.4193},{"zip":"14732","city":"Ellington","state":"NY","lat":42.2291,"long":-79.1135},{"zip":"14733","city":"Falconer","state":"NY","lat":42.1239,"long":-79.1895},{"zip":"14736","city":"Findley Lake","state":"NY","lat":42.1204,"long":-79.7349},{"zip":"14738","city":"Frewsburg","state":"NY","lat":42.0528,"long":-79.1318},{"zip":"14740","city":"Gerry","state":"NY","lat":42.2147,"long":-79.1649},{"zip":"14742","city":"Greenhurst","state":"NY","lat":42.1205,"long":-79.3096},{"zip":"14747","city":"Kennedy","state":"NY","lat":42.1508,"long":-79.0964},{"zip":"14750","city":"Lakewood","state":"NY","lat":42.0973,"long":-79.3291},{"zip":"14752","city":"Lily Dale","state":"NY","lat":42.3524,"long":-79.3235},{"zip":"14756","city":"Maple Springs","state":"NY","lat":42.1967,"long":-79.4239},{"zip":"14757","city":"Mayville","state":"NY","lat":42.2409,"long":-79.4963},{"zip":"14758","city":"Niobe","state":"NY","lat":42.0126,"long":-79.4495},{"zip":"14767","city":"Panama","state":"NY","lat":42.057,"long":-79.4815},{"zip":"14769","city":"Portland","state":"NY","lat":42.3858,"long":-79.4589},{"zip":"14775","city":"Ripley","state":"NY","lat":42.2482,"long":-79.7121},{"zip":"14781","city":"Sherman","state":"NY","lat":42.1631,"long":-79.5857},{"zip":"14782","city":"Sinclairville","state":"NY","lat":42.2455,"long":-79.2673},{"zip":"14784","city":"Stockton","state":"NY","lat":42.3182,"long":-79.3758},{"zip":"14785","city":"Stow","state":"NY","lat":42.1557,"long":-79.4122},{"zip":"14787","city":"Westfield","state":"NY","lat":42.322,"long":-79.5726}]
