[{"zip":"15006","city":"Bairdford","state":"PA","lat":40.6312,"long":-79.8814},{"zip":"15007","city":"Bakerstown","state":"PA","lat":40.6478,"long":-79.931},{"zip":"15014","city":"Brackenridge","state":"PA","lat":40.6082,"long":-79.7414},{"zip":"15015","city":"Bradfordwoods","state":"PA","lat":40.6372,"long":-80.0811},{"zip":"15017","city":"Bridgeville","state":"PA","lat":40.3472,"long":-80.1153},{"zip":"15018","city":"Buena Vista","state":"PA","lat":40.2773,"long":-79.7992},{"zip":"15020","city":"Bunola","state":"PA","lat":40.2373,"long":-79.9506},{"zip":"15024","city":"Cheswick","state":"PA","lat":40.5681,"long":-79.841},{"zip":"15025","city":"Clairton","state":"PA","lat":40.3243,"long":-79.9317},{"zip":"15026","city":"Clinton","state":"PA","lat":40.5131,"long":-80.3423},{"zip":"15028","city":"Coulters","state":"PA","lat":40.4344,"long":-80.0248},{"zip":"15030","city":"Creighton","state":"PA","lat":40.5821,"long":-79.7818},{"zip":"15031","city":"Cuddy","state":"PA","lat":40.3547,"long":-80.1669},{"zip":"15032","city":"Curtisville","state":"PA","lat":40.6423,"long":-79.8509},{"zip":"15034","city":"Dravosburg","state":"PA","lat":40.3527,"long":-79.8895},{"zip":"15035","city":"East Mc Keesport","state":"PA","lat":40.3839,"long":-79.8079},{"zip":"15037","city":"Elizabeth","state":"PA","lat":40.2656,"long":-79.8568},{"zip":"15044","city":"Gibsonia","state":"PA","lat":40.6252,"long":-79.9443},{"zip":"15045","city":"Glassport","state":"PA","lat":40.326,"long":-79.8883},{"zip":"15046","city":"Crescent","state":"PA","lat":40.5563,"long":-80.2286},{"zip":"15047","city":"Greenock","state":"PA","lat":40.4344,"long":-80.0248},{"zip":"15049","city":"Harwick","state":"PA","lat":40.5574,"long":-79.8051},{"zip":"15051","city":"Indianola","state":"PA","lat":40.5695,"long":-79.8637},{"zip":"15056","city":"Leetsdale","state":"PA","lat":40.5662,"long":-80.2099},{"zip":"15064","city":"Morgan","state":"PA","lat":40.3542,"long":-80.1398},{"zip":"15065","city":"Natrona Heights","state":"PA","lat":40.6421,"long":-79.7273},{"zip":"15071","city":"Oakdale","state":"PA","lat":40.4033,"long":-80.1842},{"zip":"15075","city":"Rural Ridge","state":"PA","lat":40.4344,"long":-80.0248},{"zip":"15076","city":"Russellton","state":"PA","lat":40.6073,"long":-79.8347},{"zip":"15082","city":"Sturgeon","state":"PA","lat":40.3863,"long":-80.2083},{"zip":"15084","city":"Tarentum","state":"PA","lat":40.6187,"long":-79.7852},{"zip":"15086","city":"Warrendale","state":"PA","lat":40.6534,"long":-80.0795},{"zip":"15088","city":"West Elizabeth","state":"PA","lat":40.2716,"long":-79.8966},{"zip":"15090","city":"Wexford","state":"PA","lat":40.612,"long":-80.0649},{"zip":"15091","city":"Wildwood","state":"PA","lat":40.5942,"long":-79.9701},{"zip":"15095","city":"Warrendale","state":"PA","lat":40.6534,"long":-80.0795},{"zip":"15096","city":"Warrendale","state":"PA","lat":40.6534,"long":-80.0795},{"zip":"15101","city":"Allison Park","state":"PA","lat":40.57,"long":-79.9665},{"zip":"15102","city":"Bethel Park","state":"PA","lat":40.321,"long":-80.0398},{"zip":"15104","city":"Braddock","state":"PA","lat":40.4038,"long":-79.8625},{"zip":"15106","city":"Carnegie","state":"PA","lat":40.4029,"long":-80.0915},{"zip":"15108","city":"Coraopolis","state":"PA","lat":40.5,"long":-80.1996},{"zip":"15110","city":"Duquesne","state":"PA","lat":40.3704,"long":-79.8522},{"zip":"15112","city":"East Pittsburgh","state":"PA","lat":40.4036,"long":-79.8389},{"zip":"15116","city":"Glenshaw","state":"PA","lat":40.5375,"long":-79.9644},{"zip":"15120","city":"Homestead","state":"PA","lat":40.3926,"long":-79.9052},{"zip":"15122","city":"West Mifflin","state":"PA","lat":40.3634,"long":-79.8664},{"zip":"15123","city":"West Mifflin","state":"PA","lat":40.4344,"long":-80.0248},{"zip":"15126","city":"Imperial","state":"PA","lat":40.4584,"long":-80.2649},{"zip":"15127","city":"Ingomar","state":"PA","lat":40.5809,"long":-80.0609},{"zip":"15129","city":"South Park","state":"PA","lat":40.2932,"long":-79.996},{"zip":"15131","city":"Mckeesport","state":"PA","lat":40.3478,"long":-79.8642},{"zip":"15132","city":"Mckeesport","state":"PA","lat":40.3478,"long":-79.8642},{"zip":"15133","city":"Mckeesport","state":"PA","lat":40.3478,"long":-79.8642},{"zip":"15134","city":"Mckeesport","state":"PA","lat":40.3478,"long":-79.8642},{"zip":"15135","city":"Mckeesport","state":"PA","lat":40.3478,"long":-79.8642},{"zip":"15136","city":"Mc Kees Rocks","state":"PA","lat":40.4717,"long":-80.0876},{"zip":"15137","city":"North Versailles","state":"PA","lat":40.3762,"long":-79.8124},{"zip":"15139","city":"Oakmont","state":"PA","lat":40.5196,"long":-79.8369},{"zip":"15140","city":"Pitcairn","state":"PA","lat":40.4048,"long":-79.777},{"zip":"15142","city":"Presto","state":"PA","lat":40.3847,"long":-80.1209},{"zip":"15143","city":"Sewickley","state":"PA","lat":40.557,"long":-80.1578},{"zip":"15144","city":"Springdale","state":"PA","lat":40.544,"long":-79.7844},{"zip":"15145","city":"Turtle Creek","state":"PA","lat":40.4113,"long":-79.822},{"zip":"15146","city":"Monroeville","state":"PA","lat":40.429,"long":-79.7623},{"zip":"15147","city":"Verona","state":"PA","lat":40.4927,"long":-79.8345},{"zip":"15148","city":"Wilmerding","state":"PA","lat":40.3934,"long":-79.7951},{"zip":"15201","city":"Pittsburgh","state":"PA","lat":40.4752,"long":-79.9528},{"zip":"15202","city":"Pittsburgh","state":"PA","lat":40.5053,"long":-80.0685},{"zip":"15203","city":"Pittsburgh","state":"PA","lat":40.4254,"long":-79.9799},{"zip":"15204","city":"Pittsburgh","state":"PA","lat":40.4554,"long":-80.0644},{"zip":"15205","city":"Pittsburgh","state":"PA","lat":40.4322,"long":-80.1021},{"zip":"15206","city":"Pittsburgh","state":"PA","lat":40.4723,"long":-79.9132},{"zip":"15207","city":"Pittsburgh","state":"PA","lat":40.4003,"long":-79.9338},{"zip":"15208","city":"Pittsburgh","state":"PA","lat":40.4532,"long":-79.8995},{"zip":"15209","city":"Pittsburgh","state":"PA","lat":40.4999,"long":-79.9739},{"zip":"15210","city":"Pittsburgh","state":"PA","lat":40.4072,"long":-79.9839},{"zip":"15211","city":"Pittsburgh","state":"PA","lat":40.4295,"long":-80.0144},{"zip":"15212","city":"Pittsburgh","state":"PA","lat":40.4282,"long":-80.075},{"zip":"15213","city":"Pittsburgh","state":"PA","lat":40.444,"long":-79.9552},{"zip":"15214","city":"Pittsburgh","state":"PA","lat":40.4865,"long":-80.014},{"zip":"15215","city":"Pittsburgh","state":"PA","lat":40.5048,"long":-79.9138},{"zip":"15216","city":"Pittsburgh","state":"PA","lat":40.4001,"long":-80.0462},{"zip":"15217","city":"Pittsburgh","state":"PA","lat":40.4308,"long":-79.9205},{"zip":"15218","city":"Pittsburgh","state":"PA","lat":40.4237,"long":-79.89},{"zip":"15219","city":"Pittsburgh","state":"PA","lat":40.4423,"long":-79.983},{"zip":"15220","city":"Pittsburgh","state":"PA","lat":40.4181,"long":-80.0526},{"zip":"15221","city":"Pittsburgh","state":"PA","lat":40.4346,"long":-79.8655},{"zip":"15222","city":"Pittsburgh","state":"PA","lat":40.4477,"long":-79.9933},{"zip":"15223","city":"Pittsburgh","state":"PA","lat":40.5051,"long":-79.9528},{"zip":"15224","city":"Pittsburgh","state":"PA","lat":40.4642,"long":-79.9448},{"zip":"15225","city":"Pittsburgh","state":"PA","lat":40.5051,"long":-80.1155},{"zip":"15226","city":"Pittsburgh","state":"PA","lat":40.4001,"long":-80.0161},{"zip":"15227","city":"Pittsburgh","state":"PA","lat":40.3805,"long":-79.9667},{"zip":"15228","city":"Pittsburgh","state":"PA","lat":40.3696,"long":-80.0439},{"zip":"15229","city":"Pittsburgh","state":"PA","lat":40.5203,"long":-80.037},{"zip":"15230","city":"Pittsburgh","state":"PA","lat":40.4344,"long":-80.0248},{"zip":"15231","city":"Pittsburgh","state":"PA","lat":40.4344,"long":-80.0248},{"zip":"15232","city":"Pittsburgh","state":"PA","lat":40.4525,"long":-79.9319},{"zip":"15233","city":"Pittsburgh","state":"PA","lat":40.4608,"long":-80.0348},{"zip":"15234","city":"Pittsburgh","state":"PA","lat":40.3688,"long":-80.0224},{"zip":"15235","city":"Pittsburgh","state":"PA","lat":40.4598,"long":-79.8224},{"zip":"15236","city":"Pittsburgh","state":"PA","lat":40.3351,"long":-79.9832},{"zip":"15237","city":"Pittsburgh","state":"PA","lat":40.5488,"long":-80.0474},{"zip":"15238","city":"Pittsburgh","state":"PA","lat":40.5346,"long":-79.8805},{"zip":"15239","city":"Pittsburgh","state":"PA","lat":40.4837,"long":-79.7381},{"zip":"15240","city":"Pittsburgh","state":"PA","lat":40.4344,"long":-80.0248},{"zip":"15241","city":"Pittsburgh","state":"PA","lat":40.3323,"long":-80.081},{"zip":"15242","city":"Pittsburgh","state":"PA","lat":40.4344,"long":-80.0248},{"zip":"15243","city":"Pittsburgh","state":"PA","lat":40.3748,"long":-80.0731},{"zip":"15244","city":"Pittsburgh","state":"PA","lat":40.4344,"long":-80.0248},{"zip":"15250","city":"Pittsburgh","state":"PA","lat":40.4344,"long":-80.0248},{"zip":"15251","city":"Pittsburgh","state":"PA","lat":40.4344,"long":-80.0248},{"zip":"15252","city":"Pittsburgh","state":"PA","lat":40.4344,"long":-80.0248},{"zip":"15253","city":"Pittsburgh","state":"PA","lat":40.4344,"long":-80.0248},{"zip":"15254","city":"Pittsburgh","state":"PA","lat":40.4344,"long":-80.0248},{"zip":"15255","city":"Pittsburgh","state":"PA","lat":40.4344,"long":-80.0248},{"zip":"15257","city":"Pittsburgh","state":"PA","lat":40.4344,"long":-80.0248},{"zip":"15258","city":"Pittsburgh","state":"PA","lat":40.4344,"long":-80.0248},{"zip":"15259","city":"Pittsburgh","state":"PA","lat":40.4344,"long":-80.0248},{"zip":"15260","city":"Pittsburgh","state":"PA","lat":40.4432,"long":-79.9531},{"zip":"15261","city":"Pittsburgh","state":"PA","lat":40.4344,"long":-80.0248},{"zip":"15262","city":"Pittsburgh","state":"PA","lat":40.4344,"long":-80.0248},{"zip":"15264","city":"Pittsburgh","state":"PA","lat":40.4344,"long":-80.0248},{"zip":"15265","city":"Pittsburgh","state":"PA","lat":40.4344,"long":-80.0248},{"zip":"15267","city":"Pittsburgh","state":"PA","lat":40.4344,"long":-80.0248},{"zip":"15268","city":"Pittsburgh","state":"PA","lat":40.4344,"long":-80.0248},{"zip":"15270","city":"Pittsburgh","state":"PA","lat":40.4344,"long":-80.0248},{"zip":"15272","city":"Pittsburgh","state":"PA","lat":40.4344,"long":-80.0248},{"zip":"15274","city":"Pittsburgh","state":"PA","lat":40.4344,"long":-80.0248},{"zip":"15275","city":"Pittsburgh","state":"PA","lat":40.4495,"long":-80.1795},{"zip":"15276","city":"Pittsburgh","state":"PA","lat":40.4344,"long":-80.0248},{"zip":"15277","city":"Pittsburgh","state":"PA","lat":40.4344,"long":-80.0248},{"zip":"15278","city":"Pittsburgh","state":"PA","lat":40.4344,"long":-80.0248},{"zip":"15279","city":"Pittsburgh","state":"PA","lat":40.4344,"long":-80.0248},{"zip":"15281","city":"Pittsburgh","state":"PA","lat":40.4344,"long":-80.0248},{"zip":"15282","city":"Pittsburgh","state":"PA","lat":40.4406,"long":-79.9959},{"zip":"15283","city":"Pittsburgh","state":"PA","lat":40.4344,"long":-80.0248},{"zip":"15286","city":"Pittsburgh","state":"PA","lat":40.4344,"long":-80.0248},{"zip":"15289","city":"Pittsburgh","state":"PA","lat":40.4446,"long":-79.9451},{"zip":"15290","city":"Pittsburgh","state":"PA","lat":40.4344,"long":-80.0248},{"zip":"15295","city":"Pittsburgh","state":"PA","lat":40.463,"long":-80.0108},{"zip":"15656","city":"Leechburg","state":"PA","lat":40.6344,"long":-79.6201},{"zip":"15673","city":"North Apollo","state":"PA","lat":40.593,"long":-79.5581},{"zip":"15682","city":"Schenley","state":"PA","lat":40.6845,"long":-79.6617},{"zip":"15686","city":"Spring Church","state":"PA","lat":40.6153,"long":-79.4545},{"zip":"15736","city":"Elderton","state":"PA","lat":40.6922,"long":-79.3422},{"zip":"15774","city":"Shelocta","state":"PA","lat":40.6388,"long":-79.3191},{"zip":"15001","city":"Aliquippa","state":"PA","lat":40.5921,"long":-80.3197},{"zip":"15003","city":"Ambridge","state":"PA","lat":40.6005,"long":-80.2105},{"zip":"15005","city":"Baden","state":"PA","lat":40.6416,"long":-80.1985},{"zip":"15009","city":"Beaver","state":"PA","lat":40.6972,"long":-80.3365},{"zip":"15010","city":"Beaver Falls","state":"PA","lat":40.7687,"long":-80.3592},{"zip":"15027","city":"Conway","state":"PA","lat":40.6649,"long":-80.2349},{"zip":"15042","city":"Freedom","state":"PA","lat":40.683,"long":-80.2147},{"zip":"15043","city":"Georgetown","state":"PA","lat":40.5743,"long":-80.49},{"zip":"15050","city":"Hookstown","state":"PA","lat":40.5622,"long":-80.4388},{"zip":"15052","city":"Industry","state":"PA","lat":40.6671,"long":-80.4151},{"zip":"15059","city":"Midland","state":"PA","lat":40.6793,"long":-80.4908},{"zip":"15061","city":"Monaca","state":"PA","lat":40.6718,"long":-80.2917},{"zip":"15066","city":"New Brighton","state":"PA","lat":40.7393,"long":-80.2972},{"zip":"15074","city":"Rochester","state":"PA","lat":40.7157,"long":-80.2603},{"zip":"15077","city":"Shippingport","state":"PA","lat":40.6025,"long":-80.3863},{"zip":"15081","city":"South Heights","state":"PA","lat":40.5763,"long":-80.2383},{"zip":"15521","city":"Alum Bank","state":"PA","lat":40.1858,"long":-78.6206},{"zip":"15522","city":"Bedford","state":"PA","lat":39.9908,"long":-78.5261},{"zip":"15533","city":"Breezewood","state":"PA","lat":39.9905,"long":-78.2453},{"zip":"15534","city":"Buffalo Mills","state":"PA","lat":39.922,"long":-78.6996},{"zip":"15535","city":"Clearville","state":"PA","lat":39.8533,"long":-78.4392},{"zip":"15537","city":"Everett","state":"PA","lat":40.0098,"long":-78.3713},{"zip":"15539","city":"Fishertown","state":"PA","lat":40.1217,"long":-78.5856},{"zip":"15545","city":"Hyndman","state":"PA","lat":39.8049,"long":-78.7335},{"zip":"15550","city":"Manns Choice","state":"PA","lat":39.9808,"long":-78.6423},{"zip":"15554","city":"New Paris","state":"PA","lat":40.1254,"long":-78.6184},{"zip":"15559","city":"Schellsburg","state":"PA","lat":40.0487,"long":-78.6482},{"zip":"15714","city":"Northern Cambria","state":"PA","lat":40.6661,"long":-78.792},{"zip":"15722","city":"Carrolltown","state":"PA","lat":40.5891,"long":-78.7037},{"zip":"15737","city":"Elmora","state":"PA","lat":40.6076,"long":-78.7524},{"zip":"15738","city":"Emeigh","state":"PA","lat":40.6948,"long":-78.787},{"zip":"15760","city":"Marsteller","state":"PA","lat":40.6522,"long":-78.8054},{"zip":"15762","city":"Nicktown","state":"PA","lat":40.6016,"long":-78.8114},{"zip":"15773","city":"Saint Benedict","state":"PA","lat":40.6298,"long":-78.7329},{"zip":"15775","city":"Spangler","state":"PA","lat":40.6351,"long":-78.7692},{"zip":"15901","city":"Johnstown","state":"PA","lat":40.326,"long":-78.9141},{"zip":"15902","city":"Johnstown","state":"PA","lat":40.3078,"long":-78.8969},{"zip":"15904","city":"Johnstown","state":"PA","lat":40.285,"long":-78.8654},{"zip":"15905","city":"Johnstown","state":"PA","lat":40.3072,"long":-78.943},{"zip":"15906","city":"Johnstown","state":"PA","lat":40.3522,"long":-78.9383},{"zip":"15907","city":"Johnstown","state":"PA","lat":40.3254,"long":-78.9151},{"zip":"15909","city":"Johnstown","state":"PA","lat":40.4096,"long":-78.8712},{"zip":"15915","city":"Johnstown","state":"PA","lat":40.3267,"long":-78.922},{"zip":"15921","city":"Beaverdale","state":"PA","lat":40.3173,"long":-78.7009},{"zip":"15922","city":"Belsano","state":"PA","lat":40.5176,"long":-78.8767},{"zip":"15925","city":"Cassandra","state":"PA","lat":40.4085,"long":-78.6407},{"zip":"15927","city":"Colver","state":"PA","lat":40.5383,"long":-78.7865},{"zip":"15930","city":"Dunlo","state":"PA","lat":40.2939,"long":-78.7192},{"zip":"15931","city":"Ebensburg","state":"PA","lat":40.4801,"long":-78.7263},{"zip":"15934","city":"Elton","state":"PA","lat":40.2799,"long":-78.8032},{"zip":"15938","city":"Lilly","state":"PA","lat":40.4238,"long":-78.6231},{"zip":"15940","city":"Loretto","state":"PA","lat":40.5105,"long":-78.6294},{"zip":"15942","city":"Mineral Point","state":"PA","lat":40.3793,"long":-78.8352},{"zip":"15943","city":"Nanty Glo","state":"PA","lat":40.4704,"long":-78.8375},{"zip":"15945","city":"Parkhill","state":"PA","lat":40.3612,"long":-78.8709},{"zip":"15946","city":"Portage","state":"PA","lat":40.3724,"long":-78.6328},{"zip":"15948","city":"Revloc","state":"PA","lat":40.49,"long":-78.7646},{"zip":"15951","city":"Saint Michael","state":"PA","lat":40.337,"long":-78.7709},{"zip":"15952","city":"Salix","state":"PA","lat":40.2986,"long":-78.7816},{"zip":"15955","city":"Sidman","state":"PA","lat":40.3299,"long":-78.746},{"zip":"15956","city":"South Fork","state":"PA","lat":40.3629,"long":-78.7887},{"zip":"15958","city":"Summerhill","state":"PA","lat":40.389,"long":-78.756},{"zip":"15960","city":"Twin Rocks","state":"PA","lat":40.4967,"long":-78.8659},{"zip":"15961","city":"Vintondale","state":"PA","lat":40.4939,"long":-78.9427},{"zip":"15962","city":"Wilmore","state":"PA","lat":40.3887,"long":-78.7186},{"zip":"15832","city":"Driftwood","state":"PA","lat":41.3764,"long":-78.1632},{"zip":"15834","city":"Emporium","state":"PA","lat":41.5177,"long":-78.2536},{"zip":"15861","city":"Sinnamahoning","state":"PA","lat":41.3762,"long":-78.0661},{"zip":"15721","city":"Burnside","state":"PA","lat":40.8134,"long":-78.7865},{"zip":"15753","city":"La Jose","state":"PA","lat":40.7876,"long":-78.6514},{"zip":"15757","city":"Mahaffey","state":"PA","lat":40.8875,"long":-78.7353},{"zip":"15801","city":"Du Bois","state":"PA","lat":41.126,"long":-78.7527},{"zip":"15848","city":"Luthersburg","state":"PA","lat":41.0532,"long":-78.7428},{"zip":"15849","city":"Penfield","state":"PA","lat":41.2085,"long":-78.5791},{"zip":"15856","city":"Rockton","state":"PA","lat":41.0806,"long":-78.6577},{"zip":"15866","city":"Troutville","state":"PA","lat":41.0256,"long":-78.7853},{"zip":"15821","city":"Benezett","state":"PA","lat":41.3253,"long":-78.3576},{"zip":"15822","city":"Brandy Camp","state":"PA","lat":41.3209,"long":-78.6875},{"zip":"15823","city":"Brockport","state":"PA","lat":41.2822,"long":-78.7128},{"zip":"15827","city":"Byrnedale","state":"PA","lat":41.2865,"long":-78.5051},{"zip":"15831","city":"Dagus Mines","state":"PA","lat":41.3539,"long":-78.6056},{"zip":"15841","city":"Force","state":"PA","lat":41.2629,"long":-78.5298},{"zip":"15845","city":"Johnsonburg","state":"PA","lat":41.4928,"long":-78.6783},{"zip":"15846","city":"Kersey","state":"PA","lat":41.3563,"long":-78.6015},{"zip":"15853","city":"Ridgway","state":"PA","lat":41.3621,"long":-78.7262},{"zip":"15857","city":"Saint Marys","state":"PA","lat":41.4289,"long":-78.5505},{"zip":"15868","city":"Weedville","state":"PA","lat":41.2685,"long":-78.4952},{"zip":"15870","city":"Wilcox","state":"PA","lat":41.5735,"long":-78.6823},{"zip":"15012","city":"Belle Vernon","state":"PA","lat":40.1588,"long":-79.8122},{"zip":"15401","city":"Uniontown","state":"PA","lat":39.8897,"long":-79.7282},{"zip":"15410","city":"Adah","state":"PA","lat":39.8965,"long":-79.922},{"zip":"15413","city":"Allison","state":"PA","lat":39.9868,"long":-79.8637},{"zip":"15415","city":"Brier Hill","state":"PA","lat":39.9808,"long":-79.8504},{"zip":"15416","city":"Brownfield","state":"PA","lat":39.857,"long":-79.712},{"zip":"15417","city":"Brownsville","state":"PA","lat":40.0237,"long":-79.8839},{"zip":"15420","city":"Cardale","state":"PA","lat":39.9567,"long":-79.8662},{"zip":"15421","city":"Chalk Hill","state":"PA","lat":39.8451,"long":-79.5991},{"zip":"15422","city":"Chestnut Ridge","state":"PA","lat":39.9812,"long":-79.8116},{"zip":"15425","city":"Connellsville","state":"PA","lat":40.0265,"long":-79.5566},{"zip":"15428","city":"Dawson","state":"PA","lat":40.0638,"long":-79.6602},{"zip":"15430","city":"Dickerson Run","state":"PA","lat":40.0418,"long":-79.66},{"zip":"15431","city":"Dunbar","state":"PA","lat":39.9722,"long":-79.6431},{"zip":"15433","city":"East Millsboro","state":"PA","lat":39.9822,"long":-79.9664},{"zip":"15435","city":"Fairbank","state":"PA","lat":39.9434,"long":-79.8495},{"zip":"15436","city":"Fairchance","state":"PA","lat":39.8229,"long":-79.7551},{"zip":"15437","city":"Farmington","state":"PA","lat":39.807,"long":-79.5832},{"zip":"15438","city":"Fayette City","state":"PA","lat":40.0988,"long":-79.8366},{"zip":"15439","city":"Gans","state":"PA","lat":39.7429,"long":-79.8242},{"zip":"15440","city":"Gibbon Glade","state":"PA","lat":39.7364,"long":-79.5736},{"zip":"15442","city":"Grindstone","state":"PA","lat":40.0084,"long":-79.8404},{"zip":"15443","city":"Hibbs","state":"PA","lat":39.9317,"long":-79.8825},{"zip":"15444","city":"Hiller","state":"PA","lat":40.012,"long":-79.9088},{"zip":"15445","city":"Hopwood","state":"PA","lat":39.8728,"long":-79.6568},{"zip":"15446","city":"Indian Head","state":"PA","lat":40.0248,"long":-79.395},{"zip":"15447","city":"Isabella","state":"PA","lat":39.946,"long":-79.9393},{"zip":"15449","city":"Keisterville","state":"PA","lat":39.9636,"long":-79.7853},{"zip":"15450","city":"La Belle","state":"PA","lat":39.9983,"long":-79.9754},{"zip":"15451","city":"Lake Lynn","state":"PA","lat":39.7501,"long":-79.8618},{"zip":"15454","city":"Leckrone","state":"PA","lat":39.8615,"long":-79.8701},{"zip":"15455","city":"Leisenring","state":"PA","lat":39.9985,"long":-79.6435},{"zip":"15456","city":"Lemont Furnace","state":"PA","lat":39.9311,"long":-79.6477},{"zip":"15458","city":"Mc Clellandtown","state":"PA","lat":39.8882,"long":-79.8694},{"zip":"15459","city":"Markleysburg","state":"PA","lat":39.7597,"long":-79.46},{"zip":"15460","city":"Martin","state":"PA","lat":39.8065,"long":-79.9098},{"zip":"15461","city":"Masontown","state":"PA","lat":39.8424,"long":-79.9003},{"zip":"15462","city":"Melcroft","state":"PA","lat":40.052,"long":-79.3892},{"zip":"15463","city":"Merrittstown","state":"PA","lat":39.8825,"long":-79.8336},{"zip":"15464","city":"Mill Run","state":"PA","lat":39.968,"long":-79.4622},{"zip":"15465","city":"Mount Braddock","state":"PA","lat":39.9321,"long":-79.6522},{"zip":"15466","city":"Newell","state":"PA","lat":40.0751,"long":-79.8943},{"zip":"15467","city":"New Geneva","state":"PA","lat":39.7884,"long":-79.9092},{"zip":"15468","city":"New Salem","state":"PA","lat":39.9242,"long":-79.8356},{"zip":"15469","city":"Normalville","state":"PA","lat":40.0418,"long":-79.4151},{"zip":"15470","city":"Ohiopyle","state":"PA","lat":39.8507,"long":-79.523},{"zip":"15472","city":"Oliver","state":"PA","lat":39.9183,"long":-79.7158},{"zip":"15473","city":"Perryopolis","state":"PA","lat":40.0646,"long":-79.7756},{"zip":"15474","city":"Point Marion","state":"PA","lat":39.7351,"long":-79.899},{"zip":"15475","city":"Republic","state":"PA","lat":39.9626,"long":-79.8767},{"zip":"15476","city":"Ronco","state":"PA","lat":39.8697,"long":-79.9206},{"zip":"15478","city":"Smithfield","state":"PA","lat":39.7923,"long":-79.8127},{"zip":"15480","city":"Smock","state":"PA","lat":39.9961,"long":-79.7678},{"zip":"15482","city":"Star Junction","state":"PA","lat":40.0651,"long":-79.769},{"zip":"15484","city":"Uledi","state":"PA","lat":39.8936,"long":-79.7856},{"zip":"15486","city":"Vanderbilt","state":"PA","lat":40.0246,"long":-79.6955},{"zip":"15488","city":"Waltersburg","state":"PA","lat":39.9763,"long":-79.7689},{"zip":"15489","city":"West Leisenring","state":"PA","lat":39.9561,"long":-79.7007},{"zip":"15490","city":"White","state":"PA","lat":40.0726,"long":-79.4251},{"zip":"15492","city":"Wickhaven","state":"PA","lat":40.1194,"long":-79.7623},{"zip":"15631","city":"Everson","state":"PA","lat":40.0911,"long":-79.5873},{"zip":"15828","city":"Clarington","state":"PA","lat":41.3233,"long":-79.1466},{"zip":"15536","city":"Crystal Spring","state":"PA","lat":39.92,"long":-78.2258},{"zip":"15310","city":"Aleppo","state":"PA","lat":39.8246,"long":-80.4579},{"zip":"15315","city":"Bobtown","state":"PA","lat":39.7612,"long":-79.9814},{"zip":"15316","city":"Brave","state":"PA","lat":39.7245,"long":-80.2537},{"zip":"15320","city":"Carmichaels","state":"PA","lat":39.8825,"long":-79.971},{"zip":"15322","city":"Clarksville","state":"PA","lat":39.9667,"long":-80.0452},{"zip":"15325","city":"Crucible","state":"PA","lat":39.9502,"long":-79.9676},{"zip":"15327","city":"Dilliner","state":"PA","lat":39.7555,"long":-79.9771},{"zip":"15334","city":"Garards Fort","state":"PA","lat":39.8083,"long":-79.9679},{"zip":"15337","city":"Graysville","state":"PA","lat":39.9092,"long":-80.3952},{"zip":"15338","city":"Greensboro","state":"PA","lat":39.8045,"long":-79.9399},{"zip":"15341","city":"Holbrook","state":"PA","lat":39.8489,"long":-80.3385},{"zip":"15344","city":"Jefferson","state":"PA","lat":39.9334,"long":-80.0503},{"zip":"15346","city":"Mather","state":"PA","lat":39.9354,"long":-80.0753},{"zip":"15349","city":"Mount Morris","state":"PA","lat":39.774,"long":-80.0246},{"zip":"15351","city":"Nemacolin","state":"PA","lat":39.8779,"long":-79.9258},{"zip":"15352","city":"New Freeport","state":"PA","lat":39.7507,"long":-80.4542},{"zip":"15353","city":"Nineveh","state":"PA","lat":39.8706,"long":-80.2113},{"zip":"15357","city":"Rices Landing","state":"PA","lat":39.944,"long":-79.9857},{"zip":"15359","city":"Rogersville","state":"PA","lat":39.8765,"long":-80.2758},{"zip":"15362","city":"Spraggs","state":"PA","lat":39.7447,"long":-80.2145},{"zip":"15364","city":"Sycamore","state":"PA","lat":39.9415,"long":-80.2906},{"zip":"15370","city":"Waynesburg","state":"PA","lat":39.8917,"long":-80.1795},{"zip":"15380","city":"Wind Ridge","state":"PA","lat":39.8971,"long":-80.4647},{"zip":"15681","city":"Saltsburg","state":"PA","lat":40.5429,"long":-79.3978},{"zip":"15701","city":"Indiana","state":"PA","lat":40.6196,"long":-79.1596},{"zip":"15705","city":"Indiana","state":"PA","lat":40.6215,"long":-79.1525},{"zip":"15710","city":"Alverda","state":"PA","lat":40.6303,"long":-78.857},{"zip":"15712","city":"Arcadia","state":"PA","lat":40.7817,"long":-78.8536},{"zip":"15713","city":"Aultman","state":"PA","lat":40.5698,"long":-79.2617},{"zip":"15716","city":"Black Lick","state":"PA","lat":40.4725,"long":-79.1869},{"zip":"15717","city":"Blairsville","state":"PA","lat":40.4413,"long":-79.2533},{"zip":"15720","city":"Brush Valley","state":"PA","lat":40.5292,"long":-79.0846},{"zip":"15723","city":"Chambersville","state":"PA","lat":40.7056,"long":-79.1615},{"zip":"15724","city":"Cherry Tree","state":"PA","lat":40.7554,"long":-78.8474},{"zip":"15725","city":"Clarksburg","state":"PA","lat":40.5039,"long":-79.3677},{"zip":"15727","city":"Clune","state":"PA","lat":40.5503,"long":-79.3237},{"zip":"15728","city":"Clymer","state":"PA","lat":40.6688,"long":-79.0119},{"zip":"15729","city":"Commodore","state":"PA","lat":40.7016,"long":-78.9134},{"zip":"15731","city":"Coral","state":"PA","lat":40.4992,"long":-79.1739},{"zip":"15732","city":"Creekside","state":"PA","lat":40.7199,"long":-79.2014},{"zip":"15734","city":"Dixonville","state":"PA","lat":40.7165,"long":-79.007},{"zip":"15739","city":"Ernest","state":"PA","lat":40.678,"long":-79.1657},{"zip":"15741","city":"Gipsy","state":"PA","lat":40.8073,"long":-78.8764},{"zip":"15742","city":"Glen Campbell","state":"PA","lat":40.8508,"long":-78.8555},{"zip":"15745","city":"Heilwood","state":"PA","lat":40.6207,"long":-78.9186},{"zip":"15746","city":"Hillsdale","state":"PA","lat":40.7679,"long":-78.8773},{"zip":"15747","city":"Home","state":"PA","lat":40.7834,"long":-79.1641},{"zip":"15748","city":"Homer City","state":"PA","lat":40.5245,"long":-79.0843},{"zip":"15750","city":"Josephine","state":"PA","lat":40.4828,"long":-79.185},{"zip":"15752","city":"Kent","state":"PA","lat":40.5412,"long":-79.282},{"zip":"15754","city":"Lucernemines","state":"PA","lat":40.5567,"long":-79.1515},{"zip":"15756","city":"Mc Intyre","state":"PA","lat":40.5684,"long":-79.2999},{"zip":"15758","city":"Marchand","state":"PA","lat":40.8576,"long":-79.0228},{"zip":"15759","city":"Marion Center","state":"PA","lat":40.7814,"long":-79.0252},{"zip":"15761","city":"Mentcle","state":"PA","lat":40.6373,"long":-78.8823},{"zip":"15763","city":"Northpoint","state":"PA","lat":40.9037,"long":-79.1257},{"zip":"15765","city":"Penn Run","state":"PA","lat":40.6213,"long":-78.9943},{"zip":"15771","city":"Rochester Mills","state":"PA","lat":40.8308,"long":-78.9892},{"zip":"15772","city":"Rossiter","state":"PA","lat":40.8846,"long":-78.9414},{"zip":"15777","city":"Starford","state":"PA","lat":40.7027,"long":-78.9588},{"zip":"15783","city":"West Lebanon","state":"PA","lat":40.6026,"long":-79.3537},{"zip":"15920","city":"Armagh","state":"PA","lat":40.4603,"long":-79.0097},{"zip":"15929","city":"Dilltown","state":"PA","lat":40.4625,"long":-79.0128},{"zip":"15949","city":"Robinson","state":"PA","lat":40.4042,"long":-79.1395},{"zip":"15957","city":"Strongstown","state":"PA","lat":40.5727,"long":-78.9},{"zip":"15711","city":"Anita","state":"PA","lat":41.0018,"long":-78.9666},{"zip":"15715","city":"Big Run","state":"PA","lat":40.9704,"long":-78.8758},{"zip":"15730","city":"Coolspring","state":"PA","lat":40.9671,"long":-78.9256},{"zip":"15733","city":"De Lancey","state":"PA","lat":41.1411,"long":-78.9629},{"zip":"15744","city":"Hamilton","state":"PA","lat":40.9233,"long":-79.0831},{"zip":"15764","city":"Oliveburg","state":"PA","lat":40.9926,"long":-79.0291},{"zip":"15767","city":"Punxsutawney","state":"PA","lat":40.9479,"long":-78.9681},{"zip":"15770","city":"Ringgold","state":"PA","lat":40.9997,"long":-79.1766},{"zip":"15776","city":"Sprankle Mills","state":"PA","lat":41.0133,"long":-79.114},{"zip":"15778","city":"Timblin","state":"PA","lat":40.9684,"long":-79.2014},{"zip":"15780","city":"Valier","state":"PA","lat":40.9159,"long":-79.0448},{"zip":"15781","city":"Walston","state":"PA","lat":40.9651,"long":-78.9948},{"zip":"15784","city":"Worthville","state":"PA","lat":41.0238,"long":-79.1387},{"zip":"15824","city":"Brockway","state":"PA","lat":41.2406,"long":-78.8116},{"zip":"15825","city":"Brookville","state":"PA","lat":41.1627,"long":-79.0816},{"zip":"15829","city":"Corsica","state":"PA","lat":41.1762,"long":-79.1976},{"zip":"15840","city":"Falls Creek","state":"PA","lat":41.1455,"long":-78.8128},{"zip":"15847","city":"Knox Dale","state":"PA","lat":41.0862,"long":-79.0264},{"zip":"15851","city":"Reynoldsville","state":"PA","lat":41.097,"long":-78.8886},{"zip":"15860","city":"Sigel","state":"PA","lat":41.3099,"long":-79.054},{"zip":"15863","city":"Stump Creek","state":"PA","lat":41.0126,"long":-78.8373},{"zip":"15864","city":"Summerville","state":"PA","lat":41.1058,"long":-79.1726},{"zip":"15865","city":"Sykesville","state":"PA","lat":41.0514,"long":-78.8195},{"zip":"15411","city":"Addison","state":"PA","lat":39.7476,"long":-79.3454},{"zip":"15424","city":"Confluence","state":"PA","lat":39.8129,"long":-79.3567},{"zip":"15485","city":"Ursina","state":"PA","lat":39.8173,"long":-79.3306},{"zip":"15501","city":"Somerset","state":"PA","lat":40.0248,"long":-79.0808},{"zip":"15502","city":"Hidden Valley","state":"PA","lat":40.046,"long":-79.2585},{"zip":"15510","city":"Somerset","state":"PA","lat":39.9633,"long":-79.0409},{"zip":"15520","city":"Acosta","state":"PA","lat":40.1104,"long":-79.0689},{"zip":"15530","city":"Berlin","state":"PA","lat":39.9188,"long":-78.9637},{"zip":"15531","city":"Boswell","state":"PA","lat":40.1918,"long":-79.0362},{"zip":"15532","city":"Boynton","state":"PA","lat":39.7673,"long":-79.062},{"zip":"15538","city":"Fairhope","state":"PA","lat":39.868,"long":-78.8362},{"zip":"15540","city":"Fort Hill","state":"PA","lat":39.7961,"long":-79.2472},{"zip":"15541","city":"Friedens","state":"PA","lat":40.011,"long":-78.9033},{"zip":"15542","city":"Garrett","state":"PA","lat":39.8646,"long":-79.0616},{"zip":"15544","city":"Gray","state":"PA","lat":40.1377,"long":-79.0926},{"zip":"15546","city":"Jenners","state":"PA","lat":40.1459,"long":-79.0676},{"zip":"15547","city":"Jennerstown","state":"PA","lat":40.1595,"long":-79.0616},{"zip":"15548","city":"Kantner","state":"PA","lat":40.1011,"long":-78.9387},{"zip":"15549","city":"Listie","state":"PA","lat":40.0208,"long":-79.0123},{"zip":"15551","city":"Markleton","state":"PA","lat":39.8691,"long":-79.2879},{"zip":"15552","city":"Meyersdale","state":"PA","lat":39.7905,"long":-79.0261},{"zip":"15553","city":"New Baltimore","state":"PA","lat":39.9828,"long":-78.7719},{"zip":"15555","city":"Quecreek","state":"PA","lat":40.0914,"long":-79.0872},{"zip":"15557","city":"Rockwood","state":"PA","lat":39.9373,"long":-79.1865},{"zip":"15558","city":"Salisbury","state":"PA","lat":39.7531,"long":-79.0835},{"zip":"15560","city":"Shanksville","state":"PA","lat":40.0171,"long":-78.9077},{"zip":"15561","city":"Sipesville","state":"PA","lat":40.0964,"long":-79.0902},{"zip":"15562","city":"Springs","state":"PA","lat":39.748,"long":-79.1237},{"zip":"15563","city":"Stoystown","state":"PA","lat":40.0948,"long":-78.9658},{"zip":"15564","city":"Wellersburg","state":"PA","lat":39.7299,"long":-78.8441},{"zip":"15565","city":"West Salisbury","state":"PA","lat":39.7542,"long":-79.095},{"zip":"15924","city":"Cairnbrook","state":"PA","lat":40.1149,"long":-78.7851},{"zip":"15926","city":"Central City","state":"PA","lat":40.0913,"long":-78.8448},{"zip":"15928","city":"Davidsville","state":"PA","lat":40.2245,"long":-78.9363},{"zip":"15935","city":"Hollsopple","state":"PA","lat":40.2343,"long":-78.9515},{"zip":"15936","city":"Hooversville","state":"PA","lat":40.1488,"long":-78.9141},{"zip":"15937","city":"Jerome","state":"PA","lat":40.2084,"long":-78.9873},{"zip":"15953","city":"Seanor","state":"PA","lat":40.212,"long":-78.8984},{"zip":"15959","city":"Tire Hill","state":"PA","lat":40.268,"long":-78.9156},{"zip":"15963","city":"Windber","state":"PA","lat":40.2287,"long":-78.8303},{"zip":"15004","city":"Atlasburg","state":"PA","lat":40.3413,"long":-80.3822},{"zip":"15019","city":"Bulger","state":"PA","lat":40.4051,"long":-80.3622},{"zip":"15021","city":"Burgettstown","state":"PA","lat":40.3821,"long":-80.4044},{"zip":"15022","city":"Charleroi","state":"PA","lat":40.1404,"long":-79.92},{"zip":"15033","city":"Donora","state":"PA","lat":40.1768,"long":-79.8619},{"zip":"15038","city":"Elrama","state":"PA","lat":40.2521,"long":-79.9252},{"zip":"15053","city":"Joffre","state":"PA","lat":40.38,"long":-80.3605},{"zip":"15054","city":"Langeloth","state":"PA","lat":40.3625,"long":-80.4086},{"zip":"15055","city":"Lawrence","state":"PA","lat":40.3058,"long":-80.1219},{"zip":"15057","city":"Mc Donald","state":"PA","lat":40.3697,"long":-80.2562},{"zip":"15060","city":"Midway","state":"PA","lat":40.368,"long":-80.2921},{"zip":"15063","city":"Monongahela","state":"PA","lat":40.1937,"long":-79.9241},{"zip":"15067","city":"New Eagle","state":"PA","lat":40.2066,"long":-79.9534},{"zip":"15078","city":"Slovan","state":"PA","lat":40.3584,"long":-80.3879},{"zip":"15301","city":"Washington","state":"PA","lat":40.1717,"long":-80.256},{"zip":"15311","city":"Amity","state":"PA","lat":40.0498,"long":-80.1681},{"zip":"15312","city":"Avella","state":"PA","lat":40.2734,"long":-80.4565},{"zip":"15313","city":"Beallsville","state":"PA","lat":40.0655,"long":-80.0221},{"zip":"15314","city":"Bentleyville","state":"PA","lat":40.1187,"long":-80.007},{"zip":"15317","city":"Canonsburg","state":"PA","lat":40.2706,"long":-80.1668},{"zip":"15321","city":"Cecil","state":"PA","lat":40.3234,"long":-80.1879},{"zip":"15323","city":"Claysville","state":"PA","lat":40.1179,"long":-80.4103},{"zip":"15324","city":"Cokeburg","state":"PA","lat":40.1008,"long":-80.0652},{"zip":"15329","city":"Prosperity","state":"PA","lat":40.0224,"long":-80.2613},{"zip":"15330","city":"Eighty Four","state":"PA","lat":40.1868,"long":-80.0627},{"zip":"15331","city":"Ellsworth","state":"PA","lat":40.1073,"long":-80.0204},{"zip":"15332","city":"Finleyville","state":"PA","lat":40.2593,"long":-79.9753},{"zip":"15333","city":"Fredericktown","state":"PA","lat":40.0026,"long":-79.9981},{"zip":"15336","city":"Gastonville","state":"PA","lat":40.2601,"long":-79.9927},{"zip":"15339","city":"Hendersonville","state":"PA","lat":40.3018,"long":-80.1543},{"zip":"15340","city":"Hickory","state":"PA","lat":40.2925,"long":-80.3025},{"zip":"15342","city":"Houston","state":"PA","lat":40.2425,"long":-80.2209},{"zip":"15345","city":"Marianna","state":"PA","lat":40.0331,"long":-80.1145},{"zip":"15347","city":"Meadow Lands","state":"PA","lat":40.2174,"long":-80.2269},{"zip":"15348","city":"Millsboro","state":"PA","lat":39.9867,"long":-79.9937},{"zip":"15350","city":"Muse","state":"PA","lat":40.2928,"long":-80.2003},{"zip":"15358","city":"Richeyville","state":"PA","lat":40.0563,"long":-79.9926},{"zip":"15360","city":"Scenery Hill","state":"PA","lat":40.0859,"long":-80.0703},{"zip":"15361","city":"Southview","state":"PA","lat":40.3282,"long":-80.2563},{"zip":"15363","city":"Strabane","state":"PA","lat":40.2505,"long":-80.1984},{"zip":"15365","city":"Taylorstown","state":"PA","lat":40.1611,"long":-80.3781},{"zip":"15366","city":"Van Voorhis","state":"PA","lat":40.1562,"long":-79.9742},{"zip":"15367","city":"Venetia","state":"PA","lat":40.2755,"long":-80.0598},{"zip":"15368","city":"Vestaburg","state":"PA","lat":40.0144,"long":-79.9889},{"zip":"15376","city":"West Alexander","state":"PA","lat":40.1065,"long":-80.4978},{"zip":"15377","city":"West Finley","state":"PA","lat":39.9914,"long":-80.4408},{"zip":"15378","city":"Westland","state":"PA","lat":40.2775,"long":-80.2731},{"zip":"15379","city":"West Middletown","state":"PA","lat":40.2417,"long":-80.4242},{"zip":"15412","city":"Allenport","state":"PA","lat":40.0959,"long":-79.8499},{"zip":"15419","city":"California","state":"PA","lat":40.0625,"long":-79.8953},{"zip":"15423","city":"Coal Center","state":"PA","lat":40.0973,"long":-79.8839},{"zip":"15427","city":"Daisytown","state":"PA","lat":40.0743,"long":-79.967},{"zip":"15429","city":"Denbo","state":"PA","lat":40.0081,"long":-79.9392},{"zip":"15432","city":"Dunlevy","state":"PA","lat":40.1151,"long":-79.8627},{"zip":"15434","city":"Elco","state":"PA","lat":40.0797,"long":-79.8758},{"zip":"15477","city":"Roscoe","state":"PA","lat":40.0787,"long":-79.8656},{"zip":"15483","city":"Stockdale","state":"PA","lat":40.0826,"long":-79.8501},{"zip":"15062","city":"Monessen","state":"PA","lat":40.1524,"long":-79.8835},{"zip":"15068","city":"New Kensington","state":"PA","lat":40.5616,"long":-79.7129},{"zip":"15069","city":"New Kensington","state":"PA","lat":40.5698,"long":-79.7648},{"zip":"15072","city":"Pricedale","state":"PA","lat":40.1393,"long":-79.8562},{"zip":"15083","city":"Sutersville","state":"PA","lat":40.2382,"long":-79.7922},{"zip":"15085","city":"Trafford","state":"PA","lat":40.3857,"long":-79.7223},{"zip":"15087","city":"Webster","state":"PA","lat":40.1851,"long":-79.8487},{"zip":"15089","city":"West Newton","state":"PA","lat":40.2075,"long":-79.758},{"zip":"15448","city":"Jacobs Creek","state":"PA","lat":40.1331,"long":-79.7417},{"zip":"15479","city":"Smithton","state":"PA","lat":40.1553,"long":-79.7381},{"zip":"15601","city":"Greensburg","state":"PA","lat":40.3074,"long":-79.5424},{"zip":"15605","city":"Greensburg","state":"PA","lat":40.3602,"long":-79.4398},{"zip":"15606","city":"Greensburg","state":"PA","lat":40.3015,"long":-79.5389},{"zip":"15610","city":"Acme","state":"PA","lat":40.1201,"long":-79.4051},{"zip":"15611","city":"Adamsburg","state":"PA","lat":40.3126,"long":-79.6565},{"zip":"15612","city":"Alverton","state":"PA","lat":40.1373,"long":-79.5997},{"zip":"15613","city":"Apollo","state":"PA","lat":40.5565,"long":-79.5772},{"zip":"15615","city":"Ardara","state":"PA","lat":40.3578,"long":-79.735},{"zip":"15616","city":"Armbrust","state":"PA","lat":40.3602,"long":-79.4398},{"zip":"15617","city":"Arona","state":"PA","lat":40.268,"long":-79.6591},{"zip":"15618","city":"Avonmore","state":"PA","lat":40.5221,"long":-79.4853},{"zip":"15619","city":"Bovard","state":"PA","lat":40.3198,"long":-79.5034},{"zip":"15620","city":"Bradenville","state":"PA","lat":40.3238,"long":-79.3434},{"zip":"15621","city":"Calumet","state":"PA","lat":40.3602,"long":-79.4398},{"zip":"15622","city":"Champion","state":"PA","lat":40.044,"long":-79.3247},{"zip":"15623","city":"Claridge","state":"PA","lat":40.3692,"long":-79.619},{"zip":"15624","city":"Crabtree","state":"PA","lat":40.3623,"long":-79.4706},{"zip":"15625","city":"Darragh","state":"PA","lat":40.2665,"long":-79.6787},{"zip":"15626","city":"Delmont","state":"PA","lat":40.4139,"long":-79.5764},{"zip":"15627","city":"Derry","state":"PA","lat":40.3349,"long":-79.3326},{"zip":"15628","city":"Donegal","state":"PA","lat":40.0996,"long":-79.381},{"zip":"15629","city":"East Vandergrift","state":"PA","lat":40.598,"long":-79.5624},{"zip":"15632","city":"Export","state":"PA","lat":40.4252,"long":-79.611},{"zip":"15633","city":"Forbes Road","state":"PA","lat":40.354,"long":-79.5217},{"zip":"15634","city":"Grapeville","state":"PA","lat":40.3239,"long":-79.6049},{"zip":"15635","city":"Hannastown","state":"PA","lat":40.352,"long":-79.4979},{"zip":"15636","city":"Harrison City","state":"PA","lat":40.366,"long":-79.6565},{"zip":"15637","city":"Herminie","state":"PA","lat":40.2455,"long":-79.7172},{"zip":"15638","city":"Hostetter","state":"PA","lat":40.2662,"long":-79.3984},{"zip":"15639","city":"Hunker","state":"PA","lat":40.2149,"long":-79.5824},{"zip":"15640","city":"Hutchinson","state":"PA","lat":40.2251,"long":-79.7328},{"zip":"15641","city":"Hyde Park","state":"PA","lat":40.6311,"long":-79.5899},{"zip":"15642","city":"Irwin","state":"PA","lat":40.3191,"long":-79.7205},{"zip":"15644","city":"Jeannette","state":"PA","lat":40.3295,"long":-79.6144},{"zip":"15646","city":"Jones Mills","state":"PA","lat":40.0889,"long":-79.3427},{"zip":"15647","city":"Larimer","state":"PA","lat":40.3453,"long":-79.7264},{"zip":"15650","city":"Latrobe","state":"PA","lat":40.2926,"long":-79.4103},{"zip":"15655","city":"Laughlintown","state":"PA","lat":40.208,"long":-79.1806},{"zip":"15658","city":"Ligonier","state":"PA","lat":40.2431,"long":-79.2375},{"zip":"15660","city":"Lowber","state":"PA","lat":40.2459,"long":-79.7709},{"zip":"15661","city":"Loyalhanna","state":"PA","lat":40.3222,"long":-79.3601},{"zip":"15662","city":"Luxor","state":"PA","lat":40.3342,"long":-79.4781},{"zip":"15663","city":"Madison","state":"PA","lat":40.2467,"long":-79.676},{"zip":"15664","city":"Mammoth","state":"PA","lat":40.3108,"long":-79.6172},{"zip":"15665","city":"Manor","state":"PA","lat":40.334,"long":-79.67},{"zip":"15666","city":"Mount Pleasant","state":"PA","lat":40.1742,"long":-79.5134},{"zip":"15668","city":"Murrysville","state":"PA","lat":40.4467,"long":-79.6842},{"zip":"15670","city":"New Alexandria","state":"PA","lat":40.3987,"long":-79.422},{"zip":"15671","city":"New Derry","state":"PA","lat":40.3494,"long":-79.3225},{"zip":"15672","city":"New Stanton","state":"PA","lat":40.2192,"long":-79.6095},{"zip":"15674","city":"Norvelt","state":"PA","lat":40.216,"long":-79.4872},{"zip":"15675","city":"Penn","state":"PA","lat":40.3301,"long":-79.6413},{"zip":"15676","city":"Pleasant Unity","state":"PA","lat":40.2424,"long":-79.4542},{"zip":"15677","city":"Rector","state":"PA","lat":40.1864,"long":-79.2473},{"zip":"15678","city":"Rillton","state":"PA","lat":40.2872,"long":-79.7262},{"zip":"15679","city":"Ruffs Dale","state":"PA","lat":40.1585,"long":-79.6277},{"zip":"15680","city":"Salina","state":"PA","lat":40.5189,"long":-79.4959},{"zip":"15683","city":"Scottdale","state":"PA","lat":40.1029,"long":-79.593},{"zip":"15684","city":"Slickville","state":"PA","lat":40.4653,"long":-79.5067},{"zip":"15685","city":"Southwest","state":"PA","lat":40.3602,"long":-79.4398},{"zip":"15687","city":"Stahlstown","state":"PA","lat":40.1386,"long":-79.3445},{"zip":"15688","city":"Tarrs","state":"PA","lat":40.1686,"long":-79.5848},{"zip":"15689","city":"United","state":"PA","lat":40.2184,"long":-79.4878},{"zip":"15690","city":"Vandergrift","state":"PA","lat":40.6418,"long":-79.5399},{"zip":"15691","city":"Wendel","state":"PA","lat":40.294,"long":-79.6866},{"zip":"15692","city":"Westmoreland City","state":"PA","lat":40.3294,"long":-79.6806},{"zip":"15693","city":"Whitney","state":"PA","lat":40.2534,"long":-79.4103},{"zip":"15695","city":"Wyano","state":"PA","lat":40.1962,"long":-79.6942},{"zip":"15696","city":"Youngstown","state":"PA","lat":40.2793,"long":-79.3661},{"zip":"15697","city":"Youngwood","state":"PA","lat":40.2395,"long":-79.5823},{"zip":"15698","city":"Yukon","state":"PA","lat":40.2155,"long":-79.6849},{"zip":"15779","city":"Torrance","state":"PA","lat":40.3992,"long":-79.2177},{"zip":"15923","city":"Bolivar","state":"PA","lat":40.3673,"long":-79.1605},{"zip":"15944","city":"New Florence","state":"PA","lat":40.3823,"long":-79.0968},{"zip":"15954","city":"Seward","state":"PA","lat":40.4099,"long":-79.0232}]
