[{"zip":"15006","city":"Bairdford","state":"PA","lat":40.6312,"long":-79.8814},{"zip":"15007","city":"Bakerstown","state":"PA","lat":40.6478,"long":-79.931},{"zip":"15014","city":"Brackenridge","state":"PA","lat":40.6082,"long":-79.7414},{"zip":"15015","city":"Bradfordwoods","state":"PA","lat":40.6372,"long":-80.0811},{"zip":"15017","city":"Bridgeville","state":"PA","lat":40.3472,"long":-80.1153},{"zip":"15018","city":"Buena Vista","state":"PA","lat":40.2773,"long":-79.7992},{"zip":"15020","city":"Bunola","state":"PA","lat":40.2373,"long":-79.9506},{"zip":"15024","city":"Cheswick","state":"PA","lat":40.5681,"long":-79.841},{"zip":"15025","city":"Clairton","state":"PA","lat":40.3243,"long":-79.9317},{"zip":"15026","city":"Clinton","state":"PA","lat":40.5131,"long":-80.3423},{"zip":"15028","city":"Coulters","state":"PA","lat":40.4344,"long":-80.0248},{"zip":"15030","city":"Creighton","state":"PA","lat":40.5821,"long":-79.7818},{"zip":"15031","city":"Cuddy","state":"PA","lat":40.3547,"long":-80.1669},{"zip":"15032","city":"Curtisville","state":"PA","lat":40.6423,"long":-79.8509},{"zip":"15034","city":"Dravosburg","state":"PA","lat":40.3527,"long":-79.8895},{"zip":"15035","city":"East Mc Keesport","state":"PA","lat":40.3839,"long":-79.8079},{"zip":"15037","city":"Elizabeth","state":"PA","lat":40.2656,"long":-79.8568},{"zip":"15044","city":"Gibsonia","state":"PA","lat":40.6252,"long":-79.9443},{"zip":"15045","city":"Glassport","state":"PA","lat":40.326,"long":-79.8883},{"zip":"15046","city":"Crescent","state":"PA","lat":40.5563,"long":-80.2286},{"zip":"15047","city":"Greenock","state":"PA","lat":40.4344,"long":-80.0248},{"zip":"15049","city":"Harwick","state":"PA","lat":40.5574,"long":-79.8051},{"zip":"15051","city":"Indianola","state":"PA","lat":40.5695,"long":-79.8637},{"zip":"15056","city":"Leetsdale","state":"PA","lat":40.5662,"long":-80.2099},{"zip":"15064","city":"Morgan","state":"PA","lat":40.3542,"long":-80.1398},{"zip":"15065","city":"Natrona Heights","state":"PA","lat":40.6421,"long":-79.7273},{"zip":"15071","city":"Oakdale","state":"PA","lat":40.4033,"long":-80.1842},{"zip":"15075","city":"Rural Ridge","state":"PA","lat":40.4344,"long":-80.0248},{"zip":"15076","city":"Russellton","state":"PA","lat":40.6073,"long":-79.8347},{"zip":"15082","city":"Sturgeon","state":"PA","lat":40.3863,"long":-80.2083},{"zip":"15084","city":"Tarentum","state":"PA","lat":40.6187,"long":-79.7852},{"zip":"15086","city":"Warrendale","state":"PA","lat":40.6534,"long":-80.0795},{"zip":"15088","city":"West Elizabeth","state":"PA","lat":40.2716,"long":-79.8966},{"zip":"15090","city":"Wexford","state":"PA","lat":40.612,"long":-80.0649},{"zip":"15091","city":"Wildwood","state":"PA","lat":40.5942,"long":-79.9701},{"zip":"15095","city":"Warrendale","state":"PA","lat":40.6534,"long":-80.0795},{"zip":"15096","city":"Warrendale","state":"PA","lat":40.6534,"long":-80.0795},{"zip":"15001","city":"Aliquippa","state":"PA","lat":40.5921,"long":-80.3197},{"zip":"15003","city":"Ambridge","state":"PA","lat":40.6005,"long":-80.2105},{"zip":"15005","city":"Baden","state":"PA","lat":40.6416,"long":-80.1985},{"zip":"15009","city":"Beaver","state":"PA","lat":40.6972,"long":-80.3365},{"zip":"15010","city":"Beaver Falls","state":"PA","lat":40.7687,"long":-80.3592},{"zip":"15027","city":"Conway","state":"PA","lat":40.6649,"long":-80.2349},{"zip":"15042","city":"Freedom","state":"PA","lat":40.683,"long":-80.2147},{"zip":"15043","city":"Georgetown","state":"PA","lat":40.5743,"long":-80.49},{"zip":"15050","city":"Hookstown","state":"PA","lat":40.5622,"long":-80.4388},{"zip":"15052","city":"Industry","state":"PA","lat":40.6671,"long":-80.4151},{"zip":"15059","city":"Midland","state":"PA","lat":40.6793,"long":-80.4908},{"zip":"15061","city":"Monaca","state":"PA","lat":40.6718,"long":-80.2917},{"zip":"15066","city":"New Brighton","state":"PA","lat":40.7393,"long":-80.2972},{"zip":"15074","city":"Rochester","state":"PA","lat":40.7157,"long":-80.2603},{"zip":"15077","city":"Shippingport","state":"PA","lat":40.6025,"long":-80.3863},{"zip":"15081","city":"South Heights","state":"PA","lat":40.5763,"long":-80.2383},{"zip":"15012","city":"Belle Vernon","state":"PA","lat":40.1588,"long":-79.8122},{"zip":"15004","city":"Atlasburg","state":"PA","lat":40.3413,"long":-80.3822},{"zip":"15019","city":"Bulger","state":"PA","lat":40.4051,"long":-80.3622},{"zip":"15021","city":"Burgettstown","state":"PA","lat":40.3821,"long":-80.4044},{"zip":"15022","city":"Charleroi","state":"PA","lat":40.1404,"long":-79.92},{"zip":"15033","city":"Donora","state":"PA","lat":40.1768,"long":-79.8619},{"zip":"15038","city":"Elrama","state":"PA","lat":40.2521,"long":-79.9252},{"zip":"15053","city":"Joffre","state":"PA","lat":40.38,"long":-80.3605},{"zip":"15054","city":"Langeloth","state":"PA","lat":40.3625,"long":-80.4086},{"zip":"15055","city":"Lawrence","state":"PA","lat":40.3058,"long":-80.1219},{"zip":"15057","city":"Mc Donald","state":"PA","lat":40.3697,"long":-80.2562},{"zip":"15060","city":"Midway","state":"PA","lat":40.368,"long":-80.2921},{"zip":"15063","city":"Monongahela","state":"PA","lat":40.1937,"long":-79.9241},{"zip":"15067","city":"New Eagle","state":"PA","lat":40.2066,"long":-79.9534},{"zip":"15078","city":"Slovan","state":"PA","lat":40.3584,"long":-80.3879},{"zip":"15062","city":"Monessen","state":"PA","lat":40.1524,"long":-79.8835},{"zip":"15068","city":"New Kensington","state":"PA","lat":40.5616,"long":-79.7129},{"zip":"15069","city":"New Kensington","state":"PA","lat":40.5698,"long":-79.7648},{"zip":"15072","city":"Pricedale","state":"PA","lat":40.1393,"long":-79.8562},{"zip":"15083","city":"Sutersville","state":"PA","lat":40.2382,"long":-79.7922},{"zip":"15085","city":"Trafford","state":"PA","lat":40.3857,"long":-79.7223},{"zip":"15087","city":"Webster","state":"PA","lat":40.1851,"long":-79.8487},{"zip":"15089","city":"West Newton","state":"PA","lat":40.2075,"long":-79.758}]
