[{"zip":"15101","city":"Allison Park","state":"PA","lat":40.57,"long":-79.9665},{"zip":"15102","city":"Bethel Park","state":"PA","lat":40.321,"long":-80.0398},{"zip":"15104","city":"Braddock","state":"PA","lat":40.4038,"long":-79.8625},{"zip":"15106","city":"Carnegie","state":"PA","lat":40.4029,"long":-80.0915},{"zip":"15108","city":"Coraopolis","state":"PA","lat":40.5,"long":-80.1996},{"zip":"15110","city":"Duquesne","state":"PA","lat":40.3704,"long":-79.8522},{"zip":"15112","city":"East Pittsburgh","state":"PA","lat":40.4036,"long":-79.8389},{"zip":"15116","city":"Glenshaw","state":"PA","lat":40.5375,"long":-79.9644},{"zip":"15120","city":"Homestead","state":"PA","lat":40.3926,"long":-79.9052},{"zip":"15122","city":"West Mifflin","state":"PA","lat":40.3634,"long":-79.8664},{"zip":"15123","city":"West Mifflin","state":"PA","lat":40.4344,"long":-80.0248},{"zip":"15126","city":"Imperial","state":"PA","lat":40.4584,"long":-80.2649},{"zip":"15127","city":"Ingomar","state":"PA","lat":40.5809,"long":-80.0609},{"zip":"15129","city":"South Park","state":"PA","lat":40.2932,"long":-79.996},{"zip":"15131","city":"Mckeesport","state":"PA","lat":40.3478,"long":-79.8642},{"zip":"15132","city":"Mckeesport","state":"PA","lat":40.3478,"long":-79.8642},{"zip":"15133","city":"Mckeesport","state":"PA","lat":40.3478,"long":-79.8642},{"zip":"15134","city":"Mckeesport","state":"PA","lat":40.3478,"long":-79.8642},{"zip":"15135","city":"Mckeesport","state":"PA","lat":40.3478,"long":-79.8642},{"zip":"15136","city":"Mc Kees Rocks","state":"PA","lat":40.4717,"long":-80.0876},{"zip":"15137","city":"North Versailles","state":"PA","lat":40.3762,"long":-79.8124},{"zip":"15139","city":"Oakmont","state":"PA","lat":40.5196,"long":-79.8369},{"zip":"15140","city":"Pitcairn","state":"PA","lat":40.4048,"long":-79.777},{"zip":"15142","city":"Presto","state":"PA","lat":40.3847,"long":-80.1209},{"zip":"15143","city":"Sewickley","state":"PA","lat":40.557,"long":-80.1578},{"zip":"15144","city":"Springdale","state":"PA","lat":40.544,"long":-79.7844},{"zip":"15145","city":"Turtle Creek","state":"PA","lat":40.4113,"long":-79.822},{"zip":"15146","city":"Monroeville","state":"PA","lat":40.429,"long":-79.7623},{"zip":"15147","city":"Verona","state":"PA","lat":40.4927,"long":-79.8345},{"zip":"15148","city":"Wilmerding","state":"PA","lat":40.3934,"long":-79.7951}]
