[{"zip":"15310","city":"Aleppo","state":"PA","lat":39.8246,"long":-80.4579},{"zip":"15315","city":"Bobtown","state":"PA","lat":39.7612,"long":-79.9814},{"zip":"15316","city":"Brave","state":"PA","lat":39.7245,"long":-80.2537},{"zip":"15320","city":"Carmichaels","state":"PA","lat":39.8825,"long":-79.971},{"zip":"15322","city":"Clarksville","state":"PA","lat":39.9667,"long":-80.0452},{"zip":"15325","city":"Crucible","state":"PA","lat":39.9502,"long":-79.9676},{"zip":"15327","city":"Dilliner","state":"PA","lat":39.7555,"long":-79.9771},{"zip":"15334","city":"Garards Fort","state":"PA","lat":39.8083,"long":-79.9679},{"zip":"15337","city":"Graysville","state":"PA","lat":39.9092,"long":-80.3952},{"zip":"15338","city":"Greensboro","state":"PA","lat":39.8045,"long":-79.9399},{"zip":"15341","city":"Holbrook","state":"PA","lat":39.8489,"long":-80.3385},{"zip":"15344","city":"Jefferson","state":"PA","lat":39.9334,"long":-80.0503},{"zip":"15346","city":"Mather","state":"PA","lat":39.9354,"long":-80.0753},{"zip":"15349","city":"Mount Morris","state":"PA","lat":39.774,"long":-80.0246},{"zip":"15351","city":"Nemacolin","state":"PA","lat":39.8779,"long":-79.9258},{"zip":"15352","city":"New Freeport","state":"PA","lat":39.7507,"long":-80.4542},{"zip":"15353","city":"Nineveh","state":"PA","lat":39.8706,"long":-80.2113},{"zip":"15357","city":"Rices Landing","state":"PA","lat":39.944,"long":-79.9857},{"zip":"15359","city":"Rogersville","state":"PA","lat":39.8765,"long":-80.2758},{"zip":"15362","city":"Spraggs","state":"PA","lat":39.7447,"long":-80.2145},{"zip":"15364","city":"Sycamore","state":"PA","lat":39.9415,"long":-80.2906},{"zip":"15370","city":"Waynesburg","state":"PA","lat":39.8917,"long":-80.1795},{"zip":"15380","city":"Wind Ridge","state":"PA","lat":39.8971,"long":-80.4647},{"zip":"15301","city":"Washington","state":"PA","lat":40.1717,"long":-80.256},{"zip":"15311","city":"Amity","state":"PA","lat":40.0498,"long":-80.1681},{"zip":"15312","city":"Avella","state":"PA","lat":40.2734,"long":-80.4565},{"zip":"15313","city":"Beallsville","state":"PA","lat":40.0655,"long":-80.0221},{"zip":"15314","city":"Bentleyville","state":"PA","lat":40.1187,"long":-80.007},{"zip":"15317","city":"Canonsburg","state":"PA","lat":40.2706,"long":-80.1668},{"zip":"15321","city":"Cecil","state":"PA","lat":40.3234,"long":-80.1879},{"zip":"15323","city":"Claysville","state":"PA","lat":40.1179,"long":-80.4103},{"zip":"15324","city":"Cokeburg","state":"PA","lat":40.1008,"long":-80.0652},{"zip":"15329","city":"Prosperity","state":"PA","lat":40.0224,"long":-80.2613},{"zip":"15330","city":"Eighty Four","state":"PA","lat":40.1868,"long":-80.0627},{"zip":"15331","city":"Ellsworth","state":"PA","lat":40.1073,"long":-80.0204},{"zip":"15332","city":"Finleyville","state":"PA","lat":40.2593,"long":-79.9753},{"zip":"15333","city":"Fredericktown","state":"PA","lat":40.0026,"long":-79.9981},{"zip":"15336","city":"Gastonville","state":"PA","lat":40.2601,"long":-79.9927},{"zip":"15339","city":"Hendersonville","state":"PA","lat":40.3018,"long":-80.1543},{"zip":"15340","city":"Hickory","state":"PA","lat":40.2925,"long":-80.3025},{"zip":"15342","city":"Houston","state":"PA","lat":40.2425,"long":-80.2209},{"zip":"15345","city":"Marianna","state":"PA","lat":40.0331,"long":-80.1145},{"zip":"15347","city":"Meadow Lands","state":"PA","lat":40.2174,"long":-80.2269},{"zip":"15348","city":"Millsboro","state":"PA","lat":39.9867,"long":-79.9937},{"zip":"15350","city":"Muse","state":"PA","lat":40.2928,"long":-80.2003},{"zip":"15358","city":"Richeyville","state":"PA","lat":40.0563,"long":-79.9926},{"zip":"15360","city":"Scenery Hill","state":"PA","lat":40.0859,"long":-80.0703},{"zip":"15361","city":"Southview","state":"PA","lat":40.3282,"long":-80.2563},{"zip":"15363","city":"Strabane","state":"PA","lat":40.2505,"long":-80.1984},{"zip":"15365","city":"Taylorstown","state":"PA","lat":40.1611,"long":-80.3781},{"zip":"15366","city":"Van Voorhis","state":"PA","lat":40.1562,"long":-79.9742},{"zip":"15367","city":"Venetia","state":"PA","lat":40.2755,"long":-80.0598},{"zip":"15368","city":"Vestaburg","state":"PA","lat":40.0144,"long":-79.9889},{"zip":"15376","city":"West Alexander","state":"PA","lat":40.1065,"long":-80.4978},{"zip":"15377","city":"West Finley","state":"PA","lat":39.9914,"long":-80.4408},{"zip":"15378","city":"Westland","state":"PA","lat":40.2775,"long":-80.2731},{"zip":"15379","city":"West Middletown","state":"PA","lat":40.2417,"long":-80.4242}]
