[{"zip":"15401","city":"Uniontown","state":"PA","lat":39.8897,"long":-79.7282},{"zip":"15410","city":"Adah","state":"PA","lat":39.8965,"long":-79.922},{"zip":"15413","city":"Allison","state":"PA","lat":39.9868,"long":-79.8637},{"zip":"15415","city":"Brier Hill","state":"PA","lat":39.9808,"long":-79.8504},{"zip":"15416","city":"Brownfield","state":"PA","lat":39.857,"long":-79.712},{"zip":"15417","city":"Brownsville","state":"PA","lat":40.0237,"long":-79.8839},{"zip":"15420","city":"Cardale","state":"PA","lat":39.9567,"long":-79.8662},{"zip":"15421","city":"Chalk Hill","state":"PA","lat":39.8451,"long":-79.5991},{"zip":"15422","city":"Chestnut Ridge","state":"PA","lat":39.9812,"long":-79.8116},{"zip":"15425","city":"Connellsville","state":"PA","lat":40.0265,"long":-79.5566},{"zip":"15428","city":"Dawson","state":"PA","lat":40.0638,"long":-79.6602},{"zip":"15430","city":"Dickerson Run","state":"PA","lat":40.0418,"long":-79.66},{"zip":"15431","city":"Dunbar","state":"PA","lat":39.9722,"long":-79.6431},{"zip":"15433","city":"East Millsboro","state":"PA","lat":39.9822,"long":-79.9664},{"zip":"15435","city":"Fairbank","state":"PA","lat":39.9434,"long":-79.8495},{"zip":"15436","city":"Fairchance","state":"PA","lat":39.8229,"long":-79.7551},{"zip":"15437","city":"Farmington","state":"PA","lat":39.807,"long":-79.5832},{"zip":"15438","city":"Fayette City","state":"PA","lat":40.0988,"long":-79.8366},{"zip":"15439","city":"Gans","state":"PA","lat":39.7429,"long":-79.8242},{"zip":"15440","city":"Gibbon Glade","state":"PA","lat":39.7364,"long":-79.5736},{"zip":"15442","city":"Grindstone","state":"PA","lat":40.0084,"long":-79.8404},{"zip":"15443","city":"Hibbs","state":"PA","lat":39.9317,"long":-79.8825},{"zip":"15444","city":"Hiller","state":"PA","lat":40.012,"long":-79.9088},{"zip":"15445","city":"Hopwood","state":"PA","lat":39.8728,"long":-79.6568},{"zip":"15446","city":"Indian Head","state":"PA","lat":40.0248,"long":-79.395},{"zip":"15447","city":"Isabella","state":"PA","lat":39.946,"long":-79.9393},{"zip":"15449","city":"Keisterville","state":"PA","lat":39.9636,"long":-79.7853},{"zip":"15450","city":"La Belle","state":"PA","lat":39.9983,"long":-79.9754},{"zip":"15451","city":"Lake Lynn","state":"PA","lat":39.7501,"long":-79.8618},{"zip":"15454","city":"Leckrone","state":"PA","lat":39.8615,"long":-79.8701},{"zip":"15455","city":"Leisenring","state":"PA","lat":39.9985,"long":-79.6435},{"zip":"15456","city":"Lemont Furnace","state":"PA","lat":39.9311,"long":-79.6477},{"zip":"15458","city":"Mc Clellandtown","state":"PA","lat":39.8882,"long":-79.8694},{"zip":"15459","city":"Markleysburg","state":"PA","lat":39.7597,"long":-79.46},{"zip":"15460","city":"Martin","state":"PA","lat":39.8065,"long":-79.9098},{"zip":"15461","city":"Masontown","state":"PA","lat":39.8424,"long":-79.9003},{"zip":"15462","city":"Melcroft","state":"PA","lat":40.052,"long":-79.3892},{"zip":"15463","city":"Merrittstown","state":"PA","lat":39.8825,"long":-79.8336},{"zip":"15464","city":"Mill Run","state":"PA","lat":39.968,"long":-79.4622},{"zip":"15465","city":"Mount Braddock","state":"PA","lat":39.9321,"long":-79.6522},{"zip":"15466","city":"Newell","state":"PA","lat":40.0751,"long":-79.8943},{"zip":"15467","city":"New Geneva","state":"PA","lat":39.7884,"long":-79.9092},{"zip":"15468","city":"New Salem","state":"PA","lat":39.9242,"long":-79.8356},{"zip":"15469","city":"Normalville","state":"PA","lat":40.0418,"long":-79.4151},{"zip":"15470","city":"Ohiopyle","state":"PA","lat":39.8507,"long":-79.523},{"zip":"15472","city":"Oliver","state":"PA","lat":39.9183,"long":-79.7158},{"zip":"15473","city":"Perryopolis","state":"PA","lat":40.0646,"long":-79.7756},{"zip":"15474","city":"Point Marion","state":"PA","lat":39.7351,"long":-79.899},{"zip":"15475","city":"Republic","state":"PA","lat":39.9626,"long":-79.8767},{"zip":"15476","city":"Ronco","state":"PA","lat":39.8697,"long":-79.9206},{"zip":"15478","city":"Smithfield","state":"PA","lat":39.7923,"long":-79.8127},{"zip":"15480","city":"Smock","state":"PA","lat":39.9961,"long":-79.7678},{"zip":"15482","city":"Star Junction","state":"PA","lat":40.0651,"long":-79.769},{"zip":"15484","city":"Uledi","state":"PA","lat":39.8936,"long":-79.7856},{"zip":"15486","city":"Vanderbilt","state":"PA","lat":40.0246,"long":-79.6955},{"zip":"15488","city":"Waltersburg","state":"PA","lat":39.9763,"long":-79.7689},{"zip":"15489","city":"West Leisenring","state":"PA","lat":39.9561,"long":-79.7007},{"zip":"15490","city":"White","state":"PA","lat":40.0726,"long":-79.4251},{"zip":"15492","city":"Wickhaven","state":"PA","lat":40.1194,"long":-79.7623},{"zip":"15411","city":"Addison","state":"PA","lat":39.7476,"long":-79.3454},{"zip":"15424","city":"Confluence","state":"PA","lat":39.8129,"long":-79.3567},{"zip":"15485","city":"Ursina","state":"PA","lat":39.8173,"long":-79.3306},{"zip":"15412","city":"Allenport","state":"PA","lat":40.0959,"long":-79.8499},{"zip":"15419","city":"California","state":"PA","lat":40.0625,"long":-79.8953},{"zip":"15423","city":"Coal Center","state":"PA","lat":40.0973,"long":-79.8839},{"zip":"15427","city":"Daisytown","state":"PA","lat":40.0743,"long":-79.967},{"zip":"15429","city":"Denbo","state":"PA","lat":40.0081,"long":-79.9392},{"zip":"15432","city":"Dunlevy","state":"PA","lat":40.1151,"long":-79.8627},{"zip":"15434","city":"Elco","state":"PA","lat":40.0797,"long":-79.8758},{"zip":"15477","city":"Roscoe","state":"PA","lat":40.0787,"long":-79.8656},{"zip":"15483","city":"Stockdale","state":"PA","lat":40.0826,"long":-79.8501},{"zip":"15448","city":"Jacobs Creek","state":"PA","lat":40.1331,"long":-79.7417},{"zip":"15479","city":"Smithton","state":"PA","lat":40.1553,"long":-79.7381}]
