[{"zip":"15521","city":"Alum Bank","state":"PA","lat":40.1858,"long":-78.6206},{"zip":"15522","city":"Bedford","state":"PA","lat":39.9908,"long":-78.5261},{"zip":"15533","city":"Breezewood","state":"PA","lat":39.9905,"long":-78.2453},{"zip":"15534","city":"Buffalo Mills","state":"PA","lat":39.922,"long":-78.6996},{"zip":"15535","city":"Clearville","state":"PA","lat":39.8533,"long":-78.4392},{"zip":"15537","city":"Everett","state":"PA","lat":40.0098,"long":-78.3713},{"zip":"15539","city":"Fishertown","state":"PA","lat":40.1217,"long":-78.5856},{"zip":"15545","city":"Hyndman","state":"PA","lat":39.8049,"long":-78.7335},{"zip":"15550","city":"Manns Choice","state":"PA","lat":39.9808,"long":-78.6423},{"zip":"15554","city":"New Paris","state":"PA","lat":40.1254,"long":-78.6184},{"zip":"15559","city":"Schellsburg","state":"PA","lat":40.0487,"long":-78.6482},{"zip":"15536","city":"Crystal Spring","state":"PA","lat":39.92,"long":-78.2258},{"zip":"15501","city":"Somerset","state":"PA","lat":40.0248,"long":-79.0808},{"zip":"15502","city":"Hidden Valley","state":"PA","lat":40.046,"long":-79.2585},{"zip":"15510","city":"Somerset","state":"PA","lat":39.9633,"long":-79.0409},{"zip":"15520","city":"Acosta","state":"PA","lat":40.1104,"long":-79.0689},{"zip":"15530","city":"Berlin","state":"PA","lat":39.9188,"long":-78.9637},{"zip":"15531","city":"Boswell","state":"PA","lat":40.1918,"long":-79.0362},{"zip":"15532","city":"Boynton","state":"PA","lat":39.7673,"long":-79.062},{"zip":"15538","city":"Fairhope","state":"PA","lat":39.868,"long":-78.8362},{"zip":"15540","city":"Fort Hill","state":"PA","lat":39.7961,"long":-79.2472},{"zip":"15541","city":"Friedens","state":"PA","lat":40.011,"long":-78.9033},{"zip":"15542","city":"Garrett","state":"PA","lat":39.8646,"long":-79.0616},{"zip":"15544","city":"Gray","state":"PA","lat":40.1377,"long":-79.0926},{"zip":"15546","city":"Jenners","state":"PA","lat":40.1459,"long":-79.0676},{"zip":"15547","city":"Jennerstown","state":"PA","lat":40.1595,"long":-79.0616},{"zip":"15548","city":"Kantner","state":"PA","lat":40.1011,"long":-78.9387},{"zip":"15549","city":"Listie","state":"PA","lat":40.0208,"long":-79.0123},{"zip":"15551","city":"Markleton","state":"PA","lat":39.8691,"long":-79.2879},{"zip":"15552","city":"Meyersdale","state":"PA","lat":39.7905,"long":-79.0261},{"zip":"15553","city":"New Baltimore","state":"PA","lat":39.9828,"long":-78.7719},{"zip":"15555","city":"Quecreek","state":"PA","lat":40.0914,"long":-79.0872},{"zip":"15557","city":"Rockwood","state":"PA","lat":39.9373,"long":-79.1865},{"zip":"15558","city":"Salisbury","state":"PA","lat":39.7531,"long":-79.0835},{"zip":"15560","city":"Shanksville","state":"PA","lat":40.0171,"long":-78.9077},{"zip":"15561","city":"Sipesville","state":"PA","lat":40.0964,"long":-79.0902},{"zip":"15562","city":"Springs","state":"PA","lat":39.748,"long":-79.1237},{"zip":"15563","city":"Stoystown","state":"PA","lat":40.0948,"long":-78.9658},{"zip":"15564","city":"Wellersburg","state":"PA","lat":39.7299,"long":-78.8441},{"zip":"15565","city":"West Salisbury","state":"PA","lat":39.7542,"long":-79.095}]
