[{"zip":"15656","city":"Leechburg","state":"PA","lat":40.6344,"long":-79.6201},{"zip":"15673","city":"North Apollo","state":"PA","lat":40.593,"long":-79.5581},{"zip":"15682","city":"Schenley","state":"PA","lat":40.6845,"long":-79.6617},{"zip":"15686","city":"Spring Church","state":"PA","lat":40.6153,"long":-79.4545},{"zip":"15631","city":"Everson","state":"PA","lat":40.0911,"long":-79.5873},{"zip":"15681","city":"Saltsburg","state":"PA","lat":40.5429,"long":-79.3978},{"zip":"15601","city":"Greensburg","state":"PA","lat":40.3074,"long":-79.5424},{"zip":"15605","city":"Greensburg","state":"PA","lat":40.3602,"long":-79.4398},{"zip":"15606","city":"Greensburg","state":"PA","lat":40.3015,"long":-79.5389},{"zip":"15610","city":"Acme","state":"PA","lat":40.1201,"long":-79.4051},{"zip":"15611","city":"Adamsburg","state":"PA","lat":40.3126,"long":-79.6565},{"zip":"15612","city":"Alverton","state":"PA","lat":40.1373,"long":-79.5997},{"zip":"15613","city":"Apollo","state":"PA","lat":40.5565,"long":-79.5772},{"zip":"15615","city":"Ardara","state":"PA","lat":40.3578,"long":-79.735},{"zip":"15616","city":"Armbrust","state":"PA","lat":40.3602,"long":-79.4398},{"zip":"15617","city":"Arona","state":"PA","lat":40.268,"long":-79.6591},{"zip":"15618","city":"Avonmore","state":"PA","lat":40.5221,"long":-79.4853},{"zip":"15619","city":"Bovard","state":"PA","lat":40.3198,"long":-79.5034},{"zip":"15620","city":"Bradenville","state":"PA","lat":40.3238,"long":-79.3434},{"zip":"15621","city":"Calumet","state":"PA","lat":40.3602,"long":-79.4398},{"zip":"15622","city":"Champion","state":"PA","lat":40.044,"long":-79.3247},{"zip":"15623","city":"Claridge","state":"PA","lat":40.3692,"long":-79.619},{"zip":"15624","city":"Crabtree","state":"PA","lat":40.3623,"long":-79.4706},{"zip":"15625","city":"Darragh","state":"PA","lat":40.2665,"long":-79.6787},{"zip":"15626","city":"Delmont","state":"PA","lat":40.4139,"long":-79.5764},{"zip":"15627","city":"Derry","state":"PA","lat":40.3349,"long":-79.3326},{"zip":"15628","city":"Donegal","state":"PA","lat":40.0996,"long":-79.381},{"zip":"15629","city":"East Vandergrift","state":"PA","lat":40.598,"long":-79.5624},{"zip":"15632","city":"Export","state":"PA","lat":40.4252,"long":-79.611},{"zip":"15633","city":"Forbes Road","state":"PA","lat":40.354,"long":-79.5217},{"zip":"15634","city":"Grapeville","state":"PA","lat":40.3239,"long":-79.6049},{"zip":"15635","city":"Hannastown","state":"PA","lat":40.352,"long":-79.4979},{"zip":"15636","city":"Harrison City","state":"PA","lat":40.366,"long":-79.6565},{"zip":"15637","city":"Herminie","state":"PA","lat":40.2455,"long":-79.7172},{"zip":"15638","city":"Hostetter","state":"PA","lat":40.2662,"long":-79.3984},{"zip":"15639","city":"Hunker","state":"PA","lat":40.2149,"long":-79.5824},{"zip":"15640","city":"Hutchinson","state":"PA","lat":40.2251,"long":-79.7328},{"zip":"15641","city":"Hyde Park","state":"PA","lat":40.6311,"long":-79.5899},{"zip":"15642","city":"Irwin","state":"PA","lat":40.3191,"long":-79.7205},{"zip":"15644","city":"Jeannette","state":"PA","lat":40.3295,"long":-79.6144},{"zip":"15646","city":"Jones Mills","state":"PA","lat":40.0889,"long":-79.3427},{"zip":"15647","city":"Larimer","state":"PA","lat":40.3453,"long":-79.7264},{"zip":"15650","city":"Latrobe","state":"PA","lat":40.2926,"long":-79.4103},{"zip":"15655","city":"Laughlintown","state":"PA","lat":40.208,"long":-79.1806},{"zip":"15658","city":"Ligonier","state":"PA","lat":40.2431,"long":-79.2375},{"zip":"15660","city":"Lowber","state":"PA","lat":40.2459,"long":-79.7709},{"zip":"15661","city":"Loyalhanna","state":"PA","lat":40.3222,"long":-79.3601},{"zip":"15662","city":"Luxor","state":"PA","lat":40.3342,"long":-79.4781},{"zip":"15663","city":"Madison","state":"PA","lat":40.2467,"long":-79.676},{"zip":"15664","city":"Mammoth","state":"PA","lat":40.3108,"long":-79.6172},{"zip":"15665","city":"Manor","state":"PA","lat":40.334,"long":-79.67},{"zip":"15666","city":"Mount Pleasant","state":"PA","lat":40.1742,"long":-79.5134},{"zip":"15668","city":"Murrysville","state":"PA","lat":40.4467,"long":-79.6842},{"zip":"15670","city":"New Alexandria","state":"PA","lat":40.3987,"long":-79.422},{"zip":"15671","city":"New Derry","state":"PA","lat":40.3494,"long":-79.3225},{"zip":"15672","city":"New Stanton","state":"PA","lat":40.2192,"long":-79.6095},{"zip":"15674","city":"Norvelt","state":"PA","lat":40.216,"long":-79.4872},{"zip":"15675","city":"Penn","state":"PA","lat":40.3301,"long":-79.6413},{"zip":"15676","city":"Pleasant Unity","state":"PA","lat":40.2424,"long":-79.4542},{"zip":"15677","city":"Rector","state":"PA","lat":40.1864,"long":-79.2473},{"zip":"15678","city":"Rillton","state":"PA","lat":40.2872,"long":-79.7262},{"zip":"15679","city":"Ruffs Dale","state":"PA","lat":40.1585,"long":-79.6277},{"zip":"15680","city":"Salina","state":"PA","lat":40.5189,"long":-79.4959},{"zip":"15683","city":"Scottdale","state":"PA","lat":40.1029,"long":-79.593},{"zip":"15684","city":"Slickville","state":"PA","lat":40.4653,"long":-79.5067},{"zip":"15685","city":"Southwest","state":"PA","lat":40.3602,"long":-79.4398},{"zip":"15687","city":"Stahlstown","state":"PA","lat":40.1386,"long":-79.3445},{"zip":"15688","city":"Tarrs","state":"PA","lat":40.1686,"long":-79.5848},{"zip":"15689","city":"United","state":"PA","lat":40.2184,"long":-79.4878},{"zip":"15690","city":"Vandergrift","state":"PA","lat":40.6418,"long":-79.5399},{"zip":"15691","city":"Wendel","state":"PA","lat":40.294,"long":-79.6866},{"zip":"15692","city":"Westmoreland City","state":"PA","lat":40.3294,"long":-79.6806},{"zip":"15693","city":"Whitney","state":"PA","lat":40.2534,"long":-79.4103},{"zip":"15695","city":"Wyano","state":"PA","lat":40.1962,"long":-79.6942},{"zip":"15696","city":"Youngstown","state":"PA","lat":40.2793,"long":-79.3661},{"zip":"15697","city":"Youngwood","state":"PA","lat":40.2395,"long":-79.5823},{"zip":"15698","city":"Yukon","state":"PA","lat":40.2155,"long":-79.6849}]
