[{"zip":"15736","city":"Elderton","state":"PA","lat":40.6922,"long":-79.3422},{"zip":"15774","city":"Shelocta","state":"PA","lat":40.6388,"long":-79.3191},{"zip":"15714","city":"Northern Cambria","state":"PA","lat":40.6661,"long":-78.792},{"zip":"15722","city":"Carrolltown","state":"PA","lat":40.5891,"long":-78.7037},{"zip":"15737","city":"Elmora","state":"PA","lat":40.6076,"long":-78.7524},{"zip":"15738","city":"Emeigh","state":"PA","lat":40.6948,"long":-78.787},{"zip":"15760","city":"Marsteller","state":"PA","lat":40.6522,"long":-78.8054},{"zip":"15762","city":"Nicktown","state":"PA","lat":40.6016,"long":-78.8114},{"zip":"15773","city":"Saint Benedict","state":"PA","lat":40.6298,"long":-78.7329},{"zip":"15775","city":"Spangler","state":"PA","lat":40.6351,"long":-78.7692},{"zip":"15721","city":"Burnside","state":"PA","lat":40.8134,"long":-78.7865},{"zip":"15753","city":"La Jose","state":"PA","lat":40.7876,"long":-78.6514},{"zip":"15757","city":"Mahaffey","state":"PA","lat":40.8875,"long":-78.7353},{"zip":"15701","city":"Indiana","state":"PA","lat":40.6196,"long":-79.1596},{"zip":"15705","city":"Indiana","state":"PA","lat":40.6215,"long":-79.1525},{"zip":"15710","city":"Alverda","state":"PA","lat":40.6303,"long":-78.857},{"zip":"15712","city":"Arcadia","state":"PA","lat":40.7817,"long":-78.8536},{"zip":"15713","city":"Aultman","state":"PA","lat":40.5698,"long":-79.2617},{"zip":"15716","city":"Black Lick","state":"PA","lat":40.4725,"long":-79.1869},{"zip":"15717","city":"Blairsville","state":"PA","lat":40.4413,"long":-79.2533},{"zip":"15720","city":"Brush Valley","state":"PA","lat":40.5292,"long":-79.0846},{"zip":"15723","city":"Chambersville","state":"PA","lat":40.7056,"long":-79.1615},{"zip":"15724","city":"Cherry Tree","state":"PA","lat":40.7554,"long":-78.8474},{"zip":"15725","city":"Clarksburg","state":"PA","lat":40.5039,"long":-79.3677},{"zip":"15727","city":"Clune","state":"PA","lat":40.5503,"long":-79.3237},{"zip":"15728","city":"Clymer","state":"PA","lat":40.6688,"long":-79.0119},{"zip":"15729","city":"Commodore","state":"PA","lat":40.7016,"long":-78.9134},{"zip":"15731","city":"Coral","state":"PA","lat":40.4992,"long":-79.1739},{"zip":"15732","city":"Creekside","state":"PA","lat":40.7199,"long":-79.2014},{"zip":"15734","city":"Dixonville","state":"PA","lat":40.7165,"long":-79.007},{"zip":"15739","city":"Ernest","state":"PA","lat":40.678,"long":-79.1657},{"zip":"15741","city":"Gipsy","state":"PA","lat":40.8073,"long":-78.8764},{"zip":"15742","city":"Glen Campbell","state":"PA","lat":40.8508,"long":-78.8555},{"zip":"15745","city":"Heilwood","state":"PA","lat":40.6207,"long":-78.9186},{"zip":"15746","city":"Hillsdale","state":"PA","lat":40.7679,"long":-78.8773},{"zip":"15747","city":"Home","state":"PA","lat":40.7834,"long":-79.1641},{"zip":"15748","city":"Homer City","state":"PA","lat":40.5245,"long":-79.0843},{"zip":"15750","city":"Josephine","state":"PA","lat":40.4828,"long":-79.185},{"zip":"15752","city":"Kent","state":"PA","lat":40.5412,"long":-79.282},{"zip":"15754","city":"Lucernemines","state":"PA","lat":40.5567,"long":-79.1515},{"zip":"15756","city":"Mc Intyre","state":"PA","lat":40.5684,"long":-79.2999},{"zip":"15758","city":"Marchand","state":"PA","lat":40.8576,"long":-79.0228},{"zip":"15759","city":"Marion Center","state":"PA","lat":40.7814,"long":-79.0252},{"zip":"15761","city":"Mentcle","state":"PA","lat":40.6373,"long":-78.8823},{"zip":"15763","city":"Northpoint","state":"PA","lat":40.9037,"long":-79.1257},{"zip":"15765","city":"Penn Run","state":"PA","lat":40.6213,"long":-78.9943},{"zip":"15771","city":"Rochester Mills","state":"PA","lat":40.8308,"long":-78.9892},{"zip":"15772","city":"Rossiter","state":"PA","lat":40.8846,"long":-78.9414},{"zip":"15777","city":"Starford","state":"PA","lat":40.7027,"long":-78.9588},{"zip":"15783","city":"West Lebanon","state":"PA","lat":40.6026,"long":-79.3537},{"zip":"15711","city":"Anita","state":"PA","lat":41.0018,"long":-78.9666},{"zip":"15715","city":"Big Run","state":"PA","lat":40.9704,"long":-78.8758},{"zip":"15730","city":"Coolspring","state":"PA","lat":40.9671,"long":-78.9256},{"zip":"15733","city":"De Lancey","state":"PA","lat":41.1411,"long":-78.9629},{"zip":"15744","city":"Hamilton","state":"PA","lat":40.9233,"long":-79.0831},{"zip":"15764","city":"Oliveburg","state":"PA","lat":40.9926,"long":-79.0291},{"zip":"15767","city":"Punxsutawney","state":"PA","lat":40.9479,"long":-78.9681},{"zip":"15770","city":"Ringgold","state":"PA","lat":40.9997,"long":-79.1766},{"zip":"15776","city":"Sprankle Mills","state":"PA","lat":41.0133,"long":-79.114},{"zip":"15778","city":"Timblin","state":"PA","lat":40.9684,"long":-79.2014},{"zip":"15780","city":"Valier","state":"PA","lat":40.9159,"long":-79.0448},{"zip":"15781","city":"Walston","state":"PA","lat":40.9651,"long":-78.9948},{"zip":"15784","city":"Worthville","state":"PA","lat":41.0238,"long":-79.1387},{"zip":"15779","city":"Torrance","state":"PA","lat":40.3992,"long":-79.2177}]
