[{"zip":"15832","city":"Driftwood","state":"PA","lat":41.3764,"long":-78.1632},{"zip":"15834","city":"Emporium","state":"PA","lat":41.5177,"long":-78.2536},{"zip":"15861","city":"Sinnamahoning","state":"PA","lat":41.3762,"long":-78.0661},{"zip":"15801","city":"Du Bois","state":"PA","lat":41.126,"long":-78.7527},{"zip":"15848","city":"Luthersburg","state":"PA","lat":41.0532,"long":-78.7428},{"zip":"15849","city":"Penfield","state":"PA","lat":41.2085,"long":-78.5791},{"zip":"15856","city":"Rockton","state":"PA","lat":41.0806,"long":-78.6577},{"zip":"15866","city":"Troutville","state":"PA","lat":41.0256,"long":-78.7853},{"zip":"15821","city":"Benezett","state":"PA","lat":41.3253,"long":-78.3576},{"zip":"15822","city":"Brandy Camp","state":"PA","lat":41.3209,"long":-78.6875},{"zip":"15823","city":"Brockport","state":"PA","lat":41.2822,"long":-78.7128},{"zip":"15827","city":"Byrnedale","state":"PA","lat":41.2865,"long":-78.5051},{"zip":"15831","city":"Dagus Mines","state":"PA","lat":41.3539,"long":-78.6056},{"zip":"15841","city":"Force","state":"PA","lat":41.2629,"long":-78.5298},{"zip":"15845","city":"Johnsonburg","state":"PA","lat":41.4928,"long":-78.6783},{"zip":"15846","city":"Kersey","state":"PA","lat":41.3563,"long":-78.6015},{"zip":"15853","city":"Ridgway","state":"PA","lat":41.3621,"long":-78.7262},{"zip":"15857","city":"Saint Marys","state":"PA","lat":41.4289,"long":-78.5505},{"zip":"15868","city":"Weedville","state":"PA","lat":41.2685,"long":-78.4952},{"zip":"15870","city":"Wilcox","state":"PA","lat":41.5735,"long":-78.6823},{"zip":"15828","city":"Clarington","state":"PA","lat":41.3233,"long":-79.1466},{"zip":"15824","city":"Brockway","state":"PA","lat":41.2406,"long":-78.8116},{"zip":"15825","city":"Brookville","state":"PA","lat":41.1627,"long":-79.0816},{"zip":"15829","city":"Corsica","state":"PA","lat":41.1762,"long":-79.1976},{"zip":"15840","city":"Falls Creek","state":"PA","lat":41.1455,"long":-78.8128},{"zip":"15847","city":"Knox Dale","state":"PA","lat":41.0862,"long":-79.0264},{"zip":"15851","city":"Reynoldsville","state":"PA","lat":41.097,"long":-78.8886},{"zip":"15860","city":"Sigel","state":"PA","lat":41.3099,"long":-79.054},{"zip":"15863","city":"Stump Creek","state":"PA","lat":41.0126,"long":-78.8373},{"zip":"15864","city":"Summerville","state":"PA","lat":41.1058,"long":-79.1726},{"zip":"15865","city":"Sykesville","state":"PA","lat":41.0514,"long":-78.8195}]
