[{"zip":"15901","city":"Johnstown","state":"PA","lat":40.326,"long":-78.9141},{"zip":"15902","city":"Johnstown","state":"PA","lat":40.3078,"long":-78.8969},{"zip":"15904","city":"Johnstown","state":"PA","lat":40.285,"long":-78.8654},{"zip":"15905","city":"Johnstown","state":"PA","lat":40.3072,"long":-78.943},{"zip":"15906","city":"Johnstown","state":"PA","lat":40.3522,"long":-78.9383},{"zip":"15907","city":"Johnstown","state":"PA","lat":40.3254,"long":-78.9151},{"zip":"15909","city":"Johnstown","state":"PA","lat":40.4096,"long":-78.8712},{"zip":"15915","city":"Johnstown","state":"PA","lat":40.3267,"long":-78.922},{"zip":"15921","city":"Beaverdale","state":"PA","lat":40.3173,"long":-78.7009},{"zip":"15922","city":"Belsano","state":"PA","lat":40.5176,"long":-78.8767},{"zip":"15925","city":"Cassandra","state":"PA","lat":40.4085,"long":-78.6407},{"zip":"15927","city":"Colver","state":"PA","lat":40.5383,"long":-78.7865},{"zip":"15930","city":"Dunlo","state":"PA","lat":40.2939,"long":-78.7192},{"zip":"15931","city":"Ebensburg","state":"PA","lat":40.4801,"long":-78.7263},{"zip":"15934","city":"Elton","state":"PA","lat":40.2799,"long":-78.8032},{"zip":"15938","city":"Lilly","state":"PA","lat":40.4238,"long":-78.6231},{"zip":"15940","city":"Loretto","state":"PA","lat":40.5105,"long":-78.6294},{"zip":"15942","city":"Mineral Point","state":"PA","lat":40.3793,"long":-78.8352},{"zip":"15943","city":"Nanty Glo","state":"PA","lat":40.4704,"long":-78.8375},{"zip":"15945","city":"Parkhill","state":"PA","lat":40.3612,"long":-78.8709},{"zip":"15946","city":"Portage","state":"PA","lat":40.3724,"long":-78.6328},{"zip":"15948","city":"Revloc","state":"PA","lat":40.49,"long":-78.7646},{"zip":"15951","city":"Saint Michael","state":"PA","lat":40.337,"long":-78.7709},{"zip":"15952","city":"Salix","state":"PA","lat":40.2986,"long":-78.7816},{"zip":"15955","city":"Sidman","state":"PA","lat":40.3299,"long":-78.746},{"zip":"15956","city":"South Fork","state":"PA","lat":40.3629,"long":-78.7887},{"zip":"15958","city":"Summerhill","state":"PA","lat":40.389,"long":-78.756},{"zip":"15960","city":"Twin Rocks","state":"PA","lat":40.4967,"long":-78.8659},{"zip":"15961","city":"Vintondale","state":"PA","lat":40.4939,"long":-78.9427},{"zip":"15962","city":"Wilmore","state":"PA","lat":40.3887,"long":-78.7186},{"zip":"15920","city":"Armagh","state":"PA","lat":40.4603,"long":-79.0097},{"zip":"15929","city":"Dilltown","state":"PA","lat":40.4625,"long":-79.0128},{"zip":"15949","city":"Robinson","state":"PA","lat":40.4042,"long":-79.1395},{"zip":"15957","city":"Strongstown","state":"PA","lat":40.5727,"long":-78.9},{"zip":"15924","city":"Cairnbrook","state":"PA","lat":40.1149,"long":-78.7851},{"zip":"15926","city":"Central City","state":"PA","lat":40.0913,"long":-78.8448},{"zip":"15928","city":"Davidsville","state":"PA","lat":40.2245,"long":-78.9363},{"zip":"15935","city":"Hollsopple","state":"PA","lat":40.2343,"long":-78.9515},{"zip":"15936","city":"Hooversville","state":"PA","lat":40.1488,"long":-78.9141},{"zip":"15937","city":"Jerome","state":"PA","lat":40.2084,"long":-78.9873},{"zip":"15953","city":"Seanor","state":"PA","lat":40.212,"long":-78.8984},{"zip":"15959","city":"Tire Hill","state":"PA","lat":40.268,"long":-78.9156},{"zip":"15963","city":"Windber","state":"PA","lat":40.2287,"long":-78.8303},{"zip":"15923","city":"Bolivar","state":"PA","lat":40.3673,"long":-79.1605},{"zip":"15944","city":"New Florence","state":"PA","lat":40.3823,"long":-79.0968},{"zip":"15954","city":"Seward","state":"PA","lat":40.4099,"long":-79.0232}]
