[{"zip":"16049","city":"Parker","state":"PA","lat":41.1009,"long":-79.6889},{"zip":"16201","city":"Kittanning","state":"PA","lat":40.8155,"long":-79.5107},{"zip":"16210","city":"Adrian","state":"PA","lat":40.9049,"long":-79.5074},{"zip":"16212","city":"Cadogan","state":"PA","lat":40.7539,"long":-79.5798},{"zip":"16218","city":"Cowansville","state":"PA","lat":40.923,"long":-79.5946},{"zip":"16222","city":"Dayton","state":"PA","lat":40.8741,"long":-79.2686},{"zip":"16223","city":"Distant","state":"PA","lat":40.8478,"long":-79.4516},{"zip":"16226","city":"Ford City","state":"PA","lat":40.7384,"long":-79.5122},{"zip":"16228","city":"Ford Cliff","state":"PA","lat":40.7608,"long":-79.5358},{"zip":"16229","city":"Freeport","state":"PA","lat":40.7033,"long":-79.663},{"zip":"16236","city":"Mc Grann","state":"PA","lat":40.7818,"long":-79.5218},{"zip":"16238","city":"Manorville","state":"PA","lat":40.7863,"long":-79.5213},{"zip":"16244","city":"Nu Mine","state":"PA","lat":40.8478,"long":-79.4516},{"zip":"16245","city":"Oak Ridge","state":"PA","lat":41.0076,"long":-79.2959},{"zip":"16249","city":"Rural Valley","state":"PA","lat":40.7885,"long":-79.2991},{"zip":"16250","city":"Sagamore","state":"PA","lat":40.7774,"long":-79.2336},{"zip":"16253","city":"Seminole","state":"PA","lat":40.9548,"long":-79.3428},{"zip":"16259","city":"Templeton","state":"PA","lat":40.9419,"long":-79.4499},{"zip":"16261","city":"Widnoon","state":"PA","lat":40.9612,"long":-79.4673},{"zip":"16262","city":"Worthington","state":"PA","lat":40.8378,"long":-79.6298},{"zip":"16263","city":"Yatesboro","state":"PA","lat":40.8001,"long":-79.3342},{"zip":"16115","city":"Darlington","state":"PA","lat":40.7968,"long":-80.4556},{"zip":"16123","city":"Fombell","state":"PA","lat":40.8125,"long":-80.2073},{"zip":"16136","city":"Koppel","state":"PA","lat":40.8348,"long":-80.328},{"zip":"16141","city":"New Galilee","state":"PA","lat":40.8569,"long":-80.3939},{"zip":"16633","city":"Defiance","state":"PA","lat":40.1601,"long":-78.2346},{"zip":"16650","city":"Hopewell","state":"PA","lat":40.1192,"long":-78.3129},{"zip":"16655","city":"Imler","state":"PA","lat":40.2067,"long":-78.5228},{"zip":"16659","city":"Loysburg","state":"PA","lat":40.1609,"long":-78.375},{"zip":"16664","city":"New Enterprise","state":"PA","lat":40.2,"long":-78.4259},{"zip":"16667","city":"Osterburg","state":"PA","lat":40.1695,"long":-78.5203},{"zip":"16670","city":"Queen","state":"PA","lat":40.2592,"long":-78.5075},{"zip":"16672","city":"Riddlesburg","state":"PA","lat":40.162,"long":-78.2545},{"zip":"16678","city":"Saxton","state":"PA","lat":40.2233,"long":-78.2471},{"zip":"16679","city":"Six Mile Run","state":"PA","lat":40.1576,"long":-78.2108},{"zip":"16694","city":"Wood","state":"PA","lat":40.166,"long":-78.1381},{"zip":"16695","city":"Woodbury","state":"PA","lat":40.2185,"long":-78.3666},{"zip":"16601","city":"Altoona","state":"PA","lat":40.5209,"long":-78.4089},{"zip":"16602","city":"Altoona","state":"PA","lat":40.5052,"long":-78.3905},{"zip":"16603","city":"Altoona","state":"PA","lat":40.5018,"long":-78.41},{"zip":"16617","city":"Bellwood","state":"PA","lat":40.6039,"long":-78.3372},{"zip":"16625","city":"Claysburg","state":"PA","lat":40.2821,"long":-78.5083},{"zip":"16631","city":"Curryville","state":"PA","lat":40.2759,"long":-78.3383},{"zip":"16635","city":"Duncansville","state":"PA","lat":40.4262,"long":-78.4383},{"zip":"16637","city":"East Freedom","state":"PA","lat":40.3282,"long":-78.4475},{"zip":"16648","city":"Hollidaysburg","state":"PA","lat":40.4387,"long":-78.3686},{"zip":"16662","city":"Martinsburg","state":"PA","lat":40.2951,"long":-78.3244},{"zip":"16665","city":"Newry","state":"PA","lat":40.3937,"long":-78.4356},{"zip":"16673","city":"Roaring Spring","state":"PA","lat":40.3277,"long":-78.3928},{"zip":"16682","city":"Sproul","state":"PA","lat":40.2711,"long":-78.4588},{"zip":"16684","city":"Tipton","state":"PA","lat":40.6367,"long":-78.3036},{"zip":"16686","city":"Tyrone","state":"PA","lat":40.6619,"long":-78.2419},{"zip":"16693","city":"Williamsburg","state":"PA","lat":40.4025,"long":-78.2558},{"zip":"16910","city":"Alba","state":"PA","lat":41.7051,"long":-76.8283},{"zip":"16914","city":"Columbia Cross Roads","state":"PA","lat":41.8638,"long":-76.7825},{"zip":"16925","city":"Gillett","state":"PA","lat":41.9568,"long":-76.7713},{"zip":"16926","city":"Granville Summit","state":"PA","lat":41.6973,"long":-76.7218},{"zip":"16945","city":"Sylvania","state":"PA","lat":41.8051,"long":-76.8569},{"zip":"16947","city":"Troy","state":"PA","lat":41.7781,"long":-76.7711},{"zip":"16001","city":"Butler","state":"PA","lat":40.8859,"long":-79.934},{"zip":"16002","city":"Butler","state":"PA","lat":40.8409,"long":-79.8592},{"zip":"16003","city":"Butler","state":"PA","lat":40.8612,"long":-79.8953},{"zip":"16016","city":"Boyers","state":"PA","lat":41.1084,"long":-79.8989},{"zip":"16017","city":"Boyers","state":"PA","lat":40.9211,"long":-79.9276},{"zip":"16018","city":"Boyers","state":"PA","lat":40.9211,"long":-79.9276},{"zip":"16020","city":"Boyers","state":"PA","lat":41.1092,"long":-79.9047},{"zip":"16021","city":"Branchton","state":"PA","lat":41.0726,"long":-79.9856},{"zip":"16022","city":"Bruin","state":"PA","lat":41.0571,"long":-79.7291},{"zip":"16023","city":"Cabot","state":"PA","lat":40.7924,"long":-79.76},{"zip":"16024","city":"Callery","state":"PA","lat":40.7406,"long":-80.0364},{"zip":"16025","city":"Chicora","state":"PA","lat":40.9458,"long":-79.7462},{"zip":"16027","city":"Connoquenessing","state":"PA","lat":40.8178,"long":-80.0142},{"zip":"16029","city":"East Butler","state":"PA","lat":40.8778,"long":-79.8464},{"zip":"16030","city":"Eau Claire","state":"PA","lat":41.1348,"long":-79.7981},{"zip":"16033","city":"Evans City","state":"PA","lat":40.7808,"long":-80.0592},{"zip":"16034","city":"Fenelton","state":"PA","lat":40.8555,"long":-79.7372},{"zip":"16035","city":"Forestville","state":"PA","lat":41.1068,"long":-80.007},{"zip":"16037","city":"Harmony","state":"PA","lat":40.8496,"long":-80.1381},{"zip":"16038","city":"Harrisville","state":"PA","lat":41.1631,"long":-79.9796},{"zip":"16039","city":"Herman","state":"PA","lat":40.8301,"long":-79.8112},{"zip":"16040","city":"Hilliards","state":"PA","lat":41.1009,"long":-79.8215},{"zip":"16041","city":"Karns City","state":"PA","lat":41.0022,"long":-79.716},{"zip":"16045","city":"Lyndora","state":"PA","lat":40.8528,"long":-79.9167},{"zip":"16046","city":"Mars","state":"PA","lat":40.7005,"long":-80.0358},{"zip":"16048","city":"North Washington","state":"PA","lat":41.0472,"long":-79.8089},{"zip":"16050","city":"Petrolia","state":"PA","lat":41.0442,"long":-79.7711},{"zip":"16051","city":"Portersville","state":"PA","lat":40.9468,"long":-80.139},{"zip":"16052","city":"Prospect","state":"PA","lat":40.9049,"long":-80.0679},{"zip":"16053","city":"Renfrew","state":"PA","lat":40.81,"long":-79.977},{"zip":"16055","city":"Sarver","state":"PA","lat":40.7143,"long":-79.7424},{"zip":"16056","city":"Saxonburg","state":"PA","lat":40.7361,"long":-79.8352},{"zip":"16057","city":"Slippery Rock","state":"PA","lat":41.0454,"long":-80.0468},{"zip":"16059","city":"Valencia","state":"PA","lat":40.7018,"long":-79.9235},{"zip":"16061","city":"West Sunbury","state":"PA","lat":41.0026,"long":-79.8751},{"zip":"16063","city":"Zelienople","state":"PA","lat":40.7609,"long":-80.1094},{"zip":"16066","city":"Cranberry Township","state":"PA","lat":40.685,"long":-80.1071},{"zip":"16613","city":"Ashville","state":"PA","lat":40.5513,"long":-78.5346},{"zip":"16619","city":"Blandburg","state":"PA","lat":40.6847,"long":-78.4137},{"zip":"16624","city":"Chest Springs","state":"PA","lat":40.5702,"long":-78.5991},{"zip":"16629","city":"Coupon","state":"PA","lat":40.5218,"long":-78.5263},{"zip":"16630","city":"Cresson","state":"PA","lat":40.4608,"long":-78.5861},{"zip":"16636","city":"Dysart","state":"PA","lat":40.6088,"long":-78.5271},{"zip":"16639","city":"Fallentimber","state":"PA","lat":40.6867,"long":-78.4992},{"zip":"16640","city":"Flinton","state":"PA","lat":40.6876,"long":-78.5523},{"zip":"16641","city":"Gallitzin","state":"PA","lat":40.4823,"long":-78.5517},{"zip":"16644","city":"Glasgow","state":"PA","lat":40.7178,"long":-78.4637},{"zip":"16646","city":"Hastings","state":"PA","lat":40.6659,"long":-78.7029},{"zip":"16668","city":"Patton","state":"PA","lat":40.623,"long":-78.635},{"zip":"16675","city":"Saint Boniface","state":"PA","lat":40.6712,"long":-78.6755},{"zip":"16699","city":"Cresson","state":"PA","lat":40.4845,"long":-78.7022},{"zip":"16677","city":"Sandy Ridge","state":"PA","lat":40.8136,"long":-78.239},{"zip":"16801","city":"State College","state":"PA","lat":40.7925,"long":-77.8523},{"zip":"16802","city":"University Park","state":"PA","lat":40.7997,"long":-77.8623},{"zip":"16803","city":"State College","state":"PA","lat":40.8082,"long":-77.8926},{"zip":"16804","city":"State College","state":"PA","lat":40.7934,"long":-77.86},{"zip":"16805","city":"State College","state":"PA","lat":40.7934,"long":-77.86},{"zip":"16820","city":"Aaronsburg","state":"PA","lat":40.8987,"long":-77.4562},{"zip":"16823","city":"Bellefonte","state":"PA","lat":40.8978,"long":-77.7732},{"zip":"16826","city":"Blanchard","state":"PA","lat":41.0642,"long":-77.5978},{"zip":"16827","city":"Boalsburg","state":"PA","lat":40.7793,"long":-77.7822},{"zip":"16828","city":"Centre Hall","state":"PA","lat":40.8254,"long":-77.6742},{"zip":"16829","city":"Clarence","state":"PA","lat":41.0585,"long":-77.9312},{"zip":"16832","city":"Coburn","state":"PA","lat":40.8383,"long":-77.4509},{"zip":"16835","city":"Fleming","state":"PA","lat":40.9046,"long":-77.8752},{"zip":"16841","city":"Howard","state":"PA","lat":41.0203,"long":-77.6702},{"zip":"16844","city":"Julian","state":"PA","lat":40.8917,"long":-77.9332},{"zip":"16851","city":"Lemont","state":"PA","lat":40.8082,"long":-77.8125},{"zip":"16852","city":"Madisonburg","state":"PA","lat":40.9334,"long":-77.495},{"zip":"16853","city":"Milesburg","state":"PA","lat":40.9417,"long":-77.785},{"zip":"16854","city":"Millheim","state":"PA","lat":40.8935,"long":-77.4733},{"zip":"16856","city":"Mingoville","state":"PA","lat":40.9299,"long":-77.6389},{"zip":"16859","city":"Moshannon","state":"PA","lat":41.0342,"long":-78.0095},{"zip":"16864","city":"Orviston","state":"PA","lat":40.9722,"long":-77.7602},{"zip":"16865","city":"Pennsylvania Furnace","state":"PA","lat":40.71,"long":-77.996},{"zip":"16866","city":"Philipsburg","state":"PA","lat":40.8863,"long":-78.219},{"zip":"16868","city":"Pine Grove Mills","state":"PA","lat":40.7337,"long":-77.8856},{"zip":"16870","city":"Port Matilda","state":"PA","lat":40.8018,"long":-78.0788},{"zip":"16872","city":"Rebersburg","state":"PA","lat":40.9549,"long":-77.4053},{"zip":"16874","city":"Snow Shoe","state":"PA","lat":41.0376,"long":-77.9523},{"zip":"16875","city":"Spring Mills","state":"PA","lat":40.8578,"long":-77.574},{"zip":"16882","city":"Woodward","state":"PA","lat":40.9116,"long":-77.3483},{"zip":"16028","city":"East Brady","state":"PA","lat":40.9744,"long":-79.6302},{"zip":"16036","city":"Foxburg","state":"PA","lat":41.1431,"long":-79.6798},{"zip":"16054","city":"Saint Petersburg","state":"PA","lat":41.1617,"long":-79.6528},{"zip":"16058","city":"Turkey City","state":"PA","lat":41.1853,"long":-79.6134},{"zip":"16213","city":"Callensburg","state":"PA","lat":41.1259,"long":-79.5584},{"zip":"16214","city":"Clarion","state":"PA","lat":41.2123,"long":-79.3773},{"zip":"16220","city":"Crown","state":"PA","lat":41.3898,"long":-79.2709},{"zip":"16221","city":"Curllsville","state":"PA","lat":41.2023,"long":-79.4538},{"zip":"16224","city":"Fairmount City","state":"PA","lat":41.0429,"long":-79.2784},{"zip":"16225","city":"Fisher","state":"PA","lat":41.2665,"long":-79.2425},{"zip":"16230","city":"Hawthorn","state":"PA","lat":41.0178,"long":-79.2799},{"zip":"16232","city":"Knox","state":"PA","lat":41.2245,"long":-79.5194},{"zip":"16233","city":"Leeper","state":"PA","lat":41.3671,"long":-79.3022},{"zip":"16234","city":"Limestone","state":"PA","lat":41.2023,"long":-79.4538},{"zip":"16235","city":"Lucinda","state":"PA","lat":41.3124,"long":-79.3754},{"zip":"16240","city":"Mayport","state":"PA","lat":40.9906,"long":-79.2617},{"zip":"16242","city":"New Bethlehem","state":"PA","lat":40.9999,"long":-79.3527},{"zip":"16248","city":"Rimersburg","state":"PA","lat":41.0411,"long":-79.5017},{"zip":"16254","city":"Shippenville","state":"PA","lat":41.2475,"long":-79.4332},{"zip":"16255","city":"Sligo","state":"PA","lat":41.1139,"long":-79.4805},{"zip":"16257","city":"Snydersburg","state":"PA","lat":41.3328,"long":-79.3556},{"zip":"16258","city":"Strattanville","state":"PA","lat":41.1955,"long":-79.3082},{"zip":"16260","city":"Vowinckel","state":"PA","lat":41.3957,"long":-79.2266},{"zip":"16326","city":"Fryburg","state":"PA","lat":41.3717,"long":-79.4134},{"zip":"16331","city":"Kossuth","state":"PA","lat":41.2926,"long":-79.5655},{"zip":"16332","city":"Lickingville","state":"PA","lat":41.3789,"long":-79.3715},{"zip":"16334","city":"Marble","state":"PA","lat":41.3261,"long":-79.4459},{"zip":"16361","city":"Tylersburg","state":"PA","lat":41.2023,"long":-79.4538},{"zip":"16375","city":"Lamartine","state":"PA","lat":41.2226,"long":-79.6339},{"zip":"16616","city":"Beccaria","state":"PA","lat":40.7683,"long":-78.4455},{"zip":"16620","city":"Brisbin","state":"PA","lat":40.8387,"long":-78.3526},{"zip":"16627","city":"Coalport","state":"PA","lat":40.7503,"long":-78.5352},{"zip":"16645","city":"Glen Hope","state":"PA","lat":40.7984,"long":-78.4999},{"zip":"16651","city":"Houtzdale","state":"PA","lat":40.8305,"long":-78.3618},{"zip":"16656","city":"Irvona","state":"PA","lat":40.8017,"long":-78.5602},{"zip":"16661","city":"Madera","state":"PA","lat":40.8271,"long":-78.4275},{"zip":"16663","city":"Morann","state":"PA","lat":40.7864,"long":-78.367},{"zip":"16666","city":"Osceola Mills","state":"PA","lat":40.8722,"long":-78.2757},{"zip":"16671","city":"Ramey","state":"PA","lat":40.8015,"long":-78.3998},{"zip":"16680","city":"Smithmill","state":"PA","lat":40.7507,"long":-78.4012},{"zip":"16681","city":"Smokerun","state":"PA","lat":40.9891,"long":-78.4224},{"zip":"16692","city":"Westover","state":"PA","lat":40.7615,"long":-78.7355},{"zip":"16698","city":"Houtzdale","state":"PA","lat":40.8251,"long":-78.3511},{"zip":"16821","city":"Allport","state":"PA","lat":40.967,"long":-78.2014},{"zip":"16825","city":"Bigler","state":"PA","lat":40.9848,"long":-78.3064},{"zip":"16830","city":"Clearfield","state":"PA","lat":41.021,"long":-78.4435},{"zip":"16833","city":"Curwensville","state":"PA","lat":40.966,"long":-78.5272},{"zip":"16834","city":"Drifting","state":"PA","lat":41.0242,"long":-78.1083},{"zip":"16836","city":"Frenchville","state":"PA","lat":41.1038,"long":-78.2345},{"zip":"16837","city":"Glen Richey","state":"PA","lat":40.9458,"long":-78.475},{"zip":"16838","city":"Grampian","state":"PA","lat":40.9818,"long":-78.5949},{"zip":"16839","city":"Grassflat","state":"PA","lat":41.0036,"long":-78.1104},{"zip":"16840","city":"Hawk Run","state":"PA","lat":40.923,"long":-78.2037},{"zip":"16843","city":"Hyde","state":"PA","lat":41.003,"long":-78.4642},{"zip":"16845","city":"Karthaus","state":"PA","lat":41.1136,"long":-78.0875},{"zip":"16847","city":"Kylertown","state":"PA","lat":40.9934,"long":-78.1672},{"zip":"16849","city":"Lanse","state":"PA","lat":40.9605,"long":-78.1144},{"zip":"16850","city":"Lecontes Mills","state":"PA","lat":41.0831,"long":-78.2833},{"zip":"16855","city":"Mineral Springs","state":"PA","lat":40.9891,"long":-78.4224},{"zip":"16858","city":"Morrisdale","state":"PA","lat":41.0001,"long":-78.2357},{"zip":"16860","city":"Munson","state":"PA","lat":40.9468,"long":-78.1718},{"zip":"16861","city":"New Millport","state":"PA","lat":40.8652,"long":-78.5237},{"zip":"16863","city":"Olanta","state":"PA","lat":40.9056,"long":-78.5001},{"zip":"16871","city":"Pottersdale","state":"PA","lat":41.1868,"long":-78.0341},{"zip":"16873","city":"Shawville","state":"PA","lat":41.0692,"long":-78.3581},{"zip":"16876","city":"Wallaceton","state":"PA","lat":40.9616,"long":-78.2926},{"zip":"16878","city":"West Decatur","state":"PA","lat":40.9493,"long":-78.3129},{"zip":"16879","city":"Winburne","state":"PA","lat":40.9696,"long":-78.1508},{"zip":"16881","city":"Woodland","state":"PA","lat":41.0098,"long":-78.3214},{"zip":"16822","city":"Beech Creek","state":"PA","lat":41.0845,"long":-77.5851},{"zip":"16848","city":"Lamar","state":"PA","lat":41.0162,"long":-77.5311},{"zip":"16110","city":"Adamsville","state":"PA","lat":41.5067,"long":-80.3765},{"zip":"16111","city":"Atlantic","state":"PA","lat":41.5333,"long":-80.2863},{"zip":"16131","city":"Hartstown","state":"PA","lat":41.5509,"long":-80.3813},{"zip":"16314","city":"Cochranton","state":"PA","lat":41.5205,"long":-80.0573},{"zip":"16316","city":"Conneaut Lake","state":"PA","lat":41.6189,"long":-80.3086},{"zip":"16327","city":"Guys Mills","state":"PA","lat":41.6333,"long":-79.9714},{"zip":"16328","city":"Hydetown","state":"PA","lat":41.6526,"long":-79.727},{"zip":"16335","city":"Meadville","state":"PA","lat":41.6338,"long":-80.1488},{"zip":"16354","city":"Titusville","state":"PA","lat":41.6382,"long":-79.6855},{"zip":"16360","city":"Townville","state":"PA","lat":41.6856,"long":-79.8767},{"zip":"16388","city":"Meadville","state":"PA","lat":41.6596,"long":-80.1576},{"zip":"16403","city":"Cambridge Springs","state":"PA","lat":41.8034,"long":-80.0594},{"zip":"16404","city":"Centerville","state":"PA","lat":41.7243,"long":-79.79},{"zip":"16406","city":"Conneautville","state":"PA","lat":41.7455,"long":-80.3445},{"zip":"16422","city":"Harmonsburg","state":"PA","lat":41.6609,"long":-80.3178},{"zip":"16424","city":"Linesville","state":"PA","lat":41.6244,"long":-80.4523},{"zip":"16432","city":"Riceville","state":"PA","lat":41.7776,"long":-79.8028},{"zip":"16433","city":"Saegertown","state":"PA","lat":41.7268,"long":-80.1479},{"zip":"16434","city":"Spartansburg","state":"PA","lat":41.7936,"long":-79.6849},{"zip":"16435","city":"Springboro","state":"PA","lat":41.8113,"long":-80.3753},{"zip":"16440","city":"Venango","state":"PA","lat":41.764,"long":-80.0982},{"zip":"16728","city":"De Young","state":"PA","lat":41.4159,"long":-78.6651},{"zip":"16734","city":"James City","state":"PA","lat":41.6192,"long":-78.8394},{"zip":"16401","city":"Albion","state":"PA","lat":41.8947,"long":-80.3111},{"zip":"16407","city":"Corry","state":"PA","lat":41.9226,"long":-79.6567},{"zip":"16410","city":"Cranesville","state":"PA","lat":41.9162,"long":-80.3085},{"zip":"16411","city":"East Springfield","state":"PA","lat":41.9794,"long":-80.4303},{"zip":"16412","city":"Edinboro","state":"PA","lat":41.8756,"long":-80.1356},{"zip":"16413","city":"Elgin","state":"PA","lat":41.9031,"long":-79.7437},{"zip":"16415","city":"Fairview","state":"PA","lat":42.0407,"long":-80.2395},{"zip":"16417","city":"Girard","state":"PA","lat":41.9896,"long":-80.3178},{"zip":"16421","city":"Harborcreek","state":"PA","lat":42.1767,"long":-79.9416},{"zip":"16423","city":"Lake City","state":"PA","lat":42.0204,"long":-80.3388},{"zip":"16426","city":"Mc Kean","state":"PA","lat":41.999,"long":-80.1473},{"zip":"16427","city":"Mill Village","state":"PA","lat":41.8773,"long":-79.9692},{"zip":"16428","city":"North East","state":"PA","lat":42.2008,"long":-79.8332},{"zip":"16430","city":"North Springfield","state":"PA","lat":41.9999,"long":-80.4258},{"zip":"16438","city":"Union City","state":"PA","lat":41.8939,"long":-79.8455},{"zip":"16441","city":"Waterford","state":"PA","lat":41.9603,"long":-79.9996},{"zip":"16442","city":"Wattsburg","state":"PA","lat":42.0391,"long":-79.8363},{"zip":"16443","city":"West Springfield","state":"PA","lat":41.9465,"long":-80.465},{"zip":"16444","city":"Edinboro","state":"PA","lat":41.8707,"long":-80.1218},{"zip":"16475","city":"Albion","state":"PA","lat":41.8906,"long":-80.3665},{"zip":"16501","city":"Erie","state":"PA","lat":42.126,"long":-80.086},{"zip":"16502","city":"Erie","state":"PA","lat":42.1133,"long":-80.0976},{"zip":"16503","city":"Erie","state":"PA","lat":42.1265,"long":-80.064},{"zip":"16504","city":"Erie","state":"PA","lat":42.1108,"long":-80.0521},{"zip":"16505","city":"Erie","state":"PA","lat":42.1109,"long":-80.1534},{"zip":"16506","city":"Erie","state":"PA","lat":42.0738,"long":-80.1484},{"zip":"16507","city":"Erie","state":"PA","lat":42.1316,"long":-80.0864},{"zip":"16508","city":"Erie","state":"PA","lat":42.0976,"long":-80.0935},{"zip":"16509","city":"Erie","state":"PA","lat":42.0763,"long":-80.0668},{"zip":"16510","city":"Erie","state":"PA","lat":42.1087,"long":-79.9535},{"zip":"16511","city":"Erie","state":"PA","lat":42.1553,"long":-80.0177},{"zip":"16512","city":"Erie","state":"PA","lat":42.1292,"long":-80.0851},{"zip":"16514","city":"Erie","state":"PA","lat":42.1827,"long":-80.0649},{"zip":"16515","city":"Erie","state":"PA","lat":42.1827,"long":-80.0649},{"zip":"16522","city":"Erie","state":"PA","lat":42.1292,"long":-80.0851},{"zip":"16530","city":"Erie","state":"PA","lat":42.1292,"long":-80.0851},{"zip":"16531","city":"Erie","state":"PA","lat":42.1827,"long":-80.0649},{"zip":"16534","city":"Erie","state":"PA","lat":42.1292,"long":-80.0851},{"zip":"16538","city":"Erie","state":"PA","lat":42.1292,"long":-80.0851},{"zip":"16541","city":"Erie","state":"PA","lat":42.1292,"long":-80.0851},{"zip":"16544","city":"Erie","state":"PA","lat":42.1827,"long":-80.0649},{"zip":"16546","city":"Erie","state":"PA","lat":42.1827,"long":-80.0649},{"zip":"16550","city":"Erie","state":"PA","lat":42.1292,"long":-80.0851},{"zip":"16553","city":"Erie","state":"PA","lat":42.1292,"long":-80.0851},{"zip":"16563","city":"Erie","state":"PA","lat":42.1192,"long":-79.9865},{"zip":"16565","city":"Erie","state":"PA","lat":42.1827,"long":-80.0649},{"zip":"16217","city":"Cooksburg","state":"PA","lat":41.3384,"long":-79.1971},{"zip":"16239","city":"Marienville","state":"PA","lat":41.4622,"long":-79.1306},{"zip":"16321","city":"East Hickory","state":"PA","lat":41.584,"long":-79.4017},{"zip":"16322","city":"Endeavor","state":"PA","lat":41.5895,"long":-79.385},{"zip":"16353","city":"Tionesta","state":"PA","lat":41.5116,"long":-79.3663},{"zip":"16370","city":"West Hickory","state":"PA","lat":41.5687,"long":-79.4081},{"zip":"16689","city":"Waterfall","state":"PA","lat":40.1276,"long":-78.0628},{"zip":"16691","city":"Wells Tannery","state":"PA","lat":40.101,"long":-78.1403},{"zip":"16611","city":"Alexandria","state":"PA","lat":40.5485,"long":-78.0951},{"zip":"16621","city":"Broad Top","state":"PA","lat":40.2019,"long":-78.1406},{"zip":"16622","city":"Calvin","state":"PA","lat":40.4025,"long":-77.967},{"zip":"16623","city":"Cassville","state":"PA","lat":40.294,"long":-78.0272},{"zip":"16634","city":"Dudley","state":"PA","lat":40.2054,"long":-78.1814},{"zip":"16638","city":"Entriken","state":"PA","lat":40.4025,"long":-77.967},{"zip":"16647","city":"Hesston","state":"PA","lat":40.4121,"long":-78.1281},{"zip":"16652","city":"Huntingdon","state":"PA","lat":40.5023,"long":-78.005},{"zip":"16654","city":"Huntingdon","state":"PA","lat":40.4848,"long":-78.0103},{"zip":"16657","city":"James Creek","state":"PA","lat":40.3567,"long":-78.1887},{"zip":"16660","city":"Mc Connellstown","state":"PA","lat":40.4025,"long":-77.967},{"zip":"16669","city":"Petersburg","state":"PA","lat":40.603,"long":-77.9984},{"zip":"16674","city":"Robertsdale","state":"PA","lat":40.1787,"long":-78.1117},{"zip":"16683","city":"Spruce Creek","state":"PA","lat":40.6218,"long":-78.1361},{"zip":"16685","city":"Todd","state":"PA","lat":40.271,"long":-78.0772},{"zip":"16877","city":"Warriors Mark","state":"PA","lat":40.7414,"long":-78.0775},{"zip":"16211","city":"Beyer","state":"PA","lat":40.7865,"long":-79.2011},{"zip":"16246","city":"Plumville","state":"PA","lat":40.7931,"long":-79.1806},{"zip":"16256","city":"Smicksburg","state":"PA","lat":40.8372,"long":-79.1614},{"zip":"16101","city":"New Castle","state":"PA","lat":40.9922,"long":-80.3284},{"zip":"16102","city":"New Castle","state":"PA","lat":40.9677,"long":-80.3907},{"zip":"16103","city":"New Castle","state":"PA","lat":40.9897,"long":-80.3084},{"zip":"16105","city":"New Castle","state":"PA","lat":41.0241,"long":-80.3454},{"zip":"16107","city":"New Castle","state":"PA","lat":40.9897,"long":-80.3084},{"zip":"16108","city":"New Castle","state":"PA","lat":40.9897,"long":-80.3084},{"zip":"16112","city":"Bessemer","state":"PA","lat":40.9755,"long":-80.4937},{"zip":"16116","city":"Edinburg","state":"PA","lat":41.0276,"long":-80.4632},{"zip":"16117","city":"Ellwood City","state":"PA","lat":40.8729,"long":-80.2559},{"zip":"16120","city":"Enon Valley","state":"PA","lat":40.8721,"long":-80.4612},{"zip":"16132","city":"Hillsville","state":"PA","lat":41.0113,"long":-80.4975},{"zip":"16140","city":"New Bedford","state":"PA","lat":40.9897,"long":-80.3084},{"zip":"16142","city":"New Wilmington","state":"PA","lat":41.1382,"long":-80.3245},{"zip":"16143","city":"Pulaski","state":"PA","lat":41.0942,"long":-80.4685},{"zip":"16155","city":"Villa Maria","state":"PA","lat":41.0737,"long":-80.5073},{"zip":"16156","city":"Volant","state":"PA","lat":41.0938,"long":-80.2441},{"zip":"16157","city":"Wampum","state":"PA","lat":40.8819,"long":-80.3392},{"zip":"16160","city":"West Pittsburg","state":"PA","lat":40.9301,"long":-80.3611},{"zip":"16172","city":"New Wilmington","state":"PA","lat":41.12,"long":-80.3332},{"zip":"16333","city":"Ludlow","state":"PA","lat":41.7284,"long":-78.9434},{"zip":"16701","city":"Bradford","state":"PA","lat":41.9547,"long":-78.654},{"zip":"16724","city":"Crosby","state":"PA","lat":41.7451,"long":-78.3903},{"zip":"16725","city":"Custer City","state":"PA","lat":41.9059,"long":-78.6517},{"zip":"16726","city":"Cyclone","state":"PA","lat":41.8186,"long":-78.5957},{"zip":"16727","city":"Derrick City","state":"PA","lat":41.9726,"long":-78.5626},{"zip":"16729","city":"Duke Center","state":"PA","lat":41.954,"long":-78.4923},{"zip":"16730","city":"East Smethport","state":"PA","lat":41.8087,"long":-78.4195},{"zip":"16731","city":"Eldred","state":"PA","lat":41.9489,"long":-78.3884},{"zip":"16732","city":"Gifford","state":"PA","lat":41.8581,"long":-78.5964},{"zip":"16733","city":"Hazel Hurst","state":"PA","lat":41.7059,"long":-78.5825},{"zip":"16735","city":"Kane","state":"PA","lat":41.6619,"long":-78.7978},{"zip":"16738","city":"Lewis Run","state":"PA","lat":41.8211,"long":-78.6805},{"zip":"16740","city":"Mount Jewett","state":"PA","lat":41.7247,"long":-78.6446},{"zip":"16743","city":"Port Allegany","state":"PA","lat":41.8169,"long":-78.2799},{"zip":"16744","city":"Rew","state":"PA","lat":41.8783,"long":-78.5572},{"zip":"16745","city":"Rixford","state":"PA","lat":41.9262,"long":-78.4942},{"zip":"16749","city":"Smethport","state":"PA","lat":41.8021,"long":-78.4702},{"zip":"16750","city":"Turtlepoint","state":"PA","lat":41.8847,"long":-78.3308},{"zip":"16113","city":"Clark","state":"PA","lat":41.2866,"long":-80.4237},{"zip":"16114","city":"Clarks Mills","state":"PA","lat":41.3931,"long":-80.1837},{"zip":"16121","city":"Farrell","state":"PA","lat":41.211,"long":-80.4944},{"zip":"16124","city":"Fredonia","state":"PA","lat":41.3241,"long":-80.2699},{"zip":"16125","city":"Greenville","state":"PA","lat":41.4057,"long":-80.3739},{"zip":"16127","city":"Grove City","state":"PA","lat":41.1607,"long":-80.0841},{"zip":"16130","city":"Hadley","state":"PA","lat":41.4432,"long":-80.2153},{"zip":"16133","city":"Jackson Center","state":"PA","lat":41.2801,"long":-80.1037},{"zip":"16134","city":"Jamestown","state":"PA","lat":41.4566,"long":-80.4492},{"zip":"16137","city":"Mercer","state":"PA","lat":41.2325,"long":-80.234},{"zip":"16145","city":"Sandy Lake","state":"PA","lat":41.3383,"long":-80.0497},{"zip":"16146","city":"Sharon","state":"PA","lat":41.2316,"long":-80.4993},{"zip":"16148","city":"Hermitage","state":"PA","lat":41.2326,"long":-80.453},{"zip":"16150","city":"Sharpsville","state":"PA","lat":41.2676,"long":-80.4656},{"zip":"16151","city":"Sheakleyville","state":"PA","lat":41.4435,"long":-80.2055},{"zip":"16153","city":"Stoneboro","state":"PA","lat":41.3439,"long":-80.0976},{"zip":"16154","city":"Transfer","state":"PA","lat":41.3244,"long":-80.4197},{"zip":"16159","city":"West Middlesex","state":"PA","lat":41.1741,"long":-80.4528},{"zip":"16161","city":"Wheatland","state":"PA","lat":41.2009,"long":-80.4978},{"zip":"16311","city":"Carlton","state":"PA","lat":41.4815,"long":-80.0203},{"zip":"16720","city":"Austin","state":"PA","lat":41.6296,"long":-78.0908},{"zip":"16746","city":"Roulette","state":"PA","lat":41.7738,"long":-78.1538},{"zip":"16748","city":"Shinglehouse","state":"PA","lat":41.9572,"long":-78.1906},{"zip":"16915","city":"Coudersport","state":"PA","lat":41.7762,"long":-77.9567},{"zip":"16922","city":"Galeton","state":"PA","lat":41.723,"long":-77.6548},{"zip":"16923","city":"Genesee","state":"PA","lat":41.9401,"long":-77.8725},{"zip":"16927","city":"Harrison Valley","state":"PA","lat":41.9587,"long":-77.6587},{"zip":"16937","city":"Mills","state":"PA","lat":41.9656,"long":-77.7111},{"zip":"16941","city":"Genesee","state":"PA","lat":41.9883,"long":-77.758},{"zip":"16948","city":"Ulysses","state":"PA","lat":41.8459,"long":-77.7126},{"zip":"16901","city":"Wellsboro","state":"PA","lat":41.7373,"long":-77.308},{"zip":"16911","city":"Arnot","state":"PA","lat":41.6626,"long":-77.123},{"zip":"16912","city":"Blossburg","state":"PA","lat":41.6698,"long":-77.0797},{"zip":"16917","city":"Covington","state":"PA","lat":41.7448,"long":-77.0772},{"zip":"16920","city":"Elkland","state":"PA","lat":41.9882,"long":-77.3134},{"zip":"16921","city":"Gaines","state":"PA","lat":41.7471,"long":-77.568},{"zip":"16928","city":"Knoxville","state":"PA","lat":41.9596,"long":-77.4357},{"zip":"16929","city":"Lawrenceville","state":"PA","lat":41.9783,"long":-77.1136},{"zip":"16930","city":"Liberty","state":"PA","lat":41.5656,"long":-77.1195},{"zip":"16932","city":"Mainesburg","state":"PA","lat":41.784,"long":-76.9983},{"zip":"16933","city":"Mansfield","state":"PA","lat":41.8123,"long":-77.0716},{"zip":"16935","city":"Middlebury Center","state":"PA","lat":41.8664,"long":-77.3128},{"zip":"16936","city":"Millerton","state":"PA","lat":41.9625,"long":-76.9748},{"zip":"16938","city":"Morris","state":"PA","lat":41.5475,"long":-77.292},{"zip":"16939","city":"Morris Run","state":"PA","lat":41.6775,"long":-77.0152},{"zip":"16940","city":"Nelson","state":"PA","lat":41.9787,"long":-77.2419},{"zip":"16942","city":"Osceola","state":"PA","lat":41.9848,"long":-77.354},{"zip":"16943","city":"Sabinsville","state":"PA","lat":41.8408,"long":-77.6155},{"zip":"16946","city":"Tioga","state":"PA","lat":41.9125,"long":-77.1393},{"zip":"16950","city":"Westfield","state":"PA","lat":41.9193,"long":-77.523},{"zip":"16301","city":"Oil City","state":"PA","lat":41.4319,"long":-79.6916},{"zip":"16317","city":"Cooperstown","state":"PA","lat":41.498,"long":-79.8757},{"zip":"16319","city":"Cranberry","state":"PA","lat":41.3197,"long":-79.6317},{"zip":"16323","city":"Franklin","state":"PA","lat":41.4048,"long":-79.8309},{"zip":"16341","city":"Pleasantville","state":"PA","lat":41.5867,"long":-79.5685},{"zip":"16342","city":"Polk","state":"PA","lat":41.3583,"long":-79.9346},{"zip":"16343","city":"Reno","state":"PA","lat":41.411,"long":-79.7493},{"zip":"16344","city":"Rouseville","state":"PA","lat":41.4717,"long":-79.6881},{"zip":"16346","city":"Seneca","state":"PA","lat":41.3744,"long":-79.6759},{"zip":"16362","city":"Utica","state":"PA","lat":41.4798,"long":-79.9403},{"zip":"16364","city":"Venus","state":"PA","lat":41.3761,"long":-79.5048},{"zip":"16372","city":"Clintonville","state":"PA","lat":41.2002,"long":-79.8734},{"zip":"16373","city":"Emlenton","state":"PA","lat":41.2028,"long":-79.747},{"zip":"16374","city":"Kennerdell","state":"PA","lat":41.2848,"long":-79.7393},{"zip":"16312","city":"Chandlers Valley","state":"PA","lat":41.9358,"long":-79.3097},{"zip":"16313","city":"Clarendon","state":"PA","lat":41.7302,"long":-79.1719},{"zip":"16329","city":"Irvine","state":"PA","lat":41.8117,"long":-79.2643},{"zip":"16340","city":"Pittsfield","state":"PA","lat":41.8366,"long":-79.4196},{"zip":"16345","city":"Russell","state":"PA","lat":41.9461,"long":-79.1271},{"zip":"16347","city":"Sheffield","state":"PA","lat":41.7005,"long":-79.0348},{"zip":"16350","city":"Sugar Grove","state":"PA","lat":41.9475,"long":-79.3186},{"zip":"16351","city":"Tidioute","state":"PA","lat":41.703,"long":-79.3752},{"zip":"16352","city":"Tiona","state":"PA","lat":41.7434,"long":-79.0528},{"zip":"16365","city":"Warren","state":"PA","lat":41.8436,"long":-79.1726},{"zip":"16366","city":"Warren","state":"PA","lat":41.8439,"long":-79.145},{"zip":"16367","city":"Warren","state":"PA","lat":41.8439,"long":-79.145},{"zip":"16368","city":"Irvine","state":"PA","lat":41.8117,"long":-79.2643},{"zip":"16369","city":"Irvine","state":"PA","lat":41.8117,"long":-79.2643},{"zip":"16371","city":"Youngsville","state":"PA","lat":41.8537,"long":-79.3187},{"zip":"16402","city":"Bear Lake","state":"PA","lat":41.9701,"long":-79.4614},{"zip":"16405","city":"Columbus","state":"PA","lat":41.9382,"long":-79.5731},{"zip":"16416","city":"Garland","state":"PA","lat":41.8188,"long":-79.4463},{"zip":"16420","city":"Grand Valley","state":"PA","lat":41.6963,"long":-79.5473},{"zip":"16436","city":"Spring Creek","state":"PA","lat":41.92,"long":-79.4482}]
