[{"zip":"16049","city":"Parker","state":"PA","lat":41.1009,"long":-79.6889},{"zip":"16001","city":"Butler","state":"PA","lat":40.8859,"long":-79.934},{"zip":"16002","city":"Butler","state":"PA","lat":40.8409,"long":-79.8592},{"zip":"16003","city":"Butler","state":"PA","lat":40.8612,"long":-79.8953},{"zip":"16016","city":"Boyers","state":"PA","lat":41.1084,"long":-79.8989},{"zip":"16017","city":"Boyers","state":"PA","lat":40.9211,"long":-79.9276},{"zip":"16018","city":"Boyers","state":"PA","lat":40.9211,"long":-79.9276},{"zip":"16020","city":"Boyers","state":"PA","lat":41.1092,"long":-79.9047},{"zip":"16021","city":"Branchton","state":"PA","lat":41.0726,"long":-79.9856},{"zip":"16022","city":"Bruin","state":"PA","lat":41.0571,"long":-79.7291},{"zip":"16023","city":"Cabot","state":"PA","lat":40.7924,"long":-79.76},{"zip":"16024","city":"Callery","state":"PA","lat":40.7406,"long":-80.0364},{"zip":"16025","city":"Chicora","state":"PA","lat":40.9458,"long":-79.7462},{"zip":"16027","city":"Connoquenessing","state":"PA","lat":40.8178,"long":-80.0142},{"zip":"16029","city":"East Butler","state":"PA","lat":40.8778,"long":-79.8464},{"zip":"16030","city":"Eau Claire","state":"PA","lat":41.1348,"long":-79.7981},{"zip":"16033","city":"Evans City","state":"PA","lat":40.7808,"long":-80.0592},{"zip":"16034","city":"Fenelton","state":"PA","lat":40.8555,"long":-79.7372},{"zip":"16035","city":"Forestville","state":"PA","lat":41.1068,"long":-80.007},{"zip":"16037","city":"Harmony","state":"PA","lat":40.8496,"long":-80.1381},{"zip":"16038","city":"Harrisville","state":"PA","lat":41.1631,"long":-79.9796},{"zip":"16039","city":"Herman","state":"PA","lat":40.8301,"long":-79.8112},{"zip":"16040","city":"Hilliards","state":"PA","lat":41.1009,"long":-79.8215},{"zip":"16041","city":"Karns City","state":"PA","lat":41.0022,"long":-79.716},{"zip":"16045","city":"Lyndora","state":"PA","lat":40.8528,"long":-79.9167},{"zip":"16046","city":"Mars","state":"PA","lat":40.7005,"long":-80.0358},{"zip":"16048","city":"North Washington","state":"PA","lat":41.0472,"long":-79.8089},{"zip":"16050","city":"Petrolia","state":"PA","lat":41.0442,"long":-79.7711},{"zip":"16051","city":"Portersville","state":"PA","lat":40.9468,"long":-80.139},{"zip":"16052","city":"Prospect","state":"PA","lat":40.9049,"long":-80.0679},{"zip":"16053","city":"Renfrew","state":"PA","lat":40.81,"long":-79.977},{"zip":"16055","city":"Sarver","state":"PA","lat":40.7143,"long":-79.7424},{"zip":"16056","city":"Saxonburg","state":"PA","lat":40.7361,"long":-79.8352},{"zip":"16057","city":"Slippery Rock","state":"PA","lat":41.0454,"long":-80.0468},{"zip":"16059","city":"Valencia","state":"PA","lat":40.7018,"long":-79.9235},{"zip":"16061","city":"West Sunbury","state":"PA","lat":41.0026,"long":-79.8751},{"zip":"16063","city":"Zelienople","state":"PA","lat":40.7609,"long":-80.1094},{"zip":"16066","city":"Cranberry Township","state":"PA","lat":40.685,"long":-80.1071},{"zip":"16028","city":"East Brady","state":"PA","lat":40.9744,"long":-79.6302},{"zip":"16036","city":"Foxburg","state":"PA","lat":41.1431,"long":-79.6798},{"zip":"16054","city":"Saint Petersburg","state":"PA","lat":41.1617,"long":-79.6528},{"zip":"16058","city":"Turkey City","state":"PA","lat":41.1853,"long":-79.6134}]
