[{"zip":"16115","city":"Darlington","state":"PA","lat":40.7968,"long":-80.4556},{"zip":"16123","city":"Fombell","state":"PA","lat":40.8125,"long":-80.2073},{"zip":"16136","city":"Koppel","state":"PA","lat":40.8348,"long":-80.328},{"zip":"16141","city":"New Galilee","state":"PA","lat":40.8569,"long":-80.3939},{"zip":"16110","city":"Adamsville","state":"PA","lat":41.5067,"long":-80.3765},{"zip":"16111","city":"Atlantic","state":"PA","lat":41.5333,"long":-80.2863},{"zip":"16131","city":"Hartstown","state":"PA","lat":41.5509,"long":-80.3813},{"zip":"16101","city":"New Castle","state":"PA","lat":40.9922,"long":-80.3284},{"zip":"16102","city":"New Castle","state":"PA","lat":40.9677,"long":-80.3907},{"zip":"16103","city":"New Castle","state":"PA","lat":40.9897,"long":-80.3084},{"zip":"16105","city":"New Castle","state":"PA","lat":41.0241,"long":-80.3454},{"zip":"16107","city":"New Castle","state":"PA","lat":40.9897,"long":-80.3084},{"zip":"16108","city":"New Castle","state":"PA","lat":40.9897,"long":-80.3084},{"zip":"16112","city":"Bessemer","state":"PA","lat":40.9755,"long":-80.4937},{"zip":"16116","city":"Edinburg","state":"PA","lat":41.0276,"long":-80.4632},{"zip":"16117","city":"Ellwood City","state":"PA","lat":40.8729,"long":-80.2559},{"zip":"16120","city":"Enon Valley","state":"PA","lat":40.8721,"long":-80.4612},{"zip":"16132","city":"Hillsville","state":"PA","lat":41.0113,"long":-80.4975},{"zip":"16140","city":"New Bedford","state":"PA","lat":40.9897,"long":-80.3084},{"zip":"16142","city":"New Wilmington","state":"PA","lat":41.1382,"long":-80.3245},{"zip":"16143","city":"Pulaski","state":"PA","lat":41.0942,"long":-80.4685},{"zip":"16155","city":"Villa Maria","state":"PA","lat":41.0737,"long":-80.5073},{"zip":"16156","city":"Volant","state":"PA","lat":41.0938,"long":-80.2441},{"zip":"16157","city":"Wampum","state":"PA","lat":40.8819,"long":-80.3392},{"zip":"16160","city":"West Pittsburg","state":"PA","lat":40.9301,"long":-80.3611},{"zip":"16172","city":"New Wilmington","state":"PA","lat":41.12,"long":-80.3332},{"zip":"16113","city":"Clark","state":"PA","lat":41.2866,"long":-80.4237},{"zip":"16114","city":"Clarks Mills","state":"PA","lat":41.3931,"long":-80.1837},{"zip":"16121","city":"Farrell","state":"PA","lat":41.211,"long":-80.4944},{"zip":"16124","city":"Fredonia","state":"PA","lat":41.3241,"long":-80.2699},{"zip":"16125","city":"Greenville","state":"PA","lat":41.4057,"long":-80.3739},{"zip":"16127","city":"Grove City","state":"PA","lat":41.1607,"long":-80.0841},{"zip":"16130","city":"Hadley","state":"PA","lat":41.4432,"long":-80.2153},{"zip":"16133","city":"Jackson Center","state":"PA","lat":41.2801,"long":-80.1037},{"zip":"16134","city":"Jamestown","state":"PA","lat":41.4566,"long":-80.4492},{"zip":"16137","city":"Mercer","state":"PA","lat":41.2325,"long":-80.234},{"zip":"16145","city":"Sandy Lake","state":"PA","lat":41.3383,"long":-80.0497},{"zip":"16146","city":"Sharon","state":"PA","lat":41.2316,"long":-80.4993},{"zip":"16148","city":"Hermitage","state":"PA","lat":41.2326,"long":-80.453},{"zip":"16150","city":"Sharpsville","state":"PA","lat":41.2676,"long":-80.4656},{"zip":"16151","city":"Sheakleyville","state":"PA","lat":41.4435,"long":-80.2055},{"zip":"16153","city":"Stoneboro","state":"PA","lat":41.3439,"long":-80.0976},{"zip":"16154","city":"Transfer","state":"PA","lat":41.3244,"long":-80.4197},{"zip":"16159","city":"West Middlesex","state":"PA","lat":41.1741,"long":-80.4528},{"zip":"16161","city":"Wheatland","state":"PA","lat":41.2009,"long":-80.4978}]
