[{"zip":"16201","city":"Kittanning","state":"PA","lat":40.8155,"long":-79.5107},{"zip":"16210","city":"Adrian","state":"PA","lat":40.9049,"long":-79.5074},{"zip":"16212","city":"Cadogan","state":"PA","lat":40.7539,"long":-79.5798},{"zip":"16218","city":"Cowansville","state":"PA","lat":40.923,"long":-79.5946},{"zip":"16222","city":"Dayton","state":"PA","lat":40.8741,"long":-79.2686},{"zip":"16223","city":"Distant","state":"PA","lat":40.8478,"long":-79.4516},{"zip":"16226","city":"Ford City","state":"PA","lat":40.7384,"long":-79.5122},{"zip":"16228","city":"Ford Cliff","state":"PA","lat":40.7608,"long":-79.5358},{"zip":"16229","city":"Freeport","state":"PA","lat":40.7033,"long":-79.663},{"zip":"16236","city":"Mc Grann","state":"PA","lat":40.7818,"long":-79.5218},{"zip":"16238","city":"Manorville","state":"PA","lat":40.7863,"long":-79.5213},{"zip":"16244","city":"Nu Mine","state":"PA","lat":40.8478,"long":-79.4516},{"zip":"16245","city":"Oak Ridge","state":"PA","lat":41.0076,"long":-79.2959},{"zip":"16249","city":"Rural Valley","state":"PA","lat":40.7885,"long":-79.2991},{"zip":"16250","city":"Sagamore","state":"PA","lat":40.7774,"long":-79.2336},{"zip":"16253","city":"Seminole","state":"PA","lat":40.9548,"long":-79.3428},{"zip":"16259","city":"Templeton","state":"PA","lat":40.9419,"long":-79.4499},{"zip":"16261","city":"Widnoon","state":"PA","lat":40.9612,"long":-79.4673},{"zip":"16262","city":"Worthington","state":"PA","lat":40.8378,"long":-79.6298},{"zip":"16263","city":"Yatesboro","state":"PA","lat":40.8001,"long":-79.3342},{"zip":"16213","city":"Callensburg","state":"PA","lat":41.1259,"long":-79.5584},{"zip":"16214","city":"Clarion","state":"PA","lat":41.2123,"long":-79.3773},{"zip":"16220","city":"Crown","state":"PA","lat":41.3898,"long":-79.2709},{"zip":"16221","city":"Curllsville","state":"PA","lat":41.2023,"long":-79.4538},{"zip":"16224","city":"Fairmount City","state":"PA","lat":41.0429,"long":-79.2784},{"zip":"16225","city":"Fisher","state":"PA","lat":41.2665,"long":-79.2425},{"zip":"16230","city":"Hawthorn","state":"PA","lat":41.0178,"long":-79.2799},{"zip":"16232","city":"Knox","state":"PA","lat":41.2245,"long":-79.5194},{"zip":"16233","city":"Leeper","state":"PA","lat":41.3671,"long":-79.3022},{"zip":"16234","city":"Limestone","state":"PA","lat":41.2023,"long":-79.4538},{"zip":"16235","city":"Lucinda","state":"PA","lat":41.3124,"long":-79.3754},{"zip":"16240","city":"Mayport","state":"PA","lat":40.9906,"long":-79.2617},{"zip":"16242","city":"New Bethlehem","state":"PA","lat":40.9999,"long":-79.3527},{"zip":"16248","city":"Rimersburg","state":"PA","lat":41.0411,"long":-79.5017},{"zip":"16254","city":"Shippenville","state":"PA","lat":41.2475,"long":-79.4332},{"zip":"16255","city":"Sligo","state":"PA","lat":41.1139,"long":-79.4805},{"zip":"16257","city":"Snydersburg","state":"PA","lat":41.3328,"long":-79.3556},{"zip":"16258","city":"Strattanville","state":"PA","lat":41.1955,"long":-79.3082},{"zip":"16260","city":"Vowinckel","state":"PA","lat":41.3957,"long":-79.2266},{"zip":"16217","city":"Cooksburg","state":"PA","lat":41.3384,"long":-79.1971},{"zip":"16239","city":"Marienville","state":"PA","lat":41.4622,"long":-79.1306},{"zip":"16211","city":"Beyer","state":"PA","lat":40.7865,"long":-79.2011},{"zip":"16246","city":"Plumville","state":"PA","lat":40.7931,"long":-79.1806},{"zip":"16256","city":"Smicksburg","state":"PA","lat":40.8372,"long":-79.1614}]
