[{"zip":"16403","city":"Cambridge Springs","state":"PA","lat":41.8034,"long":-80.0594},{"zip":"16404","city":"Centerville","state":"PA","lat":41.7243,"long":-79.79},{"zip":"16406","city":"Conneautville","state":"PA","lat":41.7455,"long":-80.3445},{"zip":"16422","city":"Harmonsburg","state":"PA","lat":41.6609,"long":-80.3178},{"zip":"16424","city":"Linesville","state":"PA","lat":41.6244,"long":-80.4523},{"zip":"16432","city":"Riceville","state":"PA","lat":41.7776,"long":-79.8028},{"zip":"16433","city":"Saegertown","state":"PA","lat":41.7268,"long":-80.1479},{"zip":"16434","city":"Spartansburg","state":"PA","lat":41.7936,"long":-79.6849},{"zip":"16435","city":"Springboro","state":"PA","lat":41.8113,"long":-80.3753},{"zip":"16440","city":"Venango","state":"PA","lat":41.764,"long":-80.0982},{"zip":"16401","city":"Albion","state":"PA","lat":41.8947,"long":-80.3111},{"zip":"16407","city":"Corry","state":"PA","lat":41.9226,"long":-79.6567},{"zip":"16410","city":"Cranesville","state":"PA","lat":41.9162,"long":-80.3085},{"zip":"16411","city":"East Springfield","state":"PA","lat":41.9794,"long":-80.4303},{"zip":"16412","city":"Edinboro","state":"PA","lat":41.8756,"long":-80.1356},{"zip":"16413","city":"Elgin","state":"PA","lat":41.9031,"long":-79.7437},{"zip":"16415","city":"Fairview","state":"PA","lat":42.0407,"long":-80.2395},{"zip":"16417","city":"Girard","state":"PA","lat":41.9896,"long":-80.3178},{"zip":"16421","city":"Harborcreek","state":"PA","lat":42.1767,"long":-79.9416},{"zip":"16423","city":"Lake City","state":"PA","lat":42.0204,"long":-80.3388},{"zip":"16426","city":"Mc Kean","state":"PA","lat":41.999,"long":-80.1473},{"zip":"16427","city":"Mill Village","state":"PA","lat":41.8773,"long":-79.9692},{"zip":"16428","city":"North East","state":"PA","lat":42.2008,"long":-79.8332},{"zip":"16430","city":"North Springfield","state":"PA","lat":41.9999,"long":-80.4258},{"zip":"16438","city":"Union City","state":"PA","lat":41.8939,"long":-79.8455},{"zip":"16441","city":"Waterford","state":"PA","lat":41.9603,"long":-79.9996},{"zip":"16442","city":"Wattsburg","state":"PA","lat":42.0391,"long":-79.8363},{"zip":"16443","city":"West Springfield","state":"PA","lat":41.9465,"long":-80.465},{"zip":"16444","city":"Edinboro","state":"PA","lat":41.8707,"long":-80.1218},{"zip":"16475","city":"Albion","state":"PA","lat":41.8906,"long":-80.3665},{"zip":"16402","city":"Bear Lake","state":"PA","lat":41.9701,"long":-79.4614},{"zip":"16405","city":"Columbus","state":"PA","lat":41.9382,"long":-79.5731},{"zip":"16416","city":"Garland","state":"PA","lat":41.8188,"long":-79.4463},{"zip":"16420","city":"Grand Valley","state":"PA","lat":41.6963,"long":-79.5473},{"zip":"16436","city":"Spring Creek","state":"PA","lat":41.92,"long":-79.4482}]
