[{"zip":"16728","city":"De Young","state":"PA","lat":41.4159,"long":-78.6651},{"zip":"16734","city":"James City","state":"PA","lat":41.6192,"long":-78.8394},{"zip":"16701","city":"Bradford","state":"PA","lat":41.9547,"long":-78.654},{"zip":"16724","city":"Crosby","state":"PA","lat":41.7451,"long":-78.3903},{"zip":"16725","city":"Custer City","state":"PA","lat":41.9059,"long":-78.6517},{"zip":"16726","city":"Cyclone","state":"PA","lat":41.8186,"long":-78.5957},{"zip":"16727","city":"Derrick City","state":"PA","lat":41.9726,"long":-78.5626},{"zip":"16729","city":"Duke Center","state":"PA","lat":41.954,"long":-78.4923},{"zip":"16730","city":"East Smethport","state":"PA","lat":41.8087,"long":-78.4195},{"zip":"16731","city":"Eldred","state":"PA","lat":41.9489,"long":-78.3884},{"zip":"16732","city":"Gifford","state":"PA","lat":41.8581,"long":-78.5964},{"zip":"16733","city":"Hazel Hurst","state":"PA","lat":41.7059,"long":-78.5825},{"zip":"16735","city":"Kane","state":"PA","lat":41.6619,"long":-78.7978},{"zip":"16738","city":"Lewis Run","state":"PA","lat":41.8211,"long":-78.6805},{"zip":"16740","city":"Mount Jewett","state":"PA","lat":41.7247,"long":-78.6446},{"zip":"16743","city":"Port Allegany","state":"PA","lat":41.8169,"long":-78.2799},{"zip":"16744","city":"Rew","state":"PA","lat":41.8783,"long":-78.5572},{"zip":"16745","city":"Rixford","state":"PA","lat":41.9262,"long":-78.4942},{"zip":"16749","city":"Smethport","state":"PA","lat":41.8021,"long":-78.4702},{"zip":"16750","city":"Turtlepoint","state":"PA","lat":41.8847,"long":-78.3308},{"zip":"16720","city":"Austin","state":"PA","lat":41.6296,"long":-78.0908},{"zip":"16746","city":"Roulette","state":"PA","lat":41.7738,"long":-78.1538},{"zip":"16748","city":"Shinglehouse","state":"PA","lat":41.9572,"long":-78.1906}]
