[{"zip":"16910","city":"Alba","state":"PA","lat":41.7051,"long":-76.8283},{"zip":"16914","city":"Columbia Cross Roads","state":"PA","lat":41.8638,"long":-76.7825},{"zip":"16925","city":"Gillett","state":"PA","lat":41.9568,"long":-76.7713},{"zip":"16926","city":"Granville Summit","state":"PA","lat":41.6973,"long":-76.7218},{"zip":"16945","city":"Sylvania","state":"PA","lat":41.8051,"long":-76.8569},{"zip":"16947","city":"Troy","state":"PA","lat":41.7781,"long":-76.7711},{"zip":"16915","city":"Coudersport","state":"PA","lat":41.7762,"long":-77.9567},{"zip":"16922","city":"Galeton","state":"PA","lat":41.723,"long":-77.6548},{"zip":"16923","city":"Genesee","state":"PA","lat":41.9401,"long":-77.8725},{"zip":"16927","city":"Harrison Valley","state":"PA","lat":41.9587,"long":-77.6587},{"zip":"16937","city":"Mills","state":"PA","lat":41.9656,"long":-77.7111},{"zip":"16941","city":"Genesee","state":"PA","lat":41.9883,"long":-77.758},{"zip":"16948","city":"Ulysses","state":"PA","lat":41.8459,"long":-77.7126},{"zip":"16901","city":"Wellsboro","state":"PA","lat":41.7373,"long":-77.308},{"zip":"16911","city":"Arnot","state":"PA","lat":41.6626,"long":-77.123},{"zip":"16912","city":"Blossburg","state":"PA","lat":41.6698,"long":-77.0797},{"zip":"16917","city":"Covington","state":"PA","lat":41.7448,"long":-77.0772},{"zip":"16920","city":"Elkland","state":"PA","lat":41.9882,"long":-77.3134},{"zip":"16921","city":"Gaines","state":"PA","lat":41.7471,"long":-77.568},{"zip":"16928","city":"Knoxville","state":"PA","lat":41.9596,"long":-77.4357},{"zip":"16929","city":"Lawrenceville","state":"PA","lat":41.9783,"long":-77.1136},{"zip":"16930","city":"Liberty","state":"PA","lat":41.5656,"long":-77.1195},{"zip":"16932","city":"Mainesburg","state":"PA","lat":41.784,"long":-76.9983},{"zip":"16933","city":"Mansfield","state":"PA","lat":41.8123,"long":-77.0716},{"zip":"16935","city":"Middlebury Center","state":"PA","lat":41.8664,"long":-77.3128},{"zip":"16936","city":"Millerton","state":"PA","lat":41.9625,"long":-76.9748},{"zip":"16938","city":"Morris","state":"PA","lat":41.5475,"long":-77.292},{"zip":"16939","city":"Morris Run","state":"PA","lat":41.6775,"long":-77.0152},{"zip":"16940","city":"Nelson","state":"PA","lat":41.9787,"long":-77.2419},{"zip":"16942","city":"Osceola","state":"PA","lat":41.9848,"long":-77.354},{"zip":"16943","city":"Sabinsville","state":"PA","lat":41.8408,"long":-77.6155},{"zip":"16946","city":"Tioga","state":"PA","lat":41.9125,"long":-77.1393},{"zip":"16950","city":"Westfield","state":"PA","lat":41.9193,"long":-77.523}]
