[{"zip":"17301","city":"Abbottstown","state":"PA","lat":39.8881,"long":-76.9931},{"zip":"17303","city":"Arendtsville","state":"PA","lat":39.9236,"long":-77.3001},{"zip":"17304","city":"Aspers","state":"PA","lat":39.9765,"long":-77.2287},{"zip":"17306","city":"Bendersville","state":"PA","lat":39.9792,"long":-77.2496},{"zip":"17307","city":"Biglerville","state":"PA","lat":39.9281,"long":-77.2885},{"zip":"17310","city":"Cashtown","state":"PA","lat":39.8906,"long":-77.3566},{"zip":"17316","city":"East Berlin","state":"PA","lat":39.9645,"long":-77.0073},{"zip":"17320","city":"Fairfield","state":"PA","lat":39.7808,"long":-77.3619},{"zip":"17324","city":"Gardners","state":"PA","lat":40.0428,"long":-77.1877},{"zip":"17325","city":"Gettysburg","state":"PA","lat":39.832,"long":-77.2223},{"zip":"17337","city":"Idaville","state":"PA","lat":40.0157,"long":-77.2001},{"zip":"17340","city":"Littlestown","state":"PA","lat":39.7495,"long":-77.1003},{"zip":"17343","city":"Mc Knightstown","state":"PA","lat":39.8692,"long":-77.3292},{"zip":"17344","city":"Mc Sherrystown","state":"PA","lat":39.801,"long":-77.0229},{"zip":"17350","city":"New Oxford","state":"PA","lat":39.8775,"long":-77.0643},{"zip":"17353","city":"Orrtanna","state":"PA","lat":39.881,"long":-77.3806},{"zip":"17372","city":"York Springs","state":"PA","lat":40.0084,"long":-77.1061},{"zip":"17375","city":"Peach Glen","state":"PA","lat":39.8948,"long":-77.2135},{"zip":"17211","city":"Artemas","state":"PA","lat":39.7575,"long":-78.4031},{"zip":"17724","city":"Canton","state":"PA","lat":41.6538,"long":-76.8582},{"zip":"17735","city":"Grover","state":"PA","lat":41.6145,"long":-76.8672},{"zip":"17721","city":"Avis","state":"PA","lat":41.186,"long":-77.3162},{"zip":"17726","city":"Castanea","state":"PA","lat":41.1227,"long":-77.4317},{"zip":"17745","city":"Lock Haven","state":"PA","lat":41.1425,"long":-77.4436},{"zip":"17747","city":"Loganton","state":"PA","lat":41.0283,"long":-77.3204},{"zip":"17748","city":"Mc Elhattan","state":"PA","lat":41.1355,"long":-77.37},{"zip":"17750","city":"Mackeyville","state":"PA","lat":41.0325,"long":-77.4951},{"zip":"17751","city":"Mill Hall","state":"PA","lat":41.0867,"long":-77.4836},{"zip":"17760","city":"North Bend","state":"PA","lat":41.4083,"long":-77.6641},{"zip":"17764","city":"Renovo","state":"PA","lat":41.3334,"long":-77.7448},{"zip":"17778","city":"Westport","state":"PA","lat":41.2745,"long":-77.9315},{"zip":"17779","city":"Woolrich","state":"PA","lat":41.1948,"long":-77.3764},{"zip":"17814","city":"Benton","state":"PA","lat":41.2231,"long":-76.3406},{"zip":"17815","city":"Bloomsburg","state":"PA","lat":41.0115,"long":-76.4384},{"zip":"17820","city":"Catawissa","state":"PA","lat":40.918,"long":-76.4416},{"zip":"17846","city":"Millville","state":"PA","lat":41.1261,"long":-76.5208},{"zip":"17858","city":"Numidia","state":"PA","lat":40.8806,"long":-76.4022},{"zip":"17859","city":"Orangeville","state":"PA","lat":41.1016,"long":-76.381},{"zip":"17878","city":"Stillwater","state":"PA","lat":41.1515,"long":-76.3696},{"zip":"17888","city":"Wilburton","state":"PA","lat":40.8121,"long":-76.3929},{"zip":"17920","city":"Aristes","state":"PA","lat":40.8167,"long":-76.3503},{"zip":"17001","city":"Camp Hill","state":"PA","lat":40.216,"long":-76.925},{"zip":"17007","city":"Boiling Springs","state":"PA","lat":40.1449,"long":-77.1195},{"zip":"17011","city":"Camp Hill","state":"PA","lat":40.2352,"long":-76.9291},{"zip":"17012","city":"Camp Hill","state":"PA","lat":40.2398,"long":-76.92},{"zip":"17013","city":"Carlisle","state":"PA","lat":40.2417,"long":-77.1983},{"zip":"17025","city":"Enola","state":"PA","lat":40.2922,"long":-76.9432},{"zip":"17027","city":"Grantham","state":"PA","lat":40.158,"long":-76.9964},{"zip":"17043","city":"Lemoyne","state":"PA","lat":40.2469,"long":-76.9001},{"zip":"17050","city":"Mechanicsburg","state":"PA","lat":40.2122,"long":-77.0265},{"zip":"17055","city":"Mechanicsburg","state":"PA","lat":40.179,"long":-77.0036},{"zip":"17065","city":"Mount Holly Springs","state":"PA","lat":40.1115,"long":-77.1902},{"zip":"17070","city":"New Cumberland","state":"PA","lat":40.2151,"long":-76.8689},{"zip":"17072","city":"New Kingstown","state":"PA","lat":40.2306,"long":-77.0794},{"zip":"17081","city":"Plainfield","state":"PA","lat":40.203,"long":-77.2848},{"zip":"17089","city":"Camp Hill","state":"PA","lat":40.2697,"long":-76.936},{"zip":"17093","city":"Summerdale","state":"PA","lat":40.3078,"long":-76.9312},{"zip":"17240","city":"Newburg","state":"PA","lat":40.1333,"long":-77.5669},{"zip":"17241","city":"Newville","state":"PA","lat":40.1855,"long":-77.4114},{"zip":"17257","city":"Shippensburg","state":"PA","lat":40.0514,"long":-77.5195},{"zip":"17266","city":"Walnut Bottom","state":"PA","lat":40.086,"long":-77.409},{"zip":"17005","city":"Berrysburg","state":"PA","lat":40.601,"long":-76.8117},{"zip":"17018","city":"Dauphin","state":"PA","lat":40.3846,"long":-76.9283},{"zip":"17023","city":"Elizabethville","state":"PA","lat":40.555,"long":-76.8355},{"zip":"17028","city":"Grantville","state":"PA","lat":40.3606,"long":-76.6713},{"zip":"17030","city":"Gratz","state":"PA","lat":40.6082,"long":-76.7375},{"zip":"17032","city":"Halifax","state":"PA","lat":40.476,"long":-76.894},{"zip":"17033","city":"Hershey","state":"PA","lat":40.2638,"long":-76.6545},{"zip":"17034","city":"Highspire","state":"PA","lat":40.2083,"long":-76.7853},{"zip":"17036","city":"Hummelstown","state":"PA","lat":40.2782,"long":-76.7094},{"zip":"17048","city":"Lykens","state":"PA","lat":40.5909,"long":-76.7074},{"zip":"17057","city":"Middletown","state":"PA","lat":40.2041,"long":-76.7331},{"zip":"17061","city":"Millersburg","state":"PA","lat":40.5587,"long":-76.9305},{"zip":"17080","city":"Pillow","state":"PA","lat":40.6392,"long":-76.8029},{"zip":"17097","city":"Wiconisco","state":"PA","lat":40.5734,"long":-76.6914},{"zip":"17098","city":"Williamstown","state":"PA","lat":40.5808,"long":-76.6223},{"zip":"17101","city":"Harrisburg","state":"PA","lat":40.2618,"long":-76.8831},{"zip":"17102","city":"Harrisburg","state":"PA","lat":40.2728,"long":-76.891},{"zip":"17103","city":"Harrisburg","state":"PA","lat":40.2724,"long":-76.861},{"zip":"17104","city":"Harrisburg","state":"PA","lat":40.2597,"long":-76.8594},{"zip":"17105","city":"Harrisburg","state":"PA","lat":40.2785,"long":-76.8752},{"zip":"17106","city":"Harrisburg","state":"PA","lat":40.2927,"long":-76.8501},{"zip":"17107","city":"Harrisburg","state":"PA","lat":40.297,"long":-76.8764},{"zip":"17108","city":"Harrisburg","state":"PA","lat":40.3086,"long":-76.8017},{"zip":"17109","city":"Harrisburg","state":"PA","lat":40.291,"long":-76.8203},{"zip":"17110","city":"Harrisburg","state":"PA","lat":40.303,"long":-76.8862},{"zip":"17111","city":"Harrisburg","state":"PA","lat":40.2721,"long":-76.8017},{"zip":"17112","city":"Harrisburg","state":"PA","lat":40.3352,"long":-76.7914},{"zip":"17113","city":"Harrisburg","state":"PA","lat":40.239,"long":-76.8416},{"zip":"17120","city":"Harrisburg","state":"PA","lat":40.2657,"long":-76.8827},{"zip":"17121","city":"Harrisburg","state":"PA","lat":40.2944,"long":-76.8938},{"zip":"17122","city":"Harrisburg","state":"PA","lat":40.2498,"long":-76.8712},{"zip":"17123","city":"Harrisburg","state":"PA","lat":40.2675,"long":-76.8837},{"zip":"17124","city":"Harrisburg","state":"PA","lat":40.2675,"long":-76.886},{"zip":"17125","city":"Harrisburg","state":"PA","lat":40.2662,"long":-76.8829},{"zip":"17126","city":"Harrisburg","state":"PA","lat":40.2618,"long":-76.88},{"zip":"17127","city":"Harrisburg","state":"PA","lat":40.2615,"long":-76.8809},{"zip":"17128","city":"Harrisburg","state":"PA","lat":40.2737,"long":-76.8844},{"zip":"17129","city":"Harrisburg","state":"PA","lat":40.2615,"long":-76.8809},{"zip":"17130","city":"Harrisburg","state":"PA","lat":40.2702,"long":-76.8829},{"zip":"17140","city":"Harrisburg","state":"PA","lat":40.3086,"long":-76.8464},{"zip":"17177","city":"Harrisburg","state":"PA","lat":40.299,"long":-76.8472},{"zip":"17201","city":"Chambersburg","state":"PA","lat":39.9313,"long":-77.6579},{"zip":"17202","city":"Chambersburg","state":"PA","lat":39.9072,"long":-77.636},{"zip":"17210","city":"Amberson","state":"PA","lat":40.1717,"long":-77.6614},{"zip":"17214","city":"Blue Ridge Summit","state":"PA","lat":39.7399,"long":-77.4707},{"zip":"17217","city":"Concord","state":"PA","lat":40.2252,"long":-77.725},{"zip":"17219","city":"Doylesburg","state":"PA","lat":40.2184,"long":-77.6797},{"zip":"17220","city":"Dry Run","state":"PA","lat":40.1781,"long":-77.7353},{"zip":"17221","city":"Fannettsburg","state":"PA","lat":40.0717,"long":-77.821},{"zip":"17222","city":"Fayetteville","state":"PA","lat":39.9065,"long":-77.531},{"zip":"17224","city":"Fort Loudon","state":"PA","lat":39.9547,"long":-77.8984},{"zip":"17225","city":"Greencastle","state":"PA","lat":39.7818,"long":-77.747},{"zip":"17231","city":"Lemasters","state":"PA","lat":39.8594,"long":-77.8579},{"zip":"17232","city":"Lurgan","state":"PA","lat":40.1055,"long":-77.6405},{"zip":"17235","city":"Marion","state":"PA","lat":39.8587,"long":-77.6981},{"zip":"17236","city":"Mercersburg","state":"PA","lat":39.8195,"long":-77.9073},{"zip":"17237","city":"Mont Alto","state":"PA","lat":39.8417,"long":-77.5537},{"zip":"17244","city":"Orrstown","state":"PA","lat":40.0731,"long":-77.6398},{"zip":"17246","city":"Pleasant Hall","state":"PA","lat":40.0531,"long":-77.6539},{"zip":"17247","city":"Quincy","state":"PA","lat":39.7995,"long":-77.5811},{"zip":"17250","city":"Rouzerville","state":"PA","lat":39.7364,"long":-77.5247},{"zip":"17251","city":"Roxbury","state":"PA","lat":40.1104,"long":-77.6619},{"zip":"17252","city":"Saint Thomas","state":"PA","lat":39.9241,"long":-77.7908},{"zip":"17254","city":"Scotland","state":"PA","lat":39.9696,"long":-77.5848},{"zip":"17256","city":"Shady Grove","state":"PA","lat":39.7834,"long":-77.6749},{"zip":"17261","city":"South Mountain","state":"PA","lat":39.8331,"long":-77.4886},{"zip":"17262","city":"Spring Run","state":"PA","lat":40.1734,"long":-77.7092},{"zip":"17263","city":"State Line","state":"PA","lat":39.7248,"long":-77.7186},{"zip":"17265","city":"Upperstrasburg","state":"PA","lat":40.058,"long":-77.7368},{"zip":"17268","city":"Waynesboro","state":"PA","lat":39.7635,"long":-77.5674},{"zip":"17271","city":"Willow Hill","state":"PA","lat":40.1137,"long":-77.7969},{"zip":"17272","city":"Zullinger","state":"PA","lat":39.7714,"long":-77.627},{"zip":"17212","city":"Big Cove Tannery","state":"PA","lat":39.8127,"long":-78.0645},{"zip":"17215","city":"Burnt Cabins","state":"PA","lat":40.0753,"long":-77.9017},{"zip":"17223","city":"Fort Littleton","state":"PA","lat":40.078,"long":-77.9532},{"zip":"17228","city":"Harrisonville","state":"PA","lat":39.9761,"long":-78.0841},{"zip":"17229","city":"Hustontown","state":"PA","lat":40.0441,"long":-78.0148},{"zip":"17233","city":"Mc Connellsburg","state":"PA","lat":39.9443,"long":-77.9901},{"zip":"17238","city":"Needmore","state":"PA","lat":39.8713,"long":-78.1439},{"zip":"17267","city":"Warfordsburg","state":"PA","lat":39.7698,"long":-78.1986},{"zip":"17052","city":"Mapleton Depot","state":"PA","lat":40.3864,"long":-77.9604},{"zip":"17060","city":"Mill Creek","state":"PA","lat":40.4679,"long":-77.8967},{"zip":"17066","city":"Mount Union","state":"PA","lat":40.3901,"long":-77.8637},{"zip":"17213","city":"Blairs Mills","state":"PA","lat":40.2548,"long":-77.7695},{"zip":"17239","city":"Neelyton","state":"PA","lat":40.1371,"long":-77.858},{"zip":"17243","city":"Orbisonia","state":"PA","lat":40.2389,"long":-77.9069},{"zip":"17249","city":"Rockhill Furnace","state":"PA","lat":40.2414,"long":-77.8995},{"zip":"17253","city":"Saltillo","state":"PA","lat":40.2133,"long":-78.0069},{"zip":"17255","city":"Shade Gap","state":"PA","lat":40.173,"long":-77.868},{"zip":"17260","city":"Shirleysburg","state":"PA","lat":40.2979,"long":-77.8742},{"zip":"17264","city":"Three Springs","state":"PA","lat":40.1834,"long":-77.9941},{"zip":"17014","city":"Cocolamus","state":"PA","lat":40.6479,"long":-77.2125},{"zip":"17021","city":"East Waterford","state":"PA","lat":40.3542,"long":-77.6528},{"zip":"17035","city":"Honey Grove","state":"PA","lat":40.4309,"long":-77.5761},{"zip":"17049","city":"Mc Alisterville","state":"PA","lat":40.6469,"long":-77.2602},{"zip":"17056","city":"Mexico","state":"PA","lat":40.5373,"long":-77.3543},{"zip":"17058","city":"Mifflin","state":"PA","lat":40.5695,"long":-77.4028},{"zip":"17059","city":"Mifflintown","state":"PA","lat":40.5727,"long":-77.3761},{"zip":"17076","city":"Oakland Mills","state":"PA","lat":40.6147,"long":-77.3192},{"zip":"17082","city":"Port Royal","state":"PA","lat":40.5107,"long":-77.431},{"zip":"17086","city":"Richfield","state":"PA","lat":40.6884,"long":-77.1223},{"zip":"17094","city":"Thompsontown","state":"PA","lat":40.5908,"long":-77.2076},{"zip":"17022","city":"Elizabethtown","state":"PA","lat":40.1553,"long":-76.6025},{"zip":"17501","city":"Akron","state":"PA","lat":40.1573,"long":-76.2042},{"zip":"17502","city":"Bainbridge","state":"PA","lat":40.1086,"long":-76.6726},{"zip":"17503","city":"Bart","state":"PA","lat":40.0185,"long":-76.2976},{"zip":"17504","city":"Bausman","state":"PA","lat":40.024,"long":-76.3281},{"zip":"17505","city":"Bird In Hand","state":"PA","lat":40.0561,"long":-76.183},{"zip":"17506","city":"Blue Ball","state":"PA","lat":40.1173,"long":-76.0524},{"zip":"17507","city":"Bowmansville","state":"PA","lat":40.1966,"long":-76.016},{"zip":"17508","city":"Brownstown","state":"PA","lat":40.124,"long":-76.2176},{"zip":"17509","city":"Christiana","state":"PA","lat":39.904,"long":-76.0401},{"zip":"17512","city":"Columbia","state":"PA","lat":40.0391,"long":-76.4862},{"zip":"17516","city":"Conestoga","state":"PA","lat":39.9403,"long":-76.3575},{"zip":"17517","city":"Denver","state":"PA","lat":40.2297,"long":-76.1157},{"zip":"17518","city":"Drumore","state":"PA","lat":39.8183,"long":-76.2499},{"zip":"17519","city":"East Earl","state":"PA","lat":40.1395,"long":-76.0276},{"zip":"17520","city":"East Petersburg","state":"PA","lat":40.1008,"long":-76.3512},{"zip":"17521","city":"Elm","state":"PA","lat":40.2044,"long":-76.3464},{"zip":"17522","city":"Ephrata","state":"PA","lat":40.1756,"long":-76.1821},{"zip":"17527","city":"Gap","state":"PA","lat":40.002,"long":-75.9978},{"zip":"17528","city":"Goodville","state":"PA","lat":40.1257,"long":-76.0033},{"zip":"17529","city":"Gordonville","state":"PA","lat":40.0353,"long":-76.1106},{"zip":"17532","city":"Holtwood","state":"PA","lat":39.8631,"long":-76.3008},{"zip":"17533","city":"Hopeland","state":"PA","lat":40.2339,"long":-76.2607},{"zip":"17534","city":"Intercourse","state":"PA","lat":40.0367,"long":-76.1069},{"zip":"17535","city":"Kinzers","state":"PA","lat":40.0053,"long":-76.0493},{"zip":"17536","city":"Kirkwood","state":"PA","lat":39.8257,"long":-76.0933},{"zip":"17537","city":"Lampeter","state":"PA","lat":39.9885,"long":-76.2387},{"zip":"17538","city":"Landisville","state":"PA","lat":40.0892,"long":-76.4156},{"zip":"17540","city":"Leola","state":"PA","lat":40.0964,"long":-76.1921},{"zip":"17543","city":"Lititz","state":"PA","lat":40.1846,"long":-76.3015},{"zip":"17545","city":"Manheim","state":"PA","lat":40.1702,"long":-76.4168},{"zip":"17547","city":"Marietta","state":"PA","lat":40.0664,"long":-76.5645},{"zip":"17549","city":"Martindale","state":"PA","lat":40.1545,"long":-76.0876},{"zip":"17550","city":"Maytown","state":"PA","lat":40.0754,"long":-76.5822},{"zip":"17551","city":"Millersville","state":"PA","lat":39.9982,"long":-76.3566},{"zip":"17552","city":"Mount Joy","state":"PA","lat":40.1083,"long":-76.5103},{"zip":"17554","city":"Mountville","state":"PA","lat":40.0427,"long":-76.4277},{"zip":"17555","city":"Narvon","state":"PA","lat":40.1252,"long":-75.9756},{"zip":"17557","city":"New Holland","state":"PA","lat":40.1005,"long":-76.0801},{"zip":"17560","city":"New Providence","state":"PA","lat":39.9098,"long":-76.2243},{"zip":"17562","city":"Paradise","state":"PA","lat":39.9852,"long":-76.1081},{"zip":"17563","city":"Peach Bottom","state":"PA","lat":39.7705,"long":-76.1791},{"zip":"17564","city":"Penryn","state":"PA","lat":40.0185,"long":-76.2976},{"zip":"17565","city":"Pequea","state":"PA","lat":39.9058,"long":-76.3209},{"zip":"17566","city":"Quarryville","state":"PA","lat":39.8949,"long":-76.1465},{"zip":"17567","city":"Reamstown","state":"PA","lat":40.2099,"long":-76.1164},{"zip":"17568","city":"Refton","state":"PA","lat":39.9469,"long":-76.2322},{"zip":"17569","city":"Reinholds","state":"PA","lat":40.2688,"long":-76.1013},{"zip":"17570","city":"Rheems","state":"PA","lat":40.1301,"long":-76.5705},{"zip":"17572","city":"Ronks","state":"PA","lat":40.0208,"long":-76.1661},{"zip":"17573","city":"Ronks","state":"PA","lat":40.0262,"long":-76.1686},{"zip":"17575","city":"Silver Spring","state":"PA","lat":40.0647,"long":-76.4343},{"zip":"17576","city":"Smoketown","state":"PA","lat":40.0376,"long":-76.1969},{"zip":"17578","city":"Stevens","state":"PA","lat":40.2194,"long":-76.1626},{"zip":"17579","city":"Strasburg","state":"PA","lat":39.9701,"long":-76.1848},{"zip":"17580","city":"Talmage","state":"PA","lat":40.1168,"long":-76.2131},{"zip":"17581","city":"Terre Hill","state":"PA","lat":40.1585,"long":-76.0511},{"zip":"17582","city":"Washington Boro","state":"PA","lat":39.9881,"long":-76.4402},{"zip":"17583","city":"West Willow","state":"PA","lat":39.9723,"long":-76.2873},{"zip":"17584","city":"Willow Street","state":"PA","lat":39.967,"long":-76.2752},{"zip":"17585","city":"Witmer","state":"PA","lat":40.0484,"long":-76.2114},{"zip":"17601","city":"Lancaster","state":"PA","lat":40.0766,"long":-76.3107},{"zip":"17602","city":"Lancaster","state":"PA","lat":40.0335,"long":-76.2844},{"zip":"17603","city":"Lancaster","state":"PA","lat":40.0091,"long":-76.3671},{"zip":"17604","city":"Lancaster","state":"PA","lat":40.0651,"long":-76.3356},{"zip":"17605","city":"Lancaster","state":"PA","lat":40.0185,"long":-76.2976},{"zip":"17606","city":"Lancaster","state":"PA","lat":40.1102,"long":-76.3054},{"zip":"17607","city":"Lancaster","state":"PA","lat":40.0185,"long":-76.2976},{"zip":"17608","city":"Lancaster","state":"PA","lat":40.0185,"long":-76.2976},{"zip":"17611","city":"Lancaster","state":"PA","lat":40.0379,"long":-76.3055},{"zip":"17622","city":"Lancaster","state":"PA","lat":40.0418,"long":-76.3012},{"zip":"17699","city":"Lancaster","state":"PA","lat":40.0185,"long":-76.2976},{"zip":"17003","city":"Annville","state":"PA","lat":40.3456,"long":-76.5447},{"zip":"17010","city":"Campbelltown","state":"PA","lat":40.2776,"long":-76.5852},{"zip":"17016","city":"Cornwall","state":"PA","lat":40.2755,"long":-76.4053},{"zip":"17026","city":"Fredericksburg","state":"PA","lat":40.4524,"long":-76.4267},{"zip":"17038","city":"Jonestown","state":"PA","lat":40.4361,"long":-76.5038},{"zip":"17039","city":"Kleinfeltersville","state":"PA","lat":40.3005,"long":-76.2584},{"zip":"17041","city":"Lawn","state":"PA","lat":40.2236,"long":-76.538},{"zip":"17042","city":"Lebanon","state":"PA","lat":40.3316,"long":-76.3976},{"zip":"17046","city":"Lebanon","state":"PA","lat":40.3812,"long":-76.4368},{"zip":"17064","city":"Mount Gretna","state":"PA","lat":40.2476,"long":-76.4711},{"zip":"17067","city":"Myerstown","state":"PA","lat":40.3789,"long":-76.3143},{"zip":"17073","city":"Newmanstown","state":"PA","lat":40.3495,"long":-76.2133},{"zip":"17077","city":"Ono","state":"PA","lat":40.3754,"long":-76.4148},{"zip":"17078","city":"Palmyra","state":"PA","lat":40.3011,"long":-76.5886},{"zip":"17083","city":"Quentin","state":"PA","lat":40.2764,"long":-76.4112},{"zip":"17085","city":"Rexmont","state":"PA","lat":40.2771,"long":-76.3857},{"zip":"17087","city":"Richland","state":"PA","lat":40.3806,"long":-76.2654},{"zip":"17088","city":"Schaefferstown","state":"PA","lat":40.2984,"long":-76.2944},{"zip":"17701","city":"Williamsport","state":"PA","lat":41.2412,"long":-77.0011},{"zip":"17702","city":"Williamsport","state":"PA","lat":41.1943,"long":-77.0547},{"zip":"17703","city":"Williamsport","state":"PA","lat":41.2412,"long":-77.0011},{"zip":"17705","city":"Williamsport","state":"PA","lat":41.3327,"long":-77.0236},{"zip":"17720","city":"Antes Fort","state":"PA","lat":41.1865,"long":-77.2184},{"zip":"17723","city":"Jersey Shore","state":"PA","lat":41.432,"long":-77.4562},{"zip":"17727","city":"Cedar Run","state":"PA","lat":41.5299,"long":-77.4917},{"zip":"17728","city":"Cogan Station","state":"PA","lat":41.3152,"long":-77.069},{"zip":"17737","city":"Hughesville","state":"PA","lat":41.256,"long":-76.7141},{"zip":"17739","city":"Jersey Mills","state":"PA","lat":41.3573,"long":-77.4066},{"zip":"17740","city":"Jersey Shore","state":"PA","lat":41.247,"long":-77.2706},{"zip":"17742","city":"Lairdsville","state":"PA","lat":41.2359,"long":-76.605},{"zip":"17744","city":"Linden","state":"PA","lat":41.2472,"long":-77.1527},{"zip":"17752","city":"Montgomery","state":"PA","lat":41.1788,"long":-76.8839},{"zip":"17754","city":"Montoursville","state":"PA","lat":41.2663,"long":-76.903},{"zip":"17756","city":"Muncy","state":"PA","lat":41.2137,"long":-76.7633},{"zip":"17762","city":"Picture Rocks","state":"PA","lat":41.2798,"long":-76.713},{"zip":"17763","city":"Ralston","state":"PA","lat":41.5038,"long":-76.9583},{"zip":"17769","city":"Slate Run","state":"PA","lat":41.4728,"long":-77.5016},{"zip":"17771","city":"Trout Run","state":"PA","lat":41.4125,"long":-77.0098},{"zip":"17774","city":"Unityville","state":"PA","lat":41.2436,"long":-76.5183},{"zip":"17776","city":"Waterville","state":"PA","lat":41.3114,"long":-77.3604},{"zip":"17002","city":"Allensville","state":"PA","lat":40.5075,"long":-77.8392},{"zip":"17004","city":"Belleville","state":"PA","lat":40.6016,"long":-77.7358},{"zip":"17009","city":"Burnham","state":"PA","lat":40.6361,"long":-77.5625},{"zip":"17029","city":"Granville","state":"PA","lat":40.5537,"long":-77.6255},{"zip":"17044","city":"Lewistown","state":"PA","lat":40.5994,"long":-77.5756},{"zip":"17051","city":"Mc Veytown","state":"PA","lat":40.5046,"long":-77.7186},{"zip":"17054","city":"Mattawana","state":"PA","lat":40.496,"long":-77.7237},{"zip":"17063","city":"Milroy","state":"PA","lat":40.7203,"long":-77.5567},{"zip":"17075","city":"Newton Hamilton","state":"PA","lat":40.3931,"long":-77.8316},{"zip":"17084","city":"Reedsville","state":"PA","lat":40.6722,"long":-77.6116},{"zip":"17099","city":"Yeagertown","state":"PA","lat":40.6431,"long":-77.5805},{"zip":"17821","city":"Danville","state":"PA","lat":40.9799,"long":-76.6229},{"zip":"17822","city":"Danville","state":"PA","lat":40.9674,"long":-76.6049},{"zip":"17884","city":"Washingtonville","state":"PA","lat":41.0518,"long":-76.6747},{"zip":"17017","city":"Dalmatia","state":"PA","lat":40.6483,"long":-76.8797},{"zip":"17730","city":"Dewart","state":"PA","lat":41.1092,"long":-76.8766},{"zip":"17749","city":"Mc Ewensville","state":"PA","lat":41.072,"long":-76.8184},{"zip":"17772","city":"Turbotville","state":"PA","lat":41.1119,"long":-76.7425},{"zip":"17777","city":"Watsontown","state":"PA","lat":41.102,"long":-76.8532},{"zip":"17801","city":"Sunbury","state":"PA","lat":40.8551,"long":-76.7776},{"zip":"17823","city":"Dornsife","state":"PA","lat":40.7571,"long":-76.7626},{"zip":"17824","city":"Elysburg","state":"PA","lat":40.8639,"long":-76.5569},{"zip":"17830","city":"Herndon","state":"PA","lat":40.6918,"long":-76.8008},{"zip":"17832","city":"Marion Heights","state":"PA","lat":40.8046,"long":-76.4651},{"zip":"17834","city":"Kulpmont","state":"PA","lat":40.7933,"long":-76.4744},{"zip":"17836","city":"Leck Kill","state":"PA","lat":40.7101,"long":-76.6271},{"zip":"17840","city":"Locust Gap","state":"PA","lat":40.7727,"long":-76.4383},{"zip":"17847","city":"Milton","state":"PA","lat":41.0168,"long":-76.8398},{"zip":"17850","city":"Montandon","state":"PA","lat":40.9661,"long":-76.8575},{"zip":"17851","city":"Mount Carmel","state":"PA","lat":40.7955,"long":-76.4195},{"zip":"17857","city":"Northumberland","state":"PA","lat":40.9044,"long":-76.7908},{"zip":"17860","city":"Paxinos","state":"PA","lat":40.8448,"long":-76.635},{"zip":"17865","city":"Potts Grove","state":"PA","lat":40.9937,"long":-76.7891},{"zip":"17866","city":"Coal Township","state":"PA","lat":40.7917,"long":-76.5519},{"zip":"17867","city":"Rebuck","state":"PA","lat":40.7141,"long":-76.6886},{"zip":"17868","city":"Riverside","state":"PA","lat":40.9529,"long":-76.6311},{"zip":"17872","city":"Shamokin","state":"PA","lat":40.789,"long":-76.5588},{"zip":"17877","city":"Snydertown","state":"PA","lat":40.879,"long":-76.6673},{"zip":"17881","city":"Trevorton","state":"PA","lat":40.7819,"long":-76.6702},{"zip":"17006","city":"Blain","state":"PA","lat":40.3293,"long":-77.5117},{"zip":"17015","city":"Carlisle","state":"PA","lat":40.1772,"long":-77.2312},{"zip":"17020","city":"Duncannon","state":"PA","lat":40.4087,"long":-77.0473},{"zip":"17024","city":"Elliottsburg","state":"PA","lat":40.4096,"long":-77.3121},{"zip":"17037","city":"Ickesburg","state":"PA","lat":40.4363,"long":-77.397},{"zip":"17040","city":"Landisburg","state":"PA","lat":40.3326,"long":-77.3191},{"zip":"17045","city":"Liverpool","state":"PA","lat":40.5753,"long":-77.0083},{"zip":"17047","city":"Loysville","state":"PA","lat":40.3658,"long":-77.4138},{"zip":"17053","city":"Marysville","state":"PA","lat":40.3351,"long":-76.9722},{"zip":"17062","city":"Millerstown","state":"PA","lat":40.5505,"long":-77.1298},{"zip":"17068","city":"New Bloomfield","state":"PA","lat":40.4193,"long":-77.1938},{"zip":"17069","city":"New Buffalo","state":"PA","lat":40.4543,"long":-76.9697},{"zip":"17071","city":"New Germantown","state":"PA","lat":40.309,"long":-77.5697},{"zip":"17074","city":"Newport","state":"PA","lat":40.4827,"long":-77.1659},{"zip":"17090","city":"Shermans Dale","state":"PA","lat":40.3299,"long":-77.1809},{"zip":"17729","city":"Cross Fork","state":"PA","lat":41.4737,"long":-77.8095},{"zip":"17901","city":"Pottsville","state":"PA","lat":40.684,"long":-76.2123},{"zip":"17921","city":"Ashland","state":"PA","lat":40.7732,"long":-76.343},{"zip":"17922","city":"Auburn","state":"PA","lat":40.5962,"long":-76.1344},{"zip":"17923","city":"Branchdale","state":"PA","lat":40.6643,"long":-76.3328},{"zip":"17925","city":"Brockton","state":"PA","lat":40.7508,"long":-76.0629},{"zip":"17929","city":"Cressona","state":"PA","lat":40.6284,"long":-76.195},{"zip":"17930","city":"Cumbola","state":"PA","lat":40.7114,"long":-76.1392},{"zip":"17931","city":"Frackville","state":"PA","lat":40.7825,"long":-76.2311},{"zip":"17932","city":"Frackville","state":"PA","lat":40.784,"long":-76.2302},{"zip":"17933","city":"Friedensburg","state":"PA","lat":40.6026,"long":-76.2408},{"zip":"17934","city":"Gilberton","state":"PA","lat":40.7986,"long":-76.2155},{"zip":"17935","city":"Girardville","state":"PA","lat":40.7922,"long":-76.2858},{"zip":"17936","city":"Gordon","state":"PA","lat":40.7489,"long":-76.3355},{"zip":"17938","city":"Hegins","state":"PA","lat":40.6669,"long":-76.4732},{"zip":"17941","city":"Klingerstown","state":"PA","lat":40.6676,"long":-76.6507},{"zip":"17943","city":"Lavelle","state":"PA","lat":40.7634,"long":-76.3827},{"zip":"17944","city":"Llewellyn","state":"PA","lat":40.6729,"long":-76.2791},{"zip":"17945","city":"Locustdale","state":"PA","lat":40.7773,"long":-76.3761},{"zip":"17946","city":"Lost Creek","state":"PA","lat":40.8081,"long":-76.2407},{"zip":"17948","city":"Mahanoy City","state":"PA","lat":40.8123,"long":-76.1396},{"zip":"17949","city":"Mahanoy Plane","state":"PA","lat":40.794,"long":-76.2433},{"zip":"17951","city":"Mar Lin","state":"PA","lat":40.683,"long":-76.2387},{"zip":"17952","city":"Mary D","state":"PA","lat":40.7473,"long":-76.0628},{"zip":"17953","city":"Middleport","state":"PA","lat":40.7331,"long":-76.0858},{"zip":"17954","city":"Minersville","state":"PA","lat":40.6904,"long":-76.2597},{"zip":"17957","city":"Muir","state":"PA","lat":40.5926,"long":-76.5161},{"zip":"17959","city":"New Philadelphia","state":"PA","lat":40.7195,"long":-76.1158},{"zip":"17960","city":"New Ringgold","state":"PA","lat":40.7149,"long":-75.9484},{"zip":"17961","city":"Orwigsburg","state":"PA","lat":40.6431,"long":-76.084},{"zip":"17963","city":"Pine Grove","state":"PA","lat":40.5671,"long":-76.3269},{"zip":"17964","city":"Pitman","state":"PA","lat":40.7049,"long":-76.5233},{"zip":"17965","city":"Port Carbon","state":"PA","lat":40.6977,"long":-76.166},{"zip":"17966","city":"Ravine","state":"PA","lat":40.5745,"long":-76.4038},{"zip":"17967","city":"Ringtown","state":"PA","lat":40.8559,"long":-76.2349},{"zip":"17968","city":"Sacramento","state":"PA","lat":40.6352,"long":-76.6128},{"zip":"17970","city":"Saint Clair","state":"PA","lat":40.7193,"long":-76.1924},{"zip":"17972","city":"Schuylkill Haven","state":"PA","lat":40.6306,"long":-76.17},{"zip":"17974","city":"Seltzer","state":"PA","lat":40.6954,"long":-76.2338},{"zip":"17976","city":"Shenandoah","state":"PA","lat":40.8167,"long":-76.2035},{"zip":"17978","city":"Spring Glen","state":"PA","lat":40.6258,"long":-76.6218},{"zip":"17979","city":"Summit Station","state":"PA","lat":40.5545,"long":-76.2038},{"zip":"17980","city":"Tower City","state":"PA","lat":40.5845,"long":-76.55},{"zip":"17981","city":"Tremont","state":"PA","lat":40.6343,"long":-76.3905},{"zip":"17982","city":"Tuscarora","state":"PA","lat":40.7815,"long":-76.0134},{"zip":"17983","city":"Valley View","state":"PA","lat":40.6445,"long":-76.5448},{"zip":"17985","city":"Zion Grove","state":"PA","lat":40.9141,"long":-76.1931},{"zip":"17812","city":"Beaver Springs","state":"PA","lat":40.7528,"long":-77.2318},{"zip":"17813","city":"Beavertown","state":"PA","lat":40.7774,"long":-77.1691},{"zip":"17827","city":"Freeburg","state":"PA","lat":40.765,"long":-76.9395},{"zip":"17831","city":"Hummels Wharf","state":"PA","lat":40.8344,"long":-76.8354},{"zip":"17833","city":"Kreamer","state":"PA","lat":40.8031,"long":-76.9639},{"zip":"17841","city":"Mc Clure","state":"PA","lat":40.6991,"long":-77.3758},{"zip":"17842","city":"Middleburg","state":"PA","lat":40.7977,"long":-77.0468},{"zip":"17843","city":"Beaver Springs","state":"PA","lat":40.7462,"long":-77.2094},{"zip":"17853","city":"Mount Pleasant Mills","state":"PA","lat":40.7237,"long":-77.0135},{"zip":"17861","city":"Paxtonville","state":"PA","lat":40.7725,"long":-77.0833},{"zip":"17862","city":"Penns Creek","state":"PA","lat":40.8598,"long":-77.0553},{"zip":"17864","city":"Port Trevorton","state":"PA","lat":40.6996,"long":-76.9082},{"zip":"17870","city":"Selinsgrove","state":"PA","lat":40.8224,"long":-76.8683},{"zip":"17876","city":"Shamokin Dam","state":"PA","lat":40.8459,"long":-76.8224},{"zip":"17882","city":"Troxelville","state":"PA","lat":40.8031,"long":-77.2053},{"zip":"17731","city":"Eagles Mere","state":"PA","lat":41.4109,"long":-76.5819},{"zip":"17758","city":"Muncy Valley","state":"PA","lat":41.3426,"long":-76.5852},{"zip":"17768","city":"Shunk","state":"PA","lat":41.5536,"long":-76.7455},{"zip":"17765","city":"Roaring Branch","state":"PA","lat":41.5692,"long":-76.9421},{"zip":"17810","city":"Allenwood","state":"PA","lat":41.1264,"long":-76.9724},{"zip":"17829","city":"Hartleton","state":"PA","lat":40.9005,"long":-77.1558},{"zip":"17835","city":"Laurelton","state":"PA","lat":40.8831,"long":-77.1986},{"zip":"17837","city":"Lewisburg","state":"PA","lat":40.9702,"long":-76.9099},{"zip":"17844","city":"Mifflinburg","state":"PA","lat":40.9218,"long":-77.0505},{"zip":"17845","city":"Millmont","state":"PA","lat":40.8803,"long":-77.1941},{"zip":"17855","city":"New Berlin","state":"PA","lat":40.8802,"long":-76.9861},{"zip":"17856","city":"New Columbia","state":"PA","lat":41.0541,"long":-76.9019},{"zip":"17880","city":"Swengel","state":"PA","lat":40.9781,"long":-77.0818},{"zip":"17883","city":"Vicksburg","state":"PA","lat":40.9387,"long":-76.988},{"zip":"17885","city":"Weikert","state":"PA","lat":40.8584,"long":-77.2953},{"zip":"17886","city":"West Milton","state":"PA","lat":41.0179,"long":-76.8708},{"zip":"17887","city":"White Deer","state":"PA","lat":41.0759,"long":-76.8747},{"zip":"17889","city":"Winfield","state":"PA","lat":40.8908,"long":-76.8718},{"zip":"17019","city":"Dillsburg","state":"PA","lat":40.0964,"long":-77.0339},{"zip":"17302","city":"Airville","state":"PA","lat":39.821,"long":-76.4012},{"zip":"17309","city":"Brogue","state":"PA","lat":39.8608,"long":-76.4673},{"zip":"17311","city":"Codorus","state":"PA","lat":39.8718,"long":-76.7599},{"zip":"17312","city":"Craley","state":"PA","lat":39.9467,"long":-76.5066},{"zip":"17313","city":"Dallastown","state":"PA","lat":39.9124,"long":-76.6535},{"zip":"17314","city":"Delta","state":"PA","lat":39.7518,"long":-76.3441},{"zip":"17315","city":"Dover","state":"PA","lat":40.0062,"long":-76.8555},{"zip":"17317","city":"East Prospect","state":"PA","lat":39.9701,"long":-76.5217},{"zip":"17318","city":"Emigsville","state":"PA","lat":40.0215,"long":-76.7266},{"zip":"17319","city":"Etters","state":"PA","lat":40.1545,"long":-76.8019},{"zip":"17321","city":"Fawn Grove","state":"PA","lat":39.751,"long":-76.4392},{"zip":"17322","city":"Felton","state":"PA","lat":39.836,"long":-76.5937},{"zip":"17323","city":"Franklintown","state":"PA","lat":40.075,"long":-77.0279},{"zip":"17327","city":"Glen Rock","state":"PA","lat":39.7813,"long":-76.7477},{"zip":"17329","city":"Glenville","state":"PA","lat":39.7669,"long":-76.8777},{"zip":"17331","city":"Hanover","state":"PA","lat":39.7943,"long":-76.9812},{"zip":"17332","city":"Hanover","state":"PA","lat":39.8007,"long":-76.983},{"zip":"17333","city":"Hanover","state":"PA","lat":39.8007,"long":-76.983},{"zip":"17334","city":"Hanover","state":"PA","lat":39.805,"long":-76.9736},{"zip":"17339","city":"Lewisberry","state":"PA","lat":40.1463,"long":-76.87},{"zip":"17342","city":"Loganville","state":"PA","lat":39.8536,"long":-76.708},{"zip":"17345","city":"Manchester","state":"PA","lat":40.0695,"long":-76.7332},{"zip":"17347","city":"Mount Wolf","state":"PA","lat":40.0711,"long":-76.6966},{"zip":"17349","city":"New Freedom","state":"PA","lat":39.7423,"long":-76.6841},{"zip":"17352","city":"New Park","state":"PA","lat":39.76,"long":-76.5042},{"zip":"17354","city":"Porters Sideling","state":"PA","lat":39.8246,"long":-76.8993},{"zip":"17355","city":"Railroad","state":"PA","lat":39.7573,"long":-76.6994},{"zip":"17356","city":"Red Lion","state":"PA","lat":39.9026,"long":-76.6081},{"zip":"17358","city":"Rossville","state":"PA","lat":39.973,"long":-76.6878},{"zip":"17360","city":"Seven Valleys","state":"PA","lat":39.8556,"long":-76.7383},{"zip":"17361","city":"Shrewsbury","state":"PA","lat":39.7601,"long":-76.6748},{"zip":"17362","city":"Spring Grove","state":"PA","lat":39.8572,"long":-76.8774},{"zip":"17363","city":"Stewartstown","state":"PA","lat":39.772,"long":-76.597},{"zip":"17364","city":"Thomasville","state":"PA","lat":39.9346,"long":-76.8822},{"zip":"17365","city":"Wellsville","state":"PA","lat":40.0557,"long":-76.9443},{"zip":"17366","city":"Windsor","state":"PA","lat":39.9233,"long":-76.5591},{"zip":"17368","city":"Wrightsville","state":"PA","lat":39.9966,"long":-76.527},{"zip":"17370","city":"York Haven","state":"PA","lat":40.1222,"long":-76.7737},{"zip":"17371","city":"York New Salem","state":"PA","lat":39.9006,"long":-76.7896},{"zip":"17401","city":"York","state":"PA","lat":39.9635,"long":-76.7269},{"zip":"17402","city":"York","state":"PA","lat":39.959,"long":-76.6592},{"zip":"17403","city":"York","state":"PA","lat":39.9494,"long":-76.713},{"zip":"17404","city":"York","state":"PA","lat":40.0023,"long":-76.7712},{"zip":"17405","city":"York","state":"PA","lat":40.0086,"long":-76.5972},{"zip":"17406","city":"York","state":"PA","lat":40.0046,"long":-76.5947},{"zip":"17407","city":"York","state":"PA","lat":39.8833,"long":-76.712},{"zip":"17408","city":"York","state":"PA","lat":39.9492,"long":-76.8018}]
