[{"zip":"17001","city":"Camp Hill","state":"PA","lat":40.216,"long":-76.925},{"zip":"17007","city":"Boiling Springs","state":"PA","lat":40.1449,"long":-77.1195},{"zip":"17011","city":"Camp Hill","state":"PA","lat":40.2352,"long":-76.9291},{"zip":"17012","city":"Camp Hill","state":"PA","lat":40.2398,"long":-76.92},{"zip":"17013","city":"Carlisle","state":"PA","lat":40.2417,"long":-77.1983},{"zip":"17025","city":"Enola","state":"PA","lat":40.2922,"long":-76.9432},{"zip":"17027","city":"Grantham","state":"PA","lat":40.158,"long":-76.9964},{"zip":"17043","city":"Lemoyne","state":"PA","lat":40.2469,"long":-76.9001},{"zip":"17050","city":"Mechanicsburg","state":"PA","lat":40.2122,"long":-77.0265},{"zip":"17055","city":"Mechanicsburg","state":"PA","lat":40.179,"long":-77.0036},{"zip":"17065","city":"Mount Holly Springs","state":"PA","lat":40.1115,"long":-77.1902},{"zip":"17070","city":"New Cumberland","state":"PA","lat":40.2151,"long":-76.8689},{"zip":"17072","city":"New Kingstown","state":"PA","lat":40.2306,"long":-77.0794},{"zip":"17081","city":"Plainfield","state":"PA","lat":40.203,"long":-77.2848},{"zip":"17089","city":"Camp Hill","state":"PA","lat":40.2697,"long":-76.936},{"zip":"17093","city":"Summerdale","state":"PA","lat":40.3078,"long":-76.9312},{"zip":"17005","city":"Berrysburg","state":"PA","lat":40.601,"long":-76.8117},{"zip":"17018","city":"Dauphin","state":"PA","lat":40.3846,"long":-76.9283},{"zip":"17023","city":"Elizabethville","state":"PA","lat":40.555,"long":-76.8355},{"zip":"17028","city":"Grantville","state":"PA","lat":40.3606,"long":-76.6713},{"zip":"17030","city":"Gratz","state":"PA","lat":40.6082,"long":-76.7375},{"zip":"17032","city":"Halifax","state":"PA","lat":40.476,"long":-76.894},{"zip":"17033","city":"Hershey","state":"PA","lat":40.2638,"long":-76.6545},{"zip":"17034","city":"Highspire","state":"PA","lat":40.2083,"long":-76.7853},{"zip":"17036","city":"Hummelstown","state":"PA","lat":40.2782,"long":-76.7094},{"zip":"17048","city":"Lykens","state":"PA","lat":40.5909,"long":-76.7074},{"zip":"17057","city":"Middletown","state":"PA","lat":40.2041,"long":-76.7331},{"zip":"17061","city":"Millersburg","state":"PA","lat":40.5587,"long":-76.9305},{"zip":"17080","city":"Pillow","state":"PA","lat":40.6392,"long":-76.8029},{"zip":"17097","city":"Wiconisco","state":"PA","lat":40.5734,"long":-76.6914},{"zip":"17098","city":"Williamstown","state":"PA","lat":40.5808,"long":-76.6223},{"zip":"17052","city":"Mapleton Depot","state":"PA","lat":40.3864,"long":-77.9604},{"zip":"17060","city":"Mill Creek","state":"PA","lat":40.4679,"long":-77.8967},{"zip":"17066","city":"Mount Union","state":"PA","lat":40.3901,"long":-77.8637},{"zip":"17014","city":"Cocolamus","state":"PA","lat":40.6479,"long":-77.2125},{"zip":"17021","city":"East Waterford","state":"PA","lat":40.3542,"long":-77.6528},{"zip":"17035","city":"Honey Grove","state":"PA","lat":40.4309,"long":-77.5761},{"zip":"17049","city":"Mc Alisterville","state":"PA","lat":40.6469,"long":-77.2602},{"zip":"17056","city":"Mexico","state":"PA","lat":40.5373,"long":-77.3543},{"zip":"17058","city":"Mifflin","state":"PA","lat":40.5695,"long":-77.4028},{"zip":"17059","city":"Mifflintown","state":"PA","lat":40.5727,"long":-77.3761},{"zip":"17076","city":"Oakland Mills","state":"PA","lat":40.6147,"long":-77.3192},{"zip":"17082","city":"Port Royal","state":"PA","lat":40.5107,"long":-77.431},{"zip":"17086","city":"Richfield","state":"PA","lat":40.6884,"long":-77.1223},{"zip":"17094","city":"Thompsontown","state":"PA","lat":40.5908,"long":-77.2076},{"zip":"17022","city":"Elizabethtown","state":"PA","lat":40.1553,"long":-76.6025},{"zip":"17003","city":"Annville","state":"PA","lat":40.3456,"long":-76.5447},{"zip":"17010","city":"Campbelltown","state":"PA","lat":40.2776,"long":-76.5852},{"zip":"17016","city":"Cornwall","state":"PA","lat":40.2755,"long":-76.4053},{"zip":"17026","city":"Fredericksburg","state":"PA","lat":40.4524,"long":-76.4267},{"zip":"17038","city":"Jonestown","state":"PA","lat":40.4361,"long":-76.5038},{"zip":"17039","city":"Kleinfeltersville","state":"PA","lat":40.3005,"long":-76.2584},{"zip":"17041","city":"Lawn","state":"PA","lat":40.2236,"long":-76.538},{"zip":"17042","city":"Lebanon","state":"PA","lat":40.3316,"long":-76.3976},{"zip":"17046","city":"Lebanon","state":"PA","lat":40.3812,"long":-76.4368},{"zip":"17064","city":"Mount Gretna","state":"PA","lat":40.2476,"long":-76.4711},{"zip":"17067","city":"Myerstown","state":"PA","lat":40.3789,"long":-76.3143},{"zip":"17073","city":"Newmanstown","state":"PA","lat":40.3495,"long":-76.2133},{"zip":"17077","city":"Ono","state":"PA","lat":40.3754,"long":-76.4148},{"zip":"17078","city":"Palmyra","state":"PA","lat":40.3011,"long":-76.5886},{"zip":"17083","city":"Quentin","state":"PA","lat":40.2764,"long":-76.4112},{"zip":"17085","city":"Rexmont","state":"PA","lat":40.2771,"long":-76.3857},{"zip":"17087","city":"Richland","state":"PA","lat":40.3806,"long":-76.2654},{"zip":"17088","city":"Schaefferstown","state":"PA","lat":40.2984,"long":-76.2944},{"zip":"17002","city":"Allensville","state":"PA","lat":40.5075,"long":-77.8392},{"zip":"17004","city":"Belleville","state":"PA","lat":40.6016,"long":-77.7358},{"zip":"17009","city":"Burnham","state":"PA","lat":40.6361,"long":-77.5625},{"zip":"17029","city":"Granville","state":"PA","lat":40.5537,"long":-77.6255},{"zip":"17044","city":"Lewistown","state":"PA","lat":40.5994,"long":-77.5756},{"zip":"17051","city":"Mc Veytown","state":"PA","lat":40.5046,"long":-77.7186},{"zip":"17054","city":"Mattawana","state":"PA","lat":40.496,"long":-77.7237},{"zip":"17063","city":"Milroy","state":"PA","lat":40.7203,"long":-77.5567},{"zip":"17075","city":"Newton Hamilton","state":"PA","lat":40.3931,"long":-77.8316},{"zip":"17084","city":"Reedsville","state":"PA","lat":40.6722,"long":-77.6116},{"zip":"17099","city":"Yeagertown","state":"PA","lat":40.6431,"long":-77.5805},{"zip":"17017","city":"Dalmatia","state":"PA","lat":40.6483,"long":-76.8797},{"zip":"17006","city":"Blain","state":"PA","lat":40.3293,"long":-77.5117},{"zip":"17015","city":"Carlisle","state":"PA","lat":40.1772,"long":-77.2312},{"zip":"17020","city":"Duncannon","state":"PA","lat":40.4087,"long":-77.0473},{"zip":"17024","city":"Elliottsburg","state":"PA","lat":40.4096,"long":-77.3121},{"zip":"17037","city":"Ickesburg","state":"PA","lat":40.4363,"long":-77.397},{"zip":"17040","city":"Landisburg","state":"PA","lat":40.3326,"long":-77.3191},{"zip":"17045","city":"Liverpool","state":"PA","lat":40.5753,"long":-77.0083},{"zip":"17047","city":"Loysville","state":"PA","lat":40.3658,"long":-77.4138},{"zip":"17053","city":"Marysville","state":"PA","lat":40.3351,"long":-76.9722},{"zip":"17062","city":"Millerstown","state":"PA","lat":40.5505,"long":-77.1298},{"zip":"17068","city":"New Bloomfield","state":"PA","lat":40.4193,"long":-77.1938},{"zip":"17069","city":"New Buffalo","state":"PA","lat":40.4543,"long":-76.9697},{"zip":"17071","city":"New Germantown","state":"PA","lat":40.309,"long":-77.5697},{"zip":"17074","city":"Newport","state":"PA","lat":40.4827,"long":-77.1659},{"zip":"17090","city":"Shermans Dale","state":"PA","lat":40.3299,"long":-77.1809},{"zip":"17019","city":"Dillsburg","state":"PA","lat":40.0964,"long":-77.0339}]
