[{"zip":"17101","city":"Harrisburg","state":"PA","lat":40.2618,"long":-76.8831},{"zip":"17102","city":"Harrisburg","state":"PA","lat":40.2728,"long":-76.891},{"zip":"17103","city":"Harrisburg","state":"PA","lat":40.2724,"long":-76.861},{"zip":"17104","city":"Harrisburg","state":"PA","lat":40.2597,"long":-76.8594},{"zip":"17105","city":"Harrisburg","state":"PA","lat":40.2785,"long":-76.8752},{"zip":"17106","city":"Harrisburg","state":"PA","lat":40.2927,"long":-76.8501},{"zip":"17107","city":"Harrisburg","state":"PA","lat":40.297,"long":-76.8764},{"zip":"17108","city":"Harrisburg","state":"PA","lat":40.3086,"long":-76.8017},{"zip":"17109","city":"Harrisburg","state":"PA","lat":40.291,"long":-76.8203},{"zip":"17110","city":"Harrisburg","state":"PA","lat":40.303,"long":-76.8862},{"zip":"17111","city":"Harrisburg","state":"PA","lat":40.2721,"long":-76.8017},{"zip":"17112","city":"Harrisburg","state":"PA","lat":40.3352,"long":-76.7914},{"zip":"17113","city":"Harrisburg","state":"PA","lat":40.239,"long":-76.8416},{"zip":"17120","city":"Harrisburg","state":"PA","lat":40.2657,"long":-76.8827},{"zip":"17121","city":"Harrisburg","state":"PA","lat":40.2944,"long":-76.8938},{"zip":"17122","city":"Harrisburg","state":"PA","lat":40.2498,"long":-76.8712},{"zip":"17123","city":"Harrisburg","state":"PA","lat":40.2675,"long":-76.8837},{"zip":"17124","city":"Harrisburg","state":"PA","lat":40.2675,"long":-76.886},{"zip":"17125","city":"Harrisburg","state":"PA","lat":40.2662,"long":-76.8829},{"zip":"17126","city":"Harrisburg","state":"PA","lat":40.2618,"long":-76.88},{"zip":"17127","city":"Harrisburg","state":"PA","lat":40.2615,"long":-76.8809},{"zip":"17128","city":"Harrisburg","state":"PA","lat":40.2737,"long":-76.8844},{"zip":"17129","city":"Harrisburg","state":"PA","lat":40.2615,"long":-76.8809},{"zip":"17130","city":"Harrisburg","state":"PA","lat":40.2702,"long":-76.8829},{"zip":"17140","city":"Harrisburg","state":"PA","lat":40.3086,"long":-76.8464},{"zip":"17177","city":"Harrisburg","state":"PA","lat":40.299,"long":-76.8472}]
