[{"zip":"17211","city":"Artemas","state":"PA","lat":39.7575,"long":-78.4031},{"zip":"17240","city":"Newburg","state":"PA","lat":40.1333,"long":-77.5669},{"zip":"17241","city":"Newville","state":"PA","lat":40.1855,"long":-77.4114},{"zip":"17257","city":"Shippensburg","state":"PA","lat":40.0514,"long":-77.5195},{"zip":"17266","city":"Walnut Bottom","state":"PA","lat":40.086,"long":-77.409},{"zip":"17201","city":"Chambersburg","state":"PA","lat":39.9313,"long":-77.6579},{"zip":"17202","city":"Chambersburg","state":"PA","lat":39.9072,"long":-77.636},{"zip":"17210","city":"Amberson","state":"PA","lat":40.1717,"long":-77.6614},{"zip":"17214","city":"Blue Ridge Summit","state":"PA","lat":39.7399,"long":-77.4707},{"zip":"17217","city":"Concord","state":"PA","lat":40.2252,"long":-77.725},{"zip":"17219","city":"Doylesburg","state":"PA","lat":40.2184,"long":-77.6797},{"zip":"17220","city":"Dry Run","state":"PA","lat":40.1781,"long":-77.7353},{"zip":"17221","city":"Fannettsburg","state":"PA","lat":40.0717,"long":-77.821},{"zip":"17222","city":"Fayetteville","state":"PA","lat":39.9065,"long":-77.531},{"zip":"17224","city":"Fort Loudon","state":"PA","lat":39.9547,"long":-77.8984},{"zip":"17225","city":"Greencastle","state":"PA","lat":39.7818,"long":-77.747},{"zip":"17231","city":"Lemasters","state":"PA","lat":39.8594,"long":-77.8579},{"zip":"17232","city":"Lurgan","state":"PA","lat":40.1055,"long":-77.6405},{"zip":"17235","city":"Marion","state":"PA","lat":39.8587,"long":-77.6981},{"zip":"17236","city":"Mercersburg","state":"PA","lat":39.8195,"long":-77.9073},{"zip":"17237","city":"Mont Alto","state":"PA","lat":39.8417,"long":-77.5537},{"zip":"17244","city":"Orrstown","state":"PA","lat":40.0731,"long":-77.6398},{"zip":"17246","city":"Pleasant Hall","state":"PA","lat":40.0531,"long":-77.6539},{"zip":"17247","city":"Quincy","state":"PA","lat":39.7995,"long":-77.5811},{"zip":"17250","city":"Rouzerville","state":"PA","lat":39.7364,"long":-77.5247},{"zip":"17251","city":"Roxbury","state":"PA","lat":40.1104,"long":-77.6619},{"zip":"17252","city":"Saint Thomas","state":"PA","lat":39.9241,"long":-77.7908},{"zip":"17254","city":"Scotland","state":"PA","lat":39.9696,"long":-77.5848},{"zip":"17256","city":"Shady Grove","state":"PA","lat":39.7834,"long":-77.6749},{"zip":"17261","city":"South Mountain","state":"PA","lat":39.8331,"long":-77.4886},{"zip":"17262","city":"Spring Run","state":"PA","lat":40.1734,"long":-77.7092},{"zip":"17263","city":"State Line","state":"PA","lat":39.7248,"long":-77.7186},{"zip":"17265","city":"Upperstrasburg","state":"PA","lat":40.058,"long":-77.7368},{"zip":"17268","city":"Waynesboro","state":"PA","lat":39.7635,"long":-77.5674},{"zip":"17271","city":"Willow Hill","state":"PA","lat":40.1137,"long":-77.7969},{"zip":"17272","city":"Zullinger","state":"PA","lat":39.7714,"long":-77.627},{"zip":"17212","city":"Big Cove Tannery","state":"PA","lat":39.8127,"long":-78.0645},{"zip":"17215","city":"Burnt Cabins","state":"PA","lat":40.0753,"long":-77.9017},{"zip":"17223","city":"Fort Littleton","state":"PA","lat":40.078,"long":-77.9532},{"zip":"17228","city":"Harrisonville","state":"PA","lat":39.9761,"long":-78.0841},{"zip":"17229","city":"Hustontown","state":"PA","lat":40.0441,"long":-78.0148},{"zip":"17233","city":"Mc Connellsburg","state":"PA","lat":39.9443,"long":-77.9901},{"zip":"17238","city":"Needmore","state":"PA","lat":39.8713,"long":-78.1439},{"zip":"17267","city":"Warfordsburg","state":"PA","lat":39.7698,"long":-78.1986},{"zip":"17213","city":"Blairs Mills","state":"PA","lat":40.2548,"long":-77.7695},{"zip":"17239","city":"Neelyton","state":"PA","lat":40.1371,"long":-77.858},{"zip":"17243","city":"Orbisonia","state":"PA","lat":40.2389,"long":-77.9069},{"zip":"17249","city":"Rockhill Furnace","state":"PA","lat":40.2414,"long":-77.8995},{"zip":"17253","city":"Saltillo","state":"PA","lat":40.2133,"long":-78.0069},{"zip":"17255","city":"Shade Gap","state":"PA","lat":40.173,"long":-77.868},{"zip":"17260","city":"Shirleysburg","state":"PA","lat":40.2979,"long":-77.8742},{"zip":"17264","city":"Three Springs","state":"PA","lat":40.1834,"long":-77.9941}]
