[{"zip":"17301","city":"Abbottstown","state":"PA","lat":39.8881,"long":-76.9931},{"zip":"17303","city":"Arendtsville","state":"PA","lat":39.9236,"long":-77.3001},{"zip":"17304","city":"Aspers","state":"PA","lat":39.9765,"long":-77.2287},{"zip":"17306","city":"Bendersville","state":"PA","lat":39.9792,"long":-77.2496},{"zip":"17307","city":"Biglerville","state":"PA","lat":39.9281,"long":-77.2885},{"zip":"17310","city":"Cashtown","state":"PA","lat":39.8906,"long":-77.3566},{"zip":"17316","city":"East Berlin","state":"PA","lat":39.9645,"long":-77.0073},{"zip":"17320","city":"Fairfield","state":"PA","lat":39.7808,"long":-77.3619},{"zip":"17324","city":"Gardners","state":"PA","lat":40.0428,"long":-77.1877},{"zip":"17325","city":"Gettysburg","state":"PA","lat":39.832,"long":-77.2223},{"zip":"17337","city":"Idaville","state":"PA","lat":40.0157,"long":-77.2001},{"zip":"17340","city":"Littlestown","state":"PA","lat":39.7495,"long":-77.1003},{"zip":"17343","city":"Mc Knightstown","state":"PA","lat":39.8692,"long":-77.3292},{"zip":"17344","city":"Mc Sherrystown","state":"PA","lat":39.801,"long":-77.0229},{"zip":"17350","city":"New Oxford","state":"PA","lat":39.8775,"long":-77.0643},{"zip":"17353","city":"Orrtanna","state":"PA","lat":39.881,"long":-77.3806},{"zip":"17372","city":"York Springs","state":"PA","lat":40.0084,"long":-77.1061},{"zip":"17375","city":"Peach Glen","state":"PA","lat":39.8948,"long":-77.2135},{"zip":"17302","city":"Airville","state":"PA","lat":39.821,"long":-76.4012},{"zip":"17309","city":"Brogue","state":"PA","lat":39.8608,"long":-76.4673},{"zip":"17311","city":"Codorus","state":"PA","lat":39.8718,"long":-76.7599},{"zip":"17312","city":"Craley","state":"PA","lat":39.9467,"long":-76.5066},{"zip":"17313","city":"Dallastown","state":"PA","lat":39.9124,"long":-76.6535},{"zip":"17314","city":"Delta","state":"PA","lat":39.7518,"long":-76.3441},{"zip":"17315","city":"Dover","state":"PA","lat":40.0062,"long":-76.8555},{"zip":"17317","city":"East Prospect","state":"PA","lat":39.9701,"long":-76.5217},{"zip":"17318","city":"Emigsville","state":"PA","lat":40.0215,"long":-76.7266},{"zip":"17319","city":"Etters","state":"PA","lat":40.1545,"long":-76.8019},{"zip":"17321","city":"Fawn Grove","state":"PA","lat":39.751,"long":-76.4392},{"zip":"17322","city":"Felton","state":"PA","lat":39.836,"long":-76.5937},{"zip":"17323","city":"Franklintown","state":"PA","lat":40.075,"long":-77.0279},{"zip":"17327","city":"Glen Rock","state":"PA","lat":39.7813,"long":-76.7477},{"zip":"17329","city":"Glenville","state":"PA","lat":39.7669,"long":-76.8777},{"zip":"17331","city":"Hanover","state":"PA","lat":39.7943,"long":-76.9812},{"zip":"17332","city":"Hanover","state":"PA","lat":39.8007,"long":-76.983},{"zip":"17333","city":"Hanover","state":"PA","lat":39.8007,"long":-76.983},{"zip":"17334","city":"Hanover","state":"PA","lat":39.805,"long":-76.9736},{"zip":"17339","city":"Lewisberry","state":"PA","lat":40.1463,"long":-76.87},{"zip":"17342","city":"Loganville","state":"PA","lat":39.8536,"long":-76.708},{"zip":"17345","city":"Manchester","state":"PA","lat":40.0695,"long":-76.7332},{"zip":"17347","city":"Mount Wolf","state":"PA","lat":40.0711,"long":-76.6966},{"zip":"17349","city":"New Freedom","state":"PA","lat":39.7423,"long":-76.6841},{"zip":"17352","city":"New Park","state":"PA","lat":39.76,"long":-76.5042},{"zip":"17354","city":"Porters Sideling","state":"PA","lat":39.8246,"long":-76.8993},{"zip":"17355","city":"Railroad","state":"PA","lat":39.7573,"long":-76.6994},{"zip":"17356","city":"Red Lion","state":"PA","lat":39.9026,"long":-76.6081},{"zip":"17358","city":"Rossville","state":"PA","lat":39.973,"long":-76.6878},{"zip":"17360","city":"Seven Valleys","state":"PA","lat":39.8556,"long":-76.7383},{"zip":"17361","city":"Shrewsbury","state":"PA","lat":39.7601,"long":-76.6748},{"zip":"17362","city":"Spring Grove","state":"PA","lat":39.8572,"long":-76.8774},{"zip":"17363","city":"Stewartstown","state":"PA","lat":39.772,"long":-76.597},{"zip":"17364","city":"Thomasville","state":"PA","lat":39.9346,"long":-76.8822},{"zip":"17365","city":"Wellsville","state":"PA","lat":40.0557,"long":-76.9443},{"zip":"17366","city":"Windsor","state":"PA","lat":39.9233,"long":-76.5591},{"zip":"17368","city":"Wrightsville","state":"PA","lat":39.9966,"long":-76.527},{"zip":"17370","city":"York Haven","state":"PA","lat":40.1222,"long":-76.7737},{"zip":"17371","city":"York New Salem","state":"PA","lat":39.9006,"long":-76.7896}]
