[{"zip":"17501","city":"Akron","state":"PA","lat":40.1573,"long":-76.2042},{"zip":"17502","city":"Bainbridge","state":"PA","lat":40.1086,"long":-76.6726},{"zip":"17503","city":"Bart","state":"PA","lat":40.0185,"long":-76.2976},{"zip":"17504","city":"Bausman","state":"PA","lat":40.024,"long":-76.3281},{"zip":"17505","city":"Bird In Hand","state":"PA","lat":40.0561,"long":-76.183},{"zip":"17506","city":"Blue Ball","state":"PA","lat":40.1173,"long":-76.0524},{"zip":"17507","city":"Bowmansville","state":"PA","lat":40.1966,"long":-76.016},{"zip":"17508","city":"Brownstown","state":"PA","lat":40.124,"long":-76.2176},{"zip":"17509","city":"Christiana","state":"PA","lat":39.904,"long":-76.0401},{"zip":"17512","city":"Columbia","state":"PA","lat":40.0391,"long":-76.4862},{"zip":"17516","city":"Conestoga","state":"PA","lat":39.9403,"long":-76.3575},{"zip":"17517","city":"Denver","state":"PA","lat":40.2297,"long":-76.1157},{"zip":"17518","city":"Drumore","state":"PA","lat":39.8183,"long":-76.2499},{"zip":"17519","city":"East Earl","state":"PA","lat":40.1395,"long":-76.0276},{"zip":"17520","city":"East Petersburg","state":"PA","lat":40.1008,"long":-76.3512},{"zip":"17521","city":"Elm","state":"PA","lat":40.2044,"long":-76.3464},{"zip":"17522","city":"Ephrata","state":"PA","lat":40.1756,"long":-76.1821},{"zip":"17527","city":"Gap","state":"PA","lat":40.002,"long":-75.9978},{"zip":"17528","city":"Goodville","state":"PA","lat":40.1257,"long":-76.0033},{"zip":"17529","city":"Gordonville","state":"PA","lat":40.0353,"long":-76.1106},{"zip":"17532","city":"Holtwood","state":"PA","lat":39.8631,"long":-76.3008},{"zip":"17533","city":"Hopeland","state":"PA","lat":40.2339,"long":-76.2607},{"zip":"17534","city":"Intercourse","state":"PA","lat":40.0367,"long":-76.1069},{"zip":"17535","city":"Kinzers","state":"PA","lat":40.0053,"long":-76.0493},{"zip":"17536","city":"Kirkwood","state":"PA","lat":39.8257,"long":-76.0933},{"zip":"17537","city":"Lampeter","state":"PA","lat":39.9885,"long":-76.2387},{"zip":"17538","city":"Landisville","state":"PA","lat":40.0892,"long":-76.4156},{"zip":"17540","city":"Leola","state":"PA","lat":40.0964,"long":-76.1921},{"zip":"17543","city":"Lititz","state":"PA","lat":40.1846,"long":-76.3015},{"zip":"17545","city":"Manheim","state":"PA","lat":40.1702,"long":-76.4168},{"zip":"17547","city":"Marietta","state":"PA","lat":40.0664,"long":-76.5645},{"zip":"17549","city":"Martindale","state":"PA","lat":40.1545,"long":-76.0876},{"zip":"17550","city":"Maytown","state":"PA","lat":40.0754,"long":-76.5822},{"zip":"17551","city":"Millersville","state":"PA","lat":39.9982,"long":-76.3566},{"zip":"17552","city":"Mount Joy","state":"PA","lat":40.1083,"long":-76.5103},{"zip":"17554","city":"Mountville","state":"PA","lat":40.0427,"long":-76.4277},{"zip":"17555","city":"Narvon","state":"PA","lat":40.1252,"long":-75.9756},{"zip":"17557","city":"New Holland","state":"PA","lat":40.1005,"long":-76.0801},{"zip":"17560","city":"New Providence","state":"PA","lat":39.9098,"long":-76.2243},{"zip":"17562","city":"Paradise","state":"PA","lat":39.9852,"long":-76.1081},{"zip":"17563","city":"Peach Bottom","state":"PA","lat":39.7705,"long":-76.1791},{"zip":"17564","city":"Penryn","state":"PA","lat":40.0185,"long":-76.2976},{"zip":"17565","city":"Pequea","state":"PA","lat":39.9058,"long":-76.3209},{"zip":"17566","city":"Quarryville","state":"PA","lat":39.8949,"long":-76.1465},{"zip":"17567","city":"Reamstown","state":"PA","lat":40.2099,"long":-76.1164},{"zip":"17568","city":"Refton","state":"PA","lat":39.9469,"long":-76.2322},{"zip":"17569","city":"Reinholds","state":"PA","lat":40.2688,"long":-76.1013},{"zip":"17570","city":"Rheems","state":"PA","lat":40.1301,"long":-76.5705},{"zip":"17572","city":"Ronks","state":"PA","lat":40.0208,"long":-76.1661},{"zip":"17573","city":"Ronks","state":"PA","lat":40.0262,"long":-76.1686},{"zip":"17575","city":"Silver Spring","state":"PA","lat":40.0647,"long":-76.4343},{"zip":"17576","city":"Smoketown","state":"PA","lat":40.0376,"long":-76.1969},{"zip":"17578","city":"Stevens","state":"PA","lat":40.2194,"long":-76.1626},{"zip":"17579","city":"Strasburg","state":"PA","lat":39.9701,"long":-76.1848},{"zip":"17580","city":"Talmage","state":"PA","lat":40.1168,"long":-76.2131},{"zip":"17581","city":"Terre Hill","state":"PA","lat":40.1585,"long":-76.0511},{"zip":"17582","city":"Washington Boro","state":"PA","lat":39.9881,"long":-76.4402},{"zip":"17583","city":"West Willow","state":"PA","lat":39.9723,"long":-76.2873},{"zip":"17584","city":"Willow Street","state":"PA","lat":39.967,"long":-76.2752},{"zip":"17585","city":"Witmer","state":"PA","lat":40.0484,"long":-76.2114}]
