[{"zip":"17724","city":"Canton","state":"PA","lat":41.6538,"long":-76.8582},{"zip":"17735","city":"Grover","state":"PA","lat":41.6145,"long":-76.8672},{"zip":"17721","city":"Avis","state":"PA","lat":41.186,"long":-77.3162},{"zip":"17726","city":"Castanea","state":"PA","lat":41.1227,"long":-77.4317},{"zip":"17745","city":"Lock Haven","state":"PA","lat":41.1425,"long":-77.4436},{"zip":"17747","city":"Loganton","state":"PA","lat":41.0283,"long":-77.3204},{"zip":"17748","city":"Mc Elhattan","state":"PA","lat":41.1355,"long":-77.37},{"zip":"17750","city":"Mackeyville","state":"PA","lat":41.0325,"long":-77.4951},{"zip":"17751","city":"Mill Hall","state":"PA","lat":41.0867,"long":-77.4836},{"zip":"17760","city":"North Bend","state":"PA","lat":41.4083,"long":-77.6641},{"zip":"17764","city":"Renovo","state":"PA","lat":41.3334,"long":-77.7448},{"zip":"17778","city":"Westport","state":"PA","lat":41.2745,"long":-77.9315},{"zip":"17779","city":"Woolrich","state":"PA","lat":41.1948,"long":-77.3764},{"zip":"17701","city":"Williamsport","state":"PA","lat":41.2412,"long":-77.0011},{"zip":"17702","city":"Williamsport","state":"PA","lat":41.1943,"long":-77.0547},{"zip":"17703","city":"Williamsport","state":"PA","lat":41.2412,"long":-77.0011},{"zip":"17705","city":"Williamsport","state":"PA","lat":41.3327,"long":-77.0236},{"zip":"17720","city":"Antes Fort","state":"PA","lat":41.1865,"long":-77.2184},{"zip":"17723","city":"Jersey Shore","state":"PA","lat":41.432,"long":-77.4562},{"zip":"17727","city":"Cedar Run","state":"PA","lat":41.5299,"long":-77.4917},{"zip":"17728","city":"Cogan Station","state":"PA","lat":41.3152,"long":-77.069},{"zip":"17737","city":"Hughesville","state":"PA","lat":41.256,"long":-76.7141},{"zip":"17739","city":"Jersey Mills","state":"PA","lat":41.3573,"long":-77.4066},{"zip":"17740","city":"Jersey Shore","state":"PA","lat":41.247,"long":-77.2706},{"zip":"17742","city":"Lairdsville","state":"PA","lat":41.2359,"long":-76.605},{"zip":"17744","city":"Linden","state":"PA","lat":41.2472,"long":-77.1527},{"zip":"17752","city":"Montgomery","state":"PA","lat":41.1788,"long":-76.8839},{"zip":"17754","city":"Montoursville","state":"PA","lat":41.2663,"long":-76.903},{"zip":"17756","city":"Muncy","state":"PA","lat":41.2137,"long":-76.7633},{"zip":"17762","city":"Picture Rocks","state":"PA","lat":41.2798,"long":-76.713},{"zip":"17763","city":"Ralston","state":"PA","lat":41.5038,"long":-76.9583},{"zip":"17769","city":"Slate Run","state":"PA","lat":41.4728,"long":-77.5016},{"zip":"17771","city":"Trout Run","state":"PA","lat":41.4125,"long":-77.0098},{"zip":"17774","city":"Unityville","state":"PA","lat":41.2436,"long":-76.5183},{"zip":"17776","city":"Waterville","state":"PA","lat":41.3114,"long":-77.3604},{"zip":"17730","city":"Dewart","state":"PA","lat":41.1092,"long":-76.8766},{"zip":"17749","city":"Mc Ewensville","state":"PA","lat":41.072,"long":-76.8184},{"zip":"17772","city":"Turbotville","state":"PA","lat":41.1119,"long":-76.7425},{"zip":"17777","city":"Watsontown","state":"PA","lat":41.102,"long":-76.8532},{"zip":"17729","city":"Cross Fork","state":"PA","lat":41.4737,"long":-77.8095},{"zip":"17731","city":"Eagles Mere","state":"PA","lat":41.4109,"long":-76.5819},{"zip":"17758","city":"Muncy Valley","state":"PA","lat":41.3426,"long":-76.5852},{"zip":"17768","city":"Shunk","state":"PA","lat":41.5536,"long":-76.7455},{"zip":"17765","city":"Roaring Branch","state":"PA","lat":41.5692,"long":-76.9421}]
