[{"zip":"18056","city":"Hereford","state":"PA","lat":40.4491,"long":-75.5491},{"zip":"18810","city":"Athens","state":"PA","lat":41.949,"long":-76.4889},{"zip":"18814","city":"Burlington","state":"PA","lat":41.7817,"long":-76.6056},{"zip":"18815","city":"Camptown","state":"PA","lat":41.7312,"long":-76.2347},{"zip":"18817","city":"East Smithfield","state":"PA","lat":41.8645,"long":-76.6255},{"zip":"18829","city":"Le Raysville","state":"PA","lat":41.8434,"long":-76.1796},{"zip":"18831","city":"Milan","state":"PA","lat":41.8966,"long":-76.5328},{"zip":"18832","city":"Monroeton","state":"PA","lat":41.7135,"long":-76.4872},{"zip":"18833","city":"New Albany","state":"PA","lat":41.5987,"long":-76.4398},{"zip":"18837","city":"Rome","state":"PA","lat":41.8634,"long":-76.3015},{"zip":"18840","city":"Sayre","state":"PA","lat":41.9842,"long":-76.5218},{"zip":"18845","city":"Stevensville","state":"PA","lat":41.7718,"long":-76.1717},{"zip":"18846","city":"Sugar Run","state":"PA","lat":41.6041,"long":-76.2598},{"zip":"18848","city":"Towanda","state":"PA","lat":41.7638,"long":-76.4645},{"zip":"18850","city":"Ulster","state":"PA","lat":41.8408,"long":-76.4876},{"zip":"18851","city":"Warren Center","state":"PA","lat":41.9394,"long":-76.1964},{"zip":"18853","city":"Wyalusing","state":"PA","lat":41.7015,"long":-76.2754},{"zip":"18854","city":"Wysox","state":"PA","lat":41.7826,"long":-76.3834},{"zip":"18039","city":"Durham","state":"PA","lat":40.5757,"long":-75.2232},{"zip":"18077","city":"Riegelsville","state":"PA","lat":40.5782,"long":-75.2191},{"zip":"18081","city":"Springtown","state":"PA","lat":40.5565,"long":-75.2893},{"zip":"18901","city":"Doylestown","state":"PA","lat":40.3054,"long":-75.1489},{"zip":"18902","city":"Doylestown","state":"PA","lat":40.3477,"long":-75.0968},{"zip":"18910","city":"Bedminster","state":"PA","lat":40.4259,"long":-75.1791},{"zip":"18911","city":"Blooming Glen","state":"PA","lat":40.3695,"long":-75.2482},{"zip":"18912","city":"Buckingham","state":"PA","lat":40.3237,"long":-75.0599},{"zip":"18913","city":"Carversville","state":"PA","lat":40.3865,"long":-75.0627},{"zip":"18914","city":"Chalfont","state":"PA","lat":40.2892,"long":-75.2149},{"zip":"18916","city":"Danboro","state":"PA","lat":40.3545,"long":-75.1327},{"zip":"18917","city":"Dublin","state":"PA","lat":40.375,"long":-75.2045},{"zip":"18920","city":"Erwinna","state":"PA","lat":40.5087,"long":-75.0804},{"zip":"18921","city":"Ferndale","state":"PA","lat":40.5337,"long":-75.1788},{"zip":"18922","city":"Forest Grove","state":"PA","lat":40.2923,"long":-75.0591},{"zip":"18923","city":"Fountainville","state":"PA","lat":40.3578,"long":-75.1711},{"zip":"18925","city":"Furlong","state":"PA","lat":40.2945,"long":-75.0649},{"zip":"18927","city":"Hilltown","state":"PA","lat":40.3235,"long":-75.2548},{"zip":"18928","city":"Holicong","state":"PA","lat":40.336,"long":-75.0429},{"zip":"18929","city":"Jamison","state":"PA","lat":40.2566,"long":-75.0961},{"zip":"18930","city":"Kintnersville","state":"PA","lat":40.531,"long":-75.2117},{"zip":"18931","city":"Lahaska","state":"PA","lat":40.3286,"long":-75.1028},{"zip":"18932","city":"Line Lexington","state":"PA","lat":40.2888,"long":-75.2555},{"zip":"18933","city":"Lumberville","state":"PA","lat":40.3286,"long":-75.1028},{"zip":"18934","city":"Mechanicsville","state":"PA","lat":40.3494,"long":-75.0676},{"zip":"18935","city":"Milford Square","state":"PA","lat":40.437,"long":-75.3988},{"zip":"18938","city":"New Hope","state":"PA","lat":40.3556,"long":-74.9839},{"zip":"18940","city":"Newtown","state":"PA","lat":40.263,"long":-74.9555},{"zip":"18942","city":"Ottsville","state":"PA","lat":40.4592,"long":-75.157},{"zip":"18943","city":"Penns Park","state":"PA","lat":40.269,"long":-75.0094},{"zip":"18944","city":"Perkasie","state":"PA","lat":40.3765,"long":-75.2648},{"zip":"18946","city":"Pineville","state":"PA","lat":40.2962,"long":-75.0057},{"zip":"18947","city":"Pipersville","state":"PA","lat":40.4262,"long":-75.1074},{"zip":"18949","city":"Plumsteadville","state":"PA","lat":40.388,"long":-75.1425},{"zip":"18950","city":"Point Pleasant","state":"PA","lat":40.4165,"long":-75.0748},{"zip":"18951","city":"Quakertown","state":"PA","lat":40.4411,"long":-75.3507},{"zip":"18953","city":"Revere","state":"PA","lat":40.5154,"long":-75.161},{"zip":"18954","city":"Richboro","state":"PA","lat":40.2167,"long":-75.0029},{"zip":"18955","city":"Richlandtown","state":"PA","lat":40.4796,"long":-75.3146},{"zip":"18956","city":"Rushland","state":"PA","lat":40.2628,"long":-75.0157},{"zip":"18960","city":"Sellersville","state":"PA","lat":40.362,"long":-75.319},{"zip":"18962","city":"Silverdale","state":"PA","lat":40.3445,"long":-75.2687},{"zip":"18963","city":"Solebury","state":"PA","lat":40.3807,"long":-75.0082},{"zip":"18966","city":"Southampton","state":"PA","lat":40.1868,"long":-75.0071},{"zip":"18968","city":"Spinnerstown","state":"PA","lat":40.439,"long":-75.4371},{"zip":"18970","city":"Trumbauersville","state":"PA","lat":40.4107,"long":-75.3782},{"zip":"18972","city":"Upper Black Eddy","state":"PA","lat":40.5411,"long":-75.1259},{"zip":"18974","city":"Warminster","state":"PA","lat":40.2067,"long":-75.0905},{"zip":"18976","city":"Warrington","state":"PA","lat":40.2464,"long":-75.1354},{"zip":"18977","city":"Washington Crossing","state":"PA","lat":40.2849,"long":-74.8778},{"zip":"18980","city":"Wycombe","state":"PA","lat":40.2742,"long":-75.0205},{"zip":"18981","city":"Zionhill","state":"PA","lat":40.4843,"long":-75.3938},{"zip":"18991","city":"Warminster","state":"PA","lat":40.3286,"long":-75.1028},{"zip":"18012","city":"Aquashicola","state":"PA","lat":40.8133,"long":-75.592},{"zip":"18030","city":"Bowmanstown","state":"PA","lat":40.8011,"long":-75.6614},{"zip":"18071","city":"Palmerton","state":"PA","lat":40.817,"long":-75.6011},{"zip":"18210","city":"Albrightsville","state":"PA","lat":40.9748,"long":-75.5842},{"zip":"18212","city":"Ashfield","state":"PA","lat":40.7841,"long":-75.7083},{"zip":"18216","city":"Beaver Meadows","state":"PA","lat":40.9281,"long":-75.9146},{"zip":"18229","city":"Jim Thorpe","state":"PA","lat":40.87,"long":-75.7397},{"zip":"18230","city":"Junedale","state":"PA","lat":40.9234,"long":-75.9416},{"zip":"18232","city":"Lansford","state":"PA","lat":40.8314,"long":-75.8828},{"zip":"18235","city":"Lehighton","state":"PA","lat":40.8299,"long":-75.6974},{"zip":"18240","city":"Nesquehoning","state":"PA","lat":40.8626,"long":-75.8239},{"zip":"18244","city":"Parryville","state":"PA","lat":40.8181,"long":-75.6727},{"zip":"18250","city":"Summit Hill","state":"PA","lat":40.8255,"long":-75.8693},{"zip":"18254","city":"Tresckow","state":"PA","lat":40.9159,"long":-75.9657},{"zip":"18255","city":"Weatherly","state":"PA","lat":40.9411,"long":-75.8306},{"zip":"18624","city":"Lake Harmony","state":"PA","lat":41.0542,"long":-75.6331},{"zip":"18603","city":"Berwick","state":"PA","lat":41.0665,"long":-76.2443},{"zip":"18631","city":"Mifflinville","state":"PA","lat":41.0323,"long":-76.308},{"zip":"18403","city":"Archbald","state":"PA","lat":41.4876,"long":-75.5334},{"zip":"18407","city":"Carbondale","state":"PA","lat":41.5831,"long":-75.5056},{"zip":"18410","city":"Chinchilla","state":"PA","lat":41.4865,"long":-75.6933},{"zip":"18411","city":"Clarks Summit","state":"PA","lat":41.4878,"long":-75.7057},{"zip":"18414","city":"Dalton","state":"PA","lat":41.5395,"long":-75.7037},{"zip":"18416","city":"Elmhurst","state":"PA","lat":41.3756,"long":-75.548},{"zip":"18420","city":"Fleetville","state":"PA","lat":41.5981,"long":-75.7146},{"zip":"18433","city":"Jermyn","state":"PA","lat":41.5744,"long":-75.5881},{"zip":"18434","city":"Jessup","state":"PA","lat":41.4724,"long":-75.5689},{"zip":"18440","city":"La Plume","state":"PA","lat":41.5516,"long":-75.7676},{"zip":"18444","city":"Moscow","state":"PA","lat":41.3432,"long":-75.5301},{"zip":"18447","city":"Olyphant","state":"PA","lat":41.4677,"long":-75.6015},{"zip":"18448","city":"Olyphant","state":"PA","lat":41.4649,"long":-75.5962},{"zip":"18452","city":"Peckville","state":"PA","lat":41.4821,"long":-75.5899},{"zip":"18471","city":"Waverly","state":"PA","lat":41.5238,"long":-75.6906},{"zip":"18501","city":"Scranton","state":"PA","lat":41.4019,"long":-75.6376},{"zip":"18502","city":"Scranton","state":"PA","lat":41.4092,"long":-75.6649},{"zip":"18503","city":"Scranton","state":"PA","lat":41.4095,"long":-75.6642},{"zip":"18504","city":"Scranton","state":"PA","lat":41.4128,"long":-75.6861},{"zip":"18505","city":"Scranton","state":"PA","lat":41.3914,"long":-75.6657},{"zip":"18507","city":"Moosic","state":"PA","lat":41.3554,"long":-75.6805},{"zip":"18508","city":"Scranton","state":"PA","lat":41.4389,"long":-75.6625},{"zip":"18509","city":"Scranton","state":"PA","lat":41.4274,"long":-75.6465},{"zip":"18510","city":"Scranton","state":"PA","lat":41.408,"long":-75.6484},{"zip":"18512","city":"Scranton","state":"PA","lat":41.435,"long":-75.6103},{"zip":"18515","city":"Scranton","state":"PA","lat":41.4035,"long":-75.7065},{"zip":"18517","city":"Taylor","state":"PA","lat":41.3904,"long":-75.7158},{"zip":"18518","city":"Old Forge","state":"PA","lat":41.3701,"long":-75.7391},{"zip":"18519","city":"Scranton","state":"PA","lat":41.4092,"long":-75.6649},{"zip":"18540","city":"Scranton","state":"PA","lat":41.4019,"long":-75.6376},{"zip":"18577","city":"Scranton","state":"PA","lat":41.4019,"long":-75.6376},{"zip":"18653","city":"Ransom","state":"PA","lat":41.3945,"long":-75.8242},{"zip":"18011","city":"Alburtis","state":"PA","lat":40.5145,"long":-75.6029},{"zip":"18025","city":"Bethlehem","state":"PA","lat":40.6259,"long":-75.3705},{"zip":"18031","city":"Breinigsville","state":"PA","lat":40.5526,"long":-75.6553},{"zip":"18032","city":"Catasauqua","state":"PA","lat":40.6557,"long":-75.4693},{"zip":"18034","city":"Center Valley","state":"PA","lat":40.5396,"long":-75.4242},{"zip":"18036","city":"Coopersburg","state":"PA","lat":40.5076,"long":-75.3888},{"zip":"18037","city":"Coplay","state":"PA","lat":40.6701,"long":-75.4955},{"zip":"18046","city":"East Texas","state":"PA","lat":40.5476,"long":-75.5613},{"zip":"18049","city":"Emmaus","state":"PA","lat":40.5293,"long":-75.501},{"zip":"18051","city":"Fogelsville","state":"PA","lat":40.593,"long":-75.6568},{"zip":"18052","city":"Whitehall","state":"PA","lat":40.6567,"long":-75.5041},{"zip":"18053","city":"Germansville","state":"PA","lat":40.7118,"long":-75.7147},{"zip":"18059","city":"Laurys Station","state":"PA","lat":40.7177,"long":-75.5335},{"zip":"18060","city":"Limeport","state":"PA","lat":40.509,"long":-75.4471},{"zip":"18062","city":"Macungie","state":"PA","lat":40.5285,"long":-75.5666},{"zip":"18065","city":"Neffs","state":"PA","lat":40.6967,"long":-75.6116},{"zip":"18066","city":"New Tripoli","state":"PA","lat":40.6545,"long":-75.7417},{"zip":"18068","city":"Old Zionsville","state":"PA","lat":40.6934,"long":-75.4712},{"zip":"18069","city":"Orefield","state":"PA","lat":40.6248,"long":-75.5974},{"zip":"18078","city":"Schnecksville","state":"PA","lat":40.6819,"long":-75.6239},{"zip":"18079","city":"Slatedale","state":"PA","lat":40.7455,"long":-75.6592},{"zip":"18080","city":"Slatington","state":"PA","lat":40.7345,"long":-75.6186},{"zip":"18087","city":"Trexlertown","state":"PA","lat":40.5482,"long":-75.5961},{"zip":"18092","city":"Zionsville","state":"PA","lat":40.4734,"long":-75.5261},{"zip":"18098","city":"Emmaus","state":"PA","lat":40.5395,"long":-75.4969},{"zip":"18099","city":"Emmaus","state":"PA","lat":40.5395,"long":-75.4969},{"zip":"18101","city":"Allentown","state":"PA","lat":40.6026,"long":-75.4691},{"zip":"18102","city":"Allentown","state":"PA","lat":40.6068,"long":-75.4781},{"zip":"18103","city":"Allentown","state":"PA","lat":40.5891,"long":-75.4645},{"zip":"18104","city":"Allentown","state":"PA","lat":40.6018,"long":-75.5225},{"zip":"18105","city":"Allentown","state":"PA","lat":40.6934,"long":-75.4712},{"zip":"18106","city":"Allentown","state":"PA","lat":40.5824,"long":-75.5911},{"zip":"18109","city":"Allentown","state":"PA","lat":40.6366,"long":-75.4405},{"zip":"18195","city":"Allentown","state":"PA","lat":40.5843,"long":-75.6248},{"zip":"18201","city":"Hazleton","state":"PA","lat":40.9488,"long":-75.9563},{"zip":"18202","city":"Hazleton","state":"PA","lat":40.9506,"long":-76.0487},{"zip":"18219","city":"Conyngham","state":"PA","lat":40.9907,"long":-76.0564},{"zip":"18221","city":"Drifton","state":"PA","lat":41.0016,"long":-75.9057},{"zip":"18222","city":"Drums","state":"PA","lat":41.0255,"long":-75.9768},{"zip":"18223","city":"Ebervale","state":"PA","lat":40.9862,"long":-75.9413},{"zip":"18224","city":"Freeland","state":"PA","lat":41.0196,"long":-75.888},{"zip":"18225","city":"Harleigh","state":"PA","lat":40.9806,"long":-75.9713},{"zip":"18234","city":"Lattimer Mines","state":"PA","lat":40.9925,"long":-75.9626},{"zip":"18239","city":"Milnesville","state":"PA","lat":40.9961,"long":-75.9815},{"zip":"18246","city":"Rock Glen","state":"PA","lat":40.954,"long":-76.1747},{"zip":"18247","city":"Saint Johns","state":"PA","lat":41.0281,"long":-76.006},{"zip":"18249","city":"Sugarloaf","state":"PA","lat":40.9971,"long":-76.0717},{"zip":"18251","city":"Sybertsville","state":"PA","lat":41.0015,"long":-76.0763},{"zip":"18256","city":"Weston","state":"PA","lat":40.9448,"long":-76.1452},{"zip":"18601","city":"Beach Haven","state":"PA","lat":41.0684,"long":-76.1758},{"zip":"18602","city":"Bear Creek","state":"PA","lat":41.1922,"long":-75.7161},{"zip":"18611","city":"Cambra","state":"PA","lat":41.1981,"long":-76.3058},{"zip":"18612","city":"Dallas","state":"PA","lat":41.3494,"long":-75.9834},{"zip":"18617","city":"Glen Lyon","state":"PA","lat":41.1746,"long":-76.0746},{"zip":"18618","city":"Harveys Lake","state":"PA","lat":41.3592,"long":-76.0451},{"zip":"18621","city":"Hunlock Creek","state":"PA","lat":41.2459,"long":-76.0879},{"zip":"18622","city":"Huntington Mills","state":"PA","lat":41.1906,"long":-76.2335},{"zip":"18627","city":"Lehman","state":"PA","lat":41.3166,"long":-76.021},{"zip":"18634","city":"Nanticoke","state":"PA","lat":41.1963,"long":-76.0044},{"zip":"18635","city":"Nescopeck","state":"PA","lat":41.0469,"long":-76.1981},{"zip":"18640","city":"Pittston","state":"PA","lat":41.3175,"long":-75.7885},{"zip":"18641","city":"Pittston","state":"PA","lat":41.3361,"long":-75.7304},{"zip":"18642","city":"Duryea","state":"PA","lat":41.3486,"long":-75.7611},{"zip":"18643","city":"Pittston","state":"PA","lat":41.3665,"long":-75.8362},{"zip":"18644","city":"Wyoming","state":"PA","lat":41.3197,"long":-75.8541},{"zip":"18651","city":"Plymouth","state":"PA","lat":41.2458,"long":-75.9481},{"zip":"18654","city":"Shawanese","state":"PA","lat":41.3501,"long":-76.0319},{"zip":"18655","city":"Shickshinny","state":"PA","lat":41.1513,"long":-76.1081},{"zip":"18656","city":"Sweet Valley","state":"PA","lat":41.3066,"long":-76.1339},{"zip":"18660","city":"Wapwallopen","state":"PA","lat":41.068,"long":-76.0857},{"zip":"18661","city":"White Haven","state":"PA","lat":41.079,"long":-75.7715},{"zip":"18690","city":"Dallas","state":"PA","lat":41.3362,"long":-75.9633},{"zip":"18701","city":"Wilkes Barre","state":"PA","lat":41.2436,"long":-75.885},{"zip":"18702","city":"Wilkes Barre","state":"PA","lat":41.2208,"long":-75.7736},{"zip":"18703","city":"Wilkes Barre","state":"PA","lat":41.2421,"long":-75.8857},{"zip":"18704","city":"Kingston","state":"PA","lat":41.2742,"long":-75.8903},{"zip":"18705","city":"Wilkes Barre","state":"PA","lat":41.2689,"long":-75.8453},{"zip":"18706","city":"Wilkes Barre","state":"PA","lat":41.2044,"long":-75.9113},{"zip":"18707","city":"Mountain Top","state":"PA","lat":41.135,"long":-75.9376},{"zip":"18708","city":"Shavertown","state":"PA","lat":41.2998,"long":-75.9711},{"zip":"18709","city":"Luzerne","state":"PA","lat":41.2843,"long":-75.8935},{"zip":"18710","city":"Wilkes Barre","state":"PA","lat":41.2722,"long":-75.8801},{"zip":"18711","city":"Wilkes Barre","state":"PA","lat":41.2722,"long":-75.8801},{"zip":"18762","city":"Wilkes Barre","state":"PA","lat":41.2722,"long":-75.8801},{"zip":"18764","city":"Wilkes Barre","state":"PA","lat":41.2722,"long":-75.8801},{"zip":"18765","city":"Wilkes Barre","state":"PA","lat":41.2722,"long":-75.8801},{"zip":"18766","city":"Wilkes Barre","state":"PA","lat":41.2448,"long":-75.8896},{"zip":"18767","city":"Wilkes Barre","state":"PA","lat":41.2722,"long":-75.8801},{"zip":"18769","city":"Wilkes Barre","state":"PA","lat":41.2722,"long":-75.8801},{"zip":"18773","city":"Wilkes Barre","state":"PA","lat":41.2722,"long":-75.8801},{"zip":"18058","city":"Kunkletown","state":"PA","lat":40.8999,"long":-75.476},{"zip":"18301","city":"East Stroudsburg","state":"PA","lat":41.0367,"long":-75.1735},{"zip":"18320","city":"Analomink","state":"PA","lat":41.0712,"long":-75.2364},{"zip":"18321","city":"Bartonsville","state":"PA","lat":41.008,"long":-75.2967},{"zip":"18322","city":"Brodheadsville","state":"PA","lat":40.9309,"long":-75.4104},{"zip":"18323","city":"Buck Hill Falls","state":"PA","lat":41.0338,"long":-75.308},{"zip":"18325","city":"Canadensis","state":"PA","lat":41.2338,"long":-75.2573},{"zip":"18326","city":"Cresco","state":"PA","lat":41.154,"long":-75.2805},{"zip":"18327","city":"Delaware Water Gap","state":"PA","lat":40.9793,"long":-75.143},{"zip":"18330","city":"Effort","state":"PA","lat":40.9669,"long":-75.4523},{"zip":"18331","city":"Gilbert","state":"PA","lat":40.9089,"long":-75.4314},{"zip":"18332","city":"Henryville","state":"PA","lat":41.0889,"long":-75.2798},{"zip":"18333","city":"Kresgeville","state":"PA","lat":40.8982,"long":-75.5074},{"zip":"18334","city":"Long Pond","state":"PA","lat":41.0677,"long":-75.4482},{"zip":"18335","city":"Marshalls Creek","state":"PA","lat":41.0508,"long":-75.2083},{"zip":"18341","city":"Minisink Hills","state":"PA","lat":41.0004,"long":-75.1371},{"zip":"18342","city":"Mountainhome","state":"PA","lat":41.1458,"long":-75.2941},{"zip":"18344","city":"Mount Pocono","state":"PA","lat":41.1216,"long":-75.3529},{"zip":"18346","city":"Pocono Summit","state":"PA","lat":41.1353,"long":-75.4079},{"zip":"18347","city":"Pocono Lake","state":"PA","lat":41.1187,"long":-75.5559},{"zip":"18348","city":"Pocono Lake Preserve","state":"PA","lat":41.0338,"long":-75.308},{"zip":"18349","city":"Pocono Manor","state":"PA","lat":41.1001,"long":-75.3588},{"zip":"18350","city":"Pocono Pines","state":"PA","lat":41.1054,"long":-75.476},{"zip":"18352","city":"Reeders","state":"PA","lat":40.9863,"long":-75.348},{"zip":"18353","city":"Saylorsburg","state":"PA","lat":40.8965,"long":-75.367},{"zip":"18354","city":"Sciota","state":"PA","lat":40.9257,"long":-75.325},{"zip":"18355","city":"Scotrun","state":"PA","lat":41.0751,"long":-75.3265},{"zip":"18356","city":"Shawnee On Delaware","state":"PA","lat":41.0312,"long":-75.0974},{"zip":"18357","city":"Skytop","state":"PA","lat":41.2336,"long":-75.2389},{"zip":"18360","city":"Stroudsburg","state":"PA","lat":40.9877,"long":-75.2485},{"zip":"18370","city":"Swiftwater","state":"PA","lat":41.0879,"long":-75.3483},{"zip":"18372","city":"Tannersville","state":"PA","lat":41.0472,"long":-75.3244},{"zip":"18466","city":"Tobyhanna","state":"PA","lat":41.1836,"long":-75.3918},{"zip":"18610","city":"Blakeslee","state":"PA","lat":41.0485,"long":-75.5343},{"zip":"18041","city":"East Greenville","state":"PA","lat":40.4119,"long":-75.5056},{"zip":"18054","city":"Green Lane","state":"PA","lat":40.3534,"long":-75.4351},{"zip":"18070","city":"Palm","state":"PA","lat":40.4317,"long":-75.5331},{"zip":"18073","city":"Pennsburg","state":"PA","lat":40.3911,"long":-75.4866},{"zip":"18074","city":"Perkiomenville","state":"PA","lat":40.3157,"long":-75.5022},{"zip":"18076","city":"Red Hill","state":"PA","lat":40.3758,"long":-75.4846},{"zip":"18084","city":"Sumneytown","state":"PA","lat":40.3278,"long":-75.454},{"zip":"18915","city":"Colmar","state":"PA","lat":40.2728,"long":-75.2563},{"zip":"18918","city":"Earlington","state":"PA","lat":40.32,"long":-75.3742},{"zip":"18924","city":"Franconia","state":"PA","lat":40.3081,"long":-75.3586},{"zip":"18936","city":"Montgomeryville","state":"PA","lat":40.2241,"long":-75.231},{"zip":"18957","city":"Salford","state":"PA","lat":40.3029,"long":-75.4486},{"zip":"18958","city":"Salfordville","state":"PA","lat":40.2904,"long":-75.4355},{"zip":"18964","city":"Souderton","state":"PA","lat":40.2884,"long":-75.341},{"zip":"18969","city":"Telford","state":"PA","lat":40.3205,"long":-75.352},{"zip":"18971","city":"Tylersport","state":"PA","lat":40.347,"long":-75.377},{"zip":"18979","city":"Woxall","state":"PA","lat":40.3107,"long":-75.4488},{"zip":"18001","city":"Lehigh Valley","state":"PA","lat":40.6934,"long":-75.4712},{"zip":"18002","city":"Lehigh Valley","state":"PA","lat":40.6656,"long":-75.4262},{"zip":"18003","city":"Lehigh Valley","state":"PA","lat":40.6934,"long":-75.4712},{"zip":"18013","city":"Bangor","state":"PA","lat":40.853,"long":-75.1718},{"zip":"18014","city":"Bath","state":"PA","lat":40.7551,"long":-75.4086},{"zip":"18015","city":"Bethlehem","state":"PA","lat":40.6002,"long":-75.3805},{"zip":"18016","city":"Bethlehem","state":"PA","lat":40.6934,"long":-75.4712},{"zip":"18017","city":"Bethlehem","state":"PA","lat":40.6622,"long":-75.3903},{"zip":"18018","city":"Bethlehem","state":"PA","lat":40.6278,"long":-75.3928},{"zip":"18020","city":"Bethlehem","state":"PA","lat":40.6693,"long":-75.3349},{"zip":"18035","city":"Cherryville","state":"PA","lat":40.751,"long":-75.5394},{"zip":"18038","city":"Danielsville","state":"PA","lat":40.7866,"long":-75.5186},{"zip":"18040","city":"Easton","state":"PA","lat":40.7449,"long":-75.2217},{"zip":"18042","city":"Easton","state":"PA","lat":40.6516,"long":-75.224},{"zip":"18043","city":"Easton","state":"PA","lat":40.6884,"long":-75.2207},{"zip":"18044","city":"Easton","state":"PA","lat":40.6884,"long":-75.2207},{"zip":"18045","city":"Easton","state":"PA","lat":40.6957,"long":-75.2865},{"zip":"18055","city":"Hellertown","state":"PA","lat":40.5817,"long":-75.3255},{"zip":"18063","city":"Martins Creek","state":"PA","lat":40.7825,"long":-75.1735},{"zip":"18064","city":"Nazareth","state":"PA","lat":40.745,"long":-75.3199},{"zip":"18067","city":"Northampton","state":"PA","lat":40.6998,"long":-75.4874},{"zip":"18072","city":"Pen Argyl","state":"PA","lat":40.8518,"long":-75.2701},{"zip":"18083","city":"Stockertown","state":"PA","lat":40.754,"long":-75.2621},{"zip":"18085","city":"Tatamy","state":"PA","lat":40.7406,"long":-75.2549},{"zip":"18086","city":"Treichlers","state":"PA","lat":40.7361,"long":-75.5449},{"zip":"18088","city":"Walnutport","state":"PA","lat":40.7615,"long":-75.5657},{"zip":"18091","city":"Wind Gap","state":"PA","lat":40.8169,"long":-75.3264},{"zip":"18343","city":"Mount Bethel","state":"PA","lat":40.9008,"long":-75.1115},{"zip":"18351","city":"Portland","state":"PA","lat":40.9214,"long":-75.097},{"zip":"18302","city":"East Stroudsburg","state":"PA","lat":41.0936,"long":-75.1187},{"zip":"18324","city":"Bushkill","state":"PA","lat":41.1285,"long":-75.0132},{"zip":"18328","city":"Dingmans Ferry","state":"PA","lat":41.24,"long":-74.938},{"zip":"18336","city":"Matamoras","state":"PA","lat":41.3674,"long":-74.7154},{"zip":"18337","city":"Milford","state":"PA","lat":41.3228,"long":-74.8824},{"zip":"18340","city":"Millrift","state":"PA","lat":41.4093,"long":-74.7432},{"zip":"18371","city":"Tamiment","state":"PA","lat":41.1423,"long":-75.0271},{"zip":"18425","city":"Greeley","state":"PA","lat":41.4372,"long":-75.0125},{"zip":"18426","city":"Greentown","state":"PA","lat":41.3321,"long":-75.2819},{"zip":"18435","city":"Lackawaxen","state":"PA","lat":41.482,"long":-74.986},{"zip":"18451","city":"Paupack","state":"PA","lat":41.3962,"long":-75.1963},{"zip":"18457","city":"Rowland","state":"PA","lat":41.4719,"long":-75.0485},{"zip":"18458","city":"Shohola","state":"PA","lat":41.4182,"long":-74.918},{"zip":"18464","city":"Tafton","state":"PA","lat":41.4045,"long":-75.183},{"zip":"18211","city":"Andreas","state":"PA","lat":40.7465,"long":-75.8342},{"zip":"18214","city":"Barnesville","state":"PA","lat":40.8138,"long":-76.0611},{"zip":"18218","city":"Coaldale","state":"PA","lat":40.8219,"long":-75.9104},{"zip":"18220","city":"Delano","state":"PA","lat":40.8389,"long":-76.0694},{"zip":"18231","city":"Kelayres","state":"PA","lat":40.9002,"long":-76.0054},{"zip":"18237","city":"Mcadoo","state":"PA","lat":40.8979,"long":-75.9971},{"zip":"18241","city":"Nuremberg","state":"PA","lat":40.9395,"long":-76.1716},{"zip":"18242","city":"Oneida","state":"PA","lat":40.911,"long":-76.1223},{"zip":"18245","city":"Quakake","state":"PA","lat":40.8518,"long":-76.036},{"zip":"18248","city":"Sheppton","state":"PA","lat":40.902,"long":-76.1188},{"zip":"18252","city":"Tamaqua","state":"PA","lat":40.7983,"long":-75.9735},{"zip":"18614","city":"Dushore","state":"PA","lat":41.5232,"long":-76.4021},{"zip":"18616","city":"Forksville","state":"PA","lat":41.5269,"long":-76.6008},{"zip":"18619","city":"Hillsgrove","state":"PA","lat":41.4482,"long":-76.6979},{"zip":"18626","city":"Laporte","state":"PA","lat":41.4329,"long":-76.5169},{"zip":"18628","city":"Lopez","state":"PA","lat":41.418,"long":-76.3002},{"zip":"18632","city":"Mildred","state":"PA","lat":41.4792,"long":-76.3831},{"zip":"18413","city":"Clifford","state":"PA","lat":41.649,"long":-75.5988},{"zip":"18421","city":"Forest City","state":"PA","lat":41.6515,"long":-75.4666},{"zip":"18430","city":"Herrick Center","state":"PA","lat":41.7643,"long":-75.5044},{"zip":"18441","city":"Lenoxville","state":"PA","lat":41.6595,"long":-75.6282},{"zip":"18465","city":"Thompson","state":"PA","lat":41.834,"long":-75.5342},{"zip":"18470","city":"Union Dale","state":"PA","lat":41.7079,"long":-75.5465},{"zip":"18801","city":"Montrose","state":"PA","lat":41.8396,"long":-75.8821},{"zip":"18812","city":"Brackney","state":"PA","lat":41.9666,"long":-75.9375},{"zip":"18813","city":"Brooklyn","state":"PA","lat":41.7512,"long":-75.8069},{"zip":"18816","city":"Dimock","state":"PA","lat":41.8203,"long":-75.8046},{"zip":"18818","city":"Friendsville","state":"PA","lat":41.9164,"long":-76.0257},{"zip":"18820","city":"Gibson","state":"PA","lat":41.8034,"long":-75.6441},{"zip":"18821","city":"Great Bend","state":"PA","lat":41.9717,"long":-75.7432},{"zip":"18822","city":"Hallstead","state":"PA","lat":41.9598,"long":-75.7826},{"zip":"18823","city":"Harford","state":"PA","lat":41.7761,"long":-75.6935},{"zip":"18824","city":"Hop Bottom","state":"PA","lat":41.6932,"long":-75.7897},{"zip":"18825","city":"Jackson","state":"PA","lat":41.8203,"long":-75.8046},{"zip":"18826","city":"Kingsley","state":"PA","lat":41.7659,"long":-75.7831},{"zip":"18827","city":"Lanesboro","state":"PA","lat":41.957,"long":-75.5849},{"zip":"18828","city":"Lawton","state":"PA","lat":41.7573,"long":-76.0912},{"zip":"18830","city":"Little Meadows","state":"PA","lat":41.9766,"long":-76.1185},{"zip":"18834","city":"New Milford","state":"PA","lat":41.8664,"long":-75.7171},{"zip":"18842","city":"South Gibson","state":"PA","lat":41.7342,"long":-75.6302},{"zip":"18843","city":"South Montrose","state":"PA","lat":41.7973,"long":-75.8913},{"zip":"18844","city":"Springville","state":"PA","lat":41.7147,"long":-75.9025},{"zip":"18847","city":"Susquehanna","state":"PA","lat":41.9487,"long":-75.5862},{"zip":"18405","city":"Beach Lake","state":"PA","lat":41.6034,"long":-75.1165},{"zip":"18415","city":"Damascus","state":"PA","lat":41.7366,"long":-75.1312},{"zip":"18417","city":"Equinunk","state":"PA","lat":41.8117,"long":-75.1891},{"zip":"18424","city":"Gouldsboro","state":"PA","lat":41.2448,"long":-75.5037},{"zip":"18427","city":"Hamlin","state":"PA","lat":41.4047,"long":-75.4069},{"zip":"18428","city":"Hawley","state":"PA","lat":41.4787,"long":-75.1978},{"zip":"18431","city":"Honesdale","state":"PA","lat":41.5792,"long":-75.2528},{"zip":"18436","city":"Lake Ariel","state":"PA","lat":41.4395,"long":-75.4313},{"zip":"18437","city":"Lake Como","state":"PA","lat":41.8666,"long":-75.3231},{"zip":"18438","city":"Lakeville","state":"PA","lat":41.4223,"long":-75.2607},{"zip":"18439","city":"Lakewood","state":"PA","lat":41.8171,"long":-75.3838},{"zip":"18443","city":"Milanville","state":"PA","lat":41.667,"long":-75.1185},{"zip":"18445","city":"Newfoundland","state":"PA","lat":41.3041,"long":-75.3384},{"zip":"18449","city":"Orson","state":"PA","lat":41.8137,"long":-75.448},{"zip":"18453","city":"Pleasant Mount","state":"PA","lat":41.7322,"long":-75.3989},{"zip":"18454","city":"Poyntelle","state":"PA","lat":41.8206,"long":-75.4199},{"zip":"18455","city":"Preston Park","state":"PA","lat":41.8867,"long":-75.356},{"zip":"18456","city":"Prompton","state":"PA","lat":41.582,"long":-75.3207},{"zip":"18459","city":"South Canaan","state":"PA","lat":41.616,"long":-75.2747},{"zip":"18460","city":"South Sterling","state":"PA","lat":41.2592,"long":-75.3731},{"zip":"18461","city":"Starlight","state":"PA","lat":41.9251,"long":-75.3212},{"zip":"18462","city":"Starrucca","state":"PA","lat":41.8907,"long":-75.449},{"zip":"18463","city":"Sterling","state":"PA","lat":41.377,"long":-75.316},{"zip":"18469","city":"Tyler Hill","state":"PA","lat":41.7011,"long":-75.1422},{"zip":"18472","city":"Waymart","state":"PA","lat":41.5703,"long":-75.4065},{"zip":"18473","city":"White Mills","state":"PA","lat":41.5262,"long":-75.2035},{"zip":"18419","city":"Factoryville","state":"PA","lat":41.5762,"long":-75.7652},{"zip":"18446","city":"Nicholson","state":"PA","lat":41.6412,"long":-75.7641},{"zip":"18615","city":"Falls","state":"PA","lat":41.4667,"long":-75.856},{"zip":"18623","city":"Laceyville","state":"PA","lat":41.6662,"long":-76.1426},{"zip":"18625","city":"Lake Winola","state":"PA","lat":41.5096,"long":-75.8508},{"zip":"18629","city":"Mehoopany","state":"PA","lat":41.5587,"long":-76.1035},{"zip":"18630","city":"Meshoppen","state":"PA","lat":41.6392,"long":-76.0155},{"zip":"18636","city":"Noxen","state":"PA","lat":41.4181,"long":-76.046},{"zip":"18657","city":"Tunkhannock","state":"PA","lat":41.5387,"long":-75.9466}]
