[{"zip":"18056","city":"Hereford","state":"PA","lat":40.4491,"long":-75.5491},{"zip":"18039","city":"Durham","state":"PA","lat":40.5757,"long":-75.2232},{"zip":"18077","city":"Riegelsville","state":"PA","lat":40.5782,"long":-75.2191},{"zip":"18081","city":"Springtown","state":"PA","lat":40.5565,"long":-75.2893},{"zip":"18012","city":"Aquashicola","state":"PA","lat":40.8133,"long":-75.592},{"zip":"18030","city":"Bowmanstown","state":"PA","lat":40.8011,"long":-75.6614},{"zip":"18071","city":"Palmerton","state":"PA","lat":40.817,"long":-75.6011},{"zip":"18011","city":"Alburtis","state":"PA","lat":40.5145,"long":-75.6029},{"zip":"18025","city":"Bethlehem","state":"PA","lat":40.6259,"long":-75.3705},{"zip":"18031","city":"Breinigsville","state":"PA","lat":40.5526,"long":-75.6553},{"zip":"18032","city":"Catasauqua","state":"PA","lat":40.6557,"long":-75.4693},{"zip":"18034","city":"Center Valley","state":"PA","lat":40.5396,"long":-75.4242},{"zip":"18036","city":"Coopersburg","state":"PA","lat":40.5076,"long":-75.3888},{"zip":"18037","city":"Coplay","state":"PA","lat":40.6701,"long":-75.4955},{"zip":"18046","city":"East Texas","state":"PA","lat":40.5476,"long":-75.5613},{"zip":"18049","city":"Emmaus","state":"PA","lat":40.5293,"long":-75.501},{"zip":"18051","city":"Fogelsville","state":"PA","lat":40.593,"long":-75.6568},{"zip":"18052","city":"Whitehall","state":"PA","lat":40.6567,"long":-75.5041},{"zip":"18053","city":"Germansville","state":"PA","lat":40.7118,"long":-75.7147},{"zip":"18059","city":"Laurys Station","state":"PA","lat":40.7177,"long":-75.5335},{"zip":"18060","city":"Limeport","state":"PA","lat":40.509,"long":-75.4471},{"zip":"18062","city":"Macungie","state":"PA","lat":40.5285,"long":-75.5666},{"zip":"18065","city":"Neffs","state":"PA","lat":40.6967,"long":-75.6116},{"zip":"18066","city":"New Tripoli","state":"PA","lat":40.6545,"long":-75.7417},{"zip":"18068","city":"Old Zionsville","state":"PA","lat":40.6934,"long":-75.4712},{"zip":"18069","city":"Orefield","state":"PA","lat":40.6248,"long":-75.5974},{"zip":"18078","city":"Schnecksville","state":"PA","lat":40.6819,"long":-75.6239},{"zip":"18079","city":"Slatedale","state":"PA","lat":40.7455,"long":-75.6592},{"zip":"18080","city":"Slatington","state":"PA","lat":40.7345,"long":-75.6186},{"zip":"18087","city":"Trexlertown","state":"PA","lat":40.5482,"long":-75.5961},{"zip":"18092","city":"Zionsville","state":"PA","lat":40.4734,"long":-75.5261},{"zip":"18098","city":"Emmaus","state":"PA","lat":40.5395,"long":-75.4969},{"zip":"18099","city":"Emmaus","state":"PA","lat":40.5395,"long":-75.4969},{"zip":"18058","city":"Kunkletown","state":"PA","lat":40.8999,"long":-75.476},{"zip":"18041","city":"East Greenville","state":"PA","lat":40.4119,"long":-75.5056},{"zip":"18054","city":"Green Lane","state":"PA","lat":40.3534,"long":-75.4351},{"zip":"18070","city":"Palm","state":"PA","lat":40.4317,"long":-75.5331},{"zip":"18073","city":"Pennsburg","state":"PA","lat":40.3911,"long":-75.4866},{"zip":"18074","city":"Perkiomenville","state":"PA","lat":40.3157,"long":-75.5022},{"zip":"18076","city":"Red Hill","state":"PA","lat":40.3758,"long":-75.4846},{"zip":"18084","city":"Sumneytown","state":"PA","lat":40.3278,"long":-75.454},{"zip":"18001","city":"Lehigh Valley","state":"PA","lat":40.6934,"long":-75.4712},{"zip":"18002","city":"Lehigh Valley","state":"PA","lat":40.6656,"long":-75.4262},{"zip":"18003","city":"Lehigh Valley","state":"PA","lat":40.6934,"long":-75.4712},{"zip":"18013","city":"Bangor","state":"PA","lat":40.853,"long":-75.1718},{"zip":"18014","city":"Bath","state":"PA","lat":40.7551,"long":-75.4086},{"zip":"18015","city":"Bethlehem","state":"PA","lat":40.6002,"long":-75.3805},{"zip":"18016","city":"Bethlehem","state":"PA","lat":40.6934,"long":-75.4712},{"zip":"18017","city":"Bethlehem","state":"PA","lat":40.6622,"long":-75.3903},{"zip":"18018","city":"Bethlehem","state":"PA","lat":40.6278,"long":-75.3928},{"zip":"18020","city":"Bethlehem","state":"PA","lat":40.6693,"long":-75.3349},{"zip":"18035","city":"Cherryville","state":"PA","lat":40.751,"long":-75.5394},{"zip":"18038","city":"Danielsville","state":"PA","lat":40.7866,"long":-75.5186},{"zip":"18040","city":"Easton","state":"PA","lat":40.7449,"long":-75.2217},{"zip":"18042","city":"Easton","state":"PA","lat":40.6516,"long":-75.224},{"zip":"18043","city":"Easton","state":"PA","lat":40.6884,"long":-75.2207},{"zip":"18044","city":"Easton","state":"PA","lat":40.6884,"long":-75.2207},{"zip":"18045","city":"Easton","state":"PA","lat":40.6957,"long":-75.2865},{"zip":"18055","city":"Hellertown","state":"PA","lat":40.5817,"long":-75.3255},{"zip":"18063","city":"Martins Creek","state":"PA","lat":40.7825,"long":-75.1735},{"zip":"18064","city":"Nazareth","state":"PA","lat":40.745,"long":-75.3199},{"zip":"18067","city":"Northampton","state":"PA","lat":40.6998,"long":-75.4874},{"zip":"18072","city":"Pen Argyl","state":"PA","lat":40.8518,"long":-75.2701},{"zip":"18083","city":"Stockertown","state":"PA","lat":40.754,"long":-75.2621},{"zip":"18085","city":"Tatamy","state":"PA","lat":40.7406,"long":-75.2549},{"zip":"18086","city":"Treichlers","state":"PA","lat":40.7361,"long":-75.5449},{"zip":"18088","city":"Walnutport","state":"PA","lat":40.7615,"long":-75.5657},{"zip":"18091","city":"Wind Gap","state":"PA","lat":40.8169,"long":-75.3264}]
