[{"zip":"18210","city":"Albrightsville","state":"PA","lat":40.9748,"long":-75.5842},{"zip":"18212","city":"Ashfield","state":"PA","lat":40.7841,"long":-75.7083},{"zip":"18216","city":"Beaver Meadows","state":"PA","lat":40.9281,"long":-75.9146},{"zip":"18229","city":"Jim Thorpe","state":"PA","lat":40.87,"long":-75.7397},{"zip":"18230","city":"Junedale","state":"PA","lat":40.9234,"long":-75.9416},{"zip":"18232","city":"Lansford","state":"PA","lat":40.8314,"long":-75.8828},{"zip":"18235","city":"Lehighton","state":"PA","lat":40.8299,"long":-75.6974},{"zip":"18240","city":"Nesquehoning","state":"PA","lat":40.8626,"long":-75.8239},{"zip":"18244","city":"Parryville","state":"PA","lat":40.8181,"long":-75.6727},{"zip":"18250","city":"Summit Hill","state":"PA","lat":40.8255,"long":-75.8693},{"zip":"18254","city":"Tresckow","state":"PA","lat":40.9159,"long":-75.9657},{"zip":"18255","city":"Weatherly","state":"PA","lat":40.9411,"long":-75.8306},{"zip":"18201","city":"Hazleton","state":"PA","lat":40.9488,"long":-75.9563},{"zip":"18202","city":"Hazleton","state":"PA","lat":40.9506,"long":-76.0487},{"zip":"18219","city":"Conyngham","state":"PA","lat":40.9907,"long":-76.0564},{"zip":"18221","city":"Drifton","state":"PA","lat":41.0016,"long":-75.9057},{"zip":"18222","city":"Drums","state":"PA","lat":41.0255,"long":-75.9768},{"zip":"18223","city":"Ebervale","state":"PA","lat":40.9862,"long":-75.9413},{"zip":"18224","city":"Freeland","state":"PA","lat":41.0196,"long":-75.888},{"zip":"18225","city":"Harleigh","state":"PA","lat":40.9806,"long":-75.9713},{"zip":"18234","city":"Lattimer Mines","state":"PA","lat":40.9925,"long":-75.9626},{"zip":"18239","city":"Milnesville","state":"PA","lat":40.9961,"long":-75.9815},{"zip":"18246","city":"Rock Glen","state":"PA","lat":40.954,"long":-76.1747},{"zip":"18247","city":"Saint Johns","state":"PA","lat":41.0281,"long":-76.006},{"zip":"18249","city":"Sugarloaf","state":"PA","lat":40.9971,"long":-76.0717},{"zip":"18251","city":"Sybertsville","state":"PA","lat":41.0015,"long":-76.0763},{"zip":"18256","city":"Weston","state":"PA","lat":40.9448,"long":-76.1452},{"zip":"18211","city":"Andreas","state":"PA","lat":40.7465,"long":-75.8342},{"zip":"18214","city":"Barnesville","state":"PA","lat":40.8138,"long":-76.0611},{"zip":"18218","city":"Coaldale","state":"PA","lat":40.8219,"long":-75.9104},{"zip":"18220","city":"Delano","state":"PA","lat":40.8389,"long":-76.0694},{"zip":"18231","city":"Kelayres","state":"PA","lat":40.9002,"long":-76.0054},{"zip":"18237","city":"Mcadoo","state":"PA","lat":40.8979,"long":-75.9971},{"zip":"18241","city":"Nuremberg","state":"PA","lat":40.9395,"long":-76.1716},{"zip":"18242","city":"Oneida","state":"PA","lat":40.911,"long":-76.1223},{"zip":"18245","city":"Quakake","state":"PA","lat":40.8518,"long":-76.036},{"zip":"18248","city":"Sheppton","state":"PA","lat":40.902,"long":-76.1188},{"zip":"18252","city":"Tamaqua","state":"PA","lat":40.7983,"long":-75.9735}]
