[{"zip":"18301","city":"East Stroudsburg","state":"PA","lat":41.0367,"long":-75.1735},{"zip":"18320","city":"Analomink","state":"PA","lat":41.0712,"long":-75.2364},{"zip":"18321","city":"Bartonsville","state":"PA","lat":41.008,"long":-75.2967},{"zip":"18322","city":"Brodheadsville","state":"PA","lat":40.9309,"long":-75.4104},{"zip":"18323","city":"Buck Hill Falls","state":"PA","lat":41.0338,"long":-75.308},{"zip":"18325","city":"Canadensis","state":"PA","lat":41.2338,"long":-75.2573},{"zip":"18326","city":"Cresco","state":"PA","lat":41.154,"long":-75.2805},{"zip":"18327","city":"Delaware Water Gap","state":"PA","lat":40.9793,"long":-75.143},{"zip":"18330","city":"Effort","state":"PA","lat":40.9669,"long":-75.4523},{"zip":"18331","city":"Gilbert","state":"PA","lat":40.9089,"long":-75.4314},{"zip":"18332","city":"Henryville","state":"PA","lat":41.0889,"long":-75.2798},{"zip":"18333","city":"Kresgeville","state":"PA","lat":40.8982,"long":-75.5074},{"zip":"18334","city":"Long Pond","state":"PA","lat":41.0677,"long":-75.4482},{"zip":"18335","city":"Marshalls Creek","state":"PA","lat":41.0508,"long":-75.2083},{"zip":"18341","city":"Minisink Hills","state":"PA","lat":41.0004,"long":-75.1371},{"zip":"18342","city":"Mountainhome","state":"PA","lat":41.1458,"long":-75.2941},{"zip":"18344","city":"Mount Pocono","state":"PA","lat":41.1216,"long":-75.3529},{"zip":"18346","city":"Pocono Summit","state":"PA","lat":41.1353,"long":-75.4079},{"zip":"18347","city":"Pocono Lake","state":"PA","lat":41.1187,"long":-75.5559},{"zip":"18348","city":"Pocono Lake Preserve","state":"PA","lat":41.0338,"long":-75.308},{"zip":"18349","city":"Pocono Manor","state":"PA","lat":41.1001,"long":-75.3588},{"zip":"18350","city":"Pocono Pines","state":"PA","lat":41.1054,"long":-75.476},{"zip":"18352","city":"Reeders","state":"PA","lat":40.9863,"long":-75.348},{"zip":"18353","city":"Saylorsburg","state":"PA","lat":40.8965,"long":-75.367},{"zip":"18354","city":"Sciota","state":"PA","lat":40.9257,"long":-75.325},{"zip":"18355","city":"Scotrun","state":"PA","lat":41.0751,"long":-75.3265},{"zip":"18356","city":"Shawnee On Delaware","state":"PA","lat":41.0312,"long":-75.0974},{"zip":"18357","city":"Skytop","state":"PA","lat":41.2336,"long":-75.2389},{"zip":"18360","city":"Stroudsburg","state":"PA","lat":40.9877,"long":-75.2485},{"zip":"18370","city":"Swiftwater","state":"PA","lat":41.0879,"long":-75.3483},{"zip":"18372","city":"Tannersville","state":"PA","lat":41.0472,"long":-75.3244},{"zip":"18343","city":"Mount Bethel","state":"PA","lat":40.9008,"long":-75.1115},{"zip":"18351","city":"Portland","state":"PA","lat":40.9214,"long":-75.097},{"zip":"18302","city":"East Stroudsburg","state":"PA","lat":41.0936,"long":-75.1187},{"zip":"18324","city":"Bushkill","state":"PA","lat":41.1285,"long":-75.0132},{"zip":"18328","city":"Dingmans Ferry","state":"PA","lat":41.24,"long":-74.938},{"zip":"18336","city":"Matamoras","state":"PA","lat":41.3674,"long":-74.7154},{"zip":"18337","city":"Milford","state":"PA","lat":41.3228,"long":-74.8824},{"zip":"18340","city":"Millrift","state":"PA","lat":41.4093,"long":-74.7432},{"zip":"18371","city":"Tamiment","state":"PA","lat":41.1423,"long":-75.0271}]
