[{"zip":"18403","city":"Archbald","state":"PA","lat":41.4876,"long":-75.5334},{"zip":"18407","city":"Carbondale","state":"PA","lat":41.5831,"long":-75.5056},{"zip":"18410","city":"Chinchilla","state":"PA","lat":41.4865,"long":-75.6933},{"zip":"18411","city":"Clarks Summit","state":"PA","lat":41.4878,"long":-75.7057},{"zip":"18414","city":"Dalton","state":"PA","lat":41.5395,"long":-75.7037},{"zip":"18416","city":"Elmhurst","state":"PA","lat":41.3756,"long":-75.548},{"zip":"18420","city":"Fleetville","state":"PA","lat":41.5981,"long":-75.7146},{"zip":"18433","city":"Jermyn","state":"PA","lat":41.5744,"long":-75.5881},{"zip":"18434","city":"Jessup","state":"PA","lat":41.4724,"long":-75.5689},{"zip":"18440","city":"La Plume","state":"PA","lat":41.5516,"long":-75.7676},{"zip":"18444","city":"Moscow","state":"PA","lat":41.3432,"long":-75.5301},{"zip":"18447","city":"Olyphant","state":"PA","lat":41.4677,"long":-75.6015},{"zip":"18448","city":"Olyphant","state":"PA","lat":41.4649,"long":-75.5962},{"zip":"18452","city":"Peckville","state":"PA","lat":41.4821,"long":-75.5899},{"zip":"18471","city":"Waverly","state":"PA","lat":41.5238,"long":-75.6906},{"zip":"18466","city":"Tobyhanna","state":"PA","lat":41.1836,"long":-75.3918},{"zip":"18425","city":"Greeley","state":"PA","lat":41.4372,"long":-75.0125},{"zip":"18426","city":"Greentown","state":"PA","lat":41.3321,"long":-75.2819},{"zip":"18435","city":"Lackawaxen","state":"PA","lat":41.482,"long":-74.986},{"zip":"18451","city":"Paupack","state":"PA","lat":41.3962,"long":-75.1963},{"zip":"18457","city":"Rowland","state":"PA","lat":41.4719,"long":-75.0485},{"zip":"18458","city":"Shohola","state":"PA","lat":41.4182,"long":-74.918},{"zip":"18464","city":"Tafton","state":"PA","lat":41.4045,"long":-75.183},{"zip":"18413","city":"Clifford","state":"PA","lat":41.649,"long":-75.5988},{"zip":"18421","city":"Forest City","state":"PA","lat":41.6515,"long":-75.4666},{"zip":"18430","city":"Herrick Center","state":"PA","lat":41.7643,"long":-75.5044},{"zip":"18441","city":"Lenoxville","state":"PA","lat":41.6595,"long":-75.6282},{"zip":"18465","city":"Thompson","state":"PA","lat":41.834,"long":-75.5342},{"zip":"18470","city":"Union Dale","state":"PA","lat":41.7079,"long":-75.5465},{"zip":"18405","city":"Beach Lake","state":"PA","lat":41.6034,"long":-75.1165},{"zip":"18415","city":"Damascus","state":"PA","lat":41.7366,"long":-75.1312},{"zip":"18417","city":"Equinunk","state":"PA","lat":41.8117,"long":-75.1891},{"zip":"18424","city":"Gouldsboro","state":"PA","lat":41.2448,"long":-75.5037},{"zip":"18427","city":"Hamlin","state":"PA","lat":41.4047,"long":-75.4069},{"zip":"18428","city":"Hawley","state":"PA","lat":41.4787,"long":-75.1978},{"zip":"18431","city":"Honesdale","state":"PA","lat":41.5792,"long":-75.2528},{"zip":"18436","city":"Lake Ariel","state":"PA","lat":41.4395,"long":-75.4313},{"zip":"18437","city":"Lake Como","state":"PA","lat":41.8666,"long":-75.3231},{"zip":"18438","city":"Lakeville","state":"PA","lat":41.4223,"long":-75.2607},{"zip":"18439","city":"Lakewood","state":"PA","lat":41.8171,"long":-75.3838},{"zip":"18443","city":"Milanville","state":"PA","lat":41.667,"long":-75.1185},{"zip":"18445","city":"Newfoundland","state":"PA","lat":41.3041,"long":-75.3384},{"zip":"18449","city":"Orson","state":"PA","lat":41.8137,"long":-75.448},{"zip":"18453","city":"Pleasant Mount","state":"PA","lat":41.7322,"long":-75.3989},{"zip":"18454","city":"Poyntelle","state":"PA","lat":41.8206,"long":-75.4199},{"zip":"18455","city":"Preston Park","state":"PA","lat":41.8867,"long":-75.356},{"zip":"18456","city":"Prompton","state":"PA","lat":41.582,"long":-75.3207},{"zip":"18459","city":"South Canaan","state":"PA","lat":41.616,"long":-75.2747},{"zip":"18460","city":"South Sterling","state":"PA","lat":41.2592,"long":-75.3731},{"zip":"18461","city":"Starlight","state":"PA","lat":41.9251,"long":-75.3212},{"zip":"18462","city":"Starrucca","state":"PA","lat":41.8907,"long":-75.449},{"zip":"18463","city":"Sterling","state":"PA","lat":41.377,"long":-75.316},{"zip":"18469","city":"Tyler Hill","state":"PA","lat":41.7011,"long":-75.1422},{"zip":"18472","city":"Waymart","state":"PA","lat":41.5703,"long":-75.4065},{"zip":"18473","city":"White Mills","state":"PA","lat":41.5262,"long":-75.2035},{"zip":"18419","city":"Factoryville","state":"PA","lat":41.5762,"long":-75.7652},{"zip":"18446","city":"Nicholson","state":"PA","lat":41.6412,"long":-75.7641}]
