[{"zip":"18501","city":"Scranton","state":"PA","lat":41.4019,"long":-75.6376},{"zip":"18502","city":"Scranton","state":"PA","lat":41.4092,"long":-75.6649},{"zip":"18503","city":"Scranton","state":"PA","lat":41.4095,"long":-75.6642},{"zip":"18504","city":"Scranton","state":"PA","lat":41.4128,"long":-75.6861},{"zip":"18505","city":"Scranton","state":"PA","lat":41.3914,"long":-75.6657},{"zip":"18507","city":"Moosic","state":"PA","lat":41.3554,"long":-75.6805},{"zip":"18508","city":"Scranton","state":"PA","lat":41.4389,"long":-75.6625},{"zip":"18509","city":"Scranton","state":"PA","lat":41.4274,"long":-75.6465},{"zip":"18510","city":"Scranton","state":"PA","lat":41.408,"long":-75.6484},{"zip":"18512","city":"Scranton","state":"PA","lat":41.435,"long":-75.6103},{"zip":"18515","city":"Scranton","state":"PA","lat":41.4035,"long":-75.7065},{"zip":"18517","city":"Taylor","state":"PA","lat":41.3904,"long":-75.7158},{"zip":"18518","city":"Old Forge","state":"PA","lat":41.3701,"long":-75.7391},{"zip":"18519","city":"Scranton","state":"PA","lat":41.4092,"long":-75.6649},{"zip":"18540","city":"Scranton","state":"PA","lat":41.4019,"long":-75.6376},{"zip":"18577","city":"Scranton","state":"PA","lat":41.4019,"long":-75.6376}]
