[{"zip":"18624","city":"Lake Harmony","state":"PA","lat":41.0542,"long":-75.6331},{"zip":"18603","city":"Berwick","state":"PA","lat":41.0665,"long":-76.2443},{"zip":"18631","city":"Mifflinville","state":"PA","lat":41.0323,"long":-76.308},{"zip":"18653","city":"Ransom","state":"PA","lat":41.3945,"long":-75.8242},{"zip":"18601","city":"Beach Haven","state":"PA","lat":41.0684,"long":-76.1758},{"zip":"18602","city":"Bear Creek","state":"PA","lat":41.1922,"long":-75.7161},{"zip":"18611","city":"Cambra","state":"PA","lat":41.1981,"long":-76.3058},{"zip":"18612","city":"Dallas","state":"PA","lat":41.3494,"long":-75.9834},{"zip":"18617","city":"Glen Lyon","state":"PA","lat":41.1746,"long":-76.0746},{"zip":"18618","city":"Harveys Lake","state":"PA","lat":41.3592,"long":-76.0451},{"zip":"18621","city":"Hunlock Creek","state":"PA","lat":41.2459,"long":-76.0879},{"zip":"18622","city":"Huntington Mills","state":"PA","lat":41.1906,"long":-76.2335},{"zip":"18627","city":"Lehman","state":"PA","lat":41.3166,"long":-76.021},{"zip":"18634","city":"Nanticoke","state":"PA","lat":41.1963,"long":-76.0044},{"zip":"18635","city":"Nescopeck","state":"PA","lat":41.0469,"long":-76.1981},{"zip":"18640","city":"Pittston","state":"PA","lat":41.3175,"long":-75.7885},{"zip":"18641","city":"Pittston","state":"PA","lat":41.3361,"long":-75.7304},{"zip":"18642","city":"Duryea","state":"PA","lat":41.3486,"long":-75.7611},{"zip":"18643","city":"Pittston","state":"PA","lat":41.3665,"long":-75.8362},{"zip":"18644","city":"Wyoming","state":"PA","lat":41.3197,"long":-75.8541},{"zip":"18651","city":"Plymouth","state":"PA","lat":41.2458,"long":-75.9481},{"zip":"18654","city":"Shawanese","state":"PA","lat":41.3501,"long":-76.0319},{"zip":"18655","city":"Shickshinny","state":"PA","lat":41.1513,"long":-76.1081},{"zip":"18656","city":"Sweet Valley","state":"PA","lat":41.3066,"long":-76.1339},{"zip":"18660","city":"Wapwallopen","state":"PA","lat":41.068,"long":-76.0857},{"zip":"18661","city":"White Haven","state":"PA","lat":41.079,"long":-75.7715},{"zip":"18690","city":"Dallas","state":"PA","lat":41.3362,"long":-75.9633},{"zip":"18610","city":"Blakeslee","state":"PA","lat":41.0485,"long":-75.5343},{"zip":"18614","city":"Dushore","state":"PA","lat":41.5232,"long":-76.4021},{"zip":"18616","city":"Forksville","state":"PA","lat":41.5269,"long":-76.6008},{"zip":"18619","city":"Hillsgrove","state":"PA","lat":41.4482,"long":-76.6979},{"zip":"18626","city":"Laporte","state":"PA","lat":41.4329,"long":-76.5169},{"zip":"18628","city":"Lopez","state":"PA","lat":41.418,"long":-76.3002},{"zip":"18632","city":"Mildred","state":"PA","lat":41.4792,"long":-76.3831},{"zip":"18615","city":"Falls","state":"PA","lat":41.4667,"long":-75.856},{"zip":"18623","city":"Laceyville","state":"PA","lat":41.6662,"long":-76.1426},{"zip":"18625","city":"Lake Winola","state":"PA","lat":41.5096,"long":-75.8508},{"zip":"18629","city":"Mehoopany","state":"PA","lat":41.5587,"long":-76.1035},{"zip":"18630","city":"Meshoppen","state":"PA","lat":41.6392,"long":-76.0155},{"zip":"18636","city":"Noxen","state":"PA","lat":41.4181,"long":-76.046},{"zip":"18657","city":"Tunkhannock","state":"PA","lat":41.5387,"long":-75.9466}]
