[{"zip":"18701","city":"Wilkes Barre","state":"PA","lat":41.2436,"long":-75.885},{"zip":"18702","city":"Wilkes Barre","state":"PA","lat":41.2208,"long":-75.7736},{"zip":"18703","city":"Wilkes Barre","state":"PA","lat":41.2421,"long":-75.8857},{"zip":"18704","city":"Kingston","state":"PA","lat":41.2742,"long":-75.8903},{"zip":"18705","city":"Wilkes Barre","state":"PA","lat":41.2689,"long":-75.8453},{"zip":"18706","city":"Wilkes Barre","state":"PA","lat":41.2044,"long":-75.9113},{"zip":"18707","city":"Mountain Top","state":"PA","lat":41.135,"long":-75.9376},{"zip":"18708","city":"Shavertown","state":"PA","lat":41.2998,"long":-75.9711},{"zip":"18709","city":"Luzerne","state":"PA","lat":41.2843,"long":-75.8935},{"zip":"18710","city":"Wilkes Barre","state":"PA","lat":41.2722,"long":-75.8801},{"zip":"18711","city":"Wilkes Barre","state":"PA","lat":41.2722,"long":-75.8801},{"zip":"18762","city":"Wilkes Barre","state":"PA","lat":41.2722,"long":-75.8801},{"zip":"18764","city":"Wilkes Barre","state":"PA","lat":41.2722,"long":-75.8801},{"zip":"18765","city":"Wilkes Barre","state":"PA","lat":41.2722,"long":-75.8801},{"zip":"18766","city":"Wilkes Barre","state":"PA","lat":41.2448,"long":-75.8896},{"zip":"18767","city":"Wilkes Barre","state":"PA","lat":41.2722,"long":-75.8801},{"zip":"18769","city":"Wilkes Barre","state":"PA","lat":41.2722,"long":-75.8801},{"zip":"18773","city":"Wilkes Barre","state":"PA","lat":41.2722,"long":-75.8801}]
