[{"zip":"18810","city":"Athens","state":"PA","lat":41.949,"long":-76.4889},{"zip":"18814","city":"Burlington","state":"PA","lat":41.7817,"long":-76.6056},{"zip":"18815","city":"Camptown","state":"PA","lat":41.7312,"long":-76.2347},{"zip":"18817","city":"East Smithfield","state":"PA","lat":41.8645,"long":-76.6255},{"zip":"18829","city":"Le Raysville","state":"PA","lat":41.8434,"long":-76.1796},{"zip":"18831","city":"Milan","state":"PA","lat":41.8966,"long":-76.5328},{"zip":"18832","city":"Monroeton","state":"PA","lat":41.7135,"long":-76.4872},{"zip":"18833","city":"New Albany","state":"PA","lat":41.5987,"long":-76.4398},{"zip":"18837","city":"Rome","state":"PA","lat":41.8634,"long":-76.3015},{"zip":"18840","city":"Sayre","state":"PA","lat":41.9842,"long":-76.5218},{"zip":"18845","city":"Stevensville","state":"PA","lat":41.7718,"long":-76.1717},{"zip":"18846","city":"Sugar Run","state":"PA","lat":41.6041,"long":-76.2598},{"zip":"18848","city":"Towanda","state":"PA","lat":41.7638,"long":-76.4645},{"zip":"18850","city":"Ulster","state":"PA","lat":41.8408,"long":-76.4876},{"zip":"18851","city":"Warren Center","state":"PA","lat":41.9394,"long":-76.1964},{"zip":"18853","city":"Wyalusing","state":"PA","lat":41.7015,"long":-76.2754},{"zip":"18854","city":"Wysox","state":"PA","lat":41.7826,"long":-76.3834},{"zip":"18801","city":"Montrose","state":"PA","lat":41.8396,"long":-75.8821},{"zip":"18812","city":"Brackney","state":"PA","lat":41.9666,"long":-75.9375},{"zip":"18813","city":"Brooklyn","state":"PA","lat":41.7512,"long":-75.8069},{"zip":"18816","city":"Dimock","state":"PA","lat":41.8203,"long":-75.8046},{"zip":"18818","city":"Friendsville","state":"PA","lat":41.9164,"long":-76.0257},{"zip":"18820","city":"Gibson","state":"PA","lat":41.8034,"long":-75.6441},{"zip":"18821","city":"Great Bend","state":"PA","lat":41.9717,"long":-75.7432},{"zip":"18822","city":"Hallstead","state":"PA","lat":41.9598,"long":-75.7826},{"zip":"18823","city":"Harford","state":"PA","lat":41.7761,"long":-75.6935},{"zip":"18824","city":"Hop Bottom","state":"PA","lat":41.6932,"long":-75.7897},{"zip":"18825","city":"Jackson","state":"PA","lat":41.8203,"long":-75.8046},{"zip":"18826","city":"Kingsley","state":"PA","lat":41.7659,"long":-75.7831},{"zip":"18827","city":"Lanesboro","state":"PA","lat":41.957,"long":-75.5849},{"zip":"18828","city":"Lawton","state":"PA","lat":41.7573,"long":-76.0912},{"zip":"18830","city":"Little Meadows","state":"PA","lat":41.9766,"long":-76.1185},{"zip":"18834","city":"New Milford","state":"PA","lat":41.8664,"long":-75.7171},{"zip":"18842","city":"South Gibson","state":"PA","lat":41.7342,"long":-75.6302},{"zip":"18843","city":"South Montrose","state":"PA","lat":41.7973,"long":-75.8913},{"zip":"18844","city":"Springville","state":"PA","lat":41.7147,"long":-75.9025},{"zip":"18847","city":"Susquehanna","state":"PA","lat":41.9487,"long":-75.5862}]
