[{"zip":"18901","city":"Doylestown","state":"PA","lat":40.3054,"long":-75.1489},{"zip":"18902","city":"Doylestown","state":"PA","lat":40.3477,"long":-75.0968},{"zip":"18910","city":"Bedminster","state":"PA","lat":40.4259,"long":-75.1791},{"zip":"18911","city":"Blooming Glen","state":"PA","lat":40.3695,"long":-75.2482},{"zip":"18912","city":"Buckingham","state":"PA","lat":40.3237,"long":-75.0599},{"zip":"18913","city":"Carversville","state":"PA","lat":40.3865,"long":-75.0627},{"zip":"18914","city":"Chalfont","state":"PA","lat":40.2892,"long":-75.2149},{"zip":"18916","city":"Danboro","state":"PA","lat":40.3545,"long":-75.1327},{"zip":"18917","city":"Dublin","state":"PA","lat":40.375,"long":-75.2045},{"zip":"18920","city":"Erwinna","state":"PA","lat":40.5087,"long":-75.0804},{"zip":"18921","city":"Ferndale","state":"PA","lat":40.5337,"long":-75.1788},{"zip":"18922","city":"Forest Grove","state":"PA","lat":40.2923,"long":-75.0591},{"zip":"18923","city":"Fountainville","state":"PA","lat":40.3578,"long":-75.1711},{"zip":"18925","city":"Furlong","state":"PA","lat":40.2945,"long":-75.0649},{"zip":"18927","city":"Hilltown","state":"PA","lat":40.3235,"long":-75.2548},{"zip":"18928","city":"Holicong","state":"PA","lat":40.336,"long":-75.0429},{"zip":"18929","city":"Jamison","state":"PA","lat":40.2566,"long":-75.0961},{"zip":"18930","city":"Kintnersville","state":"PA","lat":40.531,"long":-75.2117},{"zip":"18931","city":"Lahaska","state":"PA","lat":40.3286,"long":-75.1028},{"zip":"18932","city":"Line Lexington","state":"PA","lat":40.2888,"long":-75.2555},{"zip":"18933","city":"Lumberville","state":"PA","lat":40.3286,"long":-75.1028},{"zip":"18934","city":"Mechanicsville","state":"PA","lat":40.3494,"long":-75.0676},{"zip":"18935","city":"Milford Square","state":"PA","lat":40.437,"long":-75.3988},{"zip":"18938","city":"New Hope","state":"PA","lat":40.3556,"long":-74.9839},{"zip":"18940","city":"Newtown","state":"PA","lat":40.263,"long":-74.9555},{"zip":"18942","city":"Ottsville","state":"PA","lat":40.4592,"long":-75.157},{"zip":"18943","city":"Penns Park","state":"PA","lat":40.269,"long":-75.0094},{"zip":"18944","city":"Perkasie","state":"PA","lat":40.3765,"long":-75.2648},{"zip":"18946","city":"Pineville","state":"PA","lat":40.2962,"long":-75.0057},{"zip":"18947","city":"Pipersville","state":"PA","lat":40.4262,"long":-75.1074},{"zip":"18949","city":"Plumsteadville","state":"PA","lat":40.388,"long":-75.1425},{"zip":"18950","city":"Point Pleasant","state":"PA","lat":40.4165,"long":-75.0748},{"zip":"18951","city":"Quakertown","state":"PA","lat":40.4411,"long":-75.3507},{"zip":"18953","city":"Revere","state":"PA","lat":40.5154,"long":-75.161},{"zip":"18954","city":"Richboro","state":"PA","lat":40.2167,"long":-75.0029},{"zip":"18955","city":"Richlandtown","state":"PA","lat":40.4796,"long":-75.3146},{"zip":"18956","city":"Rushland","state":"PA","lat":40.2628,"long":-75.0157},{"zip":"18960","city":"Sellersville","state":"PA","lat":40.362,"long":-75.319},{"zip":"18962","city":"Silverdale","state":"PA","lat":40.3445,"long":-75.2687},{"zip":"18963","city":"Solebury","state":"PA","lat":40.3807,"long":-75.0082},{"zip":"18966","city":"Southampton","state":"PA","lat":40.1868,"long":-75.0071},{"zip":"18968","city":"Spinnerstown","state":"PA","lat":40.439,"long":-75.4371},{"zip":"18970","city":"Trumbauersville","state":"PA","lat":40.4107,"long":-75.3782},{"zip":"18972","city":"Upper Black Eddy","state":"PA","lat":40.5411,"long":-75.1259},{"zip":"18974","city":"Warminster","state":"PA","lat":40.2067,"long":-75.0905},{"zip":"18976","city":"Warrington","state":"PA","lat":40.2464,"long":-75.1354},{"zip":"18977","city":"Washington Crossing","state":"PA","lat":40.2849,"long":-74.8778},{"zip":"18980","city":"Wycombe","state":"PA","lat":40.2742,"long":-75.0205},{"zip":"18981","city":"Zionhill","state":"PA","lat":40.4843,"long":-75.3938},{"zip":"18991","city":"Warminster","state":"PA","lat":40.3286,"long":-75.1028},{"zip":"18915","city":"Colmar","state":"PA","lat":40.2728,"long":-75.2563},{"zip":"18918","city":"Earlington","state":"PA","lat":40.32,"long":-75.3742},{"zip":"18924","city":"Franconia","state":"PA","lat":40.3081,"long":-75.3586},{"zip":"18936","city":"Montgomeryville","state":"PA","lat":40.2241,"long":-75.231},{"zip":"18957","city":"Salford","state":"PA","lat":40.3029,"long":-75.4486},{"zip":"18958","city":"Salfordville","state":"PA","lat":40.2904,"long":-75.4355},{"zip":"18964","city":"Souderton","state":"PA","lat":40.2884,"long":-75.341},{"zip":"18969","city":"Telford","state":"PA","lat":40.3205,"long":-75.352},{"zip":"18971","city":"Tylersport","state":"PA","lat":40.347,"long":-75.377},{"zip":"18979","city":"Woxall","state":"PA","lat":40.3107,"long":-75.4488}]
