[{"zip":"19901","city":"Dover","state":"DE","lat":39.1564,"long":-75.4955},{"zip":"19902","city":"Dover Afb","state":"DE","lat":39.1253,"long":-75.4818},{"zip":"19903","city":"Dover","state":"DE","lat":39.1087,"long":-75.448},{"zip":"19904","city":"Dover","state":"DE","lat":39.1605,"long":-75.5974},{"zip":"19905","city":"Dover","state":"DE","lat":39.1582,"long":-75.5244},{"zip":"19906","city":"Dover","state":"DE","lat":39.157,"long":-75.5294},{"zip":"19934","city":"Camden Wyoming","state":"DE","lat":39.0991,"long":-75.5966},{"zip":"19936","city":"Cheswold","state":"DE","lat":39.2184,"long":-75.5848},{"zip":"19938","city":"Clayton","state":"DE","lat":39.2564,"long":-75.6904},{"zip":"19943","city":"Felton","state":"DE","lat":39.0225,"long":-75.5829},{"zip":"19946","city":"Frederica","state":"DE","lat":39.0342,"long":-75.4545},{"zip":"19952","city":"Harrington","state":"DE","lat":38.924,"long":-75.5843},{"zip":"19953","city":"Hartly","state":"DE","lat":39.1542,"long":-75.6935},{"zip":"19954","city":"Houston","state":"DE","lat":38.9114,"long":-75.5064},{"zip":"19955","city":"Kenton","state":"DE","lat":39.2256,"long":-75.6642},{"zip":"19961","city":"Little Creek","state":"DE","lat":39.1663,"long":-75.4483},{"zip":"19962","city":"Magnolia","state":"DE","lat":39.0735,"long":-75.5083},{"zip":"19964","city":"Marydel","state":"DE","lat":39.0998,"long":-75.7287},{"zip":"19977","city":"Smyrna","state":"DE","lat":39.2934,"long":-75.6008},{"zip":"19979","city":"Viola","state":"DE","lat":39.0419,"long":-75.5726},{"zip":"19980","city":"Woodside","state":"DE","lat":39.0724,"long":-75.5711},{"zip":"19701","city":"Bear","state":"DE","lat":39.6102,"long":-75.6747},{"zip":"19702","city":"Newark","state":"DE","lat":39.6349,"long":-75.6993},{"zip":"19703","city":"Claymont","state":"DE","lat":39.8044,"long":-75.4649},{"zip":"19706","city":"Delaware City","state":"DE","lat":39.5725,"long":-75.5957},{"zip":"19707","city":"Hockessin","state":"DE","lat":39.776,"long":-75.6889},{"zip":"19708","city":"Kirkwood","state":"DE","lat":39.5776,"long":-75.6901},{"zip":"19709","city":"Middletown","state":"DE","lat":39.4815,"long":-75.6832},{"zip":"19710","city":"Montchanin","state":"DE","lat":39.7578,"long":-75.6391},{"zip":"19711","city":"Newark","state":"DE","lat":39.7011,"long":-75.7375},{"zip":"19712","city":"Newark","state":"DE","lat":39.5645,"long":-75.597},{"zip":"19713","city":"Newark","state":"DE","lat":39.6699,"long":-75.7151},{"zip":"19714","city":"Newark","state":"DE","lat":39.5645,"long":-75.597},{"zip":"19715","city":"Newark","state":"DE","lat":39.5645,"long":-75.597},{"zip":"19716","city":"Newark","state":"DE","lat":39.6896,"long":-75.7584},{"zip":"19717","city":"Newark","state":"DE","lat":39.5645,"long":-75.597},{"zip":"19718","city":"Newark","state":"DE","lat":39.5645,"long":-75.597},{"zip":"19720","city":"New Castle","state":"DE","lat":39.5929,"long":-75.6515},{"zip":"19721","city":"New Castle","state":"DE","lat":39.5645,"long":-75.597},{"zip":"19725","city":"Newark","state":"DE","lat":39.5645,"long":-75.597},{"zip":"19726","city":"New Castle","state":"DE","lat":39.6621,"long":-75.5663},{"zip":"19730","city":"Odessa","state":"DE","lat":39.4592,"long":-75.6536},{"zip":"19731","city":"Port Penn","state":"DE","lat":39.5129,"long":-75.5852},{"zip":"19732","city":"Rockland","state":"DE","lat":39.7939,"long":-75.5738},{"zip":"19733","city":"Saint Georges","state":"DE","lat":39.5555,"long":-75.6505},{"zip":"19734","city":"Townsend","state":"DE","lat":39.3819,"long":-75.6834},{"zip":"19735","city":"Winterthur","state":"DE","lat":39.7944,"long":-75.5976},{"zip":"19736","city":"Yorklyn","state":"DE","lat":39.8082,"long":-75.6755},{"zip":"19801","city":"Wilmington","state":"DE","lat":39.7378,"long":-75.5497},{"zip":"19802","city":"Wilmington","state":"DE","lat":39.7564,"long":-75.534},{"zip":"19803","city":"Wilmington","state":"DE","lat":39.7994,"long":-75.5317},{"zip":"19804","city":"Wilmington","state":"DE","lat":39.7168,"long":-75.6184},{"zip":"19805","city":"Wilmington","state":"DE","lat":39.7434,"long":-75.5827},{"zip":"19806","city":"Wilmington","state":"DE","lat":39.7571,"long":-75.5635},{"zip":"19807","city":"Wilmington","state":"DE","lat":39.7949,"long":-75.6161},{"zip":"19808","city":"Wilmington","state":"DE","lat":39.7359,"long":-75.6647},{"zip":"19809","city":"Wilmington","state":"DE","lat":39.7647,"long":-75.5069},{"zip":"19810","city":"Wilmington","state":"DE","lat":39.8188,"long":-75.5064},{"zip":"19850","city":"Wilmington","state":"DE","lat":39.5645,"long":-75.597},{"zip":"19880","city":"Wilmington","state":"DE","lat":39.5645,"long":-75.597},{"zip":"19884","city":"Wilmington","state":"DE","lat":39.7459,"long":-75.5466},{"zip":"19885","city":"Wilmington","state":"DE","lat":39.7459,"long":-75.5466},{"zip":"19886","city":"Wilmington","state":"DE","lat":39.7459,"long":-75.5466},{"zip":"19890","city":"Wilmington","state":"DE","lat":39.5645,"long":-75.597},{"zip":"19891","city":"Wilmington","state":"DE","lat":39.5645,"long":-75.597},{"zip":"19892","city":"Wilmington","state":"DE","lat":39.5645,"long":-75.597},{"zip":"19893","city":"Wilmington","state":"DE","lat":39.7459,"long":-75.5466},{"zip":"19894","city":"Wilmington","state":"DE","lat":39.7459,"long":-75.5466},{"zip":"19895","city":"Wilmington","state":"DE","lat":39.7459,"long":-75.5466},{"zip":"19896","city":"Wilmington","state":"DE","lat":39.5645,"long":-75.597},{"zip":"19897","city":"Wilmington","state":"DE","lat":39.5645,"long":-75.597},{"zip":"19898","city":"Wilmington","state":"DE","lat":39.7459,"long":-75.5466},{"zip":"19899","city":"Wilmington","state":"DE","lat":39.7459,"long":-75.5466},{"zip":"19930","city":"Bethany Beach","state":"DE","lat":38.531,"long":-75.0674},{"zip":"19931","city":"Bethel","state":"DE","lat":38.5685,"long":-75.6243},{"zip":"19933","city":"Bridgeville","state":"DE","lat":38.7366,"long":-75.6088},{"zip":"19939","city":"Dagsboro","state":"DE","lat":38.5596,"long":-75.2113},{"zip":"19940","city":"Delmar","state":"DE","lat":38.477,"long":-75.5759},{"zip":"19941","city":"Ellendale","state":"DE","lat":38.8057,"long":-75.4056},{"zip":"19944","city":"Fenwick Island","state":"DE","lat":38.4865,"long":-75.0589},{"zip":"19945","city":"Frankford","state":"DE","lat":38.5177,"long":-75.2006},{"zip":"19947","city":"Georgetown","state":"DE","lat":38.679,"long":-75.3932},{"zip":"19950","city":"Greenwood","state":"DE","lat":38.8175,"long":-75.5935},{"zip":"19951","city":"Harbeson","state":"DE","lat":38.6723,"long":-75.2236},{"zip":"19956","city":"Laurel","state":"DE","lat":38.5537,"long":-75.5631},{"zip":"19958","city":"Lewes","state":"DE","lat":38.7381,"long":-75.1747},{"zip":"19960","city":"Lincoln","state":"DE","lat":38.8613,"long":-75.4},{"zip":"19963","city":"Milford","state":"DE","lat":38.9218,"long":-75.4299},{"zip":"19966","city":"Millsboro","state":"DE","lat":38.6595,"long":-75.2464},{"zip":"19967","city":"Millville","state":"DE","lat":38.5496,"long":-75.1232},{"zip":"19968","city":"Milton","state":"DE","lat":38.7687,"long":-75.2953},{"zip":"19969","city":"Nassau","state":"DE","lat":38.7521,"long":-75.1877},{"zip":"19970","city":"Ocean View","state":"DE","lat":38.5617,"long":-75.0966},{"zip":"19971","city":"Rehoboth Beach","state":"DE","lat":38.7209,"long":-75.076},{"zip":"19973","city":"Seaford","state":"DE","lat":38.6404,"long":-75.6041},{"zip":"19975","city":"Selbyville","state":"DE","lat":38.4654,"long":-75.1573},{"zip":"19503","city":"Bally","state":"PA","lat":40.405,"long":-75.5769},{"zip":"19504","city":"Barto","state":"PA","lat":40.3815,"long":-75.5749},{"zip":"19505","city":"Bechtelsville","state":"PA","lat":40.3795,"long":-75.6257},{"zip":"19506","city":"Bernville","state":"PA","lat":40.4551,"long":-76.1247},{"zip":"19507","city":"Bethel","state":"PA","lat":40.4808,"long":-76.2742},{"zip":"19508","city":"Birdsboro","state":"PA","lat":40.2563,"long":-75.8344},{"zip":"19510","city":"Blandon","state":"PA","lat":40.4435,"long":-75.8837},{"zip":"19511","city":"Bowers","state":"PA","lat":40.4821,"long":-75.7435},{"zip":"19512","city":"Boyertown","state":"PA","lat":40.3339,"long":-75.6604},{"zip":"19516","city":"Centerport","state":"PA","lat":40.4858,"long":-76.006},{"zip":"19518","city":"Douglassville","state":"PA","lat":40.2709,"long":-75.7397},{"zip":"19519","city":"Earlville","state":"PA","lat":40.319,"long":-75.7334},{"zip":"19522","city":"Fleetwood","state":"PA","lat":40.4473,"long":-75.8185},{"zip":"19523","city":"Geigertown","state":"PA","lat":40.1897,"long":-75.8881},{"zip":"19526","city":"Hamburg","state":"PA","lat":40.5488,"long":-75.9874},{"zip":"19529","city":"Kempton","state":"PA","lat":40.6328,"long":-75.8513},{"zip":"19530","city":"Kutztown","state":"PA","lat":40.5214,"long":-75.7774},{"zip":"19533","city":"Leesport","state":"PA","lat":40.4152,"long":-75.9944},{"zip":"19534","city":"Lenhartsville","state":"PA","lat":40.5736,"long":-75.865},{"zip":"19535","city":"Limekiln","state":"PA","lat":40.3356,"long":-75.801},{"zip":"19536","city":"Lyon Station","state":"PA","lat":40.5218,"long":-75.7419},{"zip":"19538","city":"Maxatawny","state":"PA","lat":40.5698,"long":-75.7409},{"zip":"19539","city":"Mertztown","state":"PA","lat":40.4992,"long":-75.6872},{"zip":"19540","city":"Mohnton","state":"PA","lat":40.2584,"long":-75.9833},{"zip":"19541","city":"Mohrsville","state":"PA","lat":40.4783,"long":-76.0125},{"zip":"19543","city":"Morgantown","state":"PA","lat":40.1552,"long":-75.8998},{"zip":"19544","city":"Mount Aetna","state":"PA","lat":40.4187,"long":-76.2944},{"zip":"19545","city":"New Berlinville","state":"PA","lat":40.3397,"long":-75.6302},{"zip":"19547","city":"Oley","state":"PA","lat":40.3833,"long":-75.7706},{"zip":"19548","city":"Pine Forge","state":"PA","lat":40.2829,"long":-75.6907},{"zip":"19550","city":"Rehrersburg","state":"PA","lat":40.4553,"long":-76.2453},{"zip":"19551","city":"Robesonia","state":"PA","lat":40.3553,"long":-76.1366},{"zip":"19554","city":"Shartlesville","state":"PA","lat":40.5129,"long":-76.1044},{"zip":"19555","city":"Shoemakersville","state":"PA","lat":40.4955,"long":-75.9603},{"zip":"19559","city":"Strausstown","state":"PA","lat":40.4945,"long":-76.1825},{"zip":"19560","city":"Temple","state":"PA","lat":40.4025,"long":-75.9046},{"zip":"19562","city":"Topton","state":"PA","lat":40.5029,"long":-75.7015},{"zip":"19564","city":"Virginville","state":"PA","lat":40.524,"long":-75.873},{"zip":"19565","city":"Wernersville","state":"PA","lat":40.3293,"long":-76.0901},{"zip":"19567","city":"Womelsdorf","state":"PA","lat":40.3743,"long":-76.1985},{"zip":"19601","city":"Reading","state":"PA","lat":40.3466,"long":-75.9351},{"zip":"19602","city":"Reading","state":"PA","lat":40.3306,"long":-75.9192},{"zip":"19603","city":"Reading","state":"PA","lat":40.3884,"long":-75.9631},{"zip":"19604","city":"Reading","state":"PA","lat":40.3507,"long":-75.9143},{"zip":"19605","city":"Reading","state":"PA","lat":40.3886,"long":-75.9328},{"zip":"19606","city":"Reading","state":"PA","lat":40.3351,"long":-75.875},{"zip":"19607","city":"Reading","state":"PA","lat":40.2995,"long":-75.9876},{"zip":"19608","city":"Reading","state":"PA","lat":40.3113,"long":-76.0345},{"zip":"19609","city":"Reading","state":"PA","lat":40.328,"long":-75.9908},{"zip":"19610","city":"Reading","state":"PA","lat":40.338,"long":-75.978},{"zip":"19611","city":"Reading","state":"PA","lat":40.325,"long":-75.9442},{"zip":"19612","city":"Reading","state":"PA","lat":40.4389,"long":-75.8853},{"zip":"19007","city":"Bristol","state":"PA","lat":40.1159,"long":-74.8536},{"zip":"19020","city":"Bensalem","state":"PA","lat":40.1109,"long":-74.9378},{"zip":"19021","city":"Croydon","state":"PA","lat":40.0933,"long":-74.8991},{"zip":"19030","city":"Fairless Hills","state":"PA","lat":40.1748,"long":-74.8519},{"zip":"19047","city":"Langhorne","state":"PA","lat":40.1813,"long":-74.9104},{"zip":"19048","city":"Langhorne","state":"PA","lat":40.1735,"long":-74.9246},{"zip":"19049","city":"Langhorne","state":"PA","lat":40.1746,"long":-74.9227},{"zip":"19053","city":"Feasterville Trevose","state":"PA","lat":40.1547,"long":-74.9904},{"zip":"19054","city":"Levittown","state":"PA","lat":40.1681,"long":-74.8231},{"zip":"19055","city":"Levittown","state":"PA","lat":40.1483,"long":-74.8371},{"zip":"19056","city":"Levittown","state":"PA","lat":40.1519,"long":-74.8826},{"zip":"19057","city":"Levittown","state":"PA","lat":40.1434,"long":-74.8614},{"zip":"19058","city":"Levittown","state":"PA","lat":40.1551,"long":-74.8288},{"zip":"19067","city":"Morrisville","state":"PA","lat":40.2084,"long":-74.8291},{"zip":"19301","city":"Paoli","state":"PA","lat":40.0426,"long":-75.4827},{"zip":"19310","city":"Atglen","state":"PA","lat":39.9458,"long":-75.9703},{"zip":"19311","city":"Avondale","state":"PA","lat":39.8219,"long":-75.7687},{"zip":"19312","city":"Berwyn","state":"PA","lat":40.0412,"long":-75.4475},{"zip":"19316","city":"Brandamore","state":"PA","lat":40.055,"long":-75.8378},{"zip":"19318","city":"Chatham","state":"PA","lat":39.8524,"long":-75.8118},{"zip":"19320","city":"Coatesville","state":"PA","lat":39.9843,"long":-75.8253},{"zip":"19330","city":"Cochranville","state":"PA","lat":39.8757,"long":-75.9214},{"zip":"19333","city":"Devon","state":"PA","lat":40.0452,"long":-75.4227},{"zip":"19335","city":"Downingtown","state":"PA","lat":40.0161,"long":-75.7183},{"zip":"19341","city":"Exton","state":"PA","lat":40.0468,"long":-75.6432},{"zip":"19343","city":"Glenmoore","state":"PA","lat":40.0846,"long":-75.7711},{"zip":"19344","city":"Honey Brook","state":"PA","lat":40.0832,"long":-75.8843},{"zip":"19345","city":"Immaculata","state":"PA","lat":39.8478,"long":-75.7193},{"zip":"19346","city":"Kelton","state":"PA","lat":39.8087,"long":-75.878},{"zip":"19347","city":"Kemblesville","state":"PA","lat":39.749,"long":-75.8241},{"zip":"19348","city":"Kennett Square","state":"PA","lat":39.855,"long":-75.7},{"zip":"19350","city":"Landenberg","state":"PA","lat":39.7696,"long":-75.7807},{"zip":"19351","city":"Lewisville","state":"PA","lat":39.7226,"long":-75.8749},{"zip":"19352","city":"Lincoln University","state":"PA","lat":39.7787,"long":-75.8876},{"zip":"19353","city":"Lionville","state":"PA","lat":40.0132,"long":-75.499},{"zip":"19354","city":"Lyndell","state":"PA","lat":40.0582,"long":-75.7433},{"zip":"19355","city":"Malvern","state":"PA","lat":40.0468,"long":-75.531},{"zip":"19357","city":"Mendenhall","state":"PA","lat":39.854,"long":-75.6413},{"zip":"19358","city":"Modena","state":"PA","lat":39.9621,"long":-75.8025},{"zip":"19360","city":"New London","state":"PA","lat":39.7261,"long":-75.7857},{"zip":"19362","city":"Nottingham","state":"PA","lat":39.7441,"long":-76.0356},{"zip":"19363","city":"Oxford","state":"PA","lat":39.7827,"long":-75.9815},{"zip":"19365","city":"Parkesburg","state":"PA","lat":39.9654,"long":-75.926},{"zip":"19366","city":"Pocopson","state":"PA","lat":39.9004,"long":-75.6258},{"zip":"19367","city":"Pomeroy","state":"PA","lat":39.9643,"long":-75.8866},{"zip":"19369","city":"Sadsburyville","state":"PA","lat":39.9903,"long":-75.8936},{"zip":"19371","city":"Suplee","state":"PA","lat":40.0995,"long":-75.8791},{"zip":"19372","city":"Thorndale","state":"PA","lat":39.9984,"long":-75.759},{"zip":"19374","city":"Toughkenamon","state":"PA","lat":39.8315,"long":-75.7574},{"zip":"19375","city":"Unionville","state":"PA","lat":39.9012,"long":-75.7502},{"zip":"19376","city":"Wagontown","state":"PA","lat":39.9832,"long":-75.7481},{"zip":"19380","city":"West Chester","state":"PA","lat":39.9845,"long":-75.5962},{"zip":"19381","city":"West Chester","state":"PA","lat":39.961,"long":-75.608},{"zip":"19382","city":"West Chester","state":"PA","lat":39.9441,"long":-75.5882},{"zip":"19383","city":"West Chester","state":"PA","lat":39.9455,"long":-75.6024},{"zip":"19390","city":"West Grove","state":"PA","lat":39.8253,"long":-75.8374},{"zip":"19395","city":"Westtown","state":"PA","lat":39.9328,"long":-75.5448},{"zip":"19397","city":"Southeastern","state":"PA","lat":39.9832,"long":-75.7481},{"zip":"19398","city":"Southeastern","state":"PA","lat":39.9832,"long":-75.7481},{"zip":"19399","city":"Southeastern","state":"PA","lat":39.9832,"long":-75.7481},{"zip":"19421","city":"Birchrunville","state":"PA","lat":39.9832,"long":-75.7481},{"zip":"19425","city":"Chester Springs","state":"PA","lat":40.0978,"long":-75.6398},{"zip":"19432","city":"Devault","state":"PA","lat":40.0796,"long":-75.56},{"zip":"19442","city":"Kimberton","state":"PA","lat":40.1465,"long":-75.6177},{"zip":"19457","city":"Parker Ford","state":"PA","lat":40.209,"long":-75.5984},{"zip":"19460","city":"Phoenixville","state":"PA","lat":40.1267,"long":-75.5272},{"zip":"19465","city":"Pottstown","state":"PA","lat":40.1919,"long":-75.6653},{"zip":"19470","city":"Saint Peters","state":"PA","lat":40.1867,"long":-75.7288},{"zip":"19475","city":"Spring City","state":"PA","lat":40.1765,"long":-75.5697},{"zip":"19480","city":"Uwchland","state":"PA","lat":40.098,"long":-75.688},{"zip":"19481","city":"Valley Forge","state":"PA","lat":40.0923,"long":-75.4537},{"zip":"19482","city":"Valley Forge","state":"PA","lat":40.0803,"long":-75.4554},{"zip":"19493","city":"Valley Forge","state":"PA","lat":40.0971,"long":-75.4696},{"zip":"19494","city":"Valley Forge","state":"PA","lat":40.0971,"long":-75.4696},{"zip":"19495","city":"Valley Forge","state":"PA","lat":40.0971,"long":-75.4696},{"zip":"19496","city":"Valley Forge","state":"PA","lat":40.0971,"long":-75.4696},{"zip":"19520","city":"Elverson","state":"PA","lat":40.1568,"long":-75.7866},{"zip":"19003","city":"Ardmore","state":"PA","lat":40.002,"long":-75.2966},{"zip":"19008","city":"Broomall","state":"PA","lat":39.9747,"long":-75.3602},{"zip":"19010","city":"Bryn Mawr","state":"PA","lat":40.0236,"long":-75.3295},{"zip":"19013","city":"Chester","state":"PA","lat":39.8498,"long":-75.3747},{"zip":"19014","city":"Aston","state":"PA","lat":39.8643,"long":-75.4332},{"zip":"19015","city":"Brookhaven","state":"PA","lat":39.8654,"long":-75.3885},{"zip":"19016","city":"Chester","state":"PA","lat":39.934,"long":-75.406},{"zip":"19017","city":"Chester Heights","state":"PA","lat":39.8839,"long":-75.4669},{"zip":"19018","city":"Clifton Heights","state":"PA","lat":39.9218,"long":-75.2876},{"zip":"19022","city":"Crum Lynne","state":"PA","lat":39.8685,"long":-75.3374},{"zip":"19023","city":"Darby","state":"PA","lat":39.9176,"long":-75.2696},{"zip":"19026","city":"Drexel Hill","state":"PA","lat":39.9503,"long":-75.304},{"zip":"19028","city":"Edgemont","state":"PA","lat":39.9748,"long":-75.4505},{"zip":"19029","city":"Essington","state":"PA","lat":39.8621,"long":-75.2971},{"zip":"19032","city":"Folcroft","state":"PA","lat":39.8905,"long":-75.2821},{"zip":"19033","city":"Folsom","state":"PA","lat":39.8901,"long":-75.3296},{"zip":"19036","city":"Glenolden","state":"PA","lat":39.9048,"long":-75.2946},{"zip":"19037","city":"Glen Riddle Lima","state":"PA","lat":39.934,"long":-75.406},{"zip":"19039","city":"Gradyville","state":"PA","lat":39.9432,"long":-75.4694},{"zip":"19041","city":"Haverford","state":"PA","lat":40.0097,"long":-75.3121},{"zip":"19043","city":"Holmes","state":"PA","lat":39.9003,"long":-75.3087},{"zip":"19050","city":"Lansdowne","state":"PA","lat":39.9375,"long":-75.2637},{"zip":"19052","city":"Lenni","state":"PA","lat":39.8942,"long":-75.4456},{"zip":"19060","city":"Garnet Valley","state":"PA","lat":39.852,"long":-75.5007},{"zip":"19061","city":"Marcus Hook","state":"PA","lat":39.8295,"long":-75.4354},{"zip":"19063","city":"Media","state":"PA","lat":39.9188,"long":-75.3991},{"zip":"19064","city":"Springfield","state":"PA","lat":39.9296,"long":-75.3338},{"zip":"19065","city":"Media","state":"PA","lat":39.9211,"long":-75.3861},{"zip":"19070","city":"Morton","state":"PA","lat":39.9063,"long":-75.3238},{"zip":"19073","city":"Newtown Square","state":"PA","lat":39.9863,"long":-75.407},{"zip":"19074","city":"Norwood","state":"PA","lat":39.887,"long":-75.2972},{"zip":"19076","city":"Prospect Park","state":"PA","lat":39.8857,"long":-75.3082},{"zip":"19078","city":"Ridley Park","state":"PA","lat":39.8784,"long":-75.3215},{"zip":"19079","city":"Sharon Hill","state":"PA","lat":39.9035,"long":-75.2695},{"zip":"19080","city":"Wayne","state":"PA","lat":40.044,"long":-75.3877},{"zip":"19081","city":"Swarthmore","state":"PA","lat":39.8967,"long":-75.3474},{"zip":"19082","city":"Upper Darby","state":"PA","lat":39.9579,"long":-75.2681},{"zip":"19083","city":"Havertown","state":"PA","lat":39.9774,"long":-75.3106},{"zip":"19085","city":"Villanova","state":"PA","lat":40.0399,"long":-75.3459},{"zip":"19086","city":"Wallingford","state":"PA","lat":39.8871,"long":-75.3721},{"zip":"19087","city":"Wayne","state":"PA","lat":40.0612,"long":-75.3999},{"zip":"19088","city":"Wayne","state":"PA","lat":39.934,"long":-75.406},{"zip":"19089","city":"Wayne","state":"PA","lat":40.044,"long":-75.3877},{"zip":"19091","city":"Media","state":"PA","lat":39.934,"long":-75.406},{"zip":"19094","city":"Woodlyn","state":"PA","lat":39.876,"long":-75.3463},{"zip":"19098","city":"Holmes","state":"PA","lat":39.8954,"long":-75.3107},{"zip":"19113","city":"Philadelphia","state":"PA","lat":39.865,"long":-75.2752},{"zip":"19317","city":"Chadds Ford","state":"PA","lat":39.8648,"long":-75.5885},{"zip":"19319","city":"Cheyney","state":"PA","lat":39.9209,"long":-75.5222},{"zip":"19331","city":"Concordville","state":"PA","lat":39.8823,"long":-75.5165},{"zip":"19339","city":"Concordville","state":"PA","lat":39.934,"long":-75.406},{"zip":"19340","city":"Concordville","state":"PA","lat":39.8851,"long":-75.5202},{"zip":"19342","city":"Glen Mills","state":"PA","lat":39.9015,"long":-75.5049},{"zip":"19373","city":"Thornton","state":"PA","lat":39.9041,"long":-75.5313},{"zip":"19501","city":"Adamstown","state":"PA","lat":40.2423,"long":-76.0577},{"zip":"19001","city":"Abington","state":"PA","lat":40.1238,"long":-75.1148},{"zip":"19002","city":"Ambler","state":"PA","lat":40.1809,"long":-75.2156},{"zip":"19004","city":"Bala Cynwyd","state":"PA","lat":40.0118,"long":-75.2342},{"zip":"19006","city":"Huntingdon Valley","state":"PA","lat":40.1284,"long":-75.0607},{"zip":"19009","city":"Bryn Athyn","state":"PA","lat":40.135,"long":-75.0623},{"zip":"19012","city":"Cheltenham","state":"PA","lat":40.0603,"long":-75.1048},{"zip":"19025","city":"Dresher","state":"PA","lat":40.1431,"long":-75.1624},{"zip":"19027","city":"Elkins Park","state":"PA","lat":40.075,"long":-75.1315},{"zip":"19031","city":"Flourtown","state":"PA","lat":40.1068,"long":-75.2115},{"zip":"19034","city":"Fort Washington","state":"PA","lat":40.1386,"long":-75.2022},{"zip":"19035","city":"Gladwyne","state":"PA","lat":40.0451,"long":-75.2821},{"zip":"19038","city":"Glenside","state":"PA","lat":40.1096,"long":-75.155},{"zip":"19040","city":"Hatboro","state":"PA","lat":40.1785,"long":-75.1072},{"zip":"19044","city":"Horsham","state":"PA","lat":40.1821,"long":-75.1479},{"zip":"19046","city":"Jenkintown","state":"PA","lat":40.098,"long":-75.1078},{"zip":"19066","city":"Merion Station","state":"PA","lat":40.003,"long":-75.2503},{"zip":"19072","city":"Narberth","state":"PA","lat":40.0177,"long":-75.2594},{"zip":"19075","city":"Oreland","state":"PA","lat":40.1132,"long":-75.1869},{"zip":"19090","city":"Willow Grove","state":"PA","lat":40.1567,"long":-75.1269},{"zip":"19095","city":"Wyncote","state":"PA","lat":40.0867,"long":-75.1524},{"zip":"19096","city":"Wynnewood","state":"PA","lat":40,"long":-75.276},{"zip":"19126","city":"Philadelphia","state":"PA","lat":40.0568,"long":-75.1379},{"zip":"19401","city":"Norristown","state":"PA","lat":40.1245,"long":-75.3304},{"zip":"19403","city":"Norristown","state":"PA","lat":40.1496,"long":-75.3796},{"zip":"19404","city":"Norristown","state":"PA","lat":40.2119,"long":-75.3559},{"zip":"19405","city":"Bridgeport","state":"PA","lat":40.103,"long":-75.3402},{"zip":"19406","city":"King Of Prussia","state":"PA","lat":40.0956,"long":-75.3737},{"zip":"19407","city":"Audubon","state":"PA","lat":40.2119,"long":-75.3559},{"zip":"19408","city":"Eagleville","state":"PA","lat":40.1566,"long":-75.4131},{"zip":"19409","city":"Fairview Village","state":"PA","lat":40.1579,"long":-75.3871},{"zip":"19415","city":"Eagleville","state":"PA","lat":40.1572,"long":-75.406},{"zip":"19422","city":"Blue Bell","state":"PA","lat":40.1576,"long":-75.2799},{"zip":"19423","city":"Cedars","state":"PA","lat":40.2174,"long":-75.365},{"zip":"19424","city":"Blue Bell","state":"PA","lat":40.1523,"long":-75.2663},{"zip":"19426","city":"Collegeville","state":"PA","lat":40.1913,"long":-75.4373},{"zip":"19428","city":"Conshohocken","state":"PA","lat":40.0825,"long":-75.3044},{"zip":"19429","city":"Conshohocken","state":"PA","lat":40.0793,"long":-75.3016},{"zip":"19430","city":"Creamery","state":"PA","lat":40.1851,"long":-75.42},{"zip":"19435","city":"Frederick","state":"PA","lat":40.3275,"long":-75.5692},{"zip":"19436","city":"Gwynedd","state":"PA","lat":40.2021,"long":-75.2507},{"zip":"19437","city":"Gwynedd Valley","state":"PA","lat":40.1811,"long":-75.2579},{"zip":"19438","city":"Harleysville","state":"PA","lat":40.2659,"long":-75.3883},{"zip":"19440","city":"Hatfield","state":"PA","lat":40.2778,"long":-75.2975},{"zip":"19441","city":"Harleysville","state":"PA","lat":40.2795,"long":-75.3871},{"zip":"19443","city":"Kulpsville","state":"PA","lat":40.241,"long":-75.3439},{"zip":"19444","city":"Lafayette Hill","state":"PA","lat":40.0896,"long":-75.2601},{"zip":"19446","city":"Lansdale","state":"PA","lat":40.2378,"long":-75.2955},{"zip":"19450","city":"Lederach","state":"PA","lat":40.2119,"long":-75.3559},{"zip":"19451","city":"Mainland","state":"PA","lat":40.2119,"long":-75.3559},{"zip":"19453","city":"Mont Clare","state":"PA","lat":40.1364,"long":-75.4999},{"zip":"19454","city":"North Wales","state":"PA","lat":40.2166,"long":-75.2565},{"zip":"19455","city":"North Wales","state":"PA","lat":40.2109,"long":-75.2782},{"zip":"19456","city":"Oaks","state":"PA","lat":40.1318,"long":-75.4596},{"zip":"19462","city":"Plymouth Meeting","state":"PA","lat":40.1077,"long":-75.2796},{"zip":"19464","city":"Pottstown","state":"PA","lat":40.2635,"long":-75.6172},{"zip":"19468","city":"Royersford","state":"PA","lat":40.2075,"long":-75.5329},{"zip":"19472","city":"Sassamansville","state":"PA","lat":40.3448,"long":-75.5775},{"zip":"19473","city":"Schwenksville","state":"PA","lat":40.2471,"long":-75.4602},{"zip":"19474","city":"Skippack","state":"PA","lat":40.2251,"long":-75.4031},{"zip":"19477","city":"Spring House","state":"PA","lat":40.1839,"long":-75.2327},{"zip":"19478","city":"Spring Mount","state":"PA","lat":40.2759,"long":-75.4618},{"zip":"19484","city":"Valley Forge","state":"PA","lat":40.2119,"long":-75.3559},{"zip":"19486","city":"West Point","state":"PA","lat":40.2033,"long":-75.3019},{"zip":"19490","city":"Worcester","state":"PA","lat":40.1929,"long":-75.3576},{"zip":"19492","city":"Zieglerville","state":"PA","lat":40.2901,"long":-75.503},{"zip":"19525","city":"Gilbertsville","state":"PA","lat":40.3059,"long":-75.5953},{"zip":"19019","city":"Philadelphia","state":"PA","lat":40.0018,"long":-75.1179},{"zip":"19092","city":"Philadelphia","state":"PA","lat":40.0018,"long":-75.1179},{"zip":"19093","city":"Philadelphia","state":"PA","lat":40.0018,"long":-75.1179},{"zip":"19099","city":"Philadelphia","state":"PA","lat":39.9523,"long":-75.1638},{"zip":"19101","city":"Philadelphia","state":"PA","lat":40.0018,"long":-75.1179},{"zip":"19102","city":"Philadelphia","state":"PA","lat":39.9489,"long":-75.1661},{"zip":"19103","city":"Philadelphia","state":"PA","lat":39.9513,"long":-75.1741},{"zip":"19104","city":"Philadelphia","state":"PA","lat":39.9597,"long":-75.2024},{"zip":"19105","city":"Philadelphia","state":"PA","lat":39.9523,"long":-75.1638},{"zip":"19106","city":"Philadelphia","state":"PA","lat":39.9474,"long":-75.1473},{"zip":"19107","city":"Philadelphia","state":"PA","lat":39.9487,"long":-75.1593},{"zip":"19108","city":"Philadelphia","state":"PA","lat":39.9598,"long":-75.1616},{"zip":"19109","city":"Philadelphia","state":"PA","lat":39.9496,"long":-75.1637},{"zip":"19110","city":"Philadelphia","state":"PA","lat":39.9502,"long":-75.1636},{"zip":"19111","city":"Philadelphia","state":"PA","lat":40.0596,"long":-75.0818},{"zip":"19112","city":"Philadelphia","state":"PA","lat":39.8893,"long":-75.1782},{"zip":"19114","city":"Philadelphia","state":"PA","lat":40.0634,"long":-74.999},{"zip":"19115","city":"Philadelphia","state":"PA","lat":40.0903,"long":-75.041},{"zip":"19116","city":"Philadelphia","state":"PA","lat":40.1166,"long":-75.0198},{"zip":"19118","city":"Philadelphia","state":"PA","lat":40.0723,"long":-75.2034},{"zip":"19119","city":"Philadelphia","state":"PA","lat":40.0547,"long":-75.1866},{"zip":"19120","city":"Philadelphia","state":"PA","lat":40.0343,"long":-75.1213},{"zip":"19121","city":"Philadelphia","state":"PA","lat":39.9811,"long":-75.174},{"zip":"19122","city":"Philadelphia","state":"PA","lat":39.978,"long":-75.1459},{"zip":"19123","city":"Philadelphia","state":"PA","lat":39.966,"long":-75.151},{"zip":"19124","city":"Philadelphia","state":"PA","lat":40.0178,"long":-75.0895},{"zip":"19125","city":"Philadelphia","state":"PA","lat":39.9788,"long":-75.1262},{"zip":"19127","city":"Philadelphia","state":"PA","lat":40.0275,"long":-75.2242},{"zip":"19128","city":"Philadelphia","state":"PA","lat":40.0402,"long":-75.2231},{"zip":"19129","city":"Philadelphia","state":"PA","lat":40.0118,"long":-75.1861},{"zip":"19130","city":"Philadelphia","state":"PA","lat":39.9677,"long":-75.1735},{"zip":"19131","city":"Philadelphia","state":"PA","lat":39.9845,"long":-75.2282},{"zip":"19132","city":"Philadelphia","state":"PA","lat":39.9954,"long":-75.1698},{"zip":"19133","city":"Philadelphia","state":"PA","lat":39.9925,"long":-75.1415},{"zip":"19134","city":"Philadelphia","state":"PA","lat":39.9925,"long":-75.1133},{"zip":"19135","city":"Philadelphia","state":"PA","lat":40.0247,"long":-75.0518},{"zip":"19136","city":"Philadelphia","state":"PA","lat":40.0422,"long":-75.0244},{"zip":"19137","city":"Philadelphia","state":"PA","lat":40.0008,"long":-75.0727},{"zip":"19138","city":"Philadelphia","state":"PA","lat":40.0568,"long":-75.1569},{"zip":"19139","city":"Philadelphia","state":"PA","lat":39.9612,"long":-75.2303},{"zip":"19140","city":"Philadelphia","state":"PA","lat":40.0118,"long":-75.1456},{"zip":"19141","city":"Philadelphia","state":"PA","lat":40.0365,"long":-75.1451},{"zip":"19142","city":"Philadelphia","state":"PA","lat":39.9223,"long":-75.2338},{"zip":"19143","city":"Philadelphia","state":"PA","lat":39.9448,"long":-75.2288},{"zip":"19144","city":"Philadelphia","state":"PA","lat":40.0338,"long":-75.1731},{"zip":"19145","city":"Philadelphia","state":"PA","lat":39.9227,"long":-75.1812},{"zip":"19146","city":"Philadelphia","state":"PA","lat":39.9379,"long":-75.1794},{"zip":"19147","city":"Philadelphia","state":"PA","lat":39.9362,"long":-75.1563},{"zip":"19148","city":"Philadelphia","state":"PA","lat":39.9207,"long":-75.1595},{"zip":"19149","city":"Philadelphia","state":"PA","lat":40.0369,"long":-75.0664},{"zip":"19150","city":"Philadelphia","state":"PA","lat":40.0726,"long":-75.1706},{"zip":"19151","city":"Philadelphia","state":"PA","lat":39.9772,"long":-75.2545},{"zip":"19152","city":"Philadelphia","state":"PA","lat":40.0606,"long":-75.0471},{"zip":"19153","city":"Philadelphia","state":"PA","lat":39.9055,"long":-75.2444},{"zip":"19154","city":"Philadelphia","state":"PA","lat":40.0897,"long":-74.9781},{"zip":"19155","city":"Philadelphia","state":"PA","lat":40.0018,"long":-75.1179},{"zip":"19160","city":"Philadelphia","state":"PA","lat":40.0018,"long":-75.1179},{"zip":"19161","city":"Philadelphia","state":"PA","lat":40.0018,"long":-75.1179},{"zip":"19162","city":"Philadelphia","state":"PA","lat":40.0018,"long":-75.1179},{"zip":"19170","city":"Philadelphia","state":"PA","lat":40.0018,"long":-75.1179},{"zip":"19171","city":"Philadelphia","state":"PA","lat":39.9523,"long":-75.1638},{"zip":"19172","city":"Philadelphia","state":"PA","lat":39.9473,"long":-75.15},{"zip":"19173","city":"Philadelphia","state":"PA","lat":39.9523,"long":-75.1638},{"zip":"19175","city":"Philadelphia","state":"PA","lat":39.9906,"long":-75.1296},{"zip":"19176","city":"Philadelphia","state":"PA","lat":39.9522,"long":-75.1642},{"zip":"19177","city":"Philadelphia","state":"PA","lat":40.0018,"long":-75.1179},{"zip":"19178","city":"Philadelphia","state":"PA","lat":40.0018,"long":-75.1179},{"zip":"19179","city":"Philadelphia","state":"PA","lat":40.0018,"long":-75.1179},{"zip":"19181","city":"Philadelphia","state":"PA","lat":40.0018,"long":-75.1179},{"zip":"19182","city":"Philadelphia","state":"PA","lat":40.0018,"long":-75.1179},{"zip":"19183","city":"Philadelphia","state":"PA","lat":39.9523,"long":-75.1638},{"zip":"19184","city":"Philadelphia","state":"PA","lat":40.0018,"long":-75.1179},{"zip":"19185","city":"Philadelphia","state":"PA","lat":40.0018,"long":-75.1179},{"zip":"19187","city":"Philadelphia","state":"PA","lat":39.9523,"long":-75.1638},{"zip":"19188","city":"Philadelphia","state":"PA","lat":40.0018,"long":-75.1179},{"zip":"19190","city":"Philadelphia","state":"PA","lat":39.9484,"long":-75.1442},{"zip":"19191","city":"Philadelphia","state":"PA","lat":39.9523,"long":-75.1638},{"zip":"19192","city":"Philadelphia","state":"PA","lat":39.9511,"long":-75.1676},{"zip":"19193","city":"Philadelphia","state":"PA","lat":40.0018,"long":-75.1179},{"zip":"19194","city":"Philadelphia","state":"PA","lat":40.0018,"long":-75.1179},{"zip":"19195","city":"Philadelphia","state":"PA","lat":39.9525,"long":-75.1645},{"zip":"19196","city":"Philadelphia","state":"PA","lat":40.0018,"long":-75.1179},{"zip":"19197","city":"Philadelphia","state":"PA","lat":40.0018,"long":-75.1179},{"zip":"19244","city":"Philadelphia","state":"PA","lat":40.0018,"long":-75.1179},{"zip":"19255","city":"Philadelphia","state":"PA","lat":40.0018,"long":-75.1179},{"zip":"19549","city":"Port Clinton","state":"PA","lat":40.5818,"long":-76.0267}]
