[{"zip":"19007","city":"Bristol","state":"PA","lat":40.1159,"long":-74.8536},{"zip":"19020","city":"Bensalem","state":"PA","lat":40.1109,"long":-74.9378},{"zip":"19021","city":"Croydon","state":"PA","lat":40.0933,"long":-74.8991},{"zip":"19030","city":"Fairless Hills","state":"PA","lat":40.1748,"long":-74.8519},{"zip":"19047","city":"Langhorne","state":"PA","lat":40.1813,"long":-74.9104},{"zip":"19048","city":"Langhorne","state":"PA","lat":40.1735,"long":-74.9246},{"zip":"19049","city":"Langhorne","state":"PA","lat":40.1746,"long":-74.9227},{"zip":"19053","city":"Feasterville Trevose","state":"PA","lat":40.1547,"long":-74.9904},{"zip":"19054","city":"Levittown","state":"PA","lat":40.1681,"long":-74.8231},{"zip":"19055","city":"Levittown","state":"PA","lat":40.1483,"long":-74.8371},{"zip":"19056","city":"Levittown","state":"PA","lat":40.1519,"long":-74.8826},{"zip":"19057","city":"Levittown","state":"PA","lat":40.1434,"long":-74.8614},{"zip":"19058","city":"Levittown","state":"PA","lat":40.1551,"long":-74.8288},{"zip":"19067","city":"Morrisville","state":"PA","lat":40.2084,"long":-74.8291},{"zip":"19003","city":"Ardmore","state":"PA","lat":40.002,"long":-75.2966},{"zip":"19008","city":"Broomall","state":"PA","lat":39.9747,"long":-75.3602},{"zip":"19010","city":"Bryn Mawr","state":"PA","lat":40.0236,"long":-75.3295},{"zip":"19013","city":"Chester","state":"PA","lat":39.8498,"long":-75.3747},{"zip":"19014","city":"Aston","state":"PA","lat":39.8643,"long":-75.4332},{"zip":"19015","city":"Brookhaven","state":"PA","lat":39.8654,"long":-75.3885},{"zip":"19016","city":"Chester","state":"PA","lat":39.934,"long":-75.406},{"zip":"19017","city":"Chester Heights","state":"PA","lat":39.8839,"long":-75.4669},{"zip":"19018","city":"Clifton Heights","state":"PA","lat":39.9218,"long":-75.2876},{"zip":"19022","city":"Crum Lynne","state":"PA","lat":39.8685,"long":-75.3374},{"zip":"19023","city":"Darby","state":"PA","lat":39.9176,"long":-75.2696},{"zip":"19026","city":"Drexel Hill","state":"PA","lat":39.9503,"long":-75.304},{"zip":"19028","city":"Edgemont","state":"PA","lat":39.9748,"long":-75.4505},{"zip":"19029","city":"Essington","state":"PA","lat":39.8621,"long":-75.2971},{"zip":"19032","city":"Folcroft","state":"PA","lat":39.8905,"long":-75.2821},{"zip":"19033","city":"Folsom","state":"PA","lat":39.8901,"long":-75.3296},{"zip":"19036","city":"Glenolden","state":"PA","lat":39.9048,"long":-75.2946},{"zip":"19037","city":"Glen Riddle Lima","state":"PA","lat":39.934,"long":-75.406},{"zip":"19039","city":"Gradyville","state":"PA","lat":39.9432,"long":-75.4694},{"zip":"19041","city":"Haverford","state":"PA","lat":40.0097,"long":-75.3121},{"zip":"19043","city":"Holmes","state":"PA","lat":39.9003,"long":-75.3087},{"zip":"19050","city":"Lansdowne","state":"PA","lat":39.9375,"long":-75.2637},{"zip":"19052","city":"Lenni","state":"PA","lat":39.8942,"long":-75.4456},{"zip":"19060","city":"Garnet Valley","state":"PA","lat":39.852,"long":-75.5007},{"zip":"19061","city":"Marcus Hook","state":"PA","lat":39.8295,"long":-75.4354},{"zip":"19063","city":"Media","state":"PA","lat":39.9188,"long":-75.3991},{"zip":"19064","city":"Springfield","state":"PA","lat":39.9296,"long":-75.3338},{"zip":"19065","city":"Media","state":"PA","lat":39.9211,"long":-75.3861},{"zip":"19070","city":"Morton","state":"PA","lat":39.9063,"long":-75.3238},{"zip":"19073","city":"Newtown Square","state":"PA","lat":39.9863,"long":-75.407},{"zip":"19074","city":"Norwood","state":"PA","lat":39.887,"long":-75.2972},{"zip":"19076","city":"Prospect Park","state":"PA","lat":39.8857,"long":-75.3082},{"zip":"19078","city":"Ridley Park","state":"PA","lat":39.8784,"long":-75.3215},{"zip":"19079","city":"Sharon Hill","state":"PA","lat":39.9035,"long":-75.2695},{"zip":"19080","city":"Wayne","state":"PA","lat":40.044,"long":-75.3877},{"zip":"19081","city":"Swarthmore","state":"PA","lat":39.8967,"long":-75.3474},{"zip":"19082","city":"Upper Darby","state":"PA","lat":39.9579,"long":-75.2681},{"zip":"19083","city":"Havertown","state":"PA","lat":39.9774,"long":-75.3106},{"zip":"19085","city":"Villanova","state":"PA","lat":40.0399,"long":-75.3459},{"zip":"19086","city":"Wallingford","state":"PA","lat":39.8871,"long":-75.3721},{"zip":"19087","city":"Wayne","state":"PA","lat":40.0612,"long":-75.3999},{"zip":"19088","city":"Wayne","state":"PA","lat":39.934,"long":-75.406},{"zip":"19089","city":"Wayne","state":"PA","lat":40.044,"long":-75.3877},{"zip":"19091","city":"Media","state":"PA","lat":39.934,"long":-75.406},{"zip":"19094","city":"Woodlyn","state":"PA","lat":39.876,"long":-75.3463},{"zip":"19098","city":"Holmes","state":"PA","lat":39.8954,"long":-75.3107},{"zip":"19001","city":"Abington","state":"PA","lat":40.1238,"long":-75.1148},{"zip":"19002","city":"Ambler","state":"PA","lat":40.1809,"long":-75.2156},{"zip":"19004","city":"Bala Cynwyd","state":"PA","lat":40.0118,"long":-75.2342},{"zip":"19006","city":"Huntingdon Valley","state":"PA","lat":40.1284,"long":-75.0607},{"zip":"19009","city":"Bryn Athyn","state":"PA","lat":40.135,"long":-75.0623},{"zip":"19012","city":"Cheltenham","state":"PA","lat":40.0603,"long":-75.1048},{"zip":"19025","city":"Dresher","state":"PA","lat":40.1431,"long":-75.1624},{"zip":"19027","city":"Elkins Park","state":"PA","lat":40.075,"long":-75.1315},{"zip":"19031","city":"Flourtown","state":"PA","lat":40.1068,"long":-75.2115},{"zip":"19034","city":"Fort Washington","state":"PA","lat":40.1386,"long":-75.2022},{"zip":"19035","city":"Gladwyne","state":"PA","lat":40.0451,"long":-75.2821},{"zip":"19038","city":"Glenside","state":"PA","lat":40.1096,"long":-75.155},{"zip":"19040","city":"Hatboro","state":"PA","lat":40.1785,"long":-75.1072},{"zip":"19044","city":"Horsham","state":"PA","lat":40.1821,"long":-75.1479},{"zip":"19046","city":"Jenkintown","state":"PA","lat":40.098,"long":-75.1078},{"zip":"19066","city":"Merion Station","state":"PA","lat":40.003,"long":-75.2503},{"zip":"19072","city":"Narberth","state":"PA","lat":40.0177,"long":-75.2594},{"zip":"19075","city":"Oreland","state":"PA","lat":40.1132,"long":-75.1869},{"zip":"19090","city":"Willow Grove","state":"PA","lat":40.1567,"long":-75.1269},{"zip":"19095","city":"Wyncote","state":"PA","lat":40.0867,"long":-75.1524},{"zip":"19096","city":"Wynnewood","state":"PA","lat":40,"long":-75.276},{"zip":"19019","city":"Philadelphia","state":"PA","lat":40.0018,"long":-75.1179},{"zip":"19092","city":"Philadelphia","state":"PA","lat":40.0018,"long":-75.1179},{"zip":"19093","city":"Philadelphia","state":"PA","lat":40.0018,"long":-75.1179},{"zip":"19099","city":"Philadelphia","state":"PA","lat":39.9523,"long":-75.1638}]
