[{"zip":"19301","city":"Paoli","state":"PA","lat":40.0426,"long":-75.4827},{"zip":"19310","city":"Atglen","state":"PA","lat":39.9458,"long":-75.9703},{"zip":"19311","city":"Avondale","state":"PA","lat":39.8219,"long":-75.7687},{"zip":"19312","city":"Berwyn","state":"PA","lat":40.0412,"long":-75.4475},{"zip":"19316","city":"Brandamore","state":"PA","lat":40.055,"long":-75.8378},{"zip":"19318","city":"Chatham","state":"PA","lat":39.8524,"long":-75.8118},{"zip":"19320","city":"Coatesville","state":"PA","lat":39.9843,"long":-75.8253},{"zip":"19330","city":"Cochranville","state":"PA","lat":39.8757,"long":-75.9214},{"zip":"19333","city":"Devon","state":"PA","lat":40.0452,"long":-75.4227},{"zip":"19335","city":"Downingtown","state":"PA","lat":40.0161,"long":-75.7183},{"zip":"19341","city":"Exton","state":"PA","lat":40.0468,"long":-75.6432},{"zip":"19343","city":"Glenmoore","state":"PA","lat":40.0846,"long":-75.7711},{"zip":"19344","city":"Honey Brook","state":"PA","lat":40.0832,"long":-75.8843},{"zip":"19345","city":"Immaculata","state":"PA","lat":39.8478,"long":-75.7193},{"zip":"19346","city":"Kelton","state":"PA","lat":39.8087,"long":-75.878},{"zip":"19347","city":"Kemblesville","state":"PA","lat":39.749,"long":-75.8241},{"zip":"19348","city":"Kennett Square","state":"PA","lat":39.855,"long":-75.7},{"zip":"19350","city":"Landenberg","state":"PA","lat":39.7696,"long":-75.7807},{"zip":"19351","city":"Lewisville","state":"PA","lat":39.7226,"long":-75.8749},{"zip":"19352","city":"Lincoln University","state":"PA","lat":39.7787,"long":-75.8876},{"zip":"19353","city":"Lionville","state":"PA","lat":40.0132,"long":-75.499},{"zip":"19354","city":"Lyndell","state":"PA","lat":40.0582,"long":-75.7433},{"zip":"19355","city":"Malvern","state":"PA","lat":40.0468,"long":-75.531},{"zip":"19357","city":"Mendenhall","state":"PA","lat":39.854,"long":-75.6413},{"zip":"19358","city":"Modena","state":"PA","lat":39.9621,"long":-75.8025},{"zip":"19360","city":"New London","state":"PA","lat":39.7261,"long":-75.7857},{"zip":"19362","city":"Nottingham","state":"PA","lat":39.7441,"long":-76.0356},{"zip":"19363","city":"Oxford","state":"PA","lat":39.7827,"long":-75.9815},{"zip":"19365","city":"Parkesburg","state":"PA","lat":39.9654,"long":-75.926},{"zip":"19366","city":"Pocopson","state":"PA","lat":39.9004,"long":-75.6258},{"zip":"19367","city":"Pomeroy","state":"PA","lat":39.9643,"long":-75.8866},{"zip":"19369","city":"Sadsburyville","state":"PA","lat":39.9903,"long":-75.8936},{"zip":"19371","city":"Suplee","state":"PA","lat":40.0995,"long":-75.8791},{"zip":"19372","city":"Thorndale","state":"PA","lat":39.9984,"long":-75.759},{"zip":"19374","city":"Toughkenamon","state":"PA","lat":39.8315,"long":-75.7574},{"zip":"19375","city":"Unionville","state":"PA","lat":39.9012,"long":-75.7502},{"zip":"19376","city":"Wagontown","state":"PA","lat":39.9832,"long":-75.7481},{"zip":"19380","city":"West Chester","state":"PA","lat":39.9845,"long":-75.5962},{"zip":"19381","city":"West Chester","state":"PA","lat":39.961,"long":-75.608},{"zip":"19382","city":"West Chester","state":"PA","lat":39.9441,"long":-75.5882},{"zip":"19383","city":"West Chester","state":"PA","lat":39.9455,"long":-75.6024},{"zip":"19390","city":"West Grove","state":"PA","lat":39.8253,"long":-75.8374},{"zip":"19395","city":"Westtown","state":"PA","lat":39.9328,"long":-75.5448},{"zip":"19397","city":"Southeastern","state":"PA","lat":39.9832,"long":-75.7481},{"zip":"19398","city":"Southeastern","state":"PA","lat":39.9832,"long":-75.7481},{"zip":"19399","city":"Southeastern","state":"PA","lat":39.9832,"long":-75.7481},{"zip":"19317","city":"Chadds Ford","state":"PA","lat":39.8648,"long":-75.5885},{"zip":"19319","city":"Cheyney","state":"PA","lat":39.9209,"long":-75.5222},{"zip":"19331","city":"Concordville","state":"PA","lat":39.8823,"long":-75.5165},{"zip":"19339","city":"Concordville","state":"PA","lat":39.934,"long":-75.406},{"zip":"19340","city":"Concordville","state":"PA","lat":39.8851,"long":-75.5202},{"zip":"19342","city":"Glen Mills","state":"PA","lat":39.9015,"long":-75.5049},{"zip":"19373","city":"Thornton","state":"PA","lat":39.9041,"long":-75.5313}]
