[{"zip":"19421","city":"Birchrunville","state":"PA","lat":39.9832,"long":-75.7481},{"zip":"19425","city":"Chester Springs","state":"PA","lat":40.0978,"long":-75.6398},{"zip":"19432","city":"Devault","state":"PA","lat":40.0796,"long":-75.56},{"zip":"19442","city":"Kimberton","state":"PA","lat":40.1465,"long":-75.6177},{"zip":"19457","city":"Parker Ford","state":"PA","lat":40.209,"long":-75.5984},{"zip":"19460","city":"Phoenixville","state":"PA","lat":40.1267,"long":-75.5272},{"zip":"19465","city":"Pottstown","state":"PA","lat":40.1919,"long":-75.6653},{"zip":"19470","city":"Saint Peters","state":"PA","lat":40.1867,"long":-75.7288},{"zip":"19475","city":"Spring City","state":"PA","lat":40.1765,"long":-75.5697},{"zip":"19480","city":"Uwchland","state":"PA","lat":40.098,"long":-75.688},{"zip":"19481","city":"Valley Forge","state":"PA","lat":40.0923,"long":-75.4537},{"zip":"19482","city":"Valley Forge","state":"PA","lat":40.0803,"long":-75.4554},{"zip":"19493","city":"Valley Forge","state":"PA","lat":40.0971,"long":-75.4696},{"zip":"19494","city":"Valley Forge","state":"PA","lat":40.0971,"long":-75.4696},{"zip":"19495","city":"Valley Forge","state":"PA","lat":40.0971,"long":-75.4696},{"zip":"19496","city":"Valley Forge","state":"PA","lat":40.0971,"long":-75.4696},{"zip":"19401","city":"Norristown","state":"PA","lat":40.1245,"long":-75.3304},{"zip":"19403","city":"Norristown","state":"PA","lat":40.1496,"long":-75.3796},{"zip":"19404","city":"Norristown","state":"PA","lat":40.2119,"long":-75.3559},{"zip":"19405","city":"Bridgeport","state":"PA","lat":40.103,"long":-75.3402},{"zip":"19406","city":"King Of Prussia","state":"PA","lat":40.0956,"long":-75.3737},{"zip":"19407","city":"Audubon","state":"PA","lat":40.2119,"long":-75.3559},{"zip":"19408","city":"Eagleville","state":"PA","lat":40.1566,"long":-75.4131},{"zip":"19409","city":"Fairview Village","state":"PA","lat":40.1579,"long":-75.3871},{"zip":"19415","city":"Eagleville","state":"PA","lat":40.1572,"long":-75.406},{"zip":"19422","city":"Blue Bell","state":"PA","lat":40.1576,"long":-75.2799},{"zip":"19423","city":"Cedars","state":"PA","lat":40.2174,"long":-75.365},{"zip":"19424","city":"Blue Bell","state":"PA","lat":40.1523,"long":-75.2663},{"zip":"19426","city":"Collegeville","state":"PA","lat":40.1913,"long":-75.4373},{"zip":"19428","city":"Conshohocken","state":"PA","lat":40.0825,"long":-75.3044},{"zip":"19429","city":"Conshohocken","state":"PA","lat":40.0793,"long":-75.3016},{"zip":"19430","city":"Creamery","state":"PA","lat":40.1851,"long":-75.42},{"zip":"19435","city":"Frederick","state":"PA","lat":40.3275,"long":-75.5692},{"zip":"19436","city":"Gwynedd","state":"PA","lat":40.2021,"long":-75.2507},{"zip":"19437","city":"Gwynedd Valley","state":"PA","lat":40.1811,"long":-75.2579},{"zip":"19438","city":"Harleysville","state":"PA","lat":40.2659,"long":-75.3883},{"zip":"19440","city":"Hatfield","state":"PA","lat":40.2778,"long":-75.2975},{"zip":"19441","city":"Harleysville","state":"PA","lat":40.2795,"long":-75.3871},{"zip":"19443","city":"Kulpsville","state":"PA","lat":40.241,"long":-75.3439},{"zip":"19444","city":"Lafayette Hill","state":"PA","lat":40.0896,"long":-75.2601},{"zip":"19446","city":"Lansdale","state":"PA","lat":40.2378,"long":-75.2955},{"zip":"19450","city":"Lederach","state":"PA","lat":40.2119,"long":-75.3559},{"zip":"19451","city":"Mainland","state":"PA","lat":40.2119,"long":-75.3559},{"zip":"19453","city":"Mont Clare","state":"PA","lat":40.1364,"long":-75.4999},{"zip":"19454","city":"North Wales","state":"PA","lat":40.2166,"long":-75.2565},{"zip":"19455","city":"North Wales","state":"PA","lat":40.2109,"long":-75.2782},{"zip":"19456","city":"Oaks","state":"PA","lat":40.1318,"long":-75.4596},{"zip":"19462","city":"Plymouth Meeting","state":"PA","lat":40.1077,"long":-75.2796},{"zip":"19464","city":"Pottstown","state":"PA","lat":40.2635,"long":-75.6172},{"zip":"19468","city":"Royersford","state":"PA","lat":40.2075,"long":-75.5329},{"zip":"19472","city":"Sassamansville","state":"PA","lat":40.3448,"long":-75.5775},{"zip":"19473","city":"Schwenksville","state":"PA","lat":40.2471,"long":-75.4602},{"zip":"19474","city":"Skippack","state":"PA","lat":40.2251,"long":-75.4031},{"zip":"19477","city":"Spring House","state":"PA","lat":40.1839,"long":-75.2327},{"zip":"19478","city":"Spring Mount","state":"PA","lat":40.2759,"long":-75.4618},{"zip":"19484","city":"Valley Forge","state":"PA","lat":40.2119,"long":-75.3559},{"zip":"19486","city":"West Point","state":"PA","lat":40.2033,"long":-75.3019},{"zip":"19490","city":"Worcester","state":"PA","lat":40.1929,"long":-75.3576},{"zip":"19492","city":"Zieglerville","state":"PA","lat":40.2901,"long":-75.503}]
