[{"zip":"19503","city":"Bally","state":"PA","lat":40.405,"long":-75.5769},{"zip":"19504","city":"Barto","state":"PA","lat":40.3815,"long":-75.5749},{"zip":"19505","city":"Bechtelsville","state":"PA","lat":40.3795,"long":-75.6257},{"zip":"19506","city":"Bernville","state":"PA","lat":40.4551,"long":-76.1247},{"zip":"19507","city":"Bethel","state":"PA","lat":40.4808,"long":-76.2742},{"zip":"19508","city":"Birdsboro","state":"PA","lat":40.2563,"long":-75.8344},{"zip":"19510","city":"Blandon","state":"PA","lat":40.4435,"long":-75.8837},{"zip":"19511","city":"Bowers","state":"PA","lat":40.4821,"long":-75.7435},{"zip":"19512","city":"Boyertown","state":"PA","lat":40.3339,"long":-75.6604},{"zip":"19516","city":"Centerport","state":"PA","lat":40.4858,"long":-76.006},{"zip":"19518","city":"Douglassville","state":"PA","lat":40.2709,"long":-75.7397},{"zip":"19519","city":"Earlville","state":"PA","lat":40.319,"long":-75.7334},{"zip":"19522","city":"Fleetwood","state":"PA","lat":40.4473,"long":-75.8185},{"zip":"19523","city":"Geigertown","state":"PA","lat":40.1897,"long":-75.8881},{"zip":"19526","city":"Hamburg","state":"PA","lat":40.5488,"long":-75.9874},{"zip":"19529","city":"Kempton","state":"PA","lat":40.6328,"long":-75.8513},{"zip":"19530","city":"Kutztown","state":"PA","lat":40.5214,"long":-75.7774},{"zip":"19533","city":"Leesport","state":"PA","lat":40.4152,"long":-75.9944},{"zip":"19534","city":"Lenhartsville","state":"PA","lat":40.5736,"long":-75.865},{"zip":"19535","city":"Limekiln","state":"PA","lat":40.3356,"long":-75.801},{"zip":"19536","city":"Lyon Station","state":"PA","lat":40.5218,"long":-75.7419},{"zip":"19538","city":"Maxatawny","state":"PA","lat":40.5698,"long":-75.7409},{"zip":"19539","city":"Mertztown","state":"PA","lat":40.4992,"long":-75.6872},{"zip":"19540","city":"Mohnton","state":"PA","lat":40.2584,"long":-75.9833},{"zip":"19541","city":"Mohrsville","state":"PA","lat":40.4783,"long":-76.0125},{"zip":"19543","city":"Morgantown","state":"PA","lat":40.1552,"long":-75.8998},{"zip":"19544","city":"Mount Aetna","state":"PA","lat":40.4187,"long":-76.2944},{"zip":"19545","city":"New Berlinville","state":"PA","lat":40.3397,"long":-75.6302},{"zip":"19547","city":"Oley","state":"PA","lat":40.3833,"long":-75.7706},{"zip":"19548","city":"Pine Forge","state":"PA","lat":40.2829,"long":-75.6907},{"zip":"19550","city":"Rehrersburg","state":"PA","lat":40.4553,"long":-76.2453},{"zip":"19551","city":"Robesonia","state":"PA","lat":40.3553,"long":-76.1366},{"zip":"19554","city":"Shartlesville","state":"PA","lat":40.5129,"long":-76.1044},{"zip":"19555","city":"Shoemakersville","state":"PA","lat":40.4955,"long":-75.9603},{"zip":"19559","city":"Strausstown","state":"PA","lat":40.4945,"long":-76.1825},{"zip":"19560","city":"Temple","state":"PA","lat":40.4025,"long":-75.9046},{"zip":"19562","city":"Topton","state":"PA","lat":40.5029,"long":-75.7015},{"zip":"19564","city":"Virginville","state":"PA","lat":40.524,"long":-75.873},{"zip":"19565","city":"Wernersville","state":"PA","lat":40.3293,"long":-76.0901},{"zip":"19567","city":"Womelsdorf","state":"PA","lat":40.3743,"long":-76.1985},{"zip":"19520","city":"Elverson","state":"PA","lat":40.1568,"long":-75.7866},{"zip":"19501","city":"Adamstown","state":"PA","lat":40.2423,"long":-76.0577},{"zip":"19525","city":"Gilbertsville","state":"PA","lat":40.3059,"long":-75.5953},{"zip":"19549","city":"Port Clinton","state":"PA","lat":40.5818,"long":-76.0267}]
