[{"zip":"19701","city":"Bear","state":"DE","lat":39.6102,"long":-75.6747},{"zip":"19702","city":"Newark","state":"DE","lat":39.6349,"long":-75.6993},{"zip":"19703","city":"Claymont","state":"DE","lat":39.8044,"long":-75.4649},{"zip":"19706","city":"Delaware City","state":"DE","lat":39.5725,"long":-75.5957},{"zip":"19707","city":"Hockessin","state":"DE","lat":39.776,"long":-75.6889},{"zip":"19708","city":"Kirkwood","state":"DE","lat":39.5776,"long":-75.6901},{"zip":"19709","city":"Middletown","state":"DE","lat":39.4815,"long":-75.6832},{"zip":"19710","city":"Montchanin","state":"DE","lat":39.7578,"long":-75.6391},{"zip":"19711","city":"Newark","state":"DE","lat":39.7011,"long":-75.7375},{"zip":"19712","city":"Newark","state":"DE","lat":39.5645,"long":-75.597},{"zip":"19713","city":"Newark","state":"DE","lat":39.6699,"long":-75.7151},{"zip":"19714","city":"Newark","state":"DE","lat":39.5645,"long":-75.597},{"zip":"19715","city":"Newark","state":"DE","lat":39.5645,"long":-75.597},{"zip":"19716","city":"Newark","state":"DE","lat":39.6896,"long":-75.7584},{"zip":"19717","city":"Newark","state":"DE","lat":39.5645,"long":-75.597},{"zip":"19718","city":"Newark","state":"DE","lat":39.5645,"long":-75.597},{"zip":"19720","city":"New Castle","state":"DE","lat":39.5929,"long":-75.6515},{"zip":"19721","city":"New Castle","state":"DE","lat":39.5645,"long":-75.597},{"zip":"19725","city":"Newark","state":"DE","lat":39.5645,"long":-75.597},{"zip":"19726","city":"New Castle","state":"DE","lat":39.6621,"long":-75.5663},{"zip":"19730","city":"Odessa","state":"DE","lat":39.4592,"long":-75.6536},{"zip":"19731","city":"Port Penn","state":"DE","lat":39.5129,"long":-75.5852},{"zip":"19732","city":"Rockland","state":"DE","lat":39.7939,"long":-75.5738},{"zip":"19733","city":"Saint Georges","state":"DE","lat":39.5555,"long":-75.6505},{"zip":"19734","city":"Townsend","state":"DE","lat":39.3819,"long":-75.6834},{"zip":"19735","city":"Winterthur","state":"DE","lat":39.7944,"long":-75.5976},{"zip":"19736","city":"Yorklyn","state":"DE","lat":39.8082,"long":-75.6755}]
