[{"zip":"19801","city":"Wilmington","state":"DE","lat":39.7378,"long":-75.5497},{"zip":"19802","city":"Wilmington","state":"DE","lat":39.7564,"long":-75.534},{"zip":"19803","city":"Wilmington","state":"DE","lat":39.7994,"long":-75.5317},{"zip":"19804","city":"Wilmington","state":"DE","lat":39.7168,"long":-75.6184},{"zip":"19805","city":"Wilmington","state":"DE","lat":39.7434,"long":-75.5827},{"zip":"19806","city":"Wilmington","state":"DE","lat":39.7571,"long":-75.5635},{"zip":"19807","city":"Wilmington","state":"DE","lat":39.7949,"long":-75.6161},{"zip":"19808","city":"Wilmington","state":"DE","lat":39.7359,"long":-75.6647},{"zip":"19809","city":"Wilmington","state":"DE","lat":39.7647,"long":-75.5069},{"zip":"19810","city":"Wilmington","state":"DE","lat":39.8188,"long":-75.5064},{"zip":"19850","city":"Wilmington","state":"DE","lat":39.5645,"long":-75.597},{"zip":"19880","city":"Wilmington","state":"DE","lat":39.5645,"long":-75.597},{"zip":"19884","city":"Wilmington","state":"DE","lat":39.7459,"long":-75.5466},{"zip":"19885","city":"Wilmington","state":"DE","lat":39.7459,"long":-75.5466},{"zip":"19886","city":"Wilmington","state":"DE","lat":39.7459,"long":-75.5466},{"zip":"19890","city":"Wilmington","state":"DE","lat":39.5645,"long":-75.597},{"zip":"19891","city":"Wilmington","state":"DE","lat":39.5645,"long":-75.597},{"zip":"19892","city":"Wilmington","state":"DE","lat":39.5645,"long":-75.597},{"zip":"19893","city":"Wilmington","state":"DE","lat":39.7459,"long":-75.5466},{"zip":"19894","city":"Wilmington","state":"DE","lat":39.7459,"long":-75.5466},{"zip":"19895","city":"Wilmington","state":"DE","lat":39.7459,"long":-75.5466},{"zip":"19896","city":"Wilmington","state":"DE","lat":39.5645,"long":-75.597},{"zip":"19897","city":"Wilmington","state":"DE","lat":39.5645,"long":-75.597},{"zip":"19898","city":"Wilmington","state":"DE","lat":39.7459,"long":-75.5466},{"zip":"19899","city":"Wilmington","state":"DE","lat":39.7459,"long":-75.5466}]
