[{"zip":"20001","city":"Washington","state":"DC","lat":38.9122,"long":-77.0177},{"zip":"20002","city":"Washington","state":"DC","lat":38.9024,"long":-76.9901},{"zip":"20003","city":"Washington","state":"DC","lat":38.8829,"long":-76.9895},{"zip":"20004","city":"Washington","state":"DC","lat":38.893,"long":-77.0263},{"zip":"20005","city":"Washington","state":"DC","lat":38.9067,"long":-77.0312},{"zip":"20006","city":"Washington","state":"DC","lat":38.8964,"long":-77.0447},{"zip":"20007","city":"Washington","state":"DC","lat":38.9144,"long":-77.074},{"zip":"20008","city":"Washington","state":"DC","lat":38.9363,"long":-77.0599},{"zip":"20009","city":"Washington","state":"DC","lat":38.9202,"long":-77.0375},{"zip":"20010","city":"Washington","state":"DC","lat":38.9327,"long":-77.0322},{"zip":"20011","city":"Washington","state":"DC","lat":38.9518,"long":-77.0203},{"zip":"20012","city":"Washington","state":"DC","lat":38.9757,"long":-77.0282},{"zip":"20013","city":"Washington","state":"DC","lat":38.8933,"long":-77.0146},{"zip":"20015","city":"Washington","state":"DC","lat":38.9658,"long":-77.068},{"zip":"20016","city":"Washington","state":"DC","lat":38.9381,"long":-77.086},{"zip":"20017","city":"Washington","state":"DC","lat":38.9367,"long":-76.994},{"zip":"20018","city":"Washington","state":"DC","lat":38.9277,"long":-76.9762},{"zip":"20019","city":"Washington","state":"DC","lat":38.8902,"long":-76.9376},{"zip":"20020","city":"Washington","state":"DC","lat":38.86,"long":-76.9742},{"zip":"20022","city":"Washington","state":"DC","lat":38.945,"long":-77.0364},{"zip":"20024","city":"Washington","state":"DC","lat":38.8759,"long":-77.016},{"zip":"20026","city":"Washington","state":"DC","lat":38.8933,"long":-77.0146},{"zip":"20027","city":"Washington","state":"DC","lat":38.9007,"long":-77.0501},{"zip":"20029","city":"Washington","state":"DC","lat":38.8933,"long":-77.0146},{"zip":"20030","city":"Washington","state":"DC","lat":38.8933,"long":-77.0146},{"zip":"20032","city":"Washington","state":"DC","lat":38.8338,"long":-76.9995},{"zip":"20033","city":"Washington","state":"DC","lat":38.8933,"long":-77.0146},{"zip":"20035","city":"Washington","state":"DC","lat":38.8933,"long":-77.0146},{"zip":"20036","city":"Washington","state":"DC","lat":38.9087,"long":-77.0414},{"zip":"20037","city":"Washington","state":"DC","lat":38.9014,"long":-77.0504},{"zip":"20038","city":"Washington","state":"DC","lat":38.8933,"long":-77.0146},{"zip":"20039","city":"Washington","state":"DC","lat":38.8933,"long":-77.0146},{"zip":"20040","city":"Washington","state":"DC","lat":38.8933,"long":-77.0146},{"zip":"20041","city":"Washington","state":"DC","lat":38.8933,"long":-77.0146},{"zip":"20042","city":"Washington","state":"DC","lat":38.8933,"long":-77.0146},{"zip":"20043","city":"Washington","state":"DC","lat":38.8933,"long":-77.0146},{"zip":"20044","city":"Washington","state":"DC","lat":38.8933,"long":-77.0146},{"zip":"20045","city":"Washington","state":"DC","lat":38.8966,"long":-77.0319},{"zip":"20047","city":"Washington","state":"DC","lat":38.8933,"long":-77.0146},{"zip":"20049","city":"Washington","state":"DC","lat":38.8959,"long":-77.021},{"zip":"20050","city":"Washington","state":"DC","lat":38.8933,"long":-77.0146},{"zip":"20052","city":"Washington","state":"DC","lat":38.9001,"long":-77.0479},{"zip":"20053","city":"Washington","state":"DC","lat":38.8933,"long":-77.0146},{"zip":"20055","city":"Washington","state":"DC","lat":38.9016,"long":-77.021},{"zip":"20056","city":"Washington","state":"DC","lat":38.8933,"long":-77.0146},{"zip":"20057","city":"Washington","state":"DC","lat":38.8933,"long":-77.0146},{"zip":"20058","city":"Washington","state":"DC","lat":38.8933,"long":-77.0146},{"zip":"20059","city":"Washington","state":"DC","lat":38.8933,"long":-77.0146},{"zip":"20060","city":"Washington","state":"DC","lat":38.918,"long":-77.0204},{"zip":"20061","city":"Washington","state":"DC","lat":38.8933,"long":-77.0146},{"zip":"20062","city":"Washington","state":"DC","lat":38.9,"long":-77.0369},{"zip":"20063","city":"Washington","state":"DC","lat":38.9053,"long":-77.0466},{"zip":"20064","city":"Washington","state":"DC","lat":38.9332,"long":-76.9963},{"zip":"20065","city":"Washington","state":"DC","lat":38.8834,"long":-77.0282},{"zip":"20066","city":"Washington","state":"DC","lat":38.8933,"long":-77.0146},{"zip":"20067","city":"Washington","state":"DC","lat":38.8933,"long":-77.0146},{"zip":"20068","city":"Washington","state":"DC","lat":38.8951,"long":-77.0364},{"zip":"20069","city":"Washington","state":"DC","lat":38.8933,"long":-77.0146},{"zip":"20070","city":"Washington","state":"DC","lat":38.8933,"long":-77.0146},{"zip":"20071","city":"Washington","state":"DC","lat":38.8933,"long":-77.0146},{"zip":"20073","city":"Washington","state":"DC","lat":38.897,"long":-77.0251},{"zip":"20074","city":"Washington","state":"DC","lat":38.8933,"long":-77.0146},{"zip":"20075","city":"Washington","state":"DC","lat":38.8933,"long":-77.0146},{"zip":"20076","city":"Washington","state":"DC","lat":38.8933,"long":-77.0146},{"zip":"20077","city":"Washington","state":"DC","lat":38.8933,"long":-77.0146},{"zip":"20078","city":"Washington","state":"DC","lat":38.8933,"long":-77.0146},{"zip":"20080","city":"Washington","state":"DC","lat":38.8933,"long":-77.0146},{"zip":"20081","city":"Washington","state":"DC","lat":38.8933,"long":-77.0146},{"zip":"20082","city":"Washington","state":"DC","lat":38.8933,"long":-77.0146},{"zip":"20090","city":"Washington","state":"DC","lat":38.8933,"long":-77.0146},{"zip":"20091","city":"Washington","state":"DC","lat":38.8933,"long":-77.0146},{"zip":"20201","city":"Washington","state":"DC","lat":38.8933,"long":-77.0146},{"zip":"20202","city":"Washington","state":"DC","lat":38.8933,"long":-77.0146},{"zip":"20203","city":"Washington","state":"DC","lat":38.9053,"long":-77.0466},{"zip":"20204","city":"Washington","state":"DC","lat":38.8933,"long":-77.0146},{"zip":"20206","city":"Washington","state":"DC","lat":38.8933,"long":-77.0146},{"zip":"20207","city":"Washington","state":"DC","lat":38.8933,"long":-77.0146},{"zip":"20208","city":"Washington","state":"DC","lat":38.8966,"long":-77.0117},{"zip":"20210","city":"Washington","state":"DC","lat":38.8933,"long":-77.0146},{"zip":"20211","city":"Washington","state":"DC","lat":38.8933,"long":-77.0146},{"zip":"20212","city":"Washington","state":"DC","lat":38.8933,"long":-77.0146},{"zip":"20213","city":"Washington","state":"DC","lat":38.8933,"long":-77.0146},{"zip":"20214","city":"Washington","state":"DC","lat":38.8933,"long":-77.0146},{"zip":"20215","city":"Washington","state":"DC","lat":38.8933,"long":-77.0146},{"zip":"20216","city":"Washington","state":"DC","lat":38.8919,"long":-77.0141},{"zip":"20217","city":"Washington","state":"DC","lat":38.8933,"long":-77.0146},{"zip":"20218","city":"Washington","state":"DC","lat":38.8933,"long":-77.0146},{"zip":"20219","city":"Washington","state":"DC","lat":38.8933,"long":-77.0146},{"zip":"20220","city":"Washington","state":"DC","lat":38.8933,"long":-77.0146},{"zip":"20221","city":"Washington","state":"DC","lat":38.8933,"long":-77.0146},{"zip":"20222","city":"Washington","state":"DC","lat":38.8933,"long":-77.0146},{"zip":"20223","city":"Washington","state":"DC","lat":38.8933,"long":-77.0146},{"zip":"20224","city":"Washington","state":"DC","lat":38.8933,"long":-77.0146},{"zip":"20226","city":"Washington","state":"DC","lat":38.8933,"long":-77.0146},{"zip":"20227","city":"Washington","state":"DC","lat":38.8933,"long":-77.0146},{"zip":"20228","city":"Washington","state":"DC","lat":38.8933,"long":-77.0146},{"zip":"20229","city":"Washington","state":"DC","lat":38.8933,"long":-77.0146},{"zip":"20230","city":"Washington","state":"DC","lat":38.8933,"long":-77.0146},{"zip":"20232","city":"Washington","state":"DC","lat":38.9006,"long":-77.0391},{"zip":"20233","city":"Washington","state":"DC","lat":38.8933,"long":-77.0146},{"zip":"20235","city":"Washington","state":"DC","lat":38.9154,"long":-77.0572},{"zip":"20237","city":"Washington","state":"DC","lat":38.895,"long":-77.0367},{"zip":"20238","city":"Washington","state":"DC","lat":38.8933,"long":-77.0146},{"zip":"20239","city":"Washington","state":"DC","lat":38.8933,"long":-77.0146},{"zip":"20240","city":"Washington","state":"DC","lat":38.8971,"long":-77.0409},{"zip":"20241","city":"Washington","state":"DC","lat":38.8933,"long":-77.0146},{"zip":"20242","city":"Washington","state":"DC","lat":38.8678,"long":-77.0289},{"zip":"20244","city":"Washington","state":"DC","lat":38.8933,"long":-77.0146},{"zip":"20245","city":"Washington","state":"DC","lat":38.8933,"long":-77.0146},{"zip":"20250","city":"Washington","state":"DC","lat":38.8873,"long":-77.0327},{"zip":"20251","city":"Washington","state":"DC","lat":38.8933,"long":-77.0146},{"zip":"20254","city":"Washington","state":"DC","lat":38.8933,"long":-77.0146},{"zip":"20260","city":"Washington","state":"DC","lat":38.8933,"long":-77.0146},{"zip":"20261","city":"Washington","state":"DC","lat":38.8933,"long":-77.0146},{"zip":"20262","city":"Washington","state":"DC","lat":38.8933,"long":-77.0146},{"zip":"20265","city":"Washington","state":"DC","lat":38.8933,"long":-77.0146},{"zip":"20266","city":"Washington","state":"DC","lat":38.8933,"long":-77.0146},{"zip":"20268","city":"Washington","state":"DC","lat":38.8933,"long":-77.0146},{"zip":"20270","city":"Washington","state":"DC","lat":38.8933,"long":-77.0146},{"zip":"20277","city":"Washington","state":"DC","lat":38.8933,"long":-77.0146},{"zip":"20289","city":"Washington","state":"DC","lat":38.8933,"long":-77.0146},{"zip":"20299","city":"Washington","state":"DC","lat":38.8933,"long":-77.0146},{"zip":"20301","city":"Washington","state":"DC","lat":38.8894,"long":-77.0311},{"zip":"20303","city":"Washington","state":"DC","lat":38.8933,"long":-77.0146},{"zip":"20306","city":"Washington","state":"DC","lat":38.8933,"long":-77.0146},{"zip":"20310","city":"Washington","state":"DC","lat":38.8933,"long":-77.0146},{"zip":"20314","city":"Washington","state":"DC","lat":38.8933,"long":-77.0146},{"zip":"20317","city":"Washington","state":"DC","lat":38.9363,"long":-77.0123},{"zip":"20318","city":"Washington","state":"DC","lat":38.8933,"long":-77.0146},{"zip":"20319","city":"Washington","state":"DC","lat":38.8667,"long":-77.0166},{"zip":"20330","city":"Washington","state":"DC","lat":38.8933,"long":-77.0146},{"zip":"20340","city":"Washington","state":"DC","lat":38.8933,"long":-77.0146},{"zip":"20350","city":"Washington","state":"DC","lat":38.8933,"long":-77.0146},{"zip":"20355","city":"Washington","state":"DC","lat":38.8951,"long":-77.0369},{"zip":"20370","city":"Washington","state":"DC","lat":38.8933,"long":-77.0146},{"zip":"20372","city":"Washington","state":"DC","lat":38.8933,"long":-77.0146},{"zip":"20373","city":"Naval Anacost Annex","state":"DC","lat":38.8951,"long":-77.0364},{"zip":"20374","city":"Washington Navy Yard","state":"DC","lat":38.8951,"long":-77.0364},{"zip":"20375","city":"Washington","state":"DC","lat":38.8262,"long":-77.0174},{"zip":"20376","city":"Washington Navy Yard","state":"DC","lat":38.9164,"long":-76.9947},{"zip":"20380","city":"Washington","state":"DC","lat":38.8933,"long":-77.0146},{"zip":"20388","city":"Washington Navy Yard","state":"DC","lat":38.8951,"long":-77.0364},{"zip":"20389","city":"Washington","state":"DC","lat":38.8933,"long":-77.0146},{"zip":"20390","city":"Washington","state":"DC","lat":38.8933,"long":-77.0146},{"zip":"20391","city":"Washington Navy Yard","state":"DC","lat":38.8951,"long":-77.0364},{"zip":"20392","city":"Washington","state":"DC","lat":38.8933,"long":-77.0146},{"zip":"20393","city":"Washington","state":"DC","lat":38.8933,"long":-77.0146},{"zip":"20394","city":"Washington","state":"DC","lat":38.8933,"long":-77.0146},{"zip":"20395","city":"Washington","state":"DC","lat":38.8933,"long":-77.0146},{"zip":"20398","city":"Washington Navy Yard","state":"DC","lat":38.8951,"long":-77.0364},{"zip":"20401","city":"Washington","state":"DC","lat":38.8933,"long":-77.0146},{"zip":"20402","city":"Washington","state":"DC","lat":38.8933,"long":-77.0146},{"zip":"20403","city":"Washington","state":"DC","lat":38.8933,"long":-77.0146},{"zip":"20404","city":"Washington","state":"DC","lat":38.8992,"long":-77.0089},{"zip":"20405","city":"Washington","state":"DC","lat":38.8933,"long":-77.0146},{"zip":"20406","city":"Washington","state":"DC","lat":38.8933,"long":-77.0146},{"zip":"20407","city":"Washington","state":"DC","lat":38.8933,"long":-77.0146},{"zip":"20408","city":"Washington","state":"DC","lat":38.8933,"long":-77.0146},{"zip":"20409","city":"Washington","state":"DC","lat":38.8933,"long":-77.0146},{"zip":"20410","city":"Washington","state":"DC","lat":38.8933,"long":-77.0146},{"zip":"20411","city":"Washington","state":"DC","lat":38.884,"long":-77.0221},{"zip":"20412","city":"Washington","state":"DC","lat":38.8953,"long":-77.0221},{"zip":"20413","city":"Washington","state":"DC","lat":38.8933,"long":-77.0146},{"zip":"20414","city":"Washington","state":"DC","lat":38.884,"long":-77.0221},{"zip":"20415","city":"Washington","state":"DC","lat":38.8933,"long":-77.0146},{"zip":"20416","city":"Washington","state":"DC","lat":38.8933,"long":-77.0146},{"zip":"20418","city":"Washington","state":"DC","lat":38.9043,"long":-77.0572},{"zip":"20419","city":"Washington","state":"DC","lat":38.8933,"long":-77.0146},{"zip":"20420","city":"Washington","state":"DC","lat":38.9035,"long":-77.0276},{"zip":"20421","city":"Washington","state":"DC","lat":38.8933,"long":-77.0146},{"zip":"20422","city":"Washington","state":"DC","lat":38.8933,"long":-77.0146},{"zip":"20423","city":"Washington","state":"DC","lat":38.8933,"long":-77.0146},{"zip":"20424","city":"Washington","state":"DC","lat":38.8933,"long":-77.0146},{"zip":"20425","city":"Washington","state":"DC","lat":38.8933,"long":-77.0146},{"zip":"20426","city":"Washington","state":"DC","lat":38.8933,"long":-77.0146},{"zip":"20427","city":"Washington","state":"DC","lat":38.9021,"long":-77.0476},{"zip":"20428","city":"Washington","state":"DC","lat":38.8933,"long":-77.0146},{"zip":"20429","city":"Washington","state":"DC","lat":38.8933,"long":-77.0146},{"zip":"20431","city":"Washington","state":"DC","lat":38.8986,"long":-77.0428},{"zip":"20433","city":"Washington","state":"DC","lat":38.9,"long":-77.042},{"zip":"20434","city":"Washington","state":"DC","lat":38.8933,"long":-77.0146},{"zip":"20435","city":"Washington","state":"DC","lat":38.8994,"long":-77.0403},{"zip":"20436","city":"Washington","state":"DC","lat":38.8959,"long":-77.0211},{"zip":"20437","city":"Washington","state":"DC","lat":38.9028,"long":-77.0485},{"zip":"20439","city":"Washington","state":"DC","lat":38.8933,"long":-77.0146},{"zip":"20440","city":"Washington","state":"DC","lat":38.9139,"long":-77.0453},{"zip":"20441","city":"Washington","state":"DC","lat":38.9239,"long":-77.0363},{"zip":"20442","city":"Washington","state":"DC","lat":38.896,"long":-77.0177},{"zip":"20444","city":"Washington","state":"DC","lat":38.8933,"long":-77.0146},{"zip":"20447","city":"Washington","state":"DC","lat":38.8847,"long":-77.0252},{"zip":"20451","city":"Washington","state":"DC","lat":38.8977,"long":-77.0444},{"zip":"20453","city":"Washington","state":"DC","lat":38.8933,"long":-77.0146},{"zip":"20456","city":"Washington","state":"DC","lat":38.8981,"long":-77.0401},{"zip":"20460","city":"Washington","state":"DC","lat":38.8764,"long":-77.0188},{"zip":"20463","city":"Washington","state":"DC","lat":38.8933,"long":-77.0146},{"zip":"20468","city":"Washington","state":"DC","lat":38.8933,"long":-77.0146},{"zip":"20469","city":"Washington","state":"DC","lat":38.8933,"long":-77.0146},{"zip":"20470","city":"Washington","state":"DC","lat":38.8933,"long":-77.0146},{"zip":"20472","city":"Washington","state":"DC","lat":38.8933,"long":-77.0146},{"zip":"20500","city":"Washington","state":"DC","lat":38.8946,"long":-77.0355},{"zip":"20501","city":"Washington","state":"DC","lat":38.8987,"long":-77.0362},{"zip":"20502","city":"Washington","state":"DC","lat":38.8987,"long":-77.0362},{"zip":"20503","city":"Washington","state":"DC","lat":38.9007,"long":-77.0431},{"zip":"20504","city":"Washington","state":"DC","lat":38.8933,"long":-77.0146},{"zip":"20505","city":"Washington","state":"DC","lat":38.8933,"long":-77.0146},{"zip":"20506","city":"Washington","state":"DC","lat":38.8994,"long":-77.0377},{"zip":"20507","city":"Washington","state":"DC","lat":38.8933,"long":-77.0146},{"zip":"20508","city":"Washington","state":"DC","lat":38.8933,"long":-77.0146},{"zip":"20509","city":"Washington","state":"DC","lat":38.8987,"long":-77.0356},{"zip":"20510","city":"Washington","state":"DC","lat":38.8933,"long":-77.0146},{"zip":"20511","city":"Washington","state":"DC","lat":38.8951,"long":-77.0364},{"zip":"20515","city":"Washington","state":"DC","lat":38.8933,"long":-77.0146},{"zip":"20520","city":"Washington","state":"DC","lat":38.8932,"long":-77.049},{"zip":"20521","city":"Washington","state":"DC","lat":38.8933,"long":-77.0146},{"zip":"20522","city":"Washington","state":"DC","lat":38.8932,"long":-77.049},{"zip":"20523","city":"Washington","state":"DC","lat":38.8945,"long":-77.0478},{"zip":"20524","city":"Washington","state":"DC","lat":38.9024,"long":-77.0326},{"zip":"20525","city":"Washington","state":"DC","lat":38.8933,"long":-77.0146},{"zip":"20526","city":"Washington","state":"DC","lat":38.9022,"long":-77.0437},{"zip":"20527","city":"Washington","state":"DC","lat":38.9029,"long":-77.0361},{"zip":"20528","city":"Washington","state":"DC","lat":38.8951,"long":-77.0369},{"zip":"20529","city":"Washington","state":"DC","lat":38.8973,"long":-77.0142},{"zip":"20530","city":"Washington","state":"DC","lat":38.8976,"long":-77.027},{"zip":"20531","city":"Washington","state":"DC","lat":38.8938,"long":-77.0218},{"zip":"20533","city":"Washington","state":"DC","lat":38.9011,"long":-77.0326},{"zip":"20534","city":"Washington","state":"DC","lat":38.8941,"long":-77.0125},{"zip":"20535","city":"Washington","state":"DC","lat":38.8941,"long":-77.0251},{"zip":"20536","city":"Washington","state":"DC","lat":38.9012,"long":-77.0169},{"zip":"20537","city":"Washington","state":"DC","lat":38.8941,"long":-77.0251},{"zip":"20538","city":"Washington","state":"DC","lat":38.8933,"long":-77.0146},{"zip":"20539","city":"Washington","state":"DC","lat":38.8933,"long":-77.0146},{"zip":"20540","city":"Washington","state":"DC","lat":38.8874,"long":-77.0047},{"zip":"20541","city":"Washington","state":"DC","lat":38.8874,"long":-77.0047},{"zip":"20542","city":"Washington","state":"DC","lat":38.9408,"long":-77.0283},{"zip":"20543","city":"Washington","state":"DC","lat":38.8933,"long":-77.0146},{"zip":"20544","city":"Washington","state":"DC","lat":38.8933,"long":-77.0146},{"zip":"20546","city":"Washington","state":"DC","lat":38.891,"long":-77.0211},{"zip":"20547","city":"Washington","state":"DC","lat":38.8933,"long":-77.0146},{"zip":"20548","city":"Washington","state":"DC","lat":38.8981,"long":-77.0177},{"zip":"20549","city":"Washington","state":"DC","lat":38.8933,"long":-77.0146},{"zip":"20551","city":"Washington","state":"DC","lat":38.892,"long":-77.0452},{"zip":"20552","city":"Washington","state":"DC","lat":38.8933,"long":-77.0146},{"zip":"20553","city":"Washington","state":"DC","lat":38.8873,"long":-77.0231},{"zip":"20554","city":"Washington","state":"DC","lat":38.8933,"long":-77.0146},{"zip":"20555","city":"Washington","state":"DC","lat":38.9,"long":-77.0401},{"zip":"20557","city":"Washington","state":"DC","lat":38.8874,"long":-77.0047},{"zip":"20559","city":"Washington","state":"DC","lat":38.8874,"long":-77.0047},{"zip":"20560","city":"Washington","state":"DC","lat":38.8933,"long":-77.0146},{"zip":"20565","city":"Washington","state":"DC","lat":38.8919,"long":-77.0189},{"zip":"20566","city":"Washington","state":"DC","lat":38.8971,"long":-77.0554},{"zip":"20570","city":"Washington","state":"DC","lat":38.8991,"long":-77.0401},{"zip":"20571","city":"Washington","state":"DC","lat":38.9006,"long":-77.0346},{"zip":"20572","city":"Washington","state":"DC","lat":38.8933,"long":-77.0146},{"zip":"20573","city":"Washington","state":"DC","lat":38.8933,"long":-77.0146},{"zip":"20575","city":"Washington","state":"DC","lat":38.8933,"long":-77.0146},{"zip":"20576","city":"Washington","state":"DC","lat":38.8937,"long":-77.0236},{"zip":"20577","city":"Washington","state":"DC","lat":38.9008,"long":-77.0345},{"zip":"20578","city":"Washington","state":"DC","lat":38.8933,"long":-77.0146},{"zip":"20579","city":"Washington","state":"DC","lat":38.9043,"long":-77.0446},{"zip":"20580","city":"Washington","state":"DC","lat":38.8933,"long":-77.0146},{"zip":"20581","city":"Washington","state":"DC","lat":38.8933,"long":-77.0146},{"zip":"20585","city":"Washington","state":"DC","lat":38.8933,"long":-77.0146},{"zip":"20586","city":"Washington","state":"DC","lat":38.9022,"long":-77.0474},{"zip":"20590","city":"Washington","state":"DC","lat":38.884,"long":-77.0221},{"zip":"20591","city":"Washington","state":"DC","lat":38.8933,"long":-77.0146},{"zip":"20593","city":"Washington","state":"DC","lat":38.8933,"long":-77.0146},{"zip":"20594","city":"Washington","state":"DC","lat":38.8849,"long":-77.0184},{"zip":"20597","city":"Washington","state":"DC","lat":38.8933,"long":-77.0146},{"zip":"20599","city":"Washington","state":"DC","lat":38.8933,"long":-77.0146},{"zip":"20711","city":"Lothian","state":"MD","lat":38.8029,"long":-76.6628},{"zip":"20724","city":"Laurel","state":"MD","lat":39.0958,"long":-76.8155},{"zip":"20733","city":"Churchton","state":"MD","lat":38.8018,"long":-76.5248},{"zip":"20751","city":"Deale","state":"MD","lat":38.7829,"long":-76.5515},{"zip":"20755","city":"Fort George G Meade","state":"MD","lat":39.1059,"long":-76.7467},{"zip":"20758","city":"Friendship","state":"MD","lat":38.7361,"long":-76.5835},{"zip":"20764","city":"Shady Side","state":"MD","lat":38.8368,"long":-76.5109},{"zip":"20765","city":"Galesville","state":"MD","lat":38.8446,"long":-76.5456},{"zip":"20776","city":"Harwood","state":"MD","lat":38.8582,"long":-76.6145},{"zip":"20778","city":"West River","state":"MD","lat":38.8252,"long":-76.5391},{"zip":"20779","city":"Tracys Landing","state":"MD","lat":38.7671,"long":-76.5752},{"zip":"20610","city":"Barstow","state":"MD","lat":38.5254,"long":-76.6161},{"zip":"20615","city":"Broomes Island","state":"MD","lat":38.418,"long":-76.5478},{"zip":"20629","city":"Dowell","state":"MD","lat":38.3364,"long":-76.4524},{"zip":"20639","city":"Huntingtown","state":"MD","lat":38.6095,"long":-76.6003},{"zip":"20657","city":"Lusby","state":"MD","lat":38.3661,"long":-76.4346},{"zip":"20676","city":"Port Republic","state":"MD","lat":38.4952,"long":-76.5349},{"zip":"20678","city":"Prince Frederick","state":"MD","lat":38.5336,"long":-76.5955},{"zip":"20685","city":"Saint Leonard","state":"MD","lat":38.4501,"long":-76.511},{"zip":"20688","city":"Solomons","state":"MD","lat":38.3293,"long":-76.4651},{"zip":"20689","city":"Sunderland","state":"MD","lat":38.649,"long":-76.5767},{"zip":"20714","city":"North Beach","state":"MD","lat":38.7119,"long":-76.5367},{"zip":"20732","city":"Chesapeake Beach","state":"MD","lat":38.6698,"long":-76.5376},{"zip":"20736","city":"Owings","state":"MD","lat":38.6955,"long":-76.6061},{"zip":"20754","city":"Dunkirk","state":"MD","lat":38.7408,"long":-76.6427},{"zip":"20601","city":"Waldorf","state":"MD","lat":38.6371,"long":-76.8778},{"zip":"20602","city":"Waldorf","state":"MD","lat":38.584,"long":-76.8942},{"zip":"20603","city":"Waldorf","state":"MD","lat":38.6294,"long":-76.9769},{"zip":"20604","city":"Waldorf","state":"MD","lat":38.5095,"long":-76.9817},{"zip":"20611","city":"Bel Alton","state":"MD","lat":38.4731,"long":-76.9789},{"zip":"20612","city":"Benedict","state":"MD","lat":38.5093,"long":-76.6797},{"zip":"20616","city":"Bryans Road","state":"MD","lat":38.6415,"long":-77.0766},{"zip":"20617","city":"Bryantown","state":"MD","lat":38.5426,"long":-76.8465},{"zip":"20625","city":"Cobb Island","state":"MD","lat":38.262,"long":-76.8502},{"zip":"20632","city":"Faulkner","state":"MD","lat":38.4382,"long":-76.9729},{"zip":"20637","city":"Hughesville","state":"MD","lat":38.5207,"long":-76.7817},{"zip":"20640","city":"Indian Head","state":"MD","lat":38.6001,"long":-77.1622},{"zip":"20643","city":"Ironsides","state":"MD","lat":38.5039,"long":-77.1483},{"zip":"20645","city":"Issue","state":"MD","lat":38.2926,"long":-76.9059},{"zip":"20646","city":"La Plata","state":"MD","lat":38.5257,"long":-76.9865},{"zip":"20658","city":"Marbury","state":"MD","lat":38.5633,"long":-77.1596},{"zip":"20661","city":"Mount Victoria","state":"MD","lat":38.3436,"long":-76.8846},{"zip":"20662","city":"Nanjemoy","state":"MD","lat":38.4462,"long":-77.1983},{"zip":"20664","city":"Newburg","state":"MD","lat":38.3298,"long":-76.9175},{"zip":"20675","city":"Pomfret","state":"MD","lat":38.5855,"long":-77.0093},{"zip":"20677","city":"Port Tobacco","state":"MD","lat":38.4994,"long":-77.0419},{"zip":"20682","city":"Rock Point","state":"MD","lat":38.2836,"long":-76.8481},{"zip":"20693","city":"Welcome","state":"MD","lat":38.4672,"long":-77.095},{"zip":"20695","city":"White Plains","state":"MD","lat":38.5974,"long":-76.9903},{"zip":"20701","city":"Annapolis Junction","state":"MD","lat":39.1332,"long":-76.7988},{"zip":"20723","city":"Laurel","state":"MD","lat":39.1208,"long":-76.8435},{"zip":"20759","city":"Fulton","state":"MD","lat":39.1502,"long":-76.93},{"zip":"20763","city":"Savage","state":"MD","lat":39.138,"long":-76.8218},{"zip":"20777","city":"Highland","state":"MD","lat":39.1843,"long":-76.9686},{"zip":"20794","city":"Jessup","state":"MD","lat":39.1484,"long":-76.7922},{"zip":"20810","city":"Bethesda","state":"MD","lat":38.9806,"long":-77.1008},{"zip":"20811","city":"Bethesda","state":"MD","lat":38.9806,"long":-77.1008},{"zip":"20812","city":"Glen Echo","state":"MD","lat":38.9693,"long":-77.1435},{"zip":"20813","city":"Bethesda","state":"MD","lat":39.144,"long":-77.2076},{"zip":"20814","city":"Bethesda","state":"MD","lat":39.0003,"long":-77.1022},{"zip":"20815","city":"Chevy Chase","state":"MD","lat":38.978,"long":-77.082},{"zip":"20816","city":"Bethesda","state":"MD","lat":38.9585,"long":-77.1153},{"zip":"20817","city":"Bethesda","state":"MD","lat":38.9896,"long":-77.1538},{"zip":"20818","city":"Cabin John","state":"MD","lat":38.9743,"long":-77.1591},{"zip":"20824","city":"Bethesda","state":"MD","lat":38.9807,"long":-77.1003},{"zip":"20825","city":"Chevy Chase","state":"MD","lat":39.0029,"long":-77.0712},{"zip":"20827","city":"Bethesda","state":"MD","lat":39.144,"long":-77.2076},{"zip":"20830","city":"Olney","state":"MD","lat":39.1552,"long":-77.0667},{"zip":"20832","city":"Olney","state":"MD","lat":39.1526,"long":-77.0749},{"zip":"20833","city":"Brookeville","state":"MD","lat":39.1871,"long":-77.0603},{"zip":"20837","city":"Poolesville","state":"MD","lat":39.1386,"long":-77.4067},{"zip":"20838","city":"Barnesville","state":"MD","lat":39.2233,"long":-77.3764},{"zip":"20839","city":"Beallsville","state":"MD","lat":39.1671,"long":-77.4144},{"zip":"20841","city":"Boyds","state":"MD","lat":39.21,"long":-77.3167},{"zip":"20842","city":"Dickerson","state":"MD","lat":39.2126,"long":-77.4199},{"zip":"20847","city":"Rockville","state":"MD","lat":39.084,"long":-77.1528},{"zip":"20848","city":"Rockville","state":"MD","lat":39.144,"long":-77.2076},{"zip":"20849","city":"Rockville","state":"MD","lat":39.084,"long":-77.1528},{"zip":"20850","city":"Rockville","state":"MD","lat":39.087,"long":-77.168},{"zip":"20851","city":"Rockville","state":"MD","lat":39.0763,"long":-77.1234},{"zip":"20852","city":"Rockville","state":"MD","lat":39.0496,"long":-77.1204},{"zip":"20853","city":"Rockville","state":"MD","lat":39.0887,"long":-77.095},{"zip":"20854","city":"Potomac","state":"MD","lat":39.0388,"long":-77.1922},{"zip":"20855","city":"Derwood","state":"MD","lat":39.1345,"long":-77.1477},{"zip":"20857","city":"Rockville","state":"MD","lat":39.084,"long":-77.1528},{"zip":"20859","city":"Potomac","state":"MD","lat":39.144,"long":-77.2076},{"zip":"20860","city":"Sandy Spring","state":"MD","lat":39.1503,"long":-77.0291},{"zip":"20861","city":"Ashton","state":"MD","lat":39.151,"long":-76.9924},{"zip":"20862","city":"Brinklow","state":"MD","lat":39.1838,"long":-77.0163},{"zip":"20866","city":"Burtonsville","state":"MD","lat":39.0922,"long":-76.9339},{"zip":"20868","city":"Spencerville","state":"MD","lat":39.1223,"long":-76.9722},{"zip":"20871","city":"Clarksburg","state":"MD","lat":39.2387,"long":-77.2794},{"zip":"20872","city":"Damascus","state":"MD","lat":39.2761,"long":-77.2131},{"zip":"20874","city":"Germantown","state":"MD","lat":39.1355,"long":-77.2822},{"zip":"20875","city":"Germantown","state":"MD","lat":39.144,"long":-77.2076},{"zip":"20876","city":"Germantown","state":"MD","lat":39.188,"long":-77.2358},{"zip":"20877","city":"Gaithersburg","state":"MD","lat":39.1419,"long":-77.189},{"zip":"20878","city":"Gaithersburg","state":"MD","lat":39.1125,"long":-77.2515},{"zip":"20879","city":"Gaithersburg","state":"MD","lat":39.173,"long":-77.1855},{"zip":"20880","city":"Washington Grove","state":"MD","lat":39.1388,"long":-77.1726},{"zip":"20882","city":"Gaithersburg","state":"MD","lat":39.2335,"long":-77.1458},{"zip":"20883","city":"Gaithersburg","state":"MD","lat":39.0883,"long":-77.1568},{"zip":"20884","city":"Gaithersburg","state":"MD","lat":39.144,"long":-77.2076},{"zip":"20885","city":"Gaithersburg","state":"MD","lat":39.1874,"long":-77.2028},{"zip":"20886","city":"Montgomery Village","state":"MD","lat":39.1757,"long":-77.1873},{"zip":"20889","city":"Bethesda","state":"MD","lat":39.144,"long":-77.2076},{"zip":"20891","city":"Kensington","state":"MD","lat":39.0257,"long":-77.0764},{"zip":"20892","city":"Bethesda","state":"MD","lat":39.0024,"long":-77.1034},{"zip":"20894","city":"Bethesda","state":"MD","lat":39.144,"long":-77.2076},{"zip":"20895","city":"Kensington","state":"MD","lat":39.0298,"long":-77.0793},{"zip":"20896","city":"Garrett Park","state":"MD","lat":39.0365,"long":-77.0931},{"zip":"20897","city":"Suburb Maryland Fac","state":"MD","lat":39.144,"long":-77.2076},{"zip":"20898","city":"Gaithersburg","state":"MD","lat":39.144,"long":-77.2076},{"zip":"20899","city":"Gaithersburg","state":"MD","lat":39.1403,"long":-77.222},{"zip":"20901","city":"Silver Spring","state":"MD","lat":39.0191,"long":-77.0076},{"zip":"20902","city":"Silver Spring","state":"MD","lat":39.04,"long":-77.0444},{"zip":"20903","city":"Silver Spring","state":"MD","lat":39.0095,"long":-76.9846},{"zip":"20904","city":"Silver Spring","state":"MD","lat":39.0668,"long":-76.9969},{"zip":"20905","city":"Silver Spring","state":"MD","lat":39.1148,"long":-77.0059},{"zip":"20906","city":"Silver Spring","state":"MD","lat":39.084,"long":-77.0613},{"zip":"20907","city":"Silver Spring","state":"MD","lat":38.9907,"long":-77.0261},{"zip":"20908","city":"Silver Spring","state":"MD","lat":38.9907,"long":-77.0261},{"zip":"20910","city":"Silver Spring","state":"MD","lat":38.9982,"long":-77.0338},{"zip":"20911","city":"Silver Spring","state":"MD","lat":38.9907,"long":-77.0261},{"zip":"20912","city":"Takoma Park","state":"MD","lat":38.9832,"long":-77.0007},{"zip":"20914","city":"Silver Spring","state":"MD","lat":38.9907,"long":-77.0261},{"zip":"20915","city":"Silver Spring","state":"MD","lat":38.9907,"long":-77.0261},{"zip":"20916","city":"Silver Spring","state":"MD","lat":38.9907,"long":-77.0261},{"zip":"20918","city":"Silver Spring","state":"MD","lat":38.9907,"long":-77.0261},{"zip":"20993","city":"Silver Spring","state":"MD","lat":39.0336,"long":-76.9861},{"zip":"20997","city":"Silver Spring","state":"MD","lat":38.9907,"long":-77.0261},{"zip":"20607","city":"Accokeek","state":"MD","lat":38.672,"long":-77.0162},{"zip":"20608","city":"Aquasco","state":"MD","lat":38.5825,"long":-76.7149},{"zip":"20613","city":"Brandywine","state":"MD","lat":38.6922,"long":-76.832},{"zip":"20623","city":"Cheltenham","state":"MD","lat":38.7531,"long":-76.8369},{"zip":"20697","city":"Southern Md Facility","state":"MD","lat":38.8336,"long":-76.8777},{"zip":"20703","city":"Lanham","state":"MD","lat":38.8336,"long":-76.8777},{"zip":"20704","city":"Beltsville","state":"MD","lat":39.0348,"long":-76.9075},{"zip":"20705","city":"Beltsville","state":"MD","lat":39.0455,"long":-76.9242},{"zip":"20706","city":"Lanham","state":"MD","lat":38.9675,"long":-76.8551},{"zip":"20707","city":"Laurel","state":"MD","lat":39.1077,"long":-76.872},{"zip":"20708","city":"Laurel","state":"MD","lat":39.0499,"long":-76.8345},{"zip":"20709","city":"Laurel","state":"MD","lat":39.0993,"long":-76.8483},{"zip":"20710","city":"Bladensburg","state":"MD","lat":38.9421,"long":-76.9261},{"zip":"20712","city":"Mount Rainier","state":"MD","lat":38.9431,"long":-76.9652},{"zip":"20715","city":"Bowie","state":"MD","lat":38.9797,"long":-76.7435},{"zip":"20716","city":"Bowie","state":"MD","lat":38.9263,"long":-76.7098},{"zip":"20717","city":"Bowie","state":"MD","lat":38.8336,"long":-76.8777},{"zip":"20718","city":"Bowie","state":"MD","lat":38.8336,"long":-76.8777},{"zip":"20719","city":"Bowie","state":"MD","lat":38.8336,"long":-76.8777},{"zip":"20720","city":"Bowie","state":"MD","lat":38.9885,"long":-76.791},{"zip":"20721","city":"Bowie","state":"MD","lat":38.9194,"long":-76.7871},{"zip":"20722","city":"Brentwood","state":"MD","lat":38.9407,"long":-76.9531},{"zip":"20725","city":"Laurel","state":"MD","lat":39.0993,"long":-76.8483},{"zip":"20726","city":"Laurel","state":"MD","lat":39.0993,"long":-76.8483},{"zip":"20731","city":"Capitol Heights","state":"MD","lat":38.8851,"long":-76.9158},{"zip":"20735","city":"Clinton","state":"MD","lat":38.7549,"long":-76.9026},{"zip":"20737","city":"Riverdale","state":"MD","lat":38.9601,"long":-76.9147},{"zip":"20738","city":"Riverdale","state":"MD","lat":38.8336,"long":-76.8777},{"zip":"20740","city":"College Park","state":"MD","lat":38.9963,"long":-76.9299},{"zip":"20741","city":"College Park","state":"MD","lat":38.8336,"long":-76.8777},{"zip":"20742","city":"College Park","state":"MD","lat":38.9896,"long":-76.9457},{"zip":"20743","city":"Capitol Heights","state":"MD","lat":38.8897,"long":-76.8925},{"zip":"20744","city":"Fort Washington","state":"MD","lat":38.7587,"long":-76.9835},{"zip":"20745","city":"Oxon Hill","state":"MD","lat":38.8108,"long":-76.9898},{"zip":"20746","city":"Suitland","state":"MD","lat":38.8425,"long":-76.9222},{"zip":"20747","city":"District Heights","state":"MD","lat":38.8539,"long":-76.8891},{"zip":"20748","city":"Temple Hills","state":"MD","lat":38.8222,"long":-76.9478},{"zip":"20749","city":"Fort Washington","state":"MD","lat":38.8336,"long":-76.8777},{"zip":"20750","city":"Oxon Hill","state":"MD","lat":38.8034,"long":-76.9897},{"zip":"20752","city":"Suitland","state":"MD","lat":38.8487,"long":-76.9239},{"zip":"20753","city":"District Heights","state":"MD","lat":38.8336,"long":-76.8777},{"zip":"20757","city":"Temple Hills","state":"MD","lat":38.814,"long":-76.9455},{"zip":"20762","city":"Andrews Air Force Base","state":"MD","lat":38.8062,"long":-76.8756},{"zip":"20768","city":"Greenbelt","state":"MD","lat":39.0046,"long":-76.8755},{"zip":"20769","city":"Glenn Dale","state":"MD","lat":38.9766,"long":-76.8053},{"zip":"20770","city":"Greenbelt","state":"MD","lat":38.9996,"long":-76.884},{"zip":"20771","city":"Greenbelt","state":"MD","lat":39.0046,"long":-76.8755},{"zip":"20772","city":"Upper Marlboro","state":"MD","lat":38.8377,"long":-76.798},{"zip":"20773","city":"Upper Marlboro","state":"MD","lat":38.8159,"long":-76.7497},{"zip":"20774","city":"Upper Marlboro","state":"MD","lat":38.8682,"long":-76.8156},{"zip":"20775","city":"Upper Marlboro","state":"MD","lat":38.8336,"long":-76.8777},{"zip":"20781","city":"Hyattsville","state":"MD","lat":38.9506,"long":-76.9347},{"zip":"20782","city":"Hyattsville","state":"MD","lat":38.9647,"long":-76.9649},{"zip":"20783","city":"Hyattsville","state":"MD","lat":39.0005,"long":-76.9723},{"zip":"20784","city":"Hyattsville","state":"MD","lat":38.9513,"long":-76.8958},{"zip":"20785","city":"Hyattsville","state":"MD","lat":38.9223,"long":-76.8755},{"zip":"20787","city":"Hyattsville","state":"MD","lat":38.9871,"long":-76.9824},{"zip":"20788","city":"Hyattsville","state":"MD","lat":38.9694,"long":-76.9509},{"zip":"20790","city":"Capitol Heights","state":"MD","lat":38.8336,"long":-76.8777},{"zip":"20791","city":"Capitol Heights","state":"MD","lat":38.8336,"long":-76.8777},{"zip":"20792","city":"Upper Marlboro","state":"MD","lat":38.8158,"long":-76.75},{"zip":"20797","city":"Southern Md Facility","state":"MD","lat":38.8336,"long":-76.8777},{"zip":"20799","city":"Capitol Heights","state":"MD","lat":38.8336,"long":-76.8777},{"zip":"20913","city":"Takoma Park","state":"MD","lat":38.9779,"long":-77.0075},{"zip":"20606","city":"Abell","state":"MD","lat":38.2471,"long":-76.7481},{"zip":"20609","city":"Avenue","state":"MD","lat":38.2826,"long":-76.7466},{"zip":"20618","city":"Bushwood","state":"MD","lat":38.2844,"long":-76.7929},{"zip":"20619","city":"California","state":"MD","lat":38.3006,"long":-76.5312},{"zip":"20620","city":"Callaway","state":"MD","lat":38.2275,"long":-76.521},{"zip":"20621","city":"Chaptico","state":"MD","lat":38.351,"long":-76.7833},{"zip":"20622","city":"Charlotte Hall","state":"MD","lat":38.475,"long":-76.8038},{"zip":"20624","city":"Clements","state":"MD","lat":38.3407,"long":-76.7264},{"zip":"20626","city":"Coltons Point","state":"MD","lat":38.237,"long":-76.7646},{"zip":"20627","city":"Compton","state":"MD","lat":38.2768,"long":-76.704},{"zip":"20628","city":"Dameron","state":"MD","lat":38.1533,"long":-76.3575},{"zip":"20630","city":"Drayden","state":"MD","lat":38.1719,"long":-76.4731},{"zip":"20634","city":"Great Mills","state":"MD","lat":38.2674,"long":-76.4954},{"zip":"20635","city":"Helen","state":"MD","lat":38.3121,"long":-76.6077},{"zip":"20636","city":"Hollywood","state":"MD","lat":38.3524,"long":-76.5626},{"zip":"20650","city":"Leonardtown","state":"MD","lat":38.2774,"long":-76.638},{"zip":"20653","city":"Lexington Park","state":"MD","lat":38.2495,"long":-76.4529},{"zip":"20656","city":"Loveville","state":"MD","lat":38.3593,"long":-76.6833},{"zip":"20659","city":"Mechanicsville","state":"MD","lat":38.4293,"long":-76.7254},{"zip":"20660","city":"Morganza","state":"MD","lat":38.3754,"long":-76.6955},{"zip":"20667","city":"Park Hall","state":"MD","lat":38.2177,"long":-76.4429},{"zip":"20670","city":"Patuxent River","state":"MD","lat":38.2791,"long":-76.4381},{"zip":"20674","city":"Piney Point","state":"MD","lat":38.1397,"long":-76.5047},{"zip":"20680","city":"Ridge","state":"MD","lat":38.1169,"long":-76.3711},{"zip":"20684","city":"Saint Inigoes","state":"MD","lat":38.1441,"long":-76.4083},{"zip":"20686","city":"Saint Marys City","state":"MD","lat":38.1871,"long":-76.4344},{"zip":"20687","city":"Scotland","state":"MD","lat":38.0828,"long":-76.3477},{"zip":"20690","city":"Tall Timbers","state":"MD","lat":38.1653,"long":-76.5399},{"zip":"20692","city":"Valley Lee","state":"MD","lat":38.1899,"long":-76.5087},{"zip":"20120","city":"Centreville","state":"VA","lat":38.8448,"long":-77.467},{"zip":"20121","city":"Centreville","state":"VA","lat":38.8195,"long":-77.4558},{"zip":"20122","city":"Centreville","state":"VA","lat":38.8318,"long":-77.2888},{"zip":"20124","city":"Clifton","state":"VA","lat":38.7818,"long":-77.3818},{"zip":"20151","city":"Chantilly","state":"VA","lat":38.8867,"long":-77.4457},{"zip":"20153","city":"Chantilly","state":"VA","lat":38.8318,"long":-77.2888},{"zip":"20170","city":"Herndon","state":"VA","lat":38.9839,"long":-77.3675},{"zip":"20171","city":"Herndon","state":"VA","lat":38.9252,"long":-77.3928},{"zip":"20172","city":"Herndon","state":"VA","lat":38.9696,"long":-77.3861},{"zip":"20190","city":"Reston","state":"VA","lat":38.9615,"long":-77.3418},{"zip":"20191","city":"Reston","state":"VA","lat":38.9318,"long":-77.3527},{"zip":"20192","city":"Herndon","state":"VA","lat":38.8318,"long":-77.2888},{"zip":"20194","city":"Reston","state":"VA","lat":38.9807,"long":-77.3419},{"zip":"20195","city":"Reston","state":"VA","lat":38.8318,"long":-77.2888},{"zip":"20196","city":"Reston","state":"VA","lat":38.8318,"long":-77.2888},{"zip":"20115","city":"Marshall","state":"VA","lat":38.8405,"long":-77.8911},{"zip":"20116","city":"Marshall","state":"VA","lat":38.8537,"long":-77.8601},{"zip":"20119","city":"Catlett","state":"VA","lat":38.637,"long":-77.6383},{"zip":"20128","city":"Orlean","state":"VA","lat":38.7416,"long":-77.9774},{"zip":"20130","city":"Paris","state":"VA","lat":39.0048,"long":-77.9546},{"zip":"20137","city":"Broad Run","state":"VA","lat":38.8237,"long":-77.713},{"zip":"20138","city":"Calverton","state":"VA","lat":38.6338,"long":-77.6869},{"zip":"20139","city":"Casanova","state":"VA","lat":38.6543,"long":-77.7025},{"zip":"20140","city":"Rectortown","state":"VA","lat":38.9163,"long":-77.8648},{"zip":"20144","city":"Delaplane","state":"VA","lat":38.9113,"long":-77.9674},{"zip":"20184","city":"Upperville","state":"VA","lat":38.9627,"long":-77.8847},{"zip":"20185","city":"Upperville","state":"VA","lat":38.993,"long":-77.8799},{"zip":"20186","city":"Warrenton","state":"VA","lat":38.6898,"long":-77.8361},{"zip":"20187","city":"Warrenton","state":"VA","lat":38.7153,"long":-77.7417},{"zip":"20188","city":"Warrenton","state":"VA","lat":38.7656,"long":-77.8203},{"zip":"20198","city":"The Plains","state":"VA","lat":38.8707,"long":-77.7608},{"zip":"20101","city":"Dulles","state":"VA","lat":39.0021,"long":-77.4421},{"zip":"20102","city":"Dulles","state":"VA","lat":39.0853,"long":-77.6452},{"zip":"20103","city":"Dulles","state":"VA","lat":38.9962,"long":-77.45},{"zip":"20104","city":"Dulles","state":"VA","lat":39.0853,"long":-77.6452},{"zip":"20105","city":"Aldie","state":"VA","lat":38.9577,"long":-77.6038},{"zip":"20117","city":"Middleburg","state":"VA","lat":38.9687,"long":-77.7355},{"zip":"20118","city":"Middleburg","state":"VA","lat":39.0075,"long":-77.7656},{"zip":"20129","city":"Paeonian Springs","state":"VA","lat":39.1603,"long":-77.6097},{"zip":"20131","city":"Philomont","state":"VA","lat":39.058,"long":-77.7434},{"zip":"20132","city":"Purcellville","state":"VA","lat":39.1436,"long":-77.7342},{"zip":"20134","city":"Purcellville","state":"VA","lat":39.1522,"long":-77.7026},{"zip":"20135","city":"Bluemont","state":"VA","lat":39.0823,"long":-77.8467},{"zip":"20141","city":"Round Hill","state":"VA","lat":39.1164,"long":-77.7802},{"zip":"20142","city":"Round Hill","state":"VA","lat":39.1307,"long":-77.7747},{"zip":"20146","city":"Ashburn","state":"VA","lat":39.0853,"long":-77.6452},{"zip":"20147","city":"Ashburn","state":"VA","lat":39.0373,"long":-77.4805},{"zip":"20148","city":"Ashburn","state":"VA","lat":39.0142,"long":-77.5285},{"zip":"20149","city":"Ashburn","state":"VA","lat":39.0437,"long":-77.4875},{"zip":"20152","city":"Chantilly","state":"VA","lat":38.8976,"long":-77.5092},{"zip":"20158","city":"Hamilton","state":"VA","lat":39.1383,"long":-77.6573},{"zip":"20159","city":"Hamilton","state":"VA","lat":39.1339,"long":-77.6621},{"zip":"20160","city":"Lincoln","state":"VA","lat":39.0985,"long":-77.6883},{"zip":"20163","city":"Sterling","state":"VA","lat":39.0062,"long":-77.4286},{"zip":"20164","city":"Sterling","state":"VA","lat":39.023,"long":-77.3994},{"zip":"20165","city":"Sterling","state":"VA","lat":39.0472,"long":-77.3866},{"zip":"20166","city":"Sterling","state":"VA","lat":38.9814,"long":-77.4723},{"zip":"20167","city":"Sterling","state":"VA","lat":39.0062,"long":-77.4286},{"zip":"20175","city":"Leesburg","state":"VA","lat":39.042,"long":-77.6054},{"zip":"20176","city":"Leesburg","state":"VA","lat":39.1821,"long":-77.5359},{"zip":"20177","city":"Leesburg","state":"VA","lat":39.1157,"long":-77.5636},{"zip":"20178","city":"Leesburg","state":"VA","lat":39.1157,"long":-77.5636},{"zip":"20180","city":"Lovettsville","state":"VA","lat":39.2204,"long":-77.6596},{"zip":"20189","city":"Dulles","state":"VA","lat":39.009,"long":-77.4421},{"zip":"20197","city":"Waterford","state":"VA","lat":39.1882,"long":-77.63},{"zip":"20136","city":"Bristow","state":"VA","lat":38.7343,"long":-77.5474},{"zip":"20143","city":"Catharpin","state":"VA","lat":38.8543,"long":-77.5719},{"zip":"20155","city":"Gainesville","state":"VA","lat":38.8157,"long":-77.6216},{"zip":"20156","city":"Gainesville","state":"VA","lat":38.7219,"long":-77.4669},{"zip":"20168","city":"Haymarket","state":"VA","lat":38.8121,"long":-77.6364},{"zip":"20169","city":"Haymarket","state":"VA","lat":38.8674,"long":-77.6445},{"zip":"20181","city":"Nokesville","state":"VA","lat":38.7,"long":-77.5483},{"zip":"20182","city":"Nokesville","state":"VA","lat":38.7009,"long":-77.5857},{"zip":"20106","city":"Amissville","state":"VA","lat":38.6842,"long":-78.0168},{"zip":"20108","city":"Manassas","state":"VA","lat":38.7447,"long":-77.4872},{"zip":"20109","city":"Manassas","state":"VA","lat":38.793,"long":-77.5266},{"zip":"20110","city":"Manassas","state":"VA","lat":38.7492,"long":-77.4878},{"zip":"20111","city":"Manassas","state":"VA","lat":38.7707,"long":-77.4494},{"zip":"20112","city":"Manassas","state":"VA","lat":38.6665,"long":-77.4248},{"zip":"20113","city":"Manassas","state":"VA","lat":38.7709,"long":-77.4494}]
