[{"zip":"20120","city":"Centreville","state":"VA","lat":38.8448,"long":-77.467},{"zip":"20121","city":"Centreville","state":"VA","lat":38.8195,"long":-77.4558},{"zip":"20122","city":"Centreville","state":"VA","lat":38.8318,"long":-77.2888},{"zip":"20124","city":"Clifton","state":"VA","lat":38.7818,"long":-77.3818},{"zip":"20151","city":"Chantilly","state":"VA","lat":38.8867,"long":-77.4457},{"zip":"20153","city":"Chantilly","state":"VA","lat":38.8318,"long":-77.2888},{"zip":"20170","city":"Herndon","state":"VA","lat":38.9839,"long":-77.3675},{"zip":"20171","city":"Herndon","state":"VA","lat":38.9252,"long":-77.3928},{"zip":"20172","city":"Herndon","state":"VA","lat":38.9696,"long":-77.3861},{"zip":"20190","city":"Reston","state":"VA","lat":38.9615,"long":-77.3418},{"zip":"20191","city":"Reston","state":"VA","lat":38.9318,"long":-77.3527},{"zip":"20192","city":"Herndon","state":"VA","lat":38.8318,"long":-77.2888},{"zip":"20194","city":"Reston","state":"VA","lat":38.9807,"long":-77.3419},{"zip":"20195","city":"Reston","state":"VA","lat":38.8318,"long":-77.2888},{"zip":"20196","city":"Reston","state":"VA","lat":38.8318,"long":-77.2888},{"zip":"20115","city":"Marshall","state":"VA","lat":38.8405,"long":-77.8911},{"zip":"20116","city":"Marshall","state":"VA","lat":38.8537,"long":-77.8601},{"zip":"20119","city":"Catlett","state":"VA","lat":38.637,"long":-77.6383},{"zip":"20128","city":"Orlean","state":"VA","lat":38.7416,"long":-77.9774},{"zip":"20130","city":"Paris","state":"VA","lat":39.0048,"long":-77.9546},{"zip":"20137","city":"Broad Run","state":"VA","lat":38.8237,"long":-77.713},{"zip":"20138","city":"Calverton","state":"VA","lat":38.6338,"long":-77.6869},{"zip":"20139","city":"Casanova","state":"VA","lat":38.6543,"long":-77.7025},{"zip":"20140","city":"Rectortown","state":"VA","lat":38.9163,"long":-77.8648},{"zip":"20144","city":"Delaplane","state":"VA","lat":38.9113,"long":-77.9674},{"zip":"20184","city":"Upperville","state":"VA","lat":38.9627,"long":-77.8847},{"zip":"20185","city":"Upperville","state":"VA","lat":38.993,"long":-77.8799},{"zip":"20186","city":"Warrenton","state":"VA","lat":38.6898,"long":-77.8361},{"zip":"20187","city":"Warrenton","state":"VA","lat":38.7153,"long":-77.7417},{"zip":"20188","city":"Warrenton","state":"VA","lat":38.7656,"long":-77.8203},{"zip":"20198","city":"The Plains","state":"VA","lat":38.8707,"long":-77.7608},{"zip":"20101","city":"Dulles","state":"VA","lat":39.0021,"long":-77.4421},{"zip":"20102","city":"Dulles","state":"VA","lat":39.0853,"long":-77.6452},{"zip":"20103","city":"Dulles","state":"VA","lat":38.9962,"long":-77.45},{"zip":"20104","city":"Dulles","state":"VA","lat":39.0853,"long":-77.6452},{"zip":"20105","city":"Aldie","state":"VA","lat":38.9577,"long":-77.6038},{"zip":"20117","city":"Middleburg","state":"VA","lat":38.9687,"long":-77.7355},{"zip":"20118","city":"Middleburg","state":"VA","lat":39.0075,"long":-77.7656},{"zip":"20129","city":"Paeonian Springs","state":"VA","lat":39.1603,"long":-77.6097},{"zip":"20131","city":"Philomont","state":"VA","lat":39.058,"long":-77.7434},{"zip":"20132","city":"Purcellville","state":"VA","lat":39.1436,"long":-77.7342},{"zip":"20134","city":"Purcellville","state":"VA","lat":39.1522,"long":-77.7026},{"zip":"20135","city":"Bluemont","state":"VA","lat":39.0823,"long":-77.8467},{"zip":"20141","city":"Round Hill","state":"VA","lat":39.1164,"long":-77.7802},{"zip":"20142","city":"Round Hill","state":"VA","lat":39.1307,"long":-77.7747},{"zip":"20146","city":"Ashburn","state":"VA","lat":39.0853,"long":-77.6452},{"zip":"20147","city":"Ashburn","state":"VA","lat":39.0373,"long":-77.4805},{"zip":"20148","city":"Ashburn","state":"VA","lat":39.0142,"long":-77.5285},{"zip":"20149","city":"Ashburn","state":"VA","lat":39.0437,"long":-77.4875},{"zip":"20152","city":"Chantilly","state":"VA","lat":38.8976,"long":-77.5092},{"zip":"20158","city":"Hamilton","state":"VA","lat":39.1383,"long":-77.6573},{"zip":"20159","city":"Hamilton","state":"VA","lat":39.1339,"long":-77.6621},{"zip":"20160","city":"Lincoln","state":"VA","lat":39.0985,"long":-77.6883},{"zip":"20163","city":"Sterling","state":"VA","lat":39.0062,"long":-77.4286},{"zip":"20164","city":"Sterling","state":"VA","lat":39.023,"long":-77.3994},{"zip":"20165","city":"Sterling","state":"VA","lat":39.0472,"long":-77.3866},{"zip":"20166","city":"Sterling","state":"VA","lat":38.9814,"long":-77.4723},{"zip":"20167","city":"Sterling","state":"VA","lat":39.0062,"long":-77.4286},{"zip":"20175","city":"Leesburg","state":"VA","lat":39.042,"long":-77.6054},{"zip":"20176","city":"Leesburg","state":"VA","lat":39.1821,"long":-77.5359},{"zip":"20177","city":"Leesburg","state":"VA","lat":39.1157,"long":-77.5636},{"zip":"20178","city":"Leesburg","state":"VA","lat":39.1157,"long":-77.5636},{"zip":"20180","city":"Lovettsville","state":"VA","lat":39.2204,"long":-77.6596},{"zip":"20189","city":"Dulles","state":"VA","lat":39.009,"long":-77.4421},{"zip":"20197","city":"Waterford","state":"VA","lat":39.1882,"long":-77.63},{"zip":"20136","city":"Bristow","state":"VA","lat":38.7343,"long":-77.5474},{"zip":"20143","city":"Catharpin","state":"VA","lat":38.8543,"long":-77.5719},{"zip":"20155","city":"Gainesville","state":"VA","lat":38.8157,"long":-77.6216},{"zip":"20156","city":"Gainesville","state":"VA","lat":38.7219,"long":-77.4669},{"zip":"20168","city":"Haymarket","state":"VA","lat":38.8121,"long":-77.6364},{"zip":"20169","city":"Haymarket","state":"VA","lat":38.8674,"long":-77.6445},{"zip":"20181","city":"Nokesville","state":"VA","lat":38.7,"long":-77.5483},{"zip":"20182","city":"Nokesville","state":"VA","lat":38.7009,"long":-77.5857},{"zip":"20106","city":"Amissville","state":"VA","lat":38.6842,"long":-78.0168},{"zip":"20108","city":"Manassas","state":"VA","lat":38.7447,"long":-77.4872},{"zip":"20109","city":"Manassas","state":"VA","lat":38.793,"long":-77.5266},{"zip":"20110","city":"Manassas","state":"VA","lat":38.7492,"long":-77.4878},{"zip":"20111","city":"Manassas","state":"VA","lat":38.7707,"long":-77.4494},{"zip":"20112","city":"Manassas","state":"VA","lat":38.6665,"long":-77.4248},{"zip":"20113","city":"Manassas","state":"VA","lat":38.7709,"long":-77.4494}]
