[{"zip":"20201","city":"Washington","state":"DC","lat":38.8933,"long":-77.0146},{"zip":"20202","city":"Washington","state":"DC","lat":38.8933,"long":-77.0146},{"zip":"20203","city":"Washington","state":"DC","lat":38.9053,"long":-77.0466},{"zip":"20204","city":"Washington","state":"DC","lat":38.8933,"long":-77.0146},{"zip":"20206","city":"Washington","state":"DC","lat":38.8933,"long":-77.0146},{"zip":"20207","city":"Washington","state":"DC","lat":38.8933,"long":-77.0146},{"zip":"20208","city":"Washington","state":"DC","lat":38.8966,"long":-77.0117},{"zip":"20210","city":"Washington","state":"DC","lat":38.8933,"long":-77.0146},{"zip":"20211","city":"Washington","state":"DC","lat":38.8933,"long":-77.0146},{"zip":"20212","city":"Washington","state":"DC","lat":38.8933,"long":-77.0146},{"zip":"20213","city":"Washington","state":"DC","lat":38.8933,"long":-77.0146},{"zip":"20214","city":"Washington","state":"DC","lat":38.8933,"long":-77.0146},{"zip":"20215","city":"Washington","state":"DC","lat":38.8933,"long":-77.0146},{"zip":"20216","city":"Washington","state":"DC","lat":38.8919,"long":-77.0141},{"zip":"20217","city":"Washington","state":"DC","lat":38.8933,"long":-77.0146},{"zip":"20218","city":"Washington","state":"DC","lat":38.8933,"long":-77.0146},{"zip":"20219","city":"Washington","state":"DC","lat":38.8933,"long":-77.0146},{"zip":"20220","city":"Washington","state":"DC","lat":38.8933,"long":-77.0146},{"zip":"20221","city":"Washington","state":"DC","lat":38.8933,"long":-77.0146},{"zip":"20222","city":"Washington","state":"DC","lat":38.8933,"long":-77.0146},{"zip":"20223","city":"Washington","state":"DC","lat":38.8933,"long":-77.0146},{"zip":"20224","city":"Washington","state":"DC","lat":38.8933,"long":-77.0146},{"zip":"20226","city":"Washington","state":"DC","lat":38.8933,"long":-77.0146},{"zip":"20227","city":"Washington","state":"DC","lat":38.8933,"long":-77.0146},{"zip":"20228","city":"Washington","state":"DC","lat":38.8933,"long":-77.0146},{"zip":"20229","city":"Washington","state":"DC","lat":38.8933,"long":-77.0146},{"zip":"20230","city":"Washington","state":"DC","lat":38.8933,"long":-77.0146},{"zip":"20232","city":"Washington","state":"DC","lat":38.9006,"long":-77.0391},{"zip":"20233","city":"Washington","state":"DC","lat":38.8933,"long":-77.0146},{"zip":"20235","city":"Washington","state":"DC","lat":38.9154,"long":-77.0572},{"zip":"20237","city":"Washington","state":"DC","lat":38.895,"long":-77.0367},{"zip":"20238","city":"Washington","state":"DC","lat":38.8933,"long":-77.0146},{"zip":"20239","city":"Washington","state":"DC","lat":38.8933,"long":-77.0146},{"zip":"20240","city":"Washington","state":"DC","lat":38.8971,"long":-77.0409},{"zip":"20241","city":"Washington","state":"DC","lat":38.8933,"long":-77.0146},{"zip":"20242","city":"Washington","state":"DC","lat":38.8678,"long":-77.0289},{"zip":"20244","city":"Washington","state":"DC","lat":38.8933,"long":-77.0146},{"zip":"20245","city":"Washington","state":"DC","lat":38.8933,"long":-77.0146},{"zip":"20250","city":"Washington","state":"DC","lat":38.8873,"long":-77.0327},{"zip":"20251","city":"Washington","state":"DC","lat":38.8933,"long":-77.0146},{"zip":"20254","city":"Washington","state":"DC","lat":38.8933,"long":-77.0146},{"zip":"20260","city":"Washington","state":"DC","lat":38.8933,"long":-77.0146},{"zip":"20261","city":"Washington","state":"DC","lat":38.8933,"long":-77.0146},{"zip":"20262","city":"Washington","state":"DC","lat":38.8933,"long":-77.0146},{"zip":"20265","city":"Washington","state":"DC","lat":38.8933,"long":-77.0146},{"zip":"20266","city":"Washington","state":"DC","lat":38.8933,"long":-77.0146},{"zip":"20268","city":"Washington","state":"DC","lat":38.8933,"long":-77.0146},{"zip":"20270","city":"Washington","state":"DC","lat":38.8933,"long":-77.0146},{"zip":"20277","city":"Washington","state":"DC","lat":38.8933,"long":-77.0146},{"zip":"20289","city":"Washington","state":"DC","lat":38.8933,"long":-77.0146},{"zip":"20299","city":"Washington","state":"DC","lat":38.8933,"long":-77.0146}]
