[{"zip":"20610","city":"Barstow","state":"MD","lat":38.5254,"long":-76.6161},{"zip":"20615","city":"Broomes Island","state":"MD","lat":38.418,"long":-76.5478},{"zip":"20629","city":"Dowell","state":"MD","lat":38.3364,"long":-76.4524},{"zip":"20639","city":"Huntingtown","state":"MD","lat":38.6095,"long":-76.6003},{"zip":"20657","city":"Lusby","state":"MD","lat":38.3661,"long":-76.4346},{"zip":"20676","city":"Port Republic","state":"MD","lat":38.4952,"long":-76.5349},{"zip":"20678","city":"Prince Frederick","state":"MD","lat":38.5336,"long":-76.5955},{"zip":"20685","city":"Saint Leonard","state":"MD","lat":38.4501,"long":-76.511},{"zip":"20688","city":"Solomons","state":"MD","lat":38.3293,"long":-76.4651},{"zip":"20689","city":"Sunderland","state":"MD","lat":38.649,"long":-76.5767},{"zip":"20601","city":"Waldorf","state":"MD","lat":38.6371,"long":-76.8778},{"zip":"20602","city":"Waldorf","state":"MD","lat":38.584,"long":-76.8942},{"zip":"20603","city":"Waldorf","state":"MD","lat":38.6294,"long":-76.9769},{"zip":"20604","city":"Waldorf","state":"MD","lat":38.5095,"long":-76.9817},{"zip":"20611","city":"Bel Alton","state":"MD","lat":38.4731,"long":-76.9789},{"zip":"20612","city":"Benedict","state":"MD","lat":38.5093,"long":-76.6797},{"zip":"20616","city":"Bryans Road","state":"MD","lat":38.6415,"long":-77.0766},{"zip":"20617","city":"Bryantown","state":"MD","lat":38.5426,"long":-76.8465},{"zip":"20625","city":"Cobb Island","state":"MD","lat":38.262,"long":-76.8502},{"zip":"20632","city":"Faulkner","state":"MD","lat":38.4382,"long":-76.9729},{"zip":"20637","city":"Hughesville","state":"MD","lat":38.5207,"long":-76.7817},{"zip":"20640","city":"Indian Head","state":"MD","lat":38.6001,"long":-77.1622},{"zip":"20643","city":"Ironsides","state":"MD","lat":38.5039,"long":-77.1483},{"zip":"20645","city":"Issue","state":"MD","lat":38.2926,"long":-76.9059},{"zip":"20646","city":"La Plata","state":"MD","lat":38.5257,"long":-76.9865},{"zip":"20658","city":"Marbury","state":"MD","lat":38.5633,"long":-77.1596},{"zip":"20661","city":"Mount Victoria","state":"MD","lat":38.3436,"long":-76.8846},{"zip":"20662","city":"Nanjemoy","state":"MD","lat":38.4462,"long":-77.1983},{"zip":"20664","city":"Newburg","state":"MD","lat":38.3298,"long":-76.9175},{"zip":"20675","city":"Pomfret","state":"MD","lat":38.5855,"long":-77.0093},{"zip":"20677","city":"Port Tobacco","state":"MD","lat":38.4994,"long":-77.0419},{"zip":"20682","city":"Rock Point","state":"MD","lat":38.2836,"long":-76.8481},{"zip":"20693","city":"Welcome","state":"MD","lat":38.4672,"long":-77.095},{"zip":"20695","city":"White Plains","state":"MD","lat":38.5974,"long":-76.9903},{"zip":"20607","city":"Accokeek","state":"MD","lat":38.672,"long":-77.0162},{"zip":"20608","city":"Aquasco","state":"MD","lat":38.5825,"long":-76.7149},{"zip":"20613","city":"Brandywine","state":"MD","lat":38.6922,"long":-76.832},{"zip":"20623","city":"Cheltenham","state":"MD","lat":38.7531,"long":-76.8369},{"zip":"20697","city":"Southern Md Facility","state":"MD","lat":38.8336,"long":-76.8777},{"zip":"20606","city":"Abell","state":"MD","lat":38.2471,"long":-76.7481},{"zip":"20609","city":"Avenue","state":"MD","lat":38.2826,"long":-76.7466},{"zip":"20618","city":"Bushwood","state":"MD","lat":38.2844,"long":-76.7929},{"zip":"20619","city":"California","state":"MD","lat":38.3006,"long":-76.5312},{"zip":"20620","city":"Callaway","state":"MD","lat":38.2275,"long":-76.521},{"zip":"20621","city":"Chaptico","state":"MD","lat":38.351,"long":-76.7833},{"zip":"20622","city":"Charlotte Hall","state":"MD","lat":38.475,"long":-76.8038},{"zip":"20624","city":"Clements","state":"MD","lat":38.3407,"long":-76.7264},{"zip":"20626","city":"Coltons Point","state":"MD","lat":38.237,"long":-76.7646},{"zip":"20627","city":"Compton","state":"MD","lat":38.2768,"long":-76.704},{"zip":"20628","city":"Dameron","state":"MD","lat":38.1533,"long":-76.3575},{"zip":"20630","city":"Drayden","state":"MD","lat":38.1719,"long":-76.4731},{"zip":"20634","city":"Great Mills","state":"MD","lat":38.2674,"long":-76.4954},{"zip":"20635","city":"Helen","state":"MD","lat":38.3121,"long":-76.6077},{"zip":"20636","city":"Hollywood","state":"MD","lat":38.3524,"long":-76.5626},{"zip":"20650","city":"Leonardtown","state":"MD","lat":38.2774,"long":-76.638},{"zip":"20653","city":"Lexington Park","state":"MD","lat":38.2495,"long":-76.4529},{"zip":"20656","city":"Loveville","state":"MD","lat":38.3593,"long":-76.6833},{"zip":"20659","city":"Mechanicsville","state":"MD","lat":38.4293,"long":-76.7254},{"zip":"20660","city":"Morganza","state":"MD","lat":38.3754,"long":-76.6955},{"zip":"20667","city":"Park Hall","state":"MD","lat":38.2177,"long":-76.4429},{"zip":"20670","city":"Patuxent River","state":"MD","lat":38.2791,"long":-76.4381},{"zip":"20674","city":"Piney Point","state":"MD","lat":38.1397,"long":-76.5047},{"zip":"20680","city":"Ridge","state":"MD","lat":38.1169,"long":-76.3711},{"zip":"20684","city":"Saint Inigoes","state":"MD","lat":38.1441,"long":-76.4083},{"zip":"20686","city":"Saint Marys City","state":"MD","lat":38.1871,"long":-76.4344},{"zip":"20687","city":"Scotland","state":"MD","lat":38.0828,"long":-76.3477},{"zip":"20690","city":"Tall Timbers","state":"MD","lat":38.1653,"long":-76.5399},{"zip":"20692","city":"Valley Lee","state":"MD","lat":38.1899,"long":-76.5087}]
