[{"zip":"20810","city":"Bethesda","state":"MD","lat":38.9806,"long":-77.1008},{"zip":"20811","city":"Bethesda","state":"MD","lat":38.9806,"long":-77.1008},{"zip":"20812","city":"Glen Echo","state":"MD","lat":38.9693,"long":-77.1435},{"zip":"20813","city":"Bethesda","state":"MD","lat":39.144,"long":-77.2076},{"zip":"20814","city":"Bethesda","state":"MD","lat":39.0003,"long":-77.1022},{"zip":"20815","city":"Chevy Chase","state":"MD","lat":38.978,"long":-77.082},{"zip":"20816","city":"Bethesda","state":"MD","lat":38.9585,"long":-77.1153},{"zip":"20817","city":"Bethesda","state":"MD","lat":38.9896,"long":-77.1538},{"zip":"20818","city":"Cabin John","state":"MD","lat":38.9743,"long":-77.1591},{"zip":"20824","city":"Bethesda","state":"MD","lat":38.9807,"long":-77.1003},{"zip":"20825","city":"Chevy Chase","state":"MD","lat":39.0029,"long":-77.0712},{"zip":"20827","city":"Bethesda","state":"MD","lat":39.144,"long":-77.2076},{"zip":"20830","city":"Olney","state":"MD","lat":39.1552,"long":-77.0667},{"zip":"20832","city":"Olney","state":"MD","lat":39.1526,"long":-77.0749},{"zip":"20833","city":"Brookeville","state":"MD","lat":39.1871,"long":-77.0603},{"zip":"20837","city":"Poolesville","state":"MD","lat":39.1386,"long":-77.4067},{"zip":"20838","city":"Barnesville","state":"MD","lat":39.2233,"long":-77.3764},{"zip":"20839","city":"Beallsville","state":"MD","lat":39.1671,"long":-77.4144},{"zip":"20841","city":"Boyds","state":"MD","lat":39.21,"long":-77.3167},{"zip":"20842","city":"Dickerson","state":"MD","lat":39.2126,"long":-77.4199},{"zip":"20847","city":"Rockville","state":"MD","lat":39.084,"long":-77.1528},{"zip":"20848","city":"Rockville","state":"MD","lat":39.144,"long":-77.2076},{"zip":"20849","city":"Rockville","state":"MD","lat":39.084,"long":-77.1528},{"zip":"20850","city":"Rockville","state":"MD","lat":39.087,"long":-77.168},{"zip":"20851","city":"Rockville","state":"MD","lat":39.0763,"long":-77.1234},{"zip":"20852","city":"Rockville","state":"MD","lat":39.0496,"long":-77.1204},{"zip":"20853","city":"Rockville","state":"MD","lat":39.0887,"long":-77.095},{"zip":"20854","city":"Potomac","state":"MD","lat":39.0388,"long":-77.1922},{"zip":"20855","city":"Derwood","state":"MD","lat":39.1345,"long":-77.1477},{"zip":"20857","city":"Rockville","state":"MD","lat":39.084,"long":-77.1528},{"zip":"20859","city":"Potomac","state":"MD","lat":39.144,"long":-77.2076},{"zip":"20860","city":"Sandy Spring","state":"MD","lat":39.1503,"long":-77.0291},{"zip":"20861","city":"Ashton","state":"MD","lat":39.151,"long":-76.9924},{"zip":"20862","city":"Brinklow","state":"MD","lat":39.1838,"long":-77.0163},{"zip":"20866","city":"Burtonsville","state":"MD","lat":39.0922,"long":-76.9339},{"zip":"20868","city":"Spencerville","state":"MD","lat":39.1223,"long":-76.9722},{"zip":"20871","city":"Clarksburg","state":"MD","lat":39.2387,"long":-77.2794},{"zip":"20872","city":"Damascus","state":"MD","lat":39.2761,"long":-77.2131},{"zip":"20874","city":"Germantown","state":"MD","lat":39.1355,"long":-77.2822},{"zip":"20875","city":"Germantown","state":"MD","lat":39.144,"long":-77.2076},{"zip":"20876","city":"Germantown","state":"MD","lat":39.188,"long":-77.2358},{"zip":"20877","city":"Gaithersburg","state":"MD","lat":39.1419,"long":-77.189},{"zip":"20878","city":"Gaithersburg","state":"MD","lat":39.1125,"long":-77.2515},{"zip":"20879","city":"Gaithersburg","state":"MD","lat":39.173,"long":-77.1855},{"zip":"20880","city":"Washington Grove","state":"MD","lat":39.1388,"long":-77.1726},{"zip":"20882","city":"Gaithersburg","state":"MD","lat":39.2335,"long":-77.1458},{"zip":"20883","city":"Gaithersburg","state":"MD","lat":39.0883,"long":-77.1568},{"zip":"20884","city":"Gaithersburg","state":"MD","lat":39.144,"long":-77.2076},{"zip":"20885","city":"Gaithersburg","state":"MD","lat":39.1874,"long":-77.2028},{"zip":"20886","city":"Montgomery Village","state":"MD","lat":39.1757,"long":-77.1873},{"zip":"20889","city":"Bethesda","state":"MD","lat":39.144,"long":-77.2076},{"zip":"20891","city":"Kensington","state":"MD","lat":39.0257,"long":-77.0764},{"zip":"20892","city":"Bethesda","state":"MD","lat":39.0024,"long":-77.1034},{"zip":"20894","city":"Bethesda","state":"MD","lat":39.144,"long":-77.2076},{"zip":"20895","city":"Kensington","state":"MD","lat":39.0298,"long":-77.0793},{"zip":"20896","city":"Garrett Park","state":"MD","lat":39.0365,"long":-77.0931},{"zip":"20897","city":"Suburb Maryland Fac","state":"MD","lat":39.144,"long":-77.2076},{"zip":"20898","city":"Gaithersburg","state":"MD","lat":39.144,"long":-77.2076},{"zip":"20899","city":"Gaithersburg","state":"MD","lat":39.1403,"long":-77.222}]
