[{"zip":"20901","city":"Silver Spring","state":"MD","lat":39.0191,"long":-77.0076},{"zip":"20902","city":"Silver Spring","state":"MD","lat":39.04,"long":-77.0444},{"zip":"20903","city":"Silver Spring","state":"MD","lat":39.0095,"long":-76.9846},{"zip":"20904","city":"Silver Spring","state":"MD","lat":39.0668,"long":-76.9969},{"zip":"20905","city":"Silver Spring","state":"MD","lat":39.1148,"long":-77.0059},{"zip":"20906","city":"Silver Spring","state":"MD","lat":39.084,"long":-77.0613},{"zip":"20907","city":"Silver Spring","state":"MD","lat":38.9907,"long":-77.0261},{"zip":"20908","city":"Silver Spring","state":"MD","lat":38.9907,"long":-77.0261},{"zip":"20910","city":"Silver Spring","state":"MD","lat":38.9982,"long":-77.0338},{"zip":"20911","city":"Silver Spring","state":"MD","lat":38.9907,"long":-77.0261},{"zip":"20912","city":"Takoma Park","state":"MD","lat":38.9832,"long":-77.0007},{"zip":"20914","city":"Silver Spring","state":"MD","lat":38.9907,"long":-77.0261},{"zip":"20915","city":"Silver Spring","state":"MD","lat":38.9907,"long":-77.0261},{"zip":"20916","city":"Silver Spring","state":"MD","lat":38.9907,"long":-77.0261},{"zip":"20918","city":"Silver Spring","state":"MD","lat":38.9907,"long":-77.0261},{"zip":"20993","city":"Silver Spring","state":"MD","lat":39.0336,"long":-76.9861},{"zip":"20997","city":"Silver Spring","state":"MD","lat":38.9907,"long":-77.0261},{"zip":"20913","city":"Takoma Park","state":"MD","lat":38.9779,"long":-77.0075}]
