[{"zip":"21501","city":"Cumberland","state":"MD","lat":39.6529,"long":-78.7625},{"zip":"21502","city":"Cumberland","state":"MD","lat":39.5992,"long":-78.8444},{"zip":"21503","city":"Cumberland","state":"MD","lat":39.6529,"long":-78.7625},{"zip":"21504","city":"Cumberland","state":"MD","lat":39.5807,"long":-78.6906},{"zip":"21505","city":"Cumberland","state":"MD","lat":39.594,"long":-78.8434},{"zip":"21521","city":"Barton","state":"MD","lat":39.5331,"long":-79.0281},{"zip":"21524","city":"Corriganville","state":"MD","lat":39.6967,"long":-78.8031},{"zip":"21528","city":"Eckhart Mines","state":"MD","lat":39.6528,"long":-78.9014},{"zip":"21529","city":"Ellerslie","state":"MD","lat":39.7083,"long":-78.7774},{"zip":"21530","city":"Flintstone","state":"MD","lat":39.6993,"long":-78.5739},{"zip":"21532","city":"Frostburg","state":"MD","lat":39.6494,"long":-78.9306},{"zip":"21539","city":"Lonaconing","state":"MD","lat":39.5757,"long":-78.9915},{"zip":"21540","city":"Luke","state":"MD","lat":39.4774,"long":-79.0594},{"zip":"21542","city":"Midland","state":"MD","lat":39.5901,"long":-78.9497},{"zip":"21543","city":"Midlothian","state":"MD","lat":39.6339,"long":-78.9604},{"zip":"21545","city":"Mount Savage","state":"MD","lat":39.6991,"long":-78.8739},{"zip":"21555","city":"Oldtown","state":"MD","lat":39.5846,"long":-78.6044},{"zip":"21556","city":"Pinto","state":"MD","lat":39.5725,"long":-78.844},{"zip":"21557","city":"Rawlings","state":"MD","lat":39.5214,"long":-78.9062},{"zip":"21560","city":"Spring Gap","state":"MD","lat":39.5654,"long":-78.7164},{"zip":"21562","city":"Westernport","state":"MD","lat":39.4905,"long":-79.014},{"zip":"21766","city":"Little Orleans","state":"MD","lat":39.6876,"long":-78.3781},{"zip":"21012","city":"Arnold","state":"MD","lat":39.0476,"long":-76.4941},{"zip":"21032","city":"Crownsville","state":"MD","lat":39.0489,"long":-76.5935},{"zip":"21035","city":"Davidsonville","state":"MD","lat":38.9374,"long":-76.6375},{"zip":"21037","city":"Edgewater","state":"MD","lat":38.9149,"long":-76.5424},{"zip":"21054","city":"Gambrills","state":"MD","lat":39.0407,"long":-76.6819},{"zip":"21056","city":"Gibson Island","state":"MD","lat":39.0751,"long":-76.4324},{"zip":"21060","city":"Glen Burnie","state":"MD","lat":39.1702,"long":-76.5798},{"zip":"21061","city":"Glen Burnie","state":"MD","lat":39.1618,"long":-76.6297},{"zip":"21062","city":"Glen Burnie","state":"MD","lat":38.9742,"long":-76.5949},{"zip":"21076","city":"Hanover","state":"MD","lat":39.1551,"long":-76.7215},{"zip":"21077","city":"Harmans","state":"MD","lat":39.1561,"long":-76.6977},{"zip":"21090","city":"Linthicum Heights","state":"MD","lat":39.2092,"long":-76.6681},{"zip":"21106","city":"Mayo","state":"MD","lat":38.8876,"long":-76.5119},{"zip":"21108","city":"Millersville","state":"MD","lat":39.1041,"long":-76.619},{"zip":"21113","city":"Odenton","state":"MD","lat":39.0762,"long":-76.6996},{"zip":"21114","city":"Crofton","state":"MD","lat":39.0112,"long":-76.6802},{"zip":"21122","city":"Pasadena","state":"MD","lat":39.1206,"long":-76.495},{"zip":"21123","city":"Pasadena","state":"MD","lat":38.9742,"long":-76.5949},{"zip":"21140","city":"Riva","state":"MD","lat":38.9504,"long":-76.5854},{"zip":"21144","city":"Severn","state":"MD","lat":39.1275,"long":-76.698},{"zip":"21146","city":"Severna Park","state":"MD","lat":39.0811,"long":-76.5577},{"zip":"21225","city":"Brooklyn","state":"MD","lat":39.2259,"long":-76.6153},{"zip":"21226","city":"Curtis Bay","state":"MD","lat":39.2109,"long":-76.5597},{"zip":"21240","city":"Baltimore","state":"MD","lat":39.1753,"long":-76.6732},{"zip":"21401","city":"Annapolis","state":"MD","lat":38.9898,"long":-76.5501},{"zip":"21402","city":"Annapolis","state":"MD","lat":38.9871,"long":-76.4715},{"zip":"21403","city":"Annapolis","state":"MD","lat":38.9524,"long":-76.491},{"zip":"21404","city":"Annapolis","state":"MD","lat":38.9784,"long":-76.4922},{"zip":"21405","city":"Annapolis","state":"MD","lat":39.0305,"long":-76.5515},{"zip":"21409","city":"Annapolis","state":"MD","lat":39.0416,"long":-76.4377},{"zip":"21411","city":"Annapolis","state":"MD","lat":38.9742,"long":-76.5949},{"zip":"21412","city":"Annapolis","state":"MD","lat":38.9742,"long":-76.5949},{"zip":"21013","city":"Baldwin","state":"MD","lat":39.5194,"long":-76.4927},{"zip":"21020","city":"Boring","state":"MD","lat":39.5213,"long":-76.8047},{"zip":"21022","city":"Brooklandville","state":"MD","lat":39.3979,"long":-76.6717},{"zip":"21023","city":"Butler","state":"MD","lat":39.533,"long":-76.7432},{"zip":"21027","city":"Chase","state":"MD","lat":39.3634,"long":-76.3711},{"zip":"21030","city":"Cockeysville","state":"MD","lat":39.4919,"long":-76.6677},{"zip":"21031","city":"Hunt Valley","state":"MD","lat":39.4805,"long":-76.6553},{"zip":"21051","city":"Fork","state":"MD","lat":39.4731,"long":-76.4484},{"zip":"21052","city":"Fort Howard","state":"MD","lat":39.207,"long":-76.4456},{"zip":"21053","city":"Freeland","state":"MD","lat":39.694,"long":-76.7223},{"zip":"21057","city":"Glen Arm","state":"MD","lat":39.4575,"long":-76.5153},{"zip":"21065","city":"Hunt Valley","state":"MD","lat":39.4883,"long":-76.6538},{"zip":"21071","city":"Glyndon","state":"MD","lat":39.477,"long":-76.815},{"zip":"21082","city":"Hydes","state":"MD","lat":39.474,"long":-76.4695},{"zip":"21087","city":"Kingsville","state":"MD","lat":39.4558,"long":-76.4147},{"zip":"21092","city":"Long Green","state":"MD","lat":39.4729,"long":-76.523},{"zip":"21093","city":"Lutherville Timonium","state":"MD","lat":39.4332,"long":-76.6546},{"zip":"21094","city":"Lutherville Timonium","state":"MD","lat":39.439,"long":-76.5921},{"zip":"21105","city":"Maryland Line","state":"MD","lat":39.7114,"long":-76.6595},{"zip":"21111","city":"Monkton","state":"MD","lat":39.5662,"long":-76.5979},{"zip":"21117","city":"Owings Mills","state":"MD","lat":39.4269,"long":-76.7769},{"zip":"21120","city":"Parkton","state":"MD","lat":39.6422,"long":-76.6737},{"zip":"21128","city":"Perry Hall","state":"MD","lat":39.401,"long":-76.451},{"zip":"21131","city":"Phoenix","state":"MD","lat":39.4833,"long":-76.5776},{"zip":"21133","city":"Randallstown","state":"MD","lat":39.3746,"long":-76.8002},{"zip":"21136","city":"Reisterstown","state":"MD","lat":39.46,"long":-76.8135},{"zip":"21139","city":"Riderwood","state":"MD","lat":39.4093,"long":-76.6486},{"zip":"21152","city":"Sparks Glencoe","state":"MD","lat":39.5483,"long":-76.6819},{"zip":"21153","city":"Stevenson","state":"MD","lat":39.4104,"long":-76.713},{"zip":"21155","city":"Upperco","state":"MD","lat":39.5676,"long":-76.7972},{"zip":"21156","city":"Upper Falls","state":"MD","lat":39.4372,"long":-76.3966},{"zip":"21162","city":"White Marsh","state":"MD","lat":39.3923,"long":-76.4132},{"zip":"21163","city":"Woodstock","state":"MD","lat":39.3498,"long":-76.8456},{"zip":"21204","city":"Towson","state":"MD","lat":39.4072,"long":-76.6038},{"zip":"21207","city":"Gwynn Oak","state":"MD","lat":39.3296,"long":-76.7341},{"zip":"21208","city":"Pikesville","state":"MD","lat":39.3764,"long":-76.729},{"zip":"21219","city":"Sparrows Point","state":"MD","lat":39.2296,"long":-76.4455},{"zip":"21220","city":"Middle River","state":"MD","lat":39.3401,"long":-76.4153},{"zip":"21221","city":"Essex","state":"MD","lat":39.3086,"long":-76.4533},{"zip":"21222","city":"Dundalk","state":"MD","lat":39.2655,"long":-76.4935},{"zip":"21227","city":"Halethorpe","state":"MD","lat":39.2309,"long":-76.6969},{"zip":"21228","city":"Catonsville","state":"MD","lat":39.2782,"long":-76.7401},{"zip":"21234","city":"Parkville","state":"MD","lat":39.3876,"long":-76.5418},{"zip":"21236","city":"Nottingham","state":"MD","lat":39.3914,"long":-76.4871},{"zip":"21237","city":"Rosedale","state":"MD","lat":39.3361,"long":-76.5014},{"zip":"21244","city":"Windsor Mill","state":"MD","lat":39.3331,"long":-76.7849},{"zip":"21250","city":"Baltimore","state":"MD","lat":39.2582,"long":-76.7131},{"zip":"21251","city":"Baltimore","state":"MD","lat":39.439,"long":-76.5921},{"zip":"21252","city":"Towson","state":"MD","lat":39.4015,"long":-76.6019},{"zip":"21282","city":"Pikesville","state":"MD","lat":39.3743,"long":-76.7225},{"zip":"21284","city":"Towson","state":"MD","lat":39.4015,"long":-76.6019},{"zip":"21285","city":"Towson","state":"MD","lat":39.4015,"long":-76.6019},{"zip":"21286","city":"Towson","state":"MD","lat":39.4143,"long":-76.5761},{"zip":"21609","city":"Bethlehem","state":"MD","lat":38.7406,"long":-75.9587},{"zip":"21629","city":"Denton","state":"MD","lat":38.8595,"long":-75.8357},{"zip":"21632","city":"Federalsburg","state":"MD","lat":38.7147,"long":-75.7754},{"zip":"21636","city":"Goldsboro","state":"MD","lat":39.023,"long":-75.7926},{"zip":"21639","city":"Greensboro","state":"MD","lat":38.9616,"long":-75.8059},{"zip":"21640","city":"Henderson","state":"MD","lat":39.0672,"long":-75.7948},{"zip":"21641","city":"Hillsboro","state":"MD","lat":38.9206,"long":-75.9388},{"zip":"21649","city":"Marydel","state":"MD","lat":39.1082,"long":-75.7622},{"zip":"21655","city":"Preston","state":"MD","lat":38.7465,"long":-75.9163},{"zip":"21660","city":"Ridgely","state":"MD","lat":38.9568,"long":-75.8848},{"zip":"21670","city":"Templeville","state":"MD","lat":39.1362,"long":-75.766},{"zip":"21048","city":"Finksburg","state":"MD","lat":39.4991,"long":-76.9101},{"zip":"21074","city":"Hampstead","state":"MD","lat":39.6146,"long":-76.8644},{"zip":"21088","city":"Lineboro","state":"MD","lat":39.7187,"long":-76.8439},{"zip":"21102","city":"Manchester","state":"MD","lat":39.6747,"long":-76.8941},{"zip":"21104","city":"Marriottsville","state":"MD","lat":39.3342,"long":-76.9132},{"zip":"21157","city":"Westminster","state":"MD","lat":39.5642,"long":-76.9807},{"zip":"21158","city":"Westminster","state":"MD","lat":39.607,"long":-77.0294},{"zip":"21757","city":"Keymar","state":"MD","lat":39.5656,"long":-77.2817},{"zip":"21776","city":"New Windsor","state":"MD","lat":39.5162,"long":-77.1034},{"zip":"21784","city":"Sykesville","state":"MD","lat":39.4567,"long":-76.9696},{"zip":"21787","city":"Taneytown","state":"MD","lat":39.6658,"long":-77.1691},{"zip":"21791","city":"Union Bridge","state":"MD","lat":39.5799,"long":-77.1319},{"zip":"21797","city":"Woodbine","state":"MD","lat":39.3464,"long":-77.0647},{"zip":"21901","city":"North East","state":"MD","lat":39.6045,"long":-75.9538},{"zip":"21902","city":"Perry Point","state":"MD","lat":39.553,"long":-76.0725},{"zip":"21903","city":"Perryville","state":"MD","lat":39.5649,"long":-76.0592},{"zip":"21904","city":"Port Deposit","state":"MD","lat":39.6151,"long":-76.0633},{"zip":"21911","city":"Rising Sun","state":"MD","lat":39.6882,"long":-76.0492},{"zip":"21912","city":"Warwick","state":"MD","lat":39.4283,"long":-75.7996},{"zip":"21913","city":"Cecilton","state":"MD","lat":39.4015,"long":-75.8654},{"zip":"21914","city":"Charlestown","state":"MD","lat":39.5729,"long":-75.9795},{"zip":"21915","city":"Chesapeake City","state":"MD","lat":39.5133,"long":-75.8406},{"zip":"21916","city":"Childs","state":"MD","lat":39.5415,"long":-76},{"zip":"21917","city":"Colora","state":"MD","lat":39.6695,"long":-76.0934},{"zip":"21918","city":"Conowingo","state":"MD","lat":39.6778,"long":-76.1572},{"zip":"21919","city":"Earleville","state":"MD","lat":39.4271,"long":-75.9403},{"zip":"21920","city":"Elk Mills","state":"MD","lat":39.658,"long":-75.8282},{"zip":"21921","city":"Elkton","state":"MD","lat":39.6264,"long":-75.8458},{"zip":"21922","city":"Elkton","state":"MD","lat":39.6068,"long":-75.8333},{"zip":"21930","city":"Georgetown","state":"MD","lat":39.3662,"long":-75.8845},{"zip":"21613","city":"Cambridge","state":"MD","lat":38.5643,"long":-76.0874},{"zip":"21622","city":"Church Creek","state":"MD","lat":38.4278,"long":-76.1696},{"zip":"21626","city":"Crapo","state":"MD","lat":38.3295,"long":-76.1142},{"zip":"21627","city":"Crocheron","state":"MD","lat":38.2426,"long":-76.0531},{"zip":"21631","city":"East New Market","state":"MD","lat":38.5921,"long":-75.9568},{"zip":"21634","city":"Fishing Creek","state":"MD","lat":38.3223,"long":-76.2244},{"zip":"21643","city":"Hurlock","state":"MD","lat":38.6438,"long":-75.863},{"zip":"21648","city":"Madison","state":"MD","lat":38.4782,"long":-76.2412},{"zip":"21659","city":"Rhodesdale","state":"MD","lat":38.603,"long":-75.7749},{"zip":"21664","city":"Secretary","state":"MD","lat":38.6093,"long":-75.9474},{"zip":"21669","city":"Taylors Island","state":"MD","lat":38.4631,"long":-76.2964},{"zip":"21672","city":"Toddville","state":"MD","lat":38.2726,"long":-76.0596},{"zip":"21675","city":"Wingate","state":"MD","lat":38.2899,"long":-76.0863},{"zip":"21677","city":"Woolford","state":"MD","lat":38.4997,"long":-76.2025},{"zip":"21835","city":"Linkwood","state":"MD","lat":38.5403,"long":-75.963},{"zip":"21869","city":"Vienna","state":"MD","lat":38.4774,"long":-75.8729},{"zip":"21701","city":"Frederick","state":"MD","lat":39.4461,"long":-77.335},{"zip":"21702","city":"Frederick","state":"MD","lat":39.4926,"long":-77.4612},{"zip":"21703","city":"Frederick","state":"MD","lat":39.3647,"long":-77.4636},{"zip":"21704","city":"Frederick","state":"MD","lat":39.3455,"long":-77.3832},{"zip":"21705","city":"Frederick","state":"MD","lat":39.47,"long":-77.3921},{"zip":"21709","city":"Frederick","state":"MD","lat":39.47,"long":-77.3921},{"zip":"21710","city":"Adamstown","state":"MD","lat":39.291,"long":-77.4552},{"zip":"21714","city":"Braddock Heights","state":"MD","lat":39.4203,"long":-77.5051},{"zip":"21716","city":"Brunswick","state":"MD","lat":39.3164,"long":-77.623},{"zip":"21717","city":"Buckeystown","state":"MD","lat":39.3309,"long":-77.4274},{"zip":"21718","city":"Burkittsville","state":"MD","lat":39.3923,"long":-77.6275},{"zip":"21727","city":"Emmitsburg","state":"MD","lat":39.694,"long":-77.3357},{"zip":"21754","city":"Ijamsville","state":"MD","lat":39.3267,"long":-77.2964},{"zip":"21755","city":"Jefferson","state":"MD","lat":39.3653,"long":-77.5441},{"zip":"21758","city":"Knoxville","state":"MD","lat":39.3479,"long":-77.6513},{"zip":"21759","city":"Ladiesburg","state":"MD","lat":39.5694,"long":-77.2905},{"zip":"21762","city":"Libertytown","state":"MD","lat":39.4822,"long":-77.2468},{"zip":"21769","city":"Middletown","state":"MD","lat":39.4416,"long":-77.5502},{"zip":"21770","city":"Monrovia","state":"MD","lat":39.3512,"long":-77.2494},{"zip":"21771","city":"Mount Airy","state":"MD","lat":39.3881,"long":-77.1723},{"zip":"21773","city":"Myersville","state":"MD","lat":39.5282,"long":-77.5513},{"zip":"21774","city":"New Market","state":"MD","lat":39.4096,"long":-77.2759},{"zip":"21775","city":"New Midway","state":"MD","lat":39.5645,"long":-77.2947},{"zip":"21777","city":"Point Of Rocks","state":"MD","lat":39.2791,"long":-77.5328},{"zip":"21778","city":"Rocky Ridge","state":"MD","lat":39.6057,"long":-77.3296},{"zip":"21780","city":"Sabillasville","state":"MD","lat":39.6828,"long":-77.4693},{"zip":"21788","city":"Thurmont","state":"MD","lat":39.6109,"long":-77.3989},{"zip":"21790","city":"Tuscarora","state":"MD","lat":39.2667,"long":-77.5101},{"zip":"21792","city":"Unionville","state":"MD","lat":39.4748,"long":-77.1855},{"zip":"21793","city":"Walkersville","state":"MD","lat":39.4787,"long":-77.3484},{"zip":"21798","city":"Woodsboro","state":"MD","lat":39.5311,"long":-77.2972},{"zip":"21520","city":"Accident","state":"MD","lat":39.6355,"long":-79.3085},{"zip":"21522","city":"Bittinger","state":"MD","lat":39.6023,"long":-79.2234},{"zip":"21523","city":"Bloomington","state":"MD","lat":39.4861,"long":-79.083},{"zip":"21531","city":"Friendsville","state":"MD","lat":39.6665,"long":-79.4219},{"zip":"21536","city":"Grantsville","state":"MD","lat":39.6551,"long":-79.1241},{"zip":"21538","city":"Kitzmiller","state":"MD","lat":39.4169,"long":-79.2222},{"zip":"21541","city":"Mc Henry","state":"MD","lat":39.5656,"long":-79.3823},{"zip":"21550","city":"Oakland","state":"MD","lat":39.4339,"long":-79.3167},{"zip":"21561","city":"Swanton","state":"MD","lat":39.4764,"long":-79.2402},{"zip":"21001","city":"Aberdeen","state":"MD","lat":39.5109,"long":-76.1805},{"zip":"21005","city":"Aberdeen Proving Ground","state":"MD","lat":39.4771,"long":-76.1208},{"zip":"21009","city":"Abingdon","state":"MD","lat":39.4744,"long":-76.2997},{"zip":"21010","city":"Gunpowder","state":"MD","lat":39.3982,"long":-76.2743},{"zip":"21014","city":"Bel Air","state":"MD","lat":39.5394,"long":-76.3564},{"zip":"21015","city":"Bel Air","state":"MD","lat":39.5303,"long":-76.3153},{"zip":"21017","city":"Belcamp","state":"MD","lat":39.4756,"long":-76.242},{"zip":"21018","city":"Benson","state":"MD","lat":39.5093,"long":-76.3851},{"zip":"21028","city":"Churchville","state":"MD","lat":39.5648,"long":-76.249},{"zip":"21034","city":"Darlington","state":"MD","lat":39.654,"long":-76.2278},{"zip":"21040","city":"Edgewood","state":"MD","lat":39.4277,"long":-76.3055},{"zip":"21047","city":"Fallston","state":"MD","lat":39.527,"long":-76.4328},{"zip":"21050","city":"Forest Hill","state":"MD","lat":39.5755,"long":-76.4008},{"zip":"21078","city":"Havre De Grace","state":"MD","lat":39.5523,"long":-76.1171},{"zip":"21084","city":"Jarrettsville","state":"MD","lat":39.6162,"long":-76.4684},{"zip":"21085","city":"Joppa","state":"MD","lat":39.4242,"long":-76.3541},{"zip":"21130","city":"Perryman","state":"MD","lat":39.4716,"long":-76.2117},{"zip":"21132","city":"Pylesville","state":"MD","lat":39.6959,"long":-76.4113},{"zip":"21154","city":"Street","state":"MD","lat":39.6574,"long":-76.3713},{"zip":"21160","city":"Whiteford","state":"MD","lat":39.7077,"long":-76.316},{"zip":"21161","city":"White Hall","state":"MD","lat":39.6618,"long":-76.5666},{"zip":"21029","city":"Clarksville","state":"MD","lat":39.2125,"long":-76.9515},{"zip":"21036","city":"Dayton","state":"MD","lat":39.2339,"long":-76.9968},{"zip":"21041","city":"Ellicott City","state":"MD","lat":39.2364,"long":-76.9419},{"zip":"21042","city":"Ellicott City","state":"MD","lat":39.2726,"long":-76.8614},{"zip":"21043","city":"Ellicott City","state":"MD","lat":39.2548,"long":-76.8001},{"zip":"21044","city":"Columbia","state":"MD","lat":39.2141,"long":-76.8788},{"zip":"21045","city":"Columbia","state":"MD","lat":39.2051,"long":-76.8322},{"zip":"21046","city":"Columbia","state":"MD","lat":39.1702,"long":-76.8538},{"zip":"21075","city":"Elkridge","state":"MD","lat":39.2058,"long":-76.7531},{"zip":"21150","city":"Simpsonville","state":"MD","lat":39.2364,"long":-76.9419},{"zip":"21723","city":"Cooksville","state":"MD","lat":39.3211,"long":-77.0051},{"zip":"21737","city":"Glenelg","state":"MD","lat":39.2546,"long":-77.0198},{"zip":"21738","city":"Glenwood","state":"MD","lat":39.2795,"long":-77.0148},{"zip":"21765","city":"Lisbon","state":"MD","lat":39.3378,"long":-77.072},{"zip":"21794","city":"West Friendship","state":"MD","lat":39.2934,"long":-76.966},{"zip":"21610","city":"Betterton","state":"MD","lat":39.3655,"long":-76.0639},{"zip":"21620","city":"Chestertown","state":"MD","lat":39.2125,"long":-76.0802},{"zip":"21635","city":"Galena","state":"MD","lat":39.3374,"long":-75.8717},{"zip":"21645","city":"Kennedyville","state":"MD","lat":39.2978,"long":-75.9818},{"zip":"21650","city":"Massey","state":"MD","lat":39.3126,"long":-75.8215},{"zip":"21651","city":"Millington","state":"MD","lat":39.2743,"long":-75.8951},{"zip":"21661","city":"Rock Hall","state":"MD","lat":39.1344,"long":-76.2305},{"zip":"21667","city":"Still Pond","state":"MD","lat":39.3293,"long":-76.0455},{"zip":"21678","city":"Worton","state":"MD","lat":39.2963,"long":-76.1008},{"zip":"21607","city":"Barclay","state":"MD","lat":39.1299,"long":-75.8601},{"zip":"21617","city":"Centreville","state":"MD","lat":39.0564,"long":-76.045},{"zip":"21619","city":"Chester","state":"MD","lat":38.9583,"long":-76.2842},{"zip":"21623","city":"Church Hill","state":"MD","lat":39.146,"long":-75.988},{"zip":"21628","city":"Crumpton","state":"MD","lat":39.233,"long":-75.9195},{"zip":"21638","city":"Grasonville","state":"MD","lat":38.9456,"long":-76.1997},{"zip":"21644","city":"Ingleside","state":"MD","lat":39.1182,"long":-75.8769},{"zip":"21656","city":"Price","state":"MD","lat":39.0346,"long":-76.0921},{"zip":"21657","city":"Queen Anne","state":"MD","lat":38.9456,"long":-75.9777},{"zip":"21658","city":"Queenstown","state":"MD","lat":39.0025,"long":-76.1424},{"zip":"21666","city":"Stevensville","state":"MD","lat":38.9394,"long":-76.3371},{"zip":"21668","city":"Sudlersville","state":"MD","lat":39.1823,"long":-75.85},{"zip":"21690","city":"Chestertown","state":"MD","lat":39.0346,"long":-76.0921},{"zip":"21817","city":"Crisfield","state":"MD","lat":37.9845,"long":-75.8429},{"zip":"21821","city":"Deal Island","state":"MD","lat":38.1533,"long":-75.9496},{"zip":"21824","city":"Ewell","state":"MD","lat":37.9938,"long":-76.0351},{"zip":"21836","city":"Manokin","state":"MD","lat":38.1154,"long":-75.7558},{"zip":"21838","city":"Marion Station","state":"MD","lat":38.0266,"long":-75.7579},{"zip":"21853","city":"Princess Anne","state":"MD","lat":38.1919,"long":-75.7072},{"zip":"21857","city":"Rehobeth","state":"MD","lat":38.039,"long":-75.663},{"zip":"21866","city":"Tylerton","state":"MD","lat":37.9666,"long":-76.0235},{"zip":"21867","city":"Upper Fairmount","state":"MD","lat":38.1005,"long":-75.8223},{"zip":"21871","city":"Westover","state":"MD","lat":38.101,"long":-75.7406},{"zip":"21890","city":"Westover","state":"MD","lat":38.0927,"long":-75.8882},{"zip":"21601","city":"Easton","state":"MD","lat":38.7768,"long":-76.0758},{"zip":"21612","city":"Bozman","state":"MD","lat":38.7515,"long":-76.2764},{"zip":"21624","city":"Claiborne","state":"MD","lat":38.8368,"long":-76.2714},{"zip":"21625","city":"Cordova","state":"MD","lat":38.8704,"long":-76.0029},{"zip":"21647","city":"Mcdaniel","state":"MD","lat":38.8192,"long":-76.2806},{"zip":"21652","city":"Neavitt","state":"MD","lat":38.7246,"long":-76.2824},{"zip":"21653","city":"Newcomb","state":"MD","lat":38.7518,"long":-76.178},{"zip":"21654","city":"Oxford","state":"MD","lat":38.6864,"long":-76.1538},{"zip":"21662","city":"Royal Oak","state":"MD","lat":38.714,"long":-76.2097},{"zip":"21663","city":"Saint Michaels","state":"MD","lat":38.783,"long":-76.2215},{"zip":"21665","city":"Sherwood","state":"MD","lat":38.7374,"long":-76.3278},{"zip":"21671","city":"Tilghman","state":"MD","lat":38.7063,"long":-76.3377},{"zip":"21673","city":"Trappe","state":"MD","lat":38.6647,"long":-76.0507},{"zip":"21676","city":"Wittman","state":"MD","lat":38.7846,"long":-76.3001},{"zip":"21679","city":"Wye Mills","state":"MD","lat":38.9281,"long":-76.0814},{"zip":"21711","city":"Big Pool","state":"MD","lat":39.6457,"long":-78.0104},{"zip":"21713","city":"Boonsboro","state":"MD","lat":39.552,"long":-77.6957},{"zip":"21715","city":"Brownsville","state":"MD","lat":39.3869,"long":-77.658},{"zip":"21719","city":"Cascade","state":"MD","lat":39.6958,"long":-77.4955},{"zip":"21720","city":"Cavetown","state":"MD","lat":39.6473,"long":-77.5842},{"zip":"21721","city":"Chewsville","state":"MD","lat":39.6425,"long":-77.6372},{"zip":"21722","city":"Clear Spring","state":"MD","lat":39.6658,"long":-77.9064},{"zip":"21733","city":"Fairplay","state":"MD","lat":39.5594,"long":-77.7604},{"zip":"21734","city":"Funkstown","state":"MD","lat":39.609,"long":-77.7044},{"zip":"21740","city":"Hagerstown","state":"MD","lat":39.632,"long":-77.7372},{"zip":"21741","city":"Hagerstown","state":"MD","lat":39.6418,"long":-77.72},{"zip":"21742","city":"Hagerstown","state":"MD","lat":39.6573,"long":-77.6921},{"zip":"21746","city":"Hagerstown","state":"MD","lat":39.5638,"long":-77.7206},{"zip":"21747","city":"Hagerstown","state":"MD","lat":39.6418,"long":-77.72},{"zip":"21749","city":"Hagerstown","state":"MD","lat":39.6418,"long":-77.72},{"zip":"21750","city":"Hancock","state":"MD","lat":39.6991,"long":-78.1762},{"zip":"21756","city":"Keedysville","state":"MD","lat":39.4563,"long":-77.6944},{"zip":"21767","city":"Maugansville","state":"MD","lat":39.6996,"long":-77.7499},{"zip":"21779","city":"Rohrersville","state":"MD","lat":39.4431,"long":-77.658},{"zip":"21781","city":"Saint James","state":"MD","lat":39.5699,"long":-77.7607},{"zip":"21782","city":"Sharpsburg","state":"MD","lat":39.4424,"long":-77.7511},{"zip":"21783","city":"Smithsburg","state":"MD","lat":39.647,"long":-77.5706},{"zip":"21795","city":"Williamsport","state":"MD","lat":39.593,"long":-77.8087},{"zip":"21801","city":"Salisbury","state":"MD","lat":38.3824,"long":-75.6336},{"zip":"21802","city":"Salisbury","state":"MD","lat":38.3884,"long":-75.6276},{"zip":"21803","city":"Salisbury","state":"MD","lat":38.3884,"long":-75.6276},{"zip":"21804","city":"Salisbury","state":"MD","lat":38.3508,"long":-75.5338},{"zip":"21810","city":"Allen","state":"MD","lat":38.2873,"long":-75.688},{"zip":"21814","city":"Bivalve","state":"MD","lat":38.2953,"long":-75.8914},{"zip":"21826","city":"Fruitland","state":"MD","lat":38.3225,"long":-75.6228},{"zip":"21830","city":"Hebron","state":"MD","lat":38.4026,"long":-75.6963},{"zip":"21837","city":"Mardela Springs","state":"MD","lat":38.4864,"long":-75.7414},{"zip":"21840","city":"Nanticoke","state":"MD","lat":38.2672,"long":-75.9021},{"zip":"21849","city":"Parsonsburg","state":"MD","lat":38.3914,"long":-75.4737},{"zip":"21850","city":"Pittsville","state":"MD","lat":38.3755,"long":-75.4076},{"zip":"21852","city":"Powellville","state":"MD","lat":38.3287,"long":-75.3755},{"zip":"21856","city":"Quantico","state":"MD","lat":38.3339,"long":-75.7851},{"zip":"21861","city":"Sharptown","state":"MD","lat":38.5389,"long":-75.7192},{"zip":"21865","city":"Tyaskin","state":"MD","lat":38.2833,"long":-75.8465},{"zip":"21874","city":"Willards","state":"MD","lat":38.3939,"long":-75.3552},{"zip":"21875","city":"Delmar","state":"MD","lat":38.4445,"long":-75.5583},{"zip":"21811","city":"Berlin","state":"MD","lat":38.3475,"long":-75.1866},{"zip":"21813","city":"Bishopville","state":"MD","lat":38.4296,"long":-75.1855},{"zip":"21822","city":"Eden","state":"MD","lat":38.2807,"long":-75.651},{"zip":"21829","city":"Girdletree","state":"MD","lat":38.0958,"long":-75.3902},{"zip":"21841","city":"Newark","state":"MD","lat":38.2489,"long":-75.2893},{"zip":"21842","city":"Ocean City","state":"MD","lat":38.3365,"long":-75.0849},{"zip":"21843","city":"Ocean City","state":"MD","lat":38.3365,"long":-75.0849},{"zip":"21851","city":"Pocomoke City","state":"MD","lat":38.0714,"long":-75.555},{"zip":"21862","city":"Showell","state":"MD","lat":38.4003,"long":-75.2166},{"zip":"21863","city":"Snow Hill","state":"MD","lat":38.1868,"long":-75.405},{"zip":"21864","city":"Stockton","state":"MD","lat":38.0452,"long":-75.4108},{"zip":"21872","city":"Whaleyville","state":"MD","lat":38.4121,"long":-75.2811},{"zip":"21201","city":"Baltimore","state":"MD","lat":39.2946,"long":-76.6252},{"zip":"21202","city":"Baltimore","state":"MD","lat":39.2998,"long":-76.6075},{"zip":"21203","city":"Baltimore","state":"MD","lat":39.2847,"long":-76.6205},{"zip":"21205","city":"Baltimore","state":"MD","lat":39.3009,"long":-76.5799},{"zip":"21206","city":"Baltimore","state":"MD","lat":39.3365,"long":-76.5411},{"zip":"21209","city":"Baltimore","state":"MD","lat":39.3716,"long":-76.6744},{"zip":"21210","city":"Baltimore","state":"MD","lat":39.3507,"long":-76.6321},{"zip":"21211","city":"Baltimore","state":"MD","lat":39.3316,"long":-76.6336},{"zip":"21212","city":"Baltimore","state":"MD","lat":39.3626,"long":-76.61},{"zip":"21213","city":"Baltimore","state":"MD","lat":39.3127,"long":-76.581},{"zip":"21214","city":"Baltimore","state":"MD","lat":39.3521,"long":-76.5644},{"zip":"21215","city":"Baltimore","state":"MD","lat":39.3446,"long":-76.6794},{"zip":"21216","city":"Baltimore","state":"MD","lat":39.3093,"long":-76.6699},{"zip":"21217","city":"Baltimore","state":"MD","lat":39.3064,"long":-76.6393},{"zip":"21218","city":"Baltimore","state":"MD","lat":39.3265,"long":-76.6048},{"zip":"21223","city":"Baltimore","state":"MD","lat":39.287,"long":-76.6476},{"zip":"21224","city":"Baltimore","state":"MD","lat":39.2876,"long":-76.5568},{"zip":"21229","city":"Baltimore","state":"MD","lat":39.2856,"long":-76.6899},{"zip":"21230","city":"Baltimore","state":"MD","lat":39.2645,"long":-76.6224},{"zip":"21231","city":"Baltimore","state":"MD","lat":39.2892,"long":-76.59},{"zip":"21233","city":"Baltimore","state":"MD","lat":39.2847,"long":-76.6205},{"zip":"21235","city":"Baltimore","state":"MD","lat":39.2847,"long":-76.6205},{"zip":"21239","city":"Baltimore","state":"MD","lat":39.361,"long":-76.5891},{"zip":"21241","city":"Baltimore","state":"MD","lat":39.2847,"long":-76.6205},{"zip":"21263","city":"Baltimore","state":"MD","lat":39.2847,"long":-76.6205},{"zip":"21264","city":"Baltimore","state":"MD","lat":39.2847,"long":-76.6205},{"zip":"21270","city":"Baltimore","state":"MD","lat":39.2847,"long":-76.6205},{"zip":"21273","city":"Baltimore","state":"MD","lat":39.2847,"long":-76.6205},{"zip":"21275","city":"Baltimore","state":"MD","lat":39.2847,"long":-76.6205},{"zip":"21278","city":"Baltimore","state":"MD","lat":39.2847,"long":-76.6205},{"zip":"21279","city":"Baltimore","state":"MD","lat":39.2847,"long":-76.6205},{"zip":"21280","city":"Baltimore","state":"MD","lat":39.2847,"long":-76.6205},{"zip":"21281","city":"Baltimore","state":"MD","lat":39.2847,"long":-76.6205},{"zip":"21287","city":"Baltimore","state":"MD","lat":39.2975,"long":-76.5927},{"zip":"21288","city":"Baltimore","state":"MD","lat":39.2847,"long":-76.6205},{"zip":"21289","city":"Baltimore","state":"MD","lat":39.2847,"long":-76.6205},{"zip":"21290","city":"Baltimore","state":"MD","lat":39.2933,"long":-76.6238},{"zip":"21297","city":"Baltimore","state":"MD","lat":39.2847,"long":-76.6205},{"zip":"21298","city":"Baltimore","state":"MD","lat":39.2847,"long":-76.6205}]
