[{"zip":"21012","city":"Arnold","state":"MD","lat":39.0476,"long":-76.4941},{"zip":"21032","city":"Crownsville","state":"MD","lat":39.0489,"long":-76.5935},{"zip":"21035","city":"Davidsonville","state":"MD","lat":38.9374,"long":-76.6375},{"zip":"21037","city":"Edgewater","state":"MD","lat":38.9149,"long":-76.5424},{"zip":"21054","city":"Gambrills","state":"MD","lat":39.0407,"long":-76.6819},{"zip":"21056","city":"Gibson Island","state":"MD","lat":39.0751,"long":-76.4324},{"zip":"21060","city":"Glen Burnie","state":"MD","lat":39.1702,"long":-76.5798},{"zip":"21061","city":"Glen Burnie","state":"MD","lat":39.1618,"long":-76.6297},{"zip":"21062","city":"Glen Burnie","state":"MD","lat":38.9742,"long":-76.5949},{"zip":"21076","city":"Hanover","state":"MD","lat":39.1551,"long":-76.7215},{"zip":"21077","city":"Harmans","state":"MD","lat":39.1561,"long":-76.6977},{"zip":"21090","city":"Linthicum Heights","state":"MD","lat":39.2092,"long":-76.6681},{"zip":"21013","city":"Baldwin","state":"MD","lat":39.5194,"long":-76.4927},{"zip":"21020","city":"Boring","state":"MD","lat":39.5213,"long":-76.8047},{"zip":"21022","city":"Brooklandville","state":"MD","lat":39.3979,"long":-76.6717},{"zip":"21023","city":"Butler","state":"MD","lat":39.533,"long":-76.7432},{"zip":"21027","city":"Chase","state":"MD","lat":39.3634,"long":-76.3711},{"zip":"21030","city":"Cockeysville","state":"MD","lat":39.4919,"long":-76.6677},{"zip":"21031","city":"Hunt Valley","state":"MD","lat":39.4805,"long":-76.6553},{"zip":"21051","city":"Fork","state":"MD","lat":39.4731,"long":-76.4484},{"zip":"21052","city":"Fort Howard","state":"MD","lat":39.207,"long":-76.4456},{"zip":"21053","city":"Freeland","state":"MD","lat":39.694,"long":-76.7223},{"zip":"21057","city":"Glen Arm","state":"MD","lat":39.4575,"long":-76.5153},{"zip":"21065","city":"Hunt Valley","state":"MD","lat":39.4883,"long":-76.6538},{"zip":"21071","city":"Glyndon","state":"MD","lat":39.477,"long":-76.815},{"zip":"21082","city":"Hydes","state":"MD","lat":39.474,"long":-76.4695},{"zip":"21087","city":"Kingsville","state":"MD","lat":39.4558,"long":-76.4147},{"zip":"21092","city":"Long Green","state":"MD","lat":39.4729,"long":-76.523},{"zip":"21093","city":"Lutherville Timonium","state":"MD","lat":39.4332,"long":-76.6546},{"zip":"21094","city":"Lutherville Timonium","state":"MD","lat":39.439,"long":-76.5921},{"zip":"21048","city":"Finksburg","state":"MD","lat":39.4991,"long":-76.9101},{"zip":"21074","city":"Hampstead","state":"MD","lat":39.6146,"long":-76.8644},{"zip":"21088","city":"Lineboro","state":"MD","lat":39.7187,"long":-76.8439},{"zip":"21001","city":"Aberdeen","state":"MD","lat":39.5109,"long":-76.1805},{"zip":"21005","city":"Aberdeen Proving Ground","state":"MD","lat":39.4771,"long":-76.1208},{"zip":"21009","city":"Abingdon","state":"MD","lat":39.4744,"long":-76.2997},{"zip":"21010","city":"Gunpowder","state":"MD","lat":39.3982,"long":-76.2743},{"zip":"21014","city":"Bel Air","state":"MD","lat":39.5394,"long":-76.3564},{"zip":"21015","city":"Bel Air","state":"MD","lat":39.5303,"long":-76.3153},{"zip":"21017","city":"Belcamp","state":"MD","lat":39.4756,"long":-76.242},{"zip":"21018","city":"Benson","state":"MD","lat":39.5093,"long":-76.3851},{"zip":"21028","city":"Churchville","state":"MD","lat":39.5648,"long":-76.249},{"zip":"21034","city":"Darlington","state":"MD","lat":39.654,"long":-76.2278},{"zip":"21040","city":"Edgewood","state":"MD","lat":39.4277,"long":-76.3055},{"zip":"21047","city":"Fallston","state":"MD","lat":39.527,"long":-76.4328},{"zip":"21050","city":"Forest Hill","state":"MD","lat":39.5755,"long":-76.4008},{"zip":"21078","city":"Havre De Grace","state":"MD","lat":39.5523,"long":-76.1171},{"zip":"21084","city":"Jarrettsville","state":"MD","lat":39.6162,"long":-76.4684},{"zip":"21085","city":"Joppa","state":"MD","lat":39.4242,"long":-76.3541},{"zip":"21029","city":"Clarksville","state":"MD","lat":39.2125,"long":-76.9515},{"zip":"21036","city":"Dayton","state":"MD","lat":39.2339,"long":-76.9968},{"zip":"21041","city":"Ellicott City","state":"MD","lat":39.2364,"long":-76.9419},{"zip":"21042","city":"Ellicott City","state":"MD","lat":39.2726,"long":-76.8614},{"zip":"21043","city":"Ellicott City","state":"MD","lat":39.2548,"long":-76.8001},{"zip":"21044","city":"Columbia","state":"MD","lat":39.2141,"long":-76.8788},{"zip":"21045","city":"Columbia","state":"MD","lat":39.2051,"long":-76.8322},{"zip":"21046","city":"Columbia","state":"MD","lat":39.1702,"long":-76.8538},{"zip":"21075","city":"Elkridge","state":"MD","lat":39.2058,"long":-76.7531}]
