[{"zip":"21106","city":"Mayo","state":"MD","lat":38.8876,"long":-76.5119},{"zip":"21108","city":"Millersville","state":"MD","lat":39.1041,"long":-76.619},{"zip":"21113","city":"Odenton","state":"MD","lat":39.0762,"long":-76.6996},{"zip":"21114","city":"Crofton","state":"MD","lat":39.0112,"long":-76.6802},{"zip":"21122","city":"Pasadena","state":"MD","lat":39.1206,"long":-76.495},{"zip":"21123","city":"Pasadena","state":"MD","lat":38.9742,"long":-76.5949},{"zip":"21140","city":"Riva","state":"MD","lat":38.9504,"long":-76.5854},{"zip":"21144","city":"Severn","state":"MD","lat":39.1275,"long":-76.698},{"zip":"21146","city":"Severna Park","state":"MD","lat":39.0811,"long":-76.5577},{"zip":"21105","city":"Maryland Line","state":"MD","lat":39.7114,"long":-76.6595},{"zip":"21111","city":"Monkton","state":"MD","lat":39.5662,"long":-76.5979},{"zip":"21117","city":"Owings Mills","state":"MD","lat":39.4269,"long":-76.7769},{"zip":"21120","city":"Parkton","state":"MD","lat":39.6422,"long":-76.6737},{"zip":"21128","city":"Perry Hall","state":"MD","lat":39.401,"long":-76.451},{"zip":"21131","city":"Phoenix","state":"MD","lat":39.4833,"long":-76.5776},{"zip":"21133","city":"Randallstown","state":"MD","lat":39.3746,"long":-76.8002},{"zip":"21136","city":"Reisterstown","state":"MD","lat":39.46,"long":-76.8135},{"zip":"21139","city":"Riderwood","state":"MD","lat":39.4093,"long":-76.6486},{"zip":"21152","city":"Sparks Glencoe","state":"MD","lat":39.5483,"long":-76.6819},{"zip":"21153","city":"Stevenson","state":"MD","lat":39.4104,"long":-76.713},{"zip":"21155","city":"Upperco","state":"MD","lat":39.5676,"long":-76.7972},{"zip":"21156","city":"Upper Falls","state":"MD","lat":39.4372,"long":-76.3966},{"zip":"21162","city":"White Marsh","state":"MD","lat":39.3923,"long":-76.4132},{"zip":"21163","city":"Woodstock","state":"MD","lat":39.3498,"long":-76.8456},{"zip":"21102","city":"Manchester","state":"MD","lat":39.6747,"long":-76.8941},{"zip":"21104","city":"Marriottsville","state":"MD","lat":39.3342,"long":-76.9132},{"zip":"21157","city":"Westminster","state":"MD","lat":39.5642,"long":-76.9807},{"zip":"21158","city":"Westminster","state":"MD","lat":39.607,"long":-77.0294},{"zip":"21130","city":"Perryman","state":"MD","lat":39.4716,"long":-76.2117},{"zip":"21132","city":"Pylesville","state":"MD","lat":39.6959,"long":-76.4113},{"zip":"21154","city":"Street","state":"MD","lat":39.6574,"long":-76.3713},{"zip":"21160","city":"Whiteford","state":"MD","lat":39.7077,"long":-76.316},{"zip":"21161","city":"White Hall","state":"MD","lat":39.6618,"long":-76.5666},{"zip":"21150","city":"Simpsonville","state":"MD","lat":39.2364,"long":-76.9419}]
