[{"zip":"21225","city":"Brooklyn","state":"MD","lat":39.2259,"long":-76.6153},{"zip":"21226","city":"Curtis Bay","state":"MD","lat":39.2109,"long":-76.5597},{"zip":"21240","city":"Baltimore","state":"MD","lat":39.1753,"long":-76.6732},{"zip":"21204","city":"Towson","state":"MD","lat":39.4072,"long":-76.6038},{"zip":"21207","city":"Gwynn Oak","state":"MD","lat":39.3296,"long":-76.7341},{"zip":"21208","city":"Pikesville","state":"MD","lat":39.3764,"long":-76.729},{"zip":"21219","city":"Sparrows Point","state":"MD","lat":39.2296,"long":-76.4455},{"zip":"21220","city":"Middle River","state":"MD","lat":39.3401,"long":-76.4153},{"zip":"21221","city":"Essex","state":"MD","lat":39.3086,"long":-76.4533},{"zip":"21222","city":"Dundalk","state":"MD","lat":39.2655,"long":-76.4935},{"zip":"21227","city":"Halethorpe","state":"MD","lat":39.2309,"long":-76.6969},{"zip":"21228","city":"Catonsville","state":"MD","lat":39.2782,"long":-76.7401},{"zip":"21234","city":"Parkville","state":"MD","lat":39.3876,"long":-76.5418},{"zip":"21236","city":"Nottingham","state":"MD","lat":39.3914,"long":-76.4871},{"zip":"21237","city":"Rosedale","state":"MD","lat":39.3361,"long":-76.5014},{"zip":"21244","city":"Windsor Mill","state":"MD","lat":39.3331,"long":-76.7849},{"zip":"21250","city":"Baltimore","state":"MD","lat":39.2582,"long":-76.7131},{"zip":"21251","city":"Baltimore","state":"MD","lat":39.439,"long":-76.5921},{"zip":"21252","city":"Towson","state":"MD","lat":39.4015,"long":-76.6019},{"zip":"21282","city":"Pikesville","state":"MD","lat":39.3743,"long":-76.7225},{"zip":"21284","city":"Towson","state":"MD","lat":39.4015,"long":-76.6019},{"zip":"21285","city":"Towson","state":"MD","lat":39.4015,"long":-76.6019},{"zip":"21286","city":"Towson","state":"MD","lat":39.4143,"long":-76.5761},{"zip":"21201","city":"Baltimore","state":"MD","lat":39.2946,"long":-76.6252},{"zip":"21202","city":"Baltimore","state":"MD","lat":39.2998,"long":-76.6075},{"zip":"21203","city":"Baltimore","state":"MD","lat":39.2847,"long":-76.6205},{"zip":"21205","city":"Baltimore","state":"MD","lat":39.3009,"long":-76.5799},{"zip":"21206","city":"Baltimore","state":"MD","lat":39.3365,"long":-76.5411},{"zip":"21209","city":"Baltimore","state":"MD","lat":39.3716,"long":-76.6744},{"zip":"21210","city":"Baltimore","state":"MD","lat":39.3507,"long":-76.6321},{"zip":"21211","city":"Baltimore","state":"MD","lat":39.3316,"long":-76.6336},{"zip":"21212","city":"Baltimore","state":"MD","lat":39.3626,"long":-76.61},{"zip":"21213","city":"Baltimore","state":"MD","lat":39.3127,"long":-76.581},{"zip":"21214","city":"Baltimore","state":"MD","lat":39.3521,"long":-76.5644},{"zip":"21215","city":"Baltimore","state":"MD","lat":39.3446,"long":-76.6794},{"zip":"21216","city":"Baltimore","state":"MD","lat":39.3093,"long":-76.6699},{"zip":"21217","city":"Baltimore","state":"MD","lat":39.3064,"long":-76.6393},{"zip":"21218","city":"Baltimore","state":"MD","lat":39.3265,"long":-76.6048},{"zip":"21223","city":"Baltimore","state":"MD","lat":39.287,"long":-76.6476},{"zip":"21224","city":"Baltimore","state":"MD","lat":39.2876,"long":-76.5568},{"zip":"21229","city":"Baltimore","state":"MD","lat":39.2856,"long":-76.6899},{"zip":"21230","city":"Baltimore","state":"MD","lat":39.2645,"long":-76.6224},{"zip":"21231","city":"Baltimore","state":"MD","lat":39.2892,"long":-76.59},{"zip":"21233","city":"Baltimore","state":"MD","lat":39.2847,"long":-76.6205},{"zip":"21235","city":"Baltimore","state":"MD","lat":39.2847,"long":-76.6205},{"zip":"21239","city":"Baltimore","state":"MD","lat":39.361,"long":-76.5891},{"zip":"21241","city":"Baltimore","state":"MD","lat":39.2847,"long":-76.6205},{"zip":"21263","city":"Baltimore","state":"MD","lat":39.2847,"long":-76.6205},{"zip":"21264","city":"Baltimore","state":"MD","lat":39.2847,"long":-76.6205},{"zip":"21270","city":"Baltimore","state":"MD","lat":39.2847,"long":-76.6205},{"zip":"21273","city":"Baltimore","state":"MD","lat":39.2847,"long":-76.6205},{"zip":"21275","city":"Baltimore","state":"MD","lat":39.2847,"long":-76.6205},{"zip":"21278","city":"Baltimore","state":"MD","lat":39.2847,"long":-76.6205},{"zip":"21279","city":"Baltimore","state":"MD","lat":39.2847,"long":-76.6205},{"zip":"21280","city":"Baltimore","state":"MD","lat":39.2847,"long":-76.6205},{"zip":"21281","city":"Baltimore","state":"MD","lat":39.2847,"long":-76.6205},{"zip":"21287","city":"Baltimore","state":"MD","lat":39.2975,"long":-76.5927},{"zip":"21288","city":"Baltimore","state":"MD","lat":39.2847,"long":-76.6205},{"zip":"21289","city":"Baltimore","state":"MD","lat":39.2847,"long":-76.6205},{"zip":"21290","city":"Baltimore","state":"MD","lat":39.2933,"long":-76.6238},{"zip":"21297","city":"Baltimore","state":"MD","lat":39.2847,"long":-76.6205},{"zip":"21298","city":"Baltimore","state":"MD","lat":39.2847,"long":-76.6205}]
