[{"zip":"21501","city":"Cumberland","state":"MD","lat":39.6529,"long":-78.7625},{"zip":"21502","city":"Cumberland","state":"MD","lat":39.5992,"long":-78.8444},{"zip":"21503","city":"Cumberland","state":"MD","lat":39.6529,"long":-78.7625},{"zip":"21504","city":"Cumberland","state":"MD","lat":39.5807,"long":-78.6906},{"zip":"21505","city":"Cumberland","state":"MD","lat":39.594,"long":-78.8434},{"zip":"21521","city":"Barton","state":"MD","lat":39.5331,"long":-79.0281},{"zip":"21524","city":"Corriganville","state":"MD","lat":39.6967,"long":-78.8031},{"zip":"21528","city":"Eckhart Mines","state":"MD","lat":39.6528,"long":-78.9014},{"zip":"21529","city":"Ellerslie","state":"MD","lat":39.7083,"long":-78.7774},{"zip":"21530","city":"Flintstone","state":"MD","lat":39.6993,"long":-78.5739},{"zip":"21532","city":"Frostburg","state":"MD","lat":39.6494,"long":-78.9306},{"zip":"21539","city":"Lonaconing","state":"MD","lat":39.5757,"long":-78.9915},{"zip":"21540","city":"Luke","state":"MD","lat":39.4774,"long":-79.0594},{"zip":"21542","city":"Midland","state":"MD","lat":39.5901,"long":-78.9497},{"zip":"21543","city":"Midlothian","state":"MD","lat":39.6339,"long":-78.9604},{"zip":"21545","city":"Mount Savage","state":"MD","lat":39.6991,"long":-78.8739},{"zip":"21555","city":"Oldtown","state":"MD","lat":39.5846,"long":-78.6044},{"zip":"21556","city":"Pinto","state":"MD","lat":39.5725,"long":-78.844},{"zip":"21557","city":"Rawlings","state":"MD","lat":39.5214,"long":-78.9062},{"zip":"21560","city":"Spring Gap","state":"MD","lat":39.5654,"long":-78.7164},{"zip":"21562","city":"Westernport","state":"MD","lat":39.4905,"long":-79.014},{"zip":"21520","city":"Accident","state":"MD","lat":39.6355,"long":-79.3085},{"zip":"21522","city":"Bittinger","state":"MD","lat":39.6023,"long":-79.2234},{"zip":"21523","city":"Bloomington","state":"MD","lat":39.4861,"long":-79.083},{"zip":"21531","city":"Friendsville","state":"MD","lat":39.6665,"long":-79.4219},{"zip":"21536","city":"Grantsville","state":"MD","lat":39.6551,"long":-79.1241},{"zip":"21538","city":"Kitzmiller","state":"MD","lat":39.4169,"long":-79.2222},{"zip":"21541","city":"Mc Henry","state":"MD","lat":39.5656,"long":-79.3823},{"zip":"21550","city":"Oakland","state":"MD","lat":39.4339,"long":-79.3167},{"zip":"21561","city":"Swanton","state":"MD","lat":39.4764,"long":-79.2402}]
