[{"zip":"21766","city":"Little Orleans","state":"MD","lat":39.6876,"long":-78.3781},{"zip":"21757","city":"Keymar","state":"MD","lat":39.5656,"long":-77.2817},{"zip":"21776","city":"New Windsor","state":"MD","lat":39.5162,"long":-77.1034},{"zip":"21784","city":"Sykesville","state":"MD","lat":39.4567,"long":-76.9696},{"zip":"21787","city":"Taneytown","state":"MD","lat":39.6658,"long":-77.1691},{"zip":"21791","city":"Union Bridge","state":"MD","lat":39.5799,"long":-77.1319},{"zip":"21797","city":"Woodbine","state":"MD","lat":39.3464,"long":-77.0647},{"zip":"21701","city":"Frederick","state":"MD","lat":39.4461,"long":-77.335},{"zip":"21702","city":"Frederick","state":"MD","lat":39.4926,"long":-77.4612},{"zip":"21703","city":"Frederick","state":"MD","lat":39.3647,"long":-77.4636},{"zip":"21704","city":"Frederick","state":"MD","lat":39.3455,"long":-77.3832},{"zip":"21705","city":"Frederick","state":"MD","lat":39.47,"long":-77.3921},{"zip":"21709","city":"Frederick","state":"MD","lat":39.47,"long":-77.3921},{"zip":"21710","city":"Adamstown","state":"MD","lat":39.291,"long":-77.4552},{"zip":"21714","city":"Braddock Heights","state":"MD","lat":39.4203,"long":-77.5051},{"zip":"21716","city":"Brunswick","state":"MD","lat":39.3164,"long":-77.623},{"zip":"21717","city":"Buckeystown","state":"MD","lat":39.3309,"long":-77.4274},{"zip":"21718","city":"Burkittsville","state":"MD","lat":39.3923,"long":-77.6275},{"zip":"21727","city":"Emmitsburg","state":"MD","lat":39.694,"long":-77.3357},{"zip":"21754","city":"Ijamsville","state":"MD","lat":39.3267,"long":-77.2964},{"zip":"21755","city":"Jefferson","state":"MD","lat":39.3653,"long":-77.5441},{"zip":"21758","city":"Knoxville","state":"MD","lat":39.3479,"long":-77.6513},{"zip":"21759","city":"Ladiesburg","state":"MD","lat":39.5694,"long":-77.2905},{"zip":"21762","city":"Libertytown","state":"MD","lat":39.4822,"long":-77.2468},{"zip":"21769","city":"Middletown","state":"MD","lat":39.4416,"long":-77.5502},{"zip":"21770","city":"Monrovia","state":"MD","lat":39.3512,"long":-77.2494},{"zip":"21771","city":"Mount Airy","state":"MD","lat":39.3881,"long":-77.1723},{"zip":"21773","city":"Myersville","state":"MD","lat":39.5282,"long":-77.5513},{"zip":"21774","city":"New Market","state":"MD","lat":39.4096,"long":-77.2759},{"zip":"21775","city":"New Midway","state":"MD","lat":39.5645,"long":-77.2947},{"zip":"21777","city":"Point Of Rocks","state":"MD","lat":39.2791,"long":-77.5328},{"zip":"21778","city":"Rocky Ridge","state":"MD","lat":39.6057,"long":-77.3296},{"zip":"21780","city":"Sabillasville","state":"MD","lat":39.6828,"long":-77.4693},{"zip":"21788","city":"Thurmont","state":"MD","lat":39.6109,"long":-77.3989},{"zip":"21790","city":"Tuscarora","state":"MD","lat":39.2667,"long":-77.5101},{"zip":"21792","city":"Unionville","state":"MD","lat":39.4748,"long":-77.1855},{"zip":"21793","city":"Walkersville","state":"MD","lat":39.4787,"long":-77.3484},{"zip":"21798","city":"Woodsboro","state":"MD","lat":39.5311,"long":-77.2972},{"zip":"21723","city":"Cooksville","state":"MD","lat":39.3211,"long":-77.0051},{"zip":"21737","city":"Glenelg","state":"MD","lat":39.2546,"long":-77.0198},{"zip":"21738","city":"Glenwood","state":"MD","lat":39.2795,"long":-77.0148},{"zip":"21765","city":"Lisbon","state":"MD","lat":39.3378,"long":-77.072},{"zip":"21794","city":"West Friendship","state":"MD","lat":39.2934,"long":-76.966},{"zip":"21711","city":"Big Pool","state":"MD","lat":39.6457,"long":-78.0104},{"zip":"21713","city":"Boonsboro","state":"MD","lat":39.552,"long":-77.6957},{"zip":"21715","city":"Brownsville","state":"MD","lat":39.3869,"long":-77.658},{"zip":"21719","city":"Cascade","state":"MD","lat":39.6958,"long":-77.4955},{"zip":"21720","city":"Cavetown","state":"MD","lat":39.6473,"long":-77.5842},{"zip":"21721","city":"Chewsville","state":"MD","lat":39.6425,"long":-77.6372},{"zip":"21722","city":"Clear Spring","state":"MD","lat":39.6658,"long":-77.9064},{"zip":"21733","city":"Fairplay","state":"MD","lat":39.5594,"long":-77.7604},{"zip":"21734","city":"Funkstown","state":"MD","lat":39.609,"long":-77.7044},{"zip":"21740","city":"Hagerstown","state":"MD","lat":39.632,"long":-77.7372},{"zip":"21741","city":"Hagerstown","state":"MD","lat":39.6418,"long":-77.72},{"zip":"21742","city":"Hagerstown","state":"MD","lat":39.6573,"long":-77.6921},{"zip":"21746","city":"Hagerstown","state":"MD","lat":39.5638,"long":-77.7206},{"zip":"21747","city":"Hagerstown","state":"MD","lat":39.6418,"long":-77.72},{"zip":"21749","city":"Hagerstown","state":"MD","lat":39.6418,"long":-77.72},{"zip":"21750","city":"Hancock","state":"MD","lat":39.6991,"long":-78.1762},{"zip":"21756","city":"Keedysville","state":"MD","lat":39.4563,"long":-77.6944},{"zip":"21767","city":"Maugansville","state":"MD","lat":39.6996,"long":-77.7499},{"zip":"21779","city":"Rohrersville","state":"MD","lat":39.4431,"long":-77.658},{"zip":"21781","city":"Saint James","state":"MD","lat":39.5699,"long":-77.7607},{"zip":"21782","city":"Sharpsburg","state":"MD","lat":39.4424,"long":-77.7511},{"zip":"21783","city":"Smithsburg","state":"MD","lat":39.647,"long":-77.5706},{"zip":"21795","city":"Williamsport","state":"MD","lat":39.593,"long":-77.8087}]
