[{"zip":"21835","city":"Linkwood","state":"MD","lat":38.5403,"long":-75.963},{"zip":"21869","city":"Vienna","state":"MD","lat":38.4774,"long":-75.8729},{"zip":"21817","city":"Crisfield","state":"MD","lat":37.9845,"long":-75.8429},{"zip":"21821","city":"Deal Island","state":"MD","lat":38.1533,"long":-75.9496},{"zip":"21824","city":"Ewell","state":"MD","lat":37.9938,"long":-76.0351},{"zip":"21836","city":"Manokin","state":"MD","lat":38.1154,"long":-75.7558},{"zip":"21838","city":"Marion Station","state":"MD","lat":38.0266,"long":-75.7579},{"zip":"21853","city":"Princess Anne","state":"MD","lat":38.1919,"long":-75.7072},{"zip":"21857","city":"Rehobeth","state":"MD","lat":38.039,"long":-75.663},{"zip":"21866","city":"Tylerton","state":"MD","lat":37.9666,"long":-76.0235},{"zip":"21867","city":"Upper Fairmount","state":"MD","lat":38.1005,"long":-75.8223},{"zip":"21871","city":"Westover","state":"MD","lat":38.101,"long":-75.7406},{"zip":"21890","city":"Westover","state":"MD","lat":38.0927,"long":-75.8882},{"zip":"21801","city":"Salisbury","state":"MD","lat":38.3824,"long":-75.6336},{"zip":"21802","city":"Salisbury","state":"MD","lat":38.3884,"long":-75.6276},{"zip":"21803","city":"Salisbury","state":"MD","lat":38.3884,"long":-75.6276},{"zip":"21804","city":"Salisbury","state":"MD","lat":38.3508,"long":-75.5338},{"zip":"21810","city":"Allen","state":"MD","lat":38.2873,"long":-75.688},{"zip":"21814","city":"Bivalve","state":"MD","lat":38.2953,"long":-75.8914},{"zip":"21826","city":"Fruitland","state":"MD","lat":38.3225,"long":-75.6228},{"zip":"21830","city":"Hebron","state":"MD","lat":38.4026,"long":-75.6963},{"zip":"21837","city":"Mardela Springs","state":"MD","lat":38.4864,"long":-75.7414},{"zip":"21840","city":"Nanticoke","state":"MD","lat":38.2672,"long":-75.9021},{"zip":"21849","city":"Parsonsburg","state":"MD","lat":38.3914,"long":-75.4737},{"zip":"21850","city":"Pittsville","state":"MD","lat":38.3755,"long":-75.4076},{"zip":"21852","city":"Powellville","state":"MD","lat":38.3287,"long":-75.3755},{"zip":"21856","city":"Quantico","state":"MD","lat":38.3339,"long":-75.7851},{"zip":"21861","city":"Sharptown","state":"MD","lat":38.5389,"long":-75.7192},{"zip":"21865","city":"Tyaskin","state":"MD","lat":38.2833,"long":-75.8465},{"zip":"21874","city":"Willards","state":"MD","lat":38.3939,"long":-75.3552},{"zip":"21875","city":"Delmar","state":"MD","lat":38.4445,"long":-75.5583},{"zip":"21811","city":"Berlin","state":"MD","lat":38.3475,"long":-75.1866},{"zip":"21813","city":"Bishopville","state":"MD","lat":38.4296,"long":-75.1855},{"zip":"21822","city":"Eden","state":"MD","lat":38.2807,"long":-75.651},{"zip":"21829","city":"Girdletree","state":"MD","lat":38.0958,"long":-75.3902},{"zip":"21841","city":"Newark","state":"MD","lat":38.2489,"long":-75.2893},{"zip":"21842","city":"Ocean City","state":"MD","lat":38.3365,"long":-75.0849},{"zip":"21843","city":"Ocean City","state":"MD","lat":38.3365,"long":-75.0849},{"zip":"21851","city":"Pocomoke City","state":"MD","lat":38.0714,"long":-75.555},{"zip":"21862","city":"Showell","state":"MD","lat":38.4003,"long":-75.2166},{"zip":"21863","city":"Snow Hill","state":"MD","lat":38.1868,"long":-75.405},{"zip":"21864","city":"Stockton","state":"MD","lat":38.0452,"long":-75.4108},{"zip":"21872","city":"Whaleyville","state":"MD","lat":38.4121,"long":-75.2811}]
