[{"zip":"22901","city":"Charlottesville","state":"VA","lat":38.0936,"long":-78.5611},{"zip":"22909","city":"Charlottesville","state":"VA","lat":38.0245,"long":-78.4482},{"zip":"22911","city":"Charlottesville","state":"VA","lat":38.0995,"long":-78.4085},{"zip":"22924","city":"Batesville","state":"VA","lat":38.0013,"long":-78.7271},{"zip":"22931","city":"Covesville","state":"VA","lat":37.908,"long":-78.7127},{"zip":"22932","city":"Crozet","state":"VA","lat":38.1296,"long":-78.7106},{"zip":"22936","city":"Earlysville","state":"VA","lat":38.1578,"long":-78.4919},{"zip":"22937","city":"Esmont","state":"VA","lat":37.8125,"long":-78.6106},{"zip":"22940","city":"Free Union","state":"VA","lat":38.1944,"long":-78.5849},{"zip":"22943","city":"Greenwood","state":"VA","lat":38.0415,"long":-78.7833},{"zip":"22945","city":"Ivy","state":"VA","lat":38.0654,"long":-78.5958},{"zip":"22946","city":"Keene","state":"VA","lat":37.856,"long":-78.5699},{"zip":"22947","city":"Keswick","state":"VA","lat":38.0531,"long":-78.3396},{"zip":"22959","city":"North Garden","state":"VA","lat":37.9336,"long":-78.6351},{"zip":"22987","city":"White Hall","state":"VA","lat":38.1179,"long":-78.6614},{"zip":"22201","city":"Arlington","state":"VA","lat":38.8871,"long":-77.0932},{"zip":"22202","city":"Arlington","state":"VA","lat":38.8565,"long":-77.0592},{"zip":"22203","city":"Arlington","state":"VA","lat":38.8738,"long":-77.1142},{"zip":"22204","city":"Arlington","state":"VA","lat":38.859,"long":-77.0997},{"zip":"22205","city":"Arlington","state":"VA","lat":38.8836,"long":-77.1395},{"zip":"22206","city":"Arlington","state":"VA","lat":38.8415,"long":-77.0905},{"zip":"22207","city":"Arlington","state":"VA","lat":38.9033,"long":-77.1263},{"zip":"22209","city":"Arlington","state":"VA","lat":38.8926,"long":-77.0753},{"zip":"22210","city":"Arlington","state":"VA","lat":38.8808,"long":-77.1129},{"zip":"22211","city":"Fort Myer","state":"VA","lat":38.8921,"long":-77.0794},{"zip":"22212","city":"Arlington","state":"VA","lat":38.8808,"long":-77.1129},{"zip":"22213","city":"Arlington","state":"VA","lat":38.8954,"long":-77.1633},{"zip":"22214","city":"Arlington","state":"VA","lat":38.8688,"long":-77.0739},{"zip":"22215","city":"Arlington","state":"VA","lat":38.8808,"long":-77.1129},{"zip":"22216","city":"Arlington","state":"VA","lat":38.8808,"long":-77.1129},{"zip":"22217","city":"Arlington","state":"VA","lat":38.8808,"long":-77.1129},{"zip":"22219","city":"Arlington","state":"VA","lat":38.8808,"long":-77.1129},{"zip":"22225","city":"Arlington","state":"VA","lat":38.8808,"long":-77.1129},{"zip":"22226","city":"Arlington","state":"VA","lat":38.8834,"long":-77.1028},{"zip":"22227","city":"Arlington","state":"VA","lat":38.8808,"long":-77.1129},{"zip":"22230","city":"Arlington","state":"VA","lat":38.8797,"long":-77.1108},{"zip":"22240","city":"Arlington","state":"VA","lat":38.8566,"long":-77.0518},{"zip":"22241","city":"Arlington","state":"VA","lat":38.8808,"long":-77.1129},{"zip":"22242","city":"Arlington","state":"VA","lat":38.8509,"long":-77.0523},{"zip":"22243","city":"Arlington","state":"VA","lat":38.8605,"long":-77.0516},{"zip":"22244","city":"Arlington","state":"VA","lat":38.8545,"long":-77.052},{"zip":"22245","city":"Arlington","state":"VA","lat":38.8518,"long":-77.0523},{"zip":"22246","city":"Arlington","state":"VA","lat":38.8808,"long":-77.1129},{"zip":"22843","city":"Mount Solon","state":"VA","lat":38.3328,"long":-79.1028},{"zip":"22939","city":"Fishersville","state":"VA","lat":38.0964,"long":-78.9929},{"zip":"22952","city":"Lyndhurst","state":"VA","lat":37.9744,"long":-78.9361},{"zip":"22427","city":"Bowling Green","state":"VA","lat":38.0137,"long":-77.1802},{"zip":"22428","city":"Bowling Green","state":"VA","lat":38.0496,"long":-77.3466},{"zip":"22446","city":"Corbin","state":"VA","lat":38.1996,"long":-77.3889},{"zip":"22501","city":"Ladysmith","state":"VA","lat":38.0176,"long":-77.5153},{"zip":"22514","city":"Milford","state":"VA","lat":38.0058,"long":-77.3185},{"zip":"22535","city":"Port Royal","state":"VA","lat":38.1621,"long":-77.1837},{"zip":"22538","city":"Rappahannock Academy","state":"VA","lat":38.2079,"long":-77.2502},{"zip":"22546","city":"Ruther Glen","state":"VA","lat":37.9451,"long":-77.4714},{"zip":"22552","city":"Sparta","state":"VA","lat":38.0094,"long":-77.2251},{"zip":"22580","city":"Woodford","state":"VA","lat":38.0847,"long":-77.4399},{"zip":"22611","city":"Berryville","state":"VA","lat":39.1532,"long":-77.9688},{"zip":"22620","city":"Boyce","state":"VA","lat":39.0698,"long":-78.0203},{"zip":"22646","city":"Millwood","state":"VA","lat":39.1219,"long":-77.9901},{"zip":"22663","city":"White Post","state":"VA","lat":39.058,"long":-78.1105},{"zip":"22701","city":"Culpeper","state":"VA","lat":38.5117,"long":-77.9928},{"zip":"22713","city":"Boston","state":"VA","lat":38.5382,"long":-78.1423},{"zip":"22714","city":"Brandy Station","state":"VA","lat":38.511,"long":-77.9037},{"zip":"22718","city":"Elkwood","state":"VA","lat":38.4652,"long":-77.817},{"zip":"22724","city":"Jeffersonton","state":"VA","lat":38.6256,"long":-77.9069},{"zip":"22726","city":"Lignum","state":"VA","lat":38.3956,"long":-77.83},{"zip":"22729","city":"Mitchells","state":"VA","lat":38.3744,"long":-78.0105},{"zip":"22733","city":"Rapidan","state":"VA","lat":38.3392,"long":-78.0476},{"zip":"22735","city":"Reva","state":"VA","lat":38.4604,"long":-78.1572},{"zip":"22736","city":"Richardsville","state":"VA","lat":38.3924,"long":-77.7195},{"zip":"22737","city":"Rixeyville","state":"VA","lat":38.5852,"long":-78.0282},{"zip":"22741","city":"Stevensburg","state":"VA","lat":38.4441,"long":-77.8842},{"zip":"22436","city":"Caret","state":"VA","lat":37.9826,"long":-76.9614},{"zip":"22437","city":"Center Cross","state":"VA","lat":37.7929,"long":-76.7548},{"zip":"22438","city":"Champlain","state":"VA","lat":38.0214,"long":-76.9719},{"zip":"22454","city":"Dunnsville","state":"VA","lat":37.8527,"long":-76.8475},{"zip":"22476","city":"Hustle","state":"VA","lat":38.0329,"long":-77.0633},{"zip":"22504","city":"Laneview","state":"VA","lat":37.7681,"long":-76.7117},{"zip":"22509","city":"Loretto","state":"VA","lat":38.0789,"long":-77.0485},{"zip":"22560","city":"Tappahannock","state":"VA","lat":37.9146,"long":-76.9125},{"zip":"22003","city":"Annandale","state":"VA","lat":38.8307,"long":-77.2142},{"zip":"22009","city":"Burke","state":"VA","lat":38.8318,"long":-77.2888},{"zip":"22015","city":"Burke","state":"VA","lat":38.7894,"long":-77.2818},{"zip":"22027","city":"Dunn Loring","state":"VA","lat":38.8954,"long":-77.2214},{"zip":"22032","city":"Fairfax","state":"VA","lat":38.8177,"long":-77.2925},{"zip":"22033","city":"Fairfax","state":"VA","lat":38.8776,"long":-77.3885},{"zip":"22034","city":"Fairfax","state":"VA","lat":38.8318,"long":-77.2888},{"zip":"22035","city":"Fairfax","state":"VA","lat":38.8557,"long":-77.3616},{"zip":"22036","city":"Fairfax","state":"VA","lat":38.7351,"long":-77.0797},{"zip":"22037","city":"Fairfax","state":"VA","lat":38.8318,"long":-77.2888},{"zip":"22039","city":"Fairfax Station","state":"VA","lat":38.7602,"long":-77.3064},{"zip":"22041","city":"Falls Church","state":"VA","lat":38.8502,"long":-77.1448},{"zip":"22042","city":"Falls Church","state":"VA","lat":38.8635,"long":-77.1939},{"zip":"22043","city":"Falls Church","state":"VA","lat":38.8994,"long":-77.1895},{"zip":"22044","city":"Falls Church","state":"VA","lat":38.8589,"long":-77.1548},{"zip":"22060","city":"Fort Belvoir","state":"VA","lat":38.6947,"long":-77.1433},{"zip":"22066","city":"Great Falls","state":"VA","lat":39.0039,"long":-77.3083},{"zip":"22067","city":"Greenway","state":"VA","lat":38.9645,"long":-77.2331},{"zip":"22079","city":"Lorton","state":"VA","lat":38.6929,"long":-77.204},{"zip":"22081","city":"Merrifield","state":"VA","lat":38.8739,"long":-77.2345},{"zip":"22082","city":"Merrifield","state":"VA","lat":38.8743,"long":-77.2269},{"zip":"22095","city":"Herndon","state":"VA","lat":38.9696,"long":-77.3861},{"zip":"22096","city":"Reston","state":"VA","lat":38.8318,"long":-77.2888},{"zip":"22101","city":"Mc Lean","state":"VA","lat":38.9326,"long":-77.1706},{"zip":"22102","city":"Mc Lean","state":"VA","lat":38.953,"long":-77.2295},{"zip":"22103","city":"West Mclean","state":"VA","lat":38.8318,"long":-77.2888},{"zip":"22106","city":"Mc Lean","state":"VA","lat":38.9335,"long":-77.1797},{"zip":"22107","city":"Mc Lean","state":"VA","lat":38.9321,"long":-77.1841},{"zip":"22108","city":"Mc Lean","state":"VA","lat":38.9321,"long":-77.1841},{"zip":"22109","city":"Mc Lean","state":"VA","lat":38.9335,"long":-77.1797},{"zip":"22116","city":"Merrifield","state":"VA","lat":38.8715,"long":-77.2344},{"zip":"22118","city":"Merrifield","state":"VA","lat":38.8318,"long":-77.2888},{"zip":"22119","city":"Merrifield","state":"VA","lat":38.8318,"long":-77.2888},{"zip":"22121","city":"Mount Vernon","state":"VA","lat":38.7192,"long":-77.1073},{"zip":"22122","city":"Newington","state":"VA","lat":38.7384,"long":-77.185},{"zip":"22124","city":"Oakton","state":"VA","lat":38.8852,"long":-77.3233},{"zip":"22150","city":"Springfield","state":"VA","lat":38.7797,"long":-77.1866},{"zip":"22151","city":"Springfield","state":"VA","lat":38.8029,"long":-77.2116},{"zip":"22152","city":"Springfield","state":"VA","lat":38.7757,"long":-77.2337},{"zip":"22153","city":"Springfield","state":"VA","lat":38.7449,"long":-77.237},{"zip":"22156","city":"Springfield","state":"VA","lat":38.8318,"long":-77.2888},{"zip":"22158","city":"Springfield","state":"VA","lat":38.8318,"long":-77.2888},{"zip":"22159","city":"Springfield","state":"VA","lat":38.8318,"long":-77.2888},{"zip":"22160","city":"Springfield","state":"VA","lat":38.8318,"long":-77.2888},{"zip":"22161","city":"Springfield","state":"VA","lat":38.7893,"long":-77.1872},{"zip":"22180","city":"Vienna","state":"VA","lat":38.8935,"long":-77.2532},{"zip":"22181","city":"Vienna","state":"VA","lat":38.8977,"long":-77.288},{"zip":"22182","city":"Vienna","state":"VA","lat":38.928,"long":-77.2649},{"zip":"22183","city":"Vienna","state":"VA","lat":38.8318,"long":-77.2888},{"zip":"22185","city":"Vienna","state":"VA","lat":38.8318,"long":-77.2888},{"zip":"22199","city":"Lorton","state":"VA","lat":38.7043,"long":-77.2278},{"zip":"22303","city":"Alexandria","state":"VA","lat":38.7912,"long":-77.0814},{"zip":"22306","city":"Alexandria","state":"VA","lat":38.7589,"long":-77.0873},{"zip":"22307","city":"Alexandria","state":"VA","lat":38.7714,"long":-77.0657},{"zip":"22308","city":"Alexandria","state":"VA","lat":38.7316,"long":-77.0604},{"zip":"22309","city":"Alexandria","state":"VA","lat":38.7192,"long":-77.1073},{"zip":"22310","city":"Alexandria","state":"VA","lat":38.7794,"long":-77.1194},{"zip":"22312","city":"Alexandria","state":"VA","lat":38.8191,"long":-77.1484},{"zip":"22315","city":"Alexandria","state":"VA","lat":38.7596,"long":-77.1485},{"zip":"22639","city":"Hume","state":"VA","lat":38.8273,"long":-77.9949},{"zip":"22643","city":"Markham","state":"VA","lat":38.904,"long":-78.0019},{"zip":"22712","city":"Bealeton","state":"VA","lat":38.5453,"long":-77.7561},{"zip":"22720","city":"Goldvein","state":"VA","lat":38.4725,"long":-77.6423},{"zip":"22728","city":"Midland","state":"VA","lat":38.5671,"long":-77.7127},{"zip":"22734","city":"Remington","state":"VA","lat":38.5309,"long":-77.8037},{"zip":"22739","city":"Somerville","state":"VA","lat":38.5059,"long":-77.5956},{"zip":"22742","city":"Sumerduck","state":"VA","lat":38.4674,"long":-77.7044},{"zip":"22963","city":"Palmyra","state":"VA","lat":37.8931,"long":-78.3386},{"zip":"22974","city":"Troy","state":"VA","lat":37.9636,"long":-78.2535},{"zip":"22602","city":"Winchester","state":"VA","lat":39.1501,"long":-78.269},{"zip":"22603","city":"Winchester","state":"VA","lat":39.264,"long":-78.1989},{"zip":"22622","city":"Brucetown","state":"VA","lat":39.2543,"long":-78.0664},{"zip":"22624","city":"Clear Brook","state":"VA","lat":39.2655,"long":-78.0988},{"zip":"22625","city":"Cross Junction","state":"VA","lat":39.3744,"long":-78.3081},{"zip":"22637","city":"Gore","state":"VA","lat":39.2887,"long":-78.3417},{"zip":"22645","city":"Middletown","state":"VA","lat":39.0367,"long":-78.2815},{"zip":"22654","city":"Star Tannery","state":"VA","lat":39.0908,"long":-78.4343},{"zip":"22655","city":"Stephens City","state":"VA","lat":39.0834,"long":-78.1907},{"zip":"22656","city":"Stephenson","state":"VA","lat":39.1973,"long":-78.0941},{"zip":"22935","city":"Dyke","state":"VA","lat":38.2705,"long":-78.5578},{"zip":"22965","city":"Quinque","state":"VA","lat":38.3301,"long":-78.475},{"zip":"22968","city":"Ruckersville","state":"VA","lat":38.2586,"long":-78.4074},{"zip":"22973","city":"Stanardsville","state":"VA","lat":38.3121,"long":-78.482},{"zip":"22448","city":"Dahlgren","state":"VA","lat":38.3375,"long":-77.0429},{"zip":"22451","city":"Dogue","state":"VA","lat":38.2321,"long":-77.2158},{"zip":"22481","city":"Jersey","state":"VA","lat":38.2115,"long":-77.1394},{"zip":"22485","city":"King George","state":"VA","lat":38.2811,"long":-77.126},{"zip":"22526","city":"Ninde","state":"VA","lat":38.2712,"long":-77.0561},{"zip":"22544","city":"Rollins Fork","state":"VA","lat":38.1849,"long":-77.0622},{"zip":"22547","city":"Sealston","state":"VA","lat":38.2711,"long":-77.1726},{"zip":"22480","city":"Irvington","state":"VA","lat":37.6645,"long":-76.416},{"zip":"22482","city":"Kilmarnock","state":"VA","lat":37.7162,"long":-76.382},{"zip":"22503","city":"Lancaster","state":"VA","lat":37.7395,"long":-76.5002},{"zip":"22507","city":"Lively","state":"VA","lat":37.7572,"long":-76.5118},{"zip":"22513","city":"Merry Point","state":"VA","lat":37.7338,"long":-76.4825},{"zip":"22517","city":"Mollusk","state":"VA","lat":37.7301,"long":-76.538},{"zip":"22523","city":"Morattico","state":"VA","lat":37.7928,"long":-76.6093},{"zip":"22528","city":"Nuttsville","state":"VA","lat":37.7935,"long":-76.5508},{"zip":"22576","city":"Weems","state":"VA","lat":37.6847,"long":-76.4313},{"zip":"22578","city":"White Stone","state":"VA","lat":37.6886,"long":-76.3616},{"zip":"22709","city":"Aroda","state":"VA","lat":38.3256,"long":-78.2366},{"zip":"22711","city":"Banco","state":"VA","lat":38.4285,"long":-78.2678},{"zip":"22715","city":"Brightwood","state":"VA","lat":38.4114,"long":-78.1698},{"zip":"22719","city":"Etlan","state":"VA","lat":38.5095,"long":-78.2638},{"zip":"22722","city":"Haywood","state":"VA","lat":38.4285,"long":-78.2678},{"zip":"22723","city":"Hood","state":"VA","lat":38.3549,"long":-78.3828},{"zip":"22725","city":"Leon","state":"VA","lat":38.4285,"long":-78.2678},{"zip":"22727","city":"Madison","state":"VA","lat":38.37,"long":-78.2976},{"zip":"22730","city":"Oakpark","state":"VA","lat":38.3674,"long":-78.1628},{"zip":"22731","city":"Pratts","state":"VA","lat":38.3366,"long":-78.2573},{"zip":"22732","city":"Radiant","state":"VA","lat":38.3146,"long":-78.1899},{"zip":"22738","city":"Rochelle","state":"VA","lat":38.3215,"long":-78.3042},{"zip":"22743","city":"Syria","state":"VA","lat":38.4972,"long":-78.3229},{"zip":"22748","city":"Wolftown","state":"VA","lat":38.3557,"long":-78.3475},{"zip":"22948","city":"Locust Dale","state":"VA","lat":38.3572,"long":-78.1229},{"zip":"22989","city":"Woodberry Forest","state":"VA","lat":38.2912,"long":-78.1225},{"zip":"22920","city":"Afton","state":"VA","lat":37.9626,"long":-78.841},{"zip":"22922","city":"Arrington","state":"VA","lat":37.6902,"long":-78.9479},{"zip":"22938","city":"Faber","state":"VA","lat":37.8475,"long":-78.7565},{"zip":"22949","city":"Lovingston","state":"VA","lat":37.7924,"long":-78.8684},{"zip":"22958","city":"Nellysford","state":"VA","lat":37.902,"long":-78.9004},{"zip":"22964","city":"Piney River","state":"VA","lat":37.8036,"long":-78.9591},{"zip":"22967","city":"Roseland","state":"VA","lat":37.8077,"long":-78.9712},{"zip":"22969","city":"Schuyler","state":"VA","lat":37.7976,"long":-78.6925},{"zip":"22971","city":"Shipman","state":"VA","lat":37.76,"long":-78.8105},{"zip":"22976","city":"Tyro","state":"VA","lat":37.8391,"long":-79.0693},{"zip":"22432","city":"Burgess","state":"VA","lat":37.8687,"long":-76.3542},{"zip":"22435","city":"Callao","state":"VA","lat":37.9773,"long":-76.5732},{"zip":"22456","city":"Edwardsville","state":"VA","lat":37.9065,"long":-76.3652},{"zip":"22473","city":"Heathsville","state":"VA","lat":37.9072,"long":-76.4178},{"zip":"22511","city":"Lottsburg","state":"VA","lat":37.9792,"long":-76.5018},{"zip":"22530","city":"Ophelia","state":"VA","lat":37.9094,"long":-76.2934},{"zip":"22539","city":"Reedville","state":"VA","lat":37.857,"long":-76.2829},{"zip":"22579","city":"Wicomico Church","state":"VA","lat":37.8025,"long":-76.3636},{"zip":"22433","city":"Burr Hill","state":"VA","lat":38.3446,"long":-77.8719},{"zip":"22508","city":"Locust Grove","state":"VA","lat":38.3352,"long":-77.7709},{"zip":"22542","city":"Rhoadesville","state":"VA","lat":38.2863,"long":-77.923},{"zip":"22567","city":"Unionville","state":"VA","lat":38.2383,"long":-77.9193},{"zip":"22923","city":"Barboursville","state":"VA","lat":38.2095,"long":-78.3098},{"zip":"22942","city":"Gordonsville","state":"VA","lat":38.1759,"long":-78.1815},{"zip":"22957","city":"Montpelier Station","state":"VA","lat":38.227,"long":-78.1768},{"zip":"22960","city":"Orange","state":"VA","lat":38.2192,"long":-78.0461},{"zip":"22972","city":"Somerset","state":"VA","lat":38.1997,"long":-78.2394},{"zip":"22650","city":"Rileyville","state":"VA","lat":38.7564,"long":-78.3873},{"zip":"22835","city":"Luray","state":"VA","lat":38.6548,"long":-78.4596},{"zip":"22849","city":"Shenandoah","state":"VA","lat":38.501,"long":-78.609},{"zip":"22851","city":"Stanley","state":"VA","lat":38.566,"long":-78.5093},{"zip":"22025","city":"Dumfries","state":"VA","lat":38.5993,"long":-77.3403},{"zip":"22026","city":"Dumfries","state":"VA","lat":38.5669,"long":-77.2921},{"zip":"22125","city":"Occoquan","state":"VA","lat":38.6816,"long":-77.2605},{"zip":"22134","city":"Quantico","state":"VA","lat":38.531,"long":-77.3358},{"zip":"22135","city":"Quantico","state":"VA","lat":38.5223,"long":-77.2936},{"zip":"22172","city":"Triangle","state":"VA","lat":38.5509,"long":-77.3229},{"zip":"22191","city":"Woodbridge","state":"VA","lat":38.6356,"long":-77.2683},{"zip":"22192","city":"Woodbridge","state":"VA","lat":38.676,"long":-77.3163},{"zip":"22193","city":"Woodbridge","state":"VA","lat":38.6438,"long":-77.3451},{"zip":"22194","city":"Woodbridge","state":"VA","lat":38.6582,"long":-77.2497},{"zip":"22195","city":"Woodbridge","state":"VA","lat":38.6582,"long":-77.2497},{"zip":"22623","city":"Chester Gap","state":"VA","lat":38.8537,"long":-78.1412},{"zip":"22627","city":"Flint Hill","state":"VA","lat":38.7629,"long":-78.1},{"zip":"22640","city":"Huntly","state":"VA","lat":38.8129,"long":-78.1165},{"zip":"22716","city":"Castleton","state":"VA","lat":38.6032,"long":-78.1208},{"zip":"22740","city":"Sperryville","state":"VA","lat":38.6203,"long":-78.2466},{"zip":"22746","city":"Viewtown","state":"VA","lat":38.6457,"long":-78.0258},{"zip":"22747","city":"Washington","state":"VA","lat":38.7078,"long":-78.1566},{"zip":"22749","city":"Woodville","state":"VA","lat":38.6482,"long":-78.1739},{"zip":"22460","city":"Farnham","state":"VA","lat":37.874,"long":-76.605},{"zip":"22472","city":"Haynesville","state":"VA","lat":37.9505,"long":-76.6367},{"zip":"22548","city":"Sharps","state":"VA","lat":37.824,"long":-76.7008},{"zip":"22570","city":"Village","state":"VA","lat":37.9472,"long":-76.6154},{"zip":"22572","city":"Warsaw","state":"VA","lat":37.9695,"long":-76.7665},{"zip":"22802","city":"Harrisonburg","state":"VA","lat":38.4905,"long":-78.8179},{"zip":"22811","city":"Bergton","state":"VA","lat":38.7925,"long":-78.9668},{"zip":"22812","city":"Bridgewater","state":"VA","lat":38.3859,"long":-78.9937},{"zip":"22815","city":"Broadway","state":"VA","lat":38.6083,"long":-78.7875},{"zip":"22820","city":"Criders","state":"VA","lat":38.7497,"long":-78.9974},{"zip":"22821","city":"Dayton","state":"VA","lat":38.4707,"long":-79.085},{"zip":"22827","city":"Elkton","state":"VA","lat":38.4025,"long":-78.6321},{"zip":"22830","city":"Fulks Run","state":"VA","lat":38.6339,"long":-78.9358},{"zip":"22831","city":"Hinton","state":"VA","lat":38.5689,"long":-79.0885},{"zip":"22832","city":"Keezletown","state":"VA","lat":38.4659,"long":-78.7499},{"zip":"22833","city":"Lacey Spring","state":"VA","lat":38.5284,"long":-78.8552},{"zip":"22834","city":"Linville","state":"VA","lat":38.5557,"long":-78.8961},{"zip":"22840","city":"Mc Gaheysville","state":"VA","lat":38.3712,"long":-78.7411},{"zip":"22841","city":"Mount Crawford","state":"VA","lat":38.3457,"long":-78.8957},{"zip":"22846","city":"Penn Laird","state":"VA","lat":38.375,"long":-78.7795},{"zip":"22848","city":"Pleasant Valley","state":"VA","lat":38.3847,"long":-78.8914},{"zip":"22850","city":"Singers Glen","state":"VA","lat":38.5574,"long":-78.9227},{"zip":"22853","city":"Timberville","state":"VA","lat":38.6476,"long":-78.7717},{"zip":"22626","city":"Fishers Hill","state":"VA","lat":38.9834,"long":-78.4038},{"zip":"22641","city":"Strasburg","state":"VA","lat":39.0808,"long":-78.3913},{"zip":"22644","city":"Maurertown","state":"VA","lat":38.9441,"long":-78.4658},{"zip":"22652","city":"Fort Valley","state":"VA","lat":38.8407,"long":-78.4276},{"zip":"22657","city":"Strasburg","state":"VA","lat":38.9884,"long":-78.3386},{"zip":"22660","city":"Toms Brook","state":"VA","lat":38.9476,"long":-78.4331},{"zip":"22664","city":"Woodstock","state":"VA","lat":38.887,"long":-78.5217},{"zip":"22810","city":"Basye","state":"VA","lat":38.8089,"long":-78.7776},{"zip":"22824","city":"Edinburg","state":"VA","lat":38.8432,"long":-78.6003},{"zip":"22842","city":"Mount Jackson","state":"VA","lat":38.7857,"long":-78.6803},{"zip":"22844","city":"New Market","state":"VA","lat":38.6606,"long":-78.6714},{"zip":"22845","city":"Orkney Springs","state":"VA","lat":38.7937,"long":-78.8111},{"zip":"22847","city":"Quicksburg","state":"VA","lat":38.7201,"long":-78.7213},{"zip":"22407","city":"Fredericksburg","state":"VA","lat":38.2688,"long":-77.5476},{"zip":"22408","city":"Fredericksburg","state":"VA","lat":38.2481,"long":-77.4681},{"zip":"22412","city":"Fredericksburg","state":"VA","lat":38.1847,"long":-77.6626},{"zip":"22534","city":"Partlow","state":"VA","lat":38.0641,"long":-77.6586},{"zip":"22551","city":"Spotsylvania","state":"VA","lat":38.162,"long":-77.6854},{"zip":"22553","city":"Spotsylvania","state":"VA","lat":38.271,"long":-77.6447},{"zip":"22565","city":"Thornburg","state":"VA","lat":38.1372,"long":-77.5189},{"zip":"22403","city":"Fredericksburg","state":"VA","lat":38.4173,"long":-77.4608},{"zip":"22405","city":"Fredericksburg","state":"VA","lat":38.3365,"long":-77.4366},{"zip":"22406","city":"Fredericksburg","state":"VA","lat":38.3796,"long":-77.5349},{"zip":"22430","city":"Brooke","state":"VA","lat":38.3857,"long":-77.3743},{"zip":"22463","city":"Garrisonville","state":"VA","lat":38.4684,"long":-77.4612},{"zip":"22471","city":"Hartwood","state":"VA","lat":38.3993,"long":-77.5814},{"zip":"22545","city":"Ruby","state":"VA","lat":38.5086,"long":-77.543},{"zip":"22554","city":"Stafford","state":"VA","lat":38.4586,"long":-77.4306},{"zip":"22555","city":"Stafford","state":"VA","lat":38.4221,"long":-77.4083},{"zip":"22556","city":"Stafford","state":"VA","lat":38.4718,"long":-77.5102},{"zip":"22610","city":"Bentonville","state":"VA","lat":38.8187,"long":-78.2757},{"zip":"22630","city":"Front Royal","state":"VA","lat":38.9268,"long":-78.1796},{"zip":"22642","city":"Linden","state":"VA","lat":38.8812,"long":-78.0478},{"zip":"22649","city":"Middletown","state":"VA","lat":39.0048,"long":-78.2478},{"zip":"22442","city":"Coles Point","state":"VA","lat":38.1437,"long":-76.6355},{"zip":"22443","city":"Colonial Beach","state":"VA","lat":38.1792,"long":-76.9959},{"zip":"22469","city":"Hague","state":"VA","lat":38.0573,"long":-76.6616},{"zip":"22488","city":"Kinsale","state":"VA","lat":38.0505,"long":-76.5855},{"zip":"22520","city":"Montross","state":"VA","lat":38.1105,"long":-76.7828},{"zip":"22524","city":"Mount Holly","state":"VA","lat":38.1182,"long":-76.6805},{"zip":"22529","city":"Oldhams","state":"VA","lat":38.0181,"long":-76.6861},{"zip":"22558","city":"Stratford","state":"VA","lat":38.1484,"long":-76.8413},{"zip":"22577","city":"Sandy Point","state":"VA","lat":38.0673,"long":-76.5503},{"zip":"22581","city":"Zacata","state":"VA","lat":38.1218,"long":-76.7903},{"zip":"22301","city":"Alexandria","state":"VA","lat":38.82,"long":-77.0589},{"zip":"22302","city":"Alexandria","state":"VA","lat":38.8276,"long":-77.0896},{"zip":"22304","city":"Alexandria","state":"VA","lat":38.8149,"long":-77.121},{"zip":"22305","city":"Alexandria","state":"VA","lat":38.8372,"long":-77.064},{"zip":"22311","city":"Alexandria","state":"VA","lat":38.832,"long":-77.12},{"zip":"22313","city":"Alexandria","state":"VA","lat":38.8158,"long":-77.0901},{"zip":"22314","city":"Alexandria","state":"VA","lat":38.806,"long":-77.0529},{"zip":"22320","city":"Alexandria","state":"VA","lat":38.8044,"long":-77.0467},{"zip":"22331","city":"Alexandria","state":"VA","lat":38.8013,"long":-77.0707},{"zip":"22332","city":"Alexandria","state":"VA","lat":38.8031,"long":-77.0727},{"zip":"22333","city":"Alexandria","state":"VA","lat":38.8158,"long":-77.0901},{"zip":"22334","city":"Alexandria","state":"VA","lat":38.8158,"long":-77.0901},{"zip":"22350","city":"Alexandria","state":"VA","lat":38.8045,"long":-77.0509},{"zip":"22902","city":"Charlottesville","state":"VA","lat":38.0266,"long":-78.4805},{"zip":"22903","city":"Charlottesville","state":"VA","lat":38.0339,"long":-78.4924},{"zip":"22904","city":"Charlottesville","state":"VA","lat":38.0401,"long":-78.4851},{"zip":"22905","city":"Charlottesville","state":"VA","lat":38.0401,"long":-78.4851},{"zip":"22906","city":"Charlottesville","state":"VA","lat":38.0401,"long":-78.4851},{"zip":"22907","city":"Charlottesville","state":"VA","lat":38.0401,"long":-78.4851},{"zip":"22908","city":"Charlottesville","state":"VA","lat":38.0401,"long":-78.4851},{"zip":"22910","city":"Charlottesville","state":"VA","lat":38.0401,"long":-78.4851},{"zip":"22030","city":"Fairfax","state":"VA","lat":38.8458,"long":-77.3242},{"zip":"22031","city":"Fairfax","state":"VA","lat":38.8604,"long":-77.2649},{"zip":"22038","city":"Fairfax","state":"VA","lat":38.8528,"long":-77.302},{"zip":"22040","city":"Falls Church","state":"VA","lat":38.8842,"long":-77.1718},{"zip":"22046","city":"Falls Church","state":"VA","lat":38.8856,"long":-77.1802},{"zip":"22401","city":"Fredericksburg","state":"VA","lat":38.2995,"long":-77.4772},{"zip":"22402","city":"Fredericksburg","state":"VA","lat":38.2996,"long":-77.4897},{"zip":"22404","city":"Fredericksburg","state":"VA","lat":38.3032,"long":-77.4605},{"zip":"22801","city":"Harrisonburg","state":"VA","lat":38.4489,"long":-78.8714},{"zip":"22803","city":"Harrisonburg","state":"VA","lat":38.4496,"long":-78.8689},{"zip":"22807","city":"Harrisonburg","state":"VA","lat":38.4409,"long":-78.8742},{"zip":"22980","city":"Waynesboro","state":"VA","lat":38.0774,"long":-78.9035},{"zip":"22601","city":"Winchester","state":"VA","lat":39.1858,"long":-78.1827},{"zip":"22604","city":"Winchester","state":"VA","lat":39.1676,"long":-78.1686}]
