[{"zip":"22003","city":"Annandale","state":"VA","lat":38.8307,"long":-77.2142},{"zip":"22009","city":"Burke","state":"VA","lat":38.8318,"long":-77.2888},{"zip":"22015","city":"Burke","state":"VA","lat":38.7894,"long":-77.2818},{"zip":"22027","city":"Dunn Loring","state":"VA","lat":38.8954,"long":-77.2214},{"zip":"22032","city":"Fairfax","state":"VA","lat":38.8177,"long":-77.2925},{"zip":"22033","city":"Fairfax","state":"VA","lat":38.8776,"long":-77.3885},{"zip":"22034","city":"Fairfax","state":"VA","lat":38.8318,"long":-77.2888},{"zip":"22035","city":"Fairfax","state":"VA","lat":38.8557,"long":-77.3616},{"zip":"22036","city":"Fairfax","state":"VA","lat":38.7351,"long":-77.0797},{"zip":"22037","city":"Fairfax","state":"VA","lat":38.8318,"long":-77.2888},{"zip":"22039","city":"Fairfax Station","state":"VA","lat":38.7602,"long":-77.3064},{"zip":"22041","city":"Falls Church","state":"VA","lat":38.8502,"long":-77.1448},{"zip":"22042","city":"Falls Church","state":"VA","lat":38.8635,"long":-77.1939},{"zip":"22043","city":"Falls Church","state":"VA","lat":38.8994,"long":-77.1895},{"zip":"22044","city":"Falls Church","state":"VA","lat":38.8589,"long":-77.1548},{"zip":"22060","city":"Fort Belvoir","state":"VA","lat":38.6947,"long":-77.1433},{"zip":"22066","city":"Great Falls","state":"VA","lat":39.0039,"long":-77.3083},{"zip":"22067","city":"Greenway","state":"VA","lat":38.9645,"long":-77.2331},{"zip":"22079","city":"Lorton","state":"VA","lat":38.6929,"long":-77.204},{"zip":"22081","city":"Merrifield","state":"VA","lat":38.8739,"long":-77.2345},{"zip":"22082","city":"Merrifield","state":"VA","lat":38.8743,"long":-77.2269},{"zip":"22095","city":"Herndon","state":"VA","lat":38.9696,"long":-77.3861},{"zip":"22096","city":"Reston","state":"VA","lat":38.8318,"long":-77.2888},{"zip":"22025","city":"Dumfries","state":"VA","lat":38.5993,"long":-77.3403},{"zip":"22026","city":"Dumfries","state":"VA","lat":38.5669,"long":-77.2921},{"zip":"22030","city":"Fairfax","state":"VA","lat":38.8458,"long":-77.3242},{"zip":"22031","city":"Fairfax","state":"VA","lat":38.8604,"long":-77.2649},{"zip":"22038","city":"Fairfax","state":"VA","lat":38.8528,"long":-77.302},{"zip":"22040","city":"Falls Church","state":"VA","lat":38.8842,"long":-77.1718},{"zip":"22046","city":"Falls Church","state":"VA","lat":38.8856,"long":-77.1802}]
