[{"zip":"22101","city":"Mc Lean","state":"VA","lat":38.9326,"long":-77.1706},{"zip":"22102","city":"Mc Lean","state":"VA","lat":38.953,"long":-77.2295},{"zip":"22103","city":"West Mclean","state":"VA","lat":38.8318,"long":-77.2888},{"zip":"22106","city":"Mc Lean","state":"VA","lat":38.9335,"long":-77.1797},{"zip":"22107","city":"Mc Lean","state":"VA","lat":38.9321,"long":-77.1841},{"zip":"22108","city":"Mc Lean","state":"VA","lat":38.9321,"long":-77.1841},{"zip":"22109","city":"Mc Lean","state":"VA","lat":38.9335,"long":-77.1797},{"zip":"22116","city":"Merrifield","state":"VA","lat":38.8715,"long":-77.2344},{"zip":"22118","city":"Merrifield","state":"VA","lat":38.8318,"long":-77.2888},{"zip":"22119","city":"Merrifield","state":"VA","lat":38.8318,"long":-77.2888},{"zip":"22121","city":"Mount Vernon","state":"VA","lat":38.7192,"long":-77.1073},{"zip":"22122","city":"Newington","state":"VA","lat":38.7384,"long":-77.185},{"zip":"22124","city":"Oakton","state":"VA","lat":38.8852,"long":-77.3233},{"zip":"22150","city":"Springfield","state":"VA","lat":38.7797,"long":-77.1866},{"zip":"22151","city":"Springfield","state":"VA","lat":38.8029,"long":-77.2116},{"zip":"22152","city":"Springfield","state":"VA","lat":38.7757,"long":-77.2337},{"zip":"22153","city":"Springfield","state":"VA","lat":38.7449,"long":-77.237},{"zip":"22156","city":"Springfield","state":"VA","lat":38.8318,"long":-77.2888},{"zip":"22158","city":"Springfield","state":"VA","lat":38.8318,"long":-77.2888},{"zip":"22159","city":"Springfield","state":"VA","lat":38.8318,"long":-77.2888},{"zip":"22160","city":"Springfield","state":"VA","lat":38.8318,"long":-77.2888},{"zip":"22161","city":"Springfield","state":"VA","lat":38.7893,"long":-77.1872},{"zip":"22180","city":"Vienna","state":"VA","lat":38.8935,"long":-77.2532},{"zip":"22181","city":"Vienna","state":"VA","lat":38.8977,"long":-77.288},{"zip":"22182","city":"Vienna","state":"VA","lat":38.928,"long":-77.2649},{"zip":"22183","city":"Vienna","state":"VA","lat":38.8318,"long":-77.2888},{"zip":"22185","city":"Vienna","state":"VA","lat":38.8318,"long":-77.2888},{"zip":"22199","city":"Lorton","state":"VA","lat":38.7043,"long":-77.2278},{"zip":"22125","city":"Occoquan","state":"VA","lat":38.6816,"long":-77.2605},{"zip":"22134","city":"Quantico","state":"VA","lat":38.531,"long":-77.3358},{"zip":"22135","city":"Quantico","state":"VA","lat":38.5223,"long":-77.2936},{"zip":"22172","city":"Triangle","state":"VA","lat":38.5509,"long":-77.3229},{"zip":"22191","city":"Woodbridge","state":"VA","lat":38.6356,"long":-77.2683},{"zip":"22192","city":"Woodbridge","state":"VA","lat":38.676,"long":-77.3163},{"zip":"22193","city":"Woodbridge","state":"VA","lat":38.6438,"long":-77.3451},{"zip":"22194","city":"Woodbridge","state":"VA","lat":38.6582,"long":-77.2497},{"zip":"22195","city":"Woodbridge","state":"VA","lat":38.6582,"long":-77.2497}]
