[{"zip":"22201","city":"Arlington","state":"VA","lat":38.8871,"long":-77.0932},{"zip":"22202","city":"Arlington","state":"VA","lat":38.8565,"long":-77.0592},{"zip":"22203","city":"Arlington","state":"VA","lat":38.8738,"long":-77.1142},{"zip":"22204","city":"Arlington","state":"VA","lat":38.859,"long":-77.0997},{"zip":"22205","city":"Arlington","state":"VA","lat":38.8836,"long":-77.1395},{"zip":"22206","city":"Arlington","state":"VA","lat":38.8415,"long":-77.0905},{"zip":"22207","city":"Arlington","state":"VA","lat":38.9033,"long":-77.1263},{"zip":"22209","city":"Arlington","state":"VA","lat":38.8926,"long":-77.0753},{"zip":"22210","city":"Arlington","state":"VA","lat":38.8808,"long":-77.1129},{"zip":"22211","city":"Fort Myer","state":"VA","lat":38.8921,"long":-77.0794},{"zip":"22212","city":"Arlington","state":"VA","lat":38.8808,"long":-77.1129},{"zip":"22213","city":"Arlington","state":"VA","lat":38.8954,"long":-77.1633},{"zip":"22214","city":"Arlington","state":"VA","lat":38.8688,"long":-77.0739},{"zip":"22215","city":"Arlington","state":"VA","lat":38.8808,"long":-77.1129},{"zip":"22216","city":"Arlington","state":"VA","lat":38.8808,"long":-77.1129},{"zip":"22217","city":"Arlington","state":"VA","lat":38.8808,"long":-77.1129},{"zip":"22219","city":"Arlington","state":"VA","lat":38.8808,"long":-77.1129},{"zip":"22225","city":"Arlington","state":"VA","lat":38.8808,"long":-77.1129},{"zip":"22226","city":"Arlington","state":"VA","lat":38.8834,"long":-77.1028},{"zip":"22227","city":"Arlington","state":"VA","lat":38.8808,"long":-77.1129},{"zip":"22230","city":"Arlington","state":"VA","lat":38.8797,"long":-77.1108},{"zip":"22240","city":"Arlington","state":"VA","lat":38.8566,"long":-77.0518},{"zip":"22241","city":"Arlington","state":"VA","lat":38.8808,"long":-77.1129},{"zip":"22242","city":"Arlington","state":"VA","lat":38.8509,"long":-77.0523},{"zip":"22243","city":"Arlington","state":"VA","lat":38.8605,"long":-77.0516},{"zip":"22244","city":"Arlington","state":"VA","lat":38.8545,"long":-77.052},{"zip":"22245","city":"Arlington","state":"VA","lat":38.8518,"long":-77.0523},{"zip":"22246","city":"Arlington","state":"VA","lat":38.8808,"long":-77.1129}]
