[{"zip":"22303","city":"Alexandria","state":"VA","lat":38.7912,"long":-77.0814},{"zip":"22306","city":"Alexandria","state":"VA","lat":38.7589,"long":-77.0873},{"zip":"22307","city":"Alexandria","state":"VA","lat":38.7714,"long":-77.0657},{"zip":"22308","city":"Alexandria","state":"VA","lat":38.7316,"long":-77.0604},{"zip":"22309","city":"Alexandria","state":"VA","lat":38.7192,"long":-77.1073},{"zip":"22310","city":"Alexandria","state":"VA","lat":38.7794,"long":-77.1194},{"zip":"22312","city":"Alexandria","state":"VA","lat":38.8191,"long":-77.1484},{"zip":"22315","city":"Alexandria","state":"VA","lat":38.7596,"long":-77.1485},{"zip":"22301","city":"Alexandria","state":"VA","lat":38.82,"long":-77.0589},{"zip":"22302","city":"Alexandria","state":"VA","lat":38.8276,"long":-77.0896},{"zip":"22304","city":"Alexandria","state":"VA","lat":38.8149,"long":-77.121},{"zip":"22305","city":"Alexandria","state":"VA","lat":38.8372,"long":-77.064},{"zip":"22311","city":"Alexandria","state":"VA","lat":38.832,"long":-77.12},{"zip":"22313","city":"Alexandria","state":"VA","lat":38.8158,"long":-77.0901},{"zip":"22314","city":"Alexandria","state":"VA","lat":38.806,"long":-77.0529},{"zip":"22320","city":"Alexandria","state":"VA","lat":38.8044,"long":-77.0467},{"zip":"22331","city":"Alexandria","state":"VA","lat":38.8013,"long":-77.0707},{"zip":"22332","city":"Alexandria","state":"VA","lat":38.8031,"long":-77.0727},{"zip":"22333","city":"Alexandria","state":"VA","lat":38.8158,"long":-77.0901},{"zip":"22334","city":"Alexandria","state":"VA","lat":38.8158,"long":-77.0901},{"zip":"22350","city":"Alexandria","state":"VA","lat":38.8045,"long":-77.0509}]
