[{"zip":"22427","city":"Bowling Green","state":"VA","lat":38.0137,"long":-77.1802},{"zip":"22428","city":"Bowling Green","state":"VA","lat":38.0496,"long":-77.3466},{"zip":"22446","city":"Corbin","state":"VA","lat":38.1996,"long":-77.3889},{"zip":"22436","city":"Caret","state":"VA","lat":37.9826,"long":-76.9614},{"zip":"22437","city":"Center Cross","state":"VA","lat":37.7929,"long":-76.7548},{"zip":"22438","city":"Champlain","state":"VA","lat":38.0214,"long":-76.9719},{"zip":"22454","city":"Dunnsville","state":"VA","lat":37.8527,"long":-76.8475},{"zip":"22476","city":"Hustle","state":"VA","lat":38.0329,"long":-77.0633},{"zip":"22448","city":"Dahlgren","state":"VA","lat":38.3375,"long":-77.0429},{"zip":"22451","city":"Dogue","state":"VA","lat":38.2321,"long":-77.2158},{"zip":"22481","city":"Jersey","state":"VA","lat":38.2115,"long":-77.1394},{"zip":"22485","city":"King George","state":"VA","lat":38.2811,"long":-77.126},{"zip":"22480","city":"Irvington","state":"VA","lat":37.6645,"long":-76.416},{"zip":"22482","city":"Kilmarnock","state":"VA","lat":37.7162,"long":-76.382},{"zip":"22432","city":"Burgess","state":"VA","lat":37.8687,"long":-76.3542},{"zip":"22435","city":"Callao","state":"VA","lat":37.9773,"long":-76.5732},{"zip":"22456","city":"Edwardsville","state":"VA","lat":37.9065,"long":-76.3652},{"zip":"22473","city":"Heathsville","state":"VA","lat":37.9072,"long":-76.4178},{"zip":"22433","city":"Burr Hill","state":"VA","lat":38.3446,"long":-77.8719},{"zip":"22460","city":"Farnham","state":"VA","lat":37.874,"long":-76.605},{"zip":"22472","city":"Haynesville","state":"VA","lat":37.9505,"long":-76.6367},{"zip":"22407","city":"Fredericksburg","state":"VA","lat":38.2688,"long":-77.5476},{"zip":"22408","city":"Fredericksburg","state":"VA","lat":38.2481,"long":-77.4681},{"zip":"22412","city":"Fredericksburg","state":"VA","lat":38.1847,"long":-77.6626},{"zip":"22403","city":"Fredericksburg","state":"VA","lat":38.4173,"long":-77.4608},{"zip":"22405","city":"Fredericksburg","state":"VA","lat":38.3365,"long":-77.4366},{"zip":"22406","city":"Fredericksburg","state":"VA","lat":38.3796,"long":-77.5349},{"zip":"22430","city":"Brooke","state":"VA","lat":38.3857,"long":-77.3743},{"zip":"22463","city":"Garrisonville","state":"VA","lat":38.4684,"long":-77.4612},{"zip":"22471","city":"Hartwood","state":"VA","lat":38.3993,"long":-77.5814},{"zip":"22442","city":"Coles Point","state":"VA","lat":38.1437,"long":-76.6355},{"zip":"22443","city":"Colonial Beach","state":"VA","lat":38.1792,"long":-76.9959},{"zip":"22469","city":"Hague","state":"VA","lat":38.0573,"long":-76.6616},{"zip":"22488","city":"Kinsale","state":"VA","lat":38.0505,"long":-76.5855},{"zip":"22401","city":"Fredericksburg","state":"VA","lat":38.2995,"long":-77.4772},{"zip":"22402","city":"Fredericksburg","state":"VA","lat":38.2996,"long":-77.4897},{"zip":"22404","city":"Fredericksburg","state":"VA","lat":38.3032,"long":-77.4605}]
