[{"zip":"22501","city":"Ladysmith","state":"VA","lat":38.0176,"long":-77.5153},{"zip":"22514","city":"Milford","state":"VA","lat":38.0058,"long":-77.3185},{"zip":"22535","city":"Port Royal","state":"VA","lat":38.1621,"long":-77.1837},{"zip":"22538","city":"Rappahannock Academy","state":"VA","lat":38.2079,"long":-77.2502},{"zip":"22546","city":"Ruther Glen","state":"VA","lat":37.9451,"long":-77.4714},{"zip":"22552","city":"Sparta","state":"VA","lat":38.0094,"long":-77.2251},{"zip":"22580","city":"Woodford","state":"VA","lat":38.0847,"long":-77.4399},{"zip":"22504","city":"Laneview","state":"VA","lat":37.7681,"long":-76.7117},{"zip":"22509","city":"Loretto","state":"VA","lat":38.0789,"long":-77.0485},{"zip":"22560","city":"Tappahannock","state":"VA","lat":37.9146,"long":-76.9125},{"zip":"22526","city":"Ninde","state":"VA","lat":38.2712,"long":-77.0561},{"zip":"22544","city":"Rollins Fork","state":"VA","lat":38.1849,"long":-77.0622},{"zip":"22547","city":"Sealston","state":"VA","lat":38.2711,"long":-77.1726},{"zip":"22503","city":"Lancaster","state":"VA","lat":37.7395,"long":-76.5002},{"zip":"22507","city":"Lively","state":"VA","lat":37.7572,"long":-76.5118},{"zip":"22513","city":"Merry Point","state":"VA","lat":37.7338,"long":-76.4825},{"zip":"22517","city":"Mollusk","state":"VA","lat":37.7301,"long":-76.538},{"zip":"22523","city":"Morattico","state":"VA","lat":37.7928,"long":-76.6093},{"zip":"22528","city":"Nuttsville","state":"VA","lat":37.7935,"long":-76.5508},{"zip":"22576","city":"Weems","state":"VA","lat":37.6847,"long":-76.4313},{"zip":"22578","city":"White Stone","state":"VA","lat":37.6886,"long":-76.3616},{"zip":"22511","city":"Lottsburg","state":"VA","lat":37.9792,"long":-76.5018},{"zip":"22530","city":"Ophelia","state":"VA","lat":37.9094,"long":-76.2934},{"zip":"22539","city":"Reedville","state":"VA","lat":37.857,"long":-76.2829},{"zip":"22579","city":"Wicomico Church","state":"VA","lat":37.8025,"long":-76.3636},{"zip":"22508","city":"Locust Grove","state":"VA","lat":38.3352,"long":-77.7709},{"zip":"22542","city":"Rhoadesville","state":"VA","lat":38.2863,"long":-77.923},{"zip":"22567","city":"Unionville","state":"VA","lat":38.2383,"long":-77.9193},{"zip":"22548","city":"Sharps","state":"VA","lat":37.824,"long":-76.7008},{"zip":"22570","city":"Village","state":"VA","lat":37.9472,"long":-76.6154},{"zip":"22572","city":"Warsaw","state":"VA","lat":37.9695,"long":-76.7665},{"zip":"22534","city":"Partlow","state":"VA","lat":38.0641,"long":-77.6586},{"zip":"22551","city":"Spotsylvania","state":"VA","lat":38.162,"long":-77.6854},{"zip":"22553","city":"Spotsylvania","state":"VA","lat":38.271,"long":-77.6447},{"zip":"22565","city":"Thornburg","state":"VA","lat":38.1372,"long":-77.5189},{"zip":"22545","city":"Ruby","state":"VA","lat":38.5086,"long":-77.543},{"zip":"22554","city":"Stafford","state":"VA","lat":38.4586,"long":-77.4306},{"zip":"22555","city":"Stafford","state":"VA","lat":38.4221,"long":-77.4083},{"zip":"22556","city":"Stafford","state":"VA","lat":38.4718,"long":-77.5102},{"zip":"22520","city":"Montross","state":"VA","lat":38.1105,"long":-76.7828},{"zip":"22524","city":"Mount Holly","state":"VA","lat":38.1182,"long":-76.6805},{"zip":"22529","city":"Oldhams","state":"VA","lat":38.0181,"long":-76.6861},{"zip":"22558","city":"Stratford","state":"VA","lat":38.1484,"long":-76.8413},{"zip":"22577","city":"Sandy Point","state":"VA","lat":38.0673,"long":-76.5503},{"zip":"22581","city":"Zacata","state":"VA","lat":38.1218,"long":-76.7903}]
