[{"zip":"22611","city":"Berryville","state":"VA","lat":39.1532,"long":-77.9688},{"zip":"22620","city":"Boyce","state":"VA","lat":39.0698,"long":-78.0203},{"zip":"22646","city":"Millwood","state":"VA","lat":39.1219,"long":-77.9901},{"zip":"22663","city":"White Post","state":"VA","lat":39.058,"long":-78.1105},{"zip":"22639","city":"Hume","state":"VA","lat":38.8273,"long":-77.9949},{"zip":"22643","city":"Markham","state":"VA","lat":38.904,"long":-78.0019},{"zip":"22602","city":"Winchester","state":"VA","lat":39.1501,"long":-78.269},{"zip":"22603","city":"Winchester","state":"VA","lat":39.264,"long":-78.1989},{"zip":"22622","city":"Brucetown","state":"VA","lat":39.2543,"long":-78.0664},{"zip":"22624","city":"Clear Brook","state":"VA","lat":39.2655,"long":-78.0988},{"zip":"22625","city":"Cross Junction","state":"VA","lat":39.3744,"long":-78.3081},{"zip":"22637","city":"Gore","state":"VA","lat":39.2887,"long":-78.3417},{"zip":"22645","city":"Middletown","state":"VA","lat":39.0367,"long":-78.2815},{"zip":"22654","city":"Star Tannery","state":"VA","lat":39.0908,"long":-78.4343},{"zip":"22655","city":"Stephens City","state":"VA","lat":39.0834,"long":-78.1907},{"zip":"22656","city":"Stephenson","state":"VA","lat":39.1973,"long":-78.0941},{"zip":"22650","city":"Rileyville","state":"VA","lat":38.7564,"long":-78.3873},{"zip":"22623","city":"Chester Gap","state":"VA","lat":38.8537,"long":-78.1412},{"zip":"22627","city":"Flint Hill","state":"VA","lat":38.7629,"long":-78.1},{"zip":"22640","city":"Huntly","state":"VA","lat":38.8129,"long":-78.1165},{"zip":"22626","city":"Fishers Hill","state":"VA","lat":38.9834,"long":-78.4038},{"zip":"22641","city":"Strasburg","state":"VA","lat":39.0808,"long":-78.3913},{"zip":"22644","city":"Maurertown","state":"VA","lat":38.9441,"long":-78.4658},{"zip":"22652","city":"Fort Valley","state":"VA","lat":38.8407,"long":-78.4276},{"zip":"22657","city":"Strasburg","state":"VA","lat":38.9884,"long":-78.3386},{"zip":"22660","city":"Toms Brook","state":"VA","lat":38.9476,"long":-78.4331},{"zip":"22664","city":"Woodstock","state":"VA","lat":38.887,"long":-78.5217},{"zip":"22610","city":"Bentonville","state":"VA","lat":38.8187,"long":-78.2757},{"zip":"22630","city":"Front Royal","state":"VA","lat":38.9268,"long":-78.1796},{"zip":"22642","city":"Linden","state":"VA","lat":38.8812,"long":-78.0478},{"zip":"22649","city":"Middletown","state":"VA","lat":39.0048,"long":-78.2478},{"zip":"22601","city":"Winchester","state":"VA","lat":39.1858,"long":-78.1827},{"zip":"22604","city":"Winchester","state":"VA","lat":39.1676,"long":-78.1686}]
