[{"zip":"22901","city":"Charlottesville","state":"VA","lat":38.0936,"long":-78.5611},{"zip":"22909","city":"Charlottesville","state":"VA","lat":38.0245,"long":-78.4482},{"zip":"22911","city":"Charlottesville","state":"VA","lat":38.0995,"long":-78.4085},{"zip":"22924","city":"Batesville","state":"VA","lat":38.0013,"long":-78.7271},{"zip":"22931","city":"Covesville","state":"VA","lat":37.908,"long":-78.7127},{"zip":"22932","city":"Crozet","state":"VA","lat":38.1296,"long":-78.7106},{"zip":"22936","city":"Earlysville","state":"VA","lat":38.1578,"long":-78.4919},{"zip":"22937","city":"Esmont","state":"VA","lat":37.8125,"long":-78.6106},{"zip":"22940","city":"Free Union","state":"VA","lat":38.1944,"long":-78.5849},{"zip":"22943","city":"Greenwood","state":"VA","lat":38.0415,"long":-78.7833},{"zip":"22945","city":"Ivy","state":"VA","lat":38.0654,"long":-78.5958},{"zip":"22946","city":"Keene","state":"VA","lat":37.856,"long":-78.5699},{"zip":"22947","city":"Keswick","state":"VA","lat":38.0531,"long":-78.3396},{"zip":"22959","city":"North Garden","state":"VA","lat":37.9336,"long":-78.6351},{"zip":"22987","city":"White Hall","state":"VA","lat":38.1179,"long":-78.6614},{"zip":"22939","city":"Fishersville","state":"VA","lat":38.0964,"long":-78.9929},{"zip":"22952","city":"Lyndhurst","state":"VA","lat":37.9744,"long":-78.9361},{"zip":"22963","city":"Palmyra","state":"VA","lat":37.8931,"long":-78.3386},{"zip":"22974","city":"Troy","state":"VA","lat":37.9636,"long":-78.2535},{"zip":"22935","city":"Dyke","state":"VA","lat":38.2705,"long":-78.5578},{"zip":"22965","city":"Quinque","state":"VA","lat":38.3301,"long":-78.475},{"zip":"22968","city":"Ruckersville","state":"VA","lat":38.2586,"long":-78.4074},{"zip":"22973","city":"Stanardsville","state":"VA","lat":38.3121,"long":-78.482},{"zip":"22948","city":"Locust Dale","state":"VA","lat":38.3572,"long":-78.1229},{"zip":"22989","city":"Woodberry Forest","state":"VA","lat":38.2912,"long":-78.1225},{"zip":"22920","city":"Afton","state":"VA","lat":37.9626,"long":-78.841},{"zip":"22922","city":"Arrington","state":"VA","lat":37.6902,"long":-78.9479},{"zip":"22938","city":"Faber","state":"VA","lat":37.8475,"long":-78.7565},{"zip":"22949","city":"Lovingston","state":"VA","lat":37.7924,"long":-78.8684},{"zip":"22958","city":"Nellysford","state":"VA","lat":37.902,"long":-78.9004},{"zip":"22964","city":"Piney River","state":"VA","lat":37.8036,"long":-78.9591},{"zip":"22967","city":"Roseland","state":"VA","lat":37.8077,"long":-78.9712},{"zip":"22969","city":"Schuyler","state":"VA","lat":37.7976,"long":-78.6925},{"zip":"22971","city":"Shipman","state":"VA","lat":37.76,"long":-78.8105},{"zip":"22976","city":"Tyro","state":"VA","lat":37.8391,"long":-79.0693},{"zip":"22923","city":"Barboursville","state":"VA","lat":38.2095,"long":-78.3098},{"zip":"22942","city":"Gordonsville","state":"VA","lat":38.1759,"long":-78.1815},{"zip":"22957","city":"Montpelier Station","state":"VA","lat":38.227,"long":-78.1768},{"zip":"22960","city":"Orange","state":"VA","lat":38.2192,"long":-78.0461},{"zip":"22972","city":"Somerset","state":"VA","lat":38.1997,"long":-78.2394},{"zip":"22902","city":"Charlottesville","state":"VA","lat":38.0266,"long":-78.4805},{"zip":"22903","city":"Charlottesville","state":"VA","lat":38.0339,"long":-78.4924},{"zip":"22904","city":"Charlottesville","state":"VA","lat":38.0401,"long":-78.4851},{"zip":"22905","city":"Charlottesville","state":"VA","lat":38.0401,"long":-78.4851},{"zip":"22906","city":"Charlottesville","state":"VA","lat":38.0401,"long":-78.4851},{"zip":"22907","city":"Charlottesville","state":"VA","lat":38.0401,"long":-78.4851},{"zip":"22908","city":"Charlottesville","state":"VA","lat":38.0401,"long":-78.4851},{"zip":"22910","city":"Charlottesville","state":"VA","lat":38.0401,"long":-78.4851},{"zip":"22980","city":"Waynesboro","state":"VA","lat":38.0774,"long":-78.9035}]
