[{"zip":"23301","city":"Accomac","state":"VA","lat":37.7159,"long":-75.6803},{"zip":"23302","city":"Assawoman","state":"VA","lat":37.8658,"long":-75.5277},{"zip":"23303","city":"Atlantic","state":"VA","lat":37.9073,"long":-75.5089},{"zip":"23306","city":"Belle Haven","state":"VA","lat":37.5645,"long":-75.8694},{"zip":"23308","city":"Bloxom","state":"VA","lat":37.8273,"long":-75.6156},{"zip":"23336","city":"Chincoteague Island","state":"VA","lat":37.9299,"long":-75.3624},{"zip":"23337","city":"Wallops Island","state":"VA","lat":37.9186,"long":-75.4905},{"zip":"23341","city":"Craddockville","state":"VA","lat":37.5773,"long":-75.8646},{"zip":"23345","city":"Davis Wharf","state":"VA","lat":37.5529,"long":-75.878},{"zip":"23356","city":"Greenbackville","state":"VA","lat":38.0064,"long":-75.4029},{"zip":"23357","city":"Greenbush","state":"VA","lat":37.7681,"long":-75.6664},{"zip":"23358","city":"Hacksneck","state":"VA","lat":37.6393,"long":-75.865},{"zip":"23359","city":"Hallwood","state":"VA","lat":37.8837,"long":-75.6041},{"zip":"23389","city":"Harborton","state":"VA","lat":37.6618,"long":-75.8305},{"zip":"23395","city":"Horntown","state":"VA","lat":37.9699,"long":-75.4716},{"zip":"23396","city":"Oak Hall","state":"VA","lat":37.9237,"long":-75.5551},{"zip":"23399","city":"Jenkins Bridge","state":"VA","lat":37.9162,"long":-75.6168},{"zip":"23401","city":"Keller","state":"VA","lat":37.6193,"long":-75.7638},{"zip":"23404","city":"Locustville","state":"VA","lat":37.6534,"long":-75.6735},{"zip":"23407","city":"Mappsville","state":"VA","lat":37.846,"long":-75.5666},{"zip":"23409","city":"Mears","state":"VA","lat":37.8692,"long":-75.6354},{"zip":"23410","city":"Melfa","state":"VA","lat":37.6407,"long":-75.7454},{"zip":"23412","city":"Modest Town","state":"VA","lat":37.7904,"long":-75.6035},{"zip":"23414","city":"Nelsonia","state":"VA","lat":37.8169,"long":-75.5832},{"zip":"23415","city":"New Church","state":"VA","lat":37.9525,"long":-75.5112},{"zip":"23416","city":"Oak Hall","state":"VA","lat":37.9229,"long":-75.5386},{"zip":"23417","city":"Onancock","state":"VA","lat":37.7102,"long":-75.7528},{"zip":"23418","city":"Onley","state":"VA","lat":37.6704,"long":-75.6992},{"zip":"23420","city":"Painter","state":"VA","lat":37.5828,"long":-75.8066},{"zip":"23421","city":"Parksley","state":"VA","lat":37.7744,"long":-75.6386},{"zip":"23422","city":"Pungoteague","state":"VA","lat":37.6304,"long":-75.8135},{"zip":"23423","city":"Quinby","state":"VA","lat":37.5423,"long":-75.7412},{"zip":"23426","city":"Sanford","state":"VA","lat":37.9229,"long":-75.6781},{"zip":"23427","city":"Saxis","state":"VA","lat":37.9264,"long":-75.722},{"zip":"23440","city":"Tangier","state":"VA","lat":37.8245,"long":-75.993},{"zip":"23441","city":"Tasley","state":"VA","lat":37.7104,"long":-75.7005},{"zip":"23442","city":"Temperanceville","state":"VA","lat":37.8954,"long":-75.5528},{"zip":"23480","city":"Wachapreague","state":"VA","lat":37.6044,"long":-75.6925},{"zip":"23483","city":"Wattsville","state":"VA","lat":37.9437,"long":-75.5023},{"zip":"23488","city":"Withams","state":"VA","lat":37.9482,"long":-75.6019},{"zip":"23002","city":"Amelia Court House","state":"VA","lat":37.3428,"long":-77.9841},{"zip":"23083","city":"Jetersville","state":"VA","lat":37.3176,"long":-78.104},{"zip":"23105","city":"Mannboro","state":"VA","lat":37.345,"long":-77.9449},{"zip":"23939","city":"Evergreen","state":"VA","lat":37.3185,"long":-78.7658},{"zip":"23958","city":"Pamplin","state":"VA","lat":37.2653,"long":-78.6517},{"zip":"23821","city":"Alberta","state":"VA","lat":36.8806,"long":-77.9055},{"zip":"23843","city":"Dolphin","state":"VA","lat":36.8318,"long":-77.7887},{"zip":"23845","city":"Ebony","state":"VA","lat":36.5722,"long":-77.9888},{"zip":"23856","city":"Freeman","state":"VA","lat":36.7893,"long":-77.7208},{"zip":"23857","city":"Gasburg","state":"VA","lat":36.5856,"long":-77.8836},{"zip":"23868","city":"Lawrenceville","state":"VA","lat":36.7342,"long":-77.8136},{"zip":"23873","city":"Meredithville","state":"VA","lat":36.8088,"long":-77.9544},{"zip":"23876","city":"Rawlings","state":"VA","lat":36.953,"long":-77.8237},{"zip":"23887","city":"Valentines","state":"VA","lat":36.565,"long":-77.8384},{"zip":"23889","city":"Warfield","state":"VA","lat":36.9011,"long":-77.7673},{"zip":"23893","city":"White Plains","state":"VA","lat":36.6335,"long":-77.9592},{"zip":"23920","city":"Brodnax","state":"VA","lat":36.7319,"long":-77.9898},{"zip":"23004","city":"Arvonia","state":"VA","lat":37.6714,"long":-78.3889},{"zip":"23123","city":"New Canton","state":"VA","lat":37.6645,"long":-78.3112},{"zip":"23921","city":"Buckingham","state":"VA","lat":37.5833,"long":-78.5985},{"zip":"23936","city":"Dillwyn","state":"VA","lat":37.4124,"long":-78.4349},{"zip":"23030","city":"Charles City","state":"VA","lat":37.3663,"long":-77.1082},{"zip":"23147","city":"Ruthville","state":"VA","lat":37.3796,"long":-77.0348},{"zip":"23923","city":"Charlotte Court House","state":"VA","lat":37.0879,"long":-78.6378},{"zip":"23934","city":"Cullen","state":"VA","lat":37.1552,"long":-78.6459},{"zip":"23937","city":"Drakes Branch","state":"VA","lat":36.9688,"long":-78.5615},{"zip":"23947","city":"Keysville","state":"VA","lat":37.0411,"long":-78.4699},{"zip":"23959","city":"Phenix","state":"VA","lat":37.0925,"long":-78.7912},{"zip":"23962","city":"Randolph","state":"VA","lat":36.9515,"long":-78.7054},{"zip":"23963","city":"Red House","state":"VA","lat":37.1914,"long":-78.8145},{"zip":"23964","city":"Red Oak","state":"VA","lat":36.7724,"long":-78.6321},{"zip":"23967","city":"Saxe","state":"VA","lat":36.9053,"long":-78.6321},{"zip":"23976","city":"Wylliesburg","state":"VA","lat":36.8391,"long":-78.5982},{"zip":"23112","city":"Midlothian","state":"VA","lat":37.431,"long":-77.6545},{"zip":"23113","city":"Midlothian","state":"VA","lat":37.5109,"long":-77.6429},{"zip":"23114","city":"Midlothian","state":"VA","lat":37.4815,"long":-77.6419},{"zip":"23120","city":"Moseley","state":"VA","lat":37.426,"long":-77.7585},{"zip":"23234","city":"Richmond","state":"VA","lat":37.4373,"long":-77.4788},{"zip":"23235","city":"Richmond","state":"VA","lat":37.5133,"long":-77.5646},{"zip":"23236","city":"Richmond","state":"VA","lat":37.4782,"long":-77.5854},{"zip":"23237","city":"Richmond","state":"VA","lat":37.4011,"long":-77.4615},{"zip":"23297","city":"Richmond","state":"VA","lat":37.3897,"long":-77.5613},{"zip":"23831","city":"Chester","state":"VA","lat":37.3429,"long":-77.4156},{"zip":"23832","city":"Chesterfield","state":"VA","lat":37.3923,"long":-77.5668},{"zip":"23836","city":"Chester","state":"VA","lat":37.3475,"long":-77.3386},{"zip":"23838","city":"Chesterfield","state":"VA","lat":37.3333,"long":-77.6343},{"zip":"23027","city":"Cartersville","state":"VA","lat":37.6479,"long":-78.1389},{"zip":"23040","city":"Cumberland","state":"VA","lat":37.5019,"long":-78.2581},{"zip":"23822","city":"Ammon","state":"VA","lat":37.0724,"long":-77.6475},{"zip":"23830","city":"Carson","state":"VA","lat":37.0393,"long":-77.4351},{"zip":"23833","city":"Church Road","state":"VA","lat":37.195,"long":-77.6646},{"zip":"23840","city":"Dewitt","state":"VA","lat":37.0535,"long":-77.6426},{"zip":"23841","city":"Dinwiddie","state":"VA","lat":37.0833,"long":-77.5585},{"zip":"23850","city":"Ford","state":"VA","lat":37.1349,"long":-77.7364},{"zip":"23872","city":"Mc Kenney","state":"VA","lat":36.9986,"long":-77.7396},{"zip":"23885","city":"Sutherland","state":"VA","lat":37.1901,"long":-77.5655},{"zip":"23894","city":"Wilsons","state":"VA","lat":37.1157,"long":-77.8352},{"zip":"23115","city":"Millers Tavern","state":"VA","lat":37.8364,"long":-76.9138},{"zip":"23022","city":"Bremo Bluff","state":"VA","lat":37.7453,"long":-78.2672},{"zip":"23055","city":"Fork Union","state":"VA","lat":37.7715,"long":-78.2355},{"zip":"23084","city":"Kents Store","state":"VA","lat":37.8942,"long":-78.1208},{"zip":"23001","city":"Achilles","state":"VA","lat":37.2882,"long":-76.426},{"zip":"23003","city":"Ark","state":"VA","lat":37.4323,"long":-76.6016},{"zip":"23018","city":"Bena","state":"VA","lat":37.271,"long":-76.4555},{"zip":"23050","city":"Dutton","state":"VA","lat":37.5001,"long":-76.454},{"zip":"23061","city":"Gloucester","state":"VA","lat":37.4126,"long":-76.5464},{"zip":"23062","city":"Gloucester Point","state":"VA","lat":37.2585,"long":-76.4959},{"zip":"23072","city":"Hayes","state":"VA","lat":37.2916,"long":-76.4905},{"zip":"23107","city":"Maryus","state":"VA","lat":37.2864,"long":-76.4048},{"zip":"23131","city":"Ordinary","state":"VA","lat":37.3122,"long":-76.5188},{"zip":"23154","city":"Schley","state":"VA","lat":37.3896,"long":-76.4549},{"zip":"23155","city":"Severn","state":"VA","lat":37.4182,"long":-76.5084},{"zip":"23178","city":"Ware Neck","state":"VA","lat":37.4004,"long":-76.4529},{"zip":"23183","city":"White Marsh","state":"VA","lat":37.3632,"long":-76.5325},{"zip":"23184","city":"Wicomico","state":"VA","lat":37.291,"long":-76.5094},{"zip":"23190","city":"Woods Cross Roads","state":"VA","lat":37.482,"long":-76.6362},{"zip":"23014","city":"Beaumont","state":"VA","lat":37.7338,"long":-77.8881},{"zip":"23038","city":"Columbia","state":"VA","lat":37.7147,"long":-78.1794},{"zip":"23039","city":"Crozier","state":"VA","lat":37.6718,"long":-77.794},{"zip":"23063","city":"Goochland","state":"VA","lat":37.7688,"long":-78.0112},{"zip":"23065","city":"Gum Spring","state":"VA","lat":37.7982,"long":-77.9375},{"zip":"23067","city":"Hadensville","state":"VA","lat":37.8252,"long":-77.9899},{"zip":"23102","city":"Maidens","state":"VA","lat":37.7126,"long":-77.8315},{"zip":"23103","city":"Manakin Sabot","state":"VA","lat":37.638,"long":-77.7077},{"zip":"23129","city":"Oilville","state":"VA","lat":37.704,"long":-77.7853},{"zip":"23153","city":"Sandy Hook","state":"VA","lat":37.7526,"long":-77.9125},{"zip":"23160","city":"State Farm","state":"VA","lat":37.6454,"long":-77.8283},{"zip":"23870","city":"Jarratt","state":"VA","lat":36.8143,"long":-77.4683},{"zip":"23879","city":"Skippers","state":"VA","lat":36.5958,"long":-77.5921},{"zip":"23005","city":"Ashland","state":"VA","lat":37.7395,"long":-77.4784},{"zip":"23015","city":"Beaverdam","state":"VA","lat":37.9038,"long":-77.6308},{"zip":"23047","city":"Doswell","state":"VA","lat":37.8417,"long":-77.5125},{"zip":"23059","city":"Glen Allen","state":"VA","lat":37.7284,"long":-77.5544},{"zip":"23069","city":"Hanover","state":"VA","lat":37.7701,"long":-77.3216},{"zip":"23111","city":"Mechanicsville","state":"VA","lat":37.6281,"long":-77.3395},{"zip":"23116","city":"Mechanicsville","state":"VA","lat":37.6691,"long":-77.3294},{"zip":"23146","city":"Rockville","state":"VA","lat":37.7337,"long":-77.7},{"zip":"23162","city":"Studley","state":"VA","lat":37.6757,"long":-77.2908},{"zip":"23192","city":"Montpelier","state":"VA","lat":37.8177,"long":-77.6924},{"zip":"23058","city":"Glen Allen","state":"VA","lat":37.5313,"long":-77.4161},{"zip":"23060","city":"Glen Allen","state":"VA","lat":37.6628,"long":-77.534},{"zip":"23075","city":"Henrico","state":"VA","lat":37.546,"long":-77.3278},{"zip":"23150","city":"Sandston","state":"VA","lat":37.5157,"long":-77.2758},{"zip":"23226","city":"Richmond","state":"VA","lat":37.5825,"long":-77.5197},{"zip":"23227","city":"Richmond","state":"VA","lat":37.6247,"long":-77.4351},{"zip":"23228","city":"Henrico","state":"VA","lat":37.4638,"long":-77.398},{"zip":"23229","city":"Henrico","state":"VA","lat":37.4638,"long":-77.398},{"zip":"23230","city":"Richmond","state":"VA","lat":37.5921,"long":-77.4952},{"zip":"23231","city":"Henrico","state":"VA","lat":37.4638,"long":-77.398},{"zip":"23233","city":"Henrico","state":"VA","lat":37.4638,"long":-77.398},{"zip":"23238","city":"Henrico","state":"VA","lat":37.52,"long":-77.4369},{"zip":"23242","city":"Henrico","state":"VA","lat":37.4638,"long":-77.398},{"zip":"23250","city":"Richmond","state":"VA","lat":37.5075,"long":-77.3329},{"zip":"23255","city":"Henrico","state":"VA","lat":37.4638,"long":-77.398},{"zip":"23288","city":"Henrico","state":"VA","lat":37.4638,"long":-77.398},{"zip":"23289","city":"Richmond","state":"VA","lat":37.5313,"long":-77.4161},{"zip":"23294","city":"Henrico","state":"VA","lat":37.4638,"long":-77.398},{"zip":"23304","city":"Battery Park","state":"VA","lat":36.9965,"long":-76.5741},{"zip":"23314","city":"Carrollton","state":"VA","lat":36.955,"long":-76.543},{"zip":"23315","city":"Carrsville","state":"VA","lat":36.7454,"long":-76.8365},{"zip":"23397","city":"Isle Of Wight","state":"VA","lat":36.8989,"long":-76.6877},{"zip":"23424","city":"Rescue","state":"VA","lat":36.9969,"long":-76.5645},{"zip":"23430","city":"Smithfield","state":"VA","lat":36.9811,"long":-76.6368},{"zip":"23431","city":"Smithfield","state":"VA","lat":36.8989,"long":-76.6877},{"zip":"23487","city":"Windsor","state":"VA","lat":36.8369,"long":-76.7324},{"zip":"23898","city":"Zuni","state":"VA","lat":36.8437,"long":-76.811},{"zip":"23081","city":"Jamestown","state":"VA","lat":37.2235,"long":-76.7833},{"zip":"23127","city":"Norge","state":"VA","lat":37.3688,"long":-76.7705},{"zip":"23168","city":"Toano","state":"VA","lat":37.3901,"long":-76.8253},{"zip":"23185","city":"Williamsburg","state":"VA","lat":37.2732,"long":-76.7324},{"zip":"23188","city":"Williamsburg","state":"VA","lat":37.3178,"long":-76.7634},{"zip":"23023","city":"Bruington","state":"VA","lat":37.7801,"long":-76.9402},{"zip":"23085","city":"King And Queen Court House","state":"VA","lat":37.6699,"long":-76.8775},{"zip":"23091","city":"Little Plymouth","state":"VA","lat":37.6642,"long":-76.8255},{"zip":"23108","city":"Mascot","state":"VA","lat":37.6271,"long":-76.7072},{"zip":"23110","city":"Mattaponi","state":"VA","lat":37.6135,"long":-76.8101},{"zip":"23126","city":"Newtown","state":"VA","lat":37.9226,"long":-77.1449},{"zip":"23148","city":"Saint Stephens Church","state":"VA","lat":37.8479,"long":-77.055},{"zip":"23156","city":"Shacklefords","state":"VA","lat":37.5213,"long":-76.7099},{"zip":"23161","city":"Stevensville","state":"VA","lat":37.7146,"long":-76.9352},{"zip":"23177","city":"Walkerton","state":"VA","lat":37.7554,"long":-77.0185},{"zip":"23009","city":"Aylett","state":"VA","lat":37.8221,"long":-77.1885},{"zip":"23086","city":"King William","state":"VA","lat":37.7202,"long":-77.0998},{"zip":"23106","city":"Manquin","state":"VA","lat":37.7184,"long":-77.186},{"zip":"23181","city":"West Point","state":"VA","lat":37.5556,"long":-76.8237},{"zip":"23024","city":"Bumpass","state":"VA","lat":37.8984,"long":-77.7966},{"zip":"23093","city":"Louisa","state":"VA","lat":38.0132,"long":-78.0347},{"zip":"23117","city":"Mineral","state":"VA","lat":37.9986,"long":-77.8781},{"zip":"23170","city":"Trevilians","state":"VA","lat":38.0515,"long":-78.0728},{"zip":"23938","city":"Dundas","state":"VA","lat":36.9053,"long":-78.01},{"zip":"23941","city":"Fort Mitchell","state":"VA","lat":36.9182,"long":-78.4861},{"zip":"23944","city":"Kenbridge","state":"VA","lat":36.933,"long":-78.1242},{"zip":"23952","city":"Lunenburg","state":"VA","lat":36.9291,"long":-78.2915},{"zip":"23974","city":"Victoria","state":"VA","lat":36.9835,"long":-78.2372},{"zip":"23021","city":"Bohannon","state":"VA","lat":37.3905,"long":-76.3614},{"zip":"23025","city":"Cardinal","state":"VA","lat":37.4128,"long":-76.3616},{"zip":"23035","city":"Cobbs Creek","state":"VA","lat":37.4959,"long":-76.3863},{"zip":"23045","city":"Diggs","state":"VA","lat":37.4296,"long":-76.2629},{"zip":"23056","city":"Foster","state":"VA","lat":37.4529,"long":-76.3849},{"zip":"23064","city":"Grimstead","state":"VA","lat":37.4961,"long":-76.3},{"zip":"23066","city":"Gwynn","state":"VA","lat":37.5043,"long":-76.2886},{"zip":"23068","city":"Hallieford","state":"VA","lat":37.4937,"long":-76.3402},{"zip":"23076","city":"Hudgins","state":"VA","lat":37.4766,"long":-76.3089},{"zip":"23109","city":"Mathews","state":"VA","lat":37.4383,"long":-76.3544},{"zip":"23119","city":"Moon","state":"VA","lat":37.4487,"long":-76.2766},{"zip":"23125","city":"New Point","state":"VA","lat":37.3438,"long":-76.2878},{"zip":"23128","city":"North","state":"VA","lat":37.4401,"long":-76.4238},{"zip":"23130","city":"Onemo","state":"VA","lat":37.3985,"long":-76.2941},{"zip":"23138","city":"Port Haywood","state":"VA","lat":37.386,"long":-76.3172},{"zip":"23163","city":"Susan","state":"VA","lat":37.3508,"long":-76.3161},{"zip":"23915","city":"Baskerville","state":"VA","lat":36.7236,"long":-78.279},{"zip":"23917","city":"Boydton","state":"VA","lat":36.6544,"long":-78.3752},{"zip":"23919","city":"Bracey","state":"VA","lat":36.5763,"long":-78.1059},{"zip":"23924","city":"Chase City","state":"VA","lat":36.8053,"long":-78.4553},{"zip":"23927","city":"Clarksville","state":"VA","lat":36.624,"long":-78.5569},{"zip":"23950","city":"La Crosse","state":"VA","lat":36.6613,"long":-78.0754},{"zip":"23968","city":"Skipwith","state":"VA","lat":36.7317,"long":-78.5306},{"zip":"23970","city":"South Hill","state":"VA","lat":36.7124,"long":-78.1534},{"zip":"23031","city":"Christchurch","state":"VA","lat":37.5984,"long":-76.4476},{"zip":"23032","city":"Church View","state":"VA","lat":37.675,"long":-76.6629},{"zip":"23043","city":"Deltaville","state":"VA","lat":37.5549,"long":-76.3468},{"zip":"23070","city":"Hardyville","state":"VA","lat":37.5512,"long":-76.3844},{"zip":"23071","city":"Hartfield","state":"VA","lat":37.5594,"long":-76.4769},{"zip":"23079","city":"Jamaica","state":"VA","lat":37.73,"long":-76.689},{"zip":"23092","city":"Locust Hill","state":"VA","lat":37.5826,"long":-76.4984},{"zip":"23149","city":"Saluda","state":"VA","lat":37.5949,"long":-76.5921},{"zip":"23169","city":"Topping","state":"VA","lat":37.6009,"long":-76.4575},{"zip":"23175","city":"Urbanna","state":"VA","lat":37.6356,"long":-76.5918},{"zip":"23176","city":"Wake","state":"VA","lat":37.5681,"long":-76.4323},{"zip":"23180","city":"Water View","state":"VA","lat":37.7105,"long":-76.6227},{"zip":"23011","city":"Barhamsville","state":"VA","lat":37.4617,"long":-76.8321},{"zip":"23089","city":"Lanexa","state":"VA","lat":37.4194,"long":-76.9027},{"zip":"23124","city":"New Kent","state":"VA","lat":37.553,"long":-77.0742},{"zip":"23140","city":"Providence Forge","state":"VA","lat":37.4418,"long":-77.0436},{"zip":"23141","city":"Quinton","state":"VA","lat":37.5185,"long":-77.1486},{"zip":"23307","city":"Birdsnest","state":"VA","lat":37.439,"long":-75.881},{"zip":"23310","city":"Cape Charles","state":"VA","lat":37.2799,"long":-75.9721},{"zip":"23313","city":"Capeville","state":"VA","lat":37.2019,"long":-75.9524},{"zip":"23316","city":"Cheriton","state":"VA","lat":37.2896,"long":-75.9713},{"zip":"23347","city":"Eastville","state":"VA","lat":37.3526,"long":-75.9458},{"zip":"23350","city":"Exmore","state":"VA","lat":37.5117,"long":-75.8526},{"zip":"23354","city":"Franktown","state":"VA","lat":37.4588,"long":-75.9007},{"zip":"23398","city":"Jamesville","state":"VA","lat":37.5343,"long":-75.8771},{"zip":"23405","city":"Machipongo","state":"VA","lat":37.4014,"long":-75.9082},{"zip":"23408","city":"Marionville","state":"VA","lat":37.4556,"long":-75.8473},{"zip":"23413","city":"Nassawadox","state":"VA","lat":37.4728,"long":-75.858},{"zip":"23419","city":"Oyster","state":"VA","lat":37.3074,"long":-75.9269},{"zip":"23429","city":"Seaview","state":"VA","lat":37.2711,"long":-75.9536},{"zip":"23443","city":"Townsend","state":"VA","lat":37.1882,"long":-75.969},{"zip":"23482","city":"Wardtown","state":"VA","lat":37.5349,"long":-75.8769},{"zip":"23486","city":"Willis Wharf","state":"VA","lat":37.5157,"long":-75.8066},{"zip":"23824","city":"Blackstone","state":"VA","lat":37.0916,"long":-77.9851},{"zip":"23922","city":"Burkeville","state":"VA","lat":37.1952,"long":-78.1961},{"zip":"23930","city":"Crewe","state":"VA","lat":37.1657,"long":-78.1059},{"zip":"23955","city":"Nottoway","state":"VA","lat":37.1161,"long":-78.0578},{"zip":"23139","city":"Powhatan","state":"VA","lat":37.5421,"long":-77.9189},{"zip":"23901","city":"Farmville","state":"VA","lat":37.3027,"long":-78.4076},{"zip":"23909","city":"Farmville","state":"VA","lat":37.3016,"long":-78.3949},{"zip":"23942","city":"Green Bay","state":"VA","lat":37.1234,"long":-78.3072},{"zip":"23943","city":"Hampden Sydney","state":"VA","lat":37.2381,"long":-78.4618},{"zip":"23954","city":"Meherrin","state":"VA","lat":37.1013,"long":-78.3874},{"zip":"23960","city":"Prospect","state":"VA","lat":37.3058,"long":-78.5462},{"zip":"23966","city":"Rice","state":"VA","lat":37.2721,"long":-78.2793},{"zip":"23801","city":"Fort Lee","state":"VA","lat":37.2447,"long":-77.3341},{"zip":"23842","city":"Disputanta","state":"VA","lat":37.1483,"long":-77.2732},{"zip":"23875","city":"Prince George","state":"VA","lat":37.2333,"long":-77.2747},{"zip":"23827","city":"Boykins","state":"VA","lat":36.5951,"long":-77.1975},{"zip":"23828","city":"Branchville","state":"VA","lat":36.5787,"long":-77.2704},{"zip":"23829","city":"Capron","state":"VA","lat":36.7243,"long":-77.2394},{"zip":"23837","city":"Courtland","state":"VA","lat":36.7225,"long":-77.0783},{"zip":"23844","city":"Drewryville","state":"VA","lat":36.6854,"long":-77.3591},{"zip":"23866","city":"Ivor","state":"VA","lat":36.9071,"long":-76.8861},{"zip":"23874","city":"Newsoms","state":"VA","lat":36.6148,"long":-77.1069},{"zip":"23878","city":"Sedley","state":"VA","lat":36.776,"long":-76.9841},{"zip":"23839","city":"Dendron","state":"VA","lat":37.0981,"long":-76.8966},{"zip":"23846","city":"Elberon","state":"VA","lat":37.0701,"long":-76.8337},{"zip":"23881","city":"Spring Grove","state":"VA","lat":37.1901,"long":-76.9923},{"zip":"23883","city":"Surry","state":"VA","lat":37.126,"long":-76.7651},{"zip":"23899","city":"Claremont","state":"VA","lat":37.2279,"long":-76.9641},{"zip":"23867","city":"Jarratt","state":"VA","lat":36.8191,"long":-77.4832},{"zip":"23882","city":"Stony Creek","state":"VA","lat":36.9361,"long":-77.4443},{"zip":"23884","city":"Sussex","state":"VA","lat":36.9151,"long":-77.2791},{"zip":"23888","city":"Wakefield","state":"VA","lat":36.9757,"long":-76.979},{"zip":"23890","city":"Waverly","state":"VA","lat":37.025,"long":-77.1055},{"zip":"23891","city":"Waverly","state":"VA","lat":37.0508,"long":-77.2124},{"zip":"23897","city":"Yale","state":"VA","lat":36.8373,"long":-77.287},{"zip":"23090","city":"Lightfoot","state":"VA","lat":37.3407,"long":-76.7544},{"zip":"23690","city":"Yorktown","state":"VA","lat":37.2287,"long":-76.5423},{"zip":"23691","city":"Yorktown","state":"VA","lat":37.2517,"long":-76.552},{"zip":"23692","city":"Yorktown","state":"VA","lat":37.1686,"long":-76.4581},{"zip":"23693","city":"Yorktown","state":"VA","lat":37.1256,"long":-76.4469},{"zip":"23694","city":"Lackey","state":"VA","lat":37.2232,"long":-76.559},{"zip":"23696","city":"Seaford","state":"VA","lat":37.1885,"long":-76.429},{"zip":"23320","city":"Chesapeake","state":"VA","lat":36.7352,"long":-76.2384},{"zip":"23321","city":"Chesapeake","state":"VA","lat":36.8012,"long":-76.423},{"zip":"23322","city":"Chesapeake","state":"VA","lat":36.6434,"long":-76.242},{"zip":"23323","city":"Chesapeake","state":"VA","lat":36.7634,"long":-76.3397},{"zip":"23324","city":"Chesapeake","state":"VA","lat":36.8056,"long":-76.2666},{"zip":"23325","city":"Chesapeake","state":"VA","lat":36.814,"long":-76.2406},{"zip":"23326","city":"Chesapeake","state":"VA","lat":36.777,"long":-76.2394},{"zip":"23327","city":"Chesapeake","state":"VA","lat":36.7085,"long":-76.2785},{"zip":"23328","city":"Chesapeake","state":"VA","lat":36.7085,"long":-76.2785},{"zip":"23834","city":"Colonial Heights","state":"VA","lat":37.27,"long":-77.4038},{"zip":"23847","city":"Emporia","state":"VA","lat":36.6857,"long":-77.563},{"zip":"23851","city":"Franklin","state":"VA","lat":36.6786,"long":-76.9391},{"zip":"23630","city":"Hampton","state":"VA","lat":37.0727,"long":-76.3899},{"zip":"23651","city":"Fort Monroe","state":"VA","lat":37.018,"long":-76.3044},{"zip":"23661","city":"Hampton","state":"VA","lat":37.0074,"long":-76.3801},{"zip":"23663","city":"Hampton","state":"VA","lat":37.0318,"long":-76.3199},{"zip":"23664","city":"Hampton","state":"VA","lat":37.0566,"long":-76.2966},{"zip":"23665","city":"Hampton","state":"VA","lat":37.0831,"long":-76.36},{"zip":"23666","city":"Hampton","state":"VA","lat":37.0462,"long":-76.4096},{"zip":"23667","city":"Hampton","state":"VA","lat":37.0193,"long":-76.3318},{"zip":"23668","city":"Hampton","state":"VA","lat":37.0206,"long":-76.3377},{"zip":"23669","city":"Hampton","state":"VA","lat":37.0436,"long":-76.3426},{"zip":"23670","city":"Hampton","state":"VA","lat":37.0727,"long":-76.3899},{"zip":"23681","city":"Hampton","state":"VA","lat":37.0727,"long":-76.3899},{"zip":"23860","city":"Hopewell","state":"VA","lat":37.2876,"long":-77.295},{"zip":"23601","city":"Newport News","state":"VA","lat":37.058,"long":-76.4607},{"zip":"23602","city":"Newport News","state":"VA","lat":37.1132,"long":-76.5179},{"zip":"23603","city":"Newport News","state":"VA","lat":37.1989,"long":-76.5821},{"zip":"23604","city":"Fort Eustis","state":"VA","lat":37.1574,"long":-76.5845},{"zip":"23605","city":"Newport News","state":"VA","lat":37.0156,"long":-76.4332},{"zip":"23606","city":"Newport News","state":"VA","lat":37.0768,"long":-76.4967},{"zip":"23607","city":"Newport News","state":"VA","lat":36.9864,"long":-76.4165},{"zip":"23608","city":"Newport News","state":"VA","lat":37.1526,"long":-76.542},{"zip":"23609","city":"Newport News","state":"VA","lat":37.1959,"long":-76.5248},{"zip":"23612","city":"Newport News","state":"VA","lat":37.1959,"long":-76.5248},{"zip":"23628","city":"Newport News","state":"VA","lat":37.1959,"long":-76.5248},{"zip":"23501","city":"Norfolk","state":"VA","lat":36.8959,"long":-76.2085},{"zip":"23502","city":"Norfolk","state":"VA","lat":36.8546,"long":-76.2143},{"zip":"23503","city":"Norfolk","state":"VA","lat":36.9442,"long":-76.252},{"zip":"23504","city":"Norfolk","state":"VA","lat":36.8586,"long":-76.2686},{"zip":"23505","city":"Norfolk","state":"VA","lat":36.9168,"long":-76.2875},{"zip":"23506","city":"Norfolk","state":"VA","lat":36.9312,"long":-76.2397},{"zip":"23507","city":"Norfolk","state":"VA","lat":36.8645,"long":-76.3004},{"zip":"23508","city":"Norfolk","state":"VA","lat":36.8859,"long":-76.3004},{"zip":"23509","city":"Norfolk","state":"VA","lat":36.8787,"long":-76.2604},{"zip":"23510","city":"Norfolk","state":"VA","lat":36.8529,"long":-76.2878},{"zip":"23511","city":"Norfolk","state":"VA","lat":36.9356,"long":-76.3034},{"zip":"23513","city":"Norfolk","state":"VA","lat":36.8914,"long":-76.2396},{"zip":"23514","city":"Norfolk","state":"VA","lat":36.8468,"long":-76.2852},{"zip":"23515","city":"Norfolk","state":"VA","lat":36.9312,"long":-76.2397},{"zip":"23517","city":"Norfolk","state":"VA","lat":36.8695,"long":-76.2945},{"zip":"23518","city":"Norfolk","state":"VA","lat":36.9202,"long":-76.216},{"zip":"23519","city":"Norfolk","state":"VA","lat":36.9312,"long":-76.2397},{"zip":"23523","city":"Norfolk","state":"VA","lat":36.8294,"long":-76.2701},{"zip":"23529","city":"Norfolk","state":"VA","lat":36.9312,"long":-76.2397},{"zip":"23541","city":"Norfolk","state":"VA","lat":36.9312,"long":-76.2397},{"zip":"23551","city":"Norfolk","state":"VA","lat":36.9312,"long":-76.2397},{"zip":"23803","city":"Petersburg","state":"VA","lat":37.2123,"long":-77.4814},{"zip":"23804","city":"Petersburg","state":"VA","lat":37.2048,"long":-77.3928},{"zip":"23805","city":"Petersburg","state":"VA","lat":37.1819,"long":-77.3854},{"zip":"23806","city":"Virginia State University","state":"VA","lat":37.2327,"long":-77.385},{"zip":"23662","city":"Poquoson","state":"VA","lat":37.1313,"long":-76.3807},{"zip":"23701","city":"Portsmouth","state":"VA","lat":36.8089,"long":-76.3671},{"zip":"23702","city":"Portsmouth","state":"VA","lat":36.8035,"long":-76.327},{"zip":"23703","city":"Portsmouth","state":"VA","lat":36.8695,"long":-76.3869},{"zip":"23704","city":"Portsmouth","state":"VA","lat":36.8298,"long":-76.3146},{"zip":"23705","city":"Portsmouth","state":"VA","lat":36.8686,"long":-76.3552},{"zip":"23707","city":"Portsmouth","state":"VA","lat":36.8362,"long":-76.344},{"zip":"23708","city":"Portsmouth","state":"VA","lat":36.8686,"long":-76.3552},{"zip":"23709","city":"Portsmouth","state":"VA","lat":36.8686,"long":-76.3552},{"zip":"23173","city":"Richmond","state":"VA","lat":37.5538,"long":-77.4603},{"zip":"23218","city":"Richmond","state":"VA","lat":37.5242,"long":-77.4932},{"zip":"23219","city":"Richmond","state":"VA","lat":37.5463,"long":-77.4378},{"zip":"23220","city":"Richmond","state":"VA","lat":37.5498,"long":-77.4588},{"zip":"23221","city":"Richmond","state":"VA","lat":37.5583,"long":-77.4845},{"zip":"23222","city":"Richmond","state":"VA","lat":37.5748,"long":-77.4267},{"zip":"23223","city":"Richmond","state":"VA","lat":37.5477,"long":-77.3948},{"zip":"23224","city":"Richmond","state":"VA","lat":37.4955,"long":-77.471},{"zip":"23225","city":"Richmond","state":"VA","lat":37.5158,"long":-77.5047},{"zip":"23232","city":"Richmond","state":"VA","lat":37.5202,"long":-77.4084},{"zip":"23241","city":"Richmond","state":"VA","lat":37.5242,"long":-77.4932},{"zip":"23249","city":"Richmond","state":"VA","lat":37.5242,"long":-77.4932},{"zip":"23260","city":"Richmond","state":"VA","lat":37.5538,"long":-77.4603},{"zip":"23261","city":"Richmond","state":"VA","lat":37.5538,"long":-77.4603},{"zip":"23269","city":"Richmond","state":"VA","lat":37.5538,"long":-77.4603},{"zip":"23273","city":"Henrico","state":"VA","lat":37.5302,"long":-77.4753},{"zip":"23274","city":"Richmond","state":"VA","lat":37.5242,"long":-77.4932},{"zip":"23276","city":"Richmond","state":"VA","lat":37.5242,"long":-77.4932},{"zip":"23278","city":"Richmond","state":"VA","lat":37.5242,"long":-77.4932},{"zip":"23279","city":"Richmond","state":"VA","lat":37.5242,"long":-77.4932},{"zip":"23282","city":"Richmond","state":"VA","lat":37.5538,"long":-77.4603},{"zip":"23284","city":"Richmond","state":"VA","lat":37.5494,"long":-77.4512},{"zip":"23285","city":"Richmond","state":"VA","lat":37.5242,"long":-77.4932},{"zip":"23286","city":"Richmond","state":"VA","lat":37.5242,"long":-77.4932},{"zip":"23290","city":"Richmond","state":"VA","lat":37.5242,"long":-77.4932},{"zip":"23291","city":"Richmond","state":"VA","lat":37.5242,"long":-77.4932},{"zip":"23292","city":"Richmond","state":"VA","lat":37.5242,"long":-77.4932},{"zip":"23293","city":"Richmond","state":"VA","lat":37.5242,"long":-77.4932},{"zip":"23295","city":"Richmond","state":"VA","lat":37.5532,"long":-77.4621},{"zip":"23298","city":"Richmond","state":"VA","lat":37.5406,"long":-77.4316},{"zip":"23432","city":"Suffolk","state":"VA","lat":36.8668,"long":-76.5598},{"zip":"23433","city":"Suffolk","state":"VA","lat":36.909,"long":-76.4929},{"zip":"23434","city":"Suffolk","state":"VA","lat":36.7304,"long":-76.5931},{"zip":"23435","city":"Suffolk","state":"VA","lat":36.8544,"long":-76.4664},{"zip":"23436","city":"Suffolk","state":"VA","lat":36.8926,"long":-76.5142},{"zip":"23437","city":"Suffolk","state":"VA","lat":36.6526,"long":-76.792},{"zip":"23438","city":"Suffolk","state":"VA","lat":36.5913,"long":-76.6871},{"zip":"23439","city":"Suffolk","state":"VA","lat":36.7461,"long":-76.6653},{"zip":"23453","city":"Virginia Beach","state":"VA","lat":36.776,"long":-76.0766},{"zip":"23450","city":"Virginia Beach","state":"VA","lat":36.844,"long":-76.1204},{"zip":"23451","city":"Virginia Beach","state":"VA","lat":36.8585,"long":-76.0019},{"zip":"23452","city":"Virginia Beach","state":"VA","lat":36.8348,"long":-76.0961},{"zip":"23454","city":"Virginia Beach","state":"VA","lat":36.8282,"long":-76.0237},{"zip":"23455","city":"Virginia Beach","state":"VA","lat":36.8881,"long":-76.1446},{"zip":"23456","city":"Virginia Beach","state":"VA","lat":36.7341,"long":-76.0359},{"zip":"23457","city":"Virginia Beach","state":"VA","lat":36.6224,"long":-76.0249},{"zip":"23458","city":"Virginia Beach","state":"VA","lat":36.8529,"long":-75.978},{"zip":"23459","city":"Virginia Beach","state":"VA","lat":36.9216,"long":-76.0171},{"zip":"23460","city":"Virginia Beach","state":"VA","lat":36.808,"long":-76.0284},{"zip":"23461","city":"Virginia Beach","state":"VA","lat":36.7754,"long":-75.9633},{"zip":"23462","city":"Virginia Beach","state":"VA","lat":36.8392,"long":-76.1522},{"zip":"23463","city":"Virginia Beach","state":"VA","lat":36.7957,"long":-76.0126},{"zip":"23464","city":"Virginia Beach","state":"VA","lat":36.7978,"long":-76.1759},{"zip":"23465","city":"Virginia Beach","state":"VA","lat":36.8512,"long":-76.1692},{"zip":"23466","city":"Virginia Beach","state":"VA","lat":36.7957,"long":-76.0126},{"zip":"23467","city":"Virginia Beach","state":"VA","lat":36.7957,"long":-76.0126},{"zip":"23471","city":"Virginia Beach","state":"VA","lat":36.7957,"long":-76.0126},{"zip":"23479","city":"Virginia Beach","state":"VA","lat":36.7957,"long":-76.0126},{"zip":"23186","city":"Williamsburg","state":"VA","lat":37.3105,"long":-76.7468},{"zip":"23187","city":"Williamsburg","state":"VA","lat":37.3105,"long":-76.7468}]
