[{"zip":"23002","city":"Amelia Court House","state":"VA","lat":37.3428,"long":-77.9841},{"zip":"23083","city":"Jetersville","state":"VA","lat":37.3176,"long":-78.104},{"zip":"23004","city":"Arvonia","state":"VA","lat":37.6714,"long":-78.3889},{"zip":"23030","city":"Charles City","state":"VA","lat":37.3663,"long":-77.1082},{"zip":"23027","city":"Cartersville","state":"VA","lat":37.6479,"long":-78.1389},{"zip":"23040","city":"Cumberland","state":"VA","lat":37.5019,"long":-78.2581},{"zip":"23022","city":"Bremo Bluff","state":"VA","lat":37.7453,"long":-78.2672},{"zip":"23055","city":"Fork Union","state":"VA","lat":37.7715,"long":-78.2355},{"zip":"23084","city":"Kents Store","state":"VA","lat":37.8942,"long":-78.1208},{"zip":"23001","city":"Achilles","state":"VA","lat":37.2882,"long":-76.426},{"zip":"23003","city":"Ark","state":"VA","lat":37.4323,"long":-76.6016},{"zip":"23018","city":"Bena","state":"VA","lat":37.271,"long":-76.4555},{"zip":"23050","city":"Dutton","state":"VA","lat":37.5001,"long":-76.454},{"zip":"23061","city":"Gloucester","state":"VA","lat":37.4126,"long":-76.5464},{"zip":"23062","city":"Gloucester Point","state":"VA","lat":37.2585,"long":-76.4959},{"zip":"23072","city":"Hayes","state":"VA","lat":37.2916,"long":-76.4905},{"zip":"23014","city":"Beaumont","state":"VA","lat":37.7338,"long":-77.8881},{"zip":"23038","city":"Columbia","state":"VA","lat":37.7147,"long":-78.1794},{"zip":"23039","city":"Crozier","state":"VA","lat":37.6718,"long":-77.794},{"zip":"23063","city":"Goochland","state":"VA","lat":37.7688,"long":-78.0112},{"zip":"23065","city":"Gum Spring","state":"VA","lat":37.7982,"long":-77.9375},{"zip":"23067","city":"Hadensville","state":"VA","lat":37.8252,"long":-77.9899},{"zip":"23005","city":"Ashland","state":"VA","lat":37.7395,"long":-77.4784},{"zip":"23015","city":"Beaverdam","state":"VA","lat":37.9038,"long":-77.6308},{"zip":"23047","city":"Doswell","state":"VA","lat":37.8417,"long":-77.5125},{"zip":"23059","city":"Glen Allen","state":"VA","lat":37.7284,"long":-77.5544},{"zip":"23069","city":"Hanover","state":"VA","lat":37.7701,"long":-77.3216},{"zip":"23058","city":"Glen Allen","state":"VA","lat":37.5313,"long":-77.4161},{"zip":"23060","city":"Glen Allen","state":"VA","lat":37.6628,"long":-77.534},{"zip":"23075","city":"Henrico","state":"VA","lat":37.546,"long":-77.3278},{"zip":"23081","city":"Jamestown","state":"VA","lat":37.2235,"long":-76.7833},{"zip":"23023","city":"Bruington","state":"VA","lat":37.7801,"long":-76.9402},{"zip":"23085","city":"King And Queen Court House","state":"VA","lat":37.6699,"long":-76.8775},{"zip":"23091","city":"Little Plymouth","state":"VA","lat":37.6642,"long":-76.8255},{"zip":"23009","city":"Aylett","state":"VA","lat":37.8221,"long":-77.1885},{"zip":"23086","city":"King William","state":"VA","lat":37.7202,"long":-77.0998},{"zip":"23024","city":"Bumpass","state":"VA","lat":37.8984,"long":-77.7966},{"zip":"23093","city":"Louisa","state":"VA","lat":38.0132,"long":-78.0347},{"zip":"23021","city":"Bohannon","state":"VA","lat":37.3905,"long":-76.3614},{"zip":"23025","city":"Cardinal","state":"VA","lat":37.4128,"long":-76.3616},{"zip":"23035","city":"Cobbs Creek","state":"VA","lat":37.4959,"long":-76.3863},{"zip":"23045","city":"Diggs","state":"VA","lat":37.4296,"long":-76.2629},{"zip":"23056","city":"Foster","state":"VA","lat":37.4529,"long":-76.3849},{"zip":"23064","city":"Grimstead","state":"VA","lat":37.4961,"long":-76.3},{"zip":"23066","city":"Gwynn","state":"VA","lat":37.5043,"long":-76.2886},{"zip":"23068","city":"Hallieford","state":"VA","lat":37.4937,"long":-76.3402},{"zip":"23076","city":"Hudgins","state":"VA","lat":37.4766,"long":-76.3089},{"zip":"23031","city":"Christchurch","state":"VA","lat":37.5984,"long":-76.4476},{"zip":"23032","city":"Church View","state":"VA","lat":37.675,"long":-76.6629},{"zip":"23043","city":"Deltaville","state":"VA","lat":37.5549,"long":-76.3468},{"zip":"23070","city":"Hardyville","state":"VA","lat":37.5512,"long":-76.3844},{"zip":"23071","city":"Hartfield","state":"VA","lat":37.5594,"long":-76.4769},{"zip":"23079","city":"Jamaica","state":"VA","lat":37.73,"long":-76.689},{"zip":"23092","city":"Locust Hill","state":"VA","lat":37.5826,"long":-76.4984},{"zip":"23011","city":"Barhamsville","state":"VA","lat":37.4617,"long":-76.8321},{"zip":"23089","city":"Lanexa","state":"VA","lat":37.4194,"long":-76.9027},{"zip":"23090","city":"Lightfoot","state":"VA","lat":37.3407,"long":-76.7544}]
