[{"zip":"23105","city":"Mannboro","state":"VA","lat":37.345,"long":-77.9449},{"zip":"23123","city":"New Canton","state":"VA","lat":37.6645,"long":-78.3112},{"zip":"23147","city":"Ruthville","state":"VA","lat":37.3796,"long":-77.0348},{"zip":"23112","city":"Midlothian","state":"VA","lat":37.431,"long":-77.6545},{"zip":"23113","city":"Midlothian","state":"VA","lat":37.5109,"long":-77.6429},{"zip":"23114","city":"Midlothian","state":"VA","lat":37.4815,"long":-77.6419},{"zip":"23120","city":"Moseley","state":"VA","lat":37.426,"long":-77.7585},{"zip":"23115","city":"Millers Tavern","state":"VA","lat":37.8364,"long":-76.9138},{"zip":"23107","city":"Maryus","state":"VA","lat":37.2864,"long":-76.4048},{"zip":"23131","city":"Ordinary","state":"VA","lat":37.3122,"long":-76.5188},{"zip":"23154","city":"Schley","state":"VA","lat":37.3896,"long":-76.4549},{"zip":"23155","city":"Severn","state":"VA","lat":37.4182,"long":-76.5084},{"zip":"23178","city":"Ware Neck","state":"VA","lat":37.4004,"long":-76.4529},{"zip":"23183","city":"White Marsh","state":"VA","lat":37.3632,"long":-76.5325},{"zip":"23184","city":"Wicomico","state":"VA","lat":37.291,"long":-76.5094},{"zip":"23190","city":"Woods Cross Roads","state":"VA","lat":37.482,"long":-76.6362},{"zip":"23102","city":"Maidens","state":"VA","lat":37.7126,"long":-77.8315},{"zip":"23103","city":"Manakin Sabot","state":"VA","lat":37.638,"long":-77.7077},{"zip":"23129","city":"Oilville","state":"VA","lat":37.704,"long":-77.7853},{"zip":"23153","city":"Sandy Hook","state":"VA","lat":37.7526,"long":-77.9125},{"zip":"23160","city":"State Farm","state":"VA","lat":37.6454,"long":-77.8283},{"zip":"23111","city":"Mechanicsville","state":"VA","lat":37.6281,"long":-77.3395},{"zip":"23116","city":"Mechanicsville","state":"VA","lat":37.6691,"long":-77.3294},{"zip":"23146","city":"Rockville","state":"VA","lat":37.7337,"long":-77.7},{"zip":"23162","city":"Studley","state":"VA","lat":37.6757,"long":-77.2908},{"zip":"23192","city":"Montpelier","state":"VA","lat":37.8177,"long":-77.6924},{"zip":"23150","city":"Sandston","state":"VA","lat":37.5157,"long":-77.2758},{"zip":"23127","city":"Norge","state":"VA","lat":37.3688,"long":-76.7705},{"zip":"23168","city":"Toano","state":"VA","lat":37.3901,"long":-76.8253},{"zip":"23185","city":"Williamsburg","state":"VA","lat":37.2732,"long":-76.7324},{"zip":"23188","city":"Williamsburg","state":"VA","lat":37.3178,"long":-76.7634},{"zip":"23108","city":"Mascot","state":"VA","lat":37.6271,"long":-76.7072},{"zip":"23110","city":"Mattaponi","state":"VA","lat":37.6135,"long":-76.8101},{"zip":"23126","city":"Newtown","state":"VA","lat":37.9226,"long":-77.1449},{"zip":"23148","city":"Saint Stephens Church","state":"VA","lat":37.8479,"long":-77.055},{"zip":"23156","city":"Shacklefords","state":"VA","lat":37.5213,"long":-76.7099},{"zip":"23161","city":"Stevensville","state":"VA","lat":37.7146,"long":-76.9352},{"zip":"23177","city":"Walkerton","state":"VA","lat":37.7554,"long":-77.0185},{"zip":"23106","city":"Manquin","state":"VA","lat":37.7184,"long":-77.186},{"zip":"23181","city":"West Point","state":"VA","lat":37.5556,"long":-76.8237},{"zip":"23117","city":"Mineral","state":"VA","lat":37.9986,"long":-77.8781},{"zip":"23170","city":"Trevilians","state":"VA","lat":38.0515,"long":-78.0728},{"zip":"23109","city":"Mathews","state":"VA","lat":37.4383,"long":-76.3544},{"zip":"23119","city":"Moon","state":"VA","lat":37.4487,"long":-76.2766},{"zip":"23125","city":"New Point","state":"VA","lat":37.3438,"long":-76.2878},{"zip":"23128","city":"North","state":"VA","lat":37.4401,"long":-76.4238},{"zip":"23130","city":"Onemo","state":"VA","lat":37.3985,"long":-76.2941},{"zip":"23138","city":"Port Haywood","state":"VA","lat":37.386,"long":-76.3172},{"zip":"23163","city":"Susan","state":"VA","lat":37.3508,"long":-76.3161},{"zip":"23149","city":"Saluda","state":"VA","lat":37.5949,"long":-76.5921},{"zip":"23169","city":"Topping","state":"VA","lat":37.6009,"long":-76.4575},{"zip":"23175","city":"Urbanna","state":"VA","lat":37.6356,"long":-76.5918},{"zip":"23176","city":"Wake","state":"VA","lat":37.5681,"long":-76.4323},{"zip":"23180","city":"Water View","state":"VA","lat":37.7105,"long":-76.6227},{"zip":"23124","city":"New Kent","state":"VA","lat":37.553,"long":-77.0742},{"zip":"23140","city":"Providence Forge","state":"VA","lat":37.4418,"long":-77.0436},{"zip":"23141","city":"Quinton","state":"VA","lat":37.5185,"long":-77.1486},{"zip":"23139","city":"Powhatan","state":"VA","lat":37.5421,"long":-77.9189},{"zip":"23173","city":"Richmond","state":"VA","lat":37.5538,"long":-77.4603},{"zip":"23186","city":"Williamsburg","state":"VA","lat":37.3105,"long":-76.7468},{"zip":"23187","city":"Williamsburg","state":"VA","lat":37.3105,"long":-76.7468}]
