[{"zip":"23234","city":"Richmond","state":"VA","lat":37.4373,"long":-77.4788},{"zip":"23235","city":"Richmond","state":"VA","lat":37.5133,"long":-77.5646},{"zip":"23236","city":"Richmond","state":"VA","lat":37.4782,"long":-77.5854},{"zip":"23237","city":"Richmond","state":"VA","lat":37.4011,"long":-77.4615},{"zip":"23297","city":"Richmond","state":"VA","lat":37.3897,"long":-77.5613},{"zip":"23226","city":"Richmond","state":"VA","lat":37.5825,"long":-77.5197},{"zip":"23227","city":"Richmond","state":"VA","lat":37.6247,"long":-77.4351},{"zip":"23228","city":"Henrico","state":"VA","lat":37.4638,"long":-77.398},{"zip":"23229","city":"Henrico","state":"VA","lat":37.4638,"long":-77.398},{"zip":"23230","city":"Richmond","state":"VA","lat":37.5921,"long":-77.4952},{"zip":"23231","city":"Henrico","state":"VA","lat":37.4638,"long":-77.398},{"zip":"23233","city":"Henrico","state":"VA","lat":37.4638,"long":-77.398},{"zip":"23238","city":"Henrico","state":"VA","lat":37.52,"long":-77.4369},{"zip":"23242","city":"Henrico","state":"VA","lat":37.4638,"long":-77.398},{"zip":"23250","city":"Richmond","state":"VA","lat":37.5075,"long":-77.3329},{"zip":"23255","city":"Henrico","state":"VA","lat":37.4638,"long":-77.398},{"zip":"23288","city":"Henrico","state":"VA","lat":37.4638,"long":-77.398},{"zip":"23289","city":"Richmond","state":"VA","lat":37.5313,"long":-77.4161},{"zip":"23294","city":"Henrico","state":"VA","lat":37.4638,"long":-77.398},{"zip":"23218","city":"Richmond","state":"VA","lat":37.5242,"long":-77.4932},{"zip":"23219","city":"Richmond","state":"VA","lat":37.5463,"long":-77.4378},{"zip":"23220","city":"Richmond","state":"VA","lat":37.5498,"long":-77.4588},{"zip":"23221","city":"Richmond","state":"VA","lat":37.5583,"long":-77.4845},{"zip":"23222","city":"Richmond","state":"VA","lat":37.5748,"long":-77.4267},{"zip":"23223","city":"Richmond","state":"VA","lat":37.5477,"long":-77.3948},{"zip":"23224","city":"Richmond","state":"VA","lat":37.4955,"long":-77.471},{"zip":"23225","city":"Richmond","state":"VA","lat":37.5158,"long":-77.5047},{"zip":"23232","city":"Richmond","state":"VA","lat":37.5202,"long":-77.4084},{"zip":"23241","city":"Richmond","state":"VA","lat":37.5242,"long":-77.4932},{"zip":"23249","city":"Richmond","state":"VA","lat":37.5242,"long":-77.4932},{"zip":"23260","city":"Richmond","state":"VA","lat":37.5538,"long":-77.4603},{"zip":"23261","city":"Richmond","state":"VA","lat":37.5538,"long":-77.4603},{"zip":"23269","city":"Richmond","state":"VA","lat":37.5538,"long":-77.4603},{"zip":"23273","city":"Henrico","state":"VA","lat":37.5302,"long":-77.4753},{"zip":"23274","city":"Richmond","state":"VA","lat":37.5242,"long":-77.4932},{"zip":"23276","city":"Richmond","state":"VA","lat":37.5242,"long":-77.4932},{"zip":"23278","city":"Richmond","state":"VA","lat":37.5242,"long":-77.4932},{"zip":"23279","city":"Richmond","state":"VA","lat":37.5242,"long":-77.4932},{"zip":"23282","city":"Richmond","state":"VA","lat":37.5538,"long":-77.4603},{"zip":"23284","city":"Richmond","state":"VA","lat":37.5494,"long":-77.4512},{"zip":"23285","city":"Richmond","state":"VA","lat":37.5242,"long":-77.4932},{"zip":"23286","city":"Richmond","state":"VA","lat":37.5242,"long":-77.4932},{"zip":"23290","city":"Richmond","state":"VA","lat":37.5242,"long":-77.4932},{"zip":"23291","city":"Richmond","state":"VA","lat":37.5242,"long":-77.4932},{"zip":"23292","city":"Richmond","state":"VA","lat":37.5242,"long":-77.4932},{"zip":"23293","city":"Richmond","state":"VA","lat":37.5242,"long":-77.4932},{"zip":"23295","city":"Richmond","state":"VA","lat":37.5532,"long":-77.4621},{"zip":"23298","city":"Richmond","state":"VA","lat":37.5406,"long":-77.4316}]
