[{"zip":"23301","city":"Accomac","state":"VA","lat":37.7159,"long":-75.6803},{"zip":"23302","city":"Assawoman","state":"VA","lat":37.8658,"long":-75.5277},{"zip":"23303","city":"Atlantic","state":"VA","lat":37.9073,"long":-75.5089},{"zip":"23306","city":"Belle Haven","state":"VA","lat":37.5645,"long":-75.8694},{"zip":"23308","city":"Bloxom","state":"VA","lat":37.8273,"long":-75.6156},{"zip":"23336","city":"Chincoteague Island","state":"VA","lat":37.9299,"long":-75.3624},{"zip":"23337","city":"Wallops Island","state":"VA","lat":37.9186,"long":-75.4905},{"zip":"23341","city":"Craddockville","state":"VA","lat":37.5773,"long":-75.8646},{"zip":"23345","city":"Davis Wharf","state":"VA","lat":37.5529,"long":-75.878},{"zip":"23356","city":"Greenbackville","state":"VA","lat":38.0064,"long":-75.4029},{"zip":"23357","city":"Greenbush","state":"VA","lat":37.7681,"long":-75.6664},{"zip":"23358","city":"Hacksneck","state":"VA","lat":37.6393,"long":-75.865},{"zip":"23359","city":"Hallwood","state":"VA","lat":37.8837,"long":-75.6041},{"zip":"23389","city":"Harborton","state":"VA","lat":37.6618,"long":-75.8305},{"zip":"23395","city":"Horntown","state":"VA","lat":37.9699,"long":-75.4716},{"zip":"23396","city":"Oak Hall","state":"VA","lat":37.9237,"long":-75.5551},{"zip":"23399","city":"Jenkins Bridge","state":"VA","lat":37.9162,"long":-75.6168},{"zip":"23304","city":"Battery Park","state":"VA","lat":36.9965,"long":-76.5741},{"zip":"23314","city":"Carrollton","state":"VA","lat":36.955,"long":-76.543},{"zip":"23315","city":"Carrsville","state":"VA","lat":36.7454,"long":-76.8365},{"zip":"23397","city":"Isle Of Wight","state":"VA","lat":36.8989,"long":-76.6877},{"zip":"23307","city":"Birdsnest","state":"VA","lat":37.439,"long":-75.881},{"zip":"23310","city":"Cape Charles","state":"VA","lat":37.2799,"long":-75.9721},{"zip":"23313","city":"Capeville","state":"VA","lat":37.2019,"long":-75.9524},{"zip":"23316","city":"Cheriton","state":"VA","lat":37.2896,"long":-75.9713},{"zip":"23347","city":"Eastville","state":"VA","lat":37.3526,"long":-75.9458},{"zip":"23350","city":"Exmore","state":"VA","lat":37.5117,"long":-75.8526},{"zip":"23354","city":"Franktown","state":"VA","lat":37.4588,"long":-75.9007},{"zip":"23398","city":"Jamesville","state":"VA","lat":37.5343,"long":-75.8771},{"zip":"23320","city":"Chesapeake","state":"VA","lat":36.7352,"long":-76.2384},{"zip":"23321","city":"Chesapeake","state":"VA","lat":36.8012,"long":-76.423},{"zip":"23322","city":"Chesapeake","state":"VA","lat":36.6434,"long":-76.242},{"zip":"23323","city":"Chesapeake","state":"VA","lat":36.7634,"long":-76.3397},{"zip":"23324","city":"Chesapeake","state":"VA","lat":36.8056,"long":-76.2666},{"zip":"23325","city":"Chesapeake","state":"VA","lat":36.814,"long":-76.2406},{"zip":"23326","city":"Chesapeake","state":"VA","lat":36.777,"long":-76.2394},{"zip":"23327","city":"Chesapeake","state":"VA","lat":36.7085,"long":-76.2785},{"zip":"23328","city":"Chesapeake","state":"VA","lat":36.7085,"long":-76.2785}]
