[{"zip":"23401","city":"Keller","state":"VA","lat":37.6193,"long":-75.7638},{"zip":"23404","city":"Locustville","state":"VA","lat":37.6534,"long":-75.6735},{"zip":"23407","city":"Mappsville","state":"VA","lat":37.846,"long":-75.5666},{"zip":"23409","city":"Mears","state":"VA","lat":37.8692,"long":-75.6354},{"zip":"23410","city":"Melfa","state":"VA","lat":37.6407,"long":-75.7454},{"zip":"23412","city":"Modest Town","state":"VA","lat":37.7904,"long":-75.6035},{"zip":"23414","city":"Nelsonia","state":"VA","lat":37.8169,"long":-75.5832},{"zip":"23415","city":"New Church","state":"VA","lat":37.9525,"long":-75.5112},{"zip":"23416","city":"Oak Hall","state":"VA","lat":37.9229,"long":-75.5386},{"zip":"23417","city":"Onancock","state":"VA","lat":37.7102,"long":-75.7528},{"zip":"23418","city":"Onley","state":"VA","lat":37.6704,"long":-75.6992},{"zip":"23420","city":"Painter","state":"VA","lat":37.5828,"long":-75.8066},{"zip":"23421","city":"Parksley","state":"VA","lat":37.7744,"long":-75.6386},{"zip":"23422","city":"Pungoteague","state":"VA","lat":37.6304,"long":-75.8135},{"zip":"23423","city":"Quinby","state":"VA","lat":37.5423,"long":-75.7412},{"zip":"23426","city":"Sanford","state":"VA","lat":37.9229,"long":-75.6781},{"zip":"23427","city":"Saxis","state":"VA","lat":37.9264,"long":-75.722},{"zip":"23440","city":"Tangier","state":"VA","lat":37.8245,"long":-75.993},{"zip":"23441","city":"Tasley","state":"VA","lat":37.7104,"long":-75.7005},{"zip":"23442","city":"Temperanceville","state":"VA","lat":37.8954,"long":-75.5528},{"zip":"23480","city":"Wachapreague","state":"VA","lat":37.6044,"long":-75.6925},{"zip":"23483","city":"Wattsville","state":"VA","lat":37.9437,"long":-75.5023},{"zip":"23488","city":"Withams","state":"VA","lat":37.9482,"long":-75.6019},{"zip":"23424","city":"Rescue","state":"VA","lat":36.9969,"long":-76.5645},{"zip":"23430","city":"Smithfield","state":"VA","lat":36.9811,"long":-76.6368},{"zip":"23431","city":"Smithfield","state":"VA","lat":36.8989,"long":-76.6877},{"zip":"23487","city":"Windsor","state":"VA","lat":36.8369,"long":-76.7324},{"zip":"23405","city":"Machipongo","state":"VA","lat":37.4014,"long":-75.9082},{"zip":"23408","city":"Marionville","state":"VA","lat":37.4556,"long":-75.8473},{"zip":"23413","city":"Nassawadox","state":"VA","lat":37.4728,"long":-75.858},{"zip":"23419","city":"Oyster","state":"VA","lat":37.3074,"long":-75.9269},{"zip":"23429","city":"Seaview","state":"VA","lat":37.2711,"long":-75.9536},{"zip":"23443","city":"Townsend","state":"VA","lat":37.1882,"long":-75.969},{"zip":"23482","city":"Wardtown","state":"VA","lat":37.5349,"long":-75.8769},{"zip":"23486","city":"Willis Wharf","state":"VA","lat":37.5157,"long":-75.8066},{"zip":"23432","city":"Suffolk","state":"VA","lat":36.8668,"long":-76.5598},{"zip":"23433","city":"Suffolk","state":"VA","lat":36.909,"long":-76.4929},{"zip":"23434","city":"Suffolk","state":"VA","lat":36.7304,"long":-76.5931},{"zip":"23435","city":"Suffolk","state":"VA","lat":36.8544,"long":-76.4664},{"zip":"23436","city":"Suffolk","state":"VA","lat":36.8926,"long":-76.5142},{"zip":"23437","city":"Suffolk","state":"VA","lat":36.6526,"long":-76.792},{"zip":"23438","city":"Suffolk","state":"VA","lat":36.5913,"long":-76.6871},{"zip":"23439","city":"Suffolk","state":"VA","lat":36.7461,"long":-76.6653},{"zip":"23453","city":"Virginia Beach","state":"VA","lat":36.776,"long":-76.0766},{"zip":"23450","city":"Virginia Beach","state":"VA","lat":36.844,"long":-76.1204},{"zip":"23451","city":"Virginia Beach","state":"VA","lat":36.8585,"long":-76.0019},{"zip":"23452","city":"Virginia Beach","state":"VA","lat":36.8348,"long":-76.0961},{"zip":"23454","city":"Virginia Beach","state":"VA","lat":36.8282,"long":-76.0237},{"zip":"23455","city":"Virginia Beach","state":"VA","lat":36.8881,"long":-76.1446},{"zip":"23456","city":"Virginia Beach","state":"VA","lat":36.7341,"long":-76.0359},{"zip":"23457","city":"Virginia Beach","state":"VA","lat":36.6224,"long":-76.0249},{"zip":"23458","city":"Virginia Beach","state":"VA","lat":36.8529,"long":-75.978},{"zip":"23459","city":"Virginia Beach","state":"VA","lat":36.9216,"long":-76.0171},{"zip":"23460","city":"Virginia Beach","state":"VA","lat":36.808,"long":-76.0284},{"zip":"23461","city":"Virginia Beach","state":"VA","lat":36.7754,"long":-75.9633},{"zip":"23462","city":"Virginia Beach","state":"VA","lat":36.8392,"long":-76.1522},{"zip":"23463","city":"Virginia Beach","state":"VA","lat":36.7957,"long":-76.0126},{"zip":"23464","city":"Virginia Beach","state":"VA","lat":36.7978,"long":-76.1759},{"zip":"23465","city":"Virginia Beach","state":"VA","lat":36.8512,"long":-76.1692},{"zip":"23466","city":"Virginia Beach","state":"VA","lat":36.7957,"long":-76.0126},{"zip":"23467","city":"Virginia Beach","state":"VA","lat":36.7957,"long":-76.0126},{"zip":"23471","city":"Virginia Beach","state":"VA","lat":36.7957,"long":-76.0126},{"zip":"23479","city":"Virginia Beach","state":"VA","lat":36.7957,"long":-76.0126}]
