[{"zip":"23501","city":"Norfolk","state":"VA","lat":36.8959,"long":-76.2085},{"zip":"23502","city":"Norfolk","state":"VA","lat":36.8546,"long":-76.2143},{"zip":"23503","city":"Norfolk","state":"VA","lat":36.9442,"long":-76.252},{"zip":"23504","city":"Norfolk","state":"VA","lat":36.8586,"long":-76.2686},{"zip":"23505","city":"Norfolk","state":"VA","lat":36.9168,"long":-76.2875},{"zip":"23506","city":"Norfolk","state":"VA","lat":36.9312,"long":-76.2397},{"zip":"23507","city":"Norfolk","state":"VA","lat":36.8645,"long":-76.3004},{"zip":"23508","city":"Norfolk","state":"VA","lat":36.8859,"long":-76.3004},{"zip":"23509","city":"Norfolk","state":"VA","lat":36.8787,"long":-76.2604},{"zip":"23510","city":"Norfolk","state":"VA","lat":36.8529,"long":-76.2878},{"zip":"23511","city":"Norfolk","state":"VA","lat":36.9356,"long":-76.3034},{"zip":"23513","city":"Norfolk","state":"VA","lat":36.8914,"long":-76.2396},{"zip":"23514","city":"Norfolk","state":"VA","lat":36.8468,"long":-76.2852},{"zip":"23515","city":"Norfolk","state":"VA","lat":36.9312,"long":-76.2397},{"zip":"23517","city":"Norfolk","state":"VA","lat":36.8695,"long":-76.2945},{"zip":"23518","city":"Norfolk","state":"VA","lat":36.9202,"long":-76.216},{"zip":"23519","city":"Norfolk","state":"VA","lat":36.9312,"long":-76.2397},{"zip":"23523","city":"Norfolk","state":"VA","lat":36.8294,"long":-76.2701},{"zip":"23529","city":"Norfolk","state":"VA","lat":36.9312,"long":-76.2397},{"zip":"23541","city":"Norfolk","state":"VA","lat":36.9312,"long":-76.2397},{"zip":"23551","city":"Norfolk","state":"VA","lat":36.9312,"long":-76.2397}]
