[{"zip":"23690","city":"Yorktown","state":"VA","lat":37.2287,"long":-76.5423},{"zip":"23691","city":"Yorktown","state":"VA","lat":37.2517,"long":-76.552},{"zip":"23692","city":"Yorktown","state":"VA","lat":37.1686,"long":-76.4581},{"zip":"23693","city":"Yorktown","state":"VA","lat":37.1256,"long":-76.4469},{"zip":"23694","city":"Lackey","state":"VA","lat":37.2232,"long":-76.559},{"zip":"23696","city":"Seaford","state":"VA","lat":37.1885,"long":-76.429},{"zip":"23630","city":"Hampton","state":"VA","lat":37.0727,"long":-76.3899},{"zip":"23651","city":"Fort Monroe","state":"VA","lat":37.018,"long":-76.3044},{"zip":"23661","city":"Hampton","state":"VA","lat":37.0074,"long":-76.3801},{"zip":"23663","city":"Hampton","state":"VA","lat":37.0318,"long":-76.3199},{"zip":"23664","city":"Hampton","state":"VA","lat":37.0566,"long":-76.2966},{"zip":"23665","city":"Hampton","state":"VA","lat":37.0831,"long":-76.36},{"zip":"23666","city":"Hampton","state":"VA","lat":37.0462,"long":-76.4096},{"zip":"23667","city":"Hampton","state":"VA","lat":37.0193,"long":-76.3318},{"zip":"23668","city":"Hampton","state":"VA","lat":37.0206,"long":-76.3377},{"zip":"23669","city":"Hampton","state":"VA","lat":37.0436,"long":-76.3426},{"zip":"23670","city":"Hampton","state":"VA","lat":37.0727,"long":-76.3899},{"zip":"23681","city":"Hampton","state":"VA","lat":37.0727,"long":-76.3899},{"zip":"23601","city":"Newport News","state":"VA","lat":37.058,"long":-76.4607},{"zip":"23602","city":"Newport News","state":"VA","lat":37.1132,"long":-76.5179},{"zip":"23603","city":"Newport News","state":"VA","lat":37.1989,"long":-76.5821},{"zip":"23604","city":"Fort Eustis","state":"VA","lat":37.1574,"long":-76.5845},{"zip":"23605","city":"Newport News","state":"VA","lat":37.0156,"long":-76.4332},{"zip":"23606","city":"Newport News","state":"VA","lat":37.0768,"long":-76.4967},{"zip":"23607","city":"Newport News","state":"VA","lat":36.9864,"long":-76.4165},{"zip":"23608","city":"Newport News","state":"VA","lat":37.1526,"long":-76.542},{"zip":"23609","city":"Newport News","state":"VA","lat":37.1959,"long":-76.5248},{"zip":"23612","city":"Newport News","state":"VA","lat":37.1959,"long":-76.5248},{"zip":"23628","city":"Newport News","state":"VA","lat":37.1959,"long":-76.5248},{"zip":"23662","city":"Poquoson","state":"VA","lat":37.1313,"long":-76.3807}]
