[{"zip":"23821","city":"Alberta","state":"VA","lat":36.8806,"long":-77.9055},{"zip":"23843","city":"Dolphin","state":"VA","lat":36.8318,"long":-77.7887},{"zip":"23845","city":"Ebony","state":"VA","lat":36.5722,"long":-77.9888},{"zip":"23856","city":"Freeman","state":"VA","lat":36.7893,"long":-77.7208},{"zip":"23857","city":"Gasburg","state":"VA","lat":36.5856,"long":-77.8836},{"zip":"23868","city":"Lawrenceville","state":"VA","lat":36.7342,"long":-77.8136},{"zip":"23873","city":"Meredithville","state":"VA","lat":36.8088,"long":-77.9544},{"zip":"23876","city":"Rawlings","state":"VA","lat":36.953,"long":-77.8237},{"zip":"23887","city":"Valentines","state":"VA","lat":36.565,"long":-77.8384},{"zip":"23889","city":"Warfield","state":"VA","lat":36.9011,"long":-77.7673},{"zip":"23893","city":"White Plains","state":"VA","lat":36.6335,"long":-77.9592},{"zip":"23831","city":"Chester","state":"VA","lat":37.3429,"long":-77.4156},{"zip":"23832","city":"Chesterfield","state":"VA","lat":37.3923,"long":-77.5668},{"zip":"23836","city":"Chester","state":"VA","lat":37.3475,"long":-77.3386},{"zip":"23838","city":"Chesterfield","state":"VA","lat":37.3333,"long":-77.6343},{"zip":"23822","city":"Ammon","state":"VA","lat":37.0724,"long":-77.6475},{"zip":"23830","city":"Carson","state":"VA","lat":37.0393,"long":-77.4351},{"zip":"23833","city":"Church Road","state":"VA","lat":37.195,"long":-77.6646},{"zip":"23840","city":"Dewitt","state":"VA","lat":37.0535,"long":-77.6426},{"zip":"23841","city":"Dinwiddie","state":"VA","lat":37.0833,"long":-77.5585},{"zip":"23850","city":"Ford","state":"VA","lat":37.1349,"long":-77.7364},{"zip":"23872","city":"Mc Kenney","state":"VA","lat":36.9986,"long":-77.7396},{"zip":"23885","city":"Sutherland","state":"VA","lat":37.1901,"long":-77.5655},{"zip":"23894","city":"Wilsons","state":"VA","lat":37.1157,"long":-77.8352},{"zip":"23870","city":"Jarratt","state":"VA","lat":36.8143,"long":-77.4683},{"zip":"23879","city":"Skippers","state":"VA","lat":36.5958,"long":-77.5921},{"zip":"23898","city":"Zuni","state":"VA","lat":36.8437,"long":-76.811},{"zip":"23824","city":"Blackstone","state":"VA","lat":37.0916,"long":-77.9851},{"zip":"23801","city":"Fort Lee","state":"VA","lat":37.2447,"long":-77.3341},{"zip":"23842","city":"Disputanta","state":"VA","lat":37.1483,"long":-77.2732},{"zip":"23875","city":"Prince George","state":"VA","lat":37.2333,"long":-77.2747},{"zip":"23827","city":"Boykins","state":"VA","lat":36.5951,"long":-77.1975},{"zip":"23828","city":"Branchville","state":"VA","lat":36.5787,"long":-77.2704},{"zip":"23829","city":"Capron","state":"VA","lat":36.7243,"long":-77.2394},{"zip":"23837","city":"Courtland","state":"VA","lat":36.7225,"long":-77.0783},{"zip":"23844","city":"Drewryville","state":"VA","lat":36.6854,"long":-77.3591},{"zip":"23866","city":"Ivor","state":"VA","lat":36.9071,"long":-76.8861},{"zip":"23874","city":"Newsoms","state":"VA","lat":36.6148,"long":-77.1069},{"zip":"23878","city":"Sedley","state":"VA","lat":36.776,"long":-76.9841},{"zip":"23839","city":"Dendron","state":"VA","lat":37.0981,"long":-76.8966},{"zip":"23846","city":"Elberon","state":"VA","lat":37.0701,"long":-76.8337},{"zip":"23881","city":"Spring Grove","state":"VA","lat":37.1901,"long":-76.9923},{"zip":"23883","city":"Surry","state":"VA","lat":37.126,"long":-76.7651},{"zip":"23899","city":"Claremont","state":"VA","lat":37.2279,"long":-76.9641},{"zip":"23867","city":"Jarratt","state":"VA","lat":36.8191,"long":-77.4832},{"zip":"23882","city":"Stony Creek","state":"VA","lat":36.9361,"long":-77.4443},{"zip":"23884","city":"Sussex","state":"VA","lat":36.9151,"long":-77.2791},{"zip":"23888","city":"Wakefield","state":"VA","lat":36.9757,"long":-76.979},{"zip":"23890","city":"Waverly","state":"VA","lat":37.025,"long":-77.1055},{"zip":"23891","city":"Waverly","state":"VA","lat":37.0508,"long":-77.2124},{"zip":"23897","city":"Yale","state":"VA","lat":36.8373,"long":-77.287},{"zip":"23834","city":"Colonial Heights","state":"VA","lat":37.27,"long":-77.4038},{"zip":"23847","city":"Emporia","state":"VA","lat":36.6857,"long":-77.563},{"zip":"23851","city":"Franklin","state":"VA","lat":36.6786,"long":-76.9391},{"zip":"23860","city":"Hopewell","state":"VA","lat":37.2876,"long":-77.295},{"zip":"23803","city":"Petersburg","state":"VA","lat":37.2123,"long":-77.4814},{"zip":"23804","city":"Petersburg","state":"VA","lat":37.2048,"long":-77.3928},{"zip":"23805","city":"Petersburg","state":"VA","lat":37.1819,"long":-77.3854},{"zip":"23806","city":"Virginia State University","state":"VA","lat":37.2327,"long":-77.385}]
