[{"zip":"23939","city":"Evergreen","state":"VA","lat":37.3185,"long":-78.7658},{"zip":"23958","city":"Pamplin","state":"VA","lat":37.2653,"long":-78.6517},{"zip":"23920","city":"Brodnax","state":"VA","lat":36.7319,"long":-77.9898},{"zip":"23921","city":"Buckingham","state":"VA","lat":37.5833,"long":-78.5985},{"zip":"23936","city":"Dillwyn","state":"VA","lat":37.4124,"long":-78.4349},{"zip":"23923","city":"Charlotte Court House","state":"VA","lat":37.0879,"long":-78.6378},{"zip":"23934","city":"Cullen","state":"VA","lat":37.1552,"long":-78.6459},{"zip":"23937","city":"Drakes Branch","state":"VA","lat":36.9688,"long":-78.5615},{"zip":"23947","city":"Keysville","state":"VA","lat":37.0411,"long":-78.4699},{"zip":"23959","city":"Phenix","state":"VA","lat":37.0925,"long":-78.7912},{"zip":"23962","city":"Randolph","state":"VA","lat":36.9515,"long":-78.7054},{"zip":"23963","city":"Red House","state":"VA","lat":37.1914,"long":-78.8145},{"zip":"23964","city":"Red Oak","state":"VA","lat":36.7724,"long":-78.6321},{"zip":"23967","city":"Saxe","state":"VA","lat":36.9053,"long":-78.6321},{"zip":"23976","city":"Wylliesburg","state":"VA","lat":36.8391,"long":-78.5982},{"zip":"23938","city":"Dundas","state":"VA","lat":36.9053,"long":-78.01},{"zip":"23941","city":"Fort Mitchell","state":"VA","lat":36.9182,"long":-78.4861},{"zip":"23944","city":"Kenbridge","state":"VA","lat":36.933,"long":-78.1242},{"zip":"23952","city":"Lunenburg","state":"VA","lat":36.9291,"long":-78.2915},{"zip":"23974","city":"Victoria","state":"VA","lat":36.9835,"long":-78.2372},{"zip":"23915","city":"Baskerville","state":"VA","lat":36.7236,"long":-78.279},{"zip":"23917","city":"Boydton","state":"VA","lat":36.6544,"long":-78.3752},{"zip":"23919","city":"Bracey","state":"VA","lat":36.5763,"long":-78.1059},{"zip":"23924","city":"Chase City","state":"VA","lat":36.8053,"long":-78.4553},{"zip":"23927","city":"Clarksville","state":"VA","lat":36.624,"long":-78.5569},{"zip":"23950","city":"La Crosse","state":"VA","lat":36.6613,"long":-78.0754},{"zip":"23968","city":"Skipwith","state":"VA","lat":36.7317,"long":-78.5306},{"zip":"23970","city":"South Hill","state":"VA","lat":36.7124,"long":-78.1534},{"zip":"23922","city":"Burkeville","state":"VA","lat":37.1952,"long":-78.1961},{"zip":"23930","city":"Crewe","state":"VA","lat":37.1657,"long":-78.1059},{"zip":"23955","city":"Nottoway","state":"VA","lat":37.1161,"long":-78.0578},{"zip":"23901","city":"Farmville","state":"VA","lat":37.3027,"long":-78.4076},{"zip":"23909","city":"Farmville","state":"VA","lat":37.3016,"long":-78.3949},{"zip":"23942","city":"Green Bay","state":"VA","lat":37.1234,"long":-78.3072},{"zip":"23943","city":"Hampden Sydney","state":"VA","lat":37.2381,"long":-78.4618},{"zip":"23954","city":"Meherrin","state":"VA","lat":37.1013,"long":-78.3874},{"zip":"23960","city":"Prospect","state":"VA","lat":37.3058,"long":-78.5462},{"zip":"23966","city":"Rice","state":"VA","lat":37.2721,"long":-78.2793}]
