[{"zip":"24562","city":"Howardsville","state":"VA","lat":37.7511,"long":-78.6313},{"zip":"24590","city":"Scottsville","state":"VA","lat":37.8049,"long":-78.474},{"zip":"24422","city":"Clifton Forge","state":"VA","lat":37.8203,"long":-79.8054},{"zip":"24448","city":"Iron Gate","state":"VA","lat":37.7965,"long":-79.786},{"zip":"24457","city":"Low Moor","state":"VA","lat":37.7887,"long":-79.8837},{"zip":"24474","city":"Selma","state":"VA","lat":37.8062,"long":-79.8404},{"zip":"24521","city":"Amherst","state":"VA","lat":37.6027,"long":-79.0506},{"zip":"24533","city":"Clifford","state":"VA","lat":37.538,"long":-78.9463},{"zip":"24572","city":"Madison Heights","state":"VA","lat":37.4531,"long":-79.1141},{"zip":"24574","city":"Monroe","state":"VA","lat":37.5414,"long":-79.1703},{"zip":"24595","city":"Sweet Briar","state":"VA","lat":37.5674,"long":-79.0756},{"zip":"24522","city":"Appomattox","state":"VA","lat":37.353,"long":-78.8224},{"zip":"24593","city":"Spout Spring","state":"VA","lat":37.3643,"long":-78.9059},{"zip":"24411","city":"Augusta Springs","state":"VA","lat":38.0917,"long":-79.3224},{"zip":"24421","city":"Churchville","state":"VA","lat":38.2346,"long":-79.1791},{"zip":"24430","city":"Craigsville","state":"VA","lat":38.0768,"long":-79.3619},{"zip":"24431","city":"Crimora","state":"VA","lat":38.1684,"long":-78.8413},{"zip":"24432","city":"Deerfield","state":"VA","lat":38.1842,"long":-79.4152},{"zip":"24437","city":"Fort Defiance","state":"VA","lat":38.2109,"long":-78.9326},{"zip":"24440","city":"Greenville","state":"VA","lat":38.0018,"long":-79.1359},{"zip":"24459","city":"Middlebrook","state":"VA","lat":38.0242,"long":-79.2812},{"zip":"24463","city":"Mint Spring","state":"VA","lat":38.1797,"long":-79.1413},{"zip":"24467","city":"Mount Sidney","state":"VA","lat":38.2612,"long":-78.973},{"zip":"24469","city":"New Hope","state":"VA","lat":38.1979,"long":-78.9059},{"zip":"24476","city":"Steeles Tavern","state":"VA","lat":37.9705,"long":-79.2233},{"zip":"24477","city":"Stuarts Draft","state":"VA","lat":38.0144,"long":-79.0298},{"zip":"24479","city":"Swoope","state":"VA","lat":38.1591,"long":-79.1873},{"zip":"24482","city":"Verona","state":"VA","lat":38.2037,"long":-79.0059},{"zip":"24485","city":"West Augusta","state":"VA","lat":38.2744,"long":-79.3201},{"zip":"24486","city":"Weyers Cave","state":"VA","lat":38.2931,"long":-78.9235},{"zip":"24412","city":"Bacova","state":"VA","lat":38.054,"long":-79.8437},{"zip":"24445","city":"Hot Springs","state":"VA","lat":37.9638,"long":-79.8717},{"zip":"24460","city":"Millboro","state":"VA","lat":38.0553,"long":-79.7464},{"zip":"24484","city":"Warm Springs","state":"VA","lat":38.1437,"long":-79.8207},{"zip":"24487","city":"Williamsville","state":"VA","lat":38.1898,"long":-79.5879},{"zip":"24095","city":"Goodview","state":"VA","lat":37.2123,"long":-79.7429},{"zip":"24101","city":"Hardy","state":"VA","lat":37.2145,"long":-79.8127},{"zip":"24104","city":"Huddleston","state":"VA","lat":37.1442,"long":-79.491},{"zip":"24121","city":"Moneta","state":"VA","lat":37.1784,"long":-79.6521},{"zip":"24122","city":"Montvale","state":"VA","lat":37.407,"long":-79.7175},{"zip":"24174","city":"Thaxton","state":"VA","lat":37.36,"long":-79.6522},{"zip":"24178","city":"Villamont","state":"VA","lat":37.3105,"long":-79.7898},{"zip":"24526","city":"Big Island","state":"VA","lat":37.5306,"long":-79.3827},{"zip":"24536","city":"Coleman Falls","state":"VA","lat":37.4887,"long":-79.3158},{"zip":"24551","city":"Forest","state":"VA","lat":37.3379,"long":-79.2791},{"zip":"24556","city":"Goode","state":"VA","lat":37.3755,"long":-79.4039},{"zip":"24570","city":"Lowry","state":"VA","lat":37.3484,"long":-79.4271},{"zip":"24314","city":"Bastian","state":"VA","lat":37.1574,"long":-81.1989},{"zip":"24315","city":"Bland","state":"VA","lat":37.1376,"long":-81.0201},{"zip":"24318","city":"Ceres","state":"VA","lat":37.0046,"long":-81.3643},{"zip":"24366","city":"Rocky Gap","state":"VA","lat":37.2578,"long":-81.1159},{"zip":"24019","city":"Roanoke","state":"VA","lat":37.3515,"long":-79.9052},{"zip":"24050","city":"Roanoke","state":"VA","lat":37.5551,"long":-79.7862},{"zip":"24064","city":"Blue Ridge","state":"VA","lat":37.3885,"long":-79.8172},{"zip":"24066","city":"Buchanan","state":"VA","lat":37.5479,"long":-79.7123},{"zip":"24077","city":"Cloverdale","state":"VA","lat":37.3651,"long":-79.9056},{"zip":"24083","city":"Daleville","state":"VA","lat":37.4125,"long":-79.9211},{"zip":"24085","city":"Eagle Rock","state":"VA","lat":37.6667,"long":-79.8172},{"zip":"24090","city":"Fincastle","state":"VA","lat":37.4911,"long":-79.8511},{"zip":"24130","city":"Oriskany","state":"VA","lat":37.6165,"long":-79.9837},{"zip":"24175","city":"Troutville","state":"VA","lat":37.4019,"long":-79.8786},{"zip":"24438","city":"Glen Wilton","state":"VA","lat":37.7529,"long":-79.8189},{"zip":"24239","city":"Davenport","state":"VA","lat":37.1134,"long":-82.1501},{"zip":"24603","city":"Big Rock","state":"VA","lat":37.3532,"long":-82.1968},{"zip":"24614","city":"Grundy","state":"VA","lat":37.2967,"long":-82.1061},{"zip":"24620","city":"Hurley","state":"VA","lat":37.4017,"long":-82.0262},{"zip":"24624","city":"Keen Mountain","state":"VA","lat":37.2023,"long":-81.9862},{"zip":"24627","city":"Mavisdale","state":"VA","lat":37.288,"long":-82.0274},{"zip":"24628","city":"Maxie","state":"VA","lat":37.288,"long":-82.0274},{"zip":"24631","city":"Oakwood","state":"VA","lat":37.2138,"long":-81.9917},{"zip":"24634","city":"Pilgrims Knob","state":"VA","lat":37.2746,"long":-81.9024},{"zip":"24639","city":"Raven","state":"VA","lat":37.1481,"long":-81.8896},{"zip":"24646","city":"Rowe","state":"VA","lat":37.1276,"long":-82.0274},{"zip":"24647","city":"Shortt Gap","state":"VA","lat":37.1573,"long":-81.8729},{"zip":"24656","city":"Vansant","state":"VA","lat":37.1738,"long":-82.1277},{"zip":"24657","city":"Whitewood","state":"VA","lat":37.2251,"long":-81.8605},{"zip":"24658","city":"Wolford","state":"VA","lat":37.288,"long":-82.0274},{"zip":"24513","city":"Lynchburg","state":"VA","lat":37.2458,"long":-79.1335},{"zip":"24517","city":"Altavista","state":"VA","lat":37.1222,"long":-79.2911},{"zip":"24528","city":"Brookneal","state":"VA","lat":37.0827,"long":-78.9227},{"zip":"24538","city":"Concord","state":"VA","lat":37.337,"long":-78.9804},{"zip":"24550","city":"Evington","state":"VA","lat":37.261,"long":-79.2317},{"zip":"24554","city":"Gladys","state":"VA","lat":37.1386,"long":-79.1048},{"zip":"24569","city":"Long Island","state":"VA","lat":37.0644,"long":-79.1219},{"zip":"24571","city":"Lynch Station","state":"VA","lat":37.1528,"long":-79.3297},{"zip":"24576","city":"Naruna","state":"VA","lat":37.2458,"long":-79.1335},{"zip":"24588","city":"Rustburg","state":"VA","lat":37.2545,"long":-79.1215},{"zip":"24317","city":"Cana","state":"VA","lat":36.5957,"long":-80.6705},{"zip":"24325","city":"Dugspur","state":"VA","lat":36.8145,"long":-80.6123},{"zip":"24328","city":"Fancy Gap","state":"VA","lat":36.664,"long":-80.6907},{"zip":"24343","city":"Hillsville","state":"VA","lat":36.7442,"long":-80.7197},{"zip":"24351","city":"Lambsburg","state":"VA","lat":36.5775,"long":-80.7601},{"zip":"24352","city":"Laurel Fork","state":"VA","lat":36.7073,"long":-80.5148},{"zip":"24381","city":"Woodlawn","state":"VA","lat":36.7879,"long":-80.8824},{"zip":"24127","city":"New Castle","state":"VA","lat":37.4871,"long":-80.1704},{"zip":"24131","city":"Paint Bank","state":"VA","lat":37.5745,"long":-80.2544},{"zip":"24217","city":"Bee","state":"VA","lat":37.1014,"long":-82.1856},{"zip":"24220","city":"Birchleaf","state":"VA","lat":37.1394,"long":-82.2433},{"zip":"24226","city":"Clinchco","state":"VA","lat":37.1406,"long":-82.3425},{"zip":"24228","city":"Clintwood","state":"VA","lat":37.1592,"long":-82.4453},{"zip":"24256","city":"Haysi","state":"VA","lat":37.2206,"long":-82.2853},{"zip":"24269","city":"Mc Clure","state":"VA","lat":37.0814,"long":-82.3806},{"zip":"24272","city":"Nora","state":"VA","lat":37.0182,"long":-82.35},{"zip":"24607","city":"Breaks","state":"VA","lat":37.2959,"long":-82.281},{"zip":"24072","city":"Check","state":"VA","lat":37.0446,"long":-80.228},{"zip":"24079","city":"Copper Hill","state":"VA","lat":37.0556,"long":-80.1525},{"zip":"24091","city":"Floyd","state":"VA","lat":36.8957,"long":-80.3275},{"zip":"24105","city":"Indian Valley","state":"VA","lat":36.899,"long":-80.5757},{"zip":"24380","city":"Willis","state":"VA","lat":36.8749,"long":-80.4909},{"zip":"24065","city":"Boones Mill","state":"VA","lat":37.1331,"long":-79.9556},{"zip":"24067","city":"Callaway","state":"VA","lat":37.0285,"long":-80.0496},{"zip":"24088","city":"Ferrum","state":"VA","lat":36.9168,"long":-80.0349},{"zip":"24092","city":"Glade Hill","state":"VA","lat":36.9859,"long":-79.773},{"zip":"24102","city":"Henry","state":"VA","lat":36.8393,"long":-79.9904},{"zip":"24137","city":"Penhook","state":"VA","lat":36.9201,"long":-79.6645},{"zip":"24146","city":"Redwood","state":"VA","lat":37.0069,"long":-79.9139},{"zip":"24151","city":"Rocky Mount","state":"VA","lat":36.9891,"long":-79.884},{"zip":"24176","city":"Union Hall","state":"VA","lat":37.0131,"long":-79.6864},{"zip":"24184","city":"Wirtz","state":"VA","lat":37.0818,"long":-79.7573},{"zip":"24086","city":"Eggleston","state":"VA","lat":37.2743,"long":-80.6343},{"zip":"24093","city":"Glen Lyn","state":"VA","lat":37.3669,"long":-80.8634},{"zip":"24124","city":"Narrows","state":"VA","lat":37.3198,"long":-80.8548},{"zip":"24128","city":"Newport","state":"VA","lat":37.3069,"long":-80.5099},{"zip":"24134","city":"Pearisburg","state":"VA","lat":37.3041,"long":-80.7267},{"zip":"24136","city":"Pembroke","state":"VA","lat":37.3312,"long":-80.5975},{"zip":"24147","city":"Rich Creek","state":"VA","lat":37.385,"long":-80.8227},{"zip":"24150","city":"Ripplemead","state":"VA","lat":37.3665,"long":-80.6717},{"zip":"24167","city":"Staffordsville","state":"VA","lat":37.2491,"long":-80.7344},{"zip":"24292","city":"Whitetop","state":"VA","lat":36.6106,"long":-81.5839},{"zip":"24326","city":"Elk Creek","state":"VA","lat":36.7306,"long":-81.1915},{"zip":"24330","city":"Fries","state":"VA","lat":36.7247,"long":-81.0042},{"zip":"24348","city":"Independence","state":"VA","lat":36.6294,"long":-81.1582},{"zip":"24363","city":"Mouth Of Wilson","state":"VA","lat":36.6104,"long":-81.3955},{"zip":"24378","city":"Troutdale","state":"VA","lat":36.8611,"long":-81.4929},{"zip":"24520","city":"Alton","state":"VA","lat":36.5894,"long":-79.0202},{"zip":"24534","city":"Clover","state":"VA","lat":36.8637,"long":-78.7862},{"zip":"24535","city":"Cluster Springs","state":"VA","lat":36.6113,"long":-78.9455},{"zip":"24539","city":"Crystal Hill","state":"VA","lat":36.8513,"long":-78.9179},{"zip":"24558","city":"Halifax","state":"VA","lat":36.7626,"long":-78.9415},{"zip":"24577","city":"Nathalie","state":"VA","lat":36.9356,"long":-78.972},{"zip":"24589","city":"Scottsburg","state":"VA","lat":36.7862,"long":-78.7866},{"zip":"24592","city":"South Boston","state":"VA","lat":36.6963,"long":-78.9188},{"zip":"24597","city":"Vernon Hill","state":"VA","lat":36.7853,"long":-79.1095},{"zip":"24598","city":"Virgilina","state":"VA","lat":36.6062,"long":-78.7605},{"zip":"24054","city":"Axton","state":"VA","lat":36.6596,"long":-79.712},{"zip":"24055","city":"Bassett","state":"VA","lat":36.7534,"long":-80.0055},{"zip":"24078","city":"Collinsville","state":"VA","lat":36.7238,"long":-79.9142},{"zip":"24089","city":"Fieldale","state":"VA","lat":36.7064,"long":-79.9652},{"zip":"24148","city":"Ridgeway","state":"VA","lat":36.5874,"long":-79.8686},{"zip":"24165","city":"Spencer","state":"VA","lat":36.5968,"long":-80.0373},{"zip":"24168","city":"Stanleytown","state":"VA","lat":36.7348,"long":-79.9465},{"zip":"24413","city":"Blue Grass","state":"VA","lat":38.5152,"long":-79.5613},{"zip":"24433","city":"Doe Hill","state":"VA","lat":38.4321,"long":-79.4445},{"zip":"24442","city":"Head Waters","state":"VA","lat":38.2946,"long":-79.4353},{"zip":"24458","city":"Mc Dowell","state":"VA","lat":38.3266,"long":-79.4988},{"zip":"24465","city":"Monterey","state":"VA","lat":38.4058,"long":-79.5941},{"zip":"24468","city":"Mustoe","state":"VA","lat":38.386,"long":-79.5592},{"zip":"24218","city":"Ben Hur","state":"VA","lat":36.7435,"long":-83.2234},{"zip":"24221","city":"Blackwater","state":"VA","lat":36.639,"long":-82.9866},{"zip":"24243","city":"Dryden","state":"VA","lat":36.7818,"long":-82.9305},{"zip":"24248","city":"Ewing","state":"VA","lat":36.6237,"long":-83.5047},{"zip":"24263","city":"Jonesville","state":"VA","lat":36.6896,"long":-83.1362},{"zip":"24265","city":"Keokee","state":"VA","lat":36.8239,"long":-82.9772},{"zip":"24277","city":"Pennington Gap","state":"VA","lat":36.7508,"long":-83.0223},{"zip":"24281","city":"Rose Hill","state":"VA","lat":36.6583,"long":-83.3486},{"zip":"24282","city":"Saint Charles","state":"VA","lat":36.8315,"long":-83.0518},{"zip":"24529","city":"Buffalo Junction","state":"VA","lat":36.6168,"long":-78.6093},{"zip":"24580","city":"Nelson","state":"VA","lat":36.5586,"long":-78.671},{"zip":"24023","city":"Roanoke","state":"VA","lat":37.271,"long":-79.9414},{"zip":"24060","city":"Blacksburg","state":"VA","lat":37.2563,"long":-80.4347},{"zip":"24061","city":"Blacksburg","state":"VA","lat":37.1791,"long":-80.3515},{"zip":"24062","city":"Blacksburg","state":"VA","lat":37.2296,"long":-80.4139},{"zip":"24063","city":"Blacksburg","state":"VA","lat":37.2296,"long":-80.4139},{"zip":"24068","city":"Christiansburg","state":"VA","lat":37.1548,"long":-80.4184},{"zip":"24073","city":"Christiansburg","state":"VA","lat":37.1353,"long":-80.4188},{"zip":"24111","city":"Mc Coy","state":"VA","lat":37.1742,"long":-80.3957},{"zip":"24138","city":"Pilot","state":"VA","lat":37.0565,"long":-80.3229},{"zip":"24149","city":"Riner","state":"VA","lat":37.0322,"long":-80.4353},{"zip":"24162","city":"Shawsville","state":"VA","lat":37.1466,"long":-80.2715},{"zip":"24464","city":"Montebello","state":"VA","lat":37.8654,"long":-79.0804},{"zip":"24553","city":"Gladstone","state":"VA","lat":37.5473,"long":-78.8508},{"zip":"24581","city":"Norwood","state":"VA","lat":37.6432,"long":-78.8089},{"zip":"24599","city":"Wingina","state":"VA","lat":37.6399,"long":-78.7239},{"zip":"24053","city":"Ararat","state":"VA","lat":36.6139,"long":-80.5093},{"zip":"24076","city":"Claudville","state":"VA","lat":36.5896,"long":-80.4184},{"zip":"24082","city":"Critz","state":"VA","lat":36.6211,"long":-80.1298},{"zip":"24120","city":"Meadows Of Dan","state":"VA","lat":36.725,"long":-80.4022},{"zip":"24133","city":"Patrick Springs","state":"VA","lat":36.6744,"long":-80.1388},{"zip":"24171","city":"Stuart","state":"VA","lat":36.6517,"long":-80.2392},{"zip":"24177","city":"Vesta","state":"VA","lat":36.7241,"long":-80.3581},{"zip":"24185","city":"Woolwine","state":"VA","lat":36.7921,"long":-80.2774},{"zip":"24069","city":"Cascade","state":"VA","lat":36.5927,"long":-79.6574},{"zip":"24139","city":"Pittsville","state":"VA","lat":36.9716,"long":-79.4794},{"zip":"24161","city":"Sandy Level","state":"VA","lat":36.991,"long":-79.5614},{"zip":"24527","city":"Blairs","state":"VA","lat":36.6799,"long":-79.3731},{"zip":"24530","city":"Callands","state":"VA","lat":36.7647,"long":-79.6288},{"zip":"24531","city":"Chatham","state":"VA","lat":36.831,"long":-79.4297},{"zip":"24549","city":"Dry Fork","state":"VA","lat":36.743,"long":-79.458},{"zip":"24557","city":"Gretna","state":"VA","lat":36.9695,"long":-79.3389},{"zip":"24563","city":"Hurt","state":"VA","lat":37.0798,"long":-79.3},{"zip":"24565","city":"Java","state":"VA","lat":36.8586,"long":-79.187},{"zip":"24566","city":"Keeling","state":"VA","lat":36.7156,"long":-79.2783},{"zip":"24586","city":"Ringgold","state":"VA","lat":36.6035,"long":-79.2988},{"zip":"24594","city":"Sutherlin","state":"VA","lat":36.6258,"long":-79.195},{"zip":"24058","city":"Belspring","state":"VA","lat":37.1982,"long":-80.6151},{"zip":"24084","city":"Dublin","state":"VA","lat":37.1057,"long":-80.6853},{"zip":"24126","city":"Newbern","state":"VA","lat":37.0692,"long":-80.6891},{"zip":"24129","city":"New River","state":"VA","lat":37.0964,"long":-80.6081},{"zip":"24132","city":"Parrott","state":"VA","lat":37.2048,"long":-80.6205},{"zip":"24301","city":"Pulaski","state":"VA","lat":37.0567,"long":-80.771},{"zip":"24324","city":"Draper","state":"VA","lat":36.9697,"long":-80.8188},{"zip":"24347","city":"Hiwassee","state":"VA","lat":36.9756,"long":-80.6695},{"zip":"24018","city":"Roanoke","state":"VA","lat":37.2503,"long":-80.0525},{"zip":"24020","city":"Roanoke","state":"VA","lat":37.3589,"long":-79.9448},{"zip":"24059","city":"Bent Mountain","state":"VA","lat":37.1549,"long":-80.1215},{"zip":"24070","city":"Catawba","state":"VA","lat":37.3696,"long":-80.1284},{"zip":"24087","city":"Elliston","state":"VA","lat":37.2165,"long":-80.2325},{"zip":"24179","city":"Vinton","state":"VA","lat":37.2757,"long":-79.8775},{"zip":"24415","city":"Brownsburg","state":"VA","lat":37.9285,"long":-79.3192},{"zip":"24435","city":"Fairfield","state":"VA","lat":37.8778,"long":-79.2979},{"zip":"24439","city":"Goshen","state":"VA","lat":37.9878,"long":-79.4773},{"zip":"24472","city":"Raphine","state":"VA","lat":37.9374,"long":-79.2219},{"zip":"24473","city":"Rockbridge Baths","state":"VA","lat":37.8965,"long":-79.3874},{"zip":"24483","city":"Vesuvius","state":"VA","lat":37.8378,"long":-79.2135},{"zip":"24555","city":"Glasgow","state":"VA","lat":37.643,"long":-79.459},{"zip":"24578","city":"Natural Bridge","state":"VA","lat":37.6606,"long":-79.533},{"zip":"24579","city":"Natural Bridge Station","state":"VA","lat":37.598,"long":-79.525},{"zip":"24441","city":"Grottoes","state":"VA","lat":38.2484,"long":-78.8255},{"zip":"24471","city":"Port Republic","state":"VA","lat":38.3226,"long":-78.7886},{"zip":"24224","city":"Castlewood","state":"VA","lat":36.8764,"long":-82.2876},{"zip":"24225","city":"Cleveland","state":"VA","lat":36.9502,"long":-82.1318},{"zip":"24237","city":"Dante","state":"VA","lat":37.0054,"long":-82.2815},{"zip":"24260","city":"Honaker","state":"VA","lat":37.0395,"long":-82.0246},{"zip":"24266","city":"Lebanon","state":"VA","lat":36.8809,"long":-82.0956},{"zip":"24280","city":"Rosedale","state":"VA","lat":36.9593,"long":-81.9312},{"zip":"24649","city":"Swords Creek","state":"VA","lat":37.0738,"long":-81.9084},{"zip":"24244","city":"Duffield","state":"VA","lat":36.7114,"long":-82.8337},{"zip":"24245","city":"Dungannon","state":"VA","lat":36.8242,"long":-82.496},{"zip":"24250","city":"Fort Blackmore","state":"VA","lat":36.7438,"long":-82.6102},{"zip":"24251","city":"Gate City","state":"VA","lat":36.646,"long":-82.6112},{"zip":"24258","city":"Hiltons","state":"VA","lat":36.6498,"long":-82.4299},{"zip":"24271","city":"Nickelsville","state":"VA","lat":36.7502,"long":-82.4202},{"zip":"24290","city":"Weber City","state":"VA","lat":36.6137,"long":-82.5618},{"zip":"24311","city":"Atkins","state":"VA","lat":36.8665,"long":-81.4048},{"zip":"24316","city":"Broadford","state":"VA","lat":36.9546,"long":-81.673},{"zip":"24319","city":"Chilhowie","state":"VA","lat":36.7719,"long":-81.6651},{"zip":"24354","city":"Marion","state":"VA","lat":36.8273,"long":-81.5349},{"zip":"24370","city":"Saltville","state":"VA","lat":36.8927,"long":-81.7402},{"zip":"24375","city":"Sugar Grove","state":"VA","lat":36.7736,"long":-81.4084},{"zip":"24377","city":"Tannersville","state":"VA","lat":36.9763,"long":-81.628},{"zip":"24601","city":"Amonate","state":"VA","lat":37.1909,"long":-81.6387},{"zip":"24602","city":"Bandy","state":"VA","lat":37.1661,"long":-81.6508},{"zip":"24604","city":"Bishop","state":"VA","lat":37.2033,"long":-81.5575},{"zip":"24605","city":"Bluefield","state":"VA","lat":37.2526,"long":-81.2712},{"zip":"24606","city":"Boissevain","state":"VA","lat":37.2818,"long":-81.3804},{"zip":"24608","city":"Burkes Garden","state":"VA","lat":37.0982,"long":-81.3409},{"zip":"24609","city":"Cedar Bluff","state":"VA","lat":37.0876,"long":-81.759},{"zip":"24612","city":"Doran","state":"VA","lat":37.0945,"long":-81.818},{"zip":"24613","city":"Falls Mills","state":"VA","lat":37.271,"long":-81.3182},{"zip":"24619","city":"Horsepen","state":"VA","lat":37.1355,"long":-81.5634},{"zip":"24622","city":"Jewell Ridge","state":"VA","lat":37.2094,"long":-81.7956},{"zip":"24630","city":"North Tazewell","state":"VA","lat":37.1756,"long":-81.5399},{"zip":"24635","city":"Pocahontas","state":"VA","lat":37.3054,"long":-81.3425},{"zip":"24637","city":"Pounding Mill","state":"VA","lat":37.0596,"long":-81.7301},{"zip":"24640","city":"Red Ash","state":"VA","lat":37.1134,"long":-81.871},{"zip":"24641","city":"Richlands","state":"VA","lat":37.0941,"long":-81.8123},{"zip":"24651","city":"Tazewell","state":"VA","lat":37.1078,"long":-81.51},{"zip":"24210","city":"Abingdon","state":"VA","lat":36.6916,"long":-82.02},{"zip":"24211","city":"Abingdon","state":"VA","lat":36.6673,"long":-81.9648},{"zip":"24212","city":"Abingdon","state":"VA","lat":36.6909,"long":-81.9708},{"zip":"24236","city":"Damascus","state":"VA","lat":36.6403,"long":-81.7776},{"zip":"24270","city":"Mendota","state":"VA","lat":36.7223,"long":-82.2649},{"zip":"24327","city":"Emory","state":"VA","lat":36.78,"long":-81.8171},{"zip":"24340","city":"Glade Spring","state":"VA","lat":36.7779,"long":-81.7676},{"zip":"24361","city":"Meadowview","state":"VA","lat":36.7612,"long":-81.8512},{"zip":"24215","city":"Andover","state":"VA","lat":36.9234,"long":-82.7964},{"zip":"24216","city":"Appalachia","state":"VA","lat":36.9438,"long":-82.7976},{"zip":"24219","city":"Big Stone Gap","state":"VA","lat":36.8581,"long":-82.7627},{"zip":"24230","city":"Coeburn","state":"VA","lat":36.9605,"long":-82.4735},{"zip":"24246","city":"East Stone Gap","state":"VA","lat":36.8668,"long":-82.7424},{"zip":"24279","city":"Pound","state":"VA","lat":37.0927,"long":-82.6016},{"zip":"24283","city":"Saint Paul","state":"VA","lat":36.9323,"long":-82.3418},{"zip":"24293","city":"Wise","state":"VA","lat":36.975,"long":-82.5947},{"zip":"24312","city":"Austinville","state":"VA","lat":36.8195,"long":-80.8583},{"zip":"24313","city":"Barren Springs","state":"VA","lat":36.9078,"long":-80.809},{"zip":"24322","city":"Cripple Creek","state":"VA","lat":36.8086,"long":-81.1039},{"zip":"24323","city":"Crockett","state":"VA","lat":36.8768,"long":-81.2089},{"zip":"24350","city":"Ivanhoe","state":"VA","lat":36.8272,"long":-80.9779},{"zip":"24360","city":"Max Meadows","state":"VA","lat":36.9056,"long":-80.9244},{"zip":"24368","city":"Rural Retreat","state":"VA","lat":36.8836,"long":-81.2879},{"zip":"24374","city":"Speedwell","state":"VA","lat":36.7998,"long":-81.1834},{"zip":"24382","city":"Wytheville","state":"VA","lat":36.9407,"long":-81.0941},{"zip":"24523","city":"Bedford","state":"VA","lat":37.3153,"long":-79.5331},{"zip":"24201","city":"Bristol","state":"VA","lat":36.6181,"long":-82.1823},{"zip":"24202","city":"Bristol","state":"VA","lat":36.6609,"long":-82.2126},{"zip":"24203","city":"Bristol","state":"VA","lat":36.5965,"long":-82.1885},{"zip":"24209","city":"Bristol","state":"VA","lat":36.5965,"long":-82.1885},{"zip":"24416","city":"Buena Vista","state":"VA","lat":37.7396,"long":-79.3523},{"zip":"24426","city":"Covington","state":"VA","lat":37.7802,"long":-79.987},{"zip":"24540","city":"Danville","state":"VA","lat":36.6218,"long":-79.4124},{"zip":"24541","city":"Danville","state":"VA","lat":36.5779,"long":-79.4411},{"zip":"24543","city":"Danville","state":"VA","lat":36.5927,"long":-79.411},{"zip":"24333","city":"Galax","state":"VA","lat":36.6565,"long":-80.9117},{"zip":"24450","city":"Lexington","state":"VA","lat":37.7885,"long":-79.4581},{"zip":"24501","city":"Lynchburg","state":"VA","lat":37.353,"long":-79.1557},{"zip":"24502","city":"Lynchburg","state":"VA","lat":37.3825,"long":-79.2181},{"zip":"24503","city":"Lynchburg","state":"VA","lat":37.4376,"long":-79.205},{"zip":"24504","city":"Lynchburg","state":"VA","lat":37.361,"long":-79.0544},{"zip":"24505","city":"Lynchburg","state":"VA","lat":37.4138,"long":-79.1422},{"zip":"24506","city":"Lynchburg","state":"VA","lat":37.3817,"long":-79.161},{"zip":"24514","city":"Lynchburg","state":"VA","lat":37.4009,"long":-79.1785},{"zip":"24515","city":"Lynchburg","state":"VA","lat":37.4009,"long":-79.1785},{"zip":"24112","city":"Martinsville","state":"VA","lat":36.6871,"long":-79.8691},{"zip":"24113","city":"Martinsville","state":"VA","lat":36.6796,"long":-79.8652},{"zip":"24114","city":"Martinsville","state":"VA","lat":36.6796,"long":-79.8652},{"zip":"24115","city":"Martinsville","state":"VA","lat":36.6796,"long":-79.8652},{"zip":"24273","city":"Norton","state":"VA","lat":36.9378,"long":-82.6249},{"zip":"24141","city":"Radford","state":"VA","lat":37.1197,"long":-80.5565},{"zip":"24142","city":"Radford","state":"VA","lat":37.1387,"long":-80.548},{"zip":"24143","city":"Radford","state":"VA","lat":37.1226,"long":-80.5629},{"zip":"24001","city":"Roanoke","state":"VA","lat":37.2742,"long":-79.9579},{"zip":"24002","city":"Roanoke","state":"VA","lat":37.2742,"long":-79.9579},{"zip":"24003","city":"Roanoke","state":"VA","lat":37.2742,"long":-79.9579},{"zip":"24004","city":"Roanoke","state":"VA","lat":37.2742,"long":-79.9579},{"zip":"24005","city":"Roanoke","state":"VA","lat":37.2742,"long":-79.9579},{"zip":"24006","city":"Roanoke","state":"VA","lat":37.2742,"long":-79.9579},{"zip":"24007","city":"Roanoke","state":"VA","lat":37.2742,"long":-79.9579},{"zip":"24008","city":"Roanoke","state":"VA","lat":37.2742,"long":-79.9579},{"zip":"24009","city":"Roanoke","state":"VA","lat":37.2742,"long":-79.9579},{"zip":"24010","city":"Roanoke","state":"VA","lat":37.2742,"long":-79.9579},{"zip":"24011","city":"Roanoke","state":"VA","lat":37.269,"long":-79.942},{"zip":"24012","city":"Roanoke","state":"VA","lat":37.3029,"long":-79.9322},{"zip":"24013","city":"Roanoke","state":"VA","lat":37.2677,"long":-79.9247},{"zip":"24014","city":"Roanoke","state":"VA","lat":37.2327,"long":-79.9463},{"zip":"24015","city":"Roanoke","state":"VA","lat":37.2584,"long":-79.9807},{"zip":"24016","city":"Roanoke","state":"VA","lat":37.2704,"long":-79.9535},{"zip":"24017","city":"Roanoke","state":"VA","lat":37.2937,"long":-79.9902},{"zip":"24022","city":"Roanoke","state":"VA","lat":37.2784,"long":-79.9332},{"zip":"24024","city":"Roanoke","state":"VA","lat":37.2742,"long":-79.9579},{"zip":"24025","city":"Roanoke","state":"VA","lat":37.2742,"long":-79.9579},{"zip":"24026","city":"Roanoke","state":"VA","lat":37.2742,"long":-79.9579},{"zip":"24027","city":"Roanoke","state":"VA","lat":37.2742,"long":-79.9579},{"zip":"24028","city":"Roanoke","state":"VA","lat":37.2742,"long":-79.9579},{"zip":"24029","city":"Roanoke","state":"VA","lat":37.2742,"long":-79.9579},{"zip":"24030","city":"Roanoke","state":"VA","lat":37.2742,"long":-79.9579},{"zip":"24031","city":"Roanoke","state":"VA","lat":37.2742,"long":-79.9579},{"zip":"24032","city":"Roanoke","state":"VA","lat":37.2742,"long":-79.9579},{"zip":"24033","city":"Roanoke","state":"VA","lat":37.2742,"long":-79.9579},{"zip":"24034","city":"Roanoke","state":"VA","lat":37.2742,"long":-79.9579},{"zip":"24035","city":"Roanoke","state":"VA","lat":37.2742,"long":-79.9579},{"zip":"24036","city":"Roanoke","state":"VA","lat":37.2742,"long":-79.9579},{"zip":"24037","city":"Roanoke","state":"VA","lat":37.2742,"long":-79.9579},{"zip":"24038","city":"Roanoke","state":"VA","lat":37.2742,"long":-79.9579},{"zip":"24040","city":"Roanoke","state":"VA","lat":37.2742,"long":-79.9579},{"zip":"24042","city":"Roanoke","state":"VA","lat":37.2717,"long":-79.9392},{"zip":"24043","city":"Roanoke","state":"VA","lat":37.2692,"long":-79.9399},{"zip":"24153","city":"Salem","state":"VA","lat":37.2853,"long":-80.0692},{"zip":"24155","city":"Salem","state":"VA","lat":37.2884,"long":-80.0671},{"zip":"24157","city":"Salem","state":"VA","lat":37.2884,"long":-80.0671},{"zip":"24401","city":"Staunton","state":"VA","lat":38.1574,"long":-79.0651},{"zip":"24402","city":"Staunton","state":"VA","lat":38.1593,"long":-79.0629},{"zip":"24901","city":"Lewisburg","state":"WV","lat":37.8083,"long":-80.4407},{"zip":"24902","city":"Fairlea","state":"WV","lat":37.7747,"long":-80.4615},{"zip":"24910","city":"Alderson","state":"WV","lat":37.7371,"long":-80.661},{"zip":"24916","city":"Asbury","state":"WV","lat":37.8313,"long":-80.5747},{"zip":"24925","city":"Caldwell","state":"WV","lat":37.7807,"long":-80.394},{"zip":"24931","city":"Crawley","state":"WV","lat":37.9397,"long":-80.6309},{"zip":"24938","city":"Frankford","state":"WV","lat":37.9154,"long":-80.3353},{"zip":"24943","city":"Grassy Meadows","state":"WV","lat":37.8268,"long":-80.7209},{"zip":"24957","city":"Maxwelton","state":"WV","lat":37.8765,"long":-80.4192},{"zip":"24966","city":"Renick","state":"WV","lat":37.9922,"long":-80.3653},{"zip":"24970","city":"Ronceverte","state":"WV","lat":37.7418,"long":-80.4626},{"zip":"24977","city":"Smoot","state":"WV","lat":37.8772,"long":-80.668},{"zip":"24986","city":"White Sulphur Springs","state":"WV","lat":37.7827,"long":-80.3129},{"zip":"24991","city":"Williamsburg","state":"WV","lat":37.9701,"long":-80.4923},{"zip":"24801","city":"Welch","state":"WV","lat":37.4329,"long":-81.5846},{"zip":"24808","city":"Anawalt","state":"WV","lat":37.3362,"long":-81.4151},{"zip":"24811","city":"Avondale","state":"WV","lat":37.4126,"long":-81.7843},{"zip":"24813","city":"Bartley","state":"WV","lat":37.3407,"long":-81.7376},{"zip":"24815","city":"Berwind","state":"WV","lat":37.2687,"long":-81.6668},{"zip":"24816","city":"Big Sandy","state":"WV","lat":37.4643,"long":-81.6982},{"zip":"24817","city":"Bradshaw","state":"WV","lat":37.3518,"long":-81.7987},{"zip":"24826","city":"Cucumber","state":"WV","lat":37.2779,"long":-81.6268},{"zip":"24828","city":"Davy","state":"WV","lat":37.4784,"long":-81.6534},{"zip":"24829","city":"Eckman","state":"WV","lat":37.3752,"long":-81.6539},{"zip":"24830","city":"Elbert","state":"WV","lat":37.3354,"long":-81.5393},{"zip":"24831","city":"Elkhorn","state":"WV","lat":37.3857,"long":-81.4109},{"zip":"24836","city":"Gary","state":"WV","lat":37.3658,"long":-81.5544},{"zip":"24843","city":"Hensley","state":"WV","lat":37.474,"long":-81.6998},{"zip":"24844","city":"Iaeger","state":"WV","lat":37.4499,"long":-81.812},{"zip":"24846","city":"Isaban","state":"WV","lat":37.5301,"long":-81.8882},{"zip":"24848","city":"Jenkinjones","state":"WV","lat":37.2937,"long":-81.4259},{"zip":"24850","city":"Jolo","state":"WV","lat":37.3324,"long":-81.8316},{"zip":"24853","city":"Kimball","state":"WV","lat":37.4421,"long":-81.512},{"zip":"24855","city":"Kyle","state":"WV","lat":37.4082,"long":-81.4257},{"zip":"24861","city":"Maybeury","state":"WV","lat":37.3709,"long":-81.3665},{"zip":"24862","city":"Mohawk","state":"WV","lat":37.5048,"long":-81.9151},{"zip":"24866","city":"Newhall","state":"WV","lat":37.2637,"long":-81.6187},{"zip":"24868","city":"Northfork","state":"WV","lat":37.4194,"long":-81.4058},{"zip":"24871","city":"Pageton","state":"WV","lat":37.3493,"long":-81.4654},{"zip":"24872","city":"Panther","state":"WV","lat":37.4834,"long":-81.896},{"zip":"24873","city":"Paynesville","state":"WV","lat":37.3315,"long":-81.8915},{"zip":"24878","city":"Premier","state":"WV","lat":37.4223,"long":-81.6437},{"zip":"24879","city":"Raysal","state":"WV","lat":37.3244,"long":-81.7614},{"zip":"24881","city":"Roderfield","state":"WV","lat":37.4504,"long":-81.7057},{"zip":"24884","city":"Squire","state":"WV","lat":37.2384,"long":-81.6098},{"zip":"24887","city":"Switchback","state":"WV","lat":37.3712,"long":-81.3857},{"zip":"24888","city":"Thorpe","state":"WV","lat":37.3687,"long":-81.5165},{"zip":"24892","city":"War","state":"WV","lat":37.3012,"long":-81.6909},{"zip":"24894","city":"Warriormine","state":"WV","lat":37.2929,"long":-81.6971},{"zip":"24895","city":"Wilcoe","state":"WV","lat":37.3752,"long":-81.6539},{"zip":"24701","city":"Bluefield","state":"WV","lat":37.2698,"long":-81.2223},{"zip":"24712","city":"Athens","state":"WV","lat":37.4323,"long":-80.9974},{"zip":"24714","city":"Beeson","state":"WV","lat":37.4909,"long":-81.2062},{"zip":"24715","city":"Bramwell","state":"WV","lat":37.3321,"long":-81.3256},{"zip":"24724","city":"Freeman","state":"WV","lat":37.3309,"long":-81.2998},{"zip":"24729","city":"Hiawatha","state":"WV","lat":37.4401,"long":-81.244},{"zip":"24731","city":"Kegley","state":"WV","lat":37.3971,"long":-81.1318},{"zip":"24732","city":"Kellysville","state":"WV","lat":37.3448,"long":-80.9279},{"zip":"24733","city":"Lashmeet","state":"WV","lat":37.442,"long":-81.2138},{"zip":"24736","city":"Matoaka","state":"WV","lat":37.4201,"long":-81.2432},{"zip":"24737","city":"Montcalm","state":"WV","lat":37.3539,"long":-81.2518},{"zip":"24738","city":"Nemours","state":"WV","lat":37.3015,"long":-81.3043},{"zip":"24739","city":"Princeton","state":"WV","lat":37.3662,"long":-81.1026},{"zip":"24740","city":"Princeton","state":"WV","lat":37.3799,"long":-81.1175},{"zip":"24747","city":"Rock","state":"WV","lat":37.4142,"long":-81.1784},{"zip":"24751","city":"Wolfe","state":"WV","lat":37.3073,"long":-81.3287},{"zip":"24851","city":"Justice","state":"WV","lat":37.5887,"long":-81.8354},{"zip":"24918","city":"Ballard","state":"WV","lat":37.498,"long":-80.7614},{"zip":"24941","city":"Gap Mills","state":"WV","lat":37.589,"long":-80.3401},{"zip":"24945","city":"Greenville","state":"WV","lat":37.5435,"long":-80.6826},{"zip":"24951","city":"Lindside","state":"WV","lat":37.4817,"long":-80.6203},{"zip":"24963","city":"Peterstown","state":"WV","lat":37.4147,"long":-80.7686},{"zip":"24974","city":"Secondcreek","state":"WV","lat":37.6654,"long":-80.454},{"zip":"24976","city":"Sinks Grove","state":"WV","lat":37.6643,"long":-80.5409},{"zip":"24983","city":"Union","state":"WV","lat":37.5802,"long":-80.5248},{"zip":"24984","city":"Waiteville","state":"WV","lat":37.4645,"long":-80.4634},{"zip":"24985","city":"Wayside","state":"WV","lat":37.5937,"long":-80.7458},{"zip":"24993","city":"Wolfcreek","state":"WV","lat":37.552,"long":-80.5397},{"zip":"24915","city":"Arbovale","state":"WV","lat":38.4546,"long":-79.7934},{"zip":"24920","city":"Bartow","state":"WV","lat":38.5513,"long":-79.7952},{"zip":"24924","city":"Buckeye","state":"WV","lat":38.186,"long":-80.1345},{"zip":"24927","city":"Cass","state":"WV","lat":38.388,"long":-79.9906},{"zip":"24934","city":"Dunmore","state":"WV","lat":38.3636,"long":-79.8556},{"zip":"24944","city":"Green Bank","state":"WV","lat":38.4097,"long":-79.8015},{"zip":"24946","city":"Hillsboro","state":"WV","lat":38.1109,"long":-80.2641},{"zip":"24954","city":"Marlinton","state":"WV","lat":38.2586,"long":-80.1046},{"zip":"24935","city":"Forest Hill","state":"WV","lat":37.5608,"long":-80.8111},{"zip":"24962","city":"Pence Springs","state":"WV","lat":37.6621,"long":-80.7202},{"zip":"24981","city":"Talcott","state":"WV","lat":37.6491,"long":-80.7461},{"zip":"24716","city":"Bud","state":"WV","lat":37.5376,"long":-81.3793},{"zip":"24719","city":"Covel","state":"WV","lat":37.4909,"long":-81.3226},{"zip":"24726","city":"Herndon","state":"WV","lat":37.5054,"long":-81.3404},{"zip":"24818","city":"Brenton","state":"WV","lat":37.5988,"long":-81.6264},{"zip":"24822","city":"Clear Fork","state":"WV","lat":37.6309,"long":-81.6829},{"zip":"24823","city":"Coal Mountain","state":"WV","lat":37.6696,"long":-81.7284},{"zip":"24827","city":"Cyclone","state":"WV","lat":37.7329,"long":-81.6887},{"zip":"24834","city":"Fanrock","state":"WV","lat":37.5532,"long":-81.6305},{"zip":"24839","city":"Hanover","state":"WV","lat":37.563,"long":-81.8136},{"zip":"24845","city":"Ikes Fork","state":"WV","lat":37.5221,"long":-81.8043},{"zip":"24847","city":"Itmann","state":"WV","lat":37.5734,"long":-81.4182},{"zip":"24849","city":"Jesse","state":"WV","lat":37.6608,"long":-81.5628},{"zip":"24854","city":"Kopperston","state":"WV","lat":37.744,"long":-81.575},{"zip":"24857","city":"Lynco","state":"WV","lat":37.6033,"long":-81.54},{"zip":"24859","city":"Marianna","state":"WV","lat":37.6033,"long":-81.54},{"zip":"24860","city":"Matheny","state":"WV","lat":37.6624,"long":-81.607},{"zip":"24867","city":"New Richmond","state":"WV","lat":37.5701,"long":-81.4887},{"zip":"24869","city":"North Spring","state":"WV","lat":37.5682,"long":-81.8254},{"zip":"24870","city":"Oceana","state":"WV","lat":37.7407,"long":-81.5831},{"zip":"24874","city":"Pineville","state":"WV","lat":37.584,"long":-81.5336},{"zip":"24880","city":"Rock View","state":"WV","lat":37.6033,"long":-81.54},{"zip":"24882","city":"Simon","state":"WV","lat":37.6197,"long":-81.7586},{"zip":"24898","city":"Wyoming","state":"WV","lat":37.6033,"long":-81.54}]
