[{"zip":"24095","city":"Goodview","state":"VA","lat":37.2123,"long":-79.7429},{"zip":"24019","city":"Roanoke","state":"VA","lat":37.3515,"long":-79.9052},{"zip":"24050","city":"Roanoke","state":"VA","lat":37.5551,"long":-79.7862},{"zip":"24064","city":"Blue Ridge","state":"VA","lat":37.3885,"long":-79.8172},{"zip":"24066","city":"Buchanan","state":"VA","lat":37.5479,"long":-79.7123},{"zip":"24077","city":"Cloverdale","state":"VA","lat":37.3651,"long":-79.9056},{"zip":"24083","city":"Daleville","state":"VA","lat":37.4125,"long":-79.9211},{"zip":"24085","city":"Eagle Rock","state":"VA","lat":37.6667,"long":-79.8172},{"zip":"24090","city":"Fincastle","state":"VA","lat":37.4911,"long":-79.8511},{"zip":"24072","city":"Check","state":"VA","lat":37.0446,"long":-80.228},{"zip":"24079","city":"Copper Hill","state":"VA","lat":37.0556,"long":-80.1525},{"zip":"24091","city":"Floyd","state":"VA","lat":36.8957,"long":-80.3275},{"zip":"24065","city":"Boones Mill","state":"VA","lat":37.1331,"long":-79.9556},{"zip":"24067","city":"Callaway","state":"VA","lat":37.0285,"long":-80.0496},{"zip":"24088","city":"Ferrum","state":"VA","lat":36.9168,"long":-80.0349},{"zip":"24092","city":"Glade Hill","state":"VA","lat":36.9859,"long":-79.773},{"zip":"24086","city":"Eggleston","state":"VA","lat":37.2743,"long":-80.6343},{"zip":"24093","city":"Glen Lyn","state":"VA","lat":37.3669,"long":-80.8634},{"zip":"24054","city":"Axton","state":"VA","lat":36.6596,"long":-79.712},{"zip":"24055","city":"Bassett","state":"VA","lat":36.7534,"long":-80.0055},{"zip":"24078","city":"Collinsville","state":"VA","lat":36.7238,"long":-79.9142},{"zip":"24089","city":"Fieldale","state":"VA","lat":36.7064,"long":-79.9652},{"zip":"24023","city":"Roanoke","state":"VA","lat":37.271,"long":-79.9414},{"zip":"24060","city":"Blacksburg","state":"VA","lat":37.2563,"long":-80.4347},{"zip":"24061","city":"Blacksburg","state":"VA","lat":37.1791,"long":-80.3515},{"zip":"24062","city":"Blacksburg","state":"VA","lat":37.2296,"long":-80.4139},{"zip":"24063","city":"Blacksburg","state":"VA","lat":37.2296,"long":-80.4139},{"zip":"24068","city":"Christiansburg","state":"VA","lat":37.1548,"long":-80.4184},{"zip":"24073","city":"Christiansburg","state":"VA","lat":37.1353,"long":-80.4188},{"zip":"24053","city":"Ararat","state":"VA","lat":36.6139,"long":-80.5093},{"zip":"24076","city":"Claudville","state":"VA","lat":36.5896,"long":-80.4184},{"zip":"24082","city":"Critz","state":"VA","lat":36.6211,"long":-80.1298},{"zip":"24069","city":"Cascade","state":"VA","lat":36.5927,"long":-79.6574},{"zip":"24058","city":"Belspring","state":"VA","lat":37.1982,"long":-80.6151},{"zip":"24084","city":"Dublin","state":"VA","lat":37.1057,"long":-80.6853},{"zip":"24018","city":"Roanoke","state":"VA","lat":37.2503,"long":-80.0525},{"zip":"24020","city":"Roanoke","state":"VA","lat":37.3589,"long":-79.9448},{"zip":"24059","city":"Bent Mountain","state":"VA","lat":37.1549,"long":-80.1215},{"zip":"24070","city":"Catawba","state":"VA","lat":37.3696,"long":-80.1284},{"zip":"24087","city":"Elliston","state":"VA","lat":37.2165,"long":-80.2325},{"zip":"24001","city":"Roanoke","state":"VA","lat":37.2742,"long":-79.9579},{"zip":"24002","city":"Roanoke","state":"VA","lat":37.2742,"long":-79.9579},{"zip":"24003","city":"Roanoke","state":"VA","lat":37.2742,"long":-79.9579},{"zip":"24004","city":"Roanoke","state":"VA","lat":37.2742,"long":-79.9579},{"zip":"24005","city":"Roanoke","state":"VA","lat":37.2742,"long":-79.9579},{"zip":"24006","city":"Roanoke","state":"VA","lat":37.2742,"long":-79.9579},{"zip":"24007","city":"Roanoke","state":"VA","lat":37.2742,"long":-79.9579},{"zip":"24008","city":"Roanoke","state":"VA","lat":37.2742,"long":-79.9579},{"zip":"24009","city":"Roanoke","state":"VA","lat":37.2742,"long":-79.9579},{"zip":"24010","city":"Roanoke","state":"VA","lat":37.2742,"long":-79.9579},{"zip":"24011","city":"Roanoke","state":"VA","lat":37.269,"long":-79.942},{"zip":"24012","city":"Roanoke","state":"VA","lat":37.3029,"long":-79.9322},{"zip":"24013","city":"Roanoke","state":"VA","lat":37.2677,"long":-79.9247},{"zip":"24014","city":"Roanoke","state":"VA","lat":37.2327,"long":-79.9463},{"zip":"24015","city":"Roanoke","state":"VA","lat":37.2584,"long":-79.9807},{"zip":"24016","city":"Roanoke","state":"VA","lat":37.2704,"long":-79.9535},{"zip":"24017","city":"Roanoke","state":"VA","lat":37.2937,"long":-79.9902},{"zip":"24022","city":"Roanoke","state":"VA","lat":37.2784,"long":-79.9332},{"zip":"24024","city":"Roanoke","state":"VA","lat":37.2742,"long":-79.9579},{"zip":"24025","city":"Roanoke","state":"VA","lat":37.2742,"long":-79.9579},{"zip":"24026","city":"Roanoke","state":"VA","lat":37.2742,"long":-79.9579},{"zip":"24027","city":"Roanoke","state":"VA","lat":37.2742,"long":-79.9579},{"zip":"24028","city":"Roanoke","state":"VA","lat":37.2742,"long":-79.9579},{"zip":"24029","city":"Roanoke","state":"VA","lat":37.2742,"long":-79.9579},{"zip":"24030","city":"Roanoke","state":"VA","lat":37.2742,"long":-79.9579},{"zip":"24031","city":"Roanoke","state":"VA","lat":37.2742,"long":-79.9579},{"zip":"24032","city":"Roanoke","state":"VA","lat":37.2742,"long":-79.9579},{"zip":"24033","city":"Roanoke","state":"VA","lat":37.2742,"long":-79.9579},{"zip":"24034","city":"Roanoke","state":"VA","lat":37.2742,"long":-79.9579},{"zip":"24035","city":"Roanoke","state":"VA","lat":37.2742,"long":-79.9579},{"zip":"24036","city":"Roanoke","state":"VA","lat":37.2742,"long":-79.9579},{"zip":"24037","city":"Roanoke","state":"VA","lat":37.2742,"long":-79.9579},{"zip":"24038","city":"Roanoke","state":"VA","lat":37.2742,"long":-79.9579},{"zip":"24040","city":"Roanoke","state":"VA","lat":37.2742,"long":-79.9579},{"zip":"24042","city":"Roanoke","state":"VA","lat":37.2717,"long":-79.9392},{"zip":"24043","city":"Roanoke","state":"VA","lat":37.2692,"long":-79.9399}]
