[{"zip":"24101","city":"Hardy","state":"VA","lat":37.2145,"long":-79.8127},{"zip":"24104","city":"Huddleston","state":"VA","lat":37.1442,"long":-79.491},{"zip":"24121","city":"Moneta","state":"VA","lat":37.1784,"long":-79.6521},{"zip":"24122","city":"Montvale","state":"VA","lat":37.407,"long":-79.7175},{"zip":"24174","city":"Thaxton","state":"VA","lat":37.36,"long":-79.6522},{"zip":"24178","city":"Villamont","state":"VA","lat":37.3105,"long":-79.7898},{"zip":"24130","city":"Oriskany","state":"VA","lat":37.6165,"long":-79.9837},{"zip":"24175","city":"Troutville","state":"VA","lat":37.4019,"long":-79.8786},{"zip":"24127","city":"New Castle","state":"VA","lat":37.4871,"long":-80.1704},{"zip":"24131","city":"Paint Bank","state":"VA","lat":37.5745,"long":-80.2544},{"zip":"24105","city":"Indian Valley","state":"VA","lat":36.899,"long":-80.5757},{"zip":"24102","city":"Henry","state":"VA","lat":36.8393,"long":-79.9904},{"zip":"24137","city":"Penhook","state":"VA","lat":36.9201,"long":-79.6645},{"zip":"24146","city":"Redwood","state":"VA","lat":37.0069,"long":-79.9139},{"zip":"24151","city":"Rocky Mount","state":"VA","lat":36.9891,"long":-79.884},{"zip":"24176","city":"Union Hall","state":"VA","lat":37.0131,"long":-79.6864},{"zip":"24184","city":"Wirtz","state":"VA","lat":37.0818,"long":-79.7573},{"zip":"24124","city":"Narrows","state":"VA","lat":37.3198,"long":-80.8548},{"zip":"24128","city":"Newport","state":"VA","lat":37.3069,"long":-80.5099},{"zip":"24134","city":"Pearisburg","state":"VA","lat":37.3041,"long":-80.7267},{"zip":"24136","city":"Pembroke","state":"VA","lat":37.3312,"long":-80.5975},{"zip":"24147","city":"Rich Creek","state":"VA","lat":37.385,"long":-80.8227},{"zip":"24150","city":"Ripplemead","state":"VA","lat":37.3665,"long":-80.6717},{"zip":"24167","city":"Staffordsville","state":"VA","lat":37.2491,"long":-80.7344},{"zip":"24148","city":"Ridgeway","state":"VA","lat":36.5874,"long":-79.8686},{"zip":"24165","city":"Spencer","state":"VA","lat":36.5968,"long":-80.0373},{"zip":"24168","city":"Stanleytown","state":"VA","lat":36.7348,"long":-79.9465},{"zip":"24111","city":"Mc Coy","state":"VA","lat":37.1742,"long":-80.3957},{"zip":"24138","city":"Pilot","state":"VA","lat":37.0565,"long":-80.3229},{"zip":"24149","city":"Riner","state":"VA","lat":37.0322,"long":-80.4353},{"zip":"24162","city":"Shawsville","state":"VA","lat":37.1466,"long":-80.2715},{"zip":"24120","city":"Meadows Of Dan","state":"VA","lat":36.725,"long":-80.4022},{"zip":"24133","city":"Patrick Springs","state":"VA","lat":36.6744,"long":-80.1388},{"zip":"24171","city":"Stuart","state":"VA","lat":36.6517,"long":-80.2392},{"zip":"24177","city":"Vesta","state":"VA","lat":36.7241,"long":-80.3581},{"zip":"24185","city":"Woolwine","state":"VA","lat":36.7921,"long":-80.2774},{"zip":"24139","city":"Pittsville","state":"VA","lat":36.9716,"long":-79.4794},{"zip":"24161","city":"Sandy Level","state":"VA","lat":36.991,"long":-79.5614},{"zip":"24126","city":"Newbern","state":"VA","lat":37.0692,"long":-80.6891},{"zip":"24129","city":"New River","state":"VA","lat":37.0964,"long":-80.6081},{"zip":"24132","city":"Parrott","state":"VA","lat":37.2048,"long":-80.6205},{"zip":"24179","city":"Vinton","state":"VA","lat":37.2757,"long":-79.8775},{"zip":"24112","city":"Martinsville","state":"VA","lat":36.6871,"long":-79.8691},{"zip":"24113","city":"Martinsville","state":"VA","lat":36.6796,"long":-79.8652},{"zip":"24114","city":"Martinsville","state":"VA","lat":36.6796,"long":-79.8652},{"zip":"24115","city":"Martinsville","state":"VA","lat":36.6796,"long":-79.8652},{"zip":"24141","city":"Radford","state":"VA","lat":37.1197,"long":-80.5565},{"zip":"24142","city":"Radford","state":"VA","lat":37.1387,"long":-80.548},{"zip":"24143","city":"Radford","state":"VA","lat":37.1226,"long":-80.5629},{"zip":"24153","city":"Salem","state":"VA","lat":37.2853,"long":-80.0692},{"zip":"24155","city":"Salem","state":"VA","lat":37.2884,"long":-80.0671},{"zip":"24157","city":"Salem","state":"VA","lat":37.2884,"long":-80.0671}]
