[{"zip":"24239","city":"Davenport","state":"VA","lat":37.1134,"long":-82.1501},{"zip":"24217","city":"Bee","state":"VA","lat":37.1014,"long":-82.1856},{"zip":"24220","city":"Birchleaf","state":"VA","lat":37.1394,"long":-82.2433},{"zip":"24226","city":"Clinchco","state":"VA","lat":37.1406,"long":-82.3425},{"zip":"24228","city":"Clintwood","state":"VA","lat":37.1592,"long":-82.4453},{"zip":"24256","city":"Haysi","state":"VA","lat":37.2206,"long":-82.2853},{"zip":"24269","city":"Mc Clure","state":"VA","lat":37.0814,"long":-82.3806},{"zip":"24272","city":"Nora","state":"VA","lat":37.0182,"long":-82.35},{"zip":"24292","city":"Whitetop","state":"VA","lat":36.6106,"long":-81.5839},{"zip":"24218","city":"Ben Hur","state":"VA","lat":36.7435,"long":-83.2234},{"zip":"24221","city":"Blackwater","state":"VA","lat":36.639,"long":-82.9866},{"zip":"24243","city":"Dryden","state":"VA","lat":36.7818,"long":-82.9305},{"zip":"24248","city":"Ewing","state":"VA","lat":36.6237,"long":-83.5047},{"zip":"24263","city":"Jonesville","state":"VA","lat":36.6896,"long":-83.1362},{"zip":"24265","city":"Keokee","state":"VA","lat":36.8239,"long":-82.9772},{"zip":"24277","city":"Pennington Gap","state":"VA","lat":36.7508,"long":-83.0223},{"zip":"24281","city":"Rose Hill","state":"VA","lat":36.6583,"long":-83.3486},{"zip":"24282","city":"Saint Charles","state":"VA","lat":36.8315,"long":-83.0518},{"zip":"24224","city":"Castlewood","state":"VA","lat":36.8764,"long":-82.2876},{"zip":"24225","city":"Cleveland","state":"VA","lat":36.9502,"long":-82.1318},{"zip":"24237","city":"Dante","state":"VA","lat":37.0054,"long":-82.2815},{"zip":"24260","city":"Honaker","state":"VA","lat":37.0395,"long":-82.0246},{"zip":"24266","city":"Lebanon","state":"VA","lat":36.8809,"long":-82.0956},{"zip":"24280","city":"Rosedale","state":"VA","lat":36.9593,"long":-81.9312},{"zip":"24244","city":"Duffield","state":"VA","lat":36.7114,"long":-82.8337},{"zip":"24245","city":"Dungannon","state":"VA","lat":36.8242,"long":-82.496},{"zip":"24250","city":"Fort Blackmore","state":"VA","lat":36.7438,"long":-82.6102},{"zip":"24251","city":"Gate City","state":"VA","lat":36.646,"long":-82.6112},{"zip":"24258","city":"Hiltons","state":"VA","lat":36.6498,"long":-82.4299},{"zip":"24271","city":"Nickelsville","state":"VA","lat":36.7502,"long":-82.4202},{"zip":"24290","city":"Weber City","state":"VA","lat":36.6137,"long":-82.5618},{"zip":"24210","city":"Abingdon","state":"VA","lat":36.6916,"long":-82.02},{"zip":"24211","city":"Abingdon","state":"VA","lat":36.6673,"long":-81.9648},{"zip":"24212","city":"Abingdon","state":"VA","lat":36.6909,"long":-81.9708},{"zip":"24236","city":"Damascus","state":"VA","lat":36.6403,"long":-81.7776},{"zip":"24270","city":"Mendota","state":"VA","lat":36.7223,"long":-82.2649},{"zip":"24215","city":"Andover","state":"VA","lat":36.9234,"long":-82.7964},{"zip":"24216","city":"Appalachia","state":"VA","lat":36.9438,"long":-82.7976},{"zip":"24219","city":"Big Stone Gap","state":"VA","lat":36.8581,"long":-82.7627},{"zip":"24230","city":"Coeburn","state":"VA","lat":36.9605,"long":-82.4735},{"zip":"24246","city":"East Stone Gap","state":"VA","lat":36.8668,"long":-82.7424},{"zip":"24279","city":"Pound","state":"VA","lat":37.0927,"long":-82.6016},{"zip":"24283","city":"Saint Paul","state":"VA","lat":36.9323,"long":-82.3418},{"zip":"24293","city":"Wise","state":"VA","lat":36.975,"long":-82.5947},{"zip":"24201","city":"Bristol","state":"VA","lat":36.6181,"long":-82.1823},{"zip":"24202","city":"Bristol","state":"VA","lat":36.6609,"long":-82.2126},{"zip":"24203","city":"Bristol","state":"VA","lat":36.5965,"long":-82.1885},{"zip":"24209","city":"Bristol","state":"VA","lat":36.5965,"long":-82.1885},{"zip":"24273","city":"Norton","state":"VA","lat":36.9378,"long":-82.6249}]
