[{"zip":"24314","city":"Bastian","state":"VA","lat":37.1574,"long":-81.1989},{"zip":"24315","city":"Bland","state":"VA","lat":37.1376,"long":-81.0201},{"zip":"24318","city":"Ceres","state":"VA","lat":37.0046,"long":-81.3643},{"zip":"24366","city":"Rocky Gap","state":"VA","lat":37.2578,"long":-81.1159},{"zip":"24317","city":"Cana","state":"VA","lat":36.5957,"long":-80.6705},{"zip":"24325","city":"Dugspur","state":"VA","lat":36.8145,"long":-80.6123},{"zip":"24328","city":"Fancy Gap","state":"VA","lat":36.664,"long":-80.6907},{"zip":"24343","city":"Hillsville","state":"VA","lat":36.7442,"long":-80.7197},{"zip":"24351","city":"Lambsburg","state":"VA","lat":36.5775,"long":-80.7601},{"zip":"24352","city":"Laurel Fork","state":"VA","lat":36.7073,"long":-80.5148},{"zip":"24381","city":"Woodlawn","state":"VA","lat":36.7879,"long":-80.8824},{"zip":"24380","city":"Willis","state":"VA","lat":36.8749,"long":-80.4909},{"zip":"24326","city":"Elk Creek","state":"VA","lat":36.7306,"long":-81.1915},{"zip":"24330","city":"Fries","state":"VA","lat":36.7247,"long":-81.0042},{"zip":"24348","city":"Independence","state":"VA","lat":36.6294,"long":-81.1582},{"zip":"24363","city":"Mouth Of Wilson","state":"VA","lat":36.6104,"long":-81.3955},{"zip":"24378","city":"Troutdale","state":"VA","lat":36.8611,"long":-81.4929},{"zip":"24301","city":"Pulaski","state":"VA","lat":37.0567,"long":-80.771},{"zip":"24324","city":"Draper","state":"VA","lat":36.9697,"long":-80.8188},{"zip":"24347","city":"Hiwassee","state":"VA","lat":36.9756,"long":-80.6695},{"zip":"24311","city":"Atkins","state":"VA","lat":36.8665,"long":-81.4048},{"zip":"24316","city":"Broadford","state":"VA","lat":36.9546,"long":-81.673},{"zip":"24319","city":"Chilhowie","state":"VA","lat":36.7719,"long":-81.6651},{"zip":"24354","city":"Marion","state":"VA","lat":36.8273,"long":-81.5349},{"zip":"24370","city":"Saltville","state":"VA","lat":36.8927,"long":-81.7402},{"zip":"24375","city":"Sugar Grove","state":"VA","lat":36.7736,"long":-81.4084},{"zip":"24377","city":"Tannersville","state":"VA","lat":36.9763,"long":-81.628},{"zip":"24327","city":"Emory","state":"VA","lat":36.78,"long":-81.8171},{"zip":"24340","city":"Glade Spring","state":"VA","lat":36.7779,"long":-81.7676},{"zip":"24361","city":"Meadowview","state":"VA","lat":36.7612,"long":-81.8512},{"zip":"24312","city":"Austinville","state":"VA","lat":36.8195,"long":-80.8583},{"zip":"24313","city":"Barren Springs","state":"VA","lat":36.9078,"long":-80.809},{"zip":"24322","city":"Cripple Creek","state":"VA","lat":36.8086,"long":-81.1039},{"zip":"24323","city":"Crockett","state":"VA","lat":36.8768,"long":-81.2089},{"zip":"24350","city":"Ivanhoe","state":"VA","lat":36.8272,"long":-80.9779},{"zip":"24360","city":"Max Meadows","state":"VA","lat":36.9056,"long":-80.9244},{"zip":"24368","city":"Rural Retreat","state":"VA","lat":36.8836,"long":-81.2879},{"zip":"24374","city":"Speedwell","state":"VA","lat":36.7998,"long":-81.1834},{"zip":"24382","city":"Wytheville","state":"VA","lat":36.9407,"long":-81.0941},{"zip":"24333","city":"Galax","state":"VA","lat":36.6565,"long":-80.9117}]
