[{"zip":"24562","city":"Howardsville","state":"VA","lat":37.7511,"long":-78.6313},{"zip":"24590","city":"Scottsville","state":"VA","lat":37.8049,"long":-78.474},{"zip":"24521","city":"Amherst","state":"VA","lat":37.6027,"long":-79.0506},{"zip":"24533","city":"Clifford","state":"VA","lat":37.538,"long":-78.9463},{"zip":"24572","city":"Madison Heights","state":"VA","lat":37.4531,"long":-79.1141},{"zip":"24574","city":"Monroe","state":"VA","lat":37.5414,"long":-79.1703},{"zip":"24595","city":"Sweet Briar","state":"VA","lat":37.5674,"long":-79.0756},{"zip":"24522","city":"Appomattox","state":"VA","lat":37.353,"long":-78.8224},{"zip":"24593","city":"Spout Spring","state":"VA","lat":37.3643,"long":-78.9059},{"zip":"24526","city":"Big Island","state":"VA","lat":37.5306,"long":-79.3827},{"zip":"24536","city":"Coleman Falls","state":"VA","lat":37.4887,"long":-79.3158},{"zip":"24551","city":"Forest","state":"VA","lat":37.3379,"long":-79.2791},{"zip":"24556","city":"Goode","state":"VA","lat":37.3755,"long":-79.4039},{"zip":"24570","city":"Lowry","state":"VA","lat":37.3484,"long":-79.4271},{"zip":"24513","city":"Lynchburg","state":"VA","lat":37.2458,"long":-79.1335},{"zip":"24517","city":"Altavista","state":"VA","lat":37.1222,"long":-79.2911},{"zip":"24528","city":"Brookneal","state":"VA","lat":37.0827,"long":-78.9227},{"zip":"24538","city":"Concord","state":"VA","lat":37.337,"long":-78.9804},{"zip":"24550","city":"Evington","state":"VA","lat":37.261,"long":-79.2317},{"zip":"24554","city":"Gladys","state":"VA","lat":37.1386,"long":-79.1048},{"zip":"24569","city":"Long Island","state":"VA","lat":37.0644,"long":-79.1219},{"zip":"24571","city":"Lynch Station","state":"VA","lat":37.1528,"long":-79.3297},{"zip":"24576","city":"Naruna","state":"VA","lat":37.2458,"long":-79.1335},{"zip":"24588","city":"Rustburg","state":"VA","lat":37.2545,"long":-79.1215},{"zip":"24520","city":"Alton","state":"VA","lat":36.5894,"long":-79.0202},{"zip":"24534","city":"Clover","state":"VA","lat":36.8637,"long":-78.7862},{"zip":"24535","city":"Cluster Springs","state":"VA","lat":36.6113,"long":-78.9455},{"zip":"24539","city":"Crystal Hill","state":"VA","lat":36.8513,"long":-78.9179},{"zip":"24558","city":"Halifax","state":"VA","lat":36.7626,"long":-78.9415},{"zip":"24577","city":"Nathalie","state":"VA","lat":36.9356,"long":-78.972},{"zip":"24589","city":"Scottsburg","state":"VA","lat":36.7862,"long":-78.7866},{"zip":"24592","city":"South Boston","state":"VA","lat":36.6963,"long":-78.9188},{"zip":"24597","city":"Vernon Hill","state":"VA","lat":36.7853,"long":-79.1095},{"zip":"24598","city":"Virgilina","state":"VA","lat":36.6062,"long":-78.7605},{"zip":"24529","city":"Buffalo Junction","state":"VA","lat":36.6168,"long":-78.6093},{"zip":"24580","city":"Nelson","state":"VA","lat":36.5586,"long":-78.671},{"zip":"24553","city":"Gladstone","state":"VA","lat":37.5473,"long":-78.8508},{"zip":"24581","city":"Norwood","state":"VA","lat":37.6432,"long":-78.8089},{"zip":"24599","city":"Wingina","state":"VA","lat":37.6399,"long":-78.7239},{"zip":"24527","city":"Blairs","state":"VA","lat":36.6799,"long":-79.3731},{"zip":"24530","city":"Callands","state":"VA","lat":36.7647,"long":-79.6288},{"zip":"24531","city":"Chatham","state":"VA","lat":36.831,"long":-79.4297},{"zip":"24549","city":"Dry Fork","state":"VA","lat":36.743,"long":-79.458},{"zip":"24557","city":"Gretna","state":"VA","lat":36.9695,"long":-79.3389},{"zip":"24563","city":"Hurt","state":"VA","lat":37.0798,"long":-79.3},{"zip":"24565","city":"Java","state":"VA","lat":36.8586,"long":-79.187},{"zip":"24566","city":"Keeling","state":"VA","lat":36.7156,"long":-79.2783},{"zip":"24586","city":"Ringgold","state":"VA","lat":36.6035,"long":-79.2988},{"zip":"24594","city":"Sutherlin","state":"VA","lat":36.6258,"long":-79.195},{"zip":"24555","city":"Glasgow","state":"VA","lat":37.643,"long":-79.459},{"zip":"24578","city":"Natural Bridge","state":"VA","lat":37.6606,"long":-79.533},{"zip":"24579","city":"Natural Bridge Station","state":"VA","lat":37.598,"long":-79.525},{"zip":"24523","city":"Bedford","state":"VA","lat":37.3153,"long":-79.5331},{"zip":"24540","city":"Danville","state":"VA","lat":36.6218,"long":-79.4124},{"zip":"24541","city":"Danville","state":"VA","lat":36.5779,"long":-79.4411},{"zip":"24543","city":"Danville","state":"VA","lat":36.5927,"long":-79.411},{"zip":"24501","city":"Lynchburg","state":"VA","lat":37.353,"long":-79.1557},{"zip":"24502","city":"Lynchburg","state":"VA","lat":37.3825,"long":-79.2181},{"zip":"24503","city":"Lynchburg","state":"VA","lat":37.4376,"long":-79.205},{"zip":"24504","city":"Lynchburg","state":"VA","lat":37.361,"long":-79.0544},{"zip":"24505","city":"Lynchburg","state":"VA","lat":37.4138,"long":-79.1422},{"zip":"24506","city":"Lynchburg","state":"VA","lat":37.3817,"long":-79.161},{"zip":"24514","city":"Lynchburg","state":"VA","lat":37.4009,"long":-79.1785},{"zip":"24515","city":"Lynchburg","state":"VA","lat":37.4009,"long":-79.1785}]
