[{"zip":"24603","city":"Big Rock","state":"VA","lat":37.3532,"long":-82.1968},{"zip":"24614","city":"Grundy","state":"VA","lat":37.2967,"long":-82.1061},{"zip":"24620","city":"Hurley","state":"VA","lat":37.4017,"long":-82.0262},{"zip":"24624","city":"Keen Mountain","state":"VA","lat":37.2023,"long":-81.9862},{"zip":"24627","city":"Mavisdale","state":"VA","lat":37.288,"long":-82.0274},{"zip":"24628","city":"Maxie","state":"VA","lat":37.288,"long":-82.0274},{"zip":"24631","city":"Oakwood","state":"VA","lat":37.2138,"long":-81.9917},{"zip":"24634","city":"Pilgrims Knob","state":"VA","lat":37.2746,"long":-81.9024},{"zip":"24639","city":"Raven","state":"VA","lat":37.1481,"long":-81.8896},{"zip":"24646","city":"Rowe","state":"VA","lat":37.1276,"long":-82.0274},{"zip":"24647","city":"Shortt Gap","state":"VA","lat":37.1573,"long":-81.8729},{"zip":"24656","city":"Vansant","state":"VA","lat":37.1738,"long":-82.1277},{"zip":"24657","city":"Whitewood","state":"VA","lat":37.2251,"long":-81.8605},{"zip":"24658","city":"Wolford","state":"VA","lat":37.288,"long":-82.0274},{"zip":"24607","city":"Breaks","state":"VA","lat":37.2959,"long":-82.281},{"zip":"24649","city":"Swords Creek","state":"VA","lat":37.0738,"long":-81.9084},{"zip":"24601","city":"Amonate","state":"VA","lat":37.1909,"long":-81.6387},{"zip":"24602","city":"Bandy","state":"VA","lat":37.1661,"long":-81.6508},{"zip":"24604","city":"Bishop","state":"VA","lat":37.2033,"long":-81.5575},{"zip":"24605","city":"Bluefield","state":"VA","lat":37.2526,"long":-81.2712},{"zip":"24606","city":"Boissevain","state":"VA","lat":37.2818,"long":-81.3804},{"zip":"24608","city":"Burkes Garden","state":"VA","lat":37.0982,"long":-81.3409},{"zip":"24609","city":"Cedar Bluff","state":"VA","lat":37.0876,"long":-81.759},{"zip":"24612","city":"Doran","state":"VA","lat":37.0945,"long":-81.818},{"zip":"24613","city":"Falls Mills","state":"VA","lat":37.271,"long":-81.3182},{"zip":"24619","city":"Horsepen","state":"VA","lat":37.1355,"long":-81.5634},{"zip":"24622","city":"Jewell Ridge","state":"VA","lat":37.2094,"long":-81.7956},{"zip":"24630","city":"North Tazewell","state":"VA","lat":37.1756,"long":-81.5399},{"zip":"24635","city":"Pocahontas","state":"VA","lat":37.3054,"long":-81.3425},{"zip":"24637","city":"Pounding Mill","state":"VA","lat":37.0596,"long":-81.7301},{"zip":"24640","city":"Red Ash","state":"VA","lat":37.1134,"long":-81.871},{"zip":"24641","city":"Richlands","state":"VA","lat":37.0941,"long":-81.8123},{"zip":"24651","city":"Tazewell","state":"VA","lat":37.1078,"long":-81.51}]
