[{"zip":"24701","city":"Bluefield","state":"WV","lat":37.2698,"long":-81.2223},{"zip":"24712","city":"Athens","state":"WV","lat":37.4323,"long":-80.9974},{"zip":"24714","city":"Beeson","state":"WV","lat":37.4909,"long":-81.2062},{"zip":"24715","city":"Bramwell","state":"WV","lat":37.3321,"long":-81.3256},{"zip":"24724","city":"Freeman","state":"WV","lat":37.3309,"long":-81.2998},{"zip":"24729","city":"Hiawatha","state":"WV","lat":37.4401,"long":-81.244},{"zip":"24731","city":"Kegley","state":"WV","lat":37.3971,"long":-81.1318},{"zip":"24732","city":"Kellysville","state":"WV","lat":37.3448,"long":-80.9279},{"zip":"24733","city":"Lashmeet","state":"WV","lat":37.442,"long":-81.2138},{"zip":"24736","city":"Matoaka","state":"WV","lat":37.4201,"long":-81.2432},{"zip":"24737","city":"Montcalm","state":"WV","lat":37.3539,"long":-81.2518},{"zip":"24738","city":"Nemours","state":"WV","lat":37.3015,"long":-81.3043},{"zip":"24739","city":"Princeton","state":"WV","lat":37.3662,"long":-81.1026},{"zip":"24740","city":"Princeton","state":"WV","lat":37.3799,"long":-81.1175},{"zip":"24747","city":"Rock","state":"WV","lat":37.4142,"long":-81.1784},{"zip":"24751","city":"Wolfe","state":"WV","lat":37.3073,"long":-81.3287},{"zip":"24716","city":"Bud","state":"WV","lat":37.5376,"long":-81.3793},{"zip":"24719","city":"Covel","state":"WV","lat":37.4909,"long":-81.3226},{"zip":"24726","city":"Herndon","state":"WV","lat":37.5054,"long":-81.3404}]
