[{"zip":"24801","city":"Welch","state":"WV","lat":37.4329,"long":-81.5846},{"zip":"24808","city":"Anawalt","state":"WV","lat":37.3362,"long":-81.4151},{"zip":"24811","city":"Avondale","state":"WV","lat":37.4126,"long":-81.7843},{"zip":"24813","city":"Bartley","state":"WV","lat":37.3407,"long":-81.7376},{"zip":"24815","city":"Berwind","state":"WV","lat":37.2687,"long":-81.6668},{"zip":"24816","city":"Big Sandy","state":"WV","lat":37.4643,"long":-81.6982},{"zip":"24817","city":"Bradshaw","state":"WV","lat":37.3518,"long":-81.7987},{"zip":"24826","city":"Cucumber","state":"WV","lat":37.2779,"long":-81.6268},{"zip":"24828","city":"Davy","state":"WV","lat":37.4784,"long":-81.6534},{"zip":"24829","city":"Eckman","state":"WV","lat":37.3752,"long":-81.6539},{"zip":"24830","city":"Elbert","state":"WV","lat":37.3354,"long":-81.5393},{"zip":"24831","city":"Elkhorn","state":"WV","lat":37.3857,"long":-81.4109},{"zip":"24836","city":"Gary","state":"WV","lat":37.3658,"long":-81.5544},{"zip":"24843","city":"Hensley","state":"WV","lat":37.474,"long":-81.6998},{"zip":"24844","city":"Iaeger","state":"WV","lat":37.4499,"long":-81.812},{"zip":"24846","city":"Isaban","state":"WV","lat":37.5301,"long":-81.8882},{"zip":"24848","city":"Jenkinjones","state":"WV","lat":37.2937,"long":-81.4259},{"zip":"24850","city":"Jolo","state":"WV","lat":37.3324,"long":-81.8316},{"zip":"24853","city":"Kimball","state":"WV","lat":37.4421,"long":-81.512},{"zip":"24855","city":"Kyle","state":"WV","lat":37.4082,"long":-81.4257},{"zip":"24861","city":"Maybeury","state":"WV","lat":37.3709,"long":-81.3665},{"zip":"24862","city":"Mohawk","state":"WV","lat":37.5048,"long":-81.9151},{"zip":"24866","city":"Newhall","state":"WV","lat":37.2637,"long":-81.6187},{"zip":"24868","city":"Northfork","state":"WV","lat":37.4194,"long":-81.4058},{"zip":"24871","city":"Pageton","state":"WV","lat":37.3493,"long":-81.4654},{"zip":"24872","city":"Panther","state":"WV","lat":37.4834,"long":-81.896},{"zip":"24873","city":"Paynesville","state":"WV","lat":37.3315,"long":-81.8915},{"zip":"24878","city":"Premier","state":"WV","lat":37.4223,"long":-81.6437},{"zip":"24879","city":"Raysal","state":"WV","lat":37.3244,"long":-81.7614},{"zip":"24881","city":"Roderfield","state":"WV","lat":37.4504,"long":-81.7057},{"zip":"24884","city":"Squire","state":"WV","lat":37.2384,"long":-81.6098},{"zip":"24887","city":"Switchback","state":"WV","lat":37.3712,"long":-81.3857},{"zip":"24888","city":"Thorpe","state":"WV","lat":37.3687,"long":-81.5165},{"zip":"24892","city":"War","state":"WV","lat":37.3012,"long":-81.6909},{"zip":"24894","city":"Warriormine","state":"WV","lat":37.2929,"long":-81.6971},{"zip":"24895","city":"Wilcoe","state":"WV","lat":37.3752,"long":-81.6539},{"zip":"24851","city":"Justice","state":"WV","lat":37.5887,"long":-81.8354},{"zip":"24818","city":"Brenton","state":"WV","lat":37.5988,"long":-81.6264},{"zip":"24822","city":"Clear Fork","state":"WV","lat":37.6309,"long":-81.6829},{"zip":"24823","city":"Coal Mountain","state":"WV","lat":37.6696,"long":-81.7284},{"zip":"24827","city":"Cyclone","state":"WV","lat":37.7329,"long":-81.6887},{"zip":"24834","city":"Fanrock","state":"WV","lat":37.5532,"long":-81.6305},{"zip":"24839","city":"Hanover","state":"WV","lat":37.563,"long":-81.8136},{"zip":"24845","city":"Ikes Fork","state":"WV","lat":37.5221,"long":-81.8043},{"zip":"24847","city":"Itmann","state":"WV","lat":37.5734,"long":-81.4182},{"zip":"24849","city":"Jesse","state":"WV","lat":37.6608,"long":-81.5628},{"zip":"24854","city":"Kopperston","state":"WV","lat":37.744,"long":-81.575},{"zip":"24857","city":"Lynco","state":"WV","lat":37.6033,"long":-81.54},{"zip":"24859","city":"Marianna","state":"WV","lat":37.6033,"long":-81.54},{"zip":"24860","city":"Matheny","state":"WV","lat":37.6624,"long":-81.607},{"zip":"24867","city":"New Richmond","state":"WV","lat":37.5701,"long":-81.4887},{"zip":"24869","city":"North Spring","state":"WV","lat":37.5682,"long":-81.8254},{"zip":"24870","city":"Oceana","state":"WV","lat":37.7407,"long":-81.5831},{"zip":"24874","city":"Pineville","state":"WV","lat":37.584,"long":-81.5336},{"zip":"24880","city":"Rock View","state":"WV","lat":37.6033,"long":-81.54},{"zip":"24882","city":"Simon","state":"WV","lat":37.6197,"long":-81.7586},{"zip":"24898","city":"Wyoming","state":"WV","lat":37.6033,"long":-81.54}]
