[{"zip":"24901","city":"Lewisburg","state":"WV","lat":37.8083,"long":-80.4407},{"zip":"24902","city":"Fairlea","state":"WV","lat":37.7747,"long":-80.4615},{"zip":"24910","city":"Alderson","state":"WV","lat":37.7371,"long":-80.661},{"zip":"24916","city":"Asbury","state":"WV","lat":37.8313,"long":-80.5747},{"zip":"24925","city":"Caldwell","state":"WV","lat":37.7807,"long":-80.394},{"zip":"24931","city":"Crawley","state":"WV","lat":37.9397,"long":-80.6309},{"zip":"24938","city":"Frankford","state":"WV","lat":37.9154,"long":-80.3353},{"zip":"24943","city":"Grassy Meadows","state":"WV","lat":37.8268,"long":-80.7209},{"zip":"24957","city":"Maxwelton","state":"WV","lat":37.8765,"long":-80.4192},{"zip":"24966","city":"Renick","state":"WV","lat":37.9922,"long":-80.3653},{"zip":"24970","city":"Ronceverte","state":"WV","lat":37.7418,"long":-80.4626},{"zip":"24977","city":"Smoot","state":"WV","lat":37.8772,"long":-80.668},{"zip":"24986","city":"White Sulphur Springs","state":"WV","lat":37.7827,"long":-80.3129},{"zip":"24991","city":"Williamsburg","state":"WV","lat":37.9701,"long":-80.4923},{"zip":"24918","city":"Ballard","state":"WV","lat":37.498,"long":-80.7614},{"zip":"24941","city":"Gap Mills","state":"WV","lat":37.589,"long":-80.3401},{"zip":"24945","city":"Greenville","state":"WV","lat":37.5435,"long":-80.6826},{"zip":"24951","city":"Lindside","state":"WV","lat":37.4817,"long":-80.6203},{"zip":"24963","city":"Peterstown","state":"WV","lat":37.4147,"long":-80.7686},{"zip":"24974","city":"Secondcreek","state":"WV","lat":37.6654,"long":-80.454},{"zip":"24976","city":"Sinks Grove","state":"WV","lat":37.6643,"long":-80.5409},{"zip":"24983","city":"Union","state":"WV","lat":37.5802,"long":-80.5248},{"zip":"24984","city":"Waiteville","state":"WV","lat":37.4645,"long":-80.4634},{"zip":"24985","city":"Wayside","state":"WV","lat":37.5937,"long":-80.7458},{"zip":"24993","city":"Wolfcreek","state":"WV","lat":37.552,"long":-80.5397},{"zip":"24915","city":"Arbovale","state":"WV","lat":38.4546,"long":-79.7934},{"zip":"24920","city":"Bartow","state":"WV","lat":38.5513,"long":-79.7952},{"zip":"24924","city":"Buckeye","state":"WV","lat":38.186,"long":-80.1345},{"zip":"24927","city":"Cass","state":"WV","lat":38.388,"long":-79.9906},{"zip":"24934","city":"Dunmore","state":"WV","lat":38.3636,"long":-79.8556},{"zip":"24944","city":"Green Bank","state":"WV","lat":38.4097,"long":-79.8015},{"zip":"24946","city":"Hillsboro","state":"WV","lat":38.1109,"long":-80.2641},{"zip":"24954","city":"Marlinton","state":"WV","lat":38.2586,"long":-80.1046},{"zip":"24935","city":"Forest Hill","state":"WV","lat":37.5608,"long":-80.8111},{"zip":"24962","city":"Pence Springs","state":"WV","lat":37.6621,"long":-80.7202},{"zip":"24981","city":"Talcott","state":"WV","lat":37.6491,"long":-80.7461}]
