[{"zip":"25009","city":"Ashford","state":"WV","lat":38.1823,"long":-81.7113},{"zip":"25021","city":"Bim","state":"WV","lat":37.9218,"long":-81.6893},{"zip":"25024","city":"Bloomingrose","state":"WV","lat":38.1412,"long":-81.6367},{"zip":"25028","city":"Bob White","state":"WV","lat":37.9543,"long":-81.7185},{"zip":"25049","city":"Comfort","state":"WV","lat":38.1372,"long":-81.5962},{"zip":"25051","city":"Costa","state":"WV","lat":38.1591,"long":-81.7092},{"zip":"25053","city":"Danville","state":"WV","lat":38.0809,"long":-81.834},{"zip":"25081","city":"Foster","state":"WV","lat":38.0908,"long":-81.7659},{"zip":"25093","city":"Gordon","state":"WV","lat":37.987,"long":-81.6954},{"zip":"25019","city":"Bickmore","state":"WV","lat":38.3729,"long":-81.0868},{"zip":"25030","city":"Bomont","state":"WV","lat":38.4498,"long":-81.2323},{"zip":"25043","city":"Clay","state":"WV","lat":38.4764,"long":-81.0696},{"zip":"25063","city":"Duck","state":"WV","lat":38.5647,"long":-80.9764},{"zip":"25088","city":"Glen","state":"WV","lat":38.4658,"long":-81.0507},{"zip":"25002","city":"Alloy","state":"WV","lat":38.0413,"long":-81.0648},{"zip":"25031","city":"Boomer","state":"WV","lat":38.1519,"long":-81.2656},{"zip":"25036","city":"Cannelton","state":"WV","lat":38.1943,"long":-81.2959},{"zip":"25040","city":"Charlton Heights","state":"WV","lat":38.1237,"long":-81.234},{"zip":"25057","city":"Deep Water","state":"WV","lat":38.1268,"long":-81.2637},{"zip":"25085","city":"Gauley Bridge","state":"WV","lat":38.1689,"long":-81.196},{"zip":"25090","city":"Glen Ferris","state":"WV","lat":38.1532,"long":-81.2148},{"zip":"25003","city":"Alum Creek","state":"WV","lat":38.2868,"long":-81.8051},{"zip":"25015","city":"Belle","state":"WV","lat":38.2324,"long":-81.5024},{"zip":"25025","city":"Blount","state":"WV","lat":38.3121,"long":-81.4052},{"zip":"25026","city":"Blue Creek","state":"WV","lat":38.4908,"long":-81.3928},{"zip":"25035","city":"Cabin Creek","state":"WV","lat":38.193,"long":-81.4984},{"zip":"25039","city":"Cedar Grove","state":"WV","lat":38.2212,"long":-81.4279},{"zip":"25045","city":"Clendenin","state":"WV","lat":38.4539,"long":-81.3572},{"zip":"25054","city":"Dawes","state":"WV","lat":38.0737,"long":-81.4511},{"zip":"25061","city":"Drybranch","state":"WV","lat":38.2968,"long":-81.5547},{"zip":"25064","city":"Dunbar","state":"WV","lat":38.3683,"long":-81.7425},{"zip":"25067","city":"East Bank","state":"WV","lat":38.2099,"long":-81.4381},{"zip":"25071","city":"Elkview","state":"WV","lat":38.4429,"long":-81.4804},{"zip":"25075","city":"Eskdale","state":"WV","lat":38.0505,"long":-81.4227},{"zip":"25079","city":"Falling Rock","state":"WV","lat":38.4951,"long":-81.3984},{"zip":"25083","city":"Gallagher","state":"WV","lat":38.0704,"long":-81.3625},{"zip":"25086","city":"Glasgow","state":"WV","lat":38.2154,"long":-81.4246},{"zip":"25022","city":"Blair","state":"WV","lat":37.8784,"long":-81.8279},{"zip":"25047","city":"Clothier","state":"WV","lat":37.8332,"long":-81.9024},{"zip":"25076","city":"Ethel","state":"WV","lat":37.8665,"long":-81.9123},{"zip":"25059","city":"Dixie","state":"WV","lat":38.2509,"long":-81.1932},{"zip":"25011","city":"Bancroft","state":"WV","lat":38.5086,"long":-81.841},{"zip":"25033","city":"Buffalo","state":"WV","lat":38.6092,"long":-81.95},{"zip":"25070","city":"Eleanor","state":"WV","lat":38.5436,"long":-81.9414},{"zip":"25082","city":"Fraziers Bottom","state":"WV","lat":38.5517,"long":-82.0111},{"zip":"25007","city":"Arnett","state":"WV","lat":37.8334,"long":-81.4301},{"zip":"25008","city":"Artie","state":"WV","lat":37.94,"long":-81.3545},{"zip":"25044","city":"Clear Creek","state":"WV","lat":37.9162,"long":-81.3443},{"zip":"25048","city":"Colcord","state":"WV","lat":37.9439,"long":-81.4369},{"zip":"25060","city":"Dorothy","state":"WV","lat":37.9622,"long":-81.4968},{"zip":"25062","city":"Dry Creek","state":"WV","lat":37.8749,"long":-81.4412},{"zip":"25005","city":"Amma","state":"WV","lat":38.5687,"long":-81.2657}]
