[{"zip":"25108","city":"Hewett","state":"WV","lat":37.9581,"long":-81.8509},{"zip":"25114","city":"Jeffrey","state":"WV","lat":37.9715,"long":-81.8215},{"zip":"25130","city":"Madison","state":"WV","lat":38.0444,"long":-81.7938},{"zip":"25142","city":"Nellis","state":"WV","lat":38.153,"long":-81.7321},{"zip":"25148","city":"Orgas","state":"WV","lat":38.0492,"long":-81.5688},{"zip":"25149","city":"Ottawa","state":"WV","lat":37.9971,"long":-81.717},{"zip":"25154","city":"Peytona","state":"WV","lat":38.125,"long":-81.7018},{"zip":"25165","city":"Racine","state":"WV","lat":38.141,"long":-81.6588},{"zip":"25169","city":"Ridgeview","state":"WV","lat":38.1486,"long":-81.7725},{"zip":"25181","city":"Seth","state":"WV","lat":38.0971,"long":-81.6393},{"zip":"25193","city":"Sylvester","state":"WV","lat":38.0091,"long":-81.5492},{"zip":"25111","city":"Indore","state":"WV","lat":38.3498,"long":-81.1269},{"zip":"25113","city":"Ivydale","state":"WV","lat":38.5357,"long":-81.0348},{"zip":"25125","city":"Lizemores","state":"WV","lat":38.3366,"long":-81.1633},{"zip":"25133","city":"Maysel","state":"WV","lat":38.4939,"long":-81.1227},{"zip":"25141","city":"Nebo","state":"WV","lat":38.6271,"long":-81.0257},{"zip":"25164","city":"Procious","state":"WV","lat":38.4912,"long":-81.1989},{"zip":"25115","city":"Kanawha Falls","state":"WV","lat":38.1426,"long":-81.2065},{"zip":"25118","city":"Kimberly","state":"WV","lat":38.1249,"long":-81.3217},{"zip":"25119","city":"Kincaid","state":"WV","lat":38.0407,"long":-81.2701},{"zip":"25136","city":"Montgomery","state":"WV","lat":38.1725,"long":-81.3222},{"zip":"25139","city":"Mount Carbon","state":"WV","lat":38.1399,"long":-81.2931},{"zip":"25152","city":"Page","state":"WV","lat":38.0529,"long":-81.2698},{"zip":"25161","city":"Powellton","state":"WV","lat":38.099,"long":-81.324},{"zip":"25173","city":"Robson","state":"WV","lat":38.0973,"long":-81.2488},{"zip":"25185","city":"Mount Olive","state":"WV","lat":38.0413,"long":-81.0648},{"zip":"25186","city":"Smithers","state":"WV","lat":38.1812,"long":-81.3071},{"zip":"25102","city":"Handley","state":"WV","lat":38.1879,"long":-81.3657},{"zip":"25103","city":"Hansford","state":"WV","lat":38.207,"long":-81.3929},{"zip":"25107","city":"Hernshaw","state":"WV","lat":38.1942,"long":-81.613},{"zip":"25110","city":"Hugheston","state":"WV","lat":38.2095,"long":-81.3726},{"zip":"25112","city":"Institute","state":"WV","lat":38.2825,"long":-81.5651},{"zip":"25126","city":"London","state":"WV","lat":38.196,"long":-81.3714},{"zip":"25132","city":"Mammoth","state":"WV","lat":38.2583,"long":-81.3509},{"zip":"25134","city":"Miami","state":"WV","lat":38.1523,"long":-81.4479},{"zip":"25143","city":"Nitro","state":"WV","lat":38.4193,"long":-81.8293},{"zip":"25156","city":"Pinch","state":"WV","lat":38.402,"long":-81.4611},{"zip":"25160","city":"Pond Gap","state":"WV","lat":38.2904,"long":-81.2866},{"zip":"25162","city":"Pratt","state":"WV","lat":38.2101,"long":-81.3851},{"zip":"25177","city":"Saint Albans","state":"WV","lat":38.3774,"long":-81.8305},{"zip":"25121","city":"Lake","state":"WV","lat":37.9204,"long":-81.9034},{"zip":"25183","city":"Sharples","state":"WV","lat":37.9204,"long":-81.8293},{"zip":"25106","city":"Henderson","state":"WV","lat":38.8265,"long":-82.1364},{"zip":"25123","city":"Leon","state":"WV","lat":38.7048,"long":-81.9145},{"zip":"25187","city":"Southside","state":"WV","lat":38.712,"long":-81.9966},{"zip":"25109","city":"Hometown","state":"WV","lat":38.5329,"long":-81.8612},{"zip":"25124","city":"Liberty","state":"WV","lat":38.62,"long":-81.7678},{"zip":"25159","city":"Poca","state":"WV","lat":38.4791,"long":-81.7838},{"zip":"25168","city":"Red House","state":"WV","lat":38.5463,"long":-81.9045},{"zip":"25140","city":"Naoma","state":"WV","lat":37.8676,"long":-81.4873},{"zip":"25174","city":"Rock Creek","state":"WV","lat":37.8547,"long":-81.4184},{"zip":"25180","city":"Saxon","state":"WV","lat":37.7901,"long":-81.4346}]
