[{"zip":"25203","city":"Turtle Creek","state":"WV","lat":37.9863,"long":-81.9427},{"zip":"25204","city":"Twilight","state":"WV","lat":37.926,"long":-81.6141},{"zip":"25205","city":"Uneeda","state":"WV","lat":38.0428,"long":-81.8053},{"zip":"25206","city":"Van","state":"WV","lat":37.9712,"long":-81.7022},{"zip":"25208","city":"Wharton","state":"WV","lat":37.9034,"long":-81.6773},{"zip":"25209","city":"Whitesville","state":"WV","lat":37.9916,"long":-81.5422},{"zip":"25234","city":"Arnoldsburg","state":"WV","lat":38.8227,"long":-81.1551},{"zip":"25235","city":"Chloe","state":"WV","lat":38.6686,"long":-81.0944},{"zip":"25261","city":"Millstone","state":"WV","lat":38.8015,"long":-81.0962},{"zip":"25268","city":"Orma","state":"WV","lat":38.7481,"long":-81.0998},{"zip":"25211","city":"Widen","state":"WV","lat":38.4662,"long":-80.8573},{"zip":"25285","city":"Wallback","state":"WV","lat":38.5432,"long":-81.1114},{"zip":"25267","city":"Normantown","state":"WV","lat":38.8802,"long":-80.9419},{"zip":"25231","city":"Advent","state":"WV","lat":38.6104,"long":-81.5587},{"zip":"25239","city":"Cottageville","state":"WV","lat":38.8633,"long":-81.8186},{"zip":"25241","city":"Evans","state":"WV","lat":38.8113,"long":-81.7909},{"zip":"25244","city":"Gay","state":"WV","lat":38.7706,"long":-81.5532},{"zip":"25245","city":"Given","state":"WV","lat":38.707,"long":-81.7223},{"zip":"25248","city":"Kenna","state":"WV","lat":38.6232,"long":-81.6217},{"zip":"25252","city":"Le Roy","state":"WV","lat":38.8888,"long":-81.5326},{"zip":"25262","city":"Millwood","state":"WV","lat":38.8962,"long":-81.8248},{"zip":"25264","city":"Mount Alto","state":"WV","lat":38.8639,"long":-81.8784},{"zip":"25271","city":"Ripley","state":"WV","lat":38.809,"long":-81.702},{"zip":"25275","city":"Sandyville","state":"WV","lat":38.9093,"long":-81.6543},{"zip":"25201","city":"Tad","state":"WV","lat":38.2968,"long":-81.5547},{"zip":"25202","city":"Tornado","state":"WV","lat":38.3357,"long":-81.8476},{"zip":"25214","city":"Winifrede","state":"WV","lat":38.1852,"long":-81.5587},{"zip":"25247","city":"Hartford","state":"WV","lat":39.004,"long":-81.989},{"zip":"25253","city":"Letart","state":"WV","lat":38.9311,"long":-81.9751},{"zip":"25260","city":"Mason","state":"WV","lat":39.0064,"long":-82.0282},{"zip":"25265","city":"New Haven","state":"WV","lat":38.9863,"long":-81.9652},{"zip":"25287","city":"West Columbia","state":"WV","lat":38.9574,"long":-82.0517},{"zip":"25213","city":"Winfield","state":"WV","lat":38.5072,"long":-81.89},{"zip":"25243","city":"Gandeeville","state":"WV","lat":38.7034,"long":-81.4243},{"zip":"25251","city":"Left Hand","state":"WV","lat":38.6063,"long":-81.2467},{"zip":"25259","city":"Looneyville","state":"WV","lat":38.6641,"long":-81.2822},{"zip":"25266","city":"Newton","state":"WV","lat":38.606,"long":-81.1623},{"zip":"25270","city":"Reedy","state":"WV","lat":38.8889,"long":-81.4399},{"zip":"25276","city":"Spencer","state":"WV","lat":38.7897,"long":-81.3303},{"zip":"25286","city":"Walton","state":"WV","lat":38.6023,"long":-81.3958}]
