[{"zip":"25301","city":"Charleston","state":"WV","lat":38.349,"long":-81.6306},{"zip":"25302","city":"Charleston","state":"WV","lat":38.4015,"long":-81.5841},{"zip":"25303","city":"South Charleston","state":"WV","lat":38.3684,"long":-81.6996},{"zip":"25304","city":"Charleston","state":"WV","lat":38.3173,"long":-81.5903},{"zip":"25305","city":"Charleston","state":"WV","lat":38.3358,"long":-81.6123},{"zip":"25306","city":"Charleston","state":"WV","lat":38.3175,"long":-81.5274},{"zip":"25309","city":"South Charleston","state":"WV","lat":38.3684,"long":-81.6996},{"zip":"25311","city":"Charleston","state":"WV","lat":38.349,"long":-81.5993},{"zip":"25312","city":"Charleston","state":"WV","lat":38.4096,"long":-81.6747},{"zip":"25313","city":"Charleston","state":"WV","lat":38.4142,"long":-81.7582},{"zip":"25314","city":"Charleston","state":"WV","lat":38.3274,"long":-81.669},{"zip":"25315","city":"Charleston","state":"WV","lat":38.2351,"long":-81.5536},{"zip":"25317","city":"Charleston","state":"WV","lat":38.3356,"long":-81.6138},{"zip":"25320","city":"Charleston","state":"WV","lat":38.5428,"long":-81.6334},{"zip":"25321","city":"Charleston","state":"WV","lat":38.3498,"long":-81.6326},{"zip":"25322","city":"Charleston","state":"WV","lat":38.3498,"long":-81.6326},{"zip":"25323","city":"Charleston","state":"WV","lat":38.3498,"long":-81.6326},{"zip":"25324","city":"Charleston","state":"WV","lat":38.3498,"long":-81.6326},{"zip":"25325","city":"Charleston","state":"WV","lat":38.3498,"long":-81.6326},{"zip":"25326","city":"Charleston","state":"WV","lat":38.2968,"long":-81.5547},{"zip":"25327","city":"Charleston","state":"WV","lat":38.3498,"long":-81.6326},{"zip":"25328","city":"Charleston","state":"WV","lat":38.3498,"long":-81.6326},{"zip":"25329","city":"Charleston","state":"WV","lat":38.3498,"long":-81.6326},{"zip":"25330","city":"Charleston","state":"WV","lat":38.3498,"long":-81.6326},{"zip":"25331","city":"Charleston","state":"WV","lat":38.3498,"long":-81.6326},{"zip":"25332","city":"Charleston","state":"WV","lat":38.3498,"long":-81.6326},{"zip":"25333","city":"Charleston","state":"WV","lat":38.3498,"long":-81.6326},{"zip":"25334","city":"Charleston","state":"WV","lat":38.3498,"long":-81.6326},{"zip":"25335","city":"Charleston","state":"WV","lat":38.3498,"long":-81.6326},{"zip":"25336","city":"Charleston","state":"WV","lat":38.3498,"long":-81.6326},{"zip":"25337","city":"Charleston","state":"WV","lat":38.3498,"long":-81.6326},{"zip":"25338","city":"Charleston","state":"WV","lat":38.3498,"long":-81.6326},{"zip":"25339","city":"Charleston","state":"WV","lat":38.3498,"long":-81.6326},{"zip":"25350","city":"Charleston","state":"WV","lat":38.3498,"long":-81.6326},{"zip":"25356","city":"Charleston","state":"WV","lat":38.2968,"long":-81.5547},{"zip":"25357","city":"Charleston","state":"WV","lat":38.2968,"long":-81.5547},{"zip":"25358","city":"Charleston","state":"WV","lat":38.2968,"long":-81.5547},{"zip":"25360","city":"Charleston","state":"WV","lat":38.2968,"long":-81.5547},{"zip":"25361","city":"Charleston","state":"WV","lat":38.2968,"long":-81.5547},{"zip":"25362","city":"Charleston","state":"WV","lat":38.2968,"long":-81.5547},{"zip":"25364","city":"Charleston","state":"WV","lat":38.2968,"long":-81.5547},{"zip":"25365","city":"Charleston","state":"WV","lat":38.2968,"long":-81.5547},{"zip":"25375","city":"Charleston","state":"WV","lat":38.3498,"long":-81.6326},{"zip":"25387","city":"Charleston","state":"WV","lat":38.3498,"long":-81.6326},{"zip":"25389","city":"Charleston","state":"WV","lat":38.354,"long":-81.6394},{"zip":"25392","city":"Charleston","state":"WV","lat":38.3498,"long":-81.6326},{"zip":"25396","city":"Charleston","state":"WV","lat":38.3498,"long":-81.6326}]
