[{"zip":"25401","city":"Martinsburg","state":"WV","lat":39.4567,"long":-77.9727},{"zip":"25402","city":"Martinsburg","state":"WV","lat":39.4562,"long":-77.9639},{"zip":"25403","city":"Martinsburg","state":"WV","lat":39.5227,"long":-77.9747},{"zip":"25404","city":"Martinsburg","state":"WV","lat":39.4852,"long":-77.8954},{"zip":"25405","city":"Martinsburg","state":"WV","lat":39.4092,"long":-77.9615},{"zip":"25413","city":"Bunker Hill","state":"WV","lat":39.3276,"long":-78.0487},{"zip":"25419","city":"Falling Waters","state":"WV","lat":39.5865,"long":-77.8852},{"zip":"25420","city":"Gerrardstown","state":"WV","lat":39.378,"long":-78.1141},{"zip":"25421","city":"Glengary","state":"WV","lat":39.3813,"long":-78.1435},{"zip":"25427","city":"Hedgesville","state":"WV","lat":39.5214,"long":-78.0912},{"zip":"25428","city":"Inwood","state":"WV","lat":39.3701,"long":-78.0242},{"zip":"25440","city":"Ridgeway","state":"WV","lat":39.2973,"long":-78.0717},{"zip":"25431","city":"Levels","state":"WV","lat":39.4976,"long":-78.5508},{"zip":"25437","city":"Points","state":"WV","lat":39.4572,"long":-78.5641},{"zip":"25444","city":"Slanesville","state":"WV","lat":39.4026,"long":-78.506},{"zip":"25410","city":"Bakerton","state":"WV","lat":39.3159,"long":-77.8772},{"zip":"25414","city":"Charles Town","state":"WV","lat":39.2771,"long":-77.8563},{"zip":"25423","city":"Halltown","state":"WV","lat":39.314,"long":-77.7978},{"zip":"25425","city":"Harpers Ferry","state":"WV","lat":39.3153,"long":-77.7694},{"zip":"25430","city":"Kearneysville","state":"WV","lat":39.322,"long":-77.9588},{"zip":"25432","city":"Millville","state":"WV","lat":39.294,"long":-77.7858},{"zip":"25438","city":"Ranson","state":"WV","lat":39.2995,"long":-77.8606},{"zip":"25441","city":"Rippon","state":"WV","lat":39.3159,"long":-77.8772},{"zip":"25442","city":"Shenandoah Junction","state":"WV","lat":39.3716,"long":-77.8229},{"zip":"25443","city":"Shepherdstown","state":"WV","lat":39.4311,"long":-77.8158},{"zip":"25446","city":"Summit Point","state":"WV","lat":39.2338,"long":-77.9586},{"zip":"25411","city":"Berkeley Springs","state":"WV","lat":39.5526,"long":-78.1877},{"zip":"25422","city":"Great Cacapon","state":"WV","lat":39.5836,"long":-78.3331},{"zip":"25434","city":"Paw Paw","state":"WV","lat":39.4923,"long":-78.4586}]
