[{"zip":"25529","city":"Julian","state":"WV","lat":38.1264,"long":-81.8642},{"zip":"25504","city":"Barboursville","state":"WV","lat":38.3893,"long":-82.296},{"zip":"25510","city":"Culloden","state":"WV","lat":38.4198,"long":-82.069},{"zip":"25537","city":"Lesage","state":"WV","lat":38.477,"long":-82.2957},{"zip":"25541","city":"Milton","state":"WV","lat":38.414,"long":-82.1458},{"zip":"25545","city":"Ona","state":"WV","lat":38.4529,"long":-82.2181},{"zip":"25559","city":"Salt Rock","state":"WV","lat":38.3265,"long":-82.247},{"zip":"25501","city":"Alkol","state":"WV","lat":38.1609,"long":-81.984},{"zip":"25506","city":"Branchland","state":"WV","lat":38.2694,"long":-82.2684},{"zip":"25521","city":"Griffithsville","state":"WV","lat":38.2197,"long":-81.9995},{"zip":"25523","city":"Hamlin","state":"WV","lat":38.2896,"long":-82.1047},{"zip":"25524","city":"Harts","state":"WV","lat":38.0341,"long":-82.1008},{"zip":"25540","city":"Midkiff","state":"WV","lat":38.1602,"long":-82.0541},{"zip":"25544","city":"Myra","state":"WV","lat":38.2198,"long":-82.1351},{"zip":"25557","city":"Ranger","state":"WV","lat":38.097,"long":-82.1633},{"zip":"25564","city":"Sod","state":"WV","lat":38.2559,"long":-81.891},{"zip":"25565","city":"Spurlockville","state":"WV","lat":38.1057,"long":-82.0272},{"zip":"25567","city":"Sumerco","state":"WV","lat":38.2312,"long":-81.9115},{"zip":"25571","city":"West Hamlin","state":"WV","lat":38.2886,"long":-82.1843},{"zip":"25572","city":"Woodville","state":"WV","lat":38.1615,"long":-81.8921},{"zip":"25573","city":"Yawkey","state":"WV","lat":38.2193,"long":-81.9568},{"zip":"25505","city":"Big Creek","state":"WV","lat":38.0043,"long":-82.0401},{"zip":"25508","city":"Chapmanville","state":"WV","lat":37.9737,"long":-82.0174},{"zip":"25547","city":"Pecks Mill","state":"WV","lat":37.9298,"long":-81.9654},{"zip":"25502","city":"Apple Grove","state":"WV","lat":38.6575,"long":-82.1068},{"zip":"25503","city":"Ashton","state":"WV","lat":38.6032,"long":-82.1123},{"zip":"25515","city":"Gallipolis Ferry","state":"WV","lat":38.765,"long":-82.1535},{"zip":"25520","city":"Glenwood","state":"WV","lat":38.5909,"long":-82.1773},{"zip":"25550","city":"Point Pleasant","state":"WV","lat":38.8632,"long":-82.1132},{"zip":"25526","city":"Hurricane","state":"WV","lat":38.4257,"long":-81.9943},{"zip":"25560","city":"Scott Depot","state":"WV","lat":38.4501,"long":-81.9005},{"zip":"25569","city":"Teays","state":"WV","lat":38.4754,"long":-81.8805},{"zip":"25507","city":"Ceredo","state":"WV","lat":38.3965,"long":-82.5588},{"zip":"25511","city":"Dunlow","state":"WV","lat":38.0231,"long":-82.4315},{"zip":"25512","city":"East Lynn","state":"WV","lat":38.1995,"long":-82.3279},{"zip":"25514","city":"Fort Gay","state":"WV","lat":38.1335,"long":-82.5541},{"zip":"25517","city":"Genoa","state":"WV","lat":38.1321,"long":-82.4183},{"zip":"25530","city":"Kenova","state":"WV","lat":38.3569,"long":-82.5255},{"zip":"25534","city":"Kiahsville","state":"WV","lat":38.0915,"long":-82.3274},{"zip":"25535","city":"Lavalette","state":"WV","lat":38.3305,"long":-82.4287},{"zip":"25555","city":"Prichard","state":"WV","lat":38.23,"long":-82.5753},{"zip":"25562","city":"Shoals","state":"WV","lat":38.3432,"long":-82.4905},{"zip":"25570","city":"Wayne","state":"WV","lat":38.2258,"long":-82.4339}]
