[{"zip":"25701","city":"Huntington","state":"WV","lat":38.4097,"long":-82.4423},{"zip":"25702","city":"Huntington","state":"WV","lat":38.4286,"long":-82.3911},{"zip":"25703","city":"Huntington","state":"WV","lat":38.4211,"long":-82.4227},{"zip":"25704","city":"Huntington","state":"WV","lat":38.3849,"long":-82.5036},{"zip":"25705","city":"Huntington","state":"WV","lat":38.4096,"long":-82.369},{"zip":"25706","city":"Huntington","state":"WV","lat":38.4134,"long":-82.2774},{"zip":"25707","city":"Huntington","state":"WV","lat":38.4134,"long":-82.2774},{"zip":"25708","city":"Huntington","state":"WV","lat":38.4192,"long":-82.4452},{"zip":"25710","city":"Huntington","state":"WV","lat":38.4192,"long":-82.4452},{"zip":"25711","city":"Huntington","state":"WV","lat":38.4134,"long":-82.2774},{"zip":"25712","city":"Huntington","state":"WV","lat":38.4134,"long":-82.2774},{"zip":"25713","city":"Huntington","state":"WV","lat":38.4134,"long":-82.2774},{"zip":"25714","city":"Huntington","state":"WV","lat":38.4134,"long":-82.2774},{"zip":"25715","city":"Huntington","state":"WV","lat":38.4134,"long":-82.2774},{"zip":"25716","city":"Huntington","state":"WV","lat":38.4134,"long":-82.2774},{"zip":"25717","city":"Huntington","state":"WV","lat":38.4192,"long":-82.4452},{"zip":"25718","city":"Huntington","state":"WV","lat":38.4192,"long":-82.4452},{"zip":"25719","city":"Huntington","state":"WV","lat":38.4192,"long":-82.4452},{"zip":"25720","city":"Huntington","state":"WV","lat":38.4134,"long":-82.2774},{"zip":"25721","city":"Huntington","state":"WV","lat":38.4192,"long":-82.4452},{"zip":"25722","city":"Huntington","state":"WV","lat":38.4192,"long":-82.4452},{"zip":"25723","city":"Huntington","state":"WV","lat":38.4192,"long":-82.4452},{"zip":"25724","city":"Huntington","state":"WV","lat":38.4192,"long":-82.4452},{"zip":"25725","city":"Huntington","state":"WV","lat":38.4134,"long":-82.2774},{"zip":"25726","city":"Huntington","state":"WV","lat":38.4134,"long":-82.2774},{"zip":"25727","city":"Huntington","state":"WV","lat":38.4134,"long":-82.2774},{"zip":"25728","city":"Huntington","state":"WV","lat":38.4134,"long":-82.2774},{"zip":"25729","city":"Huntington","state":"WV","lat":38.4134,"long":-82.2774},{"zip":"25755","city":"Huntington","state":"WV","lat":38.4221,"long":-82.4317},{"zip":"25770","city":"Huntington","state":"WV","lat":38.4134,"long":-82.2774},{"zip":"25771","city":"Huntington","state":"WV","lat":38.4134,"long":-82.2774},{"zip":"25772","city":"Huntington","state":"WV","lat":38.4134,"long":-82.2774},{"zip":"25773","city":"Huntington","state":"WV","lat":38.4134,"long":-82.2774},{"zip":"25774","city":"Huntington","state":"WV","lat":38.4134,"long":-82.2774},{"zip":"25775","city":"Huntington","state":"WV","lat":38.4134,"long":-82.2774},{"zip":"25776","city":"Huntington","state":"WV","lat":38.4134,"long":-82.2774},{"zip":"25777","city":"Huntington","state":"WV","lat":38.4134,"long":-82.2774},{"zip":"25778","city":"Huntington","state":"WV","lat":38.4134,"long":-82.2774},{"zip":"25779","city":"Huntington","state":"WV","lat":38.4134,"long":-82.2774},{"zip":"25709","city":"Huntington","state":"WV","lat":38.4192,"long":-82.4452}]
