[{"zip":"25812","city":"Ansted","state":"WV","lat":38.1369,"long":-81.0955},{"zip":"25831","city":"Danese","state":"WV","lat":37.9567,"long":-80.9379},{"zip":"25833","city":"Dothan","state":"WV","lat":38.0413,"long":-81.0648},{"zip":"25837","city":"Edmond","state":"WV","lat":38.0544,"long":-81.0326},{"zip":"25840","city":"Fayetteville","state":"WV","lat":38.064,"long":-81.0943},{"zip":"25846","city":"Glen Jean","state":"WV","lat":37.9265,"long":-81.1501},{"zip":"25854","city":"Hico","state":"WV","lat":38.1094,"long":-80.9638},{"zip":"25855","city":"Hilltop","state":"WV","lat":38.0413,"long":-81.0648},{"zip":"25862","city":"Lansing","state":"WV","lat":38.0869,"long":-81.0588},{"zip":"25864","city":"Layland","state":"WV","lat":37.8893,"long":-80.9712},{"zip":"25866","city":"Lochgelly","state":"WV","lat":38.0107,"long":-81.1451},{"zip":"25868","city":"Lookout","state":"WV","lat":38.0654,"long":-80.9684},{"zip":"25879","city":"Minden","state":"WV","lat":37.9758,"long":-81.115},{"zip":"25880","city":"Mount Hope","state":"WV","lat":37.8782,"long":-81.2058},{"zip":"25820","city":"Camp Creek","state":"WV","lat":37.4841,"long":-81.1111},{"zip":"25841","city":"Flat Top","state":"WV","lat":37.55,"long":-81.128},{"zip":"25801","city":"Beckley","state":"WV","lat":37.7932,"long":-81.2061},{"zip":"25802","city":"Beckley","state":"WV","lat":37.7489,"long":-81.2245},{"zip":"25813","city":"Beaver","state":"WV","lat":37.7516,"long":-81.0731},{"zip":"25817","city":"Bolt","state":"WV","lat":37.7673,"long":-81.4156},{"zip":"25818","city":"Bradley","state":"WV","lat":37.8654,"long":-81.194},{"zip":"25823","city":"Coal City","state":"WV","lat":37.679,"long":-81.2104},{"zip":"25825","city":"Cool Ridge","state":"WV","lat":37.6655,"long":-81.0933},{"zip":"25827","city":"Crab Orchard","state":"WV","lat":37.7385,"long":-81.2536},{"zip":"25832","city":"Daniels","state":"WV","lat":37.7256,"long":-81.1087},{"zip":"25836","city":"Eccles","state":"WV","lat":37.7792,"long":-81.2635},{"zip":"25839","city":"Fairdale","state":"WV","lat":37.7815,"long":-81.3632},{"zip":"25843","city":"Ghent","state":"WV","lat":37.6208,"long":-81.1019},{"zip":"25844","city":"Glen Daniel","state":"WV","lat":37.8251,"long":-81.3858},{"zip":"25849","city":"Glen White","state":"WV","lat":37.7306,"long":-81.2799},{"zip":"25851","city":"Harper","state":"WV","lat":37.8025,"long":-81.2828},{"zip":"25853","city":"Helen","state":"WV","lat":37.6375,"long":-81.3138},{"zip":"25857","city":"Josephine","state":"WV","lat":37.6221,"long":-81.2176},{"zip":"25860","city":"Lanark","state":"WV","lat":37.8276,"long":-81.1462},{"zip":"25865","city":"Lester","state":"WV","lat":37.7265,"long":-81.3095},{"zip":"25871","city":"Mabscott","state":"WV","lat":37.77,"long":-81.2103},{"zip":"25873","city":"Mac Arthur","state":"WV","lat":37.7517,"long":-81.2148},{"zip":"25878","city":"Midway","state":"WV","lat":37.7171,"long":-81.24},{"zip":"25810","city":"Allen Junction","state":"WV","lat":37.5893,"long":-81.3507},{"zip":"25811","city":"Amigo","state":"WV","lat":37.6033,"long":-81.54},{"zip":"25826","city":"Corinne","state":"WV","lat":37.5729,"long":-81.3565},{"zip":"25845","city":"Glen Fork","state":"WV","lat":37.6959,"long":-81.529},{"zip":"25848","city":"Glen Rogers","state":"WV","lat":37.7217,"long":-81.429},{"zip":"25870","city":"Maben","state":"WV","lat":37.6108,"long":-81.5059},{"zip":"25875","city":"Mc Graws","state":"WV","lat":37.6033,"long":-81.54},{"zip":"25876","city":"Saulsville","state":"WV","lat":37.6429,"long":-81.4568},{"zip":"25882","city":"Mullens","state":"WV","lat":37.5842,"long":-81.389}]
