[{"zip":"25901","city":"Oak Hill","state":"WV","lat":37.9723,"long":-81.1487},{"zip":"25904","city":"Pax","state":"WV","lat":37.911,"long":-81.2648},{"zip":"25907","city":"Prince","state":"WV","lat":37.8532,"long":-81.0817},{"zip":"25917","city":"Scarbro","state":"WV","lat":37.9488,"long":-81.1531},{"zip":"25936","city":"Thurmond","state":"WV","lat":37.9554,"long":-81.0714},{"zip":"25938","city":"Victor","state":"WV","lat":38.1402,"long":-81.0322},{"zip":"25942","city":"Winona","state":"WV","lat":38.0413,"long":-81.0648},{"zip":"25976","city":"Meadow Bridge","state":"WV","lat":37.878,"long":-80.8521},{"zip":"25986","city":"Spring Dale","state":"WV","lat":37.8798,"long":-80.8034},{"zip":"25958","city":"Charmco","state":"WV","lat":38.0023,"long":-80.737},{"zip":"25962","city":"Rainelle","state":"WV","lat":37.9661,"long":-80.7821},{"zip":"25972","city":"Leslie","state":"WV","lat":38.0446,"long":-80.7229},{"zip":"25981","city":"Quinwood","state":"WV","lat":38.0576,"long":-80.7068},{"zip":"25984","city":"Rupert","state":"WV","lat":37.9685,"long":-80.6696},{"zip":"25922","city":"Spanishburg","state":"WV","lat":37.4605,"long":-81.1128},{"zip":"25971","city":"Lerona","state":"WV","lat":37.4925,"long":-80.9796},{"zip":"25902","city":"Odd","state":"WV","lat":37.593,"long":-81.1872},{"zip":"25906","city":"Piney View","state":"WV","lat":37.8376,"long":-81.1286},{"zip":"25908","city":"Princewick","state":"WV","lat":37.6724,"long":-81.2561},{"zip":"25909","city":"Prosperity","state":"WV","lat":37.8381,"long":-81.2004},{"zip":"25911","city":"Raleigh","state":"WV","lat":37.7585,"long":-81.1675},{"zip":"25915","city":"Rhodell","state":"WV","lat":37.6254,"long":-81.2749},{"zip":"25918","city":"Shady Spring","state":"WV","lat":37.7416,"long":-81.0149},{"zip":"25919","city":"Skelton","state":"WV","lat":37.8005,"long":-81.1806},{"zip":"25920","city":"Slab Fork","state":"WV","lat":37.6871,"long":-81.334},{"zip":"25921","city":"Sophia","state":"WV","lat":37.7076,"long":-81.2507},{"zip":"25927","city":"Stanaford","state":"WV","lat":37.8159,"long":-81.1523},{"zip":"25932","city":"Surveyor","state":"WV","lat":37.7565,"long":-81.3092},{"zip":"25989","city":"White Oak","state":"WV","lat":37.6929,"long":-81.0729},{"zip":"25951","city":"Hinton","state":"WV","lat":37.664,"long":-80.8678},{"zip":"25966","city":"Green Sulphur Springs","state":"WV","lat":37.6485,"long":-80.8774},{"zip":"25969","city":"Jumping Branch","state":"WV","lat":37.6188,"long":-81.0018},{"zip":"25977","city":"Meadow Creek","state":"WV","lat":37.8101,"long":-80.9231},{"zip":"25978","city":"Nimitz","state":"WV","lat":37.6286,"long":-80.9446},{"zip":"25979","city":"Pipestem","state":"WV","lat":37.5303,"long":-80.9463},{"zip":"25985","city":"Sandstone","state":"WV","lat":37.7599,"long":-80.8716},{"zip":"25913","city":"Ravencliff","state":"WV","lat":37.7141,"long":-81.4895},{"zip":"25916","city":"Sabine","state":"WV","lat":37.6787,"long":-81.5015},{"zip":"25928","city":"Stephenson","state":"WV","lat":37.5798,"long":-81.3339},{"zip":"25943","city":"Wyco","state":"WV","lat":37.599,"long":-81.3429}]
