[{"zip":"26238","city":"Volga","state":"WV","lat":39.1251,"long":-80.018},{"zip":"26250","city":"Belington","state":"WV","lat":39.0244,"long":-79.9495},{"zip":"26275","city":"Junior","state":"WV","lat":38.9784,"long":-79.9494},{"zip":"26349","city":"Galloway","state":"WV","lat":39.1251,"long":-80.018},{"zip":"26405","city":"Moatsville","state":"WV","lat":39.2234,"long":-79.9017},{"zip":"26416","city":"Philippi","state":"WV","lat":39.1613,"long":-80.0492},{"zip":"26335","city":"Burnsville","state":"WV","lat":38.7775,"long":-80.657},{"zip":"26601","city":"Sutton","state":"WV","lat":38.6541,"long":-80.676},{"zip":"26615","city":"Copen","state":"WV","lat":38.8376,"long":-80.7295},{"zip":"26619","city":"Exchange","state":"WV","lat":38.7358,"long":-80.7324},{"zip":"26621","city":"Flatwoods","state":"WV","lat":38.7232,"long":-80.6498},{"zip":"26623","city":"Frametown","state":"WV","lat":38.6305,"long":-80.8589},{"zip":"26624","city":"Gassaway","state":"WV","lat":38.6862,"long":-80.7863},{"zip":"26627","city":"Heaters","state":"WV","lat":38.7621,"long":-80.6406},{"zip":"26629","city":"Little Birch","state":"WV","lat":38.581,"long":-80.6931},{"zip":"26631","city":"Napier","state":"WV","lat":38.7909,"long":-80.5887},{"zip":"26030","city":"Beech Bottom","state":"WV","lat":40.2259,"long":-80.6513},{"zip":"26032","city":"Bethany","state":"WV","lat":40.2107,"long":-80.5503},{"zip":"26035","city":"Colliers","state":"WV","lat":40.3484,"long":-80.5493},{"zip":"26037","city":"Follansbee","state":"WV","lat":40.3296,"long":-80.585},{"zip":"26058","city":"Short Creek","state":"WV","lat":40.1856,"long":-80.6745},{"zip":"26070","city":"Wellsburg","state":"WV","lat":40.2548,"long":-80.5961},{"zip":"26075","city":"Windsor Heights","state":"WV","lat":40.1927,"long":-80.6659},{"zip":"26136","city":"Big Bend","state":"WV","lat":38.9719,"long":-81.136},{"zip":"26137","city":"Big Springs","state":"WV","lat":38.9854,"long":-81.0721},{"zip":"26147","city":"Grantsville","state":"WV","lat":38.9324,"long":-81.0763},{"zip":"26151","city":"Mount Zion","state":"WV","lat":38.8286,"long":-81.1322},{"zip":"26617","city":"Dille","state":"WV","lat":38.489,"long":-80.8257},{"zip":"26339","city":"Center Point","state":"WV","lat":39.4125,"long":-80.6352},{"zip":"26411","city":"New Milton","state":"WV","lat":39.1899,"long":-80.7076},{"zip":"26436","city":"Smithburg","state":"WV","lat":39.2893,"long":-80.7343},{"zip":"26456","city":"West Union","state":"WV","lat":39.2762,"long":-80.7911},{"zip":"26680","city":"Nallen","state":"WV","lat":38.1107,"long":-80.877},{"zip":"26342","city":"Coxs Mills","state":"WV","lat":39.0301,"long":-80.8498},{"zip":"26351","city":"Glenville","state":"WV","lat":38.9409,"long":-80.8313},{"zip":"26384","city":"Linn","state":"WV","lat":38.9573,"long":-80.73},{"zip":"26430","city":"Sand Fork","state":"WV","lat":38.914,"long":-80.7498},{"zip":"26443","city":"Troy","state":"WV","lat":39.0839,"long":-80.7549},{"zip":"26611","city":"Cedarville","state":"WV","lat":38.8451,"long":-80.8323},{"zip":"26636","city":"Rosedale","state":"WV","lat":38.7393,"long":-80.9429},{"zip":"26638","city":"Shock","state":"WV","lat":38.7617,"long":-81.0045},{"zip":"26707","city":"Bayard","state":"WV","lat":39.2729,"long":-79.3645},{"zip":"26720","city":"Gormania","state":"WV","lat":39.2803,"long":-79.3296},{"zip":"26731","city":"Lahmansville","state":"WV","lat":39.1642,"long":-79.0433},{"zip":"26739","city":"Mount Storm","state":"WV","lat":39.2652,"long":-79.2255},{"zip":"26833","city":"Maysville","state":"WV","lat":39.0712,"long":-79.1937},{"zip":"26847","city":"Petersburg","state":"WV","lat":38.9908,"long":-79.1293},{"zip":"26855","city":"Cabins","state":"WV","lat":38.9512,"long":-79.2783},{"zip":"26704","city":"Augusta","state":"WV","lat":39.2998,"long":-78.5931},{"zip":"26711","city":"Capon Bridge","state":"WV","lat":39.2802,"long":-78.4644},{"zip":"26714","city":"Delray","state":"WV","lat":39.1945,"long":-78.6042},{"zip":"26722","city":"Green Spring","state":"WV","lat":39.5029,"long":-78.6272},{"zip":"26755","city":"Rio","state":"WV","lat":39.1847,"long":-78.727},{"zip":"26757","city":"Romney","state":"WV","lat":39.3424,"long":-78.7481},{"zip":"26761","city":"Shanks","state":"WV","lat":39.2849,"long":-78.6995},{"zip":"26763","city":"Springfield","state":"WV","lat":39.463,"long":-78.695},{"zip":"26808","city":"High View","state":"WV","lat":39.2225,"long":-78.4425},{"zip":"26817","city":"Bloomery","state":"WV","lat":39.3604,"long":-78.3917},{"zip":"26823","city":"Capon Springs","state":"WV","lat":39.1362,"long":-78.4845},{"zip":"26852","city":"Purgitsville","state":"WV","lat":39.2681,"long":-78.906},{"zip":"26865","city":"Yellow Spring","state":"WV","lat":39.1823,"long":-78.5095},{"zip":"26034","city":"Chester","state":"WV","lat":40.5981,"long":-80.5584},{"zip":"26047","city":"New Cumberland","state":"WV","lat":40.5228,"long":-80.5901},{"zip":"26050","city":"Newell","state":"WV","lat":40.614,"long":-80.6011},{"zip":"26056","city":"New Manchester","state":"WV","lat":40.5315,"long":-80.5801},{"zip":"26062","city":"Weirton","state":"WV","lat":40.4137,"long":-80.5683},{"zip":"26801","city":"Baker","state":"WV","lat":39.0656,"long":-78.7748},{"zip":"26810","city":"Lost City","state":"WV","lat":38.9812,"long":-78.7448},{"zip":"26812","city":"Mathias","state":"WV","lat":38.8744,"long":-78.8814},{"zip":"26818","city":"Fisher","state":"WV","lat":39.075,"long":-79.0342},{"zip":"26836","city":"Moorefield","state":"WV","lat":38.9907,"long":-78.9745},{"zip":"26838","city":"Milam","state":"WV","lat":38.8125,"long":-79.0729},{"zip":"26845","city":"Old Fields","state":"WV","lat":39.1502,"long":-78.9509},{"zip":"26851","city":"Wardensville","state":"WV","lat":39.0562,"long":-78.6175},{"zip":"26301","city":"Clarksburg","state":"WV","lat":39.2874,"long":-80.3419},{"zip":"26302","city":"Clarksburg","state":"WV","lat":39.2677,"long":-80.3077},{"zip":"26306","city":"Clarksburg","state":"WV","lat":39.2852,"long":-80.3853},{"zip":"26323","city":"Anmoore","state":"WV","lat":39.2587,"long":-80.2875},{"zip":"26330","city":"Bridgeport","state":"WV","lat":39.2954,"long":-80.2427},{"zip":"26361","city":"Gypsy","state":"WV","lat":39.3687,"long":-80.3179},{"zip":"26366","city":"Haywood","state":"WV","lat":39.3812,"long":-80.3359},{"zip":"26369","city":"Hepzibah","state":"WV","lat":39.3312,"long":-80.3325},{"zip":"26385","city":"Lost Creek","state":"WV","lat":39.1725,"long":-80.3777},{"zip":"26386","city":"Lumberport","state":"WV","lat":39.3781,"long":-80.3676},{"zip":"26404","city":"Meadowbrook","state":"WV","lat":39.3518,"long":-80.3187},{"zip":"26408","city":"Mount Clare","state":"WV","lat":39.2107,"long":-80.2899},{"zip":"26422","city":"Reynoldsville","state":"WV","lat":39.2884,"long":-80.4348},{"zip":"26426","city":"Salem","state":"WV","lat":39.2829,"long":-80.559},{"zip":"26431","city":"Shinnston","state":"WV","lat":39.3888,"long":-80.2834},{"zip":"26438","city":"Spelter","state":"WV","lat":39.3465,"long":-80.3206},{"zip":"26448","city":"Wallace","state":"WV","lat":39.4117,"long":-80.4865},{"zip":"26451","city":"West Milford","state":"WV","lat":39.1996,"long":-80.4026},{"zip":"26463","city":"Wyatt","state":"WV","lat":39.4351,"long":-80.3534},{"zip":"26568","city":"Enterprise","state":"WV","lat":39.4209,"long":-80.2779},{"zip":"26164","city":"Ravenswood","state":"WV","lat":38.9468,"long":-81.7524},{"zip":"26321","city":"Alum Bridge","state":"WV","lat":39.0425,"long":-80.6882},{"zip":"26338","city":"Camden","state":"WV","lat":39.0893,"long":-80.5915},{"zip":"26343","city":"Crawford","state":"WV","lat":38.872,"long":-80.4368},{"zip":"26372","city":"Horner","state":"WV","lat":38.9726,"long":-80.3656},{"zip":"26376","city":"Ireland","state":"WV","lat":38.7763,"long":-80.4567},{"zip":"26378","city":"Jane Lew","state":"WV","lat":39.11,"long":-80.4311},{"zip":"26412","city":"Orlando","state":"WV","lat":38.8862,"long":-80.5849},{"zip":"26447","city":"Walkersville","state":"WV","lat":38.8507,"long":-80.4802},{"zip":"26452","city":"Weston","state":"WV","lat":39.0411,"long":-80.4737},{"zip":"26554","city":"Fairmont","state":"WV","lat":39.4941,"long":-80.2213},{"zip":"26555","city":"Fairmont","state":"WV","lat":39.5143,"long":-80.2185},{"zip":"26559","city":"Barrackville","state":"WV","lat":39.5052,"long":-80.1725},{"zip":"26560","city":"Baxter","state":"WV","lat":39.544,"long":-80.1423},{"zip":"26563","city":"Carolina","state":"WV","lat":39.4782,"long":-80.272},{"zip":"26566","city":"Colfax","state":"WV","lat":39.4348,"long":-80.1317},{"zip":"26570","city":"Fairview","state":"WV","lat":39.6103,"long":-80.2529},{"zip":"26571","city":"Farmington","state":"WV","lat":39.5029,"long":-80.2566},{"zip":"26572","city":"Four States","state":"WV","lat":39.4798,"long":-80.3098},{"zip":"26574","city":"Grant Town","state":"WV","lat":39.5587,"long":-80.1805},{"zip":"26576","city":"Idamay","state":"WV","lat":39.4877,"long":-80.2666},{"zip":"26578","city":"Kingmont","state":"WV","lat":39.4466,"long":-80.1762},{"zip":"26582","city":"Mannington","state":"WV","lat":39.522,"long":-80.3552},{"zip":"26585","city":"Metz","state":"WV","lat":39.6078,"long":-80.4168},{"zip":"26586","city":"Montana Mines","state":"WV","lat":39.5191,"long":-80.0897},{"zip":"26587","city":"Rachel","state":"WV","lat":39.5225,"long":-80.2957},{"zip":"26588","city":"Rivesville","state":"WV","lat":39.5568,"long":-80.1417},{"zip":"26591","city":"Worthington","state":"WV","lat":39.4522,"long":-80.2905},{"zip":"26031","city":"Benwood","state":"WV","lat":40.0181,"long":-80.7342},{"zip":"26033","city":"Cameron","state":"WV","lat":39.8227,"long":-80.5669},{"zip":"26036","city":"Dallas","state":"WV","lat":39.9783,"long":-80.5508},{"zip":"26038","city":"Glen Dale","state":"WV","lat":39.9597,"long":-80.7323},{"zip":"26039","city":"Glen Easton","state":"WV","lat":39.8531,"long":-80.6661},{"zip":"26040","city":"Mcmechen","state":"WV","lat":39.9881,"long":-80.7315},{"zip":"26041","city":"Moundsville","state":"WV","lat":39.9148,"long":-80.731},{"zip":"26055","city":"Proctor","state":"WV","lat":39.7207,"long":-80.7618},{"zip":"26710","city":"Burlington","state":"WV","lat":39.3376,"long":-78.9181},{"zip":"26717","city":"Elk Garden","state":"WV","lat":39.3631,"long":-79.1539},{"zip":"26719","city":"Fort Ashby","state":"WV","lat":39.497,"long":-78.7743},{"zip":"26726","city":"Keyser","state":"WV","lat":39.4527,"long":-78.8926},{"zip":"26743","city":"New Creek","state":"WV","lat":39.3612,"long":-79.0452},{"zip":"26750","city":"Piedmont","state":"WV","lat":39.4799,"long":-79.0489},{"zip":"26753","city":"Ridgeley","state":"WV","lat":39.5636,"long":-78.7887},{"zip":"26767","city":"Wiley Ford","state":"WV","lat":39.6133,"long":-78.775},{"zip":"26501","city":"Morgantown","state":"WV","lat":39.6099,"long":-79.9831},{"zip":"26502","city":"Morgantown","state":"WV","lat":39.6253,"long":-79.9672},{"zip":"26504","city":"Morgantown","state":"WV","lat":39.5785,"long":-80.093},{"zip":"26505","city":"Morgantown","state":"WV","lat":39.6505,"long":-79.944},{"zip":"26506","city":"Morgantown","state":"WV","lat":39.6453,"long":-79.9627},{"zip":"26507","city":"Morgantown","state":"WV","lat":39.6808,"long":-79.8365},{"zip":"26508","city":"Morgantown","state":"WV","lat":39.5953,"long":-79.9229},{"zip":"26521","city":"Blacksville","state":"WV","lat":39.7142,"long":-80.2265},{"zip":"26527","city":"Cassville","state":"WV","lat":39.6656,"long":-80.0637},{"zip":"26531","city":"Dellslow","state":"WV","lat":39.6053,"long":-79.8958},{"zip":"26534","city":"Granville","state":"WV","lat":39.6459,"long":-79.9873},{"zip":"26541","city":"Maidsville","state":"WV","lat":39.6884,"long":-79.9801},{"zip":"26543","city":"Osage","state":"WV","lat":39.6587,"long":-80.0076},{"zip":"26544","city":"Pentress","state":"WV","lat":39.5785,"long":-80.093},{"zip":"26546","city":"Pursglove","state":"WV","lat":39.6746,"long":-80.035},{"zip":"26590","city":"Wana","state":"WV","lat":39.6735,"long":-80.3183},{"zip":"26202","city":"Fenwick","state":"WV","lat":38.2447,"long":-80.635},{"zip":"26205","city":"Craigsville","state":"WV","lat":38.3254,"long":-80.6444},{"zip":"26261","city":"Richwood","state":"WV","lat":38.223,"long":-80.5445},{"zip":"26610","city":"Birch River","state":"WV","lat":38.4914,"long":-80.7459},{"zip":"26651","city":"Summersville","state":"WV","lat":38.3009,"long":-80.8353},{"zip":"26656","city":"Belva","state":"WV","lat":38.2491,"long":-81.1566},{"zip":"26660","city":"Calvin","state":"WV","lat":38.3368,"long":-80.7145},{"zip":"26662","city":"Canvas","state":"WV","lat":38.2624,"long":-80.7446},{"zip":"26667","city":"Drennen","state":"WV","lat":38.3184,"long":-80.8342},{"zip":"26671","city":"Gilboa","state":"WV","lat":38.3184,"long":-80.8342},{"zip":"26675","city":"Keslers Cross Lanes","state":"WV","lat":38.2354,"long":-80.9357},{"zip":"26676","city":"Leivasy","state":"WV","lat":38.1558,"long":-80.6827},{"zip":"26678","city":"Mount Lookout","state":"WV","lat":38.1821,"long":-80.9108},{"zip":"26679","city":"Mount Nebo","state":"WV","lat":38.1653,"long":-80.7976},{"zip":"26681","city":"Nettie","state":"WV","lat":38.209,"long":-80.6953},{"zip":"26684","city":"Pool","state":"WV","lat":38.1637,"long":-80.8643},{"zip":"26690","city":"Swiss","state":"WV","lat":38.2255,"long":-81.1273},{"zip":"26691","city":"Tioga","state":"WV","lat":38.4045,"long":-80.6667},{"zip":"26003","city":"Wheeling","state":"WV","lat":40.1027,"long":-80.6476},{"zip":"26059","city":"Triadelphia","state":"WV","lat":40.0699,"long":-80.5953},{"zip":"26060","city":"Valley Grove","state":"WV","lat":40.0946,"long":-80.5551},{"zip":"26074","city":"West Liberty","state":"WV","lat":40.1698,"long":-80.5958},{"zip":"26802","city":"Brandywine","state":"WV","lat":38.6357,"long":-79.2096},{"zip":"26804","city":"Circleville","state":"WV","lat":38.623,"long":-79.5367},{"zip":"26807","city":"Franklin","state":"WV","lat":38.64,"long":-79.3538},{"zip":"26814","city":"Riverton","state":"WV","lat":38.744,"long":-79.4359},{"zip":"26815","city":"Sugar Grove","state":"WV","lat":38.489,"long":-79.3593},{"zip":"26866","city":"Upper Tract","state":"WV","lat":38.795,"long":-79.2586},{"zip":"26884","city":"Seneca Rocks","state":"WV","lat":38.8296,"long":-79.3866},{"zip":"26886","city":"Onego","state":"WV","lat":38.8017,"long":-79.4507},{"zip":"26134","city":"Belmont","state":"WV","lat":39.3795,"long":-81.2584},{"zip":"26170","city":"Saint Marys","state":"WV","lat":39.386,"long":-81.1725},{"zip":"26209","city":"Snowshoe","state":"WV","lat":38.388,"long":-79.9906},{"zip":"26264","city":"Durbin","state":"WV","lat":38.5457,"long":-79.8251},{"zip":"26291","city":"Slatyfork","state":"WV","lat":38.388,"long":-79.9906},{"zip":"26374","city":"Independence","state":"WV","lat":39.4464,"long":-79.8822},{"zip":"26410","city":"Newburg","state":"WV","lat":39.4027,"long":-79.828},{"zip":"26425","city":"Rowlesburg","state":"WV","lat":39.313,"long":-79.7049},{"zip":"26444","city":"Tunnelton","state":"WV","lat":39.3625,"long":-79.7478},{"zip":"26519","city":"Albright","state":"WV","lat":39.5701,"long":-79.6358},{"zip":"26520","city":"Arthurdale","state":"WV","lat":39.4951,"long":-79.8151},{"zip":"26524","city":"Bretz","state":"WV","lat":39.5423,"long":-79.8006},{"zip":"26525","city":"Bruceton Mills","state":"WV","lat":39.6454,"long":-79.6159},{"zip":"26537","city":"Kingwood","state":"WV","lat":39.4819,"long":-79.7063},{"zip":"26542","city":"Masontown","state":"WV","lat":39.5731,"long":-79.7906},{"zip":"26547","city":"Reedsville","state":"WV","lat":39.5127,"long":-79.812},{"zip":"26705","city":"Aurora","state":"WV","lat":39.3181,"long":-79.5764},{"zip":"26716","city":"Eglon","state":"WV","lat":39.2925,"long":-79.5109},{"zip":"26764","city":"Terra Alta","state":"WV","lat":39.4456,"long":-79.5464},{"zip":"26224","city":"Helvetia","state":"WV","lat":38.7713,"long":-80.1382},{"zip":"26230","city":"Pickens","state":"WV","lat":38.6551,"long":-80.2117},{"zip":"26241","city":"Elkins","state":"WV","lat":38.9253,"long":-79.8471},{"zip":"26253","city":"Beverly","state":"WV","lat":38.828,"long":-79.8651},{"zip":"26254","city":"Bowden","state":"WV","lat":38.7534,"long":-79.8147},{"zip":"26257","city":"Coalton","state":"WV","lat":38.9144,"long":-79.9767},{"zip":"26259","city":"Dailey","state":"WV","lat":38.7534,"long":-79.8147},{"zip":"26263","city":"Dryfork","state":"WV","lat":38.9489,"long":-79.4376},{"zip":"26267","city":"Ellamore","state":"WV","lat":38.9243,"long":-80.0904},{"zip":"26268","city":"Glady","state":"WV","lat":38.7534,"long":-79.8147},{"zip":"26270","city":"Harman","state":"WV","lat":38.9234,"long":-79.5246},{"zip":"26273","city":"Huttonsville","state":"WV","lat":38.6784,"long":-79.9775},{"zip":"26276","city":"Kerens","state":"WV","lat":39.0299,"long":-79.7754},{"zip":"26278","city":"Mabie","state":"WV","lat":38.8765,"long":-79.9831},{"zip":"26280","city":"Mill Creek","state":"WV","lat":38.7325,"long":-79.9786},{"zip":"26282","city":"Monterville","state":"WV","lat":38.5517,"long":-80.1224},{"zip":"26283","city":"Montrose","state":"WV","lat":39.0964,"long":-79.7896},{"zip":"26285","city":"Norton","state":"WV","lat":38.9318,"long":-79.9656},{"zip":"26293","city":"Valley Bend","state":"WV","lat":38.7718,"long":-79.9253},{"zip":"26294","city":"Valley Head","state":"WV","lat":38.5315,"long":-80.0343},{"zip":"26296","city":"Whitmer","state":"WV","lat":38.7516,"long":-79.5819},{"zip":"26148","city":"Macfarlan","state":"WV","lat":39.0806,"long":-81.1776},{"zip":"26161","city":"Petroleum","state":"WV","lat":39.1741,"long":-81.2406},{"zip":"26178","city":"Smithville","state":"WV","lat":39.0671,"long":-81.062},{"zip":"26325","city":"Auburn","state":"WV","lat":39.0864,"long":-80.8837},{"zip":"26327","city":"Berea","state":"WV","lat":39.1365,"long":-80.9337},{"zip":"26337","city":"Cairo","state":"WV","lat":39.2325,"long":-81.1554},{"zip":"26346","city":"Ellenboro","state":"WV","lat":39.2969,"long":-81.0621},{"zip":"26362","city":"Harrisville","state":"WV","lat":39.1453,"long":-81.0341},{"zip":"26415","city":"Pennsboro","state":"WV","lat":39.2791,"long":-81.0019},{"zip":"26421","city":"Pullman","state":"WV","lat":39.19,"long":-80.9347},{"zip":"26347","city":"Flemington","state":"WV","lat":39.2665,"long":-80.132},{"zip":"26354","city":"Grafton","state":"WV","lat":39.3414,"long":-80.0285},{"zip":"26424","city":"Rosemont","state":"WV","lat":39.2687,"long":-80.1629},{"zip":"26435","city":"Simpson","state":"WV","lat":39.2668,"long":-80.0934},{"zip":"26440","city":"Thornton","state":"WV","lat":39.3329,"long":-79.9096},{"zip":"26260","city":"Davis","state":"WV","lat":39.0882,"long":-79.4563},{"zip":"26269","city":"Hambleton","state":"WV","lat":39.0821,"long":-79.6453},{"zip":"26271","city":"Hendricks","state":"WV","lat":39.0748,"long":-79.6303},{"zip":"26287","city":"Parsons","state":"WV","lat":39.096,"long":-79.6787},{"zip":"26289","city":"Red Creek","state":"WV","lat":39.1179,"long":-79.5637},{"zip":"26292","city":"Thomas","state":"WV","lat":39.1505,"long":-79.503},{"zip":"26146","city":"Friendly","state":"WV","lat":39.4961,"long":-81.0572},{"zip":"26149","city":"Middlebourne","state":"WV","lat":39.4942,"long":-80.9076},{"zip":"26175","city":"Sistersville","state":"WV","lat":39.5584,"long":-80.9818},{"zip":"26320","city":"Alma","state":"WV","lat":39.4506,"long":-80.8701},{"zip":"26434","city":"Shirley","state":"WV","lat":39.3981,"long":-80.7651},{"zip":"26201","city":"Buckhannon","state":"WV","lat":38.9755,"long":-80.2407},{"zip":"26210","city":"Adrian","state":"WV","lat":38.8993,"long":-80.2269},{"zip":"26215","city":"Cleveland","state":"WV","lat":38.7133,"long":-80.388},{"zip":"26218","city":"French Creek","state":"WV","lat":38.8993,"long":-80.2269},{"zip":"26219","city":"Frenchton","state":"WV","lat":38.8993,"long":-80.2269},{"zip":"26228","city":"Kanawha Head","state":"WV","lat":38.7618,"long":-80.3727},{"zip":"26229","city":"Lorentz","state":"WV","lat":39.0109,"long":-80.3023},{"zip":"26234","city":"Rock Cave","state":"WV","lat":38.7811,"long":-80.3163},{"zip":"26236","city":"Selbyville","state":"WV","lat":38.754,"long":-80.2365},{"zip":"26237","city":"Tallmansville","state":"WV","lat":38.8564,"long":-80.158},{"zip":"26203","city":"Erbacon","state":"WV","lat":38.5419,"long":-80.5742},{"zip":"26206","city":"Cowen","state":"WV","lat":38.4133,"long":-80.5358},{"zip":"26208","city":"Camden On Gauley","state":"WV","lat":38.3871,"long":-80.5907},{"zip":"26217","city":"Diana","state":"WV","lat":38.5755,"long":-80.432},{"zip":"26222","city":"Hacker Valley","state":"WV","lat":38.6526,"long":-80.3837},{"zip":"26266","city":"Upperglade","state":"WV","lat":38.4185,"long":-80.4965},{"zip":"26288","city":"Webster Springs","state":"WV","lat":38.4832,"long":-80.4476},{"zip":"26298","city":"Bergoo","state":"WV","lat":38.4865,"long":-80.3006},{"zip":"26155","city":"New Martinsville","state":"WV","lat":39.6588,"long":-80.8565},{"zip":"26159","city":"Paden City","state":"WV","lat":39.6044,"long":-80.9265},{"zip":"26162","city":"Porters Falls","state":"WV","lat":39.5798,"long":-80.7762},{"zip":"26167","city":"Reader","state":"WV","lat":39.5836,"long":-80.7516},{"zip":"26348","city":"Folsom","state":"WV","lat":39.4693,"long":-80.5258},{"zip":"26377","city":"Jacksonburg","state":"WV","lat":39.5416,"long":-80.6437},{"zip":"26419","city":"Pine Grove","state":"WV","lat":39.5755,"long":-80.6667},{"zip":"26437","city":"Smithfield","state":"WV","lat":39.5134,"long":-80.5582},{"zip":"26561","city":"Big Run","state":"WV","lat":39.5845,"long":-80.5776},{"zip":"26562","city":"Burton","state":"WV","lat":39.6511,"long":-80.4161},{"zip":"26575","city":"Hundred","state":"WV","lat":39.6917,"long":-80.4746},{"zip":"26581","city":"Littleton","state":"WV","lat":39.6592,"long":-80.5695},{"zip":"26138","city":"Brohard","state":"WV","lat":39.0338,"long":-81.1775},{"zip":"26141","city":"Creston","state":"WV","lat":38.9378,"long":-81.2369},{"zip":"26143","city":"Elizabeth","state":"WV","lat":39.0566,"long":-81.3989},{"zip":"26152","city":"Munday","state":"WV","lat":39.0405,"long":-81.372},{"zip":"26160","city":"Palestine","state":"WV","lat":38.9741,"long":-81.428},{"zip":"26101","city":"Parkersburg","state":"WV","lat":39.2644,"long":-81.5354},{"zip":"26102","city":"Parkersburg","state":"WV","lat":39.2183,"long":-81.4979},{"zip":"26103","city":"Parkersburg","state":"WV","lat":39.2364,"long":-81.5405},{"zip":"26104","city":"Parkersburg","state":"WV","lat":39.2804,"long":-81.4936},{"zip":"26105","city":"Vienna","state":"WV","lat":39.3251,"long":-81.5411},{"zip":"26106","city":"Parkersburg","state":"WV","lat":39.2183,"long":-81.4979},{"zip":"26120","city":"Mineral Wells","state":"WV","lat":39.2183,"long":-81.4979},{"zip":"26121","city":"Mineral Wells","state":"WV","lat":39.2183,"long":-81.4979},{"zip":"26133","city":"Belleville","state":"WV","lat":39.1314,"long":-81.6923},{"zip":"26142","city":"Davisville","state":"WV","lat":39.2126,"long":-81.4799},{"zip":"26150","city":"Mineral Wells","state":"WV","lat":39.1897,"long":-81.5139},{"zip":"26169","city":"Rockport","state":"WV","lat":39.0798,"long":-81.5713},{"zip":"26180","city":"Walker","state":"WV","lat":39.1821,"long":-81.3866},{"zip":"26181","city":"Washington","state":"WV","lat":39.2068,"long":-81.6577},{"zip":"26184","city":"Waverly","state":"WV","lat":39.3157,"long":-81.3819},{"zip":"26187","city":"Williamstown","state":"WV","lat":39.3824,"long":-81.4566}]
