[{"zip":"26030","city":"Beech Bottom","state":"WV","lat":40.2259,"long":-80.6513},{"zip":"26032","city":"Bethany","state":"WV","lat":40.2107,"long":-80.5503},{"zip":"26035","city":"Colliers","state":"WV","lat":40.3484,"long":-80.5493},{"zip":"26037","city":"Follansbee","state":"WV","lat":40.3296,"long":-80.585},{"zip":"26058","city":"Short Creek","state":"WV","lat":40.1856,"long":-80.6745},{"zip":"26070","city":"Wellsburg","state":"WV","lat":40.2548,"long":-80.5961},{"zip":"26075","city":"Windsor Heights","state":"WV","lat":40.1927,"long":-80.6659},{"zip":"26034","city":"Chester","state":"WV","lat":40.5981,"long":-80.5584},{"zip":"26047","city":"New Cumberland","state":"WV","lat":40.5228,"long":-80.5901},{"zip":"26050","city":"Newell","state":"WV","lat":40.614,"long":-80.6011},{"zip":"26056","city":"New Manchester","state":"WV","lat":40.5315,"long":-80.5801},{"zip":"26062","city":"Weirton","state":"WV","lat":40.4137,"long":-80.5683},{"zip":"26031","city":"Benwood","state":"WV","lat":40.0181,"long":-80.7342},{"zip":"26033","city":"Cameron","state":"WV","lat":39.8227,"long":-80.5669},{"zip":"26036","city":"Dallas","state":"WV","lat":39.9783,"long":-80.5508},{"zip":"26038","city":"Glen Dale","state":"WV","lat":39.9597,"long":-80.7323},{"zip":"26039","city":"Glen Easton","state":"WV","lat":39.8531,"long":-80.6661},{"zip":"26040","city":"Mcmechen","state":"WV","lat":39.9881,"long":-80.7315},{"zip":"26041","city":"Moundsville","state":"WV","lat":39.9148,"long":-80.731},{"zip":"26055","city":"Proctor","state":"WV","lat":39.7207,"long":-80.7618},{"zip":"26003","city":"Wheeling","state":"WV","lat":40.1027,"long":-80.6476},{"zip":"26059","city":"Triadelphia","state":"WV","lat":40.0699,"long":-80.5953},{"zip":"26060","city":"Valley Grove","state":"WV","lat":40.0946,"long":-80.5551},{"zip":"26074","city":"West Liberty","state":"WV","lat":40.1698,"long":-80.5958}]
