[{"zip":"26136","city":"Big Bend","state":"WV","lat":38.9719,"long":-81.136},{"zip":"26137","city":"Big Springs","state":"WV","lat":38.9854,"long":-81.0721},{"zip":"26147","city":"Grantsville","state":"WV","lat":38.9324,"long":-81.0763},{"zip":"26151","city":"Mount Zion","state":"WV","lat":38.8286,"long":-81.1322},{"zip":"26164","city":"Ravenswood","state":"WV","lat":38.9468,"long":-81.7524},{"zip":"26134","city":"Belmont","state":"WV","lat":39.3795,"long":-81.2584},{"zip":"26170","city":"Saint Marys","state":"WV","lat":39.386,"long":-81.1725},{"zip":"26148","city":"Macfarlan","state":"WV","lat":39.0806,"long":-81.1776},{"zip":"26161","city":"Petroleum","state":"WV","lat":39.1741,"long":-81.2406},{"zip":"26178","city":"Smithville","state":"WV","lat":39.0671,"long":-81.062},{"zip":"26146","city":"Friendly","state":"WV","lat":39.4961,"long":-81.0572},{"zip":"26149","city":"Middlebourne","state":"WV","lat":39.4942,"long":-80.9076},{"zip":"26175","city":"Sistersville","state":"WV","lat":39.5584,"long":-80.9818},{"zip":"26155","city":"New Martinsville","state":"WV","lat":39.6588,"long":-80.8565},{"zip":"26159","city":"Paden City","state":"WV","lat":39.6044,"long":-80.9265},{"zip":"26162","city":"Porters Falls","state":"WV","lat":39.5798,"long":-80.7762},{"zip":"26167","city":"Reader","state":"WV","lat":39.5836,"long":-80.7516},{"zip":"26138","city":"Brohard","state":"WV","lat":39.0338,"long":-81.1775},{"zip":"26141","city":"Creston","state":"WV","lat":38.9378,"long":-81.2369},{"zip":"26143","city":"Elizabeth","state":"WV","lat":39.0566,"long":-81.3989},{"zip":"26152","city":"Munday","state":"WV","lat":39.0405,"long":-81.372},{"zip":"26160","city":"Palestine","state":"WV","lat":38.9741,"long":-81.428},{"zip":"26101","city":"Parkersburg","state":"WV","lat":39.2644,"long":-81.5354},{"zip":"26102","city":"Parkersburg","state":"WV","lat":39.2183,"long":-81.4979},{"zip":"26103","city":"Parkersburg","state":"WV","lat":39.2364,"long":-81.5405},{"zip":"26104","city":"Parkersburg","state":"WV","lat":39.2804,"long":-81.4936},{"zip":"26105","city":"Vienna","state":"WV","lat":39.3251,"long":-81.5411},{"zip":"26106","city":"Parkersburg","state":"WV","lat":39.2183,"long":-81.4979},{"zip":"26120","city":"Mineral Wells","state":"WV","lat":39.2183,"long":-81.4979},{"zip":"26121","city":"Mineral Wells","state":"WV","lat":39.2183,"long":-81.4979},{"zip":"26133","city":"Belleville","state":"WV","lat":39.1314,"long":-81.6923},{"zip":"26142","city":"Davisville","state":"WV","lat":39.2126,"long":-81.4799},{"zip":"26150","city":"Mineral Wells","state":"WV","lat":39.1897,"long":-81.5139},{"zip":"26169","city":"Rockport","state":"WV","lat":39.0798,"long":-81.5713},{"zip":"26180","city":"Walker","state":"WV","lat":39.1821,"long":-81.3866},{"zip":"26181","city":"Washington","state":"WV","lat":39.2068,"long":-81.6577},{"zip":"26184","city":"Waverly","state":"WV","lat":39.3157,"long":-81.3819},{"zip":"26187","city":"Williamstown","state":"WV","lat":39.3824,"long":-81.4566}]
