[{"zip":"26238","city":"Volga","state":"WV","lat":39.1251,"long":-80.018},{"zip":"26250","city":"Belington","state":"WV","lat":39.0244,"long":-79.9495},{"zip":"26275","city":"Junior","state":"WV","lat":38.9784,"long":-79.9494},{"zip":"26202","city":"Fenwick","state":"WV","lat":38.2447,"long":-80.635},{"zip":"26205","city":"Craigsville","state":"WV","lat":38.3254,"long":-80.6444},{"zip":"26261","city":"Richwood","state":"WV","lat":38.223,"long":-80.5445},{"zip":"26209","city":"Snowshoe","state":"WV","lat":38.388,"long":-79.9906},{"zip":"26264","city":"Durbin","state":"WV","lat":38.5457,"long":-79.8251},{"zip":"26291","city":"Slatyfork","state":"WV","lat":38.388,"long":-79.9906},{"zip":"26224","city":"Helvetia","state":"WV","lat":38.7713,"long":-80.1382},{"zip":"26230","city":"Pickens","state":"WV","lat":38.6551,"long":-80.2117},{"zip":"26241","city":"Elkins","state":"WV","lat":38.9253,"long":-79.8471},{"zip":"26253","city":"Beverly","state":"WV","lat":38.828,"long":-79.8651},{"zip":"26254","city":"Bowden","state":"WV","lat":38.7534,"long":-79.8147},{"zip":"26257","city":"Coalton","state":"WV","lat":38.9144,"long":-79.9767},{"zip":"26259","city":"Dailey","state":"WV","lat":38.7534,"long":-79.8147},{"zip":"26263","city":"Dryfork","state":"WV","lat":38.9489,"long":-79.4376},{"zip":"26267","city":"Ellamore","state":"WV","lat":38.9243,"long":-80.0904},{"zip":"26268","city":"Glady","state":"WV","lat":38.7534,"long":-79.8147},{"zip":"26270","city":"Harman","state":"WV","lat":38.9234,"long":-79.5246},{"zip":"26273","city":"Huttonsville","state":"WV","lat":38.6784,"long":-79.9775},{"zip":"26276","city":"Kerens","state":"WV","lat":39.0299,"long":-79.7754},{"zip":"26278","city":"Mabie","state":"WV","lat":38.8765,"long":-79.9831},{"zip":"26280","city":"Mill Creek","state":"WV","lat":38.7325,"long":-79.9786},{"zip":"26282","city":"Monterville","state":"WV","lat":38.5517,"long":-80.1224},{"zip":"26283","city":"Montrose","state":"WV","lat":39.0964,"long":-79.7896},{"zip":"26285","city":"Norton","state":"WV","lat":38.9318,"long":-79.9656},{"zip":"26293","city":"Valley Bend","state":"WV","lat":38.7718,"long":-79.9253},{"zip":"26294","city":"Valley Head","state":"WV","lat":38.5315,"long":-80.0343},{"zip":"26296","city":"Whitmer","state":"WV","lat":38.7516,"long":-79.5819},{"zip":"26260","city":"Davis","state":"WV","lat":39.0882,"long":-79.4563},{"zip":"26269","city":"Hambleton","state":"WV","lat":39.0821,"long":-79.6453},{"zip":"26271","city":"Hendricks","state":"WV","lat":39.0748,"long":-79.6303},{"zip":"26287","city":"Parsons","state":"WV","lat":39.096,"long":-79.6787},{"zip":"26289","city":"Red Creek","state":"WV","lat":39.1179,"long":-79.5637},{"zip":"26292","city":"Thomas","state":"WV","lat":39.1505,"long":-79.503},{"zip":"26201","city":"Buckhannon","state":"WV","lat":38.9755,"long":-80.2407},{"zip":"26210","city":"Adrian","state":"WV","lat":38.8993,"long":-80.2269},{"zip":"26215","city":"Cleveland","state":"WV","lat":38.7133,"long":-80.388},{"zip":"26218","city":"French Creek","state":"WV","lat":38.8993,"long":-80.2269},{"zip":"26219","city":"Frenchton","state":"WV","lat":38.8993,"long":-80.2269},{"zip":"26228","city":"Kanawha Head","state":"WV","lat":38.7618,"long":-80.3727},{"zip":"26229","city":"Lorentz","state":"WV","lat":39.0109,"long":-80.3023},{"zip":"26234","city":"Rock Cave","state":"WV","lat":38.7811,"long":-80.3163},{"zip":"26236","city":"Selbyville","state":"WV","lat":38.754,"long":-80.2365},{"zip":"26237","city":"Tallmansville","state":"WV","lat":38.8564,"long":-80.158},{"zip":"26203","city":"Erbacon","state":"WV","lat":38.5419,"long":-80.5742},{"zip":"26206","city":"Cowen","state":"WV","lat":38.4133,"long":-80.5358},{"zip":"26208","city":"Camden On Gauley","state":"WV","lat":38.3871,"long":-80.5907},{"zip":"26217","city":"Diana","state":"WV","lat":38.5755,"long":-80.432},{"zip":"26222","city":"Hacker Valley","state":"WV","lat":38.6526,"long":-80.3837},{"zip":"26266","city":"Upperglade","state":"WV","lat":38.4185,"long":-80.4965},{"zip":"26288","city":"Webster Springs","state":"WV","lat":38.4832,"long":-80.4476},{"zip":"26298","city":"Bergoo","state":"WV","lat":38.4865,"long":-80.3006}]
