[{"zip":"26349","city":"Galloway","state":"WV","lat":39.1251,"long":-80.018},{"zip":"26335","city":"Burnsville","state":"WV","lat":38.7775,"long":-80.657},{"zip":"26339","city":"Center Point","state":"WV","lat":39.4125,"long":-80.6352},{"zip":"26342","city":"Coxs Mills","state":"WV","lat":39.0301,"long":-80.8498},{"zip":"26351","city":"Glenville","state":"WV","lat":38.9409,"long":-80.8313},{"zip":"26384","city":"Linn","state":"WV","lat":38.9573,"long":-80.73},{"zip":"26301","city":"Clarksburg","state":"WV","lat":39.2874,"long":-80.3419},{"zip":"26302","city":"Clarksburg","state":"WV","lat":39.2677,"long":-80.3077},{"zip":"26306","city":"Clarksburg","state":"WV","lat":39.2852,"long":-80.3853},{"zip":"26323","city":"Anmoore","state":"WV","lat":39.2587,"long":-80.2875},{"zip":"26330","city":"Bridgeport","state":"WV","lat":39.2954,"long":-80.2427},{"zip":"26361","city":"Gypsy","state":"WV","lat":39.3687,"long":-80.3179},{"zip":"26366","city":"Haywood","state":"WV","lat":39.3812,"long":-80.3359},{"zip":"26369","city":"Hepzibah","state":"WV","lat":39.3312,"long":-80.3325},{"zip":"26385","city":"Lost Creek","state":"WV","lat":39.1725,"long":-80.3777},{"zip":"26386","city":"Lumberport","state":"WV","lat":39.3781,"long":-80.3676},{"zip":"26321","city":"Alum Bridge","state":"WV","lat":39.0425,"long":-80.6882},{"zip":"26338","city":"Camden","state":"WV","lat":39.0893,"long":-80.5915},{"zip":"26343","city":"Crawford","state":"WV","lat":38.872,"long":-80.4368},{"zip":"26372","city":"Horner","state":"WV","lat":38.9726,"long":-80.3656},{"zip":"26376","city":"Ireland","state":"WV","lat":38.7763,"long":-80.4567},{"zip":"26378","city":"Jane Lew","state":"WV","lat":39.11,"long":-80.4311},{"zip":"26374","city":"Independence","state":"WV","lat":39.4464,"long":-79.8822},{"zip":"26325","city":"Auburn","state":"WV","lat":39.0864,"long":-80.8837},{"zip":"26327","city":"Berea","state":"WV","lat":39.1365,"long":-80.9337},{"zip":"26337","city":"Cairo","state":"WV","lat":39.2325,"long":-81.1554},{"zip":"26346","city":"Ellenboro","state":"WV","lat":39.2969,"long":-81.0621},{"zip":"26362","city":"Harrisville","state":"WV","lat":39.1453,"long":-81.0341},{"zip":"26347","city":"Flemington","state":"WV","lat":39.2665,"long":-80.132},{"zip":"26354","city":"Grafton","state":"WV","lat":39.3414,"long":-80.0285},{"zip":"26320","city":"Alma","state":"WV","lat":39.4506,"long":-80.8701},{"zip":"26348","city":"Folsom","state":"WV","lat":39.4693,"long":-80.5258},{"zip":"26377","city":"Jacksonburg","state":"WV","lat":39.5416,"long":-80.6437}]
