[{"zip":"26405","city":"Moatsville","state":"WV","lat":39.2234,"long":-79.9017},{"zip":"26416","city":"Philippi","state":"WV","lat":39.1613,"long":-80.0492},{"zip":"26411","city":"New Milton","state":"WV","lat":39.1899,"long":-80.7076},{"zip":"26436","city":"Smithburg","state":"WV","lat":39.2893,"long":-80.7343},{"zip":"26456","city":"West Union","state":"WV","lat":39.2762,"long":-80.7911},{"zip":"26430","city":"Sand Fork","state":"WV","lat":38.914,"long":-80.7498},{"zip":"26443","city":"Troy","state":"WV","lat":39.0839,"long":-80.7549},{"zip":"26404","city":"Meadowbrook","state":"WV","lat":39.3518,"long":-80.3187},{"zip":"26408","city":"Mount Clare","state":"WV","lat":39.2107,"long":-80.2899},{"zip":"26422","city":"Reynoldsville","state":"WV","lat":39.2884,"long":-80.4348},{"zip":"26426","city":"Salem","state":"WV","lat":39.2829,"long":-80.559},{"zip":"26431","city":"Shinnston","state":"WV","lat":39.3888,"long":-80.2834},{"zip":"26438","city":"Spelter","state":"WV","lat":39.3465,"long":-80.3206},{"zip":"26448","city":"Wallace","state":"WV","lat":39.4117,"long":-80.4865},{"zip":"26451","city":"West Milford","state":"WV","lat":39.1996,"long":-80.4026},{"zip":"26463","city":"Wyatt","state":"WV","lat":39.4351,"long":-80.3534},{"zip":"26412","city":"Orlando","state":"WV","lat":38.8862,"long":-80.5849},{"zip":"26447","city":"Walkersville","state":"WV","lat":38.8507,"long":-80.4802},{"zip":"26452","city":"Weston","state":"WV","lat":39.0411,"long":-80.4737},{"zip":"26410","city":"Newburg","state":"WV","lat":39.4027,"long":-79.828},{"zip":"26425","city":"Rowlesburg","state":"WV","lat":39.313,"long":-79.7049},{"zip":"26444","city":"Tunnelton","state":"WV","lat":39.3625,"long":-79.7478},{"zip":"26415","city":"Pennsboro","state":"WV","lat":39.2791,"long":-81.0019},{"zip":"26421","city":"Pullman","state":"WV","lat":39.19,"long":-80.9347},{"zip":"26424","city":"Rosemont","state":"WV","lat":39.2687,"long":-80.1629},{"zip":"26435","city":"Simpson","state":"WV","lat":39.2668,"long":-80.0934},{"zip":"26440","city":"Thornton","state":"WV","lat":39.3329,"long":-79.9096},{"zip":"26434","city":"Shirley","state":"WV","lat":39.3981,"long":-80.7651},{"zip":"26419","city":"Pine Grove","state":"WV","lat":39.5755,"long":-80.6667},{"zip":"26437","city":"Smithfield","state":"WV","lat":39.5134,"long":-80.5582}]
