[{"zip":"26568","city":"Enterprise","state":"WV","lat":39.4209,"long":-80.2779},{"zip":"26554","city":"Fairmont","state":"WV","lat":39.4941,"long":-80.2213},{"zip":"26555","city":"Fairmont","state":"WV","lat":39.5143,"long":-80.2185},{"zip":"26559","city":"Barrackville","state":"WV","lat":39.5052,"long":-80.1725},{"zip":"26560","city":"Baxter","state":"WV","lat":39.544,"long":-80.1423},{"zip":"26563","city":"Carolina","state":"WV","lat":39.4782,"long":-80.272},{"zip":"26566","city":"Colfax","state":"WV","lat":39.4348,"long":-80.1317},{"zip":"26570","city":"Fairview","state":"WV","lat":39.6103,"long":-80.2529},{"zip":"26571","city":"Farmington","state":"WV","lat":39.5029,"long":-80.2566},{"zip":"26572","city":"Four States","state":"WV","lat":39.4798,"long":-80.3098},{"zip":"26574","city":"Grant Town","state":"WV","lat":39.5587,"long":-80.1805},{"zip":"26576","city":"Idamay","state":"WV","lat":39.4877,"long":-80.2666},{"zip":"26578","city":"Kingmont","state":"WV","lat":39.4466,"long":-80.1762},{"zip":"26582","city":"Mannington","state":"WV","lat":39.522,"long":-80.3552},{"zip":"26585","city":"Metz","state":"WV","lat":39.6078,"long":-80.4168},{"zip":"26586","city":"Montana Mines","state":"WV","lat":39.5191,"long":-80.0897},{"zip":"26587","city":"Rachel","state":"WV","lat":39.5225,"long":-80.2957},{"zip":"26588","city":"Rivesville","state":"WV","lat":39.5568,"long":-80.1417},{"zip":"26591","city":"Worthington","state":"WV","lat":39.4522,"long":-80.2905},{"zip":"26501","city":"Morgantown","state":"WV","lat":39.6099,"long":-79.9831},{"zip":"26502","city":"Morgantown","state":"WV","lat":39.6253,"long":-79.9672},{"zip":"26504","city":"Morgantown","state":"WV","lat":39.5785,"long":-80.093},{"zip":"26505","city":"Morgantown","state":"WV","lat":39.6505,"long":-79.944},{"zip":"26506","city":"Morgantown","state":"WV","lat":39.6453,"long":-79.9627},{"zip":"26507","city":"Morgantown","state":"WV","lat":39.6808,"long":-79.8365},{"zip":"26508","city":"Morgantown","state":"WV","lat":39.5953,"long":-79.9229},{"zip":"26521","city":"Blacksville","state":"WV","lat":39.7142,"long":-80.2265},{"zip":"26527","city":"Cassville","state":"WV","lat":39.6656,"long":-80.0637},{"zip":"26531","city":"Dellslow","state":"WV","lat":39.6053,"long":-79.8958},{"zip":"26534","city":"Granville","state":"WV","lat":39.6459,"long":-79.9873},{"zip":"26541","city":"Maidsville","state":"WV","lat":39.6884,"long":-79.9801},{"zip":"26543","city":"Osage","state":"WV","lat":39.6587,"long":-80.0076},{"zip":"26544","city":"Pentress","state":"WV","lat":39.5785,"long":-80.093},{"zip":"26546","city":"Pursglove","state":"WV","lat":39.6746,"long":-80.035},{"zip":"26590","city":"Wana","state":"WV","lat":39.6735,"long":-80.3183},{"zip":"26519","city":"Albright","state":"WV","lat":39.5701,"long":-79.6358},{"zip":"26520","city":"Arthurdale","state":"WV","lat":39.4951,"long":-79.8151},{"zip":"26524","city":"Bretz","state":"WV","lat":39.5423,"long":-79.8006},{"zip":"26525","city":"Bruceton Mills","state":"WV","lat":39.6454,"long":-79.6159},{"zip":"26537","city":"Kingwood","state":"WV","lat":39.4819,"long":-79.7063},{"zip":"26542","city":"Masontown","state":"WV","lat":39.5731,"long":-79.7906},{"zip":"26547","city":"Reedsville","state":"WV","lat":39.5127,"long":-79.812},{"zip":"26561","city":"Big Run","state":"WV","lat":39.5845,"long":-80.5776},{"zip":"26562","city":"Burton","state":"WV","lat":39.6511,"long":-80.4161},{"zip":"26575","city":"Hundred","state":"WV","lat":39.6917,"long":-80.4746},{"zip":"26581","city":"Littleton","state":"WV","lat":39.6592,"long":-80.5695}]
