[{"zip":"26601","city":"Sutton","state":"WV","lat":38.6541,"long":-80.676},{"zip":"26615","city":"Copen","state":"WV","lat":38.8376,"long":-80.7295},{"zip":"26619","city":"Exchange","state":"WV","lat":38.7358,"long":-80.7324},{"zip":"26621","city":"Flatwoods","state":"WV","lat":38.7232,"long":-80.6498},{"zip":"26623","city":"Frametown","state":"WV","lat":38.6305,"long":-80.8589},{"zip":"26624","city":"Gassaway","state":"WV","lat":38.6862,"long":-80.7863},{"zip":"26627","city":"Heaters","state":"WV","lat":38.7621,"long":-80.6406},{"zip":"26629","city":"Little Birch","state":"WV","lat":38.581,"long":-80.6931},{"zip":"26631","city":"Napier","state":"WV","lat":38.7909,"long":-80.5887},{"zip":"26617","city":"Dille","state":"WV","lat":38.489,"long":-80.8257},{"zip":"26680","city":"Nallen","state":"WV","lat":38.1107,"long":-80.877},{"zip":"26611","city":"Cedarville","state":"WV","lat":38.8451,"long":-80.8323},{"zip":"26636","city":"Rosedale","state":"WV","lat":38.7393,"long":-80.9429},{"zip":"26638","city":"Shock","state":"WV","lat":38.7617,"long":-81.0045},{"zip":"26610","city":"Birch River","state":"WV","lat":38.4914,"long":-80.7459},{"zip":"26651","city":"Summersville","state":"WV","lat":38.3009,"long":-80.8353},{"zip":"26656","city":"Belva","state":"WV","lat":38.2491,"long":-81.1566},{"zip":"26660","city":"Calvin","state":"WV","lat":38.3368,"long":-80.7145},{"zip":"26662","city":"Canvas","state":"WV","lat":38.2624,"long":-80.7446},{"zip":"26667","city":"Drennen","state":"WV","lat":38.3184,"long":-80.8342},{"zip":"26671","city":"Gilboa","state":"WV","lat":38.3184,"long":-80.8342},{"zip":"26675","city":"Keslers Cross Lanes","state":"WV","lat":38.2354,"long":-80.9357},{"zip":"26676","city":"Leivasy","state":"WV","lat":38.1558,"long":-80.6827},{"zip":"26678","city":"Mount Lookout","state":"WV","lat":38.1821,"long":-80.9108},{"zip":"26679","city":"Mount Nebo","state":"WV","lat":38.1653,"long":-80.7976},{"zip":"26681","city":"Nettie","state":"WV","lat":38.209,"long":-80.6953},{"zip":"26684","city":"Pool","state":"WV","lat":38.1637,"long":-80.8643},{"zip":"26690","city":"Swiss","state":"WV","lat":38.2255,"long":-81.1273},{"zip":"26691","city":"Tioga","state":"WV","lat":38.4045,"long":-80.6667}]
