[{"zip":"26707","city":"Bayard","state":"WV","lat":39.2729,"long":-79.3645},{"zip":"26720","city":"Gormania","state":"WV","lat":39.2803,"long":-79.3296},{"zip":"26731","city":"Lahmansville","state":"WV","lat":39.1642,"long":-79.0433},{"zip":"26739","city":"Mount Storm","state":"WV","lat":39.2652,"long":-79.2255},{"zip":"26704","city":"Augusta","state":"WV","lat":39.2998,"long":-78.5931},{"zip":"26711","city":"Capon Bridge","state":"WV","lat":39.2802,"long":-78.4644},{"zip":"26714","city":"Delray","state":"WV","lat":39.1945,"long":-78.6042},{"zip":"26722","city":"Green Spring","state":"WV","lat":39.5029,"long":-78.6272},{"zip":"26755","city":"Rio","state":"WV","lat":39.1847,"long":-78.727},{"zip":"26757","city":"Romney","state":"WV","lat":39.3424,"long":-78.7481},{"zip":"26761","city":"Shanks","state":"WV","lat":39.2849,"long":-78.6995},{"zip":"26763","city":"Springfield","state":"WV","lat":39.463,"long":-78.695},{"zip":"26710","city":"Burlington","state":"WV","lat":39.3376,"long":-78.9181},{"zip":"26717","city":"Elk Garden","state":"WV","lat":39.3631,"long":-79.1539},{"zip":"26719","city":"Fort Ashby","state":"WV","lat":39.497,"long":-78.7743},{"zip":"26726","city":"Keyser","state":"WV","lat":39.4527,"long":-78.8926},{"zip":"26743","city":"New Creek","state":"WV","lat":39.3612,"long":-79.0452},{"zip":"26750","city":"Piedmont","state":"WV","lat":39.4799,"long":-79.0489},{"zip":"26753","city":"Ridgeley","state":"WV","lat":39.5636,"long":-78.7887},{"zip":"26767","city":"Wiley Ford","state":"WV","lat":39.6133,"long":-78.775},{"zip":"26705","city":"Aurora","state":"WV","lat":39.3181,"long":-79.5764},{"zip":"26716","city":"Eglon","state":"WV","lat":39.2925,"long":-79.5109},{"zip":"26764","city":"Terra Alta","state":"WV","lat":39.4456,"long":-79.5464}]
