[{"zip":"26833","city":"Maysville","state":"WV","lat":39.0712,"long":-79.1937},{"zip":"26847","city":"Petersburg","state":"WV","lat":38.9908,"long":-79.1293},{"zip":"26855","city":"Cabins","state":"WV","lat":38.9512,"long":-79.2783},{"zip":"26808","city":"High View","state":"WV","lat":39.2225,"long":-78.4425},{"zip":"26817","city":"Bloomery","state":"WV","lat":39.3604,"long":-78.3917},{"zip":"26823","city":"Capon Springs","state":"WV","lat":39.1362,"long":-78.4845},{"zip":"26852","city":"Purgitsville","state":"WV","lat":39.2681,"long":-78.906},{"zip":"26865","city":"Yellow Spring","state":"WV","lat":39.1823,"long":-78.5095},{"zip":"26801","city":"Baker","state":"WV","lat":39.0656,"long":-78.7748},{"zip":"26810","city":"Lost City","state":"WV","lat":38.9812,"long":-78.7448},{"zip":"26812","city":"Mathias","state":"WV","lat":38.8744,"long":-78.8814},{"zip":"26818","city":"Fisher","state":"WV","lat":39.075,"long":-79.0342},{"zip":"26836","city":"Moorefield","state":"WV","lat":38.9907,"long":-78.9745},{"zip":"26838","city":"Milam","state":"WV","lat":38.8125,"long":-79.0729},{"zip":"26845","city":"Old Fields","state":"WV","lat":39.1502,"long":-78.9509},{"zip":"26851","city":"Wardensville","state":"WV","lat":39.0562,"long":-78.6175},{"zip":"26802","city":"Brandywine","state":"WV","lat":38.6357,"long":-79.2096},{"zip":"26804","city":"Circleville","state":"WV","lat":38.623,"long":-79.5367},{"zip":"26807","city":"Franklin","state":"WV","lat":38.64,"long":-79.3538},{"zip":"26814","city":"Riverton","state":"WV","lat":38.744,"long":-79.4359},{"zip":"26815","city":"Sugar Grove","state":"WV","lat":38.489,"long":-79.3593},{"zip":"26866","city":"Upper Tract","state":"WV","lat":38.795,"long":-79.2586},{"zip":"26884","city":"Seneca Rocks","state":"WV","lat":38.8296,"long":-79.3866},{"zip":"26886","city":"Onego","state":"WV","lat":38.8017,"long":-79.4507}]
