[{"zip":"27201","city":"Alamance","state":"NC","lat":36.0318,"long":-79.4856},{"zip":"27202","city":"Altamahaw","state":"NC","lat":36.1855,"long":-79.5055},{"zip":"27215","city":"Burlington","state":"NC","lat":36.0318,"long":-79.4889},{"zip":"27216","city":"Burlington","state":"NC","lat":36.0475,"long":-79.4797},{"zip":"27217","city":"Burlington","state":"NC","lat":36.1288,"long":-79.4114},{"zip":"27244","city":"Elon","state":"NC","lat":36.1029,"long":-79.5067},{"zip":"27253","city":"Graham","state":"NC","lat":36.031,"long":-79.3814},{"zip":"27258","city":"Haw River","state":"NC","lat":36.0915,"long":-79.3642},{"zip":"27302","city":"Mebane","state":"NC","lat":36.0979,"long":-79.2719},{"zip":"27340","city":"Saxapahaw","state":"NC","lat":35.9488,"long":-79.3297},{"zip":"27349","city":"Snow Camp","state":"NC","lat":35.9066,"long":-79.4279},{"zip":"27359","city":"Swepsonville","state":"NC","lat":36.0214,"long":-79.3574},{"zip":"27806","city":"Aurora","state":"NC","lat":35.3023,"long":-76.7994},{"zip":"27808","city":"Bath","state":"NC","lat":35.4702,"long":-76.7715},{"zip":"27810","city":"Belhaven","state":"NC","lat":35.4458,"long":-76.6391},{"zip":"27814","city":"Blounts Creek","state":"NC","lat":35.382,"long":-76.925},{"zip":"27817","city":"Chocowinity","state":"NC","lat":35.4814,"long":-77.0868},{"zip":"27821","city":"Edward","state":"NC","lat":35.3236,"long":-76.8794},{"zip":"27860","city":"Pantego","state":"NC","lat":35.6201,"long":-76.6988},{"zip":"27865","city":"Pinetown","state":"NC","lat":35.5758,"long":-76.8076},{"zip":"27889","city":"Washington","state":"NC","lat":35.5884,"long":-77.1404},{"zip":"27805","city":"Aulander","state":"NC","lat":36.1475,"long":-77.1141},{"zip":"27847","city":"Kelford","state":"NC","lat":36.1871,"long":-77.1898},{"zip":"27849","city":"Lewiston Woodville","state":"NC","lat":36.0933,"long":-77.1439},{"zip":"27872","city":"Roxobel","state":"NC","lat":36.195,"long":-77.2602},{"zip":"27924","city":"Colerain","state":"NC","lat":36.1901,"long":-76.8548},{"zip":"27957","city":"Merry Hill","state":"NC","lat":36.0871,"long":-76.7776},{"zip":"27967","city":"Powellsville","state":"NC","lat":36.2257,"long":-76.933},{"zip":"27983","city":"Windsor","state":"NC","lat":36.0159,"long":-76.9336},{"zip":"27921","city":"Camden","state":"NC","lat":36.325,"long":-76.15},{"zip":"27974","city":"Shiloh","state":"NC","lat":36.2584,"long":-76.0432},{"zip":"27976","city":"South Mills","state":"NC","lat":36.4536,"long":-76.3033},{"zip":"27212","city":"Blanch","state":"NC","lat":36.4664,"long":-79.2755},{"zip":"27291","city":"Leasburg","state":"NC","lat":36.4151,"long":-79.1942},{"zip":"27305","city":"Milton","state":"NC","lat":36.5158,"long":-79.2087},{"zip":"27311","city":"Pelham","state":"NC","lat":36.4899,"long":-79.4736},{"zip":"27314","city":"Prospect Hill","state":"NC","lat":36.2932,"long":-79.2156},{"zip":"27315","city":"Providence","state":"NC","lat":36.4873,"long":-79.4041},{"zip":"27379","city":"Yanceyville","state":"NC","lat":36.3907,"long":-79.3465},{"zip":"27207","city":"Bear Creek","state":"NC","lat":35.6129,"long":-79.3726},{"zip":"27208","city":"Bennett","state":"NC","lat":35.5673,"long":-79.5225},{"zip":"27213","city":"Bonlee","state":"NC","lat":35.6482,"long":-79.4149},{"zip":"27228","city":"Bynum","state":"NC","lat":35.7835,"long":-79.1298},{"zip":"27252","city":"Goldston","state":"NC","lat":35.5643,"long":-79.3385},{"zip":"27256","city":"Gulf","state":"NC","lat":35.5604,"long":-79.2817},{"zip":"27312","city":"Pittsboro","state":"NC","lat":35.7694,"long":-79.1755},{"zip":"27344","city":"Siler City","state":"NC","lat":35.7354,"long":-79.4566},{"zip":"27559","city":"Moncure","state":"NC","lat":35.6306,"long":-79.0839},{"zip":"27932","city":"Edenton","state":"NC","lat":36.0908,"long":-76.6224},{"zip":"27980","city":"Tyner","state":"NC","lat":36.2502,"long":-76.6428},{"zip":"27916","city":"Aydlett","state":"NC","lat":36.3045,"long":-75.9029},{"zip":"27917","city":"Barco","state":"NC","lat":36.3588,"long":-75.9793},{"zip":"27923","city":"Coinjock","state":"NC","lat":36.3751,"long":-75.934},{"zip":"27927","city":"Corolla","state":"NC","lat":36.3206,"long":-75.8132},{"zip":"27929","city":"Currituck","state":"NC","lat":36.4398,"long":-76.0055},{"zip":"27939","city":"Grandy","state":"NC","lat":36.2339,"long":-75.8768},{"zip":"27941","city":"Harbinger","state":"NC","lat":36.1025,"long":-75.8169},{"zip":"27947","city":"Jarvisburg","state":"NC","lat":36.1714,"long":-75.8621},{"zip":"27950","city":"Knotts Island","state":"NC","lat":36.5232,"long":-75.9702},{"zip":"27956","city":"Maple","state":"NC","lat":36.3987,"long":-76.0039},{"zip":"27958","city":"Moyock","state":"NC","lat":36.4871,"long":-76.1146},{"zip":"27964","city":"Point Harbor","state":"NC","lat":36.0781,"long":-75.7983},{"zip":"27965","city":"Poplar Branch","state":"NC","lat":36.2737,"long":-75.9097},{"zip":"27966","city":"Powells Point","state":"NC","lat":36.1207,"long":-75.8273},{"zip":"27973","city":"Shawboro","state":"NC","lat":36.3779,"long":-76.0945},{"zip":"27915","city":"Avon","state":"NC","lat":35.3521,"long":-75.5104},{"zip":"27920","city":"Buxton","state":"NC","lat":35.2677,"long":-75.5424},{"zip":"27936","city":"Frisco","state":"NC","lat":35.2338,"long":-75.6145},{"zip":"27943","city":"Hatteras","state":"NC","lat":35.2193,"long":-75.6902},{"zip":"27948","city":"Kill Devil Hills","state":"NC","lat":36.0088,"long":-75.6757},{"zip":"27949","city":"Kitty Hawk","state":"NC","lat":36.0646,"long":-75.7057},{"zip":"27953","city":"Manns Harbor","state":"NC","lat":35.8238,"long":-75.8467},{"zip":"27954","city":"Manteo","state":"NC","lat":35.8948,"long":-75.6714},{"zip":"27959","city":"Nags Head","state":"NC","lat":35.8865,"long":-75.6038},{"zip":"27968","city":"Rodanthe","state":"NC","lat":35.5935,"long":-75.4679},{"zip":"27972","city":"Salvo","state":"NC","lat":35.5546,"long":-75.4693},{"zip":"27978","city":"Stumpy Point","state":"NC","lat":35.6985,"long":-75.7728},{"zip":"27981","city":"Wanchese","state":"NC","lat":35.8622,"long":-75.6437},{"zip":"27982","city":"Waves","state":"NC","lat":35.565,"long":-75.4663},{"zip":"27239","city":"Denton","state":"NC","lat":35.6196,"long":-80.0959},{"zip":"27292","city":"Lexington","state":"NC","lat":35.8231,"long":-80.262},{"zip":"27293","city":"Lexington","state":"NC","lat":35.8829,"long":-80.276},{"zip":"27294","city":"Lexington","state":"NC","lat":35.824,"long":-80.2534},{"zip":"27295","city":"Lexington","state":"NC","lat":35.8684,"long":-80.315},{"zip":"27299","city":"Linwood","state":"NC","lat":35.7562,"long":-80.3749},{"zip":"27351","city":"Southmont","state":"NC","lat":35.6605,"long":-80.2836},{"zip":"27360","city":"Thomasville","state":"NC","lat":35.8713,"long":-80.0913},{"zip":"27361","city":"Thomasville","state":"NC","lat":35.8829,"long":-80.276},{"zip":"27373","city":"Wallburg","state":"NC","lat":36.0101,"long":-80.1392},{"zip":"27374","city":"Welcome","state":"NC","lat":35.9029,"long":-80.257},{"zip":"27006","city":"Advance","state":"NC","lat":36.0065,"long":-80.4463},{"zip":"27014","city":"Cooleemee","state":"NC","lat":35.8104,"long":-80.5559},{"zip":"27028","city":"Mocksville","state":"NC","lat":35.922,"long":-80.537},{"zip":"27503","city":"Bahama","state":"NC","lat":36.1566,"long":-78.8903},{"zip":"27572","city":"Rougemont","state":"NC","lat":36.2393,"long":-78.9019},{"zip":"27701","city":"Durham","state":"NC","lat":35.9967,"long":-78.8966},{"zip":"27702","city":"Durham","state":"NC","lat":36.0512,"long":-78.8577},{"zip":"27703","city":"Durham","state":"NC","lat":35.9781,"long":-78.8439},{"zip":"27704","city":"Durham","state":"NC","lat":36.0383,"long":-78.8764},{"zip":"27705","city":"Durham","state":"NC","lat":36.0218,"long":-78.9478},{"zip":"27706","city":"Durham","state":"NC","lat":35.997,"long":-78.9422},{"zip":"27707","city":"Durham","state":"NC","lat":35.9631,"long":-78.9315},{"zip":"27708","city":"Durham","state":"NC","lat":36.0287,"long":-78.924},{"zip":"27709","city":"Durham","state":"NC","lat":36.0512,"long":-78.8577},{"zip":"27710","city":"Durham","state":"NC","lat":36.0512,"long":-78.8577},{"zip":"27711","city":"Durham","state":"NC","lat":36.0512,"long":-78.8577},{"zip":"27712","city":"Durham","state":"NC","lat":36.0918,"long":-78.9299},{"zip":"27713","city":"Durham","state":"NC","lat":35.9112,"long":-78.9178},{"zip":"27715","city":"Durham","state":"NC","lat":36.0512,"long":-78.8577},{"zip":"27717","city":"Durham","state":"NC","lat":36.0512,"long":-78.8577},{"zip":"27722","city":"Durham","state":"NC","lat":35.994,"long":-78.8986},{"zip":"27801","city":"Rocky Mount","state":"NC","lat":35.9427,"long":-77.7608},{"zip":"27802","city":"Rocky Mount","state":"NC","lat":35.9356,"long":-77.7808},{"zip":"27809","city":"Battleboro","state":"NC","lat":36.0067,"long":-77.7074},{"zip":"27819","city":"Conetoe","state":"NC","lat":35.8178,"long":-77.4533},{"zip":"27852","city":"Macclesfield","state":"NC","lat":35.751,"long":-77.6706},{"zip":"27864","city":"Pinetops","state":"NC","lat":35.7885,"long":-77.6378},{"zip":"27881","city":"Speed","state":"NC","lat":35.9159,"long":-77.5855},{"zip":"27886","city":"Tarboro","state":"NC","lat":35.8983,"long":-77.5421},{"zip":"27009","city":"Belews Creek","state":"NC","lat":36.2269,"long":-80.093},{"zip":"27010","city":"Bethania","state":"NC","lat":36.183,"long":-80.3387},{"zip":"27012","city":"Clemmons","state":"NC","lat":36.0341,"long":-80.3962},{"zip":"27023","city":"Lewisville","state":"NC","lat":36.0967,"long":-80.4206},{"zip":"27040","city":"Pfafftown","state":"NC","lat":36.1669,"long":-80.3798},{"zip":"27045","city":"Rural Hall","state":"NC","lat":36.2293,"long":-80.2936},{"zip":"27050","city":"Tobaccoville","state":"NC","lat":36.2336,"long":-80.3915},{"zip":"27051","city":"Walkertown","state":"NC","lat":36.18,"long":-80.1629},{"zip":"27094","city":"Rural Hall","state":"NC","lat":36.2404,"long":-80.2934},{"zip":"27098","city":"Rural Hall","state":"NC","lat":36.2404,"long":-80.2934},{"zip":"27099","city":"Rural Hall","state":"NC","lat":36.2404,"long":-80.2934},{"zip":"27101","city":"Winston Salem","state":"NC","lat":36.1024,"long":-80.2228},{"zip":"27102","city":"Winston Salem","state":"NC","lat":36.0323,"long":-80.3962},{"zip":"27103","city":"Winston Salem","state":"NC","lat":36.0671,"long":-80.3025},{"zip":"27104","city":"Winston Salem","state":"NC","lat":36.092,"long":-80.3224},{"zip":"27105","city":"Winston Salem","state":"NC","lat":36.144,"long":-80.2376},{"zip":"27106","city":"Winston Salem","state":"NC","lat":36.1428,"long":-80.3069},{"zip":"27107","city":"Winston Salem","state":"NC","lat":36.0403,"long":-80.1933},{"zip":"27108","city":"Winston Salem","state":"NC","lat":36.0275,"long":-80.2073},{"zip":"27109","city":"Winston Salem","state":"NC","lat":36.0275,"long":-80.2073},{"zip":"27110","city":"Winston Salem","state":"NC","lat":36.0275,"long":-80.2073},{"zip":"27111","city":"Winston Salem","state":"NC","lat":36.0999,"long":-80.2442},{"zip":"27113","city":"Winston Salem","state":"NC","lat":36.0999,"long":-80.2442},{"zip":"27114","city":"Winston Salem","state":"NC","lat":36.0999,"long":-80.2442},{"zip":"27115","city":"Winston Salem","state":"NC","lat":36.0999,"long":-80.2442},{"zip":"27116","city":"Winston Salem","state":"NC","lat":36.0999,"long":-80.2442},{"zip":"27117","city":"Winston Salem","state":"NC","lat":36.0275,"long":-80.2073},{"zip":"27120","city":"Winston Salem","state":"NC","lat":36.0999,"long":-80.2442},{"zip":"27127","city":"Winston Salem","state":"NC","lat":36.0425,"long":-80.2609},{"zip":"27130","city":"Winston Salem","state":"NC","lat":36.0275,"long":-80.2073},{"zip":"27150","city":"Winston Salem","state":"NC","lat":36.0275,"long":-80.2073},{"zip":"27152","city":"Winston Salem","state":"NC","lat":36.0275,"long":-80.2073},{"zip":"27155","city":"Winston Salem","state":"NC","lat":36.0275,"long":-80.2073},{"zip":"27157","city":"Winston Salem","state":"NC","lat":36.0275,"long":-80.2073},{"zip":"27198","city":"Winston Salem","state":"NC","lat":36.0275,"long":-80.2073},{"zip":"27199","city":"Winston Salem","state":"NC","lat":36.0999,"long":-80.2442},{"zip":"27284","city":"Kernersville","state":"NC","lat":36.1165,"long":-80.0831},{"zip":"27285","city":"Kernersville","state":"NC","lat":36.1199,"long":-80.0737},{"zip":"27508","city":"Bunn","state":"NC","lat":35.9577,"long":-78.2498},{"zip":"27525","city":"Franklinton","state":"NC","lat":36.0955,"long":-78.4486},{"zip":"27549","city":"Louisburg","state":"NC","lat":36.0578,"long":-78.2586},{"zip":"27596","city":"Youngsville","state":"NC","lat":36.0249,"long":-78.4744},{"zip":"27926","city":"Corapeake","state":"NC","lat":36.5179,"long":-76.5979},{"zip":"27935","city":"Eure","state":"NC","lat":36.4341,"long":-76.8463},{"zip":"27937","city":"Gates","state":"NC","lat":36.5036,"long":-76.7646},{"zip":"27938","city":"Gatesville","state":"NC","lat":36.4072,"long":-76.7325},{"zip":"27946","city":"Hobbsville","state":"NC","lat":36.3543,"long":-76.6178},{"zip":"27969","city":"Roduco","state":"NC","lat":36.4618,"long":-76.8125},{"zip":"27979","city":"Sunbury","state":"NC","lat":36.4316,"long":-76.6096},{"zip":"27507","city":"Bullock","state":"NC","lat":36.5076,"long":-78.5646},{"zip":"27509","city":"Butner","state":"NC","lat":36.1359,"long":-78.7636},{"zip":"27522","city":"Creedmoor","state":"NC","lat":36.1224,"long":-78.6861},{"zip":"27527","city":"Clayton","state":"NC","lat":35.6577,"long":-78.3837},{"zip":"27528","city":"Clayton","state":"NC","lat":35.6555,"long":-78.4611},{"zip":"27565","city":"Oxford","state":"NC","lat":36.3313,"long":-78.6134},{"zip":"27574","city":"Roxboro","state":"NC","lat":36.3942,"long":-78.9863},{"zip":"27581","city":"Stem","state":"NC","lat":36.1999,"long":-78.7222},{"zip":"27582","city":"Stovall","state":"NC","lat":36.4424,"long":-78.5571},{"zip":"27888","city":"Walstonburg","state":"NC","lat":35.5882,"long":-77.6983},{"zip":"27214","city":"Browns Summit","state":"NC","lat":36.2019,"long":-79.7101},{"zip":"27233","city":"Climax","state":"NC","lat":35.9345,"long":-79.7019},{"zip":"27235","city":"Colfax","state":"NC","lat":36.1003,"long":-80.0103},{"zip":"27249","city":"Gibsonville","state":"NC","lat":36.1183,"long":-79.5685},{"zip":"27260","city":"High Point","state":"NC","lat":35.954,"long":-79.9884},{"zip":"27261","city":"High Point","state":"NC","lat":36.0807,"long":-80.0244},{"zip":"27262","city":"High Point","state":"NC","lat":35.9734,"long":-80.0107},{"zip":"27263","city":"High Point","state":"NC","lat":35.9359,"long":-79.9395},{"zip":"27264","city":"High Point","state":"NC","lat":36.0807,"long":-80.0244},{"zip":"27265","city":"High Point","state":"NC","lat":36.0036,"long":-80.0036},{"zip":"27282","city":"Jamestown","state":"NC","lat":35.999,"long":-79.9293},{"zip":"27283","city":"Julian","state":"NC","lat":35.9543,"long":-79.6386},{"zip":"27301","city":"Mc Leansville","state":"NC","lat":36.1163,"long":-79.6684},{"zip":"27310","city":"Oak Ridge","state":"NC","lat":36.1673,"long":-79.9804},{"zip":"27313","city":"Pleasant Garden","state":"NC","lat":35.9522,"long":-79.7549},{"zip":"27342","city":"Sedalia","state":"NC","lat":36.0756,"long":-79.6206},{"zip":"27357","city":"Stokesdale","state":"NC","lat":36.2552,"long":-79.9705},{"zip":"27358","city":"Summerfield","state":"NC","lat":36.2245,"long":-79.8901},{"zip":"27377","city":"Whitsett","state":"NC","lat":36.033,"long":-79.5972},{"zip":"27401","city":"Greensboro","state":"NC","lat":36.0697,"long":-79.7682},{"zip":"27402","city":"Greensboro","state":"NC","lat":36.0726,"long":-79.792},{"zip":"27403","city":"Greensboro","state":"NC","lat":36.0641,"long":-79.8202},{"zip":"27404","city":"Greensboro","state":"NC","lat":36.0726,"long":-79.792},{"zip":"27405","city":"Greensboro","state":"NC","lat":36.1214,"long":-79.7733},{"zip":"27406","city":"Greensboro","state":"NC","lat":36.022,"long":-79.7821},{"zip":"27407","city":"Greensboro","state":"NC","lat":36.0334,"long":-79.8626},{"zip":"27408","city":"Greensboro","state":"NC","lat":36.1064,"long":-79.8165},{"zip":"27409","city":"Greensboro","state":"NC","lat":36.0777,"long":-79.9086},{"zip":"27410","city":"Greensboro","state":"NC","lat":36.1032,"long":-79.8794},{"zip":"27411","city":"Greensboro","state":"NC","lat":36.0726,"long":-79.792},{"zip":"27412","city":"Greensboro","state":"NC","lat":36.0661,"long":-79.8067},{"zip":"27413","city":"Greensboro","state":"NC","lat":36.0726,"long":-79.792},{"zip":"27415","city":"Greensboro","state":"NC","lat":36.0726,"long":-79.792},{"zip":"27416","city":"Greensboro","state":"NC","lat":36.0726,"long":-79.792},{"zip":"27417","city":"Greensboro","state":"NC","lat":36.0726,"long":-79.792},{"zip":"27419","city":"Greensboro","state":"NC","lat":36.0726,"long":-79.792},{"zip":"27420","city":"Greensboro","state":"NC","lat":36.113,"long":-79.7759},{"zip":"27425","city":"Greensboro","state":"NC","lat":36.0726,"long":-79.792},{"zip":"27427","city":"Greensboro","state":"NC","lat":36.0726,"long":-79.792},{"zip":"27429","city":"Greensboro","state":"NC","lat":36.0726,"long":-79.792},{"zip":"27435","city":"Greensboro","state":"NC","lat":36.0726,"long":-79.792},{"zip":"27438","city":"Greensboro","state":"NC","lat":36.0726,"long":-79.792},{"zip":"27455","city":"Greensboro","state":"NC","lat":36.1824,"long":-79.806},{"zip":"27495","city":"Greensboro","state":"NC","lat":36.0726,"long":-79.792},{"zip":"27497","city":"Greensboro","state":"NC","lat":36.0798,"long":-79.8282},{"zip":"27498","city":"Greensboro","state":"NC","lat":36.0726,"long":-79.792},{"zip":"27499","city":"Greensboro","state":"NC","lat":36.0726,"long":-79.792},{"zip":"27823","city":"Enfield","state":"NC","lat":36.1973,"long":-77.7129},{"zip":"27839","city":"Halifax","state":"NC","lat":36.3049,"long":-77.5607},{"zip":"27843","city":"Hobgood","state":"NC","lat":36.0594,"long":-77.4061},{"zip":"27844","city":"Hollister","state":"NC","lat":36.259,"long":-77.9319},{"zip":"27850","city":"Littleton","state":"NC","lat":36.4169,"long":-77.8528},{"zip":"27870","city":"Roanoke Rapids","state":"NC","lat":36.4461,"long":-77.6731},{"zip":"27874","city":"Scotland Neck","state":"NC","lat":36.1301,"long":-77.4273},{"zip":"27887","city":"Tillery","state":"NC","lat":36.2352,"long":-77.5026},{"zip":"27890","city":"Weldon","state":"NC","lat":36.4206,"long":-77.6035},{"zip":"27501","city":"Angier","state":"NC","lat":35.4897,"long":-78.7249},{"zip":"27506","city":"Buies Creek","state":"NC","lat":35.4132,"long":-78.7356},{"zip":"27521","city":"Coats","state":"NC","lat":35.4082,"long":-78.6627},{"zip":"27543","city":"Kipling","state":"NC","lat":35.4799,"long":-78.8211},{"zip":"27546","city":"Lillington","state":"NC","lat":35.332,"long":-78.9212},{"zip":"27552","city":"Mamers","state":"NC","lat":35.4168,"long":-78.9334},{"zip":"27818","city":"Como","state":"NC","lat":36.5015,"long":-77.0094},{"zip":"27855","city":"Murfreesboro","state":"NC","lat":36.4319,"long":-77.1027},{"zip":"27910","city":"Ahoskie","state":"NC","lat":36.2957,"long":-76.9966},{"zip":"27922","city":"Cofield","state":"NC","lat":36.3333,"long":-76.8746},{"zip":"27942","city":"Harrellsville","state":"NC","lat":36.2866,"long":-76.7767},{"zip":"27986","city":"Winton","state":"NC","lat":36.3826,"long":-76.936},{"zip":"27824","city":"Engelhard","state":"NC","lat":35.5149,"long":-76.0303},{"zip":"27826","city":"Fairfield","state":"NC","lat":35.5659,"long":-76.2318},{"zip":"27875","city":"Scranton","state":"NC","lat":35.4717,"long":-76.4951},{"zip":"27885","city":"Swanquarter","state":"NC","lat":35.4222,"long":-76.2875},{"zip":"27960","city":"Ocracoke","state":"NC","lat":35.1397,"long":-75.8931},{"zip":"27504","city":"Benson","state":"NC","lat":35.4037,"long":-78.5421},{"zip":"27520","city":"Clayton","state":"NC","lat":35.6348,"long":-78.451},{"zip":"27524","city":"Four Oaks","state":"NC","lat":35.404,"long":-78.4153},{"zip":"27542","city":"Kenly","state":"NC","lat":35.6077,"long":-78.1382},{"zip":"27555","city":"Micro","state":"NC","lat":35.5638,"long":-78.2044},{"zip":"27557","city":"Middlesex","state":"NC","lat":35.7665,"long":-78.2062},{"zip":"27568","city":"Pine Level","state":"NC","lat":35.4883,"long":-78.2179},{"zip":"27569","city":"Princeton","state":"NC","lat":35.4558,"long":-78.1674},{"zip":"27576","city":"Selma","state":"NC","lat":35.5565,"long":-78.264},{"zip":"27577","city":"Smithfield","state":"NC","lat":35.5068,"long":-78.3479},{"zip":"27593","city":"Wilsons Mills","state":"NC","lat":35.5907,"long":-78.3607},{"zip":"27237","city":"Cumnock","state":"NC","lat":35.4676,"long":-79.1653},{"zip":"27330","city":"Sanford","state":"NC","lat":35.4698,"long":-79.1717},{"zip":"27331","city":"Sanford","state":"NC","lat":35.4799,"long":-79.1803},{"zip":"27332","city":"Sanford","state":"NC","lat":35.4469,"long":-79.138},{"zip":"27505","city":"Broadway","state":"NC","lat":35.4181,"long":-79.0435},{"zip":"27825","city":"Everetts","state":"NC","lat":35.8349,"long":-77.1736},{"zip":"27840","city":"Hamilton","state":"NC","lat":35.9446,"long":-77.2097},{"zip":"27841","city":"Hassell","state":"NC","lat":35.9086,"long":-77.2763},{"zip":"27846","city":"Jamesville","state":"NC","lat":35.7839,"long":-76.8983},{"zip":"27857","city":"Oak City","state":"NC","lat":35.9597,"long":-77.3004},{"zip":"27861","city":"Parmele","state":"NC","lat":35.8165,"long":-77.3141},{"zip":"27871","city":"Robersonville","state":"NC","lat":35.8218,"long":-77.26},{"zip":"27892","city":"Williamston","state":"NC","lat":35.8212,"long":-77.1022},{"zip":"27209","city":"Biscoe","state":"NC","lat":35.3599,"long":-79.7798},{"zip":"27229","city":"Candor","state":"NC","lat":35.2234,"long":-79.7876},{"zip":"27247","city":"Ether","state":"NC","lat":35.4514,"long":-79.7834},{"zip":"27306","city":"Mount Gilead","state":"NC","lat":35.2274,"long":-79.9871},{"zip":"27356","city":"Star","state":"NC","lat":35.4211,"long":-79.7826},{"zip":"27371","city":"Troy","state":"NC","lat":35.3777,"long":-79.9093},{"zip":"27242","city":"Eagle Springs","state":"NC","lat":35.336,"long":-79.631},{"zip":"27259","city":"Highfalls","state":"NC","lat":35.4921,"long":-79.479},{"zip":"27281","city":"Jackson Springs","state":"NC","lat":35.2259,"long":-79.6685},{"zip":"27325","city":"Robbins","state":"NC","lat":35.4528,"long":-79.582},{"zip":"27376","city":"West End","state":"NC","lat":35.2512,"long":-79.536},{"zip":"27803","city":"Rocky Mount","state":"NC","lat":35.9238,"long":-77.835},{"zip":"27804","city":"Rocky Mount","state":"NC","lat":35.9904,"long":-77.8468},{"zip":"27807","city":"Bailey","state":"NC","lat":35.8072,"long":-78.0892},{"zip":"27815","city":"Rocky Mount","state":"NC","lat":35.8979,"long":-77.7935},{"zip":"27816","city":"Castalia","state":"NC","lat":36.0901,"long":-78.0705},{"zip":"27856","city":"Nashville","state":"NC","lat":35.9843,"long":-77.9595},{"zip":"27868","city":"Red Oak","state":"NC","lat":36.0548,"long":-77.9116},{"zip":"27878","city":"Sharpsburg","state":"NC","lat":35.8654,"long":-77.8389},{"zip":"27882","city":"Spring Hope","state":"NC","lat":35.9302,"long":-78.1085},{"zip":"27891","city":"Whitakers","state":"NC","lat":36.0758,"long":-77.7167},{"zip":"27820","city":"Conway","state":"NC","lat":36.4164,"long":-77.2502},{"zip":"27831","city":"Garysburg","state":"NC","lat":36.4761,"long":-77.5719},{"zip":"27832","city":"Gaston","state":"NC","lat":36.5004,"long":-77.645},{"zip":"27842","city":"Henrico","state":"NC","lat":36.5274,"long":-77.8546},{"zip":"27845","city":"Jackson","state":"NC","lat":36.3896,"long":-77.4214},{"zip":"27853","city":"Margarettsville","state":"NC","lat":36.5245,"long":-77.326},{"zip":"27862","city":"Pendleton","state":"NC","lat":36.4937,"long":-77.1911},{"zip":"27866","city":"Pleasant Hill","state":"NC","lat":36.5212,"long":-77.5192},{"zip":"27867","city":"Potecasi","state":"NC","lat":36.3632,"long":-77.2391},{"zip":"27869","city":"Rich Square","state":"NC","lat":36.2773,"long":-77.2969},{"zip":"27876","city":"Seaboard","state":"NC","lat":36.4886,"long":-77.4113},{"zip":"27877","city":"Severn","state":"NC","lat":36.5152,"long":-77.1897},{"zip":"27897","city":"Woodland","state":"NC","lat":36.325,"long":-77.2107},{"zip":"27231","city":"Cedar Grove","state":"NC","lat":36.202,"long":-79.1666},{"zip":"27243","city":"Efland","state":"NC","lat":36.0912,"long":-79.1884},{"zip":"27278","city":"Hillsborough","state":"NC","lat":36.0756,"long":-79.0914},{"zip":"27510","city":"Carrboro","state":"NC","lat":35.9055,"long":-79.0901},{"zip":"27514","city":"Chapel Hill","state":"NC","lat":35.9203,"long":-79.0372},{"zip":"27515","city":"Chapel Hill","state":"NC","lat":35.9132,"long":-79.0558},{"zip":"27516","city":"Chapel Hill","state":"NC","lat":35.9162,"long":-79.0999},{"zip":"27517","city":"Chapel Hill","state":"NC","lat":35.9182,"long":-79.0035},{"zip":"27599","city":"Chapel Hill","state":"NC","lat":36.0525,"long":-79.1077},{"zip":"27906","city":"Elizabeth City","state":"NC","lat":36.2854,"long":-76.2133},{"zip":"27907","city":"Elizabeth City","state":"NC","lat":36.285,"long":-76.2553},{"zip":"27909","city":"Elizabeth City","state":"NC","lat":36.2951,"long":-76.2445},{"zip":"27919","city":"Belvidere","state":"NC","lat":36.3096,"long":-76.5436},{"zip":"27930","city":"Hertford","state":"NC","lat":36.1902,"long":-76.4661},{"zip":"27944","city":"Hertford","state":"NC","lat":36.1685,"long":-76.3731},{"zip":"27985","city":"Winfall","state":"NC","lat":36.2193,"long":-76.4667},{"zip":"27343","city":"Semora","state":"NC","lat":36.5114,"long":-79.0942},{"zip":"27541","city":"Hurdle Mills","state":"NC","lat":36.2518,"long":-79.0827},{"zip":"27573","city":"Roxboro","state":"NC","lat":36.4059,"long":-78.9737},{"zip":"27583","city":"Timberlake","state":"NC","lat":36.2918,"long":-78.9353},{"zip":"27811","city":"Bellarthur","state":"NC","lat":35.5847,"long":-77.5134},{"zip":"27812","city":"Bethel","state":"NC","lat":35.7909,"long":-77.3748},{"zip":"27827","city":"Falkland","state":"NC","lat":35.6966,"long":-77.5132},{"zip":"27828","city":"Farmville","state":"NC","lat":35.5806,"long":-77.5793},{"zip":"27829","city":"Fountain","state":"NC","lat":35.674,"long":-77.64},{"zip":"27833","city":"Greenville","state":"NC","lat":35.5804,"long":-77.3926},{"zip":"27834","city":"Greenville","state":"NC","lat":35.6192,"long":-77.3975},{"zip":"27835","city":"Greenville","state":"NC","lat":35.5885,"long":-77.3531},{"zip":"27836","city":"Greenville","state":"NC","lat":35.5804,"long":-77.3926},{"zip":"27837","city":"Grimesland","state":"NC","lat":35.558,"long":-77.2566},{"zip":"27858","city":"Greenville","state":"NC","lat":35.5866,"long":-77.3485},{"zip":"27879","city":"Simpson","state":"NC","lat":35.5752,"long":-77.2786},{"zip":"27884","city":"Stokes","state":"NC","lat":35.7104,"long":-77.2722},{"zip":"27203","city":"Asheboro","state":"NC","lat":35.7323,"long":-79.7893},{"zip":"27204","city":"Asheboro","state":"NC","lat":35.7883,"long":-79.7206},{"zip":"27205","city":"Asheboro","state":"NC","lat":35.6396,"long":-79.8509},{"zip":"27230","city":"Cedar Falls","state":"NC","lat":35.8028,"long":-79.8797},{"zip":"27248","city":"Franklinville","state":"NC","lat":35.7917,"long":-79.7132},{"zip":"27298","city":"Liberty","state":"NC","lat":35.8729,"long":-79.5821},{"zip":"27316","city":"Ramseur","state":"NC","lat":35.7143,"long":-79.6469},{"zip":"27317","city":"Randleman","state":"NC","lat":35.8488,"long":-79.8018},{"zip":"27341","city":"Seagrove","state":"NC","lat":35.5283,"long":-79.6979},{"zip":"27350","city":"Sophia","state":"NC","lat":35.8298,"long":-79.8986},{"zip":"27355","city":"Staley","state":"NC","lat":35.796,"long":-79.5514},{"zip":"27370","city":"Trinity","state":"NC","lat":35.8429,"long":-79.9902},{"zip":"27025","city":"Madison","state":"NC","lat":36.3695,"long":-79.9654},{"zip":"27027","city":"Mayodan","state":"NC","lat":36.4277,"long":-79.9567},{"zip":"27048","city":"Stoneville","state":"NC","lat":36.4705,"long":-79.9013},{"zip":"27288","city":"Eden","state":"NC","lat":36.5,"long":-79.759},{"zip":"27289","city":"Eden","state":"NC","lat":36.3921,"long":-79.7731},{"zip":"27320","city":"Reidsville","state":"NC","lat":36.3432,"long":-79.6642},{"zip":"27323","city":"Reidsville","state":"NC","lat":36.3921,"long":-79.7731},{"zip":"27326","city":"Ruffin","state":"NC","lat":36.4428,"long":-79.5606},{"zip":"27375","city":"Wentworth","state":"NC","lat":36.3921,"long":-79.7731},{"zip":"27013","city":"Cleveland","state":"NC","lat":35.7374,"long":-80.7113},{"zip":"27054","city":"Woodleaf","state":"NC","lat":35.7901,"long":-80.6051},{"zip":"27016","city":"Danbury","state":"NC","lat":36.4559,"long":-80.2194},{"zip":"27019","city":"Germanton","state":"NC","lat":36.2725,"long":-80.2254},{"zip":"27021","city":"King","state":"NC","lat":36.295,"long":-80.356},{"zip":"27022","city":"Lawsonville","state":"NC","lat":36.5132,"long":-80.2103},{"zip":"27042","city":"Pine Hall","state":"NC","lat":36.3482,"long":-80.0495},{"zip":"27043","city":"Pinnacle","state":"NC","lat":36.3339,"long":-80.4391},{"zip":"27046","city":"Sandy Ridge","state":"NC","lat":36.49,"long":-80.0859},{"zip":"27052","city":"Walnut Cove","state":"NC","lat":36.3189,"long":-80.1484},{"zip":"27007","city":"Ararat","state":"NC","lat":36.3859,"long":-80.5895},{"zip":"27017","city":"Dobson","state":"NC","lat":36.3698,"long":-80.7101},{"zip":"27024","city":"Lowgap","state":"NC","lat":36.503,"long":-80.7889},{"zip":"27030","city":"Mount Airy","state":"NC","lat":36.5007,"long":-80.6119},{"zip":"27031","city":"White Plains","state":"NC","lat":36.3994,"long":-80.7081},{"zip":"27041","city":"Pilot Mountain","state":"NC","lat":36.4109,"long":-80.4921},{"zip":"27047","city":"Siloam","state":"NC","lat":36.3002,"long":-80.5772},{"zip":"27049","city":"Toast","state":"NC","lat":36.5004,"long":-80.6265},{"zip":"27053","city":"Westfield","state":"NC","lat":36.4674,"long":-80.3677},{"zip":"27925","city":"Columbia","state":"NC","lat":35.9057,"long":-76.2345},{"zip":"27536","city":"Henderson","state":"NC","lat":36.3301,"long":-78.3981},{"zip":"27537","city":"Henderson","state":"NC","lat":36.36,"long":-78.3906},{"zip":"27544","city":"Kittrell","state":"NC","lat":36.2042,"long":-78.4241},{"zip":"27553","city":"Manson","state":"NC","lat":36.4603,"long":-78.2952},{"zip":"27556","city":"Middleburg","state":"NC","lat":36.3996,"long":-78.3225},{"zip":"27584","city":"Townsville","state":"NC","lat":36.4946,"long":-78.4236},{"zip":"27502","city":"Apex","state":"NC","lat":35.7225,"long":-78.8408},{"zip":"27511","city":"Cary","state":"NC","lat":35.7641,"long":-78.7786},{"zip":"27512","city":"Cary","state":"NC","lat":35.8084,"long":-78.8395},{"zip":"27513","city":"Cary","state":"NC","lat":35.7956,"long":-78.7941},{"zip":"27518","city":"Cary","state":"NC","lat":35.7299,"long":-78.7735},{"zip":"27519","city":"Cary","state":"NC","lat":35.8072,"long":-78.887},{"zip":"27523","city":"Apex","state":"NC","lat":35.7225,"long":-78.8408},{"zip":"27526","city":"Fuquay Varina","state":"NC","lat":35.58,"long":-78.7908},{"zip":"27529","city":"Garner","state":"NC","lat":35.6813,"long":-78.5975},{"zip":"27539","city":"Apex","state":"NC","lat":35.7225,"long":-78.8408},{"zip":"27540","city":"Holly Springs","state":"NC","lat":35.6263,"long":-78.8458},{"zip":"27545","city":"Knightdale","state":"NC","lat":35.7789,"long":-78.4898},{"zip":"27560","city":"Morrisville","state":"NC","lat":35.8344,"long":-78.8466},{"zip":"27562","city":"New Hill","state":"NC","lat":35.6809,"long":-78.9365},{"zip":"27571","city":"Rolesville","state":"NC","lat":35.9156,"long":-78.4658},{"zip":"27587","city":"Wake Forest","state":"NC","lat":35.9815,"long":-78.5392},{"zip":"27588","city":"Wake Forest","state":"NC","lat":35.9731,"long":-78.4508},{"zip":"27591","city":"Wendell","state":"NC","lat":35.798,"long":-78.3926},{"zip":"27592","city":"Willow Spring","state":"NC","lat":35.547,"long":-78.6717},{"zip":"27597","city":"Zebulon","state":"NC","lat":35.8321,"long":-78.3174},{"zip":"27601","city":"Raleigh","state":"NC","lat":35.7727,"long":-78.6324},{"zip":"27602","city":"Raleigh","state":"NC","lat":35.7587,"long":-78.6711},{"zip":"27603","city":"Raleigh","state":"NC","lat":35.7076,"long":-78.6563},{"zip":"27604","city":"Raleigh","state":"NC","lat":35.8334,"long":-78.5799},{"zip":"27605","city":"Raleigh","state":"NC","lat":35.7908,"long":-78.653},{"zip":"27606","city":"Raleigh","state":"NC","lat":35.7645,"long":-78.7112},{"zip":"27607","city":"Raleigh","state":"NC","lat":35.8014,"long":-78.6877},{"zip":"27608","city":"Raleigh","state":"NC","lat":35.8077,"long":-78.6463},{"zip":"27609","city":"Raleigh","state":"NC","lat":35.848,"long":-78.6317},{"zip":"27610","city":"Raleigh","state":"NC","lat":35.7667,"long":-78.6008},{"zip":"27611","city":"Raleigh","state":"NC","lat":35.7977,"long":-78.6253},{"zip":"27612","city":"Raleigh","state":"NC","lat":35.852,"long":-78.6841},{"zip":"27613","city":"Raleigh","state":"NC","lat":35.8949,"long":-78.7051},{"zip":"27614","city":"Raleigh","state":"NC","lat":35.9457,"long":-78.6433},{"zip":"27615","city":"Raleigh","state":"NC","lat":35.8887,"long":-78.6393},{"zip":"27616","city":"Raleigh","state":"NC","lat":35.8673,"long":-78.5381},{"zip":"27617","city":"Raleigh","state":"NC","lat":35.9034,"long":-78.7447},{"zip":"27619","city":"Raleigh","state":"NC","lat":35.8515,"long":-78.6314},{"zip":"27620","city":"Raleigh","state":"NC","lat":35.7977,"long":-78.6253},{"zip":"27621","city":"Raleigh","state":"NC","lat":35.7977,"long":-78.6253},{"zip":"27622","city":"Raleigh","state":"NC","lat":35.7977,"long":-78.6253},{"zip":"27623","city":"Raleigh","state":"NC","lat":35.7977,"long":-78.6253},{"zip":"27624","city":"Raleigh","state":"NC","lat":35.7977,"long":-78.6253},{"zip":"27625","city":"Raleigh","state":"NC","lat":35.7977,"long":-78.6253},{"zip":"27626","city":"Raleigh","state":"NC","lat":35.7977,"long":-78.6253},{"zip":"27627","city":"Raleigh","state":"NC","lat":35.7977,"long":-78.6253},{"zip":"27628","city":"Raleigh","state":"NC","lat":35.7977,"long":-78.6253},{"zip":"27629","city":"Raleigh","state":"NC","lat":35.8175,"long":-78.5524},{"zip":"27634","city":"Raleigh","state":"NC","lat":35.7977,"long":-78.6253},{"zip":"27635","city":"Raleigh","state":"NC","lat":35.7977,"long":-78.6253},{"zip":"27636","city":"Raleigh","state":"NC","lat":35.7977,"long":-78.6253},{"zip":"27640","city":"Raleigh","state":"NC","lat":35.7977,"long":-78.6253},{"zip":"27650","city":"Raleigh","state":"NC","lat":35.7977,"long":-78.6253},{"zip":"27656","city":"Raleigh","state":"NC","lat":35.7977,"long":-78.6253},{"zip":"27658","city":"Raleigh","state":"NC","lat":35.7977,"long":-78.6253},{"zip":"27661","city":"Raleigh","state":"NC","lat":35.7977,"long":-78.6253},{"zip":"27668","city":"Raleigh","state":"NC","lat":35.7977,"long":-78.6253},{"zip":"27675","city":"Raleigh","state":"NC","lat":35.7977,"long":-78.6253},{"zip":"27676","city":"Raleigh","state":"NC","lat":35.7977,"long":-78.6253},{"zip":"27690","city":"Raleigh","state":"NC","lat":35.7977,"long":-78.6253},{"zip":"27695","city":"Raleigh","state":"NC","lat":35.7977,"long":-78.6253},{"zip":"27697","city":"Raleigh","state":"NC","lat":35.7721,"long":-78.6386},{"zip":"27698","city":"Raleigh","state":"NC","lat":35.7977,"long":-78.6253},{"zip":"27699","city":"Raleigh","state":"NC","lat":35.7977,"long":-78.6253},{"zip":"27551","city":"Macon","state":"NC","lat":36.507,"long":-77.9975},{"zip":"27563","city":"Norlina","state":"NC","lat":36.4754,"long":-78.1895},{"zip":"27570","city":"Ridgeway","state":"NC","lat":36.4357,"long":-78.2367},{"zip":"27586","city":"Vaughan","state":"NC","lat":36.4265,"long":-78.0036},{"zip":"27589","city":"Warrenton","state":"NC","lat":36.3539,"long":-78.1594},{"zip":"27594","city":"Wise","state":"NC","lat":36.4865,"long":-78.1708},{"zip":"27928","city":"Creswell","state":"NC","lat":35.8653,"long":-76.4196},{"zip":"27962","city":"Plymouth","state":"NC","lat":35.8508,"long":-76.7431},{"zip":"27970","city":"Roper","state":"NC","lat":35.8994,"long":-76.5809},{"zip":"27530","city":"Goldsboro","state":"NC","lat":35.3683,"long":-78.0929},{"zip":"27531","city":"Goldsboro","state":"NC","lat":35.343,"long":-77.9644},{"zip":"27532","city":"Goldsboro","state":"NC","lat":35.372,"long":-78.0524},{"zip":"27533","city":"Goldsboro","state":"NC","lat":35.372,"long":-78.0524},{"zip":"27534","city":"Goldsboro","state":"NC","lat":35.3664,"long":-77.9221},{"zip":"27830","city":"Fremont","state":"NC","lat":35.5553,"long":-77.958},{"zip":"27863","city":"Pikeville","state":"NC","lat":35.4929,"long":-77.9578},{"zip":"27813","city":"Black Creek","state":"NC","lat":35.6352,"long":-77.933},{"zip":"27822","city":"Elm City","state":"NC","lat":35.811,"long":-77.856},{"zip":"27851","city":"Lucama","state":"NC","lat":35.6415,"long":-78.0197},{"zip":"27873","city":"Saratoga","state":"NC","lat":35.6538,"long":-77.7755},{"zip":"27880","city":"Sims","state":"NC","lat":35.7435,"long":-78.0859},{"zip":"27883","city":"Stantonsburg","state":"NC","lat":35.594,"long":-77.8378},{"zip":"27893","city":"Wilson","state":"NC","lat":35.727,"long":-77.9227},{"zip":"27894","city":"Wilson","state":"NC","lat":35.7158,"long":-77.9043},{"zip":"27895","city":"Wilson","state":"NC","lat":35.7199,"long":-77.9267},{"zip":"27896","city":"Wilson","state":"NC","lat":35.7715,"long":-77.973},{"zip":"27011","city":"Boonville","state":"NC","lat":36.234,"long":-80.6357},{"zip":"27018","city":"East Bend","state":"NC","lat":36.2032,"long":-80.5284},{"zip":"27020","city":"Hamptonville","state":"NC","lat":36.1242,"long":-80.8137},{"zip":"27055","city":"Yadkinville","state":"NC","lat":36.1277,"long":-80.653}]
