[{"zip":"27101","city":"Winston Salem","state":"NC","lat":36.1024,"long":-80.2228},{"zip":"27102","city":"Winston Salem","state":"NC","lat":36.0323,"long":-80.3962},{"zip":"27103","city":"Winston Salem","state":"NC","lat":36.0671,"long":-80.3025},{"zip":"27104","city":"Winston Salem","state":"NC","lat":36.092,"long":-80.3224},{"zip":"27105","city":"Winston Salem","state":"NC","lat":36.144,"long":-80.2376},{"zip":"27106","city":"Winston Salem","state":"NC","lat":36.1428,"long":-80.3069},{"zip":"27107","city":"Winston Salem","state":"NC","lat":36.0403,"long":-80.1933},{"zip":"27108","city":"Winston Salem","state":"NC","lat":36.0275,"long":-80.2073},{"zip":"27109","city":"Winston Salem","state":"NC","lat":36.0275,"long":-80.2073},{"zip":"27110","city":"Winston Salem","state":"NC","lat":36.0275,"long":-80.2073},{"zip":"27111","city":"Winston Salem","state":"NC","lat":36.0999,"long":-80.2442},{"zip":"27113","city":"Winston Salem","state":"NC","lat":36.0999,"long":-80.2442},{"zip":"27114","city":"Winston Salem","state":"NC","lat":36.0999,"long":-80.2442},{"zip":"27115","city":"Winston Salem","state":"NC","lat":36.0999,"long":-80.2442},{"zip":"27116","city":"Winston Salem","state":"NC","lat":36.0999,"long":-80.2442},{"zip":"27117","city":"Winston Salem","state":"NC","lat":36.0275,"long":-80.2073},{"zip":"27120","city":"Winston Salem","state":"NC","lat":36.0999,"long":-80.2442},{"zip":"27127","city":"Winston Salem","state":"NC","lat":36.0425,"long":-80.2609},{"zip":"27130","city":"Winston Salem","state":"NC","lat":36.0275,"long":-80.2073},{"zip":"27150","city":"Winston Salem","state":"NC","lat":36.0275,"long":-80.2073},{"zip":"27152","city":"Winston Salem","state":"NC","lat":36.0275,"long":-80.2073},{"zip":"27155","city":"Winston Salem","state":"NC","lat":36.0275,"long":-80.2073},{"zip":"27157","city":"Winston Salem","state":"NC","lat":36.0275,"long":-80.2073},{"zip":"27198","city":"Winston Salem","state":"NC","lat":36.0275,"long":-80.2073},{"zip":"27199","city":"Winston Salem","state":"NC","lat":36.0999,"long":-80.2442}]
