[{"zip":"27201","city":"Alamance","state":"NC","lat":36.0318,"long":-79.4856},{"zip":"27202","city":"Altamahaw","state":"NC","lat":36.1855,"long":-79.5055},{"zip":"27215","city":"Burlington","state":"NC","lat":36.0318,"long":-79.4889},{"zip":"27216","city":"Burlington","state":"NC","lat":36.0475,"long":-79.4797},{"zip":"27217","city":"Burlington","state":"NC","lat":36.1288,"long":-79.4114},{"zip":"27244","city":"Elon","state":"NC","lat":36.1029,"long":-79.5067},{"zip":"27253","city":"Graham","state":"NC","lat":36.031,"long":-79.3814},{"zip":"27258","city":"Haw River","state":"NC","lat":36.0915,"long":-79.3642},{"zip":"27212","city":"Blanch","state":"NC","lat":36.4664,"long":-79.2755},{"zip":"27291","city":"Leasburg","state":"NC","lat":36.4151,"long":-79.1942},{"zip":"27207","city":"Bear Creek","state":"NC","lat":35.6129,"long":-79.3726},{"zip":"27208","city":"Bennett","state":"NC","lat":35.5673,"long":-79.5225},{"zip":"27213","city":"Bonlee","state":"NC","lat":35.6482,"long":-79.4149},{"zip":"27228","city":"Bynum","state":"NC","lat":35.7835,"long":-79.1298},{"zip":"27252","city":"Goldston","state":"NC","lat":35.5643,"long":-79.3385},{"zip":"27256","city":"Gulf","state":"NC","lat":35.5604,"long":-79.2817},{"zip":"27239","city":"Denton","state":"NC","lat":35.6196,"long":-80.0959},{"zip":"27292","city":"Lexington","state":"NC","lat":35.8231,"long":-80.262},{"zip":"27293","city":"Lexington","state":"NC","lat":35.8829,"long":-80.276},{"zip":"27294","city":"Lexington","state":"NC","lat":35.824,"long":-80.2534},{"zip":"27295","city":"Lexington","state":"NC","lat":35.8684,"long":-80.315},{"zip":"27299","city":"Linwood","state":"NC","lat":35.7562,"long":-80.3749},{"zip":"27284","city":"Kernersville","state":"NC","lat":36.1165,"long":-80.0831},{"zip":"27285","city":"Kernersville","state":"NC","lat":36.1199,"long":-80.0737},{"zip":"27214","city":"Browns Summit","state":"NC","lat":36.2019,"long":-79.7101},{"zip":"27233","city":"Climax","state":"NC","lat":35.9345,"long":-79.7019},{"zip":"27235","city":"Colfax","state":"NC","lat":36.1003,"long":-80.0103},{"zip":"27249","city":"Gibsonville","state":"NC","lat":36.1183,"long":-79.5685},{"zip":"27260","city":"High Point","state":"NC","lat":35.954,"long":-79.9884},{"zip":"27261","city":"High Point","state":"NC","lat":36.0807,"long":-80.0244},{"zip":"27262","city":"High Point","state":"NC","lat":35.9734,"long":-80.0107},{"zip":"27263","city":"High Point","state":"NC","lat":35.9359,"long":-79.9395},{"zip":"27264","city":"High Point","state":"NC","lat":36.0807,"long":-80.0244},{"zip":"27265","city":"High Point","state":"NC","lat":36.0036,"long":-80.0036},{"zip":"27282","city":"Jamestown","state":"NC","lat":35.999,"long":-79.9293},{"zip":"27283","city":"Julian","state":"NC","lat":35.9543,"long":-79.6386},{"zip":"27237","city":"Cumnock","state":"NC","lat":35.4676,"long":-79.1653},{"zip":"27209","city":"Biscoe","state":"NC","lat":35.3599,"long":-79.7798},{"zip":"27229","city":"Candor","state":"NC","lat":35.2234,"long":-79.7876},{"zip":"27247","city":"Ether","state":"NC","lat":35.4514,"long":-79.7834},{"zip":"27242","city":"Eagle Springs","state":"NC","lat":35.336,"long":-79.631},{"zip":"27259","city":"Highfalls","state":"NC","lat":35.4921,"long":-79.479},{"zip":"27281","city":"Jackson Springs","state":"NC","lat":35.2259,"long":-79.6685},{"zip":"27231","city":"Cedar Grove","state":"NC","lat":36.202,"long":-79.1666},{"zip":"27243","city":"Efland","state":"NC","lat":36.0912,"long":-79.1884},{"zip":"27278","city":"Hillsborough","state":"NC","lat":36.0756,"long":-79.0914},{"zip":"27203","city":"Asheboro","state":"NC","lat":35.7323,"long":-79.7893},{"zip":"27204","city":"Asheboro","state":"NC","lat":35.7883,"long":-79.7206},{"zip":"27205","city":"Asheboro","state":"NC","lat":35.6396,"long":-79.8509},{"zip":"27230","city":"Cedar Falls","state":"NC","lat":35.8028,"long":-79.8797},{"zip":"27248","city":"Franklinville","state":"NC","lat":35.7917,"long":-79.7132},{"zip":"27298","city":"Liberty","state":"NC","lat":35.8729,"long":-79.5821},{"zip":"27288","city":"Eden","state":"NC","lat":36.5,"long":-79.759},{"zip":"27289","city":"Eden","state":"NC","lat":36.3921,"long":-79.7731}]
