[{"zip":"27302","city":"Mebane","state":"NC","lat":36.0979,"long":-79.2719},{"zip":"27340","city":"Saxapahaw","state":"NC","lat":35.9488,"long":-79.3297},{"zip":"27349","city":"Snow Camp","state":"NC","lat":35.9066,"long":-79.4279},{"zip":"27359","city":"Swepsonville","state":"NC","lat":36.0214,"long":-79.3574},{"zip":"27305","city":"Milton","state":"NC","lat":36.5158,"long":-79.2087},{"zip":"27311","city":"Pelham","state":"NC","lat":36.4899,"long":-79.4736},{"zip":"27314","city":"Prospect Hill","state":"NC","lat":36.2932,"long":-79.2156},{"zip":"27315","city":"Providence","state":"NC","lat":36.4873,"long":-79.4041},{"zip":"27379","city":"Yanceyville","state":"NC","lat":36.3907,"long":-79.3465},{"zip":"27312","city":"Pittsboro","state":"NC","lat":35.7694,"long":-79.1755},{"zip":"27344","city":"Siler City","state":"NC","lat":35.7354,"long":-79.4566},{"zip":"27351","city":"Southmont","state":"NC","lat":35.6605,"long":-80.2836},{"zip":"27360","city":"Thomasville","state":"NC","lat":35.8713,"long":-80.0913},{"zip":"27361","city":"Thomasville","state":"NC","lat":35.8829,"long":-80.276},{"zip":"27373","city":"Wallburg","state":"NC","lat":36.0101,"long":-80.1392},{"zip":"27374","city":"Welcome","state":"NC","lat":35.9029,"long":-80.257},{"zip":"27301","city":"Mc Leansville","state":"NC","lat":36.1163,"long":-79.6684},{"zip":"27310","city":"Oak Ridge","state":"NC","lat":36.1673,"long":-79.9804},{"zip":"27313","city":"Pleasant Garden","state":"NC","lat":35.9522,"long":-79.7549},{"zip":"27342","city":"Sedalia","state":"NC","lat":36.0756,"long":-79.6206},{"zip":"27357","city":"Stokesdale","state":"NC","lat":36.2552,"long":-79.9705},{"zip":"27358","city":"Summerfield","state":"NC","lat":36.2245,"long":-79.8901},{"zip":"27377","city":"Whitsett","state":"NC","lat":36.033,"long":-79.5972},{"zip":"27330","city":"Sanford","state":"NC","lat":35.4698,"long":-79.1717},{"zip":"27331","city":"Sanford","state":"NC","lat":35.4799,"long":-79.1803},{"zip":"27332","city":"Sanford","state":"NC","lat":35.4469,"long":-79.138},{"zip":"27306","city":"Mount Gilead","state":"NC","lat":35.2274,"long":-79.9871},{"zip":"27356","city":"Star","state":"NC","lat":35.4211,"long":-79.7826},{"zip":"27371","city":"Troy","state":"NC","lat":35.3777,"long":-79.9093},{"zip":"27325","city":"Robbins","state":"NC","lat":35.4528,"long":-79.582},{"zip":"27376","city":"West End","state":"NC","lat":35.2512,"long":-79.536},{"zip":"27343","city":"Semora","state":"NC","lat":36.5114,"long":-79.0942},{"zip":"27316","city":"Ramseur","state":"NC","lat":35.7143,"long":-79.6469},{"zip":"27317","city":"Randleman","state":"NC","lat":35.8488,"long":-79.8018},{"zip":"27341","city":"Seagrove","state":"NC","lat":35.5283,"long":-79.6979},{"zip":"27350","city":"Sophia","state":"NC","lat":35.8298,"long":-79.8986},{"zip":"27355","city":"Staley","state":"NC","lat":35.796,"long":-79.5514},{"zip":"27370","city":"Trinity","state":"NC","lat":35.8429,"long":-79.9902},{"zip":"27320","city":"Reidsville","state":"NC","lat":36.3432,"long":-79.6642},{"zip":"27323","city":"Reidsville","state":"NC","lat":36.3921,"long":-79.7731},{"zip":"27326","city":"Ruffin","state":"NC","lat":36.4428,"long":-79.5606},{"zip":"27375","city":"Wentworth","state":"NC","lat":36.3921,"long":-79.7731}]
