[{"zip":"27559","city":"Moncure","state":"NC","lat":35.6306,"long":-79.0839},{"zip":"27503","city":"Bahama","state":"NC","lat":36.1566,"long":-78.8903},{"zip":"27572","city":"Rougemont","state":"NC","lat":36.2393,"long":-78.9019},{"zip":"27508","city":"Bunn","state":"NC","lat":35.9577,"long":-78.2498},{"zip":"27525","city":"Franklinton","state":"NC","lat":36.0955,"long":-78.4486},{"zip":"27549","city":"Louisburg","state":"NC","lat":36.0578,"long":-78.2586},{"zip":"27596","city":"Youngsville","state":"NC","lat":36.0249,"long":-78.4744},{"zip":"27507","city":"Bullock","state":"NC","lat":36.5076,"long":-78.5646},{"zip":"27509","city":"Butner","state":"NC","lat":36.1359,"long":-78.7636},{"zip":"27522","city":"Creedmoor","state":"NC","lat":36.1224,"long":-78.6861},{"zip":"27527","city":"Clayton","state":"NC","lat":35.6577,"long":-78.3837},{"zip":"27528","city":"Clayton","state":"NC","lat":35.6555,"long":-78.4611},{"zip":"27565","city":"Oxford","state":"NC","lat":36.3313,"long":-78.6134},{"zip":"27574","city":"Roxboro","state":"NC","lat":36.3942,"long":-78.9863},{"zip":"27581","city":"Stem","state":"NC","lat":36.1999,"long":-78.7222},{"zip":"27582","city":"Stovall","state":"NC","lat":36.4424,"long":-78.5571},{"zip":"27501","city":"Angier","state":"NC","lat":35.4897,"long":-78.7249},{"zip":"27506","city":"Buies Creek","state":"NC","lat":35.4132,"long":-78.7356},{"zip":"27521","city":"Coats","state":"NC","lat":35.4082,"long":-78.6627},{"zip":"27543","city":"Kipling","state":"NC","lat":35.4799,"long":-78.8211},{"zip":"27546","city":"Lillington","state":"NC","lat":35.332,"long":-78.9212},{"zip":"27552","city":"Mamers","state":"NC","lat":35.4168,"long":-78.9334},{"zip":"27504","city":"Benson","state":"NC","lat":35.4037,"long":-78.5421},{"zip":"27520","city":"Clayton","state":"NC","lat":35.6348,"long":-78.451},{"zip":"27524","city":"Four Oaks","state":"NC","lat":35.404,"long":-78.4153},{"zip":"27542","city":"Kenly","state":"NC","lat":35.6077,"long":-78.1382},{"zip":"27555","city":"Micro","state":"NC","lat":35.5638,"long":-78.2044},{"zip":"27557","city":"Middlesex","state":"NC","lat":35.7665,"long":-78.2062},{"zip":"27568","city":"Pine Level","state":"NC","lat":35.4883,"long":-78.2179},{"zip":"27569","city":"Princeton","state":"NC","lat":35.4558,"long":-78.1674},{"zip":"27576","city":"Selma","state":"NC","lat":35.5565,"long":-78.264},{"zip":"27577","city":"Smithfield","state":"NC","lat":35.5068,"long":-78.3479},{"zip":"27593","city":"Wilsons Mills","state":"NC","lat":35.5907,"long":-78.3607},{"zip":"27505","city":"Broadway","state":"NC","lat":35.4181,"long":-79.0435},{"zip":"27510","city":"Carrboro","state":"NC","lat":35.9055,"long":-79.0901},{"zip":"27514","city":"Chapel Hill","state":"NC","lat":35.9203,"long":-79.0372},{"zip":"27515","city":"Chapel Hill","state":"NC","lat":35.9132,"long":-79.0558},{"zip":"27516","city":"Chapel Hill","state":"NC","lat":35.9162,"long":-79.0999},{"zip":"27517","city":"Chapel Hill","state":"NC","lat":35.9182,"long":-79.0035},{"zip":"27599","city":"Chapel Hill","state":"NC","lat":36.0525,"long":-79.1077},{"zip":"27541","city":"Hurdle Mills","state":"NC","lat":36.2518,"long":-79.0827},{"zip":"27573","city":"Roxboro","state":"NC","lat":36.4059,"long":-78.9737},{"zip":"27583","city":"Timberlake","state":"NC","lat":36.2918,"long":-78.9353},{"zip":"27536","city":"Henderson","state":"NC","lat":36.3301,"long":-78.3981},{"zip":"27537","city":"Henderson","state":"NC","lat":36.36,"long":-78.3906},{"zip":"27544","city":"Kittrell","state":"NC","lat":36.2042,"long":-78.4241},{"zip":"27553","city":"Manson","state":"NC","lat":36.4603,"long":-78.2952},{"zip":"27556","city":"Middleburg","state":"NC","lat":36.3996,"long":-78.3225},{"zip":"27584","city":"Townsville","state":"NC","lat":36.4946,"long":-78.4236},{"zip":"27502","city":"Apex","state":"NC","lat":35.7225,"long":-78.8408},{"zip":"27511","city":"Cary","state":"NC","lat":35.7641,"long":-78.7786},{"zip":"27512","city":"Cary","state":"NC","lat":35.8084,"long":-78.8395},{"zip":"27513","city":"Cary","state":"NC","lat":35.7956,"long":-78.7941},{"zip":"27518","city":"Cary","state":"NC","lat":35.7299,"long":-78.7735},{"zip":"27519","city":"Cary","state":"NC","lat":35.8072,"long":-78.887},{"zip":"27523","city":"Apex","state":"NC","lat":35.7225,"long":-78.8408},{"zip":"27526","city":"Fuquay Varina","state":"NC","lat":35.58,"long":-78.7908},{"zip":"27529","city":"Garner","state":"NC","lat":35.6813,"long":-78.5975},{"zip":"27539","city":"Apex","state":"NC","lat":35.7225,"long":-78.8408},{"zip":"27540","city":"Holly Springs","state":"NC","lat":35.6263,"long":-78.8458},{"zip":"27545","city":"Knightdale","state":"NC","lat":35.7789,"long":-78.4898},{"zip":"27560","city":"Morrisville","state":"NC","lat":35.8344,"long":-78.8466},{"zip":"27562","city":"New Hill","state":"NC","lat":35.6809,"long":-78.9365},{"zip":"27571","city":"Rolesville","state":"NC","lat":35.9156,"long":-78.4658},{"zip":"27587","city":"Wake Forest","state":"NC","lat":35.9815,"long":-78.5392},{"zip":"27588","city":"Wake Forest","state":"NC","lat":35.9731,"long":-78.4508},{"zip":"27591","city":"Wendell","state":"NC","lat":35.798,"long":-78.3926},{"zip":"27592","city":"Willow Spring","state":"NC","lat":35.547,"long":-78.6717},{"zip":"27597","city":"Zebulon","state":"NC","lat":35.8321,"long":-78.3174},{"zip":"27551","city":"Macon","state":"NC","lat":36.507,"long":-77.9975},{"zip":"27563","city":"Norlina","state":"NC","lat":36.4754,"long":-78.1895},{"zip":"27570","city":"Ridgeway","state":"NC","lat":36.4357,"long":-78.2367},{"zip":"27586","city":"Vaughan","state":"NC","lat":36.4265,"long":-78.0036},{"zip":"27589","city":"Warrenton","state":"NC","lat":36.3539,"long":-78.1594},{"zip":"27594","city":"Wise","state":"NC","lat":36.4865,"long":-78.1708},{"zip":"27530","city":"Goldsboro","state":"NC","lat":35.3683,"long":-78.0929},{"zip":"27531","city":"Goldsboro","state":"NC","lat":35.343,"long":-77.9644},{"zip":"27532","city":"Goldsboro","state":"NC","lat":35.372,"long":-78.0524},{"zip":"27533","city":"Goldsboro","state":"NC","lat":35.372,"long":-78.0524},{"zip":"27534","city":"Goldsboro","state":"NC","lat":35.3664,"long":-77.9221}]
