[{"zip":"27806","city":"Aurora","state":"NC","lat":35.3023,"long":-76.7994},{"zip":"27808","city":"Bath","state":"NC","lat":35.4702,"long":-76.7715},{"zip":"27810","city":"Belhaven","state":"NC","lat":35.4458,"long":-76.6391},{"zip":"27814","city":"Blounts Creek","state":"NC","lat":35.382,"long":-76.925},{"zip":"27817","city":"Chocowinity","state":"NC","lat":35.4814,"long":-77.0868},{"zip":"27821","city":"Edward","state":"NC","lat":35.3236,"long":-76.8794},{"zip":"27860","city":"Pantego","state":"NC","lat":35.6201,"long":-76.6988},{"zip":"27865","city":"Pinetown","state":"NC","lat":35.5758,"long":-76.8076},{"zip":"27889","city":"Washington","state":"NC","lat":35.5884,"long":-77.1404},{"zip":"27805","city":"Aulander","state":"NC","lat":36.1475,"long":-77.1141},{"zip":"27847","city":"Kelford","state":"NC","lat":36.1871,"long":-77.1898},{"zip":"27849","city":"Lewiston Woodville","state":"NC","lat":36.0933,"long":-77.1439},{"zip":"27872","city":"Roxobel","state":"NC","lat":36.195,"long":-77.2602},{"zip":"27801","city":"Rocky Mount","state":"NC","lat":35.9427,"long":-77.7608},{"zip":"27802","city":"Rocky Mount","state":"NC","lat":35.9356,"long":-77.7808},{"zip":"27809","city":"Battleboro","state":"NC","lat":36.0067,"long":-77.7074},{"zip":"27819","city":"Conetoe","state":"NC","lat":35.8178,"long":-77.4533},{"zip":"27852","city":"Macclesfield","state":"NC","lat":35.751,"long":-77.6706},{"zip":"27864","city":"Pinetops","state":"NC","lat":35.7885,"long":-77.6378},{"zip":"27881","city":"Speed","state":"NC","lat":35.9159,"long":-77.5855},{"zip":"27886","city":"Tarboro","state":"NC","lat":35.8983,"long":-77.5421},{"zip":"27888","city":"Walstonburg","state":"NC","lat":35.5882,"long":-77.6983},{"zip":"27823","city":"Enfield","state":"NC","lat":36.1973,"long":-77.7129},{"zip":"27839","city":"Halifax","state":"NC","lat":36.3049,"long":-77.5607},{"zip":"27843","city":"Hobgood","state":"NC","lat":36.0594,"long":-77.4061},{"zip":"27844","city":"Hollister","state":"NC","lat":36.259,"long":-77.9319},{"zip":"27850","city":"Littleton","state":"NC","lat":36.4169,"long":-77.8528},{"zip":"27870","city":"Roanoke Rapids","state":"NC","lat":36.4461,"long":-77.6731},{"zip":"27874","city":"Scotland Neck","state":"NC","lat":36.1301,"long":-77.4273},{"zip":"27887","city":"Tillery","state":"NC","lat":36.2352,"long":-77.5026},{"zip":"27890","city":"Weldon","state":"NC","lat":36.4206,"long":-77.6035},{"zip":"27818","city":"Como","state":"NC","lat":36.5015,"long":-77.0094},{"zip":"27855","city":"Murfreesboro","state":"NC","lat":36.4319,"long":-77.1027},{"zip":"27824","city":"Engelhard","state":"NC","lat":35.5149,"long":-76.0303},{"zip":"27826","city":"Fairfield","state":"NC","lat":35.5659,"long":-76.2318},{"zip":"27875","city":"Scranton","state":"NC","lat":35.4717,"long":-76.4951},{"zip":"27885","city":"Swanquarter","state":"NC","lat":35.4222,"long":-76.2875},{"zip":"27825","city":"Everetts","state":"NC","lat":35.8349,"long":-77.1736},{"zip":"27840","city":"Hamilton","state":"NC","lat":35.9446,"long":-77.2097},{"zip":"27841","city":"Hassell","state":"NC","lat":35.9086,"long":-77.2763},{"zip":"27846","city":"Jamesville","state":"NC","lat":35.7839,"long":-76.8983},{"zip":"27857","city":"Oak City","state":"NC","lat":35.9597,"long":-77.3004},{"zip":"27861","city":"Parmele","state":"NC","lat":35.8165,"long":-77.3141},{"zip":"27871","city":"Robersonville","state":"NC","lat":35.8218,"long":-77.26},{"zip":"27892","city":"Williamston","state":"NC","lat":35.8212,"long":-77.1022},{"zip":"27803","city":"Rocky Mount","state":"NC","lat":35.9238,"long":-77.835},{"zip":"27804","city":"Rocky Mount","state":"NC","lat":35.9904,"long":-77.8468},{"zip":"27807","city":"Bailey","state":"NC","lat":35.8072,"long":-78.0892},{"zip":"27815","city":"Rocky Mount","state":"NC","lat":35.8979,"long":-77.7935},{"zip":"27816","city":"Castalia","state":"NC","lat":36.0901,"long":-78.0705},{"zip":"27856","city":"Nashville","state":"NC","lat":35.9843,"long":-77.9595},{"zip":"27868","city":"Red Oak","state":"NC","lat":36.0548,"long":-77.9116},{"zip":"27878","city":"Sharpsburg","state":"NC","lat":35.8654,"long":-77.8389},{"zip":"27882","city":"Spring Hope","state":"NC","lat":35.9302,"long":-78.1085},{"zip":"27891","city":"Whitakers","state":"NC","lat":36.0758,"long":-77.7167},{"zip":"27820","city":"Conway","state":"NC","lat":36.4164,"long":-77.2502},{"zip":"27831","city":"Garysburg","state":"NC","lat":36.4761,"long":-77.5719},{"zip":"27832","city":"Gaston","state":"NC","lat":36.5004,"long":-77.645},{"zip":"27842","city":"Henrico","state":"NC","lat":36.5274,"long":-77.8546},{"zip":"27845","city":"Jackson","state":"NC","lat":36.3896,"long":-77.4214},{"zip":"27853","city":"Margarettsville","state":"NC","lat":36.5245,"long":-77.326},{"zip":"27862","city":"Pendleton","state":"NC","lat":36.4937,"long":-77.1911},{"zip":"27866","city":"Pleasant Hill","state":"NC","lat":36.5212,"long":-77.5192},{"zip":"27867","city":"Potecasi","state":"NC","lat":36.3632,"long":-77.2391},{"zip":"27869","city":"Rich Square","state":"NC","lat":36.2773,"long":-77.2969},{"zip":"27876","city":"Seaboard","state":"NC","lat":36.4886,"long":-77.4113},{"zip":"27877","city":"Severn","state":"NC","lat":36.5152,"long":-77.1897},{"zip":"27897","city":"Woodland","state":"NC","lat":36.325,"long":-77.2107},{"zip":"27811","city":"Bellarthur","state":"NC","lat":35.5847,"long":-77.5134},{"zip":"27812","city":"Bethel","state":"NC","lat":35.7909,"long":-77.3748},{"zip":"27827","city":"Falkland","state":"NC","lat":35.6966,"long":-77.5132},{"zip":"27828","city":"Farmville","state":"NC","lat":35.5806,"long":-77.5793},{"zip":"27829","city":"Fountain","state":"NC","lat":35.674,"long":-77.64},{"zip":"27833","city":"Greenville","state":"NC","lat":35.5804,"long":-77.3926},{"zip":"27834","city":"Greenville","state":"NC","lat":35.6192,"long":-77.3975},{"zip":"27835","city":"Greenville","state":"NC","lat":35.5885,"long":-77.3531},{"zip":"27836","city":"Greenville","state":"NC","lat":35.5804,"long":-77.3926},{"zip":"27837","city":"Grimesland","state":"NC","lat":35.558,"long":-77.2566},{"zip":"27858","city":"Greenville","state":"NC","lat":35.5866,"long":-77.3485},{"zip":"27879","city":"Simpson","state":"NC","lat":35.5752,"long":-77.2786},{"zip":"27884","city":"Stokes","state":"NC","lat":35.7104,"long":-77.2722},{"zip":"27830","city":"Fremont","state":"NC","lat":35.5553,"long":-77.958},{"zip":"27863","city":"Pikeville","state":"NC","lat":35.4929,"long":-77.9578},{"zip":"27813","city":"Black Creek","state":"NC","lat":35.6352,"long":-77.933},{"zip":"27822","city":"Elm City","state":"NC","lat":35.811,"long":-77.856},{"zip":"27851","city":"Lucama","state":"NC","lat":35.6415,"long":-78.0197},{"zip":"27873","city":"Saratoga","state":"NC","lat":35.6538,"long":-77.7755},{"zip":"27880","city":"Sims","state":"NC","lat":35.7435,"long":-78.0859},{"zip":"27883","city":"Stantonsburg","state":"NC","lat":35.594,"long":-77.8378},{"zip":"27893","city":"Wilson","state":"NC","lat":35.727,"long":-77.9227},{"zip":"27894","city":"Wilson","state":"NC","lat":35.7158,"long":-77.9043},{"zip":"27895","city":"Wilson","state":"NC","lat":35.7199,"long":-77.9267},{"zip":"27896","city":"Wilson","state":"NC","lat":35.7715,"long":-77.973}]
