[{"zip":"28636","city":"Hiddenite","state":"NC","lat":35.9504,"long":-81.0487},{"zip":"28678","city":"Stony Point","state":"NC","lat":35.8661,"long":-81.0641},{"zip":"28681","city":"Taylorsville","state":"NC","lat":35.901,"long":-81.2124},{"zip":"28623","city":"Ennice","state":"NC","lat":36.5253,"long":-80.9771},{"zip":"28627","city":"Glade Valley","state":"NC","lat":36.4429,"long":-81.0168},{"zip":"28663","city":"Piney Creek","state":"NC","lat":36.5276,"long":-81.3019},{"zip":"28668","city":"Roaring Gap","state":"NC","lat":36.3836,"long":-81.0188},{"zip":"28675","city":"Sparta","state":"NC","lat":36.5089,"long":-81.1384},{"zip":"28007","city":"Ansonville","state":"NC","lat":35.1046,"long":-80.1092},{"zip":"28091","city":"Lilesville","state":"NC","lat":34.9689,"long":-79.9721},{"zip":"28102","city":"Mc Farlan","state":"NC","lat":34.8136,"long":-79.9776},{"zip":"28119","city":"Morven","state":"NC","lat":34.8511,"long":-80.0025},{"zip":"28133","city":"Peachland","state":"NC","lat":35.0054,"long":-80.2829},{"zip":"28135","city":"Polkton","state":"NC","lat":34.9823,"long":-80.1538},{"zip":"28170","city":"Wadesboro","state":"NC","lat":34.9809,"long":-80.0696},{"zip":"28615","city":"Creston","state":"NC","lat":36.45,"long":-81.6506},{"zip":"28617","city":"Crumpler","state":"NC","lat":36.4641,"long":-81.4039},{"zip":"28626","city":"Fleetwood","state":"NC","lat":36.2814,"long":-81.514},{"zip":"28629","city":"Glendale Springs","state":"NC","lat":36.3405,"long":-81.3653},{"zip":"28631","city":"Grassy Creek","state":"NC","lat":36.5415,"long":-81.4468},{"zip":"28640","city":"Jefferson","state":"NC","lat":36.409,"long":-81.4396},{"zip":"28643","city":"Lansing","state":"NC","lat":36.5176,"long":-81.5269},{"zip":"28644","city":"Laurel Springs","state":"NC","lat":36.4449,"long":-81.2606},{"zip":"28672","city":"Scottville","state":"NC","lat":36.4833,"long":-81.3276},{"zip":"28684","city":"Todd","state":"NC","lat":36.3245,"long":-81.5874},{"zip":"28693","city":"Warrensville","state":"NC","lat":36.4572,"long":-81.5465},{"zip":"28694","city":"West Jefferson","state":"NC","lat":36.3776,"long":-81.4872},{"zip":"28604","city":"Banner Elk","state":"NC","lat":36.1705,"long":-81.8412},{"zip":"28616","city":"Crossnore","state":"NC","lat":36.0218,"long":-81.9296},{"zip":"28622","city":"Elk Park","state":"NC","lat":36.1646,"long":-81.9639},{"zip":"28646","city":"Linville","state":"NC","lat":36.0665,"long":-81.8704},{"zip":"28652","city":"Minneapolis","state":"NC","lat":36.0865,"long":-81.9343},{"zip":"28653","city":"Montezuma","state":"NC","lat":36.0651,"long":-81.9017},{"zip":"28657","city":"Newland","state":"NC","lat":36.059,"long":-81.9303},{"zip":"28662","city":"Pineola","state":"NC","lat":36.0856,"long":-81.876},{"zip":"28664","city":"Plumtree","state":"NC","lat":36.0441,"long":-82.0037},{"zip":"28320","city":"Bladenboro","state":"NC","lat":34.5658,"long":-78.7793},{"zip":"28332","city":"Dublin","state":"NC","lat":34.6568,"long":-78.7264},{"zip":"28337","city":"Elizabethtown","state":"NC","lat":34.6471,"long":-78.5747},{"zip":"28392","city":"Tar Heel","state":"NC","lat":34.7465,"long":-78.8134},{"zip":"28399","city":"White Oak","state":"NC","lat":34.7662,"long":-78.7301},{"zip":"28433","city":"Clarkton","state":"NC","lat":34.503,"long":-78.6313},{"zip":"28434","city":"Council","state":"NC","lat":34.429,"long":-78.4115},{"zip":"28448","city":"Kelly","state":"NC","lat":34.4591,"long":-78.2942},{"zip":"28404","city":"Wilmington","state":"NC","lat":34.2257,"long":-77.9447},{"zip":"28420","city":"Ash","state":"NC","lat":34.0659,"long":-78.5056},{"zip":"28422","city":"Bolivia","state":"NC","lat":34.026,"long":-78.1681},{"zip":"28451","city":"Leland","state":"NC","lat":34.268,"long":-78.0578},{"zip":"28452","city":"Longwood","state":"NC","lat":33.9973,"long":-78.5541},{"zip":"28459","city":"Shallotte","state":"NC","lat":33.9334,"long":-78.4129},{"zip":"28461","city":"Southport","state":"NC","lat":33.9654,"long":-78.0359},{"zip":"28462","city":"Supply","state":"NC","lat":34.0231,"long":-78.2884},{"zip":"28465","city":"Oak Island","state":"NC","lat":33.9161,"long":-78.1255},{"zip":"28467","city":"Calabash","state":"NC","lat":33.9047,"long":-78.5744},{"zip":"28468","city":"Sunset Beach","state":"NC","lat":33.8836,"long":-78.52},{"zip":"28469","city":"Ocean Isle Beach","state":"NC","lat":33.8913,"long":-78.4298},{"zip":"28470","city":"Shallotte","state":"NC","lat":33.9637,"long":-78.4064},{"zip":"28479","city":"Winnabow","state":"NC","lat":34.1553,"long":-78.0558},{"zip":"28701","city":"Alexander","state":"NC","lat":35.7064,"long":-82.6311},{"zip":"28704","city":"Arden","state":"NC","lat":35.4637,"long":-82.5354},{"zip":"28709","city":"Barnardsville","state":"NC","lat":35.7748,"long":-82.4567},{"zip":"28711","city":"Black Mountain","state":"NC","lat":35.5986,"long":-82.2902},{"zip":"28715","city":"Candler","state":"NC","lat":35.5376,"long":-82.7001},{"zip":"28728","city":"Enka","state":"NC","lat":35.4988,"long":-82.708},{"zip":"28730","city":"Fairview","state":"NC","lat":35.5258,"long":-82.3985},{"zip":"28748","city":"Leicester","state":"NC","lat":35.6498,"long":-82.7106},{"zip":"28757","city":"Montreat","state":"NC","lat":35.6415,"long":-82.3156},{"zip":"28759","city":"Mills River","state":"NC","lat":35.3906,"long":-82.568},{"zip":"28770","city":"Ridgecrest","state":"NC","lat":35.6186,"long":-82.3005},{"zip":"28776","city":"Skyland","state":"NC","lat":35.4835,"long":-82.5207},{"zip":"28778","city":"Swannanoa","state":"NC","lat":35.6172,"long":-82.407},{"zip":"28787","city":"Weaverville","state":"NC","lat":35.7126,"long":-82.5491},{"zip":"28801","city":"Asheville","state":"NC","lat":35.5971,"long":-82.5565},{"zip":"28802","city":"Asheville","state":"NC","lat":35.6237,"long":-82.6671},{"zip":"28803","city":"Asheville","state":"NC","lat":35.5393,"long":-82.518},{"zip":"28804","city":"Asheville","state":"NC","lat":35.6374,"long":-82.5646},{"zip":"28805","city":"Asheville","state":"NC","lat":35.6004,"long":-82.4918},{"zip":"28806","city":"Asheville","state":"NC","lat":35.5808,"long":-82.6078},{"zip":"28810","city":"Asheville","state":"NC","lat":35.6203,"long":-82.5286},{"zip":"28813","city":"Asheville","state":"NC","lat":35.5004,"long":-82.5026},{"zip":"28814","city":"Asheville","state":"NC","lat":35.6648,"long":-82.4927},{"zip":"28815","city":"Asheville","state":"NC","lat":35.6203,"long":-82.5286},{"zip":"28816","city":"Asheville","state":"NC","lat":35.6203,"long":-82.5286},{"zip":"28612","city":"Connelly Springs","state":"NC","lat":35.7429,"long":-81.5134},{"zip":"28619","city":"Drexel","state":"NC","lat":35.7579,"long":-81.6043},{"zip":"28628","city":"Glen Alpine","state":"NC","lat":35.729,"long":-81.7793},{"zip":"28637","city":"Hildebran","state":"NC","lat":35.718,"long":-81.4194},{"zip":"28641","city":"Jonas Ridge","state":"NC","lat":35.9726,"long":-81.8948},{"zip":"28647","city":"Linville Falls","state":"NC","lat":35.9593,"long":-81.9429},{"zip":"28655","city":"Morganton","state":"NC","lat":35.7346,"long":-81.7042},{"zip":"28666","city":"Icard","state":"NC","lat":35.7274,"long":-81.4706},{"zip":"28671","city":"Rutherford College","state":"NC","lat":35.7485,"long":-81.5226},{"zip":"28680","city":"Morganton","state":"NC","lat":35.7507,"long":-81.6953},{"zip":"28690","city":"Valdese","state":"NC","lat":35.7447,"long":-81.567},{"zip":"28025","city":"Concord","state":"NC","lat":35.3716,"long":-80.53},{"zip":"28026","city":"Concord","state":"NC","lat":35.3463,"long":-80.5411},{"zip":"28027","city":"Concord","state":"NC","lat":35.4141,"long":-80.6162},{"zip":"28075","city":"Harrisburg","state":"NC","lat":35.3247,"long":-80.6594},{"zip":"28081","city":"Kannapolis","state":"NC","lat":35.502,"long":-80.6359},{"zip":"28082","city":"Kannapolis","state":"NC","lat":35.3463,"long":-80.5411},{"zip":"28083","city":"Kannapolis","state":"NC","lat":35.4848,"long":-80.6015},{"zip":"28107","city":"Midland","state":"NC","lat":35.2477,"long":-80.5319},{"zip":"28124","city":"Mount Pleasant","state":"NC","lat":35.4146,"long":-80.4171},{"zip":"28611","city":"Collettsville","state":"NC","lat":35.9946,"long":-81.7266},{"zip":"28630","city":"Granite Falls","state":"NC","lat":35.7965,"long":-81.4306},{"zip":"28633","city":"Lenoir","state":"NC","lat":35.914,"long":-81.539},{"zip":"28638","city":"Hudson","state":"NC","lat":35.8403,"long":-81.4897},{"zip":"28645","city":"Lenoir","state":"NC","lat":35.9149,"long":-81.5398},{"zip":"28661","city":"Patterson","state":"NC","lat":35.9973,"long":-81.5626},{"zip":"28667","city":"Rhodhiss","state":"NC","lat":35.7772,"long":-81.4302},{"zip":"28511","city":"Atlantic","state":"NC","lat":34.8888,"long":-76.3521},{"zip":"28512","city":"Atlantic Beach","state":"NC","lat":34.6991,"long":-76.7402},{"zip":"28516","city":"Beaufort","state":"NC","lat":34.758,"long":-76.6228},{"zip":"28520","city":"Cedar Island","state":"NC","lat":35.0082,"long":-76.316},{"zip":"28524","city":"Davis","state":"NC","lat":34.7974,"long":-76.4602},{"zip":"28528","city":"Gloucester","state":"NC","lat":34.7344,"long":-76.5394},{"zip":"28531","city":"Harkers Island","state":"NC","lat":34.6966,"long":-76.5583},{"zip":"28553","city":"Marshallberg","state":"NC","lat":34.7265,"long":-76.5173},{"zip":"28557","city":"Morehead City","state":"NC","lat":34.7253,"long":-76.7531},{"zip":"28570","city":"Newport","state":"NC","lat":34.7551,"long":-76.9069},{"zip":"28575","city":"Salter Path","state":"NC","lat":34.6885,"long":-76.8861},{"zip":"28577","city":"Sealevel","state":"NC","lat":34.8769,"long":-76.3898},{"zip":"28579","city":"Smyrna","state":"NC","lat":34.7593,"long":-76.5274},{"zip":"28581","city":"Stacy","state":"NC","lat":34.8412,"long":-76.4289},{"zip":"28582","city":"Stella","state":"NC","lat":34.7777,"long":-77.1308},{"zip":"28589","city":"Williston","state":"NC","lat":34.7893,"long":-76.5052},{"zip":"28594","city":"Emerald Isle","state":"NC","lat":34.6662,"long":-77.026},{"zip":"28601","city":"Hickory","state":"NC","lat":35.7576,"long":-81.3289},{"zip":"28602","city":"Hickory","state":"NC","lat":35.6884,"long":-81.3612},{"zip":"28603","city":"Hickory","state":"NC","lat":35.6799,"long":-81.2872},{"zip":"28609","city":"Catawba","state":"NC","lat":35.6757,"long":-81.0503},{"zip":"28610","city":"Claremont","state":"NC","lat":35.7211,"long":-81.1297},{"zip":"28613","city":"Conover","state":"NC","lat":35.7313,"long":-81.2165},{"zip":"28650","city":"Maiden","state":"NC","lat":35.5759,"long":-81.1745},{"zip":"28658","city":"Newton","state":"NC","lat":35.6498,"long":-81.2425},{"zip":"28673","city":"Sherrills Ford","state":"NC","lat":35.5962,"long":-81.0339},{"zip":"28682","city":"Terrell","state":"NC","lat":35.5836,"long":-80.9631},{"zip":"28781","city":"Topton","state":"NC","lat":35.2151,"long":-83.6461},{"zip":"28901","city":"Andrews","state":"NC","lat":35.1959,"long":-83.8228},{"zip":"28903","city":"Culberson","state":"NC","lat":34.9917,"long":-84.1677},{"zip":"28905","city":"Marble","state":"NC","lat":35.1475,"long":-83.9381},{"zip":"28906","city":"Murphy","state":"NC","lat":35.1312,"long":-84.0388},{"zip":"28902","city":"Brasstown","state":"NC","lat":35.0261,"long":-83.9567},{"zip":"28904","city":"Hayesville","state":"NC","lat":35.0417,"long":-83.7867},{"zip":"28909","city":"Warne","state":"NC","lat":35.0024,"long":-83.9045},{"zip":"28017","city":"Boiling Springs","state":"NC","lat":35.2549,"long":-81.6914},{"zip":"28020","city":"Casar","state":"NC","lat":35.5145,"long":-81.6357},{"zip":"28038","city":"Earl","state":"NC","lat":35.197,"long":-81.5386},{"zip":"28042","city":"Fallston","state":"NC","lat":35.429,"long":-81.5015},{"zip":"28073","city":"Grover","state":"NC","lat":35.1836,"long":-81.4552},{"zip":"28086","city":"Kings Mountain","state":"NC","lat":35.2516,"long":-81.3806},{"zip":"28089","city":"Lattimore","state":"NC","lat":35.3182,"long":-81.6607},{"zip":"28090","city":"Lawndale","state":"NC","lat":35.4449,"long":-81.5336},{"zip":"28114","city":"Mooresboro","state":"NC","lat":35.2295,"long":-81.7492},{"zip":"28136","city":"Polkville","state":"NC","lat":35.3961,"long":-81.6303},{"zip":"28150","city":"Shelby","state":"NC","lat":35.312,"long":-81.5568},{"zip":"28151","city":"Shelby","state":"NC","lat":35.2924,"long":-81.5356},{"zip":"28152","city":"Shelby","state":"NC","lat":35.2689,"long":-81.5337},{"zip":"28169","city":"Waco","state":"NC","lat":35.3615,"long":-81.4287},{"zip":"28423","city":"Bolton","state":"NC","lat":34.3091,"long":-78.3372},{"zip":"28424","city":"Brunswick","state":"NC","lat":34.2907,"long":-78.6994},{"zip":"28430","city":"Cerro Gordo","state":"NC","lat":34.3025,"long":-78.9216},{"zip":"28431","city":"Chadbourn","state":"NC","lat":34.3223,"long":-78.8267},{"zip":"28432","city":"Clarendon","state":"NC","lat":34.1761,"long":-78.7637},{"zip":"28436","city":"Delco","state":"NC","lat":34.2838,"long":-78.2607},{"zip":"28438","city":"Evergreen","state":"NC","lat":34.4204,"long":-78.8947},{"zip":"28439","city":"Fair Bluff","state":"NC","lat":34.3023,"long":-79.0175},{"zip":"28442","city":"Hallsboro","state":"NC","lat":34.3181,"long":-78.6043},{"zip":"28450","city":"Lake Waccamaw","state":"NC","lat":34.3394,"long":-78.5102},{"zip":"28455","city":"Nakina","state":"NC","lat":34.1153,"long":-78.657},{"zip":"28456","city":"Riegelwood","state":"NC","lat":34.3471,"long":-78.2575},{"zip":"28463","city":"Tabor City","state":"NC","lat":34.1233,"long":-78.8232},{"zip":"28472","city":"Whiteville","state":"NC","lat":34.3241,"long":-78.716},{"zip":"28519","city":"Bridgeton","state":"NC","lat":35.1215,"long":-77.0208},{"zip":"28523","city":"Cove City","state":"NC","lat":35.2023,"long":-77.2963},{"zip":"28526","city":"Dover","state":"NC","lat":35.2554,"long":-77.3646},{"zip":"28527","city":"Ernul","state":"NC","lat":35.2547,"long":-77.0502},{"zip":"28532","city":"Havelock","state":"NC","lat":34.8968,"long":-76.89},{"zip":"28533","city":"Cherry Point","state":"NC","lat":34.9038,"long":-76.9},{"zip":"28560","city":"New Bern","state":"NC","lat":35.1204,"long":-76.9842},{"zip":"28561","city":"New Bern","state":"NC","lat":35.1037,"long":-77.0759},{"zip":"28562","city":"New Bern","state":"NC","lat":35.1004,"long":-77.1029},{"zip":"28563","city":"New Bern","state":"NC","lat":35.1109,"long":-77.0634},{"zip":"28564","city":"New Bern","state":"NC","lat":35.1109,"long":-77.0634},{"zip":"28586","city":"Vanceboro","state":"NC","lat":35.3063,"long":-77.1716},{"zip":"28301","city":"Fayetteville","state":"NC","lat":35.0743,"long":-78.8836},{"zip":"28302","city":"Fayetteville","state":"NC","lat":35.0343,"long":-78.9088},{"zip":"28303","city":"Fayetteville","state":"NC","lat":35.0742,"long":-78.965},{"zip":"28304","city":"Fayetteville","state":"NC","lat":35.0257,"long":-78.9705},{"zip":"28305","city":"Fayetteville","state":"NC","lat":35.056,"long":-78.9047},{"zip":"28306","city":"Fayetteville","state":"NC","lat":35.0019,"long":-78.9364},{"zip":"28307","city":"Fort Bragg","state":"NC","lat":35.1416,"long":-79.0025},{"zip":"28308","city":"Pope Army Airfield","state":"NC","lat":35.0635,"long":-78.8943},{"zip":"28309","city":"Fayetteville","state":"NC","lat":35.0397,"long":-78.8429},{"zip":"28310","city":"Fort Bragg","state":"NC","lat":35.0506,"long":-78.8038},{"zip":"28311","city":"Fayetteville","state":"NC","lat":35.1294,"long":-78.8982},{"zip":"28312","city":"Fayetteville","state":"NC","lat":34.9549,"long":-78.7408},{"zip":"28314","city":"Fayetteville","state":"NC","lat":35.0583,"long":-79.008},{"zip":"28331","city":"Cumberland","state":"NC","lat":35.0049,"long":-78.9673},{"zip":"28342","city":"Falcon","state":"NC","lat":35.1899,"long":-78.6483},{"zip":"28344","city":"Godwin","state":"NC","lat":35.1969,"long":-78.6625},{"zip":"28348","city":"Hope Mills","state":"NC","lat":34.9536,"long":-78.9354},{"zip":"28356","city":"Linden","state":"NC","lat":35.2276,"long":-78.8004},{"zip":"28390","city":"Spring Lake","state":"NC","lat":35.183,"long":-78.9786},{"zip":"28391","city":"Stedman","state":"NC","lat":35.0347,"long":-78.6949},{"zip":"28395","city":"Wade","state":"NC","lat":35.1606,"long":-78.7249},{"zip":"28325","city":"Calypso","state":"NC","lat":35.1538,"long":-78.1053},{"zip":"28341","city":"Faison","state":"NC","lat":35.1199,"long":-78.118},{"zip":"28349","city":"Kenansville","state":"NC","lat":35.0152,"long":-77.8969},{"zip":"28398","city":"Warsaw","state":"NC","lat":35.018,"long":-78.031},{"zip":"28453","city":"Magnolia","state":"NC","lat":34.8957,"long":-78.0432},{"zip":"28458","city":"Rose Hill","state":"NC","lat":34.8235,"long":-78.0166},{"zip":"28464","city":"Teachey","state":"NC","lat":34.77,"long":-78.0221},{"zip":"28466","city":"Wallace","state":"NC","lat":34.7542,"long":-77.9429},{"zip":"28508","city":"Albertson","state":"NC","lat":35.1176,"long":-77.8515},{"zip":"28518","city":"Beulaville","state":"NC","lat":34.934,"long":-77.7697},{"zip":"28521","city":"Chinquapin","state":"NC","lat":34.8276,"long":-77.7636},{"zip":"28006","city":"Alexis","state":"NC","lat":35.4069,"long":-81.0947},{"zip":"28012","city":"Belmont","state":"NC","lat":35.244,"long":-81.044},{"zip":"28016","city":"Bessemer City","state":"NC","lat":35.2849,"long":-81.2863},{"zip":"28021","city":"Cherryville","state":"NC","lat":35.3747,"long":-81.3509},{"zip":"28032","city":"Cramerton","state":"NC","lat":35.2396,"long":-81.0831},{"zip":"28034","city":"Dallas","state":"NC","lat":35.3349,"long":-81.1862},{"zip":"28035","city":"Davidson","state":"NC","lat":35.4993,"long":-80.8486},{"zip":"28052","city":"Gastonia","state":"NC","lat":35.2449,"long":-81.2194},{"zip":"28053","city":"Gastonia","state":"NC","lat":35.2751,"long":-81.2134},{"zip":"28054","city":"Gastonia","state":"NC","lat":35.2495,"long":-81.133},{"zip":"28055","city":"Gastonia","state":"NC","lat":35.284,"long":-81.1897},{"zip":"28056","city":"Gastonia","state":"NC","lat":35.2172,"long":-81.1252},{"zip":"28077","city":"High Shoals","state":"NC","lat":35.4041,"long":-81.2029},{"zip":"28098","city":"Lowell","state":"NC","lat":35.2655,"long":-81.096},{"zip":"28101","city":"Mc Adenville","state":"NC","lat":35.2578,"long":-81.0788},{"zip":"28120","city":"Mount Holly","state":"NC","lat":35.3119,"long":-81.0306},{"zip":"28164","city":"Stanley","state":"NC","lat":35.3516,"long":-81.0959},{"zip":"28733","city":"Fontana Dam","state":"NC","lat":35.4231,"long":-83.7795},{"zip":"28771","city":"Robbinsville","state":"NC","lat":35.3259,"long":-83.7888},{"zip":"28538","city":"Hookerton","state":"NC","lat":35.438,"long":-77.5656},{"zip":"28554","city":"Maury","state":"NC","lat":35.4999,"long":-77.651},{"zip":"28580","city":"Snow Hill","state":"NC","lat":35.4438,"long":-77.6956},{"zip":"28323","city":"Bunnlevel","state":"NC","lat":35.3119,"long":-78.8405},{"zip":"28334","city":"Dunn","state":"NC","lat":35.3165,"long":-78.6151},{"zip":"28335","city":"Dunn","state":"NC","lat":35.3063,"long":-78.6089},{"zip":"28339","city":"Erwin","state":"NC","lat":35.3287,"long":-78.6859},{"zip":"28368","city":"Olivia","state":"NC","lat":35.3596,"long":-79.1097},{"zip":"28716","city":"Canton","state":"NC","lat":35.5127,"long":-82.8413},{"zip":"28721","city":"Clyde","state":"NC","lat":35.5597,"long":-82.9216},{"zip":"28738","city":"Hazelwood","state":"NC","lat":35.4683,"long":-83.0028},{"zip":"28745","city":"Lake Junaluska","state":"NC","lat":35.5258,"long":-82.9704},{"zip":"28751","city":"Maggie Valley","state":"NC","lat":35.5201,"long":-83.0929},{"zip":"28785","city":"Waynesville","state":"NC","lat":35.533,"long":-82.9719},{"zip":"28786","city":"Waynesville","state":"NC","lat":35.5018,"long":-82.9913},{"zip":"28710","city":"Bat Cave","state":"NC","lat":35.4515,"long":-82.2871},{"zip":"28724","city":"Dana","state":"NC","lat":35.3293,"long":-82.3754},{"zip":"28726","city":"East Flat Rock","state":"NC","lat":35.2799,"long":-82.4204},{"zip":"28727","city":"Edneyville","state":"NC","lat":35.394,"long":-82.3409},{"zip":"28729","city":"Etowah","state":"NC","lat":35.3172,"long":-82.5977},{"zip":"28731","city":"Flat Rock","state":"NC","lat":35.289,"long":-82.3916},{"zip":"28732","city":"Fletcher","state":"NC","lat":35.4499,"long":-82.4966},{"zip":"28735","city":"Gerton","state":"NC","lat":35.4759,"long":-82.3505},{"zip":"28739","city":"Hendersonville","state":"NC","lat":35.3192,"long":-82.5},{"zip":"28742","city":"Horse Shoe","state":"NC","lat":35.3432,"long":-82.5565},{"zip":"28758","city":"Mountain Home","state":"NC","lat":35.3711,"long":-82.4938},{"zip":"28760","city":"Naples","state":"NC","lat":35.3817,"long":-82.4813},{"zip":"28784","city":"Tuxedo","state":"NC","lat":35.2174,"long":-82.4178},{"zip":"28790","city":"Zirconia","state":"NC","lat":35.2153,"long":-82.4574},{"zip":"28791","city":"Hendersonville","state":"NC","lat":35.3464,"long":-82.525},{"zip":"28792","city":"Hendersonville","state":"NC","lat":35.3613,"long":-82.4264},{"zip":"28793","city":"Hendersonville","state":"NC","lat":35.2927,"long":-82.5036},{"zip":"28376","city":"Raeford","state":"NC","lat":34.989,"long":-79.2228},{"zip":"28010","city":"Barium Springs","state":"NC","lat":35.7192,"long":-80.8991},{"zip":"28115","city":"Mooresville","state":"NC","lat":35.5774,"long":-80.8226},{"zip":"28117","city":"Mooresville","state":"NC","lat":35.584,"long":-80.8685},{"zip":"28123","city":"Mount Mourne","state":"NC","lat":35.5432,"long":-80.8473},{"zip":"28166","city":"Troutman","state":"NC","lat":35.6863,"long":-80.8822},{"zip":"28625","city":"Statesville","state":"NC","lat":35.8651,"long":-80.8858},{"zip":"28634","city":"Harmony","state":"NC","lat":35.958,"long":-80.7585},{"zip":"28660","city":"Olin","state":"NC","lat":35.9593,"long":-80.8511},{"zip":"28677","city":"Statesville","state":"NC","lat":35.799,"long":-80.894},{"zip":"28687","city":"Statesville","state":"NC","lat":35.7826,"long":-80.8873},{"zip":"28688","city":"Turnersburg","state":"NC","lat":35.9085,"long":-80.8073},{"zip":"28689","city":"Union Grove","state":"NC","lat":36.0369,"long":-80.8967},{"zip":"28699","city":"Scotts","state":"NC","lat":35.831,"long":-81.0076},{"zip":"28707","city":"Balsam","state":"NC","lat":35.4268,"long":-83.0851},{"zip":"28717","city":"Cashiers","state":"NC","lat":35.0971,"long":-83.0871},{"zip":"28723","city":"Cullowhee","state":"NC","lat":35.2409,"long":-83.1475},{"zip":"28725","city":"Dillsboro","state":"NC","lat":35.3735,"long":-83.2592},{"zip":"28736","city":"Glenville","state":"NC","lat":35.1882,"long":-83.09},{"zip":"28779","city":"Sylva","state":"NC","lat":35.3481,"long":-83.2031},{"zip":"28783","city":"Tuckasegee","state":"NC","lat":35.2599,"long":-83.0749},{"zip":"28788","city":"Webster","state":"NC","lat":35.3462,"long":-83.2193},{"zip":"28789","city":"Whittier","state":"NC","lat":35.4469,"long":-83.2872},{"zip":"28522","city":"Comfort","state":"NC","lat":35.0051,"long":-77.5231},{"zip":"28555","city":"Maysville","state":"NC","lat":34.8691,"long":-77.2315},{"zip":"28573","city":"Pollocksville","state":"NC","lat":35.0151,"long":-77.2287},{"zip":"28585","city":"Trenton","state":"NC","lat":35.0745,"long":-77.4595},{"zip":"28355","city":"Lemon Springs","state":"NC","lat":35.3896,"long":-79.1945},{"zip":"28501","city":"Kinston","state":"NC","lat":35.2783,"long":-77.586},{"zip":"28502","city":"Kinston","state":"NC","lat":35.2627,"long":-77.5816},{"zip":"28503","city":"Kinston","state":"NC","lat":35.3191,"long":-77.595},{"zip":"28504","city":"Kinston","state":"NC","lat":35.206,"long":-77.6576},{"zip":"28525","city":"Deep Run","state":"NC","lat":35.163,"long":-77.6928},{"zip":"28551","city":"La Grange","state":"NC","lat":35.3054,"long":-77.7686},{"zip":"28572","city":"Pink Hill","state":"NC","lat":35.0573,"long":-77.6943},{"zip":"28033","city":"Crouse","state":"NC","lat":35.421,"long":-81.3054},{"zip":"28037","city":"Denver","state":"NC","lat":35.4837,"long":-80.9898},{"zip":"28080","city":"Iron Station","state":"NC","lat":35.4657,"long":-81.107},{"zip":"28092","city":"Lincolnton","state":"NC","lat":35.4851,"long":-81.1818},{"zip":"28093","city":"Lincolnton","state":"NC","lat":35.4848,"long":-81.2395},{"zip":"28168","city":"Vale","state":"NC","lat":35.5188,"long":-81.4589},{"zip":"28737","city":"Glenwood","state":"NC","lat":35.7387,"long":-82.0595},{"zip":"28749","city":"Little Switzerland","state":"NC","lat":35.8493,"long":-82.0904},{"zip":"28752","city":"Marion","state":"NC","lat":35.6819,"long":-82.018},{"zip":"28761","city":"Nebo","state":"NC","lat":35.6732,"long":-81.9056},{"zip":"28762","city":"Old Fort","state":"NC","lat":35.6169,"long":-82.1686},{"zip":"28734","city":"Franklin","state":"NC","lat":35.181,"long":-83.3885},{"zip":"28741","city":"Highlands","state":"NC","lat":35.0705,"long":-83.216},{"zip":"28744","city":"Franklin","state":"NC","lat":35.1823,"long":-83.3815},{"zip":"28763","city":"Otto","state":"NC","lat":35.0515,"long":-83.3854},{"zip":"28775","city":"Scaly Mountain","state":"NC","lat":35.0311,"long":-83.3274},{"zip":"28743","city":"Hot Springs","state":"NC","lat":35.8082,"long":-82.9005},{"zip":"28753","city":"Marshall","state":"NC","lat":35.8597,"long":-82.7105},{"zip":"28754","city":"Mars Hill","state":"NC","lat":35.8528,"long":-82.5254},{"zip":"28031","city":"Cornelius","state":"NC","lat":35.4733,"long":-80.8726},{"zip":"28036","city":"Davidson","state":"NC","lat":35.4858,"long":-80.794},{"zip":"28070","city":"Huntersville","state":"NC","lat":35.4107,"long":-80.8429},{"zip":"28078","city":"Huntersville","state":"NC","lat":35.4011,"long":-80.8695},{"zip":"28104","city":"Matthews","state":"NC","lat":35.0604,"long":-80.6958},{"zip":"28105","city":"Matthews","state":"NC","lat":35.1149,"long":-80.705},{"zip":"28106","city":"Matthews","state":"NC","lat":35.26,"long":-80.8042},{"zip":"28126","city":"Newell","state":"NC","lat":35.2768,"long":-80.7165},{"zip":"28130","city":"Paw Creek","state":"NC","lat":35.26,"long":-80.8042},{"zip":"28134","city":"Pineville","state":"NC","lat":35.0709,"long":-80.8859},{"zip":"28201","city":"Charlotte","state":"NC","lat":35.26,"long":-80.8042},{"zip":"28202","city":"Charlotte","state":"NC","lat":35.229,"long":-80.8419},{"zip":"28203","city":"Charlotte","state":"NC","lat":35.2081,"long":-80.8583},{"zip":"28204","city":"Charlotte","state":"NC","lat":35.2132,"long":-80.8231},{"zip":"28205","city":"Charlotte","state":"NC","lat":35.22,"long":-80.7881},{"zip":"28206","city":"Charlotte","state":"NC","lat":35.2522,"long":-80.8265},{"zip":"28207","city":"Charlotte","state":"NC","lat":35.1935,"long":-80.8272},{"zip":"28208","city":"Charlotte","state":"NC","lat":35.2358,"long":-80.8964},{"zip":"28209","city":"Charlotte","state":"NC","lat":35.1796,"long":-80.8559},{"zip":"28210","city":"Charlotte","state":"NC","lat":35.1316,"long":-80.8577},{"zip":"28211","city":"Charlotte","state":"NC","lat":35.1677,"long":-80.7932},{"zip":"28212","city":"Charlotte","state":"NC","lat":35.1908,"long":-80.7448},{"zip":"28213","city":"Charlotte","state":"NC","lat":35.2836,"long":-80.7638},{"zip":"28214","city":"Charlotte","state":"NC","lat":35.2731,"long":-80.9571},{"zip":"28215","city":"Charlotte","state":"NC","lat":35.244,"long":-80.7387},{"zip":"28216","city":"Charlotte","state":"NC","lat":35.2834,"long":-80.8702},{"zip":"28217","city":"Charlotte","state":"NC","lat":35.1714,"long":-80.9084},{"zip":"28218","city":"Charlotte","state":"NC","lat":35.26,"long":-80.8042},{"zip":"28219","city":"Charlotte","state":"NC","lat":35.26,"long":-80.8042},{"zip":"28220","city":"Charlotte","state":"NC","lat":35.26,"long":-80.8042},{"zip":"28221","city":"Charlotte","state":"NC","lat":35.26,"long":-80.8042},{"zip":"28222","city":"Charlotte","state":"NC","lat":35.26,"long":-80.8042},{"zip":"28223","city":"Charlotte","state":"NC","lat":35.3041,"long":-80.7267},{"zip":"28224","city":"Charlotte","state":"NC","lat":35.26,"long":-80.8042},{"zip":"28226","city":"Charlotte","state":"NC","lat":35.0869,"long":-80.8167},{"zip":"28227","city":"Charlotte","state":"NC","lat":35.1936,"long":-80.6846},{"zip":"28228","city":"Charlotte","state":"NC","lat":35.26,"long":-80.8042},{"zip":"28229","city":"Charlotte","state":"NC","lat":35.26,"long":-80.8042},{"zip":"28230","city":"Charlotte","state":"NC","lat":35.26,"long":-80.8042},{"zip":"28231","city":"Charlotte","state":"NC","lat":35.26,"long":-80.8042},{"zip":"28232","city":"Charlotte","state":"NC","lat":35.26,"long":-80.8042},{"zip":"28233","city":"Charlotte","state":"NC","lat":35.2271,"long":-80.8431},{"zip":"28234","city":"Charlotte","state":"NC","lat":35.26,"long":-80.8042},{"zip":"28235","city":"Charlotte","state":"NC","lat":35.26,"long":-80.8042},{"zip":"28236","city":"Charlotte","state":"NC","lat":35.2271,"long":-80.8431},{"zip":"28237","city":"Charlotte","state":"NC","lat":35.26,"long":-80.8042},{"zip":"28241","city":"Charlotte","state":"NC","lat":35.2271,"long":-80.8431},{"zip":"28242","city":"Charlotte","state":"NC","lat":35.26,"long":-80.8042},{"zip":"28243","city":"Charlotte","state":"NC","lat":35.2271,"long":-80.8431},{"zip":"28244","city":"Charlotte","state":"NC","lat":35.26,"long":-80.8042},{"zip":"28246","city":"Charlotte","state":"NC","lat":35.2275,"long":-80.8425},{"zip":"28247","city":"Charlotte","state":"NC","lat":35.0656,"long":-80.8511},{"zip":"28250","city":"Charlotte","state":"NC","lat":35.2271,"long":-80.8431},{"zip":"28253","city":"Charlotte","state":"NC","lat":35.26,"long":-80.8042},{"zip":"28254","city":"Charlotte","state":"NC","lat":35.26,"long":-80.8042},{"zip":"28255","city":"Charlotte","state":"NC","lat":35.26,"long":-80.8042},{"zip":"28256","city":"Charlotte","state":"NC","lat":35.26,"long":-80.8042},{"zip":"28258","city":"Charlotte","state":"NC","lat":35.26,"long":-80.8042},{"zip":"28260","city":"Charlotte","state":"NC","lat":35.2271,"long":-80.8431},{"zip":"28262","city":"Charlotte","state":"NC","lat":35.3183,"long":-80.7476},{"zip":"28263","city":"Charlotte","state":"NC","lat":35.2268,"long":-80.8432},{"zip":"28265","city":"Charlotte","state":"NC","lat":35.2271,"long":-80.8431},{"zip":"28266","city":"Charlotte","state":"NC","lat":35.2271,"long":-80.8431},{"zip":"28269","city":"Charlotte","state":"NC","lat":35.2886,"long":-80.8209},{"zip":"28270","city":"Charlotte","state":"NC","lat":35.1355,"long":-80.7669},{"zip":"28272","city":"Charlotte","state":"NC","lat":35.2271,"long":-80.8431},{"zip":"28273","city":"Charlotte","state":"NC","lat":35.1287,"long":-80.9338},{"zip":"28274","city":"Charlotte","state":"NC","lat":35.1879,"long":-80.8317},{"zip":"28275","city":"Charlotte","state":"NC","lat":35.2271,"long":-80.8431},{"zip":"28277","city":"Charlotte","state":"NC","lat":35.0552,"long":-80.8195},{"zip":"28278","city":"Charlotte","state":"NC","lat":35.2072,"long":-80.9568},{"zip":"28280","city":"Charlotte","state":"NC","lat":35.2271,"long":-80.8431},{"zip":"28281","city":"Charlotte","state":"NC","lat":35.2271,"long":-80.8431},{"zip":"28282","city":"Charlotte","state":"NC","lat":35.2242,"long":-80.8447},{"zip":"28284","city":"Charlotte","state":"NC","lat":35.2271,"long":-80.8431},{"zip":"28285","city":"Charlotte","state":"NC","lat":35.2271,"long":-80.8431},{"zip":"28287","city":"Charlotte","state":"NC","lat":35.26,"long":-80.8042},{"zip":"28288","city":"Charlotte","state":"NC","lat":35.2271,"long":-80.8431},{"zip":"28289","city":"Charlotte","state":"NC","lat":35.2271,"long":-80.8431},{"zip":"28290","city":"Charlotte","state":"NC","lat":35.26,"long":-80.8042},{"zip":"28296","city":"Charlotte","state":"NC","lat":35.2252,"long":-80.8458},{"zip":"28297","city":"Charlotte","state":"NC","lat":35.26,"long":-80.8042},{"zip":"28299","city":"Charlotte","state":"NC","lat":35.26,"long":-80.8042},{"zip":"28705","city":"Bakersville","state":"NC","lat":36.0286,"long":-82.1711},{"zip":"28765","city":"Penland","state":"NC","lat":35.9219,"long":-82.1107},{"zip":"28777","city":"Spruce Pine","state":"NC","lat":35.906,"long":-82.0705},{"zip":"28315","city":"Aberdeen","state":"NC","lat":35.1216,"long":-79.445},{"zip":"28326","city":"Cameron","state":"NC","lat":35.3106,"long":-79.3472},{"zip":"28327","city":"Carthage","state":"NC","lat":35.3061,"long":-79.3969},{"zip":"28350","city":"Lakeview","state":"NC","lat":35.2438,"long":-79.3086},{"zip":"28370","city":"Pinehurst","state":"NC","lat":35.2162,"long":-79.4524},{"zip":"28373","city":"Pinebluff","state":"NC","lat":35.1007,"long":-79.4663},{"zip":"28374","city":"Pinehurst","state":"NC","lat":35.1884,"long":-79.4732},{"zip":"28387","city":"Southern Pines","state":"NC","lat":35.1697,"long":-79.3957},{"zip":"28388","city":"Southern Pines","state":"NC","lat":35.2803,"long":-79.4327},{"zip":"28394","city":"Vass","state":"NC","lat":35.2171,"long":-79.2562},{"zip":"28401","city":"Wilmington","state":"NC","lat":34.2257,"long":-77.9447},{"zip":"28402","city":"Wilmington","state":"NC","lat":34.3405,"long":-77.9014},{"zip":"28403","city":"Wilmington","state":"NC","lat":34.2237,"long":-77.8862},{"zip":"28405","city":"Wilmington","state":"NC","lat":34.2651,"long":-77.867},{"zip":"28406","city":"Wilmington","state":"NC","lat":34.0881,"long":-77.8526},{"zip":"28407","city":"Wilmington","state":"NC","lat":34.0881,"long":-77.8526},{"zip":"28408","city":"Wilmington","state":"NC","lat":34.2257,"long":-77.9447},{"zip":"28409","city":"Wilmington","state":"NC","lat":34.1663,"long":-77.8723},{"zip":"28410","city":"Wilmington","state":"NC","lat":34.0881,"long":-77.8526},{"zip":"28411","city":"Wilmington","state":"NC","lat":34.3033,"long":-77.8039},{"zip":"28412","city":"Wilmington","state":"NC","lat":34.1572,"long":-77.9141},{"zip":"28428","city":"Carolina Beach","state":"NC","lat":34.0366,"long":-77.8963},{"zip":"28429","city":"Castle Hayne","state":"NC","lat":34.3236,"long":-77.9108},{"zip":"28449","city":"Kure Beach","state":"NC","lat":33.9927,"long":-77.9099},{"zip":"28480","city":"Wrightsville Beach","state":"NC","lat":34.2228,"long":-77.7932},{"zip":"28445","city":"Holly Ridge","state":"NC","lat":34.4954,"long":-77.555},{"zip":"28460","city":"Sneads Ferry","state":"NC","lat":34.5426,"long":-77.4038},{"zip":"28539","city":"Hubert","state":"NC","lat":34.6993,"long":-77.2079},{"zip":"28540","city":"Jacksonville","state":"NC","lat":34.7375,"long":-77.4628},{"zip":"28541","city":"Jacksonville","state":"NC","lat":34.6921,"long":-77.3912},{"zip":"28542","city":"Camp Lejeune","state":"NC","lat":34.664,"long":-77.4637},{"zip":"28543","city":"Tarawa Terrace","state":"NC","lat":34.7354,"long":-77.3831},{"zip":"28544","city":"Midway Park","state":"NC","lat":34.727,"long":-77.32},{"zip":"28545","city":"Mccutcheon Field","state":"NC","lat":34.6921,"long":-77.3912},{"zip":"28546","city":"Jacksonville","state":"NC","lat":34.774,"long":-77.3781},{"zip":"28547","city":"Camp Lejeune","state":"NC","lat":34.6909,"long":-77.3614},{"zip":"28574","city":"Richlands","state":"NC","lat":34.8624,"long":-77.5863},{"zip":"28584","city":"Swansboro","state":"NC","lat":34.6991,"long":-77.135},{"zip":"28509","city":"Alliance","state":"NC","lat":35.1449,"long":-76.8022},{"zip":"28510","city":"Arapahoe","state":"NC","lat":35.0055,"long":-76.8149},{"zip":"28515","city":"Bayboro","state":"NC","lat":35.1526,"long":-76.7518},{"zip":"28529","city":"Grantsboro","state":"NC","lat":35.0668,"long":-76.871},{"zip":"28537","city":"Hobucken","state":"NC","lat":35.2518,"long":-76.5696},{"zip":"28552","city":"Lowland","state":"NC","lat":35.306,"long":-76.5777},{"zip":"28556","city":"Merritt","state":"NC","lat":35.1224,"long":-76.6719},{"zip":"28571","city":"Oriental","state":"NC","lat":35.0364,"long":-76.7015},{"zip":"28583","city":"Stonewall","state":"NC","lat":35.1371,"long":-76.7406},{"zip":"28587","city":"Vandemere","state":"NC","lat":35.1913,"long":-76.6604},{"zip":"28421","city":"Atkinson","state":"NC","lat":34.5304,"long":-78.1671},{"zip":"28425","city":"Burgaw","state":"NC","lat":34.5487,"long":-77.9403},{"zip":"28435","city":"Currie","state":"NC","lat":34.4497,"long":-78.0925},{"zip":"28443","city":"Hampstead","state":"NC","lat":34.3879,"long":-77.6628},{"zip":"28454","city":"Maple Hill","state":"NC","lat":34.6594,"long":-77.7117},{"zip":"28457","city":"Rocky Point","state":"NC","lat":34.4344,"long":-77.9234},{"zip":"28478","city":"Willard","state":"NC","lat":34.6845,"long":-78.0234},{"zip":"28513","city":"Ayden","state":"NC","lat":35.4565,"long":-77.4051},{"zip":"28530","city":"Grifton","state":"NC","lat":35.3757,"long":-77.4193},{"zip":"28590","city":"Winterville","state":"NC","lat":35.5336,"long":-77.391},{"zip":"28722","city":"Columbus","state":"NC","lat":35.2532,"long":-82.1971},{"zip":"28750","city":"Lynn","state":"NC","lat":35.2362,"long":-82.2362},{"zip":"28756","city":"Mill Spring","state":"NC","lat":35.3338,"long":-82.1557},{"zip":"28773","city":"Saluda","state":"NC","lat":35.2383,"long":-82.3306},{"zip":"28782","city":"Tryon","state":"NC","lat":35.2157,"long":-82.2394},{"zip":"28330","city":"Cordova","state":"NC","lat":34.9129,"long":-79.822},{"zip":"28338","city":"Ellerbe","state":"NC","lat":35.0914,"long":-79.7524},{"zip":"28345","city":"Hamlet","state":"NC","lat":34.8894,"long":-79.7022},{"zip":"28347","city":"Hoffman","state":"NC","lat":35.0326,"long":-79.56},{"zip":"28363","city":"Marston","state":"NC","lat":34.9882,"long":-79.5823},{"zip":"28367","city":"Norman","state":"NC","lat":35.1627,"long":-79.7379},{"zip":"28379","city":"Rockingham","state":"NC","lat":34.9336,"long":-79.7666},{"zip":"28380","city":"Rockingham","state":"NC","lat":34.9942,"long":-79.7673},{"zip":"28271","city":"Charlotte","state":"NC","lat":35.216,"long":-80.8358},{"zip":"28319","city":"Barnesville","state":"NC","lat":34.4088,"long":-79.0467},{"zip":"28340","city":"Fairmont","state":"NC","lat":34.472,"long":-79.1407},{"zip":"28357","city":"Lumber Bridge","state":"NC","lat":34.8762,"long":-79.0664},{"zip":"28358","city":"Lumberton","state":"NC","lat":34.6293,"long":-79.0083},{"zip":"28359","city":"Lumberton","state":"NC","lat":34.6077,"long":-79.0144},{"zip":"28360","city":"Lumberton","state":"NC","lat":34.6697,"long":-79.1084},{"zip":"28362","city":"Marietta","state":"NC","lat":34.3791,"long":-79.1279},{"zip":"28364","city":"Maxton","state":"NC","lat":34.7334,"long":-79.3097},{"zip":"28369","city":"Orrum","state":"NC","lat":34.4473,"long":-79.031},{"zip":"28371","city":"Parkton","state":"NC","lat":34.9006,"long":-78.9969},{"zip":"28372","city":"Pembroke","state":"NC","lat":34.6902,"long":-79.1834},{"zip":"28375","city":"Proctorville","state":"NC","lat":34.4713,"long":-79.0414},{"zip":"28377","city":"Red Springs","state":"NC","lat":34.8083,"long":-79.1636},{"zip":"28378","city":"Rex","state":"NC","lat":34.8543,"long":-79.0642},{"zip":"28383","city":"Rowland","state":"NC","lat":34.5887,"long":-79.2618},{"zip":"28384","city":"Saint Pauls","state":"NC","lat":34.801,"long":-78.9731},{"zip":"28386","city":"Shannon","state":"NC","lat":34.8988,"long":-79.1806},{"zip":"28023","city":"China Grove","state":"NC","lat":35.5669,"long":-80.59},{"zip":"28039","city":"East Spencer","state":"NC","lat":35.6805,"long":-80.4354},{"zip":"28041","city":"Faith","state":"NC","lat":35.5817,"long":-80.4581},{"zip":"28071","city":"Gold Hill","state":"NC","lat":35.5498,"long":-80.3346},{"zip":"28072","city":"Granite Quarry","state":"NC","lat":35.6109,"long":-80.4361},{"zip":"28088","city":"Landis","state":"NC","lat":35.5435,"long":-80.6129},{"zip":"28125","city":"Mount Ulla","state":"NC","lat":35.6389,"long":-80.7239},{"zip":"28138","city":"Rockwell","state":"NC","lat":35.5494,"long":-80.4226},{"zip":"28144","city":"Salisbury","state":"NC","lat":35.6515,"long":-80.4889},{"zip":"28145","city":"Salisbury","state":"NC","lat":35.6827,"long":-80.4771},{"zip":"28146","city":"Salisbury","state":"NC","lat":35.6187,"long":-80.4022},{"zip":"28147","city":"Salisbury","state":"NC","lat":35.6817,"long":-80.5615},{"zip":"28159","city":"Spencer","state":"NC","lat":35.6917,"long":-80.4327},{"zip":"28018","city":"Bostic","state":"NC","lat":35.4533,"long":-81.8118},{"zip":"28019","city":"Caroleen","state":"NC","lat":35.3168,"long":-81.8319},{"zip":"28024","city":"Cliffside","state":"NC","lat":35.2416,"long":-81.7755},{"zip":"28040","city":"Ellenboro","state":"NC","lat":35.3344,"long":-81.7707},{"zip":"28043","city":"Forest City","state":"NC","lat":35.325,"long":-81.846},{"zip":"28074","city":"Harris","state":"NC","lat":35.2247,"long":-81.8851},{"zip":"28076","city":"Henrietta","state":"NC","lat":35.2579,"long":-81.7962},{"zip":"28139","city":"Rutherfordton","state":"NC","lat":35.3706,"long":-81.9781},{"zip":"28160","city":"Spindale","state":"NC","lat":35.3601,"long":-81.9251},{"zip":"28167","city":"Union Mills","state":"NC","lat":35.4732,"long":-81.9685},{"zip":"28720","city":"Chimney Rock","state":"NC","lat":35.4369,"long":-82.2417},{"zip":"28746","city":"Lake Lure","state":"NC","lat":35.4464,"long":-82.1752},{"zip":"28318","city":"Autryville","state":"NC","lat":35.0997,"long":-78.6021},{"zip":"28328","city":"Clinton","state":"NC","lat":35.0151,"long":-78.326},{"zip":"28329","city":"Clinton","state":"NC","lat":34.9979,"long":-78.3233},{"zip":"28366","city":"Newton Grove","state":"NC","lat":35.2301,"long":-78.3594},{"zip":"28382","city":"Roseboro","state":"NC","lat":34.9639,"long":-78.5133},{"zip":"28385","city":"Salemburg","state":"NC","lat":35.0515,"long":-78.4714},{"zip":"28393","city":"Turkey","state":"NC","lat":34.9857,"long":-78.2121},{"zip":"28441","city":"Garland","state":"NC","lat":34.7897,"long":-78.4309},{"zip":"28444","city":"Harrells","state":"NC","lat":34.6769,"long":-78.243},{"zip":"28447","city":"Ivanhoe","state":"NC","lat":34.6233,"long":-78.2342},{"zip":"28343","city":"Gibson","state":"NC","lat":34.7549,"long":-79.5839},{"zip":"28351","city":"Laurel Hill","state":"NC","lat":34.8238,"long":-79.5491},{"zip":"28352","city":"Laurinburg","state":"NC","lat":34.7599,"long":-79.4673},{"zip":"28353","city":"Laurinburg","state":"NC","lat":34.7818,"long":-79.4824},{"zip":"28396","city":"Wagram","state":"NC","lat":34.9044,"long":-79.3959},{"zip":"28001","city":"Albemarle","state":"NC","lat":35.3573,"long":-80.2044},{"zip":"28002","city":"Albemarle","state":"NC","lat":35.3501,"long":-80.2001},{"zip":"28009","city":"Badin","state":"NC","lat":35.406,"long":-80.1167},{"zip":"28097","city":"Locust","state":"NC","lat":35.2704,"long":-80.4211},{"zip":"28109","city":"Misenheimer","state":"NC","lat":35.4849,"long":-80.2884},{"zip":"28127","city":"New London","state":"NC","lat":35.4285,"long":-80.2057},{"zip":"28128","city":"Norwood","state":"NC","lat":35.2275,"long":-80.1433},{"zip":"28129","city":"Oakboro","state":"NC","lat":35.246,"long":-80.3413},{"zip":"28137","city":"Richfield","state":"NC","lat":35.4541,"long":-80.2838},{"zip":"28163","city":"Stanfield","state":"NC","lat":35.2106,"long":-80.4407},{"zip":"28621","city":"Elkin","state":"NC","lat":36.2872,"long":-80.8554},{"zip":"28676","city":"State Road","state":"NC","lat":36.3422,"long":-80.8653},{"zip":"28702","city":"Almond","state":"NC","lat":35.4099,"long":-83.4794},{"zip":"28713","city":"Bryson City","state":"NC","lat":35.4241,"long":-83.4392},{"zip":"28719","city":"Cherokee","state":"NC","lat":35.5094,"long":-83.3144},{"zip":"28708","city":"Balsam Grove","state":"NC","lat":35.2298,"long":-82.8779},{"zip":"28712","city":"Brevard","state":"NC","lat":35.2208,"long":-82.7404},{"zip":"28718","city":"Cedar Mountain","state":"NC","lat":35.1508,"long":-82.6374},{"zip":"28747","city":"Lake Toxaway","state":"NC","lat":35.1451,"long":-82.9191},{"zip":"28766","city":"Penrose","state":"NC","lat":35.2524,"long":-82.6222},{"zip":"28768","city":"Pisgah Forest","state":"NC","lat":35.2599,"long":-82.6695},{"zip":"28772","city":"Rosman","state":"NC","lat":35.1592,"long":-82.8383},{"zip":"28774","city":"Sapphire","state":"NC","lat":35.0666,"long":-83.0019},{"zip":"28079","city":"Indian Trail","state":"NC","lat":35.0831,"long":-80.6597},{"zip":"28103","city":"Marshville","state":"NC","lat":35.0167,"long":-80.3781},{"zip":"28108","city":"Mineral Springs","state":"NC","lat":34.9379,"long":-80.6687},{"zip":"28110","city":"Monroe","state":"NC","lat":35.0178,"long":-80.5372},{"zip":"28111","city":"Monroe","state":"NC","lat":35.0112,"long":-80.5587},{"zip":"28112","city":"Monroe","state":"NC","lat":34.8946,"long":-80.554},{"zip":"28173","city":"Waxhaw","state":"NC","lat":34.9251,"long":-80.7278},{"zip":"28174","city":"Wingate","state":"NC","lat":34.9847,"long":-80.4476},{"zip":"28605","city":"Blowing Rock","state":"NC","lat":36.1355,"long":-81.6996},{"zip":"28607","city":"Boone","state":"NC","lat":36.2142,"long":-81.666},{"zip":"28608","city":"Boone","state":"NC","lat":36.2168,"long":-81.6746},{"zip":"28618","city":"Deep Gap","state":"NC","lat":36.2136,"long":-81.5163},{"zip":"28679","city":"Sugar Grove","state":"NC","lat":36.2627,"long":-81.8441},{"zip":"28691","city":"Valle Crucis","state":"NC","lat":36.2092,"long":-81.7789},{"zip":"28692","city":"Vilas","state":"NC","lat":36.2574,"long":-81.7652},{"zip":"28698","city":"Zionville","state":"NC","lat":36.3194,"long":-81.7476},{"zip":"28333","city":"Dudley","state":"NC","lat":35.2926,"long":-78.0273},{"zip":"28365","city":"Mount Olive","state":"NC","lat":35.2109,"long":-78.0983},{"zip":"28578","city":"Seven Springs","state":"NC","lat":35.2105,"long":-77.9146},{"zip":"28606","city":"Boomer","state":"NC","lat":36.0552,"long":-81.3137},{"zip":"28624","city":"Ferguson","state":"NC","lat":36.1283,"long":-81.3864},{"zip":"28635","city":"Hays","state":"NC","lat":36.31,"long":-81.1161},{"zip":"28649","city":"Mc Grady","state":"NC","lat":36.3103,"long":-81.1912},{"zip":"28651","city":"Millers Creek","state":"NC","lat":36.2119,"long":-81.2485},{"zip":"28654","city":"Moravian Falls","state":"NC","lat":36.0788,"long":-81.1781},{"zip":"28656","city":"North Wilkesboro","state":"NC","lat":36.2384,"long":-81.046},{"zip":"28659","city":"North Wilkesboro","state":"NC","lat":36.2017,"long":-81.1286},{"zip":"28665","city":"Purlear","state":"NC","lat":36.1964,"long":-81.3528},{"zip":"28669","city":"Roaring River","state":"NC","lat":36.1916,"long":-81.0004},{"zip":"28670","city":"Ronda","state":"NC","lat":36.2059,"long":-80.927},{"zip":"28683","city":"Thurmond","state":"NC","lat":36.3562,"long":-80.9317},{"zip":"28685","city":"Traphill","state":"NC","lat":36.3301,"long":-81.0151},{"zip":"28697","city":"Wilkesboro","state":"NC","lat":36.1359,"long":-81.1573},{"zip":"28642","city":"Jonesville","state":"NC","lat":36.2286,"long":-80.787},{"zip":"28714","city":"Burnsville","state":"NC","lat":35.903,"long":-82.2876},{"zip":"28740","city":"Green Mountain","state":"NC","lat":35.9956,"long":-82.2879},{"zip":"28755","city":"Micaville","state":"NC","lat":35.9096,"long":-82.2132}]
