[{"zip":"28007","city":"Ansonville","state":"NC","lat":35.1046,"long":-80.1092},{"zip":"28091","city":"Lilesville","state":"NC","lat":34.9689,"long":-79.9721},{"zip":"28025","city":"Concord","state":"NC","lat":35.3716,"long":-80.53},{"zip":"28026","city":"Concord","state":"NC","lat":35.3463,"long":-80.5411},{"zip":"28027","city":"Concord","state":"NC","lat":35.4141,"long":-80.6162},{"zip":"28075","city":"Harrisburg","state":"NC","lat":35.3247,"long":-80.6594},{"zip":"28081","city":"Kannapolis","state":"NC","lat":35.502,"long":-80.6359},{"zip":"28082","city":"Kannapolis","state":"NC","lat":35.3463,"long":-80.5411},{"zip":"28083","city":"Kannapolis","state":"NC","lat":35.4848,"long":-80.6015},{"zip":"28017","city":"Boiling Springs","state":"NC","lat":35.2549,"long":-81.6914},{"zip":"28020","city":"Casar","state":"NC","lat":35.5145,"long":-81.6357},{"zip":"28038","city":"Earl","state":"NC","lat":35.197,"long":-81.5386},{"zip":"28042","city":"Fallston","state":"NC","lat":35.429,"long":-81.5015},{"zip":"28073","city":"Grover","state":"NC","lat":35.1836,"long":-81.4552},{"zip":"28086","city":"Kings Mountain","state":"NC","lat":35.2516,"long":-81.3806},{"zip":"28089","city":"Lattimore","state":"NC","lat":35.3182,"long":-81.6607},{"zip":"28090","city":"Lawndale","state":"NC","lat":35.4449,"long":-81.5336},{"zip":"28006","city":"Alexis","state":"NC","lat":35.4069,"long":-81.0947},{"zip":"28012","city":"Belmont","state":"NC","lat":35.244,"long":-81.044},{"zip":"28016","city":"Bessemer City","state":"NC","lat":35.2849,"long":-81.2863},{"zip":"28021","city":"Cherryville","state":"NC","lat":35.3747,"long":-81.3509},{"zip":"28032","city":"Cramerton","state":"NC","lat":35.2396,"long":-81.0831},{"zip":"28034","city":"Dallas","state":"NC","lat":35.3349,"long":-81.1862},{"zip":"28035","city":"Davidson","state":"NC","lat":35.4993,"long":-80.8486},{"zip":"28052","city":"Gastonia","state":"NC","lat":35.2449,"long":-81.2194},{"zip":"28053","city":"Gastonia","state":"NC","lat":35.2751,"long":-81.2134},{"zip":"28054","city":"Gastonia","state":"NC","lat":35.2495,"long":-81.133},{"zip":"28055","city":"Gastonia","state":"NC","lat":35.284,"long":-81.1897},{"zip":"28056","city":"Gastonia","state":"NC","lat":35.2172,"long":-81.1252},{"zip":"28077","city":"High Shoals","state":"NC","lat":35.4041,"long":-81.2029},{"zip":"28098","city":"Lowell","state":"NC","lat":35.2655,"long":-81.096},{"zip":"28010","city":"Barium Springs","state":"NC","lat":35.7192,"long":-80.8991},{"zip":"28033","city":"Crouse","state":"NC","lat":35.421,"long":-81.3054},{"zip":"28037","city":"Denver","state":"NC","lat":35.4837,"long":-80.9898},{"zip":"28080","city":"Iron Station","state":"NC","lat":35.4657,"long":-81.107},{"zip":"28092","city":"Lincolnton","state":"NC","lat":35.4851,"long":-81.1818},{"zip":"28093","city":"Lincolnton","state":"NC","lat":35.4848,"long":-81.2395},{"zip":"28031","city":"Cornelius","state":"NC","lat":35.4733,"long":-80.8726},{"zip":"28036","city":"Davidson","state":"NC","lat":35.4858,"long":-80.794},{"zip":"28070","city":"Huntersville","state":"NC","lat":35.4107,"long":-80.8429},{"zip":"28078","city":"Huntersville","state":"NC","lat":35.4011,"long":-80.8695},{"zip":"28023","city":"China Grove","state":"NC","lat":35.5669,"long":-80.59},{"zip":"28039","city":"East Spencer","state":"NC","lat":35.6805,"long":-80.4354},{"zip":"28041","city":"Faith","state":"NC","lat":35.5817,"long":-80.4581},{"zip":"28071","city":"Gold Hill","state":"NC","lat":35.5498,"long":-80.3346},{"zip":"28072","city":"Granite Quarry","state":"NC","lat":35.6109,"long":-80.4361},{"zip":"28088","city":"Landis","state":"NC","lat":35.5435,"long":-80.6129},{"zip":"28018","city":"Bostic","state":"NC","lat":35.4533,"long":-81.8118},{"zip":"28019","city":"Caroleen","state":"NC","lat":35.3168,"long":-81.8319},{"zip":"28024","city":"Cliffside","state":"NC","lat":35.2416,"long":-81.7755},{"zip":"28040","city":"Ellenboro","state":"NC","lat":35.3344,"long":-81.7707},{"zip":"28043","city":"Forest City","state":"NC","lat":35.325,"long":-81.846},{"zip":"28074","city":"Harris","state":"NC","lat":35.2247,"long":-81.8851},{"zip":"28076","city":"Henrietta","state":"NC","lat":35.2579,"long":-81.7962},{"zip":"28001","city":"Albemarle","state":"NC","lat":35.3573,"long":-80.2044},{"zip":"28002","city":"Albemarle","state":"NC","lat":35.3501,"long":-80.2001},{"zip":"28009","city":"Badin","state":"NC","lat":35.406,"long":-80.1167},{"zip":"28097","city":"Locust","state":"NC","lat":35.2704,"long":-80.4211},{"zip":"28079","city":"Indian Trail","state":"NC","lat":35.0831,"long":-80.6597}]
