[{"zip":"28102","city":"Mc Farlan","state":"NC","lat":34.8136,"long":-79.9776},{"zip":"28119","city":"Morven","state":"NC","lat":34.8511,"long":-80.0025},{"zip":"28133","city":"Peachland","state":"NC","lat":35.0054,"long":-80.2829},{"zip":"28135","city":"Polkton","state":"NC","lat":34.9823,"long":-80.1538},{"zip":"28170","city":"Wadesboro","state":"NC","lat":34.9809,"long":-80.0696},{"zip":"28107","city":"Midland","state":"NC","lat":35.2477,"long":-80.5319},{"zip":"28124","city":"Mount Pleasant","state":"NC","lat":35.4146,"long":-80.4171},{"zip":"28114","city":"Mooresboro","state":"NC","lat":35.2295,"long":-81.7492},{"zip":"28136","city":"Polkville","state":"NC","lat":35.3961,"long":-81.6303},{"zip":"28150","city":"Shelby","state":"NC","lat":35.312,"long":-81.5568},{"zip":"28151","city":"Shelby","state":"NC","lat":35.2924,"long":-81.5356},{"zip":"28152","city":"Shelby","state":"NC","lat":35.2689,"long":-81.5337},{"zip":"28169","city":"Waco","state":"NC","lat":35.3615,"long":-81.4287},{"zip":"28101","city":"Mc Adenville","state":"NC","lat":35.2578,"long":-81.0788},{"zip":"28120","city":"Mount Holly","state":"NC","lat":35.3119,"long":-81.0306},{"zip":"28164","city":"Stanley","state":"NC","lat":35.3516,"long":-81.0959},{"zip":"28115","city":"Mooresville","state":"NC","lat":35.5774,"long":-80.8226},{"zip":"28117","city":"Mooresville","state":"NC","lat":35.584,"long":-80.8685},{"zip":"28123","city":"Mount Mourne","state":"NC","lat":35.5432,"long":-80.8473},{"zip":"28166","city":"Troutman","state":"NC","lat":35.6863,"long":-80.8822},{"zip":"28168","city":"Vale","state":"NC","lat":35.5188,"long":-81.4589},{"zip":"28104","city":"Matthews","state":"NC","lat":35.0604,"long":-80.6958},{"zip":"28105","city":"Matthews","state":"NC","lat":35.1149,"long":-80.705},{"zip":"28106","city":"Matthews","state":"NC","lat":35.26,"long":-80.8042},{"zip":"28126","city":"Newell","state":"NC","lat":35.2768,"long":-80.7165},{"zip":"28130","city":"Paw Creek","state":"NC","lat":35.26,"long":-80.8042},{"zip":"28134","city":"Pineville","state":"NC","lat":35.0709,"long":-80.8859},{"zip":"28125","city":"Mount Ulla","state":"NC","lat":35.6389,"long":-80.7239},{"zip":"28138","city":"Rockwell","state":"NC","lat":35.5494,"long":-80.4226},{"zip":"28144","city":"Salisbury","state":"NC","lat":35.6515,"long":-80.4889},{"zip":"28145","city":"Salisbury","state":"NC","lat":35.6827,"long":-80.4771},{"zip":"28146","city":"Salisbury","state":"NC","lat":35.6187,"long":-80.4022},{"zip":"28147","city":"Salisbury","state":"NC","lat":35.6817,"long":-80.5615},{"zip":"28159","city":"Spencer","state":"NC","lat":35.6917,"long":-80.4327},{"zip":"28139","city":"Rutherfordton","state":"NC","lat":35.3706,"long":-81.9781},{"zip":"28160","city":"Spindale","state":"NC","lat":35.3601,"long":-81.9251},{"zip":"28167","city":"Union Mills","state":"NC","lat":35.4732,"long":-81.9685},{"zip":"28109","city":"Misenheimer","state":"NC","lat":35.4849,"long":-80.2884},{"zip":"28127","city":"New London","state":"NC","lat":35.4285,"long":-80.2057},{"zip":"28128","city":"Norwood","state":"NC","lat":35.2275,"long":-80.1433},{"zip":"28129","city":"Oakboro","state":"NC","lat":35.246,"long":-80.3413},{"zip":"28137","city":"Richfield","state":"NC","lat":35.4541,"long":-80.2838},{"zip":"28163","city":"Stanfield","state":"NC","lat":35.2106,"long":-80.4407},{"zip":"28103","city":"Marshville","state":"NC","lat":35.0167,"long":-80.3781},{"zip":"28108","city":"Mineral Springs","state":"NC","lat":34.9379,"long":-80.6687},{"zip":"28110","city":"Monroe","state":"NC","lat":35.0178,"long":-80.5372},{"zip":"28111","city":"Monroe","state":"NC","lat":35.0112,"long":-80.5587},{"zip":"28112","city":"Monroe","state":"NC","lat":34.8946,"long":-80.554},{"zip":"28173","city":"Waxhaw","state":"NC","lat":34.9251,"long":-80.7278},{"zip":"28174","city":"Wingate","state":"NC","lat":34.9847,"long":-80.4476}]
