[{"zip":"28201","city":"Charlotte","state":"NC","lat":35.26,"long":-80.8042},{"zip":"28202","city":"Charlotte","state":"NC","lat":35.229,"long":-80.8419},{"zip":"28203","city":"Charlotte","state":"NC","lat":35.2081,"long":-80.8583},{"zip":"28204","city":"Charlotte","state":"NC","lat":35.2132,"long":-80.8231},{"zip":"28205","city":"Charlotte","state":"NC","lat":35.22,"long":-80.7881},{"zip":"28206","city":"Charlotte","state":"NC","lat":35.2522,"long":-80.8265},{"zip":"28207","city":"Charlotte","state":"NC","lat":35.1935,"long":-80.8272},{"zip":"28208","city":"Charlotte","state":"NC","lat":35.2358,"long":-80.8964},{"zip":"28209","city":"Charlotte","state":"NC","lat":35.1796,"long":-80.8559},{"zip":"28210","city":"Charlotte","state":"NC","lat":35.1316,"long":-80.8577},{"zip":"28211","city":"Charlotte","state":"NC","lat":35.1677,"long":-80.7932},{"zip":"28212","city":"Charlotte","state":"NC","lat":35.1908,"long":-80.7448},{"zip":"28213","city":"Charlotte","state":"NC","lat":35.2836,"long":-80.7638},{"zip":"28214","city":"Charlotte","state":"NC","lat":35.2731,"long":-80.9571},{"zip":"28215","city":"Charlotte","state":"NC","lat":35.244,"long":-80.7387},{"zip":"28216","city":"Charlotte","state":"NC","lat":35.2834,"long":-80.8702},{"zip":"28217","city":"Charlotte","state":"NC","lat":35.1714,"long":-80.9084},{"zip":"28218","city":"Charlotte","state":"NC","lat":35.26,"long":-80.8042},{"zip":"28219","city":"Charlotte","state":"NC","lat":35.26,"long":-80.8042},{"zip":"28220","city":"Charlotte","state":"NC","lat":35.26,"long":-80.8042},{"zip":"28221","city":"Charlotte","state":"NC","lat":35.26,"long":-80.8042},{"zip":"28222","city":"Charlotte","state":"NC","lat":35.26,"long":-80.8042},{"zip":"28223","city":"Charlotte","state":"NC","lat":35.3041,"long":-80.7267},{"zip":"28224","city":"Charlotte","state":"NC","lat":35.26,"long":-80.8042},{"zip":"28226","city":"Charlotte","state":"NC","lat":35.0869,"long":-80.8167},{"zip":"28227","city":"Charlotte","state":"NC","lat":35.1936,"long":-80.6846},{"zip":"28228","city":"Charlotte","state":"NC","lat":35.26,"long":-80.8042},{"zip":"28229","city":"Charlotte","state":"NC","lat":35.26,"long":-80.8042},{"zip":"28230","city":"Charlotte","state":"NC","lat":35.26,"long":-80.8042},{"zip":"28231","city":"Charlotte","state":"NC","lat":35.26,"long":-80.8042},{"zip":"28232","city":"Charlotte","state":"NC","lat":35.26,"long":-80.8042},{"zip":"28233","city":"Charlotte","state":"NC","lat":35.2271,"long":-80.8431},{"zip":"28234","city":"Charlotte","state":"NC","lat":35.26,"long":-80.8042},{"zip":"28235","city":"Charlotte","state":"NC","lat":35.26,"long":-80.8042},{"zip":"28236","city":"Charlotte","state":"NC","lat":35.2271,"long":-80.8431},{"zip":"28237","city":"Charlotte","state":"NC","lat":35.26,"long":-80.8042},{"zip":"28241","city":"Charlotte","state":"NC","lat":35.2271,"long":-80.8431},{"zip":"28242","city":"Charlotte","state":"NC","lat":35.26,"long":-80.8042},{"zip":"28243","city":"Charlotte","state":"NC","lat":35.2271,"long":-80.8431},{"zip":"28244","city":"Charlotte","state":"NC","lat":35.26,"long":-80.8042},{"zip":"28246","city":"Charlotte","state":"NC","lat":35.2275,"long":-80.8425},{"zip":"28247","city":"Charlotte","state":"NC","lat":35.0656,"long":-80.8511},{"zip":"28250","city":"Charlotte","state":"NC","lat":35.2271,"long":-80.8431},{"zip":"28253","city":"Charlotte","state":"NC","lat":35.26,"long":-80.8042},{"zip":"28254","city":"Charlotte","state":"NC","lat":35.26,"long":-80.8042},{"zip":"28255","city":"Charlotte","state":"NC","lat":35.26,"long":-80.8042},{"zip":"28256","city":"Charlotte","state":"NC","lat":35.26,"long":-80.8042},{"zip":"28258","city":"Charlotte","state":"NC","lat":35.26,"long":-80.8042},{"zip":"28260","city":"Charlotte","state":"NC","lat":35.2271,"long":-80.8431},{"zip":"28262","city":"Charlotte","state":"NC","lat":35.3183,"long":-80.7476},{"zip":"28263","city":"Charlotte","state":"NC","lat":35.2268,"long":-80.8432},{"zip":"28265","city":"Charlotte","state":"NC","lat":35.2271,"long":-80.8431},{"zip":"28266","city":"Charlotte","state":"NC","lat":35.2271,"long":-80.8431},{"zip":"28269","city":"Charlotte","state":"NC","lat":35.2886,"long":-80.8209},{"zip":"28270","city":"Charlotte","state":"NC","lat":35.1355,"long":-80.7669},{"zip":"28272","city":"Charlotte","state":"NC","lat":35.2271,"long":-80.8431},{"zip":"28273","city":"Charlotte","state":"NC","lat":35.1287,"long":-80.9338},{"zip":"28274","city":"Charlotte","state":"NC","lat":35.1879,"long":-80.8317},{"zip":"28275","city":"Charlotte","state":"NC","lat":35.2271,"long":-80.8431},{"zip":"28277","city":"Charlotte","state":"NC","lat":35.0552,"long":-80.8195},{"zip":"28278","city":"Charlotte","state":"NC","lat":35.2072,"long":-80.9568},{"zip":"28280","city":"Charlotte","state":"NC","lat":35.2271,"long":-80.8431},{"zip":"28281","city":"Charlotte","state":"NC","lat":35.2271,"long":-80.8431},{"zip":"28282","city":"Charlotte","state":"NC","lat":35.2242,"long":-80.8447},{"zip":"28284","city":"Charlotte","state":"NC","lat":35.2271,"long":-80.8431},{"zip":"28285","city":"Charlotte","state":"NC","lat":35.2271,"long":-80.8431},{"zip":"28287","city":"Charlotte","state":"NC","lat":35.26,"long":-80.8042},{"zip":"28288","city":"Charlotte","state":"NC","lat":35.2271,"long":-80.8431},{"zip":"28289","city":"Charlotte","state":"NC","lat":35.2271,"long":-80.8431},{"zip":"28290","city":"Charlotte","state":"NC","lat":35.26,"long":-80.8042},{"zip":"28296","city":"Charlotte","state":"NC","lat":35.2252,"long":-80.8458},{"zip":"28297","city":"Charlotte","state":"NC","lat":35.26,"long":-80.8042},{"zip":"28299","city":"Charlotte","state":"NC","lat":35.26,"long":-80.8042},{"zip":"28271","city":"Charlotte","state":"NC","lat":35.216,"long":-80.8358}]
