[{"zip":"28320","city":"Bladenboro","state":"NC","lat":34.5658,"long":-78.7793},{"zip":"28332","city":"Dublin","state":"NC","lat":34.6568,"long":-78.7264},{"zip":"28337","city":"Elizabethtown","state":"NC","lat":34.6471,"long":-78.5747},{"zip":"28392","city":"Tar Heel","state":"NC","lat":34.7465,"long":-78.8134},{"zip":"28399","city":"White Oak","state":"NC","lat":34.7662,"long":-78.7301},{"zip":"28301","city":"Fayetteville","state":"NC","lat":35.0743,"long":-78.8836},{"zip":"28302","city":"Fayetteville","state":"NC","lat":35.0343,"long":-78.9088},{"zip":"28303","city":"Fayetteville","state":"NC","lat":35.0742,"long":-78.965},{"zip":"28304","city":"Fayetteville","state":"NC","lat":35.0257,"long":-78.9705},{"zip":"28305","city":"Fayetteville","state":"NC","lat":35.056,"long":-78.9047},{"zip":"28306","city":"Fayetteville","state":"NC","lat":35.0019,"long":-78.9364},{"zip":"28307","city":"Fort Bragg","state":"NC","lat":35.1416,"long":-79.0025},{"zip":"28308","city":"Pope Army Airfield","state":"NC","lat":35.0635,"long":-78.8943},{"zip":"28309","city":"Fayetteville","state":"NC","lat":35.0397,"long":-78.8429},{"zip":"28310","city":"Fort Bragg","state":"NC","lat":35.0506,"long":-78.8038},{"zip":"28311","city":"Fayetteville","state":"NC","lat":35.1294,"long":-78.8982},{"zip":"28312","city":"Fayetteville","state":"NC","lat":34.9549,"long":-78.7408},{"zip":"28314","city":"Fayetteville","state":"NC","lat":35.0583,"long":-79.008},{"zip":"28331","city":"Cumberland","state":"NC","lat":35.0049,"long":-78.9673},{"zip":"28342","city":"Falcon","state":"NC","lat":35.1899,"long":-78.6483},{"zip":"28344","city":"Godwin","state":"NC","lat":35.1969,"long":-78.6625},{"zip":"28348","city":"Hope Mills","state":"NC","lat":34.9536,"long":-78.9354},{"zip":"28356","city":"Linden","state":"NC","lat":35.2276,"long":-78.8004},{"zip":"28390","city":"Spring Lake","state":"NC","lat":35.183,"long":-78.9786},{"zip":"28391","city":"Stedman","state":"NC","lat":35.0347,"long":-78.6949},{"zip":"28395","city":"Wade","state":"NC","lat":35.1606,"long":-78.7249},{"zip":"28325","city":"Calypso","state":"NC","lat":35.1538,"long":-78.1053},{"zip":"28341","city":"Faison","state":"NC","lat":35.1199,"long":-78.118},{"zip":"28349","city":"Kenansville","state":"NC","lat":35.0152,"long":-77.8969},{"zip":"28398","city":"Warsaw","state":"NC","lat":35.018,"long":-78.031},{"zip":"28323","city":"Bunnlevel","state":"NC","lat":35.3119,"long":-78.8405},{"zip":"28334","city":"Dunn","state":"NC","lat":35.3165,"long":-78.6151},{"zip":"28335","city":"Dunn","state":"NC","lat":35.3063,"long":-78.6089},{"zip":"28339","city":"Erwin","state":"NC","lat":35.3287,"long":-78.6859},{"zip":"28368","city":"Olivia","state":"NC","lat":35.3596,"long":-79.1097},{"zip":"28376","city":"Raeford","state":"NC","lat":34.989,"long":-79.2228},{"zip":"28355","city":"Lemon Springs","state":"NC","lat":35.3896,"long":-79.1945},{"zip":"28315","city":"Aberdeen","state":"NC","lat":35.1216,"long":-79.445},{"zip":"28326","city":"Cameron","state":"NC","lat":35.3106,"long":-79.3472},{"zip":"28327","city":"Carthage","state":"NC","lat":35.3061,"long":-79.3969},{"zip":"28350","city":"Lakeview","state":"NC","lat":35.2438,"long":-79.3086},{"zip":"28370","city":"Pinehurst","state":"NC","lat":35.2162,"long":-79.4524},{"zip":"28373","city":"Pinebluff","state":"NC","lat":35.1007,"long":-79.4663},{"zip":"28374","city":"Pinehurst","state":"NC","lat":35.1884,"long":-79.4732},{"zip":"28387","city":"Southern Pines","state":"NC","lat":35.1697,"long":-79.3957},{"zip":"28388","city":"Southern Pines","state":"NC","lat":35.2803,"long":-79.4327},{"zip":"28394","city":"Vass","state":"NC","lat":35.2171,"long":-79.2562},{"zip":"28330","city":"Cordova","state":"NC","lat":34.9129,"long":-79.822},{"zip":"28338","city":"Ellerbe","state":"NC","lat":35.0914,"long":-79.7524},{"zip":"28345","city":"Hamlet","state":"NC","lat":34.8894,"long":-79.7022},{"zip":"28347","city":"Hoffman","state":"NC","lat":35.0326,"long":-79.56},{"zip":"28363","city":"Marston","state":"NC","lat":34.9882,"long":-79.5823},{"zip":"28367","city":"Norman","state":"NC","lat":35.1627,"long":-79.7379},{"zip":"28379","city":"Rockingham","state":"NC","lat":34.9336,"long":-79.7666},{"zip":"28380","city":"Rockingham","state":"NC","lat":34.9942,"long":-79.7673},{"zip":"28319","city":"Barnesville","state":"NC","lat":34.4088,"long":-79.0467},{"zip":"28340","city":"Fairmont","state":"NC","lat":34.472,"long":-79.1407},{"zip":"28357","city":"Lumber Bridge","state":"NC","lat":34.8762,"long":-79.0664},{"zip":"28358","city":"Lumberton","state":"NC","lat":34.6293,"long":-79.0083},{"zip":"28359","city":"Lumberton","state":"NC","lat":34.6077,"long":-79.0144},{"zip":"28360","city":"Lumberton","state":"NC","lat":34.6697,"long":-79.1084},{"zip":"28362","city":"Marietta","state":"NC","lat":34.3791,"long":-79.1279},{"zip":"28364","city":"Maxton","state":"NC","lat":34.7334,"long":-79.3097},{"zip":"28369","city":"Orrum","state":"NC","lat":34.4473,"long":-79.031},{"zip":"28371","city":"Parkton","state":"NC","lat":34.9006,"long":-78.9969},{"zip":"28372","city":"Pembroke","state":"NC","lat":34.6902,"long":-79.1834},{"zip":"28375","city":"Proctorville","state":"NC","lat":34.4713,"long":-79.0414},{"zip":"28377","city":"Red Springs","state":"NC","lat":34.8083,"long":-79.1636},{"zip":"28378","city":"Rex","state":"NC","lat":34.8543,"long":-79.0642},{"zip":"28383","city":"Rowland","state":"NC","lat":34.5887,"long":-79.2618},{"zip":"28384","city":"Saint Pauls","state":"NC","lat":34.801,"long":-78.9731},{"zip":"28386","city":"Shannon","state":"NC","lat":34.8988,"long":-79.1806},{"zip":"28318","city":"Autryville","state":"NC","lat":35.0997,"long":-78.6021},{"zip":"28328","city":"Clinton","state":"NC","lat":35.0151,"long":-78.326},{"zip":"28329","city":"Clinton","state":"NC","lat":34.9979,"long":-78.3233},{"zip":"28366","city":"Newton Grove","state":"NC","lat":35.2301,"long":-78.3594},{"zip":"28382","city":"Roseboro","state":"NC","lat":34.9639,"long":-78.5133},{"zip":"28385","city":"Salemburg","state":"NC","lat":35.0515,"long":-78.4714},{"zip":"28393","city":"Turkey","state":"NC","lat":34.9857,"long":-78.2121},{"zip":"28343","city":"Gibson","state":"NC","lat":34.7549,"long":-79.5839},{"zip":"28351","city":"Laurel Hill","state":"NC","lat":34.8238,"long":-79.5491},{"zip":"28352","city":"Laurinburg","state":"NC","lat":34.7599,"long":-79.4673},{"zip":"28353","city":"Laurinburg","state":"NC","lat":34.7818,"long":-79.4824},{"zip":"28396","city":"Wagram","state":"NC","lat":34.9044,"long":-79.3959},{"zip":"28333","city":"Dudley","state":"NC","lat":35.2926,"long":-78.0273},{"zip":"28365","city":"Mount Olive","state":"NC","lat":35.2109,"long":-78.0983}]
