[{"zip":"28433","city":"Clarkton","state":"NC","lat":34.503,"long":-78.6313},{"zip":"28434","city":"Council","state":"NC","lat":34.429,"long":-78.4115},{"zip":"28448","city":"Kelly","state":"NC","lat":34.4591,"long":-78.2942},{"zip":"28404","city":"Wilmington","state":"NC","lat":34.2257,"long":-77.9447},{"zip":"28420","city":"Ash","state":"NC","lat":34.0659,"long":-78.5056},{"zip":"28422","city":"Bolivia","state":"NC","lat":34.026,"long":-78.1681},{"zip":"28451","city":"Leland","state":"NC","lat":34.268,"long":-78.0578},{"zip":"28452","city":"Longwood","state":"NC","lat":33.9973,"long":-78.5541},{"zip":"28459","city":"Shallotte","state":"NC","lat":33.9334,"long":-78.4129},{"zip":"28461","city":"Southport","state":"NC","lat":33.9654,"long":-78.0359},{"zip":"28462","city":"Supply","state":"NC","lat":34.0231,"long":-78.2884},{"zip":"28465","city":"Oak Island","state":"NC","lat":33.9161,"long":-78.1255},{"zip":"28467","city":"Calabash","state":"NC","lat":33.9047,"long":-78.5744},{"zip":"28468","city":"Sunset Beach","state":"NC","lat":33.8836,"long":-78.52},{"zip":"28469","city":"Ocean Isle Beach","state":"NC","lat":33.8913,"long":-78.4298},{"zip":"28470","city":"Shallotte","state":"NC","lat":33.9637,"long":-78.4064},{"zip":"28479","city":"Winnabow","state":"NC","lat":34.1553,"long":-78.0558},{"zip":"28423","city":"Bolton","state":"NC","lat":34.3091,"long":-78.3372},{"zip":"28424","city":"Brunswick","state":"NC","lat":34.2907,"long":-78.6994},{"zip":"28430","city":"Cerro Gordo","state":"NC","lat":34.3025,"long":-78.9216},{"zip":"28431","city":"Chadbourn","state":"NC","lat":34.3223,"long":-78.8267},{"zip":"28432","city":"Clarendon","state":"NC","lat":34.1761,"long":-78.7637},{"zip":"28436","city":"Delco","state":"NC","lat":34.2838,"long":-78.2607},{"zip":"28438","city":"Evergreen","state":"NC","lat":34.4204,"long":-78.8947},{"zip":"28439","city":"Fair Bluff","state":"NC","lat":34.3023,"long":-79.0175},{"zip":"28442","city":"Hallsboro","state":"NC","lat":34.3181,"long":-78.6043},{"zip":"28450","city":"Lake Waccamaw","state":"NC","lat":34.3394,"long":-78.5102},{"zip":"28455","city":"Nakina","state":"NC","lat":34.1153,"long":-78.657},{"zip":"28456","city":"Riegelwood","state":"NC","lat":34.3471,"long":-78.2575},{"zip":"28463","city":"Tabor City","state":"NC","lat":34.1233,"long":-78.8232},{"zip":"28472","city":"Whiteville","state":"NC","lat":34.3241,"long":-78.716},{"zip":"28453","city":"Magnolia","state":"NC","lat":34.8957,"long":-78.0432},{"zip":"28458","city":"Rose Hill","state":"NC","lat":34.8235,"long":-78.0166},{"zip":"28464","city":"Teachey","state":"NC","lat":34.77,"long":-78.0221},{"zip":"28466","city":"Wallace","state":"NC","lat":34.7542,"long":-77.9429},{"zip":"28401","city":"Wilmington","state":"NC","lat":34.2257,"long":-77.9447},{"zip":"28402","city":"Wilmington","state":"NC","lat":34.3405,"long":-77.9014},{"zip":"28403","city":"Wilmington","state":"NC","lat":34.2237,"long":-77.8862},{"zip":"28405","city":"Wilmington","state":"NC","lat":34.2651,"long":-77.867},{"zip":"28406","city":"Wilmington","state":"NC","lat":34.0881,"long":-77.8526},{"zip":"28407","city":"Wilmington","state":"NC","lat":34.0881,"long":-77.8526},{"zip":"28408","city":"Wilmington","state":"NC","lat":34.2257,"long":-77.9447},{"zip":"28409","city":"Wilmington","state":"NC","lat":34.1663,"long":-77.8723},{"zip":"28410","city":"Wilmington","state":"NC","lat":34.0881,"long":-77.8526},{"zip":"28411","city":"Wilmington","state":"NC","lat":34.3033,"long":-77.8039},{"zip":"28412","city":"Wilmington","state":"NC","lat":34.1572,"long":-77.9141},{"zip":"28428","city":"Carolina Beach","state":"NC","lat":34.0366,"long":-77.8963},{"zip":"28429","city":"Castle Hayne","state":"NC","lat":34.3236,"long":-77.9108},{"zip":"28449","city":"Kure Beach","state":"NC","lat":33.9927,"long":-77.9099},{"zip":"28480","city":"Wrightsville Beach","state":"NC","lat":34.2228,"long":-77.7932},{"zip":"28445","city":"Holly Ridge","state":"NC","lat":34.4954,"long":-77.555},{"zip":"28460","city":"Sneads Ferry","state":"NC","lat":34.5426,"long":-77.4038},{"zip":"28421","city":"Atkinson","state":"NC","lat":34.5304,"long":-78.1671},{"zip":"28425","city":"Burgaw","state":"NC","lat":34.5487,"long":-77.9403},{"zip":"28435","city":"Currie","state":"NC","lat":34.4497,"long":-78.0925},{"zip":"28443","city":"Hampstead","state":"NC","lat":34.3879,"long":-77.6628},{"zip":"28454","city":"Maple Hill","state":"NC","lat":34.6594,"long":-77.7117},{"zip":"28457","city":"Rocky Point","state":"NC","lat":34.4344,"long":-77.9234},{"zip":"28478","city":"Willard","state":"NC","lat":34.6845,"long":-78.0234},{"zip":"28441","city":"Garland","state":"NC","lat":34.7897,"long":-78.4309},{"zip":"28444","city":"Harrells","state":"NC","lat":34.6769,"long":-78.243},{"zip":"28447","city":"Ivanhoe","state":"NC","lat":34.6233,"long":-78.2342}]
