[{"zip":"28511","city":"Atlantic","state":"NC","lat":34.8888,"long":-76.3521},{"zip":"28512","city":"Atlantic Beach","state":"NC","lat":34.6991,"long":-76.7402},{"zip":"28516","city":"Beaufort","state":"NC","lat":34.758,"long":-76.6228},{"zip":"28520","city":"Cedar Island","state":"NC","lat":35.0082,"long":-76.316},{"zip":"28524","city":"Davis","state":"NC","lat":34.7974,"long":-76.4602},{"zip":"28528","city":"Gloucester","state":"NC","lat":34.7344,"long":-76.5394},{"zip":"28531","city":"Harkers Island","state":"NC","lat":34.6966,"long":-76.5583},{"zip":"28553","city":"Marshallberg","state":"NC","lat":34.7265,"long":-76.5173},{"zip":"28557","city":"Morehead City","state":"NC","lat":34.7253,"long":-76.7531},{"zip":"28570","city":"Newport","state":"NC","lat":34.7551,"long":-76.9069},{"zip":"28575","city":"Salter Path","state":"NC","lat":34.6885,"long":-76.8861},{"zip":"28577","city":"Sealevel","state":"NC","lat":34.8769,"long":-76.3898},{"zip":"28579","city":"Smyrna","state":"NC","lat":34.7593,"long":-76.5274},{"zip":"28581","city":"Stacy","state":"NC","lat":34.8412,"long":-76.4289},{"zip":"28582","city":"Stella","state":"NC","lat":34.7777,"long":-77.1308},{"zip":"28589","city":"Williston","state":"NC","lat":34.7893,"long":-76.5052},{"zip":"28594","city":"Emerald Isle","state":"NC","lat":34.6662,"long":-77.026},{"zip":"28519","city":"Bridgeton","state":"NC","lat":35.1215,"long":-77.0208},{"zip":"28523","city":"Cove City","state":"NC","lat":35.2023,"long":-77.2963},{"zip":"28526","city":"Dover","state":"NC","lat":35.2554,"long":-77.3646},{"zip":"28527","city":"Ernul","state":"NC","lat":35.2547,"long":-77.0502},{"zip":"28532","city":"Havelock","state":"NC","lat":34.8968,"long":-76.89},{"zip":"28533","city":"Cherry Point","state":"NC","lat":34.9038,"long":-76.9},{"zip":"28560","city":"New Bern","state":"NC","lat":35.1204,"long":-76.9842},{"zip":"28561","city":"New Bern","state":"NC","lat":35.1037,"long":-77.0759},{"zip":"28562","city":"New Bern","state":"NC","lat":35.1004,"long":-77.1029},{"zip":"28563","city":"New Bern","state":"NC","lat":35.1109,"long":-77.0634},{"zip":"28564","city":"New Bern","state":"NC","lat":35.1109,"long":-77.0634},{"zip":"28586","city":"Vanceboro","state":"NC","lat":35.3063,"long":-77.1716},{"zip":"28508","city":"Albertson","state":"NC","lat":35.1176,"long":-77.8515},{"zip":"28518","city":"Beulaville","state":"NC","lat":34.934,"long":-77.7697},{"zip":"28521","city":"Chinquapin","state":"NC","lat":34.8276,"long":-77.7636},{"zip":"28538","city":"Hookerton","state":"NC","lat":35.438,"long":-77.5656},{"zip":"28554","city":"Maury","state":"NC","lat":35.4999,"long":-77.651},{"zip":"28580","city":"Snow Hill","state":"NC","lat":35.4438,"long":-77.6956},{"zip":"28522","city":"Comfort","state":"NC","lat":35.0051,"long":-77.5231},{"zip":"28555","city":"Maysville","state":"NC","lat":34.8691,"long":-77.2315},{"zip":"28573","city":"Pollocksville","state":"NC","lat":35.0151,"long":-77.2287},{"zip":"28585","city":"Trenton","state":"NC","lat":35.0745,"long":-77.4595},{"zip":"28501","city":"Kinston","state":"NC","lat":35.2783,"long":-77.586},{"zip":"28502","city":"Kinston","state":"NC","lat":35.2627,"long":-77.5816},{"zip":"28503","city":"Kinston","state":"NC","lat":35.3191,"long":-77.595},{"zip":"28504","city":"Kinston","state":"NC","lat":35.206,"long":-77.6576},{"zip":"28525","city":"Deep Run","state":"NC","lat":35.163,"long":-77.6928},{"zip":"28551","city":"La Grange","state":"NC","lat":35.3054,"long":-77.7686},{"zip":"28572","city":"Pink Hill","state":"NC","lat":35.0573,"long":-77.6943},{"zip":"28539","city":"Hubert","state":"NC","lat":34.6993,"long":-77.2079},{"zip":"28540","city":"Jacksonville","state":"NC","lat":34.7375,"long":-77.4628},{"zip":"28541","city":"Jacksonville","state":"NC","lat":34.6921,"long":-77.3912},{"zip":"28542","city":"Camp Lejeune","state":"NC","lat":34.664,"long":-77.4637},{"zip":"28543","city":"Tarawa Terrace","state":"NC","lat":34.7354,"long":-77.3831},{"zip":"28544","city":"Midway Park","state":"NC","lat":34.727,"long":-77.32},{"zip":"28545","city":"Mccutcheon Field","state":"NC","lat":34.6921,"long":-77.3912},{"zip":"28546","city":"Jacksonville","state":"NC","lat":34.774,"long":-77.3781},{"zip":"28547","city":"Camp Lejeune","state":"NC","lat":34.6909,"long":-77.3614},{"zip":"28574","city":"Richlands","state":"NC","lat":34.8624,"long":-77.5863},{"zip":"28584","city":"Swansboro","state":"NC","lat":34.6991,"long":-77.135},{"zip":"28509","city":"Alliance","state":"NC","lat":35.1449,"long":-76.8022},{"zip":"28510","city":"Arapahoe","state":"NC","lat":35.0055,"long":-76.8149},{"zip":"28515","city":"Bayboro","state":"NC","lat":35.1526,"long":-76.7518},{"zip":"28529","city":"Grantsboro","state":"NC","lat":35.0668,"long":-76.871},{"zip":"28537","city":"Hobucken","state":"NC","lat":35.2518,"long":-76.5696},{"zip":"28552","city":"Lowland","state":"NC","lat":35.306,"long":-76.5777},{"zip":"28556","city":"Merritt","state":"NC","lat":35.1224,"long":-76.6719},{"zip":"28571","city":"Oriental","state":"NC","lat":35.0364,"long":-76.7015},{"zip":"28583","city":"Stonewall","state":"NC","lat":35.1371,"long":-76.7406},{"zip":"28587","city":"Vandemere","state":"NC","lat":35.1913,"long":-76.6604},{"zip":"28513","city":"Ayden","state":"NC","lat":35.4565,"long":-77.4051},{"zip":"28530","city":"Grifton","state":"NC","lat":35.3757,"long":-77.4193},{"zip":"28590","city":"Winterville","state":"NC","lat":35.5336,"long":-77.391},{"zip":"28578","city":"Seven Springs","state":"NC","lat":35.2105,"long":-77.9146}]
