[{"zip":"28701","city":"Alexander","state":"NC","lat":35.7064,"long":-82.6311},{"zip":"28704","city":"Arden","state":"NC","lat":35.4637,"long":-82.5354},{"zip":"28709","city":"Barnardsville","state":"NC","lat":35.7748,"long":-82.4567},{"zip":"28711","city":"Black Mountain","state":"NC","lat":35.5986,"long":-82.2902},{"zip":"28715","city":"Candler","state":"NC","lat":35.5376,"long":-82.7001},{"zip":"28728","city":"Enka","state":"NC","lat":35.4988,"long":-82.708},{"zip":"28730","city":"Fairview","state":"NC","lat":35.5258,"long":-82.3985},{"zip":"28748","city":"Leicester","state":"NC","lat":35.6498,"long":-82.7106},{"zip":"28757","city":"Montreat","state":"NC","lat":35.6415,"long":-82.3156},{"zip":"28759","city":"Mills River","state":"NC","lat":35.3906,"long":-82.568},{"zip":"28770","city":"Ridgecrest","state":"NC","lat":35.6186,"long":-82.3005},{"zip":"28776","city":"Skyland","state":"NC","lat":35.4835,"long":-82.5207},{"zip":"28778","city":"Swannanoa","state":"NC","lat":35.6172,"long":-82.407},{"zip":"28787","city":"Weaverville","state":"NC","lat":35.7126,"long":-82.5491},{"zip":"28781","city":"Topton","state":"NC","lat":35.2151,"long":-83.6461},{"zip":"28733","city":"Fontana Dam","state":"NC","lat":35.4231,"long":-83.7795},{"zip":"28771","city":"Robbinsville","state":"NC","lat":35.3259,"long":-83.7888},{"zip":"28716","city":"Canton","state":"NC","lat":35.5127,"long":-82.8413},{"zip":"28721","city":"Clyde","state":"NC","lat":35.5597,"long":-82.9216},{"zip":"28738","city":"Hazelwood","state":"NC","lat":35.4683,"long":-83.0028},{"zip":"28745","city":"Lake Junaluska","state":"NC","lat":35.5258,"long":-82.9704},{"zip":"28751","city":"Maggie Valley","state":"NC","lat":35.5201,"long":-83.0929},{"zip":"28785","city":"Waynesville","state":"NC","lat":35.533,"long":-82.9719},{"zip":"28786","city":"Waynesville","state":"NC","lat":35.5018,"long":-82.9913},{"zip":"28710","city":"Bat Cave","state":"NC","lat":35.4515,"long":-82.2871},{"zip":"28724","city":"Dana","state":"NC","lat":35.3293,"long":-82.3754},{"zip":"28726","city":"East Flat Rock","state":"NC","lat":35.2799,"long":-82.4204},{"zip":"28727","city":"Edneyville","state":"NC","lat":35.394,"long":-82.3409},{"zip":"28729","city":"Etowah","state":"NC","lat":35.3172,"long":-82.5977},{"zip":"28731","city":"Flat Rock","state":"NC","lat":35.289,"long":-82.3916},{"zip":"28732","city":"Fletcher","state":"NC","lat":35.4499,"long":-82.4966},{"zip":"28735","city":"Gerton","state":"NC","lat":35.4759,"long":-82.3505},{"zip":"28739","city":"Hendersonville","state":"NC","lat":35.3192,"long":-82.5},{"zip":"28742","city":"Horse Shoe","state":"NC","lat":35.3432,"long":-82.5565},{"zip":"28758","city":"Mountain Home","state":"NC","lat":35.3711,"long":-82.4938},{"zip":"28760","city":"Naples","state":"NC","lat":35.3817,"long":-82.4813},{"zip":"28784","city":"Tuxedo","state":"NC","lat":35.2174,"long":-82.4178},{"zip":"28790","city":"Zirconia","state":"NC","lat":35.2153,"long":-82.4574},{"zip":"28791","city":"Hendersonville","state":"NC","lat":35.3464,"long":-82.525},{"zip":"28792","city":"Hendersonville","state":"NC","lat":35.3613,"long":-82.4264},{"zip":"28793","city":"Hendersonville","state":"NC","lat":35.2927,"long":-82.5036},{"zip":"28707","city":"Balsam","state":"NC","lat":35.4268,"long":-83.0851},{"zip":"28717","city":"Cashiers","state":"NC","lat":35.0971,"long":-83.0871},{"zip":"28723","city":"Cullowhee","state":"NC","lat":35.2409,"long":-83.1475},{"zip":"28725","city":"Dillsboro","state":"NC","lat":35.3735,"long":-83.2592},{"zip":"28736","city":"Glenville","state":"NC","lat":35.1882,"long":-83.09},{"zip":"28779","city":"Sylva","state":"NC","lat":35.3481,"long":-83.2031},{"zip":"28783","city":"Tuckasegee","state":"NC","lat":35.2599,"long":-83.0749},{"zip":"28788","city":"Webster","state":"NC","lat":35.3462,"long":-83.2193},{"zip":"28789","city":"Whittier","state":"NC","lat":35.4469,"long":-83.2872},{"zip":"28737","city":"Glenwood","state":"NC","lat":35.7387,"long":-82.0595},{"zip":"28749","city":"Little Switzerland","state":"NC","lat":35.8493,"long":-82.0904},{"zip":"28752","city":"Marion","state":"NC","lat":35.6819,"long":-82.018},{"zip":"28761","city":"Nebo","state":"NC","lat":35.6732,"long":-81.9056},{"zip":"28762","city":"Old Fort","state":"NC","lat":35.6169,"long":-82.1686},{"zip":"28734","city":"Franklin","state":"NC","lat":35.181,"long":-83.3885},{"zip":"28741","city":"Highlands","state":"NC","lat":35.0705,"long":-83.216},{"zip":"28744","city":"Franklin","state":"NC","lat":35.1823,"long":-83.3815},{"zip":"28763","city":"Otto","state":"NC","lat":35.0515,"long":-83.3854},{"zip":"28775","city":"Scaly Mountain","state":"NC","lat":35.0311,"long":-83.3274},{"zip":"28743","city":"Hot Springs","state":"NC","lat":35.8082,"long":-82.9005},{"zip":"28753","city":"Marshall","state":"NC","lat":35.8597,"long":-82.7105},{"zip":"28754","city":"Mars Hill","state":"NC","lat":35.8528,"long":-82.5254},{"zip":"28705","city":"Bakersville","state":"NC","lat":36.0286,"long":-82.1711},{"zip":"28765","city":"Penland","state":"NC","lat":35.9219,"long":-82.1107},{"zip":"28777","city":"Spruce Pine","state":"NC","lat":35.906,"long":-82.0705},{"zip":"28722","city":"Columbus","state":"NC","lat":35.2532,"long":-82.1971},{"zip":"28750","city":"Lynn","state":"NC","lat":35.2362,"long":-82.2362},{"zip":"28756","city":"Mill Spring","state":"NC","lat":35.3338,"long":-82.1557},{"zip":"28773","city":"Saluda","state":"NC","lat":35.2383,"long":-82.3306},{"zip":"28782","city":"Tryon","state":"NC","lat":35.2157,"long":-82.2394},{"zip":"28720","city":"Chimney Rock","state":"NC","lat":35.4369,"long":-82.2417},{"zip":"28746","city":"Lake Lure","state":"NC","lat":35.4464,"long":-82.1752},{"zip":"28702","city":"Almond","state":"NC","lat":35.4099,"long":-83.4794},{"zip":"28713","city":"Bryson City","state":"NC","lat":35.4241,"long":-83.4392},{"zip":"28719","city":"Cherokee","state":"NC","lat":35.5094,"long":-83.3144},{"zip":"28708","city":"Balsam Grove","state":"NC","lat":35.2298,"long":-82.8779},{"zip":"28712","city":"Brevard","state":"NC","lat":35.2208,"long":-82.7404},{"zip":"28718","city":"Cedar Mountain","state":"NC","lat":35.1508,"long":-82.6374},{"zip":"28747","city":"Lake Toxaway","state":"NC","lat":35.1451,"long":-82.9191},{"zip":"28766","city":"Penrose","state":"NC","lat":35.2524,"long":-82.6222},{"zip":"28768","city":"Pisgah Forest","state":"NC","lat":35.2599,"long":-82.6695},{"zip":"28772","city":"Rosman","state":"NC","lat":35.1592,"long":-82.8383},{"zip":"28774","city":"Sapphire","state":"NC","lat":35.0666,"long":-83.0019},{"zip":"28714","city":"Burnsville","state":"NC","lat":35.903,"long":-82.2876},{"zip":"28740","city":"Green Mountain","state":"NC","lat":35.9956,"long":-82.2879},{"zip":"28755","city":"Micaville","state":"NC","lat":35.9096,"long":-82.2132}]
