[{"zip":"29003","city":"Bamberg","state":"SC","lat":33.2779,"long":-81.0177},{"zip":"29042","city":"Denmark","state":"SC","lat":33.3209,"long":-81.1407},{"zip":"29081","city":"Ehrhardt","state":"SC","lat":33.1044,"long":-81.0221},{"zip":"29030","city":"Cameron","state":"SC","lat":33.5703,"long":-80.7081},{"zip":"29014","city":"Blackstock","state":"SC","lat":34.5779,"long":-81.1249},{"zip":"29055","city":"Great Falls","state":"SC","lat":34.5705,"long":-80.9133},{"zip":"29001","city":"Alcolu","state":"SC","lat":33.7684,"long":-80.1788},{"zip":"29041","city":"Davis Station","state":"SC","lat":33.6027,"long":-80.2645},{"zip":"29051","city":"Gable","state":"SC","lat":33.8644,"long":-80.1276},{"zip":"29082","city":"Lodge","state":"SC","lat":33.0377,"long":-80.9417},{"zip":"29069","city":"Lamar","state":"SC","lat":34.1862,"long":-80.0963},{"zip":"29079","city":"Lydia","state":"SC","lat":34.289,"long":-80.1123},{"zip":"29015","city":"Blair","state":"SC","lat":34.4967,"long":-81.3459},{"zip":"29065","city":"Jenkinsville","state":"SC","lat":34.2717,"long":-81.2712},{"zip":"29009","city":"Bethune","state":"SC","lat":34.4201,"long":-80.3662},{"zip":"29020","city":"Camden","state":"SC","lat":34.2696,"long":-80.591},{"zip":"29021","city":"Camden","state":"SC","lat":34.2974,"long":-80.6089},{"zip":"29032","city":"Cassatt","state":"SC","lat":34.3424,"long":-80.5},{"zip":"29045","city":"Elgin","state":"SC","lat":34.162,"long":-80.8113},{"zip":"29074","city":"Liberty Hill","state":"SC","lat":34.457,"long":-80.7892},{"zip":"29078","city":"Lugoff","state":"SC","lat":34.2296,"long":-80.7147},{"zip":"29058","city":"Heath Springs","state":"SC","lat":34.6024,"long":-80.7103},{"zip":"29067","city":"Kershaw","state":"SC","lat":34.5578,"long":-80.5546},{"zip":"29010","city":"Bishopville","state":"SC","lat":34.2241,"long":-80.275},{"zip":"29046","city":"Elliott","state":"SC","lat":34.1071,"long":-80.1637},{"zip":"29080","city":"Lynchburg","state":"SC","lat":34.0526,"long":-80.0988},{"zip":"29006","city":"Batesburg","state":"SC","lat":33.8702,"long":-81.5505},{"zip":"29033","city":"Cayce","state":"SC","lat":33.9626,"long":-81.0671},{"zip":"29036","city":"Chapin","state":"SC","lat":34.1312,"long":-81.3318},{"zip":"29053","city":"Gaston","state":"SC","lat":33.8337,"long":-81.1174},{"zip":"29054","city":"Gilbert","state":"SC","lat":33.9581,"long":-81.3914},{"zip":"29070","city":"Leesville","state":"SC","lat":33.9132,"long":-81.4598},{"zip":"29071","city":"Lexington","state":"SC","lat":33.9815,"long":-81.2362},{"zip":"29072","city":"Lexington","state":"SC","lat":33.9724,"long":-81.2359},{"zip":"29073","city":"Lexington","state":"SC","lat":33.8632,"long":-81.2351},{"zip":"29037","city":"Chappells","state":"SC","lat":34.1856,"long":-81.8644},{"zip":"29075","city":"Little Mountain","state":"SC","lat":34.1676,"long":-81.4184},{"zip":"29018","city":"Bowman","state":"SC","lat":33.3475,"long":-80.6709},{"zip":"29038","city":"Cope","state":"SC","lat":33.3726,"long":-80.9631},{"zip":"29039","city":"Cordova","state":"SC","lat":33.4275,"long":-80.8857},{"zip":"29047","city":"Elloree","state":"SC","lat":33.531,"long":-80.572},{"zip":"29048","city":"Eutawville","state":"SC","lat":33.3922,"long":-80.32},{"zip":"29059","city":"Holly Hill","state":"SC","lat":33.3276,"long":-80.4024},{"zip":"29002","city":"Ballentine","state":"SC","lat":34.1265,"long":-81.2348},{"zip":"29016","city":"Blythewood","state":"SC","lat":34.1911,"long":-80.9758},{"zip":"29044","city":"Eastover","state":"SC","lat":33.9153,"long":-80.6996},{"zip":"29052","city":"Gadsden","state":"SC","lat":33.8455,"long":-80.7532},{"zip":"29061","city":"Hopkins","state":"SC","lat":33.9349,"long":-80.8449},{"zip":"29063","city":"Irmo","state":"SC","lat":34.1103,"long":-81.1966},{"zip":"29040","city":"Dalzell","state":"SC","lat":34.0144,"long":-80.4665},{"zip":"29062","city":"Horatio","state":"SC","lat":34.0213,"long":-80.5659},{"zip":"29031","city":"Carlisle","state":"SC","lat":34.567,"long":-81.4814},{"zip":"29056","city":"Greeleyville","state":"SC","lat":33.5966,"long":-79.9802}]
