[{"zip":"29137","city":"Salley","state":"SC","lat":33.5972,"long":-81.3184},{"zip":"29164","city":"Wagener","state":"SC","lat":33.6494,"long":-81.3995},{"zip":"29135","city":"Saint Matthews","state":"SC","lat":33.6967,"long":-80.8678},{"zip":"29101","city":"Mc Bee","state":"SC","lat":34.4606,"long":-80.2544},{"zip":"29102","city":"Manning","state":"SC","lat":33.6184,"long":-80.2116},{"zip":"29111","city":"New Zion","state":"SC","lat":33.7957,"long":-80.0148},{"zip":"29143","city":"Sardinia","state":"SC","lat":33.8343,"long":-80.0829},{"zip":"29148","city":"Summerton","state":"SC","lat":33.5946,"long":-80.3606},{"zip":"29162","city":"Turbeville","state":"SC","lat":33.8907,"long":-80.0184},{"zip":"29130","city":"Ridgeway","state":"SC","lat":34.3167,"long":-80.9288},{"zip":"29132","city":"Rion","state":"SC","lat":34.3074,"long":-81.1252},{"zip":"29180","city":"Winnsboro","state":"SC","lat":34.381,"long":-81.109},{"zip":"29114","city":"Olanta","state":"SC","lat":33.9285,"long":-79.9153},{"zip":"29161","city":"Timmonsville","state":"SC","lat":34.1012,"long":-79.9378},{"zip":"29175","city":"Westville","state":"SC","lat":34.4418,"long":-80.6033},{"zip":"29123","city":"Pelion","state":"SC","lat":33.7766,"long":-81.2502},{"zip":"29160","city":"Swansea","state":"SC","lat":33.7339,"long":-81.0933},{"zip":"29169","city":"West Columbia","state":"SC","lat":33.995,"long":-81.0888},{"zip":"29170","city":"West Columbia","state":"SC","lat":33.9568,"long":-81.1405},{"zip":"29171","city":"West Columbia","state":"SC","lat":33.9252,"long":-81.2483},{"zip":"29172","city":"West Columbia","state":"SC","lat":33.9,"long":-81.091},{"zip":"29108","city":"Newberry","state":"SC","lat":34.2847,"long":-81.6157},{"zip":"29122","city":"Peak","state":"SC","lat":34.2386,"long":-81.3271},{"zip":"29126","city":"Pomaria","state":"SC","lat":34.3063,"long":-81.45},{"zip":"29127","city":"Prosperity","state":"SC","lat":34.1832,"long":-81.5324},{"zip":"29145","city":"Silverstreet","state":"SC","lat":34.2207,"long":-81.7741},{"zip":"29178","city":"Whitmire","state":"SC","lat":34.4955,"long":-81.606},{"zip":"29107","city":"Neeses","state":"SC","lat":33.5318,"long":-81.1232},{"zip":"29112","city":"North","state":"SC","lat":33.6211,"long":-81.0601},{"zip":"29113","city":"Norway","state":"SC","lat":33.4534,"long":-81.1097},{"zip":"29115","city":"Orangeburg","state":"SC","lat":33.5025,"long":-80.8593},{"zip":"29116","city":"Orangeburg","state":"SC","lat":33.4959,"long":-80.8246},{"zip":"29117","city":"Orangeburg","state":"SC","lat":33.442,"long":-80.7975},{"zip":"29118","city":"Orangeburg","state":"SC","lat":33.5675,"long":-80.9248},{"zip":"29133","city":"Rowesville","state":"SC","lat":33.3703,"long":-80.8331},{"zip":"29142","city":"Santee","state":"SC","lat":33.4835,"long":-80.4805},{"zip":"29146","city":"Springfield","state":"SC","lat":33.5343,"long":-81.2499},{"zip":"29163","city":"Vance","state":"SC","lat":33.4139,"long":-80.4617},{"zip":"29147","city":"State Park","state":"SC","lat":34.0907,"long":-80.9662},{"zip":"29177","city":"White Rock","state":"SC","lat":34.1504,"long":-81.2601},{"zip":"29105","city":"Monetta","state":"SC","lat":33.8084,"long":-81.5956},{"zip":"29129","city":"Ridge Spring","state":"SC","lat":33.8714,"long":-81.6559},{"zip":"29138","city":"Saluda","state":"SC","lat":34.0175,"long":-81.7754},{"zip":"29166","city":"Ward","state":"SC","lat":33.8849,"long":-81.7283},{"zip":"29104","city":"Mayesville","state":"SC","lat":33.9502,"long":-80.2173},{"zip":"29125","city":"Pinewood","state":"SC","lat":33.7642,"long":-80.4978},{"zip":"29128","city":"Rembert","state":"SC","lat":34.1085,"long":-80.4945},{"zip":"29150","city":"Sumter","state":"SC","lat":33.9137,"long":-80.3542},{"zip":"29151","city":"Sumter","state":"SC","lat":33.8999,"long":-80.3743},{"zip":"29152","city":"Shaw Afb","state":"SC","lat":33.9204,"long":-80.3415},{"zip":"29153","city":"Sumter","state":"SC","lat":33.9446,"long":-80.3206},{"zip":"29154","city":"Sumter","state":"SC","lat":33.8821,"long":-80.4028},{"zip":"29168","city":"Wedgefield","state":"SC","lat":33.8953,"long":-80.498}]
