[{"zip":"29340","city":"Gaffney","state":"SC","lat":35.0615,"long":-81.6491},{"zip":"29341","city":"Gaffney","state":"SC","lat":35.0999,"long":-81.7056},{"zip":"29342","city":"Gaffney","state":"SC","lat":34.9963,"long":-81.6524},{"zip":"29325","city":"Clinton","state":"SC","lat":34.4707,"long":-81.8772},{"zip":"29332","city":"Cross Hill","state":"SC","lat":34.2693,"long":-81.9843},{"zip":"29351","city":"Joanna","state":"SC","lat":34.4068,"long":-81.8191},{"zip":"29360","city":"Laurens","state":"SC","lat":34.499,"long":-82.0143},{"zip":"29370","city":"Mountville","state":"SC","lat":34.3408,"long":-81.9584},{"zip":"29384","city":"Waterloo","state":"SC","lat":34.3367,"long":-82.088},{"zip":"29355","city":"Kinards","state":"SC","lat":34.3804,"long":-81.7773},{"zip":"29301","city":"Spartanburg","state":"SC","lat":34.9352,"long":-81.9654},{"zip":"29302","city":"Spartanburg","state":"SC","lat":34.8939,"long":-81.834},{"zip":"29303","city":"Spartanburg","state":"SC","lat":34.9803,"long":-81.9168},{"zip":"29304","city":"Spartanburg","state":"SC","lat":34.9166,"long":-81.8639},{"zip":"29305","city":"Spartanburg","state":"SC","lat":34.9496,"long":-81.932},{"zip":"29306","city":"Spartanburg","state":"SC","lat":34.8937,"long":-81.9228},{"zip":"29307","city":"Spartanburg","state":"SC","lat":34.9839,"long":-81.8313},{"zip":"29316","city":"Boiling Springs","state":"SC","lat":35.0465,"long":-81.9818},{"zip":"29319","city":"Spartanburg","state":"SC","lat":34.9496,"long":-81.932},{"zip":"29320","city":"Arcadia","state":"SC","lat":34.9572,"long":-81.9916},{"zip":"29322","city":"Campobello","state":"SC","lat":35.108,"long":-82.1403},{"zip":"29323","city":"Chesnee","state":"SC","lat":35.1154,"long":-81.8678},{"zip":"29324","city":"Clifton","state":"SC","lat":34.9906,"long":-81.8327},{"zip":"29329","city":"Converse","state":"SC","lat":34.9921,"long":-81.8348},{"zip":"29330","city":"Cowpens","state":"SC","lat":35.039,"long":-81.822},{"zip":"29331","city":"Cross Anchor","state":"SC","lat":34.6383,"long":-81.8567},{"zip":"29333","city":"Drayton","state":"SC","lat":34.9685,"long":-81.9064},{"zip":"29334","city":"Duncan","state":"SC","lat":34.9176,"long":-82.1258},{"zip":"29335","city":"Enoree","state":"SC","lat":34.671,"long":-81.9237},{"zip":"29336","city":"Fairforest","state":"SC","lat":34.9565,"long":-82.0101},{"zip":"29338","city":"Fingerville","state":"SC","lat":34.9994,"long":-82.0571},{"zip":"29346","city":"Glendale","state":"SC","lat":34.9448,"long":-81.8376},{"zip":"29348","city":"Gramling","state":"SC","lat":35.0768,"long":-82.1326},{"zip":"29349","city":"Inman","state":"SC","lat":35.0528,"long":-82.054},{"zip":"29356","city":"Landrum","state":"SC","lat":35.1565,"long":-82.2115},{"zip":"29365","city":"Lyman","state":"SC","lat":34.9684,"long":-82.1435},{"zip":"29368","city":"Mayo","state":"SC","lat":35.084,"long":-81.8598},{"zip":"29369","city":"Moore","state":"SC","lat":34.8646,"long":-82.0215},{"zip":"29372","city":"Pacolet","state":"SC","lat":34.9017,"long":-81.7587},{"zip":"29373","city":"Pacolet Mills","state":"SC","lat":34.9226,"long":-81.7426},{"zip":"29374","city":"Pauline","state":"SC","lat":34.7855,"long":-81.8492},{"zip":"29375","city":"Reidville","state":"SC","lat":34.8636,"long":-82.1101},{"zip":"29376","city":"Roebuck","state":"SC","lat":34.8688,"long":-81.9526},{"zip":"29377","city":"Startex","state":"SC","lat":34.9285,"long":-82.099},{"zip":"29378","city":"Una","state":"SC","lat":34.853,"long":-81.7727},{"zip":"29385","city":"Wellford","state":"SC","lat":34.9514,"long":-82.0927},{"zip":"29386","city":"White Stone","state":"SC","lat":34.8882,"long":-81.969},{"zip":"29388","city":"Woodruff","state":"SC","lat":34.7579,"long":-82.0447},{"zip":"29321","city":"Buffalo","state":"SC","lat":34.7247,"long":-81.6826},{"zip":"29353","city":"Jonesville","state":"SC","lat":34.8125,"long":-81.6431},{"zip":"29364","city":"Lockhart","state":"SC","lat":34.7865,"long":-81.462},{"zip":"29379","city":"Union","state":"SC","lat":34.7269,"long":-81.6202},{"zip":"29395","city":"Jonesville","state":"SC","lat":34.8466,"long":-81.7227}]
