[{"zip":"29410","city":"Hanahan","state":"SC","lat":32.9185,"long":-80.022},{"zip":"29431","city":"Bonneau","state":"SC","lat":33.2703,"long":-79.8736},{"zip":"29434","city":"Cordesville","state":"SC","lat":33.1362,"long":-79.8826},{"zip":"29436","city":"Cross","state":"SC","lat":33.3364,"long":-80.1859},{"zip":"29445","city":"Goose Creek","state":"SC","lat":33.058,"long":-80.0101},{"zip":"29450","city":"Huger","state":"SC","lat":33.0439,"long":-79.7841},{"zip":"29453","city":"Jamestown","state":"SC","lat":33.2221,"long":-79.6282},{"zip":"29456","city":"Ladson","state":"SC","lat":32.993,"long":-80.1257},{"zip":"29461","city":"Moncks Corner","state":"SC","lat":33.1971,"long":-80.0233},{"zip":"29468","city":"Pineville","state":"SC","lat":33.4199,"long":-80.0932},{"zip":"29469","city":"Pinopolis","state":"SC","lat":33.2241,"long":-80.0398},{"zip":"29476","city":"Russellville","state":"SC","lat":33.3971,"long":-79.9717},{"zip":"29479","city":"Saint Stephen","state":"SC","lat":33.3362,"long":-79.9236},{"zip":"29486","city":"Summerville","state":"SC","lat":33.0185,"long":-80.1756},{"zip":"29492","city":"Charleston","state":"SC","lat":32.9668,"long":-79.8528},{"zip":"29401","city":"Charleston","state":"SC","lat":32.7795,"long":-79.9371},{"zip":"29402","city":"Charleston","state":"SC","lat":32.7766,"long":-79.9309},{"zip":"29403","city":"Charleston","state":"SC","lat":32.7976,"long":-79.9493},{"zip":"29404","city":"Charleston Afb","state":"SC","lat":32.8982,"long":-80.0686},{"zip":"29405","city":"North Charleston","state":"SC","lat":32.853,"long":-79.9913},{"zip":"29406","city":"Charleston","state":"SC","lat":32.9352,"long":-80.0325},{"zip":"29407","city":"Charleston","state":"SC","lat":32.7993,"long":-80.006},{"zip":"29409","city":"Charleston","state":"SC","lat":32.7961,"long":-79.9605},{"zip":"29412","city":"Charleston","state":"SC","lat":32.718,"long":-79.9537},{"zip":"29413","city":"Charleston","state":"SC","lat":32.8488,"long":-79.8577},{"zip":"29414","city":"Charleston","state":"SC","lat":32.8215,"long":-80.0568},{"zip":"29415","city":"North Charleston","state":"SC","lat":32.8546,"long":-79.9748},{"zip":"29416","city":"Charleston","state":"SC","lat":32.8488,"long":-79.8577},{"zip":"29417","city":"Charleston","state":"SC","lat":32.8488,"long":-79.8577},{"zip":"29418","city":"North Charleston","state":"SC","lat":32.8929,"long":-80.0458},{"zip":"29419","city":"North Charleston","state":"SC","lat":32.8546,"long":-79.9748},{"zip":"29422","city":"Charleston","state":"SC","lat":32.8488,"long":-79.8577},{"zip":"29423","city":"Charleston","state":"SC","lat":32.8488,"long":-79.8577},{"zip":"29424","city":"Charleston","state":"SC","lat":32.7831,"long":-79.937},{"zip":"29425","city":"Charleston","state":"SC","lat":32.7862,"long":-79.9471},{"zip":"29426","city":"Adams Run","state":"SC","lat":32.779,"long":-80.3288},{"zip":"29429","city":"Awendaw","state":"SC","lat":33.0063,"long":-79.6561},{"zip":"29439","city":"Folly Beach","state":"SC","lat":32.663,"long":-79.927},{"zip":"29449","city":"Hollywood","state":"SC","lat":32.7105,"long":-80.2744},{"zip":"29451","city":"Isle Of Palms","state":"SC","lat":32.7943,"long":-79.7729},{"zip":"29455","city":"Johns Island","state":"SC","lat":32.7924,"long":-80.1081},{"zip":"29457","city":"Johns Island","state":"SC","lat":32.7924,"long":-80.1081},{"zip":"29458","city":"Mc Clellanville","state":"SC","lat":33.1194,"long":-79.5074},{"zip":"29464","city":"Mount Pleasant","state":"SC","lat":32.8473,"long":-79.8206},{"zip":"29465","city":"Mount Pleasant","state":"SC","lat":32.7941,"long":-79.8626},{"zip":"29466","city":"Mount Pleasant","state":"SC","lat":32.8674,"long":-79.8049},{"zip":"29470","city":"Ravenel","state":"SC","lat":32.7881,"long":-80.2223},{"zip":"29482","city":"Sullivans Island","state":"SC","lat":32.7637,"long":-79.8399},{"zip":"29487","city":"Wadmalaw Island","state":"SC","lat":32.6529,"long":-80.1829},{"zip":"29433","city":"Canadys","state":"SC","lat":33.0614,"long":-80.6312},{"zip":"29435","city":"Cottageville","state":"SC","lat":32.9612,"long":-80.4794},{"zip":"29438","city":"Edisto Island","state":"SC","lat":32.5486,"long":-80.307},{"zip":"29446","city":"Green Pond","state":"SC","lat":32.6628,"long":-80.528},{"zip":"29452","city":"Jacksonboro","state":"SC","lat":32.7305,"long":-80.4609},{"zip":"29474","city":"Round O","state":"SC","lat":32.9405,"long":-80.5739},{"zip":"29475","city":"Ruffin","state":"SC","lat":33.0103,"long":-80.8137},{"zip":"29481","city":"Smoaks","state":"SC","lat":33.0963,"long":-80.813},{"zip":"29488","city":"Walterboro","state":"SC","lat":32.9052,"long":-80.6668},{"zip":"29493","city":"Williams","state":"SC","lat":33.0327,"long":-80.8445},{"zip":"29420","city":"North Charleston","state":"SC","lat":32.9336,"long":-80.1026},{"zip":"29437","city":"Dorchester","state":"SC","lat":33.1247,"long":-80.4034},{"zip":"29447","city":"Grover","state":"SC","lat":33.1052,"long":-80.5948},{"zip":"29448","city":"Harleyville","state":"SC","lat":33.2205,"long":-80.4501},{"zip":"29471","city":"Reevesville","state":"SC","lat":33.1872,"long":-80.6672},{"zip":"29472","city":"Ridgeville","state":"SC","lat":33.108,"long":-80.3086},{"zip":"29477","city":"Saint George","state":"SC","lat":33.1845,"long":-80.5732},{"zip":"29483","city":"Summerville","state":"SC","lat":33.028,"long":-80.1739},{"zip":"29484","city":"Summerville","state":"SC","lat":33.0023,"long":-80.2267},{"zip":"29485","city":"Summerville","state":"SC","lat":32.9756,"long":-80.1831},{"zip":"29440","city":"Georgetown","state":"SC","lat":33.4308,"long":-79.3235},{"zip":"29442","city":"Georgetown","state":"SC","lat":33.4037,"long":-79.2264},{"zip":"29432","city":"Branchville","state":"SC","lat":33.2628,"long":-80.8059}]
