[{"zip":"29520","city":"Cheraw","state":"SC","lat":34.6863,"long":-79.9174},{"zip":"29584","city":"Patrick","state":"SC","lat":34.5598,"long":-80.065},{"zip":"29532","city":"Darlington","state":"SC","lat":34.3003,"long":-79.8732},{"zip":"29540","city":"Darlington","state":"SC","lat":34.3843,"long":-79.8422},{"zip":"29550","city":"Hartsville","state":"SC","lat":34.3756,"long":-80.0842},{"zip":"29551","city":"Hartsville","state":"SC","lat":34.3659,"long":-80.1324},{"zip":"29593","city":"Society Hill","state":"SC","lat":34.4512,"long":-79.8865},{"zip":"29536","city":"Dillon","state":"SC","lat":34.4146,"long":-79.377},{"zip":"29543","city":"Fork","state":"SC","lat":34.2873,"long":-79.2501},{"zip":"29547","city":"Hamer","state":"SC","lat":34.4849,"long":-79.3502},{"zip":"29563","city":"Lake View","state":"SC","lat":34.3445,"long":-79.1929},{"zip":"29565","city":"Latta","state":"SC","lat":34.3398,"long":-79.4417},{"zip":"29567","city":"Little Rock","state":"SC","lat":34.5613,"long":-79.4335},{"zip":"29501","city":"Florence","state":"SC","lat":34.1838,"long":-79.7728},{"zip":"29502","city":"Florence","state":"SC","lat":34.201,"long":-79.7847},{"zip":"29503","city":"Florence","state":"SC","lat":34.063,"long":-79.6506},{"zip":"29504","city":"Florence","state":"SC","lat":34.0416,"long":-79.6933},{"zip":"29505","city":"Florence","state":"SC","lat":34.1231,"long":-79.6893},{"zip":"29506","city":"Florence","state":"SC","lat":34.2153,"long":-79.6468},{"zip":"29530","city":"Coward","state":"SC","lat":33.9905,"long":-79.7515},{"zip":"29541","city":"Effingham","state":"SC","lat":34.0946,"long":-79.7918},{"zip":"29555","city":"Johnsonville","state":"SC","lat":33.8299,"long":-79.4783},{"zip":"29560","city":"Lake City","state":"SC","lat":33.8655,"long":-79.7418},{"zip":"29583","city":"Pamplico","state":"SC","lat":33.9922,"long":-79.5929},{"zip":"29591","city":"Scranton","state":"SC","lat":33.9281,"long":-79.7731},{"zip":"29510","city":"Andrews","state":"SC","lat":33.4525,"long":-79.5604},{"zip":"29576","city":"Murrells Inlet","state":"SC","lat":33.5507,"long":-79.0528},{"zip":"29585","city":"Pawleys Island","state":"SC","lat":33.4508,"long":-79.1341},{"zip":"29511","city":"Aynor","state":"SC","lat":33.9823,"long":-79.1777},{"zip":"29526","city":"Conway","state":"SC","lat":33.8731,"long":-79.0557},{"zip":"29527","city":"Conway","state":"SC","lat":33.7827,"long":-79.1473},{"zip":"29528","city":"Conway","state":"SC","lat":33.9358,"long":-78.9192},{"zip":"29544","city":"Galivants Ferry","state":"SC","lat":34.0563,"long":-79.2464},{"zip":"29545","city":"Green Sea","state":"SC","lat":34.1668,"long":-78.9589},{"zip":"29566","city":"Little River","state":"SC","lat":33.8768,"long":-78.6508},{"zip":"29568","city":"Longs","state":"SC","lat":33.9064,"long":-78.7934},{"zip":"29569","city":"Loris","state":"SC","lat":34.0558,"long":-78.9161},{"zip":"29572","city":"Myrtle Beach","state":"SC","lat":33.7587,"long":-78.8044},{"zip":"29575","city":"Myrtle Beach","state":"SC","lat":33.6286,"long":-78.9736},{"zip":"29577","city":"Myrtle Beach","state":"SC","lat":33.6994,"long":-78.9137},{"zip":"29578","city":"Myrtle Beach","state":"SC","lat":33.7389,"long":-78.9996},{"zip":"29579","city":"Myrtle Beach","state":"SC","lat":33.7377,"long":-78.9787},{"zip":"29581","city":"Nichols","state":"SC","lat":34.2426,"long":-79.1625},{"zip":"29582","city":"North Myrtle Beach","state":"SC","lat":33.8343,"long":-78.6606},{"zip":"29587","city":"Myrtle Beach","state":"SC","lat":33.6211,"long":-78.9632},{"zip":"29588","city":"Myrtle Beach","state":"SC","lat":33.7226,"long":-78.9782},{"zip":"29597","city":"North Myrtle Beach","state":"SC","lat":33.816,"long":-78.68},{"zip":"29598","city":"North Myrtle Beach","state":"SC","lat":33.816,"long":-78.68},{"zip":"29519","city":"Centenary","state":"SC","lat":34.027,"long":-79.3537},{"zip":"29546","city":"Gresham","state":"SC","lat":33.9069,"long":-79.3564},{"zip":"29571","city":"Marion","state":"SC","lat":34.1562,"long":-79.3898},{"zip":"29574","city":"Mullins","state":"SC","lat":34.2044,"long":-79.2542},{"zip":"29589","city":"Rains","state":"SC","lat":34.1053,"long":-79.3221},{"zip":"29592","city":"Sellers","state":"SC","lat":34.258,"long":-79.4783},{"zip":"29512","city":"Bennettsville","state":"SC","lat":34.6255,"long":-79.6898},{"zip":"29516","city":"Blenheim","state":"SC","lat":34.5171,"long":-79.6442},{"zip":"29525","city":"Clio","state":"SC","lat":34.5805,"long":-79.5453},{"zip":"29570","city":"Mc Coll","state":"SC","lat":34.6704,"long":-79.5597},{"zip":"29594","city":"Tatum","state":"SC","lat":34.6405,"long":-79.5869},{"zip":"29596","city":"Wallace","state":"SC","lat":34.7307,"long":-79.8011},{"zip":"29518","city":"Cades","state":"SC","lat":33.7886,"long":-79.848},{"zip":"29554","city":"Hemingway","state":"SC","lat":33.7419,"long":-79.4489},{"zip":"29556","city":"Kingstree","state":"SC","lat":33.6878,"long":-79.7832},{"zip":"29564","city":"Lane","state":"SC","lat":33.5083,"long":-79.8715},{"zip":"29580","city":"Nesmith","state":"SC","lat":33.6625,"long":-79.5589},{"zip":"29590","city":"Salters","state":"SC","lat":33.5611,"long":-79.83}]
