[{"zip":"29702","city":"Blacksburg","state":"SC","lat":35.1095,"long":-81.4942},{"zip":"29706","city":"Chester","state":"SC","lat":34.7149,"long":-81.2186},{"zip":"29712","city":"Edgemoor","state":"SC","lat":34.797,"long":-80.9891},{"zip":"29714","city":"Fort Lawn","state":"SC","lat":34.7006,"long":-80.9092},{"zip":"29724","city":"Lando","state":"SC","lat":34.7763,"long":-81.0101},{"zip":"29729","city":"Richburg","state":"SC","lat":34.6822,"long":-80.9891},{"zip":"29709","city":"Chesterfield","state":"SC","lat":34.7278,"long":-80.0958},{"zip":"29718","city":"Jefferson","state":"SC","lat":34.6546,"long":-80.3639},{"zip":"29727","city":"Mount Croghan","state":"SC","lat":34.7439,"long":-80.2428},{"zip":"29728","city":"Pageland","state":"SC","lat":34.7722,"long":-80.3966},{"zip":"29741","city":"Ruby","state":"SC","lat":34.7379,"long":-80.191},{"zip":"29707","city":"Fort Mill","state":"SC","lat":34.9773,"long":-80.8584},{"zip":"29720","city":"Lancaster","state":"SC","lat":34.749,"long":-80.7616},{"zip":"29721","city":"Lancaster","state":"SC","lat":34.6994,"long":-80.7817},{"zip":"29722","city":"Lancaster","state":"SC","lat":34.7673,"long":-80.6589},{"zip":"29744","city":"Van Wyck","state":"SC","lat":34.8585,"long":-80.8459},{"zip":"29703","city":"Bowling Green","state":"SC","lat":35.1499,"long":-81.2123},{"zip":"29704","city":"Catawba","state":"SC","lat":34.8507,"long":-80.9342},{"zip":"29708","city":"Fort Mill","state":"SC","lat":35.0502,"long":-80.9908},{"zip":"29710","city":"Clover","state":"SC","lat":35.1065,"long":-81.2201},{"zip":"29715","city":"Fort Mill","state":"SC","lat":35.0108,"long":-80.9266},{"zip":"29716","city":"Fort Mill","state":"SC","lat":35.0074,"long":-80.9451},{"zip":"29717","city":"Hickory Grove","state":"SC","lat":34.9708,"long":-81.4306},{"zip":"29726","city":"Mc Connells","state":"SC","lat":34.8677,"long":-81.2368},{"zip":"29730","city":"Rock Hill","state":"SC","lat":34.9151,"long":-81.0129},{"zip":"29731","city":"Rock Hill","state":"SC","lat":34.9926,"long":-81.1787},{"zip":"29732","city":"Rock Hill","state":"SC","lat":34.9681,"long":-81.0489},{"zip":"29733","city":"Rock Hill","state":"SC","lat":34.9926,"long":-81.1787},{"zip":"29734","city":"Rock Hill","state":"SC","lat":34.9926,"long":-81.1787},{"zip":"29742","city":"Sharon","state":"SC","lat":34.9084,"long":-81.3729},{"zip":"29743","city":"Smyrna","state":"SC","lat":35.0308,"long":-81.3896},{"zip":"29745","city":"York","state":"SC","lat":34.9947,"long":-81.2245}]
