[{"zip":"29801","city":"Aiken","state":"SC","lat":33.553,"long":-81.7194},{"zip":"29802","city":"Aiken","state":"SC","lat":33.5604,"long":-81.7196},{"zip":"29803","city":"Aiken","state":"SC","lat":33.5059,"long":-81.6951},{"zip":"29804","city":"Aiken","state":"SC","lat":33.5377,"long":-81.5999},{"zip":"29805","city":"Aiken","state":"SC","lat":33.6993,"long":-81.6465},{"zip":"29808","city":"Aiken","state":"SC","lat":33.5377,"long":-81.5999},{"zip":"29809","city":"New Ellenton","state":"SC","lat":33.413,"long":-81.69},{"zip":"29816","city":"Bath","state":"SC","lat":33.5046,"long":-81.869},{"zip":"29822","city":"Clearwater","state":"SC","lat":33.4997,"long":-81.8649},{"zip":"29828","city":"Gloverville","state":"SC","lat":33.5182,"long":-81.8277},{"zip":"29829","city":"Graniteville","state":"SC","lat":33.563,"long":-81.8147},{"zip":"29831","city":"Jackson","state":"SC","lat":33.3389,"long":-81.7976},{"zip":"29834","city":"Langley","state":"SC","lat":33.5179,"long":-81.844},{"zip":"29839","city":"Montmorenci","state":"SC","lat":33.5073,"long":-81.5992},{"zip":"29841","city":"North Augusta","state":"SC","lat":33.5251,"long":-81.9394},{"zip":"29842","city":"Beech Island","state":"SC","lat":33.4707,"long":-81.8639},{"zip":"29850","city":"Vaucluse","state":"SC","lat":33.6126,"long":-81.8098},{"zip":"29851","city":"Warrenville","state":"SC","lat":33.526,"long":-81.7956},{"zip":"29856","city":"Windsor","state":"SC","lat":33.4674,"long":-81.5136},{"zip":"29860","city":"North Augusta","state":"SC","lat":33.6028,"long":-81.9748},{"zip":"29861","city":"North Augusta","state":"SC","lat":33.5018,"long":-81.9651},{"zip":"29810","city":"Allendale","state":"SC","lat":33.0077,"long":-81.3203},{"zip":"29827","city":"Fairfax","state":"SC","lat":32.9515,"long":-81.2586},{"zip":"29836","city":"Martin","state":"SC","lat":33.1093,"long":-81.5003},{"zip":"29846","city":"Sycamore","state":"SC","lat":33.0241,"long":-81.2258},{"zip":"29849","city":"Ulmer","state":"SC","lat":33.0988,"long":-81.2068},{"zip":"29843","city":"Olar","state":"SC","lat":33.1836,"long":-81.164},{"zip":"29812","city":"Barnwell","state":"SC","lat":33.2335,"long":-81.3523},{"zip":"29813","city":"Hilda","state":"SC","lat":33.2735,"long":-81.247},{"zip":"29817","city":"Blackville","state":"SC","lat":33.3645,"long":-81.2718},{"zip":"29826","city":"Elko","state":"SC","lat":33.3804,"long":-81.3796},{"zip":"29853","city":"Williston","state":"SC","lat":33.3926,"long":-81.4161},{"zip":"29824","city":"Edgefield","state":"SC","lat":33.8056,"long":-81.966},{"zip":"29832","city":"Johnston","state":"SC","lat":33.8231,"long":-81.7972},{"zip":"29847","city":"Trenton","state":"SC","lat":33.6938,"long":-81.8534},{"zip":"29819","city":"Bradley","state":"SC","lat":34.0326,"long":-82.2027},{"zip":"29848","city":"Troy","state":"SC","lat":33.9876,"long":-82.2979},{"zip":"29821","city":"Clarks Hill","state":"SC","lat":33.6505,"long":-82.1488},{"zip":"29835","city":"Mc Cormick","state":"SC","lat":33.9146,"long":-82.2719},{"zip":"29838","city":"Modoc","state":"SC","lat":33.7052,"long":-82.2187},{"zip":"29840","city":"Mount Carmel","state":"SC","lat":34.0065,"long":-82.5324},{"zip":"29844","city":"Parksville","state":"SC","lat":33.7854,"long":-82.2111},{"zip":"29845","city":"Plum Branch","state":"SC","lat":33.8329,"long":-82.248},{"zip":"29899","city":"Mc Cormick","state":"SC","lat":33.8356,"long":-82.32}]
