[{"zip":"29901","city":"Beaufort","state":"SC","lat":32.4244,"long":-80.5653},{"zip":"29902","city":"Beaufort","state":"SC","lat":32.4316,"long":-80.6698},{"zip":"29903","city":"Beaufort","state":"SC","lat":32.444,"long":-80.7352},{"zip":"29904","city":"Beaufort","state":"SC","lat":32.3906,"long":-80.661},{"zip":"29905","city":"Parris Island","state":"SC","lat":32.3281,"long":-80.6915},{"zip":"29906","city":"Beaufort","state":"SC","lat":32.3823,"long":-80.7603},{"zip":"29907","city":"Beaufort","state":"SC","lat":32.4316,"long":-80.6698},{"zip":"29910","city":"Bluffton","state":"SC","lat":32.2513,"long":-80.8721},{"zip":"29914","city":"Dale","state":"SC","lat":32.5527,"long":-80.677},{"zip":"29915","city":"Daufuskie Island","state":"SC","lat":32.1145,"long":-80.8686},{"zip":"29920","city":"Saint Helena Island","state":"SC","lat":32.3716,"long":-80.5383},{"zip":"29925","city":"Hilton Head Island","state":"SC","lat":32.2132,"long":-80.7997},{"zip":"29926","city":"Hilton Head Island","state":"SC","lat":32.2077,"long":-80.7476},{"zip":"29928","city":"Hilton Head Island","state":"SC","lat":32.1665,"long":-80.7569},{"zip":"29931","city":"Lobeco","state":"SC","lat":32.5527,"long":-80.7434},{"zip":"29935","city":"Port Royal","state":"SC","lat":32.3874,"long":-80.6844},{"zip":"29938","city":"Hilton Head Island","state":"SC","lat":32.3906,"long":-80.661},{"zip":"29940","city":"Seabrook","state":"SC","lat":32.5693,"long":-80.7192},{"zip":"29941","city":"Sheldon","state":"SC","lat":32.5431,"long":-80.8126},{"zip":"29929","city":"Islandton","state":"SC","lat":32.9503,"long":-80.8916},{"zip":"29911","city":"Brunson","state":"SC","lat":32.9413,"long":-81.1807},{"zip":"29913","city":"Crocketville","state":"SC","lat":32.9166,"long":-81.0773},{"zip":"29916","city":"Early Branch","state":"SC","lat":32.723,"long":-80.9634},{"zip":"29918","city":"Estill","state":"SC","lat":32.7375,"long":-81.2178},{"zip":"29921","city":"Furman","state":"SC","lat":32.6816,"long":-81.1882},{"zip":"29922","city":"Garnett","state":"SC","lat":32.6007,"long":-81.2396},{"zip":"29923","city":"Gifford","state":"SC","lat":32.8596,"long":-81.239},{"zip":"29924","city":"Hampton","state":"SC","lat":32.8729,"long":-81.0973},{"zip":"29932","city":"Luray","state":"SC","lat":32.8138,"long":-81.2398},{"zip":"29933","city":"Miley","state":"SC","lat":32.9479,"long":-81.0318},{"zip":"29939","city":"Scotia","state":"SC","lat":32.6786,"long":-81.2455},{"zip":"29944","city":"Varnville","state":"SC","lat":32.8349,"long":-81.0288},{"zip":"29945","city":"Yemassee","state":"SC","lat":32.643,"long":-80.8129},{"zip":"29909","city":"Okatie","state":"SC","lat":32.3301,"long":-80.8435},{"zip":"29912","city":"Coosawhatchie","state":"SC","lat":32.5888,"long":-80.9273},{"zip":"29927","city":"Hardeeville","state":"SC","lat":32.2635,"long":-81.0669},{"zip":"29934","city":"Pineland","state":"SC","lat":32.5931,"long":-81.1078},{"zip":"29936","city":"Ridgeland","state":"SC","lat":32.4807,"long":-80.9804},{"zip":"29943","city":"Tillman","state":"SC","lat":32.468,"long":-81.1667}]
