[{"zip":"30011","city":"Auburn","state":"GA","lat":34.0191,"long":-83.8261},{"zip":"30006","city":"Marietta","state":"GA","lat":33.9526,"long":-84.5499},{"zip":"30007","city":"Marietta","state":"GA","lat":33.9125,"long":-84.5572},{"zip":"30008","city":"Marietta","state":"GA","lat":33.8972,"long":-84.592},{"zip":"30060","city":"Marietta","state":"GA","lat":33.9382,"long":-84.5403},{"zip":"30061","city":"Marietta","state":"GA","lat":33.9328,"long":-84.556},{"zip":"30062","city":"Marietta","state":"GA","lat":34.0025,"long":-84.4633},{"zip":"30063","city":"Marietta","state":"GA","lat":33.9653,"long":-84.5112},{"zip":"30064","city":"Marietta","state":"GA","lat":33.9343,"long":-84.6076},{"zip":"30065","city":"Marietta","state":"GA","lat":33.9125,"long":-84.5572},{"zip":"30066","city":"Marietta","state":"GA","lat":34.0378,"long":-84.5038},{"zip":"30067","city":"Marietta","state":"GA","lat":33.9282,"long":-84.4733},{"zip":"30068","city":"Marietta","state":"GA","lat":33.9679,"long":-84.4385},{"zip":"30069","city":"Marietta","state":"GA","lat":33.9125,"long":-84.5572},{"zip":"30080","city":"Smyrna","state":"GA","lat":33.8796,"long":-84.5023},{"zip":"30081","city":"Smyrna","state":"GA","lat":33.8588,"long":-84.7106},{"zip":"30082","city":"Smyrna","state":"GA","lat":33.8631,"long":-84.5382},{"zip":"30090","city":"Marietta","state":"GA","lat":33.9525,"long":-84.5471},{"zip":"30002","city":"Avondale Estates","state":"GA","lat":33.7717,"long":-84.2607},{"zip":"30021","city":"Clarkston","state":"GA","lat":33.8101,"long":-84.2388},{"zip":"30030","city":"Decatur","state":"GA","lat":33.7699,"long":-84.295},{"zip":"30031","city":"Decatur","state":"GA","lat":33.7748,"long":-84.2963},{"zip":"30032","city":"Decatur","state":"GA","lat":33.7408,"long":-84.2632},{"zip":"30033","city":"Decatur","state":"GA","lat":33.8123,"long":-84.2819},{"zip":"30034","city":"Decatur","state":"GA","lat":33.6954,"long":-84.2489},{"zip":"30035","city":"Decatur","state":"GA","lat":33.7278,"long":-84.2143},{"zip":"30036","city":"Decatur","state":"GA","lat":33.7748,"long":-84.2963},{"zip":"30037","city":"Decatur","state":"GA","lat":33.7748,"long":-84.2963},{"zip":"30038","city":"Lithonia","state":"GA","lat":33.6823,"long":-84.161},{"zip":"30058","city":"Lithonia","state":"GA","lat":33.7356,"long":-84.1009},{"zip":"30072","city":"Pine Lake","state":"GA","lat":33.7906,"long":-84.2053},{"zip":"30074","city":"Redan","state":"GA","lat":33.7454,"long":-84.1316},{"zip":"30079","city":"Scottdale","state":"GA","lat":33.7934,"long":-84.2585},{"zip":"30083","city":"Stone Mountain","state":"GA","lat":33.7942,"long":-84.2018},{"zip":"30084","city":"Tucker","state":"GA","lat":33.857,"long":-84.216},{"zip":"30085","city":"Tucker","state":"GA","lat":33.8545,"long":-84.2171},{"zip":"30086","city":"Stone Mountain","state":"GA","lat":33.8913,"long":-84.0746},{"zip":"30087","city":"Stone Mountain","state":"GA","lat":33.8105,"long":-84.1361},{"zip":"30088","city":"Stone Mountain","state":"GA","lat":33.758,"long":-84.1802},{"zip":"30028","city":"Cumming","state":"GA","lat":34.2897,"long":-84.1796},{"zip":"30040","city":"Cumming","state":"GA","lat":34.2321,"long":-84.158},{"zip":"30041","city":"Cumming","state":"GA","lat":34.2037,"long":-84.1031},{"zip":"30004","city":"Alpharetta","state":"GA","lat":34.1124,"long":-84.302},{"zip":"30005","city":"Alpharetta","state":"GA","lat":34.0782,"long":-84.2281},{"zip":"30009","city":"Alpharetta","state":"GA","lat":34.077,"long":-84.3033},{"zip":"30022","city":"Alpharetta","state":"GA","lat":34.0268,"long":-84.2422},{"zip":"30023","city":"Alpharetta","state":"GA","lat":34.0754,"long":-84.2941},{"zip":"30075","city":"Roswell","state":"GA","lat":34.0408,"long":-84.3859},{"zip":"30076","city":"Roswell","state":"GA","lat":34.0213,"long":-84.3104},{"zip":"30077","city":"Roswell","state":"GA","lat":34.0232,"long":-84.3616},{"zip":"30003","city":"Norcross","state":"GA","lat":33.9604,"long":-84.0379},{"zip":"30010","city":"Norcross","state":"GA","lat":33.9604,"long":-84.0379},{"zip":"30017","city":"Grayson","state":"GA","lat":33.8901,"long":-83.9632},{"zip":"30019","city":"Dacula","state":"GA","lat":33.9883,"long":-83.8795},{"zip":"30024","city":"Suwanee","state":"GA","lat":34.0425,"long":-84.0262},{"zip":"30026","city":"North Metro","state":"GA","lat":33.9792,"long":-84.1263},{"zip":"30029","city":"North Metro","state":"GA","lat":33.9792,"long":-84.1263},{"zip":"30039","city":"Snellville","state":"GA","lat":33.8178,"long":-84.0229},{"zip":"30042","city":"Lawrenceville","state":"GA","lat":33.9295,"long":-84.1032},{"zip":"30043","city":"Lawrenceville","state":"GA","lat":34.0031,"long":-84.0126},{"zip":"30044","city":"Lawrenceville","state":"GA","lat":33.9418,"long":-84.0706},{"zip":"30045","city":"Lawrenceville","state":"GA","lat":33.9367,"long":-83.9573},{"zip":"30046","city":"Lawrenceville","state":"GA","lat":33.9496,"long":-83.9942},{"zip":"30047","city":"Lilburn","state":"GA","lat":33.8656,"long":-84.0725},{"zip":"30048","city":"Lilburn","state":"GA","lat":33.9604,"long":-84.0379},{"zip":"30049","city":"Lawrenceville","state":"GA","lat":33.9495,"long":-83.9922},{"zip":"30052","city":"Loganville","state":"GA","lat":33.8769,"long":-83.8968},{"zip":"30071","city":"Norcross","state":"GA","lat":33.9381,"long":-84.1972},{"zip":"30078","city":"Snellville","state":"GA","lat":33.8635,"long":-84.0081},{"zip":"30091","city":"Norcross","state":"GA","lat":33.9604,"long":-84.0379},{"zip":"30092","city":"Peachtree Corners","state":"GA","lat":33.9701,"long":-84.2216},{"zip":"30093","city":"Norcross","state":"GA","lat":33.906,"long":-84.184},{"zip":"30095","city":"Duluth","state":"GA","lat":34.0256,"long":-84.1304},{"zip":"30096","city":"Duluth","state":"GA","lat":33.9845,"long":-84.1529},{"zip":"30097","city":"Duluth","state":"GA","lat":34.026,"long":-84.147},{"zip":"30098","city":"Duluth","state":"GA","lat":33.9604,"long":-84.0379},{"zip":"30099","city":"Duluth","state":"GA","lat":33.9595,"long":-84.105},{"zip":"30055","city":"Mansfield","state":"GA","lat":33.4314,"long":-83.7908},{"zip":"30014","city":"Covington","state":"GA","lat":33.5293,"long":-83.8496},{"zip":"30015","city":"Covington","state":"GA","lat":33.5968,"long":-83.8602},{"zip":"30016","city":"Covington","state":"GA","lat":33.5146,"long":-83.8626},{"zip":"30054","city":"Oxford","state":"GA","lat":33.6706,"long":-83.874},{"zip":"30056","city":"Newborn","state":"GA","lat":33.5149,"long":-83.7072},{"zip":"30070","city":"Porterdale","state":"GA","lat":33.5712,"long":-83.8951},{"zip":"30012","city":"Conyers","state":"GA","lat":33.7192,"long":-84.0021},{"zip":"30013","city":"Conyers","state":"GA","lat":33.6436,"long":-83.9684},{"zip":"30094","city":"Conyers","state":"GA","lat":33.6111,"long":-84.0683},{"zip":"30018","city":"Jersey","state":"GA","lat":33.718,"long":-83.8015},{"zip":"30025","city":"Social Circle","state":"GA","lat":33.6791,"long":-83.6835}]
