[{"zip":"30103","city":"Adairsville","state":"GA","lat":34.3595,"long":-84.9176},{"zip":"30120","city":"Cartersville","state":"GA","lat":34.187,"long":-84.8204},{"zip":"30121","city":"Cartersville","state":"GA","lat":34.2079,"long":-84.7673},{"zip":"30123","city":"Cassville","state":"GA","lat":34.2442,"long":-84.8457},{"zip":"30137","city":"Emerson","state":"GA","lat":34.12,"long":-84.757},{"zip":"30145","city":"Kingston","state":"GA","lat":34.2501,"long":-84.9973},{"zip":"30171","city":"Rydal","state":"GA","lat":34.3379,"long":-84.7376},{"zip":"30178","city":"Taylorsville","state":"GA","lat":34.1229,"long":-84.9739},{"zip":"30184","city":"White","state":"GA","lat":34.2717,"long":-84.7383},{"zip":"30108","city":"Bowdon","state":"GA","lat":33.5373,"long":-85.2533},{"zip":"30109","city":"Bowdon Junction","state":"GA","lat":33.6534,"long":-85.1362},{"zip":"30112","city":"Carrollton","state":"GA","lat":33.5809,"long":-85.0792},{"zip":"30116","city":"Carrollton","state":"GA","lat":33.6045,"long":-85.0499},{"zip":"30117","city":"Carrollton","state":"GA","lat":33.5798,"long":-85.0812},{"zip":"30118","city":"Carrollton","state":"GA","lat":33.5712,"long":-85.0961},{"zip":"30119","city":"Carrollton","state":"GA","lat":33.6189,"long":-85.0736},{"zip":"30150","city":"Mount Zion","state":"GA","lat":33.643,"long":-85.1818},{"zip":"30170","city":"Roopville","state":"GA","lat":33.4322,"long":-85.1671},{"zip":"30179","city":"Temple","state":"GA","lat":33.7677,"long":-85.0133},{"zip":"30180","city":"Villa Rica","state":"GA","lat":33.7173,"long":-84.9297},{"zip":"30185","city":"Whitesburg","state":"GA","lat":33.5111,"long":-84.9254},{"zip":"30107","city":"Ball Ground","state":"GA","lat":34.3393,"long":-84.3758},{"zip":"30114","city":"Canton","state":"GA","lat":34.2505,"long":-84.4909},{"zip":"30115","city":"Canton","state":"GA","lat":34.1993,"long":-84.4199},{"zip":"30142","city":"Holly Springs","state":"GA","lat":34.174,"long":-84.5013},{"zip":"30146","city":"Lebanon","state":"GA","lat":34.2429,"long":-84.4583},{"zip":"30151","city":"Nelson","state":"GA","lat":34.382,"long":-84.371},{"zip":"30169","city":"Canton","state":"GA","lat":34.234,"long":-84.4904},{"zip":"30183","city":"Waleska","state":"GA","lat":34.3217,"long":-84.562},{"zip":"30188","city":"Woodstock","state":"GA","lat":34.106,"long":-84.5117},{"zip":"30189","city":"Woodstock","state":"GA","lat":34.1281,"long":-84.5717},{"zip":"30101","city":"Acworth","state":"GA","lat":34.0756,"long":-84.6477},{"zip":"30102","city":"Acworth","state":"GA","lat":34.0707,"long":-84.5894},{"zip":"30106","city":"Austell","state":"GA","lat":33.8369,"long":-84.6307},{"zip":"30111","city":"Clarkdale","state":"GA","lat":33.9125,"long":-84.5572},{"zip":"30126","city":"Mableton","state":"GA","lat":33.8332,"long":-84.6031},{"zip":"30127","city":"Powder Springs","state":"GA","lat":33.9135,"long":-84.6859},{"zip":"30144","city":"Kennesaw","state":"GA","lat":34.0287,"long":-84.6047},{"zip":"30152","city":"Kennesaw","state":"GA","lat":33.9951,"long":-84.6544},{"zip":"30156","city":"Kennesaw","state":"GA","lat":34.0177,"long":-84.625},{"zip":"30160","city":"Kennesaw","state":"GA","lat":34.0177,"long":-84.625},{"zip":"30168","city":"Austell","state":"GA","lat":33.7838,"long":-84.5952},{"zip":"30122","city":"Lithia Springs","state":"GA","lat":33.7655,"long":-84.6469},{"zip":"30133","city":"Douglasville","state":"GA","lat":33.6897,"long":-84.7446},{"zip":"30134","city":"Douglasville","state":"GA","lat":33.7606,"long":-84.7477},{"zip":"30135","city":"Douglasville","state":"GA","lat":33.6989,"long":-84.7454},{"zip":"30154","city":"Douglasville","state":"GA","lat":33.7515,"long":-84.7477},{"zip":"30187","city":"Winston","state":"GA","lat":33.6634,"long":-84.8639},{"zip":"30105","city":"Armuchee","state":"GA","lat":34.4411,"long":-85.1843},{"zip":"30124","city":"Cave Spring","state":"GA","lat":34.1167,"long":-85.3379},{"zip":"30129","city":"Coosa","state":"GA","lat":34.3333,"long":-85.2337},{"zip":"30147","city":"Lindale","state":"GA","lat":34.1707,"long":-85.1825},{"zip":"30149","city":"Mount Berry","state":"GA","lat":34.2804,"long":-85.1821},{"zip":"30161","city":"Rome","state":"GA","lat":34.2507,"long":-85.1465},{"zip":"30162","city":"Rome","state":"GA","lat":34.2905,"long":-85.2138},{"zip":"30163","city":"Rome","state":"GA","lat":34.3333,"long":-85.2337},{"zip":"30164","city":"Rome","state":"GA","lat":34.3333,"long":-85.2337},{"zip":"30165","city":"Rome","state":"GA","lat":34.2837,"long":-85.2231},{"zip":"30172","city":"Shannon","state":"GA","lat":34.3333,"long":-85.2337},{"zip":"30173","city":"Silver Creek","state":"GA","lat":34.1593,"long":-85.1429},{"zip":"30139","city":"Fairmount","state":"GA","lat":34.4362,"long":-84.6999},{"zip":"30110","city":"Bremen","state":"GA","lat":33.7309,"long":-85.1286},{"zip":"30113","city":"Buchanan","state":"GA","lat":33.8283,"long":-85.1506},{"zip":"30140","city":"Felton","state":"GA","lat":33.8823,"long":-85.2349},{"zip":"30176","city":"Tallapoosa","state":"GA","lat":33.7602,"long":-85.3},{"zip":"30182","city":"Waco","state":"GA","lat":33.684,"long":-85.2197},{"zip":"30132","city":"Dallas","state":"GA","lat":33.9163,"long":-84.8278},{"zip":"30141","city":"Hiram","state":"GA","lat":33.8673,"long":-84.7699},{"zip":"30157","city":"Dallas","state":"GA","lat":33.9045,"long":-84.8621},{"zip":"30143","city":"Jasper","state":"GA","lat":34.462,"long":-84.4759},{"zip":"30148","city":"Marble Hill","state":"GA","lat":34.4398,"long":-84.303},{"zip":"30175","city":"Talking Rock","state":"GA","lat":34.5394,"long":-84.4912},{"zip":"30177","city":"Tate","state":"GA","lat":34.4027,"long":-84.3785},{"zip":"30104","city":"Aragon","state":"GA","lat":34.0666,"long":-85.0696},{"zip":"30125","city":"Cedartown","state":"GA","lat":34.0112,"long":-85.2459},{"zip":"30138","city":"Esom Hill","state":"GA","lat":33.949,"long":-85.3877},{"zip":"30153","city":"Rockmart","state":"GA","lat":33.9979,"long":-85.0594}]
