[{"zip":"30415","city":"Brooklet","state":"GA","lat":32.294,"long":-81.628},{"zip":"30450","city":"Portal","state":"GA","lat":32.555,"long":-81.9123},{"zip":"30452","city":"Register","state":"GA","lat":32.3382,"long":-81.8728},{"zip":"30458","city":"Statesboro","state":"GA","lat":32.4408,"long":-81.774},{"zip":"30459","city":"Statesboro","state":"GA","lat":32.447,"long":-81.7777},{"zip":"30460","city":"Statesboro","state":"GA","lat":32.4179,"long":-81.7823},{"zip":"30461","city":"Statesboro","state":"GA","lat":32.45,"long":-81.7158},{"zip":"30426","city":"Girard","state":"GA","lat":33.0437,"long":-81.7106},{"zip":"30441","city":"Midville","state":"GA","lat":32.8638,"long":-82.2042},{"zip":"30456","city":"Sardis","state":"GA","lat":32.9809,"long":-81.773},{"zip":"30439","city":"Metter","state":"GA","lat":32.401,"long":-82.0607},{"zip":"30451","city":"Pulaski","state":"GA","lat":32.4143,"long":-82.0867},{"zip":"30401","city":"Swainsboro","state":"GA","lat":32.5699,"long":-82.3462},{"zip":"30425","city":"Garfield","state":"GA","lat":32.6549,"long":-82.1002},{"zip":"30447","city":"Norristown","state":"GA","lat":32.5041,"long":-82.4848},{"zip":"30448","city":"Nunez","state":"GA","lat":32.4759,"long":-82.3726},{"zip":"30464","city":"Stillmore","state":"GA","lat":32.4459,"long":-82.2587},{"zip":"30471","city":"Twin City","state":"GA","lat":32.6129,"long":-82.1979},{"zip":"30414","city":"Bellville","state":"GA","lat":32.1524,"long":-81.9743},{"zip":"30417","city":"Claxton","state":"GA","lat":32.165,"long":-81.908},{"zip":"30423","city":"Daisy","state":"GA","lat":32.1519,"long":-81.8346},{"zip":"30429","city":"Hagan","state":"GA","lat":32.156,"long":-81.9337},{"zip":"30413","city":"Bartow","state":"GA","lat":32.8632,"long":-82.4708},{"zip":"30434","city":"Louisville","state":"GA","lat":33.0163,"long":-82.3836},{"zip":"30477","city":"Wadley","state":"GA","lat":32.8747,"long":-82.4025},{"zip":"30442","city":"Millen","state":"GA","lat":32.7877,"long":-81.9618},{"zip":"30454","city":"Rockledge","state":"GA","lat":32.3915,"long":-82.7479},{"zip":"30410","city":"Ailey","state":"GA","lat":32.2143,"long":-82.4762},{"zip":"30412","city":"Alston","state":"GA","lat":32.0775,"long":-82.4825},{"zip":"30445","city":"Mount Vernon","state":"GA","lat":32.184,"long":-82.5867},{"zip":"30470","city":"Tarrytown","state":"GA","lat":32.3188,"long":-82.5593},{"zip":"30473","city":"Uvalda","state":"GA","lat":32.0483,"long":-82.5089},{"zip":"30424","city":"Dover","state":"GA","lat":32.5771,"long":-81.7151},{"zip":"30446","city":"Newington","state":"GA","lat":32.581,"long":-81.4826},{"zip":"30449","city":"Oliver","state":"GA","lat":32.5281,"long":-81.5332},{"zip":"30455","city":"Rocky Ford","state":"GA","lat":32.723,"long":-81.7933},{"zip":"30467","city":"Sylvania","state":"GA","lat":32.7439,"long":-81.6287},{"zip":"30420","city":"Cobbtown","state":"GA","lat":32.2642,"long":-82.1333},{"zip":"30421","city":"Collins","state":"GA","lat":32.1852,"long":-82.1095},{"zip":"30427","city":"Glennville","state":"GA","lat":31.9467,"long":-81.9483},{"zip":"30438","city":"Manassas","state":"GA","lat":32.0507,"long":-81.9983},{"zip":"30453","city":"Reidsville","state":"GA","lat":32.0548,"long":-82.1478},{"zip":"30499","city":"Reidsville","state":"GA","lat":32.0869,"long":-82.1179},{"zip":"30436","city":"Lyons","state":"GA","lat":32.1711,"long":-82.3078},{"zip":"30474","city":"Vidalia","state":"GA","lat":32.1934,"long":-82.4067},{"zip":"30475","city":"Vidalia","state":"GA","lat":32.1775,"long":-82.3739},{"zip":"30457","city":"Soperton","state":"GA","lat":32.3869,"long":-82.5871},{"zip":"30411","city":"Alamo","state":"GA","lat":32.133,"long":-82.7944},{"zip":"30428","city":"Glenwood","state":"GA","lat":32.1572,"long":-82.6759}]
