[{"zip":"30511","city":"Baldwin","state":"GA","lat":34.4574,"long":-83.476},{"zip":"30547","city":"Homer","state":"GA","lat":34.3563,"long":-83.4974},{"zip":"30558","city":"Maysville","state":"GA","lat":34.2529,"long":-83.5616},{"zip":"30534","city":"Dawsonville","state":"GA","lat":34.4537,"long":-84.155},{"zip":"30513","city":"Blue Ridge","state":"GA","lat":34.8555,"long":-84.3281},{"zip":"30541","city":"Epworth","state":"GA","lat":34.9129,"long":-84.5391},{"zip":"30555","city":"Mc Caysville","state":"GA","lat":34.9739,"long":-84.4291},{"zip":"30559","city":"Mineral Bluff","state":"GA","lat":34.9341,"long":-84.2541},{"zip":"30560","city":"Morganton","state":"GA","lat":34.8714,"long":-84.2115},{"zip":"30520","city":"Canon","state":"GA","lat":34.3478,"long":-83.1267},{"zip":"30521","city":"Carnesville","state":"GA","lat":34.3631,"long":-83.2547},{"zip":"30553","city":"Lavonia","state":"GA","lat":34.4528,"long":-83.113},{"zip":"30522","city":"Cherry Log","state":"GA","lat":34.7804,"long":-84.3908},{"zip":"30536","city":"Ellijay","state":"GA","lat":34.655,"long":-84.3554},{"zip":"30539","city":"East Ellijay","state":"GA","lat":34.684,"long":-84.4727},{"zip":"30540","city":"Ellijay","state":"GA","lat":34.6775,"long":-84.4812},{"zip":"30515","city":"Buford","state":"GA","lat":33.9604,"long":-84.0379},{"zip":"30518","city":"Buford","state":"GA","lat":34.1124,"long":-83.9965},{"zip":"30519","city":"Buford","state":"GA","lat":34.0797,"long":-83.9308},{"zip":"30510","city":"Alto","state":"GA","lat":34.4591,"long":-83.602},{"zip":"30523","city":"Clarkesville","state":"GA","lat":34.645,"long":-83.5243},{"zip":"30531","city":"Cornelia","state":"GA","lat":34.5209,"long":-83.5453},{"zip":"30535","city":"Demorest","state":"GA","lat":34.5756,"long":-83.5696},{"zip":"30563","city":"Mount Airy","state":"GA","lat":34.5678,"long":-83.4713},{"zip":"30580","city":"Turnerville","state":"GA","lat":34.6766,"long":-83.4358},{"zip":"30501","city":"Gainesville","state":"GA","lat":34.3073,"long":-83.8256},{"zip":"30502","city":"Chestnut Mountain","state":"GA","lat":34.213,"long":-83.7949},{"zip":"30503","city":"Gainesville","state":"GA","lat":34.3454,"long":-83.9505},{"zip":"30504","city":"Gainesville","state":"GA","lat":34.2723,"long":-83.8793},{"zip":"30506","city":"Gainesville","state":"GA","lat":34.3562,"long":-83.8882},{"zip":"30507","city":"Gainesville","state":"GA","lat":34.2591,"long":-83.7716},{"zip":"30527","city":"Clermont","state":"GA","lat":34.4761,"long":-83.7853},{"zip":"30542","city":"Flowery Branch","state":"GA","lat":34.1819,"long":-83.9024},{"zip":"30543","city":"Gillsville","state":"GA","lat":34.3001,"long":-83.6757},{"zip":"30554","city":"Lula","state":"GA","lat":34.3876,"long":-83.6663},{"zip":"30564","city":"Murrayville","state":"GA","lat":34.4342,"long":-83.8949},{"zip":"30566","city":"Oakwood","state":"GA","lat":34.2372,"long":-83.894},{"zip":"30516","city":"Bowersville","state":"GA","lat":34.3996,"long":-83.0484},{"zip":"30517","city":"Braselton","state":"GA","lat":34.1389,"long":-83.7812},{"zip":"30529","city":"Commerce","state":"GA","lat":34.2134,"long":-83.448},{"zip":"30530","city":"Commerce","state":"GA","lat":34.1683,"long":-83.4022},{"zip":"30548","city":"Hoschton","state":"GA","lat":34.0866,"long":-83.7803},{"zip":"30549","city":"Jefferson","state":"GA","lat":34.1062,"long":-83.5708},{"zip":"30565","city":"Nicholson","state":"GA","lat":34.097,"long":-83.421},{"zip":"30567","city":"Pendergrass","state":"GA","lat":34.1796,"long":-83.6634},{"zip":"30575","city":"Talmo","state":"GA","lat":34.1951,"long":-83.7187},{"zip":"30599","city":"Commerce","state":"GA","lat":34.204,"long":-83.4571},{"zip":"30533","city":"Dahlonega","state":"GA","lat":34.5299,"long":-83.9798},{"zip":"30597","city":"Dahlonega","state":"GA","lat":34.5277,"long":-83.9809},{"zip":"30525","city":"Clayton","state":"GA","lat":34.8826,"long":-83.4065},{"zip":"30537","city":"Dillard","state":"GA","lat":34.9777,"long":-83.3199},{"zip":"30552","city":"Lakemont","state":"GA","lat":34.7617,"long":-83.4038},{"zip":"30562","city":"Mountain City","state":"GA","lat":34.9181,"long":-83.3854},{"zip":"30568","city":"Rabun Gap","state":"GA","lat":34.9576,"long":-83.3901},{"zip":"30573","city":"Tallulah Falls","state":"GA","lat":34.742,"long":-83.3977},{"zip":"30576","city":"Tiger","state":"GA","lat":34.8174,"long":-83.4333},{"zip":"30581","city":"Wiley","state":"GA","lat":34.8045,"long":-83.4191},{"zip":"30538","city":"Eastanollee","state":"GA","lat":34.5037,"long":-83.2587},{"zip":"30557","city":"Martin","state":"GA","lat":34.487,"long":-83.1849},{"zip":"30577","city":"Toccoa","state":"GA","lat":34.5665,"long":-83.3114},{"zip":"30598","city":"Toccoa Falls","state":"GA","lat":34.5942,"long":-83.3557},{"zip":"30546","city":"Hiawassee","state":"GA","lat":34.9063,"long":-83.7274},{"zip":"30582","city":"Young Harris","state":"GA","lat":34.9588,"long":-83.8688},{"zip":"30512","city":"Blairsville","state":"GA","lat":34.8763,"long":-83.992},{"zip":"30514","city":"Blairsville","state":"GA","lat":34.8762,"long":-83.9582},{"zip":"30572","city":"Suches","state":"GA","lat":34.7253,"long":-84.0496},{"zip":"30528","city":"Cleveland","state":"GA","lat":34.5839,"long":-83.75},{"zip":"30545","city":"Helen","state":"GA","lat":34.6866,"long":-83.7399},{"zip":"30571","city":"Sautee Nacoochee","state":"GA","lat":34.7162,"long":-83.6931}]
