[{"zip":"30726","city":"Graysville","state":"GA","lat":34.9765,"long":-85.1413},{"zip":"30736","city":"Ringgold","state":"GA","lat":34.9205,"long":-85.1549},{"zip":"30742","city":"Fort Oglethorpe","state":"GA","lat":34.9506,"long":-85.2432},{"zip":"30730","city":"Lyerly","state":"GA","lat":34.403,"long":-85.4038},{"zip":"30731","city":"Menlo","state":"GA","lat":34.5864,"long":-85.4774},{"zip":"30747","city":"Summerville","state":"GA","lat":34.4859,"long":-85.3362},{"zip":"30753","city":"Trion","state":"GA","lat":34.5468,"long":-85.3112},{"zip":"30738","city":"Rising Fawn","state":"GA","lat":34.8139,"long":-85.5019},{"zip":"30752","city":"Trenton","state":"GA","lat":34.9017,"long":-85.5171},{"zip":"30757","city":"Wildwood","state":"GA","lat":34.9779,"long":-85.4305},{"zip":"30701","city":"Calhoun","state":"GA","lat":34.4965,"long":-84.9345},{"zip":"30703","city":"Calhoun","state":"GA","lat":34.5026,"long":-84.9511},{"zip":"30732","city":"Oakman","state":"GA","lat":34.569,"long":-84.7119},{"zip":"30733","city":"Plainville","state":"GA","lat":34.4145,"long":-85.0312},{"zip":"30734","city":"Ranger","state":"GA","lat":34.5404,"long":-84.727},{"zip":"30735","city":"Resaca","state":"GA","lat":34.5833,"long":-84.9068},{"zip":"30746","city":"Sugar Valley","state":"GA","lat":34.5519,"long":-85.026},{"zip":"30705","city":"Chatsworth","state":"GA","lat":34.7589,"long":-84.7943},{"zip":"30708","city":"Cisco","state":"GA","lat":34.9618,"long":-84.6646},{"zip":"30711","city":"Crandall","state":"GA","lat":34.9412,"long":-84.7645},{"zip":"30724","city":"Eton","state":"GA","lat":34.8251,"long":-84.7633},{"zip":"30751","city":"Tennga","state":"GA","lat":34.9814,"long":-84.7352},{"zip":"30707","city":"Chickamauga","state":"GA","lat":34.858,"long":-85.3221},{"zip":"30725","city":"Flintstone","state":"GA","lat":34.9252,"long":-85.3524},{"zip":"30728","city":"La Fayette","state":"GA","lat":34.692,"long":-85.2602},{"zip":"30739","city":"Rock Spring","state":"GA","lat":34.8065,"long":-85.2415},{"zip":"30741","city":"Rossville","state":"GA","lat":34.9535,"long":-85.2968},{"zip":"30750","city":"Lookout Mountain","state":"GA","lat":34.9335,"long":-85.3794},{"zip":"30710","city":"Cohutta","state":"GA","lat":34.9326,"long":-84.9458},{"zip":"30719","city":"Dalton","state":"GA","lat":34.7698,"long":-84.9702},{"zip":"30720","city":"Dalton","state":"GA","lat":34.7635,"long":-84.9875},{"zip":"30721","city":"Dalton","state":"GA","lat":34.7792,"long":-84.9339},{"zip":"30722","city":"Dalton","state":"GA","lat":34.7595,"long":-84.9513},{"zip":"30740","city":"Rocky Face","state":"GA","lat":34.7745,"long":-85.0561},{"zip":"30755","city":"Tunnel Hill","state":"GA","lat":34.8541,"long":-85.0468},{"zip":"30756","city":"Varnell","state":"GA","lat":34.9298,"long":-84.9885}]
