[{"zip":"30811","city":"Gough","state":"GA","lat":33.0918,"long":-82.2265},{"zip":"30816","city":"Keysville","state":"GA","lat":33.1719,"long":-82.1834},{"zip":"30830","city":"Waynesboro","state":"GA","lat":33.1013,"long":-81.9908},{"zip":"30802","city":"Appling","state":"GA","lat":33.6271,"long":-82.2856},{"zip":"30809","city":"Evans","state":"GA","lat":33.5412,"long":-82.1398},{"zip":"30813","city":"Grovetown","state":"GA","lat":33.4504,"long":-82.1982},{"zip":"30814","city":"Harlem","state":"GA","lat":33.417,"long":-82.3097},{"zip":"30810","city":"Gibson","state":"GA","lat":33.2471,"long":-82.5766},{"zip":"30820","city":"Mitchell","state":"GA","lat":33.2052,"long":-82.6817},{"zip":"30803","city":"Avera","state":"GA","lat":33.141,"long":-82.515},{"zip":"30818","city":"Matthews","state":"GA","lat":33.2652,"long":-82.3294},{"zip":"30823","city":"Stapleton","state":"GA","lat":33.1894,"long":-82.4597},{"zip":"30833","city":"Wrens","state":"GA","lat":33.2104,"long":-82.381},{"zip":"30822","city":"Perkins","state":"GA","lat":32.9129,"long":-81.8538},{"zip":"30817","city":"Lincolnton","state":"GA","lat":33.7773,"long":-82.4435},{"zip":"30806","city":"Boneville","state":"GA","lat":33.528,"long":-82.5104},{"zip":"30808","city":"Dearing","state":"GA","lat":33.407,"long":-82.3955},{"zip":"30824","city":"Thomson","state":"GA","lat":33.4774,"long":-82.4942},{"zip":"30805","city":"Blythe","state":"GA","lat":33.2941,"long":-82.203},{"zip":"30812","city":"Gracewood","state":"GA","lat":33.386,"long":-82.091},{"zip":"30815","city":"Hephzibah","state":"GA","lat":33.3433,"long":-82.0887},{"zip":"30807","city":"Camak","state":"GA","lat":33.4535,"long":-82.646},{"zip":"30819","city":"Mesena","state":"GA","lat":33.4599,"long":-82.5901},{"zip":"30821","city":"Norwood","state":"GA","lat":33.4789,"long":-82.7356},{"zip":"30828","city":"Warrenton","state":"GA","lat":33.4091,"long":-82.6357}]
