[{"zip":"31034","city":"Hardwick","state":"GA","lat":33.0227,"long":-83.247},{"zip":"31059","city":"Milledgeville","state":"GA","lat":33.0846,"long":-83.238},{"zip":"31061","city":"Milledgeville","state":"GA","lat":33.08,"long":-83.2379},{"zip":"31062","city":"Milledgeville","state":"GA","lat":33.0491,"long":-83.2174},{"zip":"31052","city":"Lizella","state":"GA","lat":32.7773,"long":-83.825},{"zip":"31014","city":"Cochran","state":"GA","lat":32.3981,"long":-83.3229},{"zip":"31050","city":"Knoxville","state":"GA","lat":32.7243,"long":-83.9977},{"zip":"31066","city":"Musella","state":"GA","lat":32.8202,"long":-84.0456},{"zip":"31078","city":"Roberta","state":"GA","lat":32.7222,"long":-84.0451},{"zip":"31010","city":"Cordele","state":"GA","lat":31.9172,"long":-83.7854},{"zip":"31015","city":"Cordele","state":"GA","lat":31.9566,"long":-83.7835},{"zip":"31011","city":"Chauncey","state":"GA","lat":32.1046,"long":-83.0646},{"zip":"31012","city":"Chester","state":"GA","lat":32.3982,"long":-83.174},{"zip":"31023","city":"Eastman","state":"GA","lat":32.2084,"long":-83.186},{"zip":"31077","city":"Rhine","state":"GA","lat":31.938,"long":-83.1837},{"zip":"31007","city":"Byromville","state":"GA","lat":32.189,"long":-83.9332},{"zip":"31051","city":"Lilly","state":"GA","lat":32.1471,"long":-83.8774},{"zip":"31063","city":"Montezuma","state":"GA","lat":32.3026,"long":-84.0041},{"zip":"31070","city":"Pinehurst","state":"GA","lat":32.1967,"long":-83.7209},{"zip":"31091","city":"Unadilla","state":"GA","lat":32.2558,"long":-83.7447},{"zip":"31092","city":"Vienna","state":"GA","lat":32.0913,"long":-83.7922},{"zip":"31002","city":"Adrian","state":"GA","lat":32.5635,"long":-82.5695},{"zip":"31087","city":"Sparta","state":"GA","lat":33.2571,"long":-83.0892},{"zip":"31005","city":"Bonaire","state":"GA","lat":32.546,"long":-83.6047},{"zip":"31013","city":"Clinchfield","state":"GA","lat":32.3386,"long":-83.6926},{"zip":"31025","city":"Elko","state":"GA","lat":32.3336,"long":-83.7304},{"zip":"31028","city":"Centerville","state":"GA","lat":32.6344,"long":-83.6768},{"zip":"31047","city":"Kathleen","state":"GA","lat":32.4672,"long":-83.6128},{"zip":"31069","city":"Perry","state":"GA","lat":32.4605,"long":-83.7283},{"zip":"31088","city":"Warner Robins","state":"GA","lat":32.5934,"long":-83.6416},{"zip":"31093","city":"Warner Robins","state":"GA","lat":32.6368,"long":-83.6395},{"zip":"31095","city":"Warner Robins","state":"GA","lat":32.4874,"long":-83.6697},{"zip":"31098","city":"Warner Robins","state":"GA","lat":32.6181,"long":-83.5739},{"zip":"31099","city":"Warner Robins","state":"GA","lat":32.6462,"long":-83.6513},{"zip":"31038","city":"Hillsboro","state":"GA","lat":33.1421,"long":-83.6404},{"zip":"31064","city":"Monticello","state":"GA","lat":33.3118,"long":-83.714},{"zip":"31085","city":"Shady Dale","state":"GA","lat":33.435,"long":-83.6269},{"zip":"31049","city":"Kite","state":"GA","lat":32.7078,"long":-82.5274},{"zip":"31096","city":"Wrightsville","state":"GA","lat":32.7219,"long":-82.7262},{"zip":"31032","city":"Gray","state":"GA","lat":33.0172,"long":-83.54},{"zip":"31033","city":"Haddock","state":"GA","lat":33.0519,"long":-83.4312},{"zip":"31009","city":"Cadwell","state":"GA","lat":32.3174,"long":-83.0268},{"zip":"31019","city":"Dexter","state":"GA","lat":32.4356,"long":-83.0528},{"zip":"31021","city":"Dublin","state":"GA","lat":32.4593,"long":-82.9381},{"zip":"31022","city":"Dudley","state":"GA","lat":32.5259,"long":-83.0899},{"zip":"31027","city":"East Dublin","state":"GA","lat":32.5482,"long":-82.8718},{"zip":"31040","city":"Dublin","state":"GA","lat":32.5401,"long":-82.915},{"zip":"31065","city":"Montrose","state":"GA","lat":32.5619,"long":-83.1601},{"zip":"31075","city":"Rentz","state":"GA","lat":32.3799,"long":-82.967},{"zip":"31041","city":"Ideal","state":"GA","lat":32.3696,"long":-84.188},{"zip":"31057","city":"Marshallville","state":"GA","lat":32.452,"long":-83.9435},{"zip":"31068","city":"Oglethorpe","state":"GA","lat":32.2842,"long":-84.083},{"zip":"31004","city":"Bolingbroke","state":"GA","lat":32.947,"long":-83.8006},{"zip":"31016","city":"Culloden","state":"GA","lat":32.9003,"long":-84.0626},{"zip":"31029","city":"Forsyth","state":"GA","lat":33.0508,"long":-83.9362},{"zip":"31046","city":"Juliette","state":"GA","lat":33.1194,"long":-83.8235},{"zip":"31086","city":"Smarr","state":"GA","lat":32.9895,"long":-83.8761},{"zip":"31008","city":"Byron","state":"GA","lat":32.6181,"long":-83.789},{"zip":"31030","city":"Fort Valley","state":"GA","lat":32.5496,"long":-83.8887},{"zip":"31036","city":"Hawkinsville","state":"GA","lat":32.2778,"long":-83.4948},{"zip":"31024","city":"Eatonton","state":"GA","lat":33.3127,"long":-83.3628},{"zip":"31026","city":"Eatonton","state":"GA","lat":33.3304,"long":-83.377},{"zip":"31006","city":"Butler","state":"GA","lat":32.5726,"long":-84.2343},{"zip":"31039","city":"Howard","state":"GA","lat":32.5598,"long":-84.2277},{"zip":"31058","city":"Mauk","state":"GA","lat":32.509,"long":-84.3999},{"zip":"31076","city":"Reynolds","state":"GA","lat":32.5541,"long":-84.1011},{"zip":"31081","city":"Rupert","state":"GA","lat":32.4325,"long":-84.2738},{"zip":"31037","city":"Mc Rae Helena","state":"GA","lat":32.8258,"long":-83.5143},{"zip":"31055","city":"Mc Rae Helena","state":"GA","lat":32.6195,"long":-83.8814},{"zip":"31060","city":"Milan","state":"GA","lat":31.9618,"long":-83.0588},{"zip":"31083","city":"Scotland","state":"GA","lat":32.0488,"long":-82.8171},{"zip":"31017","city":"Danville","state":"GA","lat":32.6057,"long":-83.2454},{"zip":"31020","city":"Dry Branch","state":"GA","lat":32.7151,"long":-83.4558},{"zip":"31044","city":"Jeffersonville","state":"GA","lat":32.7411,"long":-83.3859},{"zip":"31097","city":"Yatesville","state":"GA","lat":32.9156,"long":-84.1593},{"zip":"31045","city":"Jewell","state":"GA","lat":33.2963,"long":-82.7774},{"zip":"31018","city":"Davisboro","state":"GA","lat":32.9443,"long":-82.6227},{"zip":"31035","city":"Harrison","state":"GA","lat":32.842,"long":-82.7159},{"zip":"31067","city":"Oconee","state":"GA","lat":32.8554,"long":-82.9499},{"zip":"31082","city":"Sandersville","state":"GA","lat":32.975,"long":-82.8406},{"zip":"31089","city":"Tennille","state":"GA","lat":32.9063,"long":-82.84},{"zip":"31094","city":"Warthen","state":"GA","lat":33.1255,"long":-82.8039},{"zip":"31001","city":"Abbeville","state":"GA","lat":31.9648,"long":-83.3068},{"zip":"31071","city":"Pineview","state":"GA","lat":32.0907,"long":-83.5158},{"zip":"31072","city":"Pitts","state":"GA","lat":31.9425,"long":-83.5579},{"zip":"31079","city":"Rochelle","state":"GA","lat":31.9491,"long":-83.445},{"zip":"31084","city":"Seville","state":"GA","lat":31.9605,"long":-83.601},{"zip":"31003","city":"Allentown","state":"GA","lat":32.6064,"long":-83.2095},{"zip":"31031","city":"Gordon","state":"GA","lat":32.8813,"long":-83.3029},{"zip":"31042","city":"Irwinton","state":"GA","lat":32.8088,"long":-83.174},{"zip":"31054","city":"Mc Intyre","state":"GA","lat":32.8468,"long":-83.204},{"zip":"31090","city":"Toomsboro","state":"GA","lat":32.8219,"long":-83.0844}]
