[{"zip":"31201","city":"Macon","state":"GA","lat":32.8095,"long":-83.6168},{"zip":"31202","city":"Macon","state":"GA","lat":32.8407,"long":-83.6324},{"zip":"31203","city":"Macon","state":"GA","lat":32.8067,"long":-83.6913},{"zip":"31204","city":"Macon","state":"GA","lat":32.8424,"long":-83.6766},{"zip":"31205","city":"Macon","state":"GA","lat":32.8067,"long":-83.6913},{"zip":"31206","city":"Macon","state":"GA","lat":32.7914,"long":-83.679},{"zip":"31207","city":"Macon","state":"GA","lat":32.8304,"long":-83.6486},{"zip":"31208","city":"Macon","state":"GA","lat":32.8067,"long":-83.6913},{"zip":"31209","city":"Macon","state":"GA","lat":32.8067,"long":-83.6913},{"zip":"31210","city":"Macon","state":"GA","lat":32.8926,"long":-83.7455},{"zip":"31211","city":"Macon","state":"GA","lat":32.8869,"long":-83.6021},{"zip":"31213","city":"Macon","state":"GA","lat":32.8393,"long":-83.6388},{"zip":"31216","city":"Macon","state":"GA","lat":32.7486,"long":-83.7477},{"zip":"31217","city":"Macon","state":"GA","lat":32.8118,"long":-83.565},{"zip":"31220","city":"Macon","state":"GA","lat":32.8595,"long":-83.802},{"zip":"31221","city":"Macon","state":"GA","lat":32.8407,"long":-83.6324},{"zip":"31294","city":"Macon","state":"GA","lat":32.8407,"long":-83.6324},{"zip":"31295","city":"Macon","state":"GA","lat":32.8102,"long":-83.569},{"zip":"31296","city":"Macon","state":"GA","lat":32.8067,"long":-83.6913},{"zip":"31297","city":"Macon","state":"GA","lat":32.7004,"long":-83.6572}]
