[{"zip":"31308","city":"Ellabell","state":"GA","lat":32.1273,"long":-81.4983},{"zip":"31321","city":"Pembroke","state":"GA","lat":32.1812,"long":-81.6656},{"zip":"31324","city":"Richmond Hill","state":"GA","lat":31.8962,"long":-81.294},{"zip":"31302","city":"Bloomingdale","state":"GA","lat":32.1177,"long":-81.3085},{"zip":"31322","city":"Pooler","state":"GA","lat":32.1149,"long":-81.252},{"zip":"31328","city":"Tybee Island","state":"GA","lat":32.0068,"long":-80.8509},{"zip":"31303","city":"Clyo","state":"GA","lat":32.5126,"long":-81.3086},{"zip":"31307","city":"Eden","state":"GA","lat":32.1736,"long":-81.3992},{"zip":"31312","city":"Guyton","state":"GA","lat":32.314,"long":-81.3896},{"zip":"31318","city":"Meldrim","state":"GA","lat":32.1499,"long":-81.3722},{"zip":"31326","city":"Rincon","state":"GA","lat":32.296,"long":-81.2354},{"zip":"31329","city":"Springfield","state":"GA","lat":32.3697,"long":-81.3618},{"zip":"31301","city":"Allenhurst","state":"GA","lat":31.7741,"long":-81.6186},{"zip":"31309","city":"Fleming","state":"GA","lat":31.8645,"long":-81.4232},{"zip":"31310","city":"Hinesville","state":"GA","lat":31.8068,"long":-81.4371},{"zip":"31313","city":"Hinesville","state":"GA","lat":31.8513,"long":-81.6072},{"zip":"31314","city":"Fort Stewart","state":"GA","lat":31.8701,"long":-81.6318},{"zip":"31315","city":"Fort Stewart","state":"GA","lat":31.8938,"long":-81.5902},{"zip":"31320","city":"Midway","state":"GA","lat":31.8018,"long":-81.3909},{"zip":"31323","city":"Riceboro","state":"GA","lat":31.7357,"long":-81.4671},{"zip":"31333","city":"Walthourville","state":"GA","lat":31.7705,"long":-81.6208},{"zip":"31316","city":"Ludowici","state":"GA","lat":31.7705,"long":-81.7453},{"zip":"31304","city":"Crescent","state":"GA","lat":31.4951,"long":-81.3819},{"zip":"31305","city":"Darien","state":"GA","lat":31.3826,"long":-81.4312},{"zip":"31319","city":"Meridian","state":"GA","lat":31.459,"long":-81.3689},{"zip":"31327","city":"Sapelo Island","state":"GA","lat":31.3974,"long":-81.2787},{"zip":"31331","city":"Townsend","state":"GA","lat":31.5673,"long":-81.4182}]
