[{"zip":"31401","city":"Savannah","state":"GA","lat":32.0749,"long":-81.0883},{"zip":"31402","city":"Savannah","state":"GA","lat":32.0835,"long":-81.0998},{"zip":"31403","city":"Savannah","state":"GA","lat":31.9714,"long":-81.0716},{"zip":"31404","city":"Savannah","state":"GA","lat":32.0543,"long":-81.0492},{"zip":"31405","city":"Savannah","state":"GA","lat":32.0391,"long":-81.1242},{"zip":"31406","city":"Savannah","state":"GA","lat":31.989,"long":-81.0979},{"zip":"31407","city":"Port Wentworth","state":"GA","lat":32.1491,"long":-81.1632},{"zip":"31408","city":"Savannah","state":"GA","lat":32.1082,"long":-81.1746},{"zip":"31409","city":"Savannah","state":"GA","lat":32.0093,"long":-81.157},{"zip":"31410","city":"Savannah","state":"GA","lat":32.0175,"long":-80.997},{"zip":"31411","city":"Savannah","state":"GA","lat":31.9268,"long":-81.0381},{"zip":"31412","city":"Savannah","state":"GA","lat":32.0835,"long":-81.0998},{"zip":"31414","city":"Savannah","state":"GA","lat":31.9714,"long":-81.0716},{"zip":"31415","city":"Savannah","state":"GA","lat":32.0753,"long":-81.1289},{"zip":"31416","city":"Savannah","state":"GA","lat":32.0053,"long":-81.0477},{"zip":"31418","city":"Savannah","state":"GA","lat":31.9714,"long":-81.0716},{"zip":"31419","city":"Savannah","state":"GA","lat":31.9959,"long":-81.2358},{"zip":"31420","city":"Savannah","state":"GA","lat":31.9714,"long":-81.0716},{"zip":"31421","city":"Savannah","state":"GA","lat":31.9714,"long":-81.0716}]
