[{"zip":"31513","city":"Baxley","state":"GA","lat":31.7837,"long":-82.3486},{"zip":"31515","city":"Baxley","state":"GA","lat":31.7783,"long":-82.3485},{"zip":"31562","city":"Saint George","state":"GA","lat":30.5224,"long":-82.0376},{"zip":"31563","city":"Surrency","state":"GA","lat":31.6489,"long":-82.1982},{"zip":"31510","city":"Alma","state":"GA","lat":31.5465,"long":-82.4633},{"zip":"31542","city":"Hoboken","state":"GA","lat":31.1431,"long":-82.1207},{"zip":"31543","city":"Hortense","state":"GA","lat":31.3199,"long":-81.9596},{"zip":"31553","city":"Nahunta","state":"GA","lat":31.1827,"long":-81.9722},{"zip":"31566","city":"Waynesville","state":"GA","lat":31.2448,"long":-81.8039},{"zip":"31547","city":"Kings Bay","state":"GA","lat":30.7906,"long":-81.5607},{"zip":"31548","city":"Kingsland","state":"GA","lat":30.7977,"long":-81.7075},{"zip":"31558","city":"Saint Marys","state":"GA","lat":30.7305,"long":-81.5465},{"zip":"31565","city":"Waverly","state":"GA","lat":31.0427,"long":-81.5697},{"zip":"31568","city":"White Oak","state":"GA","lat":30.9952,"long":-81.7782},{"zip":"31569","city":"Woodbine","state":"GA","lat":30.9437,"long":-81.6783},{"zip":"31537","city":"Folkston","state":"GA","lat":30.8508,"long":-82.0116},{"zip":"31512","city":"Ambrose","state":"GA","lat":31.5367,"long":-82.9976},{"zip":"31519","city":"Broxton","state":"GA","lat":31.6484,"long":-82.905},{"zip":"31533","city":"Douglas","state":"GA","lat":31.4973,"long":-82.8465},{"zip":"31534","city":"Douglas","state":"GA","lat":31.5088,"long":-82.8499},{"zip":"31535","city":"Douglas","state":"GA","lat":31.4551,"long":-82.8561},{"zip":"31554","city":"Nicholls","state":"GA","lat":31.4498,"long":-82.6032},{"zip":"31567","city":"West Green","state":"GA","lat":31.6143,"long":-82.7243},{"zip":"31520","city":"Brunswick","state":"GA","lat":31.1807,"long":-81.4949},{"zip":"31521","city":"Brunswick","state":"GA","lat":31.15,"long":-81.4915},{"zip":"31522","city":"Saint Simons Island","state":"GA","lat":31.23,"long":-81.3502},{"zip":"31523","city":"Brunswick","state":"GA","lat":31.2189,"long":-81.546},{"zip":"31524","city":"Brunswick","state":"GA","lat":31.222,"long":-81.4826},{"zip":"31525","city":"Brunswick","state":"GA","lat":31.2804,"long":-81.5305},{"zip":"31527","city":"Jekyll Island","state":"GA","lat":31.074,"long":-81.4128},{"zip":"31561","city":"Sea Island","state":"GA","lat":31.1989,"long":-81.3322},{"zip":"31532","city":"Denton","state":"GA","lat":31.7226,"long":-82.7526},{"zip":"31539","city":"Hazlehurst","state":"GA","lat":31.8606,"long":-82.5909},{"zip":"31516","city":"Blackshear","state":"GA","lat":31.2931,"long":-82.2617},{"zip":"31518","city":"Bristol","state":"GA","lat":31.4833,"long":-82.215},{"zip":"31551","city":"Mershon","state":"GA","lat":31.4783,"long":-82.217},{"zip":"31556","city":"Offerman","state":"GA","lat":31.4126,"long":-82.1155},{"zip":"31557","city":"Patterson","state":"GA","lat":31.3903,"long":-82.1274},{"zip":"31544","city":"Jacksonville","state":"GA","lat":31.8481,"long":-82.975},{"zip":"31549","city":"Lumber City","state":"GA","lat":31.9251,"long":-82.7073},{"zip":"31501","city":"Waycross","state":"GA","lat":31.2243,"long":-82.3596},{"zip":"31502","city":"Waycross","state":"GA","lat":31.2137,"long":-82.3557},{"zip":"31503","city":"Waycross","state":"GA","lat":31.1932,"long":-82.3766},{"zip":"31550","city":"Manor","state":"GA","lat":31.1088,"long":-82.5742},{"zip":"31552","city":"Millwood","state":"GA","lat":31.2506,"long":-82.6441},{"zip":"31564","city":"Waresboro","state":"GA","lat":31.248,"long":-82.4737},{"zip":"31545","city":"Jesup","state":"GA","lat":31.6043,"long":-81.8871},{"zip":"31546","city":"Jesup","state":"GA","lat":31.5319,"long":-81.8049},{"zip":"31555","city":"Odum","state":"GA","lat":31.6999,"long":-81.9943},{"zip":"31560","city":"Screven","state":"GA","lat":31.5168,"long":-82.0397},{"zip":"31598","city":"Jesup","state":"GA","lat":31.5782,"long":-81.8802},{"zip":"31599","city":"Jesup","state":"GA","lat":31.5782,"long":-81.8802}]
