[{"zip":"31624","city":"Axson","state":"GA","lat":31.3035,"long":-82.7319},{"zip":"31642","city":"Pearson","state":"GA","lat":31.3106,"long":-82.8591},{"zip":"31650","city":"Willacoochee","state":"GA","lat":31.3455,"long":-83.0449},{"zip":"31622","city":"Alapaha","state":"GA","lat":31.394,"long":-83.2132},{"zip":"31639","city":"Nashville","state":"GA","lat":31.2074,"long":-83.2319},{"zip":"31645","city":"Ray City","state":"GA","lat":31.0825,"long":-83.2143},{"zip":"31625","city":"Barney","state":"GA","lat":31.0074,"long":-83.5219},{"zip":"31629","city":"Dixie","state":"GA","lat":30.7722,"long":-83.6792},{"zip":"31638","city":"Morven","state":"GA","lat":30.9416,"long":-83.4993},{"zip":"31643","city":"Quitman","state":"GA","lat":30.7797,"long":-83.5567},{"zip":"31623","city":"Argyle","state":"GA","lat":31.0744,"long":-82.644},{"zip":"31630","city":"Du Pont","state":"GA","lat":30.9885,"long":-82.8715},{"zip":"31631","city":"Fargo","state":"GA","lat":30.6819,"long":-82.5665},{"zip":"31634","city":"Homerville","state":"GA","lat":31.0509,"long":-82.7613},{"zip":"31620","city":"Adel","state":"GA","lat":31.1251,"long":-83.4213},{"zip":"31627","city":"Cecil","state":"GA","lat":31.0403,"long":-83.3915},{"zip":"31637","city":"Lenox","state":"GA","lat":31.2664,"long":-83.4481},{"zip":"31647","city":"Sparks","state":"GA","lat":31.179,"long":-83.4476},{"zip":"31648","city":"Statenville","state":"GA","lat":30.7065,"long":-83.019},{"zip":"31635","city":"Lakeland","state":"GA","lat":31.0381,"long":-83.0889},{"zip":"31649","city":"Stockton","state":"GA","lat":31.0229,"long":-83.0139},{"zip":"31601","city":"Valdosta","state":"GA","lat":30.7539,"long":-83.3321},{"zip":"31602","city":"Valdosta","state":"GA","lat":30.8931,"long":-83.3278},{"zip":"31603","city":"Valdosta","state":"GA","lat":30.828,"long":-83.2522},{"zip":"31604","city":"Valdosta","state":"GA","lat":30.828,"long":-83.2522},{"zip":"31605","city":"Valdosta","state":"GA","lat":30.946,"long":-83.2474},{"zip":"31606","city":"Valdosta","state":"GA","lat":30.7989,"long":-83.1891},{"zip":"31632","city":"Hahira","state":"GA","lat":30.9913,"long":-83.3727},{"zip":"31636","city":"Lake Park","state":"GA","lat":30.6906,"long":-83.1753},{"zip":"31641","city":"Naylor","state":"GA","lat":30.8985,"long":-83.1224},{"zip":"31698","city":"Valdosta","state":"GA","lat":30.8485,"long":-83.2878},{"zip":"31699","city":"Moody Afb","state":"GA","lat":30.9785,"long":-83.2165},{"zip":"31626","city":"Boston","state":"GA","lat":30.7855,"long":-83.7971}]
