[{"zip":"31721","city":"Albany","state":"GA","lat":31.5105,"long":-84.3087},{"zip":"31750","city":"Fitzgerald","state":"GA","lat":31.7248,"long":-83.2495},{"zip":"31749","city":"Enigma","state":"GA","lat":31.3736,"long":-83.3552},{"zip":"31720","city":"Barwick","state":"GA","lat":30.8902,"long":-83.7407},{"zip":"31722","city":"Berlin","state":"GA","lat":31.0682,"long":-83.6238},{"zip":"31744","city":"Doerun","state":"GA","lat":31.3136,"long":-83.9253},{"zip":"31747","city":"Ellenton","state":"GA","lat":31.1789,"long":-83.5889},{"zip":"31753","city":"Funston","state":"GA","lat":31.2054,"long":-83.8776},{"zip":"31756","city":"Hartsfield","state":"GA","lat":31.2173,"long":-83.9704},{"zip":"31768","city":"Moultrie","state":"GA","lat":31.1792,"long":-83.7641},{"zip":"31771","city":"Norman Park","state":"GA","lat":31.2462,"long":-83.6549},{"zip":"31776","city":"Moultrie","state":"GA","lat":31.1727,"long":-83.7924},{"zip":"31788","city":"Moultrie","state":"GA","lat":31.0855,"long":-83.6821},{"zip":"31712","city":"Arabi","state":"GA","lat":31.8496,"long":-83.7277},{"zip":"31701","city":"Albany","state":"GA","lat":31.5678,"long":-84.1619},{"zip":"31702","city":"Albany","state":"GA","lat":31.5948,"long":-84.1948},{"zip":"31703","city":"Albany","state":"GA","lat":31.5785,"long":-84.1557},{"zip":"31704","city":"Albany","state":"GA","lat":31.55,"long":-84.0612},{"zip":"31705","city":"Albany","state":"GA","lat":31.5464,"long":-84.0783},{"zip":"31706","city":"Albany","state":"GA","lat":31.5593,"long":-84.1765},{"zip":"31707","city":"Albany","state":"GA","lat":31.5789,"long":-84.2118},{"zip":"31708","city":"Albany","state":"GA","lat":31.5911,"long":-84.1324},{"zip":"31782","city":"Putney","state":"GA","lat":31.5431,"long":-84.2196},{"zip":"31760","city":"Irwinville","state":"GA","lat":31.7063,"long":-83.4086},{"zip":"31769","city":"Mystic","state":"GA","lat":31.6209,"long":-83.2498},{"zip":"31774","city":"Ocilla","state":"GA","lat":31.5929,"long":-83.2565},{"zip":"31798","city":"Wray","state":"GA","lat":31.5952,"long":-83.1075},{"zip":"31763","city":"Leesburg","state":"GA","lat":31.6812,"long":-84.1593},{"zip":"31787","city":"Smithville","state":"GA","lat":31.8847,"long":-84.2271},{"zip":"31716","city":"Baconton","state":"GA","lat":31.3878,"long":-84.1135},{"zip":"31730","city":"Camilla","state":"GA","lat":31.2199,"long":-84.2297},{"zip":"31739","city":"Cotton","state":"GA","lat":31.1616,"long":-84.0668},{"zip":"31779","city":"Pelham","state":"GA","lat":31.1272,"long":-84.1564},{"zip":"31784","city":"Sale City","state":"GA","lat":31.26,"long":-84.0422},{"zip":"31709","city":"Americus","state":"GA","lat":32.0404,"long":-84.2153},{"zip":"31711","city":"Andersonville","state":"GA","lat":32.1559,"long":-84.164},{"zip":"31719","city":"Americus","state":"GA","lat":32.0833,"long":-84.2975},{"zip":"31735","city":"Cobb","state":"GA","lat":31.9617,"long":-83.9581},{"zip":"31743","city":"De Soto","state":"GA","lat":31.9502,"long":-84.0271},{"zip":"31764","city":"Leslie","state":"GA","lat":31.954,"long":-84.0783},{"zip":"31780","city":"Plains","state":"GA","lat":32.0339,"long":-84.3586},{"zip":"31738","city":"Coolidge","state":"GA","lat":30.9859,"long":-83.8752},{"zip":"31757","city":"Thomasville","state":"GA","lat":30.8536,"long":-83.8883},{"zip":"31758","city":"Thomasville","state":"GA","lat":30.8366,"long":-83.9788},{"zip":"31765","city":"Meigs","state":"GA","lat":31.0625,"long":-84.0824},{"zip":"31773","city":"Ochlocknee","state":"GA","lat":30.9742,"long":-84.055},{"zip":"31778","city":"Pavo","state":"GA","lat":30.9401,"long":-83.7409},{"zip":"31792","city":"Thomasville","state":"GA","lat":30.8385,"long":-83.9696},{"zip":"31799","city":"Thomasville","state":"GA","lat":30.8366,"long":-83.9788},{"zip":"31727","city":"Brookfield","state":"GA","lat":31.4417,"long":-83.5037},{"zip":"31733","city":"Chula","state":"GA","lat":31.5439,"long":-83.5509},{"zip":"31775","city":"Omega","state":"GA","lat":31.33,"long":-83.5974},{"zip":"31793","city":"Tifton","state":"GA","lat":31.4619,"long":-83.5873},{"zip":"31794","city":"Tifton","state":"GA","lat":31.4639,"long":-83.4999},{"zip":"31795","city":"Ty Ty","state":"GA","lat":31.4718,"long":-83.6468},{"zip":"31714","city":"Ashburn","state":"GA","lat":31.7059,"long":-83.6608},{"zip":"31783","city":"Rebecca","state":"GA","lat":31.7979,"long":-83.5235},{"zip":"31790","city":"Sycamore","state":"GA","lat":31.6553,"long":-83.6064},{"zip":"31772","city":"Oakfield","state":"GA","lat":31.7798,"long":-83.9706},{"zip":"31781","city":"Poulan","state":"GA","lat":31.5384,"long":-83.7843},{"zip":"31789","city":"Sumner","state":"GA","lat":31.513,"long":-83.7385},{"zip":"31791","city":"Sylvester","state":"GA","lat":31.5393,"long":-83.8607},{"zip":"31796","city":"Warwick","state":"GA","lat":31.831,"long":-83.9188}]
