[{"zip":"31805","city":"Cusseta","state":"GA","lat":32.299,"long":-84.7645},{"zip":"31804","city":"Cataula","state":"GA","lat":32.6242,"long":-84.9207},{"zip":"31807","city":"Ellerslie","state":"GA","lat":32.6312,"long":-84.7895},{"zip":"31811","city":"Hamilton","state":"GA","lat":32.7418,"long":-84.8848},{"zip":"31822","city":"Pine Mountain","state":"GA","lat":32.8735,"long":-84.896},{"zip":"31823","city":"Pine Mountain Valley","state":"GA","lat":32.8226,"long":-84.8204},{"zip":"31826","city":"Shiloh","state":"GA","lat":32.8101,"long":-84.696},{"zip":"31831","city":"Waverly Hall","state":"GA","lat":32.6793,"long":-84.7425},{"zip":"31803","city":"Buena Vista","state":"GA","lat":32.2542,"long":-84.4898},{"zip":"31816","city":"Manchester","state":"GA","lat":32.8721,"long":-84.6312},{"zip":"31830","city":"Warm Springs","state":"GA","lat":32.9063,"long":-84.7167},{"zip":"31808","city":"Fortson","state":"GA","lat":32.6288,"long":-85.0017},{"zip":"31820","city":"Midland","state":"GA","lat":32.5616,"long":-84.8559},{"zip":"31829","city":"Upatoi","state":"GA","lat":32.5601,"long":-84.7448},{"zip":"31806","city":"Ellaville","state":"GA","lat":32.239,"long":-84.3039},{"zip":"31814","city":"Louvale","state":"GA","lat":32.1752,"long":-84.8252},{"zip":"31815","city":"Lumpkin","state":"GA","lat":32.0435,"long":-84.8022},{"zip":"31821","city":"Omaha","state":"GA","lat":32.1176,"long":-84.9711},{"zip":"31825","city":"Richland","state":"GA","lat":32.0846,"long":-84.6667},{"zip":"31801","city":"Box Springs","state":"GA","lat":32.5195,"long":-84.5927},{"zip":"31810","city":"Geneva","state":"GA","lat":32.5799,"long":-84.5508},{"zip":"31812","city":"Junction City","state":"GA","lat":32.608,"long":-84.4574},{"zip":"31827","city":"Talbotton","state":"GA","lat":32.6797,"long":-84.5462},{"zip":"31836","city":"Woodland","state":"GA","lat":32.79,"long":-84.5654},{"zip":"31833","city":"West Point","state":"GA","lat":32.8337,"long":-85.1197},{"zip":"31824","city":"Preston","state":"GA","lat":32.074,"long":-84.5489},{"zip":"31832","city":"Weston","state":"GA","lat":31.9637,"long":-84.5756}]
