[{"zip":"31901","city":"Columbus","state":"GA","lat":32.473,"long":-84.9795},{"zip":"31902","city":"Columbus","state":"GA","lat":32.5243,"long":-84.9558},{"zip":"31903","city":"Columbus","state":"GA","lat":32.4245,"long":-84.9481},{"zip":"31904","city":"Columbus","state":"GA","lat":32.5161,"long":-84.9785},{"zip":"31905","city":"Fort Benning","state":"GA","lat":32.3923,"long":-84.9315},{"zip":"31906","city":"Columbus","state":"GA","lat":32.4638,"long":-84.9484},{"zip":"31907","city":"Columbus","state":"GA","lat":32.4779,"long":-84.898},{"zip":"31908","city":"Columbus","state":"GA","lat":32.5349,"long":-84.9065},{"zip":"31909","city":"Columbus","state":"GA","lat":32.5369,"long":-84.9274},{"zip":"31914","city":"Columbus","state":"GA","lat":32.491,"long":-84.8741},{"zip":"31917","city":"Columbus","state":"GA","lat":32.491,"long":-84.8741},{"zip":"31993","city":"Columbus","state":"GA","lat":32.4821,"long":-84.9771},{"zip":"31995","city":"Fort Benning","state":"GA","lat":32.4958,"long":-84.964},{"zip":"31997","city":"Columbus","state":"GA","lat":32.491,"long":-84.8741},{"zip":"31998","city":"Columbus","state":"GA","lat":32.491,"long":-84.8741},{"zip":"31999","city":"Columbus","state":"GA","lat":32.461,"long":-84.9877}]
