[{"zip":"32601","city":"Gainesville","state":"FL","lat":29.6489,"long":-82.325},{"zip":"32602","city":"Gainesville","state":"FL","lat":29.6299,"long":-82.3966},{"zip":"32603","city":"Gainesville","state":"FL","lat":29.6515,"long":-82.3493},{"zip":"32604","city":"Gainesville","state":"FL","lat":29.5733,"long":-82.3979},{"zip":"32605","city":"Gainesville","state":"FL","lat":29.6785,"long":-82.3679},{"zip":"32606","city":"Gainesville","state":"FL","lat":29.6954,"long":-82.4023},{"zip":"32607","city":"Gainesville","state":"FL","lat":29.6456,"long":-82.4033},{"zip":"32608","city":"Gainesville","state":"FL","lat":29.6132,"long":-82.3873},{"zip":"32609","city":"Gainesville","state":"FL","lat":29.7005,"long":-82.308},{"zip":"32610","city":"Gainesville","state":"FL","lat":29.6813,"long":-82.3539},{"zip":"32611","city":"Gainesville","state":"FL","lat":29.6813,"long":-82.3539},{"zip":"32612","city":"Gainesville","state":"FL","lat":29.6813,"long":-82.3539},{"zip":"32614","city":"Gainesville","state":"FL","lat":29.6813,"long":-82.3539},{"zip":"32615","city":"Alachua","state":"FL","lat":29.8135,"long":-82.472},{"zip":"32616","city":"Alachua","state":"FL","lat":29.792,"long":-82.496},{"zip":"32618","city":"Archer","state":"FL","lat":29.5597,"long":-82.5108},{"zip":"32627","city":"Gainesville","state":"FL","lat":29.6516,"long":-82.3248},{"zip":"32631","city":"Earleton","state":"FL","lat":29.7304,"long":-82.0971},{"zip":"32633","city":"Evinston","state":"FL","lat":29.4869,"long":-82.2312},{"zip":"32635","city":"Gainesville","state":"FL","lat":29.6813,"long":-82.3539},{"zip":"32640","city":"Hawthorne","state":"FL","lat":29.574,"long":-82.1056},{"zip":"32641","city":"Gainesville","state":"FL","lat":29.6824,"long":-82.2014},{"zip":"32643","city":"High Springs","state":"FL","lat":29.841,"long":-82.6156},{"zip":"32653","city":"Gainesville","state":"FL","lat":29.7728,"long":-82.3782},{"zip":"32654","city":"Island Grove","state":"FL","lat":29.4536,"long":-82.1065},{"zip":"32655","city":"High Springs","state":"FL","lat":29.8175,"long":-82.6006},{"zip":"32658","city":"La Crosse","state":"FL","lat":29.8433,"long":-82.4048},{"zip":"32662","city":"Lochloosa","state":"FL","lat":29.5116,"long":-82.1004},{"zip":"32667","city":"Micanopy","state":"FL","lat":29.5122,"long":-82.3053},{"zip":"32669","city":"Newberry","state":"FL","lat":29.6609,"long":-82.5852},{"zip":"32694","city":"Waldo","state":"FL","lat":29.7871,"long":-82.1608},{"zip":"32040","city":"Glen Saint Mary","state":"FL","lat":30.2861,"long":-82.2041},{"zip":"32063","city":"Macclenny","state":"FL","lat":30.2737,"long":-82.1325},{"zip":"32072","city":"Olustee","state":"FL","lat":30.2041,"long":-82.4287},{"zip":"32087","city":"Sanderson","state":"FL","lat":30.2522,"long":-82.2729},{"zip":"32401","city":"Panama City","state":"FL","lat":30.1606,"long":-85.6494},{"zip":"32402","city":"Panama City","state":"FL","lat":30.2345,"long":-85.692},{"zip":"32403","city":"Panama City","state":"FL","lat":30.0583,"long":-85.5762},{"zip":"32404","city":"Panama City","state":"FL","lat":30.1653,"long":-85.5763},{"zip":"32405","city":"Panama City","state":"FL","lat":30.1949,"long":-85.6727},{"zip":"32406","city":"Panama City","state":"FL","lat":30.2345,"long":-85.692},{"zip":"32407","city":"Panama City Beach","state":"FL","lat":30.2007,"long":-85.8136},{"zip":"32408","city":"Panama City","state":"FL","lat":30.1655,"long":-85.7116},{"zip":"32409","city":"Panama City","state":"FL","lat":30.3117,"long":-85.6923},{"zip":"32410","city":"Mexico Beach","state":"FL","lat":29.9395,"long":-85.4096},{"zip":"32411","city":"Panama City","state":"FL","lat":30.2345,"long":-85.692},{"zip":"32412","city":"Panama City","state":"FL","lat":30.2345,"long":-85.692},{"zip":"32413","city":"Panama City Beach","state":"FL","lat":30.3105,"long":-85.9106},{"zip":"32417","city":"Panama City","state":"FL","lat":30.1595,"long":-85.6598},{"zip":"32438","city":"Fountain","state":"FL","lat":30.4753,"long":-85.4293},{"zip":"32444","city":"Lynn Haven","state":"FL","lat":30.2362,"long":-85.6467},{"zip":"32466","city":"Youngstown","state":"FL","lat":30.3269,"long":-85.5169},{"zip":"32042","city":"Graham","state":"FL","lat":29.9689,"long":-82.1226},{"zip":"32044","city":"Hampton","state":"FL","lat":29.8575,"long":-82.1483},{"zip":"32058","city":"Lawtey","state":"FL","lat":30.0472,"long":-82.1055},{"zip":"32091","city":"Starke","state":"FL","lat":29.9583,"long":-82.1185},{"zip":"32622","city":"Brooker","state":"FL","lat":29.919,"long":-82.2956},{"zip":"32754","city":"Mims","state":"FL","lat":28.6974,"long":-80.8663},{"zip":"32775","city":"Scottsmoor","state":"FL","lat":28.7702,"long":-80.872},{"zip":"32780","city":"Titusville","state":"FL","lat":28.5697,"long":-80.8191},{"zip":"32781","city":"Titusville","state":"FL","lat":28.6122,"long":-80.8076},{"zip":"32783","city":"Titusville","state":"FL","lat":28.6122,"long":-80.8076},{"zip":"32796","city":"Titusville","state":"FL","lat":28.6271,"long":-80.8429},{"zip":"32815","city":"Orlando","state":"FL","lat":28.3067,"long":-80.6862},{"zip":"32899","city":"Orlando","state":"FL","lat":28.3067,"long":-80.6862},{"zip":"32901","city":"Melbourne","state":"FL","lat":28.0691,"long":-80.62},{"zip":"32902","city":"Melbourne","state":"FL","lat":28.0836,"long":-80.6081},{"zip":"32903","city":"Indialantic","state":"FL","lat":28.1091,"long":-80.5787},{"zip":"32904","city":"Melbourne","state":"FL","lat":28.0673,"long":-80.678},{"zip":"32905","city":"Palm Bay","state":"FL","lat":28.0313,"long":-80.5995},{"zip":"32906","city":"Palm Bay","state":"FL","lat":28.0671,"long":-80.6503},{"zip":"32907","city":"Palm Bay","state":"FL","lat":28.0168,"long":-80.6739},{"zip":"32908","city":"Palm Bay","state":"FL","lat":27.9816,"long":-80.6894},{"zip":"32909","city":"Palm Bay","state":"FL","lat":27.9694,"long":-80.6473},{"zip":"32910","city":"Palm Bay","state":"FL","lat":28.0345,"long":-80.5887},{"zip":"32911","city":"Palm Bay","state":"FL","lat":28.0345,"long":-80.5887},{"zip":"32912","city":"Melbourne","state":"FL","lat":28.0836,"long":-80.6081},{"zip":"32919","city":"Melbourne","state":"FL","lat":28.0836,"long":-80.6081},{"zip":"32920","city":"Cape Canaveral","state":"FL","lat":28.3903,"long":-80.6043},{"zip":"32922","city":"Cocoa","state":"FL","lat":28.3672,"long":-80.7465},{"zip":"32923","city":"Cocoa","state":"FL","lat":28.4275,"long":-80.829},{"zip":"32924","city":"Cocoa","state":"FL","lat":28.3067,"long":-80.6862},{"zip":"32925","city":"Patrick Afb","state":"FL","lat":28.1743,"long":-80.584},{"zip":"32926","city":"Cocoa","state":"FL","lat":28.391,"long":-80.787},{"zip":"32927","city":"Cocoa","state":"FL","lat":28.4566,"long":-80.7978},{"zip":"32931","city":"Cocoa Beach","state":"FL","lat":28.3325,"long":-80.6121},{"zip":"32932","city":"Cocoa Beach","state":"FL","lat":28.3206,"long":-80.6092},{"zip":"32934","city":"Melbourne","state":"FL","lat":28.1331,"long":-80.7112},{"zip":"32935","city":"Melbourne","state":"FL","lat":28.1384,"long":-80.6524},{"zip":"32936","city":"Melbourne","state":"FL","lat":28.0836,"long":-80.6081},{"zip":"32937","city":"Satellite Beach","state":"FL","lat":28.178,"long":-80.602},{"zip":"32940","city":"Melbourne","state":"FL","lat":28.2061,"long":-80.685},{"zip":"32941","city":"Melbourne","state":"FL","lat":27.9246,"long":-80.5235},{"zip":"32949","city":"Grant","state":"FL","lat":27.9289,"long":-80.5264},{"zip":"32950","city":"Malabar","state":"FL","lat":27.9761,"long":-80.5788},{"zip":"32951","city":"Melbourne Beach","state":"FL","lat":28.0219,"long":-80.5389},{"zip":"32952","city":"Merritt Island","state":"FL","lat":28.2764,"long":-80.6568},{"zip":"32953","city":"Merritt Island","state":"FL","lat":28.3888,"long":-80.7301},{"zip":"32954","city":"Merritt Island","state":"FL","lat":28.5392,"long":-80.672},{"zip":"32955","city":"Rockledge","state":"FL","lat":28.3134,"long":-80.7319},{"zip":"32956","city":"Rockledge","state":"FL","lat":28.3298,"long":-80.7323},{"zip":"32959","city":"Sharpes","state":"FL","lat":28.3067,"long":-80.6862},{"zip":"32976","city":"Sebastian","state":"FL","lat":27.8679,"long":-80.5416},{"zip":"32421","city":"Altha","state":"FL","lat":30.5319,"long":-85.1704},{"zip":"32424","city":"Blountstown","state":"FL","lat":30.4394,"long":-85.062},{"zip":"32430","city":"Clarksville","state":"FL","lat":30.3568,"long":-85.1898},{"zip":"32449","city":"Wewahitchka","state":"FL","lat":30.4059,"long":-85.1974},{"zip":"32003","city":"Fleming Island","state":"FL","lat":30.0933,"long":-81.719},{"zip":"32006","city":"Fleming Island","state":"FL","lat":30.107,"long":-81.7167},{"zip":"32030","city":"Doctors Inlet","state":"FL","lat":30.1056,"long":-81.769},{"zip":"32043","city":"Green Cove Springs","state":"FL","lat":29.9983,"long":-81.7647},{"zip":"32050","city":"Middleburg","state":"FL","lat":30.0689,"long":-81.8604},{"zip":"32065","city":"Orange Park","state":"FL","lat":30.1382,"long":-81.7742},{"zip":"32067","city":"Orange Park","state":"FL","lat":30.1661,"long":-81.7065},{"zip":"32068","city":"Middleburg","state":"FL","lat":30.084,"long":-81.8645},{"zip":"32073","city":"Orange Park","state":"FL","lat":30.1637,"long":-81.7291},{"zip":"32079","city":"Penney Farms","state":"FL","lat":29.9849,"long":-81.8022},{"zip":"32160","city":"Lake Geneva","state":"FL","lat":29.7683,"long":-81.9907},{"zip":"32656","city":"Keystone Heights","state":"FL","lat":29.7976,"long":-81.9899},{"zip":"32024","city":"Lake City","state":"FL","lat":30.1055,"long":-82.6878},{"zip":"32025","city":"Lake City","state":"FL","lat":30.1601,"long":-82.6396},{"zip":"32038","city":"Fort White","state":"FL","lat":29.9207,"long":-82.6879},{"zip":"32055","city":"Lake City","state":"FL","lat":30.2702,"long":-82.6254},{"zip":"32056","city":"Lake City","state":"FL","lat":30.1897,"long":-82.6393},{"zip":"32061","city":"Lulu","state":"FL","lat":30.0754,"long":-82.5385},{"zip":"32628","city":"Cross City","state":"FL","lat":29.6372,"long":-83.2032},{"zip":"32648","city":"Horseshoe Beach","state":"FL","lat":29.4869,"long":-83.2616},{"zip":"32680","city":"Old Town","state":"FL","lat":29.6699,"long":-83.005},{"zip":"32692","city":"Suwannee","state":"FL","lat":29.3295,"long":-83.14},{"zip":"32099","city":"Jacksonville","state":"FL","lat":30.3375,"long":-81.7686},{"zip":"32201","city":"Jacksonville","state":"FL","lat":30.3894,"long":-81.6808},{"zip":"32202","city":"Jacksonville","state":"FL","lat":30.3299,"long":-81.6517},{"zip":"32203","city":"Jacksonville","state":"FL","lat":30.3228,"long":-81.547},{"zip":"32204","city":"Jacksonville","state":"FL","lat":30.3189,"long":-81.6854},{"zip":"32205","city":"Jacksonville","state":"FL","lat":30.3172,"long":-81.722},{"zip":"32206","city":"Jacksonville","state":"FL","lat":30.3511,"long":-81.6488},{"zip":"32207","city":"Jacksonville","state":"FL","lat":30.2908,"long":-81.6321},{"zip":"32208","city":"Jacksonville","state":"FL","lat":30.3937,"long":-81.6889},{"zip":"32209","city":"Jacksonville","state":"FL","lat":30.3584,"long":-81.692},{"zip":"32210","city":"Jacksonville","state":"FL","lat":30.2687,"long":-81.7473},{"zip":"32211","city":"Jacksonville","state":"FL","lat":30.348,"long":-81.5882},{"zip":"32212","city":"Jacksonville","state":"FL","lat":30.2132,"long":-81.69},{"zip":"32214","city":"Jacksonville","state":"FL","lat":30.3449,"long":-81.6831},{"zip":"32216","city":"Jacksonville","state":"FL","lat":30.2787,"long":-81.5831},{"zip":"32217","city":"Jacksonville","state":"FL","lat":30.2407,"long":-81.617},{"zip":"32218","city":"Jacksonville","state":"FL","lat":30.4507,"long":-81.6626},{"zip":"32219","city":"Jacksonville","state":"FL","lat":30.4034,"long":-81.7635},{"zip":"32220","city":"Jacksonville","state":"FL","lat":30.329,"long":-81.8176},{"zip":"32221","city":"Jacksonville","state":"FL","lat":30.2837,"long":-81.8202},{"zip":"32222","city":"Jacksonville","state":"FL","lat":30.2292,"long":-81.8131},{"zip":"32223","city":"Jacksonville","state":"FL","lat":30.1548,"long":-81.63},{"zip":"32224","city":"Jacksonville","state":"FL","lat":30.3031,"long":-81.4404},{"zip":"32225","city":"Jacksonville","state":"FL","lat":30.351,"long":-81.5061},{"zip":"32226","city":"Jacksonville","state":"FL","lat":30.4735,"long":-81.5448},{"zip":"32227","city":"Jacksonville","state":"FL","lat":30.3802,"long":-81.416},{"zip":"32228","city":"Jacksonville","state":"FL","lat":30.3824,"long":-81.4369},{"zip":"32229","city":"Jacksonville","state":"FL","lat":30.3449,"long":-81.6831},{"zip":"32231","city":"Jacksonville","state":"FL","lat":30.3449,"long":-81.6831},{"zip":"32232","city":"Jacksonville","state":"FL","lat":30.3449,"long":-81.6831},{"zip":"32233","city":"Atlantic Beach","state":"FL","lat":30.3483,"long":-81.4159},{"zip":"32234","city":"Jacksonville","state":"FL","lat":30.2757,"long":-81.9686},{"zip":"32235","city":"Jacksonville","state":"FL","lat":30.3449,"long":-81.6831},{"zip":"32236","city":"Jacksonville","state":"FL","lat":30.3449,"long":-81.6831},{"zip":"32237","city":"Jacksonville","state":"FL","lat":30.3449,"long":-81.6831},{"zip":"32238","city":"Jacksonville","state":"FL","lat":30.3449,"long":-81.6831},{"zip":"32239","city":"Jacksonville","state":"FL","lat":30.3449,"long":-81.6831},{"zip":"32240","city":"Jacksonville Beach","state":"FL","lat":30.2947,"long":-81.3931},{"zip":"32241","city":"Jacksonville","state":"FL","lat":30.3449,"long":-81.6831},{"zip":"32244","city":"Jacksonville","state":"FL","lat":30.2231,"long":-81.7556},{"zip":"32245","city":"Jacksonville","state":"FL","lat":30.3449,"long":-81.6831},{"zip":"32246","city":"Jacksonville","state":"FL","lat":30.2933,"long":-81.5092},{"zip":"32247","city":"Jacksonville","state":"FL","lat":30.3449,"long":-81.6831},{"zip":"32250","city":"Jacksonville Beach","state":"FL","lat":30.2801,"long":-81.4165},{"zip":"32254","city":"Jacksonville","state":"FL","lat":30.3415,"long":-81.7358},{"zip":"32255","city":"Jacksonville","state":"FL","lat":30.3322,"long":-81.6557},{"zip":"32256","city":"Jacksonville","state":"FL","lat":30.2214,"long":-81.5571},{"zip":"32257","city":"Jacksonville","state":"FL","lat":30.1927,"long":-81.605},{"zip":"32258","city":"Jacksonville","state":"FL","lat":30.1459,"long":-81.5739},{"zip":"32266","city":"Neptune Beach","state":"FL","lat":30.3155,"long":-81.4051},{"zip":"32277","city":"Jacksonville","state":"FL","lat":30.3704,"long":-81.5864},{"zip":"32501","city":"Pensacola","state":"FL","lat":30.4223,"long":-87.2248},{"zip":"32502","city":"Pensacola","state":"FL","lat":30.4095,"long":-87.2229},{"zip":"32503","city":"Pensacola","state":"FL","lat":30.4564,"long":-87.2104},{"zip":"32504","city":"Pensacola","state":"FL","lat":30.4873,"long":-87.1872},{"zip":"32505","city":"Pensacola","state":"FL","lat":30.4481,"long":-87.2589},{"zip":"32506","city":"Pensacola","state":"FL","lat":30.4129,"long":-87.3092},{"zip":"32507","city":"Pensacola","state":"FL","lat":30.3737,"long":-87.3126},{"zip":"32508","city":"Pensacola","state":"FL","lat":30.3511,"long":-87.2749},{"zip":"32509","city":"Pensacola","state":"FL","lat":30.4643,"long":-87.3403},{"zip":"32511","city":"Pensacola","state":"FL","lat":30.4061,"long":-87.2917},{"zip":"32512","city":"Pensacola","state":"FL","lat":30.3943,"long":-87.2991},{"zip":"32513","city":"Pensacola","state":"FL","lat":30.5571,"long":-87.2596},{"zip":"32514","city":"Pensacola","state":"FL","lat":30.5241,"long":-87.2167},{"zip":"32516","city":"Pensacola","state":"FL","lat":30.4213,"long":-87.2169},{"zip":"32520","city":"Pensacola","state":"FL","lat":30.4124,"long":-87.2035},{"zip":"32521","city":"Pensacola","state":"FL","lat":30.4213,"long":-87.2169},{"zip":"32522","city":"Pensacola","state":"FL","lat":30.4213,"long":-87.2169},{"zip":"32523","city":"Pensacola","state":"FL","lat":30.4213,"long":-87.2169},{"zip":"32524","city":"Pensacola","state":"FL","lat":30.4213,"long":-87.2169},{"zip":"32526","city":"Pensacola","state":"FL","lat":30.4756,"long":-87.3179},{"zip":"32533","city":"Cantonment","state":"FL","lat":30.6143,"long":-87.3251},{"zip":"32534","city":"Pensacola","state":"FL","lat":30.5301,"long":-87.2793},{"zip":"32535","city":"Century","state":"FL","lat":30.9687,"long":-87.3216},{"zip":"32559","city":"Pensacola","state":"FL","lat":30.3563,"long":-87.2773},{"zip":"32560","city":"Gonzalez","state":"FL","lat":30.5818,"long":-87.2929},{"zip":"32568","city":"Mc David","state":"FL","lat":30.8686,"long":-87.4539},{"zip":"32577","city":"Molino","state":"FL","lat":30.6902,"long":-87.3852},{"zip":"32591","city":"Pensacola","state":"FL","lat":30.4213,"long":-87.2169},{"zip":"32110","city":"Bunnell","state":"FL","lat":29.4562,"long":-81.3244},{"zip":"32135","city":"Palm Coast","state":"FL","lat":29.4661,"long":-81.2828},{"zip":"32136","city":"Flagler Beach","state":"FL","lat":29.475,"long":-81.1303},{"zip":"32137","city":"Palm Coast","state":"FL","lat":29.5565,"long":-81.219},{"zip":"32142","city":"Palm Coast","state":"FL","lat":29.4661,"long":-81.2828},{"zip":"32143","city":"Palm Coast","state":"FL","lat":29.585,"long":-81.2078},{"zip":"32164","city":"Palm Coast","state":"FL","lat":29.4861,"long":-81.2045},{"zip":"32318","city":"Tallahassee","state":"FL","lat":30.4383,"long":-84.2807},{"zip":"32320","city":"Apalachicola","state":"FL","lat":29.7255,"long":-85.0063},{"zip":"32322","city":"Carrabelle","state":"FL","lat":29.8692,"long":-84.6358},{"zip":"32323","city":"Lanark Village","state":"FL","lat":29.8826,"long":-84.5964},{"zip":"32328","city":"Eastpoint","state":"FL","lat":29.7495,"long":-84.8162},{"zip":"32329","city":"Apalachicola","state":"FL","lat":29.726,"long":-84.9856},{"zip":"32324","city":"Chattahoochee","state":"FL","lat":30.6834,"long":-84.828},{"zip":"32330","city":"Greensboro","state":"FL","lat":30.5696,"long":-84.7453},{"zip":"32332","city":"Gretna","state":"FL","lat":30.6171,"long":-84.6599},{"zip":"32333","city":"Havana","state":"FL","lat":30.6092,"long":-84.4143},{"zip":"32343","city":"Midway","state":"FL","lat":30.485,"long":-84.4768},{"zip":"32351","city":"Quincy","state":"FL","lat":30.5867,"long":-84.6094},{"zip":"32352","city":"Quincy","state":"FL","lat":30.6512,"long":-84.5866},{"zip":"32353","city":"Quincy","state":"FL","lat":30.5497,"long":-84.6069},{"zip":"32619","city":"Bell","state":"FL","lat":29.7837,"long":-82.8711},{"zip":"32693","city":"Trenton","state":"FL","lat":29.6133,"long":-82.8176},{"zip":"32456","city":"Port Saint Joe","state":"FL","lat":29.8119,"long":-85.303},{"zip":"32457","city":"Port Saint Joe","state":"FL","lat":29.8119,"long":-85.303},{"zip":"32465","city":"Wewahitchka","state":"FL","lat":30.0933,"long":-85.2048},{"zip":"32052","city":"Jasper","state":"FL","lat":30.5029,"long":-82.9322},{"zip":"32053","city":"Jennings","state":"FL","lat":30.5482,"long":-83.135},{"zip":"32096","city":"White Springs","state":"FL","lat":30.3387,"long":-82.7765},{"zip":"32425","city":"Bonifay","state":"FL","lat":30.8464,"long":-85.69},{"zip":"32452","city":"Noma","state":"FL","lat":30.9821,"long":-85.6185},{"zip":"32455","city":"Ponce De Leon","state":"FL","lat":30.7041,"long":-85.9546},{"zip":"32464","city":"Westville","state":"FL","lat":30.8747,"long":-85.913},{"zip":"32948","city":"Fellsmere","state":"FL","lat":27.7643,"long":-80.6019},{"zip":"32957","city":"Roseland","state":"FL","lat":27.8359,"long":-80.4931},{"zip":"32958","city":"Sebastian","state":"FL","lat":27.7901,"long":-80.4784},{"zip":"32960","city":"Vero Beach","state":"FL","lat":27.633,"long":-80.4031},{"zip":"32961","city":"Vero Beach","state":"FL","lat":27.6175,"long":-80.4231},{"zip":"32962","city":"Vero Beach","state":"FL","lat":27.5885,"long":-80.3923},{"zip":"32963","city":"Vero Beach","state":"FL","lat":27.6898,"long":-80.3757},{"zip":"32964","city":"Vero Beach","state":"FL","lat":27.6386,"long":-80.3973},{"zip":"32965","city":"Vero Beach","state":"FL","lat":27.6386,"long":-80.3973},{"zip":"32966","city":"Vero Beach","state":"FL","lat":27.6372,"long":-80.4794},{"zip":"32967","city":"Vero Beach","state":"FL","lat":27.6972,"long":-80.4416},{"zip":"32968","city":"Vero Beach","state":"FL","lat":27.5999,"long":-80.4382},{"zip":"32969","city":"Vero Beach","state":"FL","lat":27.709,"long":-80.5726},{"zip":"32970","city":"Wabasso","state":"FL","lat":27.7529,"long":-80.4743},{"zip":"32971","city":"Winter Beach","state":"FL","lat":27.7192,"long":-80.4206},{"zip":"32978","city":"Sebastian","state":"FL","lat":27.709,"long":-80.5726},{"zip":"32420","city":"Alford","state":"FL","lat":30.6412,"long":-85.3756},{"zip":"32423","city":"Bascom","state":"FL","lat":30.9514,"long":-85.0972},{"zip":"32426","city":"Campbellton","state":"FL","lat":30.9563,"long":-85.3766},{"zip":"32431","city":"Cottondale","state":"FL","lat":30.8004,"long":-85.3847},{"zip":"32432","city":"Cypress","state":"FL","lat":30.7158,"long":-85.0784},{"zip":"32440","city":"Graceville","state":"FL","lat":30.9426,"long":-85.5136},{"zip":"32442","city":"Grand Ridge","state":"FL","lat":30.7148,"long":-85.021},{"zip":"32443","city":"Greenwood","state":"FL","lat":30.8667,"long":-85.1153},{"zip":"32445","city":"Malone","state":"FL","lat":30.9602,"long":-85.1639},{"zip":"32446","city":"Marianna","state":"FL","lat":30.7996,"long":-85.2293},{"zip":"32447","city":"Marianna","state":"FL","lat":30.7603,"long":-85.2022},{"zip":"32448","city":"Marianna","state":"FL","lat":30.6749,"long":-85.2122},{"zip":"32460","city":"Sneads","state":"FL","lat":30.7276,"long":-84.9337},{"zip":"32336","city":"Lamont","state":"FL","lat":30.3772,"long":-83.8129},{"zip":"32337","city":"Lloyd","state":"FL","lat":30.4778,"long":-84.0228},{"zip":"32344","city":"Monticello","state":"FL","lat":30.5197,"long":-83.8925},{"zip":"32345","city":"Monticello","state":"FL","lat":30.5451,"long":-83.8713},{"zip":"32361","city":"Wacissa","state":"FL","lat":30.3585,"long":-83.9871},{"zip":"32753","city":"Debary","state":"FL","lat":28.883,"long":-81.3087},{"zip":"32013","city":"Day","state":"FL","lat":30.1941,"long":-83.2913},{"zip":"32066","city":"Mayo","state":"FL","lat":30.04,"long":-83.1462},{"zip":"32102","city":"Astor","state":"FL","lat":29.165,"long":-81.5399},{"zip":"32158","city":"Lady Lake","state":"FL","lat":28.9175,"long":-81.9229},{"zip":"32159","city":"Lady Lake","state":"FL","lat":28.9299,"long":-81.9256},{"zip":"32702","city":"Altoona","state":"FL","lat":29.0219,"long":-81.6323},{"zip":"32726","city":"Eustis","state":"FL","lat":28.855,"long":-81.6789},{"zip":"32727","city":"Eustis","state":"FL","lat":28.8555,"long":-81.6741},{"zip":"32735","city":"Grand Island","state":"FL","lat":28.8866,"long":-81.7391},{"zip":"32736","city":"Eustis","state":"FL","lat":28.9102,"long":-81.5235},{"zip":"32756","city":"Mount Dora","state":"FL","lat":28.8111,"long":-81.6536},{"zip":"32757","city":"Mount Dora","state":"FL","lat":28.774,"long":-81.6439},{"zip":"32767","city":"Paisley","state":"FL","lat":28.9993,"long":-81.503},{"zip":"32776","city":"Sorrento","state":"FL","lat":28.8035,"long":-81.5323},{"zip":"32778","city":"Tavares","state":"FL","lat":28.801,"long":-81.734},{"zip":"32784","city":"Umatilla","state":"FL","lat":28.9254,"long":-81.6801},{"zip":"32301","city":"Tallahassee","state":"FL","lat":30.4286,"long":-84.2593},{"zip":"32302","city":"Tallahassee","state":"FL","lat":30.4383,"long":-84.2807},{"zip":"32303","city":"Tallahassee","state":"FL","lat":30.4874,"long":-84.3189},{"zip":"32304","city":"Tallahassee","state":"FL","lat":30.4478,"long":-84.3211},{"zip":"32305","city":"Tallahassee","state":"FL","lat":30.334,"long":-84.287},{"zip":"32306","city":"Tallahassee","state":"FL","lat":30.4425,"long":-84.2986},{"zip":"32307","city":"Tallahassee","state":"FL","lat":30.4257,"long":-84.2877},{"zip":"32308","city":"Tallahassee","state":"FL","lat":30.4771,"long":-84.2246},{"zip":"32309","city":"Tallahassee","state":"FL","lat":30.5422,"long":-84.1413},{"zip":"32310","city":"Tallahassee","state":"FL","lat":30.3991,"long":-84.3298},{"zip":"32311","city":"Tallahassee","state":"FL","lat":30.4156,"long":-84.187},{"zip":"32312","city":"Tallahassee","state":"FL","lat":30.5185,"long":-84.2627},{"zip":"32313","city":"Tallahassee","state":"FL","lat":30.4793,"long":-84.3462},{"zip":"32314","city":"Tallahassee","state":"FL","lat":30.4793,"long":-84.3462},{"zip":"32315","city":"Tallahassee","state":"FL","lat":30.4793,"long":-84.3462},{"zip":"32316","city":"Tallahassee","state":"FL","lat":30.4793,"long":-84.3462},{"zip":"32317","city":"Tallahassee","state":"FL","lat":30.4651,"long":-84.1128},{"zip":"32362","city":"Woodville","state":"FL","lat":30.3193,"long":-84.2674},{"zip":"32395","city":"Tallahassee","state":"FL","lat":30.4793,"long":-84.3462},{"zip":"32399","city":"Tallahassee","state":"FL","lat":30.4383,"long":-84.2807},{"zip":"32621","city":"Bronson","state":"FL","lat":29.461,"long":-82.6356},{"zip":"32625","city":"Cedar Key","state":"FL","lat":29.171,"long":-83.0168},{"zip":"32626","city":"Chiefland","state":"FL","lat":29.4832,"long":-82.8809},{"zip":"32639","city":"Gulf Hammock","state":"FL","lat":29.2447,"long":-82.7402},{"zip":"32644","city":"Chiefland","state":"FL","lat":29.4602,"long":-82.8553},{"zip":"32668","city":"Morriston","state":"FL","lat":29.2813,"long":-82.4917},{"zip":"32683","city":"Otter Creek","state":"FL","lat":29.3109,"long":-82.7945},{"zip":"32696","city":"Williston","state":"FL","lat":29.3977,"long":-82.4856},{"zip":"32321","city":"Bristol","state":"FL","lat":30.4223,"long":-84.9466},{"zip":"32334","city":"Hosford","state":"FL","lat":30.3639,"long":-84.8054},{"zip":"32335","city":"Sumatra","state":"FL","lat":30.0206,"long":-84.9806},{"zip":"32360","city":"Telogia","state":"FL","lat":30.3511,"long":-84.8203},{"zip":"32059","city":"Lee","state":"FL","lat":30.3979,"long":-83.2844},{"zip":"32331","city":"Greenville","state":"FL","lat":30.4512,"long":-83.6474},{"zip":"32340","city":"Madison","state":"FL","lat":30.4802,"long":-83.4067},{"zip":"32341","city":"Madison","state":"FL","lat":30.4776,"long":-83.3914},{"zip":"32350","city":"Pinetta","state":"FL","lat":30.5997,"long":-83.3405},{"zip":"32111","city":"Candler","state":"FL","lat":29.0607,"long":-81.969},{"zip":"32113","city":"Citra","state":"FL","lat":29.3918,"long":-82.1062},{"zip":"32133","city":"Eastlake Weir","state":"FL","lat":29.0088,"long":-81.9094},{"zip":"32134","city":"Fort Mc Coy","state":"FL","lat":29.391,"long":-81.8551},{"zip":"32179","city":"Ocklawaha","state":"FL","lat":29.0643,"long":-81.8857},{"zip":"32182","city":"Orange Springs","state":"FL","lat":29.4856,"long":-81.9589},{"zip":"32183","city":"Ocklawaha","state":"FL","lat":29.0597,"long":-81.9051},{"zip":"32192","city":"Sparr","state":"FL","lat":29.3268,"long":-82.1046},{"zip":"32195","city":"Weirsdale","state":"FL","lat":28.9782,"long":-81.8932},{"zip":"32617","city":"Anthony","state":"FL","lat":29.3048,"long":-82.1262},{"zip":"32634","city":"Fairfield","state":"FL","lat":29.3509,"long":-82.2765},{"zip":"32663","city":"Lowell","state":"FL","lat":29.3424,"long":-82.2126},{"zip":"32664","city":"Mc Intosh","state":"FL","lat":29.438,"long":-82.2295},{"zip":"32681","city":"Orange Lake","state":"FL","lat":29.4281,"long":-82.2449},{"zip":"32686","city":"Reddick","state":"FL","lat":29.3754,"long":-82.244},{"zip":"32009","city":"Bryceville","state":"FL","lat":30.4193,"long":-81.9724},{"zip":"32011","city":"Callahan","state":"FL","lat":30.552,"long":-81.8145},{"zip":"32034","city":"Fernandina Beach","state":"FL","lat":30.6697,"long":-81.4626},{"zip":"32035","city":"Fernandina Beach","state":"FL","lat":30.6697,"long":-81.4626},{"zip":"32041","city":"Yulee","state":"FL","lat":30.6233,"long":-81.5902},{"zip":"32046","city":"Hilliard","state":"FL","lat":30.6884,"long":-81.9345},{"zip":"32097","city":"Yulee","state":"FL","lat":30.6222,"long":-81.5906},{"zip":"32531","city":"Baker","state":"FL","lat":30.8316,"long":-86.677},{"zip":"32536","city":"Crestview","state":"FL","lat":30.7644,"long":-86.5917},{"zip":"32537","city":"Milligan","state":"FL","lat":30.742,"long":-86.6552},{"zip":"32539","city":"Crestview","state":"FL","lat":30.7773,"long":-86.4832},{"zip":"32540","city":"Destin","state":"FL","lat":30.3935,"long":-86.4958},{"zip":"32541","city":"Destin","state":"FL","lat":30.3949,"long":-86.4692},{"zip":"32542","city":"Eglin Afb","state":"FL","lat":30.5393,"long":-86.6087},{"zip":"32544","city":"Hurlburt Field","state":"FL","lat":30.4229,"long":-86.6985},{"zip":"32547","city":"Fort Walton Beach","state":"FL","lat":30.4487,"long":-86.6255},{"zip":"32548","city":"Fort Walton Beach","state":"FL","lat":30.4206,"long":-86.6286},{"zip":"32549","city":"Fort Walton Beach","state":"FL","lat":30.4208,"long":-86.6194},{"zip":"32564","city":"Holt","state":"FL","lat":30.7416,"long":-86.7198},{"zip":"32567","city":"Laurel Hill","state":"FL","lat":30.9524,"long":-86.4003},{"zip":"32569","city":"Mary Esther","state":"FL","lat":30.4085,"long":-86.7352},{"zip":"32578","city":"Niceville","state":"FL","lat":30.5169,"long":-86.4822},{"zip":"32579","city":"Shalimar","state":"FL","lat":30.4456,"long":-86.5717},{"zip":"32580","city":"Valparaiso","state":"FL","lat":30.5092,"long":-86.5009},{"zip":"32588","city":"Niceville","state":"FL","lat":30.6612,"long":-86.5945},{"zip":"32703","city":"Apopka","state":"FL","lat":28.6354,"long":-81.4888},{"zip":"32704","city":"Apopka","state":"FL","lat":28.6762,"long":-81.5119},{"zip":"32709","city":"Christmas","state":"FL","lat":28.5462,"long":-81.0116},{"zip":"32710","city":"Clarcona","state":"FL","lat":28.6128,"long":-81.4987},{"zip":"32712","city":"Apopka","state":"FL","lat":28.712,"long":-81.5136},{"zip":"32751","city":"Maitland","state":"FL","lat":28.6255,"long":-81.3646},{"zip":"32768","city":"Plymouth","state":"FL","lat":28.6985,"long":-81.5698},{"zip":"32777","city":"Tangerine","state":"FL","lat":28.765,"long":-81.6306},{"zip":"32789","city":"Winter Park","state":"FL","lat":28.5978,"long":-81.3534},{"zip":"32790","city":"Winter Park","state":"FL","lat":28.5663,"long":-81.2608},{"zip":"32792","city":"Winter Park","state":"FL","lat":28.5974,"long":-81.3036},{"zip":"32793","city":"Winter Park","state":"FL","lat":28.5663,"long":-81.2608},{"zip":"32794","city":"Maitland","state":"FL","lat":28.6278,"long":-81.3631},{"zip":"32798","city":"Zellwood","state":"FL","lat":28.7194,"long":-81.5762},{"zip":"32801","city":"Orlando","state":"FL","lat":28.5399,"long":-81.3727},{"zip":"32802","city":"Orlando","state":"FL","lat":28.5383,"long":-81.3792},{"zip":"32803","city":"Orlando","state":"FL","lat":28.5559,"long":-81.3535},{"zip":"32804","city":"Orlando","state":"FL","lat":28.5754,"long":-81.3955},{"zip":"32805","city":"Orlando","state":"FL","lat":28.5302,"long":-81.4045},{"zip":"32806","city":"Orlando","state":"FL","lat":28.514,"long":-81.357},{"zip":"32807","city":"Orlando","state":"FL","lat":28.5515,"long":-81.3051},{"zip":"32808","city":"Orlando","state":"FL","lat":28.5803,"long":-81.4396},{"zip":"32809","city":"Orlando","state":"FL","lat":28.4637,"long":-81.3948},{"zip":"32810","city":"Orlando","state":"FL","lat":28.6214,"long":-81.4294},{"zip":"32811","city":"Orlando","state":"FL","lat":28.5163,"long":-81.4516},{"zip":"32812","city":"Orlando","state":"FL","lat":28.4998,"long":-81.3288},{"zip":"32814","city":"Orlando","state":"FL","lat":28.5702,"long":-81.3265},{"zip":"32816","city":"Orlando","state":"FL","lat":28.5663,"long":-81.2608},{"zip":"32817","city":"Orlando","state":"FL","lat":28.5891,"long":-81.2277},{"zip":"32818","city":"Orlando","state":"FL","lat":28.5801,"long":-81.4846},{"zip":"32819","city":"Orlando","state":"FL","lat":28.4522,"long":-81.4678},{"zip":"32820","city":"Orlando","state":"FL","lat":28.5725,"long":-81.1219},{"zip":"32821","city":"Orlando","state":"FL","lat":28.3957,"long":-81.4666},{"zip":"32822","city":"Orlando","state":"FL","lat":28.4944,"long":-81.2902},{"zip":"32824","city":"Orlando","state":"FL","lat":28.3932,"long":-81.3622},{"zip":"32825","city":"Orlando","state":"FL","lat":28.5469,"long":-81.2571},{"zip":"32826","city":"Orlando","state":"FL","lat":28.5826,"long":-81.1907},{"zip":"32827","city":"Orlando","state":"FL","lat":28.4317,"long":-81.343},{"zip":"32828","city":"Orlando","state":"FL","lat":28.5523,"long":-81.1795},{"zip":"32829","city":"Orlando","state":"FL","lat":28.4671,"long":-81.2417},{"zip":"32830","city":"Orlando","state":"FL","lat":28.3822,"long":-81.569},{"zip":"32831","city":"Orlando","state":"FL","lat":28.4656,"long":-81.151},{"zip":"32832","city":"Orlando","state":"FL","lat":28.3774,"long":-81.1888},{"zip":"32833","city":"Orlando","state":"FL","lat":28.5088,"long":-81.0703},{"zip":"32834","city":"Orlando","state":"FL","lat":28.5663,"long":-81.2608},{"zip":"32835","city":"Orlando","state":"FL","lat":28.5289,"long":-81.4787},{"zip":"32836","city":"Orlando","state":"FL","lat":28.4115,"long":-81.525},{"zip":"32837","city":"Orlando","state":"FL","lat":28.3949,"long":-81.4179},{"zip":"32839","city":"Orlando","state":"FL","lat":28.4871,"long":-81.4082},{"zip":"32853","city":"Orlando","state":"FL","lat":28.5663,"long":-81.2608},{"zip":"32854","city":"Orlando","state":"FL","lat":28.5663,"long":-81.2608},{"zip":"32855","city":"Orlando","state":"FL","lat":28.5383,"long":-81.3792},{"zip":"32856","city":"Orlando","state":"FL","lat":28.5484,"long":-81.4201},{"zip":"32857","city":"Orlando","state":"FL","lat":28.5663,"long":-81.2608},{"zip":"32858","city":"Orlando","state":"FL","lat":28.5663,"long":-81.2608},{"zip":"32859","city":"Orlando","state":"FL","lat":28.4429,"long":-81.4026},{"zip":"32860","city":"Orlando","state":"FL","lat":28.5663,"long":-81.2608},{"zip":"32861","city":"Orlando","state":"FL","lat":28.5663,"long":-81.2608},{"zip":"32862","city":"Orlando","state":"FL","lat":28.5383,"long":-81.3792},{"zip":"32867","city":"Orlando","state":"FL","lat":28.5663,"long":-81.2608},{"zip":"32868","city":"Orlando","state":"FL","lat":28.5663,"long":-81.2608},{"zip":"32869","city":"Orlando","state":"FL","lat":28.5663,"long":-81.2608},{"zip":"32872","city":"Orlando","state":"FL","lat":28.5383,"long":-81.3792},{"zip":"32877","city":"Orlando","state":"FL","lat":28.5663,"long":-81.2608},{"zip":"32878","city":"Orlando","state":"FL","lat":28.5663,"long":-81.2608},{"zip":"32885","city":"Orlando","state":"FL","lat":28.5456,"long":-81.3782},{"zip":"32886","city":"Orlando","state":"FL","lat":28.5383,"long":-81.3792},{"zip":"32887","city":"Orlando","state":"FL","lat":28.5663,"long":-81.2608},{"zip":"32891","city":"Orlando","state":"FL","lat":28.5663,"long":-81.2608},{"zip":"32896","city":"Orlando","state":"FL","lat":28.5419,"long":-81.3791},{"zip":"32897","city":"Orlando","state":"FL","lat":28.5383,"long":-81.3792},{"zip":"32007","city":"Bostwick","state":"FL","lat":29.7996,"long":-81.6273},{"zip":"32112","city":"Crescent City","state":"FL","lat":29.4272,"long":-81.5579},{"zip":"32131","city":"East Palatka","state":"FL","lat":29.6609,"long":-81.5879},{"zip":"32138","city":"Grandin","state":"FL","lat":29.7277,"long":-81.9184},{"zip":"32139","city":"Georgetown","state":"FL","lat":29.3842,"long":-81.6183},{"zip":"32140","city":"Florahome","state":"FL","lat":29.7581,"long":-81.8622},{"zip":"32147","city":"Hollister","state":"FL","lat":29.6227,"long":-81.8137},{"zip":"32148","city":"Interlachen","state":"FL","lat":29.627,"long":-81.8894},{"zip":"32149","city":"Interlachen","state":"FL","lat":29.6242,"long":-81.8926},{"zip":"32157","city":"Lake Como","state":"FL","lat":29.4582,"long":-81.5914},{"zip":"32177","city":"Palatka","state":"FL","lat":29.6577,"long":-81.6595},{"zip":"32178","city":"Palatka","state":"FL","lat":29.6486,"long":-81.6376},{"zip":"32181","city":"Pomona Park","state":"FL","lat":29.5002,"long":-81.5915},{"zip":"32185","city":"Putnam Hall","state":"FL","lat":29.7368,"long":-81.958},{"zip":"32187","city":"San Mateo","state":"FL","lat":29.5888,"long":-81.5921},{"zip":"32189","city":"Satsuma","state":"FL","lat":29.5594,"long":-81.6406},{"zip":"32193","city":"Welaka","state":"FL","lat":29.4905,"long":-81.653},{"zip":"32666","city":"Melrose","state":"FL","lat":29.7325,"long":-82.0279},{"zip":"32004","city":"Ponte Vedra Beach","state":"FL","lat":30.2397,"long":-81.3856},{"zip":"32033","city":"Elkton","state":"FL","lat":29.7882,"long":-81.462},{"zip":"32080","city":"Saint Augustine","state":"FL","lat":29.7964,"long":-81.2649},{"zip":"32081","city":"Ponte Vedra","state":"FL","lat":30.1204,"long":-81.4128},{"zip":"32082","city":"Ponte Vedra Beach","state":"FL","lat":30.1223,"long":-81.3627},{"zip":"32084","city":"Saint Augustine","state":"FL","lat":29.9175,"long":-81.3668},{"zip":"32085","city":"Saint Augustine","state":"FL","lat":29.9377,"long":-81.4206},{"zip":"32086","city":"Saint Augustine","state":"FL","lat":29.8285,"long":-81.3237},{"zip":"32092","city":"Saint Augustine","state":"FL","lat":29.9475,"long":-81.5264},{"zip":"32095","city":"Saint Augustine","state":"FL","lat":30.011,"long":-81.4108},{"zip":"32145","city":"Hastings","state":"FL","lat":29.7051,"long":-81.4909},{"zip":"32259","city":"Saint Johns","state":"FL","lat":30.3259,"long":-81.6119},{"zip":"32260","city":"Jacksonville","state":"FL","lat":29.9377,"long":-81.4206},{"zip":"32530","city":"Bagdad","state":"FL","lat":30.5986,"long":-87.0315},{"zip":"32561","city":"Gulf Breeze","state":"FL","lat":30.3571,"long":-87.1639},{"zip":"32562","city":"Gulf Breeze","state":"FL","lat":30.3571,"long":-87.1639},{"zip":"32563","city":"Gulf Breeze","state":"FL","lat":30.3962,"long":-87.0274},{"zip":"32565","city":"Jay","state":"FL","lat":30.8985,"long":-87.1332},{"zip":"32566","city":"Navarre","state":"FL","lat":30.4212,"long":-86.8926},{"zip":"32570","city":"Milton","state":"FL","lat":30.6604,"long":-87.0473},{"zip":"32571","city":"Milton","state":"FL","lat":30.6698,"long":-87.1794},{"zip":"32572","city":"Milton","state":"FL","lat":30.6592,"long":-87.0497},{"zip":"32583","city":"Milton","state":"FL","lat":30.5761,"long":-87.0663},{"zip":"32701","city":"Altamonte Springs","state":"FL","lat":28.6666,"long":-81.365},{"zip":"32707","city":"Casselberry","state":"FL","lat":28.6617,"long":-81.3122},{"zip":"32708","city":"Winter Springs","state":"FL","lat":28.6831,"long":-81.2814},{"zip":"32714","city":"Altamonte Springs","state":"FL","lat":28.6625,"long":-81.4117},{"zip":"32715","city":"Altamonte Springs","state":"FL","lat":28.6611,"long":-81.3656},{"zip":"32716","city":"Altamonte Springs","state":"FL","lat":28.7448,"long":-81.2233},{"zip":"32718","city":"Casselberry","state":"FL","lat":28.7448,"long":-81.2233},{"zip":"32719","city":"Winter Springs","state":"FL","lat":28.7448,"long":-81.2233},{"zip":"32730","city":"Casselberry","state":"FL","lat":28.6513,"long":-81.3418},{"zip":"32732","city":"Geneva","state":"FL","lat":28.7503,"long":-81.1114},{"zip":"32733","city":"Goldenrod","state":"FL","lat":28.6133,"long":-81.2581},{"zip":"32746","city":"Lake Mary","state":"FL","lat":28.7577,"long":-81.3508},{"zip":"32747","city":"Lake Monroe","state":"FL","lat":28.8272,"long":-81.3329},{"zip":"32750","city":"Longwood","state":"FL","lat":28.712,"long":-81.3552},{"zip":"32752","city":"Longwood","state":"FL","lat":28.7448,"long":-81.2233},{"zip":"32762","city":"Oviedo","state":"FL","lat":28.7448,"long":-81.2233},{"zip":"32765","city":"Oviedo","state":"FL","lat":28.6513,"long":-81.2066},{"zip":"32766","city":"Oviedo","state":"FL","lat":28.6607,"long":-81.1134},{"zip":"32771","city":"Sanford","state":"FL","lat":28.8013,"long":-81.285},{"zip":"32772","city":"Sanford","state":"FL","lat":28.8072,"long":-81.2502},{"zip":"32773","city":"Sanford","state":"FL","lat":28.7644,"long":-81.282},{"zip":"32779","city":"Longwood","state":"FL","lat":28.7168,"long":-81.4126},{"zip":"32791","city":"Longwood","state":"FL","lat":28.7448,"long":-81.2233},{"zip":"32795","city":"Lake Mary","state":"FL","lat":28.7448,"long":-81.2233},{"zip":"32799","city":"Mid Florida","state":"FL","lat":28.7448,"long":-81.2233},{"zip":"32162","city":"The Villages","state":"FL","lat":28.9341,"long":-81.9599},{"zip":"32163","city":"The Villages","state":"FL","lat":28.9338,"long":-81.9914},{"zip":"32008","city":"Branford","state":"FL","lat":29.9395,"long":-82.8993},{"zip":"32060","city":"Live Oak","state":"FL","lat":30.1759,"long":-83.0304},{"zip":"32062","city":"Mc Alpin","state":"FL","lat":30.1509,"long":-82.9662},{"zip":"32064","city":"Live Oak","state":"FL","lat":30.2956,"long":-82.9844},{"zip":"32071","city":"O Brien","state":"FL","lat":30.0381,"long":-82.93},{"zip":"32094","city":"Wellborn","state":"FL","lat":30.1796,"long":-82.8505},{"zip":"32347","city":"Perry","state":"FL","lat":30.1668,"long":-83.616},{"zip":"32348","city":"Perry","state":"FL","lat":29.9665,"long":-83.6594},{"zip":"32356","city":"Salem","state":"FL","lat":29.8539,"long":-83.4421},{"zip":"32357","city":"Shady Grove","state":"FL","lat":30.288,"long":-83.6318},{"zip":"32359","city":"Steinhatchee","state":"FL","lat":29.6739,"long":-83.3723},{"zip":"32026","city":"Raiford","state":"FL","lat":30.0699,"long":-82.1927},{"zip":"32054","city":"Lake Butler","state":"FL","lat":30.0035,"long":-82.3828},{"zip":"32083","city":"Raiford","state":"FL","lat":30.0704,"long":-82.2001},{"zip":"32697","city":"Worthington Springs","state":"FL","lat":29.9315,"long":-82.4255},{"zip":"32105","city":"Barberville","state":"FL","lat":29.2005,"long":-81.4065},{"zip":"32114","city":"Daytona Beach","state":"FL","lat":29.2012,"long":-81.0371},{"zip":"32115","city":"Daytona Beach","state":"FL","lat":29.2108,"long":-81.0228},{"zip":"32116","city":"Daytona Beach","state":"FL","lat":29.1091,"long":-80.9843},{"zip":"32117","city":"Daytona Beach","state":"FL","lat":29.2353,"long":-81.0658},{"zip":"32118","city":"Daytona Beach","state":"FL","lat":29.2219,"long":-81.0095},{"zip":"32119","city":"Daytona Beach","state":"FL","lat":29.16,"long":-81.0269},{"zip":"32120","city":"Daytona Beach","state":"FL","lat":29.2108,"long":-81.0228},{"zip":"32121","city":"Daytona Beach","state":"FL","lat":29.2108,"long":-81.0228},{"zip":"32122","city":"Daytona Beach","state":"FL","lat":29.2108,"long":-81.0228},{"zip":"32123","city":"Port Orange","state":"FL","lat":29.1383,"long":-80.9956},{"zip":"32124","city":"Daytona Beach","state":"FL","lat":29.1419,"long":-81.1402},{"zip":"32125","city":"Daytona Beach","state":"FL","lat":29.2108,"long":-81.0228},{"zip":"32126","city":"Daytona Beach","state":"FL","lat":29.2108,"long":-81.0228},{"zip":"32127","city":"Port Orange","state":"FL","lat":29.1383,"long":-80.9956},{"zip":"32128","city":"Port Orange","state":"FL","lat":29.1383,"long":-80.9956},{"zip":"32129","city":"Port Orange","state":"FL","lat":29.1372,"long":-81.0241},{"zip":"32130","city":"De Leon Springs","state":"FL","lat":29.1166,"long":-81.3488},{"zip":"32132","city":"Edgewater","state":"FL","lat":28.9818,"long":-80.9103},{"zip":"32141","city":"Edgewater","state":"FL","lat":28.9455,"long":-80.8969},{"zip":"32168","city":"New Smyrna Beach","state":"FL","lat":29.0247,"long":-80.9584},{"zip":"32169","city":"New Smyrna Beach","state":"FL","lat":29.0172,"long":-80.8885},{"zip":"32170","city":"New Smyrna Beach","state":"FL","lat":29.0258,"long":-80.927},{"zip":"32173","city":"Ormond Beach","state":"FL","lat":29.2858,"long":-81.0559},{"zip":"32174","city":"Ormond Beach","state":"FL","lat":29.2833,"long":-81.0882},{"zip":"32175","city":"Ormond Beach","state":"FL","lat":29.2858,"long":-81.0559},{"zip":"32176","city":"Ormond Beach","state":"FL","lat":29.3222,"long":-81.0584},{"zip":"32180","city":"Pierson","state":"FL","lat":29.2226,"long":-81.4353},{"zip":"32190","city":"Seville","state":"FL","lat":29.3201,"long":-81.5279},{"zip":"32198","city":"Daytona Beach","state":"FL","lat":29.2108,"long":-81.0228},{"zip":"32706","city":"Cassadaga","state":"FL","lat":28.9664,"long":-81.2371},{"zip":"32713","city":"Debary","state":"FL","lat":28.8846,"long":-81.3065},{"zip":"32720","city":"Deland","state":"FL","lat":29.0266,"long":-81.3349},{"zip":"32721","city":"Deland","state":"FL","lat":28.9973,"long":-81.2995},{"zip":"32722","city":"Glenwood","state":"FL","lat":29.0861,"long":-81.3542},{"zip":"32723","city":"Deland","state":"FL","lat":29.0275,"long":-81.3068},{"zip":"32724","city":"Deland","state":"FL","lat":29.0422,"long":-81.2863},{"zip":"32725","city":"Deltona","state":"FL","lat":28.8989,"long":-81.2473},{"zip":"32728","city":"Deltona","state":"FL","lat":29.0227,"long":-81.1722},{"zip":"32738","city":"Deltona","state":"FL","lat":28.9093,"long":-81.1922},{"zip":"32739","city":"Deltona","state":"FL","lat":29.0227,"long":-81.1722},{"zip":"32744","city":"Lake Helen","state":"FL","lat":28.9806,"long":-81.2334},{"zip":"32745","city":"Mid Florida","state":"FL","lat":28.7676,"long":-81.3522},{"zip":"32759","city":"Oak Hill","state":"FL","lat":28.87,"long":-80.8551},{"zip":"32763","city":"Orange City","state":"FL","lat":28.9453,"long":-81.2995},{"zip":"32764","city":"Osteen","state":"FL","lat":28.8426,"long":-81.1562},{"zip":"32774","city":"Orange City","state":"FL","lat":28.9489,"long":-81.2987},{"zip":"32326","city":"Crawfordville","state":"FL","lat":30.176,"long":-84.3752},{"zip":"32327","city":"Crawfordville","state":"FL","lat":30.2108,"long":-84.3205},{"zip":"32346","city":"Panacea","state":"FL","lat":30.0153,"long":-84.3912},{"zip":"32355","city":"Saint Marks","state":"FL","lat":30.1631,"long":-84.2083},{"zip":"32358","city":"Sopchoppy","state":"FL","lat":30.0714,"long":-84.4549},{"zip":"32422","city":"Argyle","state":"FL","lat":30.7056,"long":-86.0314},{"zip":"32433","city":"Defuniak Springs","state":"FL","lat":30.8494,"long":-86.2023},{"zip":"32434","city":"Mossy Head","state":"FL","lat":30.7432,"long":-86.3149},{"zip":"32435","city":"Defuniak Springs","state":"FL","lat":30.6038,"long":-86.1211},{"zip":"32439","city":"Freeport","state":"FL","lat":30.4896,"long":-86.1684},{"zip":"32459","city":"Santa Rosa Beach","state":"FL","lat":30.3659,"long":-86.2458},{"zip":"32461","city":"Rosemary Beach","state":"FL","lat":30.2835,"long":-86.0305},{"zip":"32538","city":"Paxton","state":"FL","lat":30.9709,"long":-86.3111},{"zip":"32550","city":"Miramar Beach","state":"FL","lat":30.385,"long":-86.3473},{"zip":"32427","city":"Caryville","state":"FL","lat":30.7123,"long":-85.8014},{"zip":"32428","city":"Chipley","state":"FL","lat":30.7107,"long":-85.5486},{"zip":"32437","city":"Ebro","state":"FL","lat":30.4352,"long":-85.8881},{"zip":"32462","city":"Vernon","state":"FL","lat":30.6267,"long":-85.7553},{"zip":"32463","city":"Wausau","state":"FL","lat":30.6321,"long":-85.5888}]
