[{"zip":"32040","city":"Glen Saint Mary","state":"FL","lat":30.2861,"long":-82.2041},{"zip":"32063","city":"Macclenny","state":"FL","lat":30.2737,"long":-82.1325},{"zip":"32072","city":"Olustee","state":"FL","lat":30.2041,"long":-82.4287},{"zip":"32087","city":"Sanderson","state":"FL","lat":30.2522,"long":-82.2729},{"zip":"32042","city":"Graham","state":"FL","lat":29.9689,"long":-82.1226},{"zip":"32044","city":"Hampton","state":"FL","lat":29.8575,"long":-82.1483},{"zip":"32058","city":"Lawtey","state":"FL","lat":30.0472,"long":-82.1055},{"zip":"32091","city":"Starke","state":"FL","lat":29.9583,"long":-82.1185},{"zip":"32003","city":"Fleming Island","state":"FL","lat":30.0933,"long":-81.719},{"zip":"32006","city":"Fleming Island","state":"FL","lat":30.107,"long":-81.7167},{"zip":"32030","city":"Doctors Inlet","state":"FL","lat":30.1056,"long":-81.769},{"zip":"32043","city":"Green Cove Springs","state":"FL","lat":29.9983,"long":-81.7647},{"zip":"32050","city":"Middleburg","state":"FL","lat":30.0689,"long":-81.8604},{"zip":"32065","city":"Orange Park","state":"FL","lat":30.1382,"long":-81.7742},{"zip":"32067","city":"Orange Park","state":"FL","lat":30.1661,"long":-81.7065},{"zip":"32068","city":"Middleburg","state":"FL","lat":30.084,"long":-81.8645},{"zip":"32073","city":"Orange Park","state":"FL","lat":30.1637,"long":-81.7291},{"zip":"32079","city":"Penney Farms","state":"FL","lat":29.9849,"long":-81.8022},{"zip":"32024","city":"Lake City","state":"FL","lat":30.1055,"long":-82.6878},{"zip":"32025","city":"Lake City","state":"FL","lat":30.1601,"long":-82.6396},{"zip":"32038","city":"Fort White","state":"FL","lat":29.9207,"long":-82.6879},{"zip":"32055","city":"Lake City","state":"FL","lat":30.2702,"long":-82.6254},{"zip":"32056","city":"Lake City","state":"FL","lat":30.1897,"long":-82.6393},{"zip":"32061","city":"Lulu","state":"FL","lat":30.0754,"long":-82.5385},{"zip":"32099","city":"Jacksonville","state":"FL","lat":30.3375,"long":-81.7686},{"zip":"32052","city":"Jasper","state":"FL","lat":30.5029,"long":-82.9322},{"zip":"32053","city":"Jennings","state":"FL","lat":30.5482,"long":-83.135},{"zip":"32096","city":"White Springs","state":"FL","lat":30.3387,"long":-82.7765},{"zip":"32013","city":"Day","state":"FL","lat":30.1941,"long":-83.2913},{"zip":"32066","city":"Mayo","state":"FL","lat":30.04,"long":-83.1462},{"zip":"32059","city":"Lee","state":"FL","lat":30.3979,"long":-83.2844},{"zip":"32009","city":"Bryceville","state":"FL","lat":30.4193,"long":-81.9724},{"zip":"32011","city":"Callahan","state":"FL","lat":30.552,"long":-81.8145},{"zip":"32034","city":"Fernandina Beach","state":"FL","lat":30.6697,"long":-81.4626},{"zip":"32035","city":"Fernandina Beach","state":"FL","lat":30.6697,"long":-81.4626},{"zip":"32041","city":"Yulee","state":"FL","lat":30.6233,"long":-81.5902},{"zip":"32046","city":"Hilliard","state":"FL","lat":30.6884,"long":-81.9345},{"zip":"32097","city":"Yulee","state":"FL","lat":30.6222,"long":-81.5906},{"zip":"32007","city":"Bostwick","state":"FL","lat":29.7996,"long":-81.6273},{"zip":"32004","city":"Ponte Vedra Beach","state":"FL","lat":30.2397,"long":-81.3856},{"zip":"32033","city":"Elkton","state":"FL","lat":29.7882,"long":-81.462},{"zip":"32080","city":"Saint Augustine","state":"FL","lat":29.7964,"long":-81.2649},{"zip":"32081","city":"Ponte Vedra","state":"FL","lat":30.1204,"long":-81.4128},{"zip":"32082","city":"Ponte Vedra Beach","state":"FL","lat":30.1223,"long":-81.3627},{"zip":"32084","city":"Saint Augustine","state":"FL","lat":29.9175,"long":-81.3668},{"zip":"32085","city":"Saint Augustine","state":"FL","lat":29.9377,"long":-81.4206},{"zip":"32086","city":"Saint Augustine","state":"FL","lat":29.8285,"long":-81.3237},{"zip":"32092","city":"Saint Augustine","state":"FL","lat":29.9475,"long":-81.5264},{"zip":"32095","city":"Saint Augustine","state":"FL","lat":30.011,"long":-81.4108},{"zip":"32008","city":"Branford","state":"FL","lat":29.9395,"long":-82.8993},{"zip":"32060","city":"Live Oak","state":"FL","lat":30.1759,"long":-83.0304},{"zip":"32062","city":"Mc Alpin","state":"FL","lat":30.1509,"long":-82.9662},{"zip":"32064","city":"Live Oak","state":"FL","lat":30.2956,"long":-82.9844},{"zip":"32071","city":"O Brien","state":"FL","lat":30.0381,"long":-82.93},{"zip":"32094","city":"Wellborn","state":"FL","lat":30.1796,"long":-82.8505},{"zip":"32026","city":"Raiford","state":"FL","lat":30.0699,"long":-82.1927},{"zip":"32054","city":"Lake Butler","state":"FL","lat":30.0035,"long":-82.3828},{"zip":"32083","city":"Raiford","state":"FL","lat":30.0704,"long":-82.2001}]
