[{"zip":"32160","city":"Lake Geneva","state":"FL","lat":29.7683,"long":-81.9907},{"zip":"32110","city":"Bunnell","state":"FL","lat":29.4562,"long":-81.3244},{"zip":"32135","city":"Palm Coast","state":"FL","lat":29.4661,"long":-81.2828},{"zip":"32136","city":"Flagler Beach","state":"FL","lat":29.475,"long":-81.1303},{"zip":"32137","city":"Palm Coast","state":"FL","lat":29.5565,"long":-81.219},{"zip":"32142","city":"Palm Coast","state":"FL","lat":29.4661,"long":-81.2828},{"zip":"32143","city":"Palm Coast","state":"FL","lat":29.585,"long":-81.2078},{"zip":"32164","city":"Palm Coast","state":"FL","lat":29.4861,"long":-81.2045},{"zip":"32102","city":"Astor","state":"FL","lat":29.165,"long":-81.5399},{"zip":"32158","city":"Lady Lake","state":"FL","lat":28.9175,"long":-81.9229},{"zip":"32159","city":"Lady Lake","state":"FL","lat":28.9299,"long":-81.9256},{"zip":"32111","city":"Candler","state":"FL","lat":29.0607,"long":-81.969},{"zip":"32113","city":"Citra","state":"FL","lat":29.3918,"long":-82.1062},{"zip":"32133","city":"Eastlake Weir","state":"FL","lat":29.0088,"long":-81.9094},{"zip":"32134","city":"Fort Mc Coy","state":"FL","lat":29.391,"long":-81.8551},{"zip":"32179","city":"Ocklawaha","state":"FL","lat":29.0643,"long":-81.8857},{"zip":"32182","city":"Orange Springs","state":"FL","lat":29.4856,"long":-81.9589},{"zip":"32183","city":"Ocklawaha","state":"FL","lat":29.0597,"long":-81.9051},{"zip":"32192","city":"Sparr","state":"FL","lat":29.3268,"long":-82.1046},{"zip":"32195","city":"Weirsdale","state":"FL","lat":28.9782,"long":-81.8932},{"zip":"32112","city":"Crescent City","state":"FL","lat":29.4272,"long":-81.5579},{"zip":"32131","city":"East Palatka","state":"FL","lat":29.6609,"long":-81.5879},{"zip":"32138","city":"Grandin","state":"FL","lat":29.7277,"long":-81.9184},{"zip":"32139","city":"Georgetown","state":"FL","lat":29.3842,"long":-81.6183},{"zip":"32140","city":"Florahome","state":"FL","lat":29.7581,"long":-81.8622},{"zip":"32147","city":"Hollister","state":"FL","lat":29.6227,"long":-81.8137},{"zip":"32148","city":"Interlachen","state":"FL","lat":29.627,"long":-81.8894},{"zip":"32149","city":"Interlachen","state":"FL","lat":29.6242,"long":-81.8926},{"zip":"32157","city":"Lake Como","state":"FL","lat":29.4582,"long":-81.5914},{"zip":"32177","city":"Palatka","state":"FL","lat":29.6577,"long":-81.6595},{"zip":"32178","city":"Palatka","state":"FL","lat":29.6486,"long":-81.6376},{"zip":"32181","city":"Pomona Park","state":"FL","lat":29.5002,"long":-81.5915},{"zip":"32185","city":"Putnam Hall","state":"FL","lat":29.7368,"long":-81.958},{"zip":"32187","city":"San Mateo","state":"FL","lat":29.5888,"long":-81.5921},{"zip":"32189","city":"Satsuma","state":"FL","lat":29.5594,"long":-81.6406},{"zip":"32193","city":"Welaka","state":"FL","lat":29.4905,"long":-81.653},{"zip":"32145","city":"Hastings","state":"FL","lat":29.7051,"long":-81.4909},{"zip":"32162","city":"The Villages","state":"FL","lat":28.9341,"long":-81.9599},{"zip":"32163","city":"The Villages","state":"FL","lat":28.9338,"long":-81.9914},{"zip":"32105","city":"Barberville","state":"FL","lat":29.2005,"long":-81.4065},{"zip":"32114","city":"Daytona Beach","state":"FL","lat":29.2012,"long":-81.0371},{"zip":"32115","city":"Daytona Beach","state":"FL","lat":29.2108,"long":-81.0228},{"zip":"32116","city":"Daytona Beach","state":"FL","lat":29.1091,"long":-80.9843},{"zip":"32117","city":"Daytona Beach","state":"FL","lat":29.2353,"long":-81.0658},{"zip":"32118","city":"Daytona Beach","state":"FL","lat":29.2219,"long":-81.0095},{"zip":"32119","city":"Daytona Beach","state":"FL","lat":29.16,"long":-81.0269},{"zip":"32120","city":"Daytona Beach","state":"FL","lat":29.2108,"long":-81.0228},{"zip":"32121","city":"Daytona Beach","state":"FL","lat":29.2108,"long":-81.0228},{"zip":"32122","city":"Daytona Beach","state":"FL","lat":29.2108,"long":-81.0228},{"zip":"32123","city":"Port Orange","state":"FL","lat":29.1383,"long":-80.9956},{"zip":"32124","city":"Daytona Beach","state":"FL","lat":29.1419,"long":-81.1402},{"zip":"32125","city":"Daytona Beach","state":"FL","lat":29.2108,"long":-81.0228},{"zip":"32126","city":"Daytona Beach","state":"FL","lat":29.2108,"long":-81.0228},{"zip":"32127","city":"Port Orange","state":"FL","lat":29.1383,"long":-80.9956},{"zip":"32128","city":"Port Orange","state":"FL","lat":29.1383,"long":-80.9956},{"zip":"32129","city":"Port Orange","state":"FL","lat":29.1372,"long":-81.0241},{"zip":"32130","city":"De Leon Springs","state":"FL","lat":29.1166,"long":-81.3488},{"zip":"32132","city":"Edgewater","state":"FL","lat":28.9818,"long":-80.9103},{"zip":"32141","city":"Edgewater","state":"FL","lat":28.9455,"long":-80.8969},{"zip":"32168","city":"New Smyrna Beach","state":"FL","lat":29.0247,"long":-80.9584},{"zip":"32169","city":"New Smyrna Beach","state":"FL","lat":29.0172,"long":-80.8885},{"zip":"32170","city":"New Smyrna Beach","state":"FL","lat":29.0258,"long":-80.927},{"zip":"32173","city":"Ormond Beach","state":"FL","lat":29.2858,"long":-81.0559},{"zip":"32174","city":"Ormond Beach","state":"FL","lat":29.2833,"long":-81.0882},{"zip":"32175","city":"Ormond Beach","state":"FL","lat":29.2858,"long":-81.0559},{"zip":"32176","city":"Ormond Beach","state":"FL","lat":29.3222,"long":-81.0584},{"zip":"32180","city":"Pierson","state":"FL","lat":29.2226,"long":-81.4353},{"zip":"32190","city":"Seville","state":"FL","lat":29.3201,"long":-81.5279},{"zip":"32198","city":"Daytona Beach","state":"FL","lat":29.2108,"long":-81.0228}]
