[{"zip":"32201","city":"Jacksonville","state":"FL","lat":30.3894,"long":-81.6808},{"zip":"32202","city":"Jacksonville","state":"FL","lat":30.3299,"long":-81.6517},{"zip":"32203","city":"Jacksonville","state":"FL","lat":30.3228,"long":-81.547},{"zip":"32204","city":"Jacksonville","state":"FL","lat":30.3189,"long":-81.6854},{"zip":"32205","city":"Jacksonville","state":"FL","lat":30.3172,"long":-81.722},{"zip":"32206","city":"Jacksonville","state":"FL","lat":30.3511,"long":-81.6488},{"zip":"32207","city":"Jacksonville","state":"FL","lat":30.2908,"long":-81.6321},{"zip":"32208","city":"Jacksonville","state":"FL","lat":30.3937,"long":-81.6889},{"zip":"32209","city":"Jacksonville","state":"FL","lat":30.3584,"long":-81.692},{"zip":"32210","city":"Jacksonville","state":"FL","lat":30.2687,"long":-81.7473},{"zip":"32211","city":"Jacksonville","state":"FL","lat":30.348,"long":-81.5882},{"zip":"32212","city":"Jacksonville","state":"FL","lat":30.2132,"long":-81.69},{"zip":"32214","city":"Jacksonville","state":"FL","lat":30.3449,"long":-81.6831},{"zip":"32216","city":"Jacksonville","state":"FL","lat":30.2787,"long":-81.5831},{"zip":"32217","city":"Jacksonville","state":"FL","lat":30.2407,"long":-81.617},{"zip":"32218","city":"Jacksonville","state":"FL","lat":30.4507,"long":-81.6626},{"zip":"32219","city":"Jacksonville","state":"FL","lat":30.4034,"long":-81.7635},{"zip":"32220","city":"Jacksonville","state":"FL","lat":30.329,"long":-81.8176},{"zip":"32221","city":"Jacksonville","state":"FL","lat":30.2837,"long":-81.8202},{"zip":"32222","city":"Jacksonville","state":"FL","lat":30.2292,"long":-81.8131},{"zip":"32223","city":"Jacksonville","state":"FL","lat":30.1548,"long":-81.63},{"zip":"32224","city":"Jacksonville","state":"FL","lat":30.3031,"long":-81.4404},{"zip":"32225","city":"Jacksonville","state":"FL","lat":30.351,"long":-81.5061},{"zip":"32226","city":"Jacksonville","state":"FL","lat":30.4735,"long":-81.5448},{"zip":"32227","city":"Jacksonville","state":"FL","lat":30.3802,"long":-81.416},{"zip":"32228","city":"Jacksonville","state":"FL","lat":30.3824,"long":-81.4369},{"zip":"32229","city":"Jacksonville","state":"FL","lat":30.3449,"long":-81.6831},{"zip":"32231","city":"Jacksonville","state":"FL","lat":30.3449,"long":-81.6831},{"zip":"32232","city":"Jacksonville","state":"FL","lat":30.3449,"long":-81.6831},{"zip":"32233","city":"Atlantic Beach","state":"FL","lat":30.3483,"long":-81.4159},{"zip":"32234","city":"Jacksonville","state":"FL","lat":30.2757,"long":-81.9686},{"zip":"32235","city":"Jacksonville","state":"FL","lat":30.3449,"long":-81.6831},{"zip":"32236","city":"Jacksonville","state":"FL","lat":30.3449,"long":-81.6831},{"zip":"32237","city":"Jacksonville","state":"FL","lat":30.3449,"long":-81.6831},{"zip":"32238","city":"Jacksonville","state":"FL","lat":30.3449,"long":-81.6831},{"zip":"32239","city":"Jacksonville","state":"FL","lat":30.3449,"long":-81.6831},{"zip":"32240","city":"Jacksonville Beach","state":"FL","lat":30.2947,"long":-81.3931},{"zip":"32241","city":"Jacksonville","state":"FL","lat":30.3449,"long":-81.6831},{"zip":"32244","city":"Jacksonville","state":"FL","lat":30.2231,"long":-81.7556},{"zip":"32245","city":"Jacksonville","state":"FL","lat":30.3449,"long":-81.6831},{"zip":"32246","city":"Jacksonville","state":"FL","lat":30.2933,"long":-81.5092},{"zip":"32247","city":"Jacksonville","state":"FL","lat":30.3449,"long":-81.6831},{"zip":"32250","city":"Jacksonville Beach","state":"FL","lat":30.2801,"long":-81.4165},{"zip":"32254","city":"Jacksonville","state":"FL","lat":30.3415,"long":-81.7358},{"zip":"32255","city":"Jacksonville","state":"FL","lat":30.3322,"long":-81.6557},{"zip":"32256","city":"Jacksonville","state":"FL","lat":30.2214,"long":-81.5571},{"zip":"32257","city":"Jacksonville","state":"FL","lat":30.1927,"long":-81.605},{"zip":"32258","city":"Jacksonville","state":"FL","lat":30.1459,"long":-81.5739},{"zip":"32266","city":"Neptune Beach","state":"FL","lat":30.3155,"long":-81.4051},{"zip":"32277","city":"Jacksonville","state":"FL","lat":30.3704,"long":-81.5864},{"zip":"32259","city":"Saint Johns","state":"FL","lat":30.3259,"long":-81.6119},{"zip":"32260","city":"Jacksonville","state":"FL","lat":29.9377,"long":-81.4206}]
