[{"zip":"32318","city":"Tallahassee","state":"FL","lat":30.4383,"long":-84.2807},{"zip":"32320","city":"Apalachicola","state":"FL","lat":29.7255,"long":-85.0063},{"zip":"32322","city":"Carrabelle","state":"FL","lat":29.8692,"long":-84.6358},{"zip":"32323","city":"Lanark Village","state":"FL","lat":29.8826,"long":-84.5964},{"zip":"32328","city":"Eastpoint","state":"FL","lat":29.7495,"long":-84.8162},{"zip":"32329","city":"Apalachicola","state":"FL","lat":29.726,"long":-84.9856},{"zip":"32324","city":"Chattahoochee","state":"FL","lat":30.6834,"long":-84.828},{"zip":"32330","city":"Greensboro","state":"FL","lat":30.5696,"long":-84.7453},{"zip":"32332","city":"Gretna","state":"FL","lat":30.6171,"long":-84.6599},{"zip":"32333","city":"Havana","state":"FL","lat":30.6092,"long":-84.4143},{"zip":"32343","city":"Midway","state":"FL","lat":30.485,"long":-84.4768},{"zip":"32351","city":"Quincy","state":"FL","lat":30.5867,"long":-84.6094},{"zip":"32352","city":"Quincy","state":"FL","lat":30.6512,"long":-84.5866},{"zip":"32353","city":"Quincy","state":"FL","lat":30.5497,"long":-84.6069},{"zip":"32336","city":"Lamont","state":"FL","lat":30.3772,"long":-83.8129},{"zip":"32337","city":"Lloyd","state":"FL","lat":30.4778,"long":-84.0228},{"zip":"32344","city":"Monticello","state":"FL","lat":30.5197,"long":-83.8925},{"zip":"32345","city":"Monticello","state":"FL","lat":30.5451,"long":-83.8713},{"zip":"32361","city":"Wacissa","state":"FL","lat":30.3585,"long":-83.9871},{"zip":"32301","city":"Tallahassee","state":"FL","lat":30.4286,"long":-84.2593},{"zip":"32302","city":"Tallahassee","state":"FL","lat":30.4383,"long":-84.2807},{"zip":"32303","city":"Tallahassee","state":"FL","lat":30.4874,"long":-84.3189},{"zip":"32304","city":"Tallahassee","state":"FL","lat":30.4478,"long":-84.3211},{"zip":"32305","city":"Tallahassee","state":"FL","lat":30.334,"long":-84.287},{"zip":"32306","city":"Tallahassee","state":"FL","lat":30.4425,"long":-84.2986},{"zip":"32307","city":"Tallahassee","state":"FL","lat":30.4257,"long":-84.2877},{"zip":"32308","city":"Tallahassee","state":"FL","lat":30.4771,"long":-84.2246},{"zip":"32309","city":"Tallahassee","state":"FL","lat":30.5422,"long":-84.1413},{"zip":"32310","city":"Tallahassee","state":"FL","lat":30.3991,"long":-84.3298},{"zip":"32311","city":"Tallahassee","state":"FL","lat":30.4156,"long":-84.187},{"zip":"32312","city":"Tallahassee","state":"FL","lat":30.5185,"long":-84.2627},{"zip":"32313","city":"Tallahassee","state":"FL","lat":30.4793,"long":-84.3462},{"zip":"32314","city":"Tallahassee","state":"FL","lat":30.4793,"long":-84.3462},{"zip":"32315","city":"Tallahassee","state":"FL","lat":30.4793,"long":-84.3462},{"zip":"32316","city":"Tallahassee","state":"FL","lat":30.4793,"long":-84.3462},{"zip":"32317","city":"Tallahassee","state":"FL","lat":30.4651,"long":-84.1128},{"zip":"32362","city":"Woodville","state":"FL","lat":30.3193,"long":-84.2674},{"zip":"32395","city":"Tallahassee","state":"FL","lat":30.4793,"long":-84.3462},{"zip":"32399","city":"Tallahassee","state":"FL","lat":30.4383,"long":-84.2807},{"zip":"32321","city":"Bristol","state":"FL","lat":30.4223,"long":-84.9466},{"zip":"32334","city":"Hosford","state":"FL","lat":30.3639,"long":-84.8054},{"zip":"32335","city":"Sumatra","state":"FL","lat":30.0206,"long":-84.9806},{"zip":"32360","city":"Telogia","state":"FL","lat":30.3511,"long":-84.8203},{"zip":"32331","city":"Greenville","state":"FL","lat":30.4512,"long":-83.6474},{"zip":"32340","city":"Madison","state":"FL","lat":30.4802,"long":-83.4067},{"zip":"32341","city":"Madison","state":"FL","lat":30.4776,"long":-83.3914},{"zip":"32350","city":"Pinetta","state":"FL","lat":30.5997,"long":-83.3405},{"zip":"32347","city":"Perry","state":"FL","lat":30.1668,"long":-83.616},{"zip":"32348","city":"Perry","state":"FL","lat":29.9665,"long":-83.6594},{"zip":"32356","city":"Salem","state":"FL","lat":29.8539,"long":-83.4421},{"zip":"32357","city":"Shady Grove","state":"FL","lat":30.288,"long":-83.6318},{"zip":"32359","city":"Steinhatchee","state":"FL","lat":29.6739,"long":-83.3723},{"zip":"32326","city":"Crawfordville","state":"FL","lat":30.176,"long":-84.3752},{"zip":"32327","city":"Crawfordville","state":"FL","lat":30.2108,"long":-84.3205},{"zip":"32346","city":"Panacea","state":"FL","lat":30.0153,"long":-84.3912},{"zip":"32355","city":"Saint Marks","state":"FL","lat":30.1631,"long":-84.2083},{"zip":"32358","city":"Sopchoppy","state":"FL","lat":30.0714,"long":-84.4549}]
