[{"zip":"32401","city":"Panama City","state":"FL","lat":30.1606,"long":-85.6494},{"zip":"32402","city":"Panama City","state":"FL","lat":30.2345,"long":-85.692},{"zip":"32403","city":"Panama City","state":"FL","lat":30.0583,"long":-85.5762},{"zip":"32404","city":"Panama City","state":"FL","lat":30.1653,"long":-85.5763},{"zip":"32405","city":"Panama City","state":"FL","lat":30.1949,"long":-85.6727},{"zip":"32406","city":"Panama City","state":"FL","lat":30.2345,"long":-85.692},{"zip":"32407","city":"Panama City Beach","state":"FL","lat":30.2007,"long":-85.8136},{"zip":"32408","city":"Panama City","state":"FL","lat":30.1655,"long":-85.7116},{"zip":"32409","city":"Panama City","state":"FL","lat":30.3117,"long":-85.6923},{"zip":"32410","city":"Mexico Beach","state":"FL","lat":29.9395,"long":-85.4096},{"zip":"32411","city":"Panama City","state":"FL","lat":30.2345,"long":-85.692},{"zip":"32412","city":"Panama City","state":"FL","lat":30.2345,"long":-85.692},{"zip":"32413","city":"Panama City Beach","state":"FL","lat":30.3105,"long":-85.9106},{"zip":"32417","city":"Panama City","state":"FL","lat":30.1595,"long":-85.6598},{"zip":"32438","city":"Fountain","state":"FL","lat":30.4753,"long":-85.4293},{"zip":"32444","city":"Lynn Haven","state":"FL","lat":30.2362,"long":-85.6467},{"zip":"32466","city":"Youngstown","state":"FL","lat":30.3269,"long":-85.5169},{"zip":"32421","city":"Altha","state":"FL","lat":30.5319,"long":-85.1704},{"zip":"32424","city":"Blountstown","state":"FL","lat":30.4394,"long":-85.062},{"zip":"32430","city":"Clarksville","state":"FL","lat":30.3568,"long":-85.1898},{"zip":"32449","city":"Wewahitchka","state":"FL","lat":30.4059,"long":-85.1974},{"zip":"32456","city":"Port Saint Joe","state":"FL","lat":29.8119,"long":-85.303},{"zip":"32457","city":"Port Saint Joe","state":"FL","lat":29.8119,"long":-85.303},{"zip":"32465","city":"Wewahitchka","state":"FL","lat":30.0933,"long":-85.2048},{"zip":"32425","city":"Bonifay","state":"FL","lat":30.8464,"long":-85.69},{"zip":"32452","city":"Noma","state":"FL","lat":30.9821,"long":-85.6185},{"zip":"32455","city":"Ponce De Leon","state":"FL","lat":30.7041,"long":-85.9546},{"zip":"32464","city":"Westville","state":"FL","lat":30.8747,"long":-85.913},{"zip":"32420","city":"Alford","state":"FL","lat":30.6412,"long":-85.3756},{"zip":"32423","city":"Bascom","state":"FL","lat":30.9514,"long":-85.0972},{"zip":"32426","city":"Campbellton","state":"FL","lat":30.9563,"long":-85.3766},{"zip":"32431","city":"Cottondale","state":"FL","lat":30.8004,"long":-85.3847},{"zip":"32432","city":"Cypress","state":"FL","lat":30.7158,"long":-85.0784},{"zip":"32440","city":"Graceville","state":"FL","lat":30.9426,"long":-85.5136},{"zip":"32442","city":"Grand Ridge","state":"FL","lat":30.7148,"long":-85.021},{"zip":"32443","city":"Greenwood","state":"FL","lat":30.8667,"long":-85.1153},{"zip":"32445","city":"Malone","state":"FL","lat":30.9602,"long":-85.1639},{"zip":"32446","city":"Marianna","state":"FL","lat":30.7996,"long":-85.2293},{"zip":"32447","city":"Marianna","state":"FL","lat":30.7603,"long":-85.2022},{"zip":"32448","city":"Marianna","state":"FL","lat":30.6749,"long":-85.2122},{"zip":"32460","city":"Sneads","state":"FL","lat":30.7276,"long":-84.9337},{"zip":"32422","city":"Argyle","state":"FL","lat":30.7056,"long":-86.0314},{"zip":"32433","city":"Defuniak Springs","state":"FL","lat":30.8494,"long":-86.2023},{"zip":"32434","city":"Mossy Head","state":"FL","lat":30.7432,"long":-86.3149},{"zip":"32435","city":"Defuniak Springs","state":"FL","lat":30.6038,"long":-86.1211},{"zip":"32439","city":"Freeport","state":"FL","lat":30.4896,"long":-86.1684},{"zip":"32459","city":"Santa Rosa Beach","state":"FL","lat":30.3659,"long":-86.2458},{"zip":"32461","city":"Rosemary Beach","state":"FL","lat":30.2835,"long":-86.0305},{"zip":"32427","city":"Caryville","state":"FL","lat":30.7123,"long":-85.8014},{"zip":"32428","city":"Chipley","state":"FL","lat":30.7107,"long":-85.5486},{"zip":"32437","city":"Ebro","state":"FL","lat":30.4352,"long":-85.8881},{"zip":"32462","city":"Vernon","state":"FL","lat":30.6267,"long":-85.7553},{"zip":"32463","city":"Wausau","state":"FL","lat":30.6321,"long":-85.5888}]
