[{"zip":"32501","city":"Pensacola","state":"FL","lat":30.4223,"long":-87.2248},{"zip":"32502","city":"Pensacola","state":"FL","lat":30.4095,"long":-87.2229},{"zip":"32503","city":"Pensacola","state":"FL","lat":30.4564,"long":-87.2104},{"zip":"32504","city":"Pensacola","state":"FL","lat":30.4873,"long":-87.1872},{"zip":"32505","city":"Pensacola","state":"FL","lat":30.4481,"long":-87.2589},{"zip":"32506","city":"Pensacola","state":"FL","lat":30.4129,"long":-87.3092},{"zip":"32507","city":"Pensacola","state":"FL","lat":30.3737,"long":-87.3126},{"zip":"32508","city":"Pensacola","state":"FL","lat":30.3511,"long":-87.2749},{"zip":"32509","city":"Pensacola","state":"FL","lat":30.4643,"long":-87.3403},{"zip":"32511","city":"Pensacola","state":"FL","lat":30.4061,"long":-87.2917},{"zip":"32512","city":"Pensacola","state":"FL","lat":30.3943,"long":-87.2991},{"zip":"32513","city":"Pensacola","state":"FL","lat":30.5571,"long":-87.2596},{"zip":"32514","city":"Pensacola","state":"FL","lat":30.5241,"long":-87.2167},{"zip":"32516","city":"Pensacola","state":"FL","lat":30.4213,"long":-87.2169},{"zip":"32520","city":"Pensacola","state":"FL","lat":30.4124,"long":-87.2035},{"zip":"32521","city":"Pensacola","state":"FL","lat":30.4213,"long":-87.2169},{"zip":"32522","city":"Pensacola","state":"FL","lat":30.4213,"long":-87.2169},{"zip":"32523","city":"Pensacola","state":"FL","lat":30.4213,"long":-87.2169},{"zip":"32524","city":"Pensacola","state":"FL","lat":30.4213,"long":-87.2169},{"zip":"32526","city":"Pensacola","state":"FL","lat":30.4756,"long":-87.3179},{"zip":"32533","city":"Cantonment","state":"FL","lat":30.6143,"long":-87.3251},{"zip":"32534","city":"Pensacola","state":"FL","lat":30.5301,"long":-87.2793},{"zip":"32535","city":"Century","state":"FL","lat":30.9687,"long":-87.3216},{"zip":"32559","city":"Pensacola","state":"FL","lat":30.3563,"long":-87.2773},{"zip":"32560","city":"Gonzalez","state":"FL","lat":30.5818,"long":-87.2929},{"zip":"32568","city":"Mc David","state":"FL","lat":30.8686,"long":-87.4539},{"zip":"32577","city":"Molino","state":"FL","lat":30.6902,"long":-87.3852},{"zip":"32591","city":"Pensacola","state":"FL","lat":30.4213,"long":-87.2169},{"zip":"32531","city":"Baker","state":"FL","lat":30.8316,"long":-86.677},{"zip":"32536","city":"Crestview","state":"FL","lat":30.7644,"long":-86.5917},{"zip":"32537","city":"Milligan","state":"FL","lat":30.742,"long":-86.6552},{"zip":"32539","city":"Crestview","state":"FL","lat":30.7773,"long":-86.4832},{"zip":"32540","city":"Destin","state":"FL","lat":30.3935,"long":-86.4958},{"zip":"32541","city":"Destin","state":"FL","lat":30.3949,"long":-86.4692},{"zip":"32542","city":"Eglin Afb","state":"FL","lat":30.5393,"long":-86.6087},{"zip":"32544","city":"Hurlburt Field","state":"FL","lat":30.4229,"long":-86.6985},{"zip":"32547","city":"Fort Walton Beach","state":"FL","lat":30.4487,"long":-86.6255},{"zip":"32548","city":"Fort Walton Beach","state":"FL","lat":30.4206,"long":-86.6286},{"zip":"32549","city":"Fort Walton Beach","state":"FL","lat":30.4208,"long":-86.6194},{"zip":"32564","city":"Holt","state":"FL","lat":30.7416,"long":-86.7198},{"zip":"32567","city":"Laurel Hill","state":"FL","lat":30.9524,"long":-86.4003},{"zip":"32569","city":"Mary Esther","state":"FL","lat":30.4085,"long":-86.7352},{"zip":"32578","city":"Niceville","state":"FL","lat":30.5169,"long":-86.4822},{"zip":"32579","city":"Shalimar","state":"FL","lat":30.4456,"long":-86.5717},{"zip":"32580","city":"Valparaiso","state":"FL","lat":30.5092,"long":-86.5009},{"zip":"32588","city":"Niceville","state":"FL","lat":30.6612,"long":-86.5945},{"zip":"32530","city":"Bagdad","state":"FL","lat":30.5986,"long":-87.0315},{"zip":"32561","city":"Gulf Breeze","state":"FL","lat":30.3571,"long":-87.1639},{"zip":"32562","city":"Gulf Breeze","state":"FL","lat":30.3571,"long":-87.1639},{"zip":"32563","city":"Gulf Breeze","state":"FL","lat":30.3962,"long":-87.0274},{"zip":"32565","city":"Jay","state":"FL","lat":30.8985,"long":-87.1332},{"zip":"32566","city":"Navarre","state":"FL","lat":30.4212,"long":-86.8926},{"zip":"32570","city":"Milton","state":"FL","lat":30.6604,"long":-87.0473},{"zip":"32571","city":"Milton","state":"FL","lat":30.6698,"long":-87.1794},{"zip":"32572","city":"Milton","state":"FL","lat":30.6592,"long":-87.0497},{"zip":"32583","city":"Milton","state":"FL","lat":30.5761,"long":-87.0663},{"zip":"32538","city":"Paxton","state":"FL","lat":30.9709,"long":-86.3111},{"zip":"32550","city":"Miramar Beach","state":"FL","lat":30.385,"long":-86.3473}]
