[{"zip":"32601","city":"Gainesville","state":"FL","lat":29.6489,"long":-82.325},{"zip":"32602","city":"Gainesville","state":"FL","lat":29.6299,"long":-82.3966},{"zip":"32603","city":"Gainesville","state":"FL","lat":29.6515,"long":-82.3493},{"zip":"32604","city":"Gainesville","state":"FL","lat":29.5733,"long":-82.3979},{"zip":"32605","city":"Gainesville","state":"FL","lat":29.6785,"long":-82.3679},{"zip":"32606","city":"Gainesville","state":"FL","lat":29.6954,"long":-82.4023},{"zip":"32607","city":"Gainesville","state":"FL","lat":29.6456,"long":-82.4033},{"zip":"32608","city":"Gainesville","state":"FL","lat":29.6132,"long":-82.3873},{"zip":"32609","city":"Gainesville","state":"FL","lat":29.7005,"long":-82.308},{"zip":"32610","city":"Gainesville","state":"FL","lat":29.6813,"long":-82.3539},{"zip":"32611","city":"Gainesville","state":"FL","lat":29.6813,"long":-82.3539},{"zip":"32612","city":"Gainesville","state":"FL","lat":29.6813,"long":-82.3539},{"zip":"32614","city":"Gainesville","state":"FL","lat":29.6813,"long":-82.3539},{"zip":"32615","city":"Alachua","state":"FL","lat":29.8135,"long":-82.472},{"zip":"32616","city":"Alachua","state":"FL","lat":29.792,"long":-82.496},{"zip":"32618","city":"Archer","state":"FL","lat":29.5597,"long":-82.5108},{"zip":"32627","city":"Gainesville","state":"FL","lat":29.6516,"long":-82.3248},{"zip":"32631","city":"Earleton","state":"FL","lat":29.7304,"long":-82.0971},{"zip":"32633","city":"Evinston","state":"FL","lat":29.4869,"long":-82.2312},{"zip":"32635","city":"Gainesville","state":"FL","lat":29.6813,"long":-82.3539},{"zip":"32640","city":"Hawthorne","state":"FL","lat":29.574,"long":-82.1056},{"zip":"32641","city":"Gainesville","state":"FL","lat":29.6824,"long":-82.2014},{"zip":"32643","city":"High Springs","state":"FL","lat":29.841,"long":-82.6156},{"zip":"32653","city":"Gainesville","state":"FL","lat":29.7728,"long":-82.3782},{"zip":"32654","city":"Island Grove","state":"FL","lat":29.4536,"long":-82.1065},{"zip":"32655","city":"High Springs","state":"FL","lat":29.8175,"long":-82.6006},{"zip":"32658","city":"La Crosse","state":"FL","lat":29.8433,"long":-82.4048},{"zip":"32662","city":"Lochloosa","state":"FL","lat":29.5116,"long":-82.1004},{"zip":"32667","city":"Micanopy","state":"FL","lat":29.5122,"long":-82.3053},{"zip":"32669","city":"Newberry","state":"FL","lat":29.6609,"long":-82.5852},{"zip":"32694","city":"Waldo","state":"FL","lat":29.7871,"long":-82.1608},{"zip":"32622","city":"Brooker","state":"FL","lat":29.919,"long":-82.2956},{"zip":"32656","city":"Keystone Heights","state":"FL","lat":29.7976,"long":-81.9899},{"zip":"32628","city":"Cross City","state":"FL","lat":29.6372,"long":-83.2032},{"zip":"32648","city":"Horseshoe Beach","state":"FL","lat":29.4869,"long":-83.2616},{"zip":"32680","city":"Old Town","state":"FL","lat":29.6699,"long":-83.005},{"zip":"32692","city":"Suwannee","state":"FL","lat":29.3295,"long":-83.14},{"zip":"32619","city":"Bell","state":"FL","lat":29.7837,"long":-82.8711},{"zip":"32693","city":"Trenton","state":"FL","lat":29.6133,"long":-82.8176},{"zip":"32621","city":"Bronson","state":"FL","lat":29.461,"long":-82.6356},{"zip":"32625","city":"Cedar Key","state":"FL","lat":29.171,"long":-83.0168},{"zip":"32626","city":"Chiefland","state":"FL","lat":29.4832,"long":-82.8809},{"zip":"32639","city":"Gulf Hammock","state":"FL","lat":29.2447,"long":-82.7402},{"zip":"32644","city":"Chiefland","state":"FL","lat":29.4602,"long":-82.8553},{"zip":"32668","city":"Morriston","state":"FL","lat":29.2813,"long":-82.4917},{"zip":"32683","city":"Otter Creek","state":"FL","lat":29.3109,"long":-82.7945},{"zip":"32696","city":"Williston","state":"FL","lat":29.3977,"long":-82.4856},{"zip":"32617","city":"Anthony","state":"FL","lat":29.3048,"long":-82.1262},{"zip":"32634","city":"Fairfield","state":"FL","lat":29.3509,"long":-82.2765},{"zip":"32663","city":"Lowell","state":"FL","lat":29.3424,"long":-82.2126},{"zip":"32664","city":"Mc Intosh","state":"FL","lat":29.438,"long":-82.2295},{"zip":"32681","city":"Orange Lake","state":"FL","lat":29.4281,"long":-82.2449},{"zip":"32686","city":"Reddick","state":"FL","lat":29.3754,"long":-82.244},{"zip":"32666","city":"Melrose","state":"FL","lat":29.7325,"long":-82.0279},{"zip":"32697","city":"Worthington Springs","state":"FL","lat":29.9315,"long":-82.4255}]
