[{"zip":"32754","city":"Mims","state":"FL","lat":28.6974,"long":-80.8663},{"zip":"32775","city":"Scottsmoor","state":"FL","lat":28.7702,"long":-80.872},{"zip":"32780","city":"Titusville","state":"FL","lat":28.5697,"long":-80.8191},{"zip":"32781","city":"Titusville","state":"FL","lat":28.6122,"long":-80.8076},{"zip":"32783","city":"Titusville","state":"FL","lat":28.6122,"long":-80.8076},{"zip":"32796","city":"Titusville","state":"FL","lat":28.6271,"long":-80.8429},{"zip":"32753","city":"Debary","state":"FL","lat":28.883,"long":-81.3087},{"zip":"32702","city":"Altoona","state":"FL","lat":29.0219,"long":-81.6323},{"zip":"32726","city":"Eustis","state":"FL","lat":28.855,"long":-81.6789},{"zip":"32727","city":"Eustis","state":"FL","lat":28.8555,"long":-81.6741},{"zip":"32735","city":"Grand Island","state":"FL","lat":28.8866,"long":-81.7391},{"zip":"32736","city":"Eustis","state":"FL","lat":28.9102,"long":-81.5235},{"zip":"32756","city":"Mount Dora","state":"FL","lat":28.8111,"long":-81.6536},{"zip":"32757","city":"Mount Dora","state":"FL","lat":28.774,"long":-81.6439},{"zip":"32767","city":"Paisley","state":"FL","lat":28.9993,"long":-81.503},{"zip":"32776","city":"Sorrento","state":"FL","lat":28.8035,"long":-81.5323},{"zip":"32778","city":"Tavares","state":"FL","lat":28.801,"long":-81.734},{"zip":"32784","city":"Umatilla","state":"FL","lat":28.9254,"long":-81.6801},{"zip":"32703","city":"Apopka","state":"FL","lat":28.6354,"long":-81.4888},{"zip":"32704","city":"Apopka","state":"FL","lat":28.6762,"long":-81.5119},{"zip":"32709","city":"Christmas","state":"FL","lat":28.5462,"long":-81.0116},{"zip":"32710","city":"Clarcona","state":"FL","lat":28.6128,"long":-81.4987},{"zip":"32712","city":"Apopka","state":"FL","lat":28.712,"long":-81.5136},{"zip":"32751","city":"Maitland","state":"FL","lat":28.6255,"long":-81.3646},{"zip":"32768","city":"Plymouth","state":"FL","lat":28.6985,"long":-81.5698},{"zip":"32777","city":"Tangerine","state":"FL","lat":28.765,"long":-81.6306},{"zip":"32789","city":"Winter Park","state":"FL","lat":28.5978,"long":-81.3534},{"zip":"32790","city":"Winter Park","state":"FL","lat":28.5663,"long":-81.2608},{"zip":"32792","city":"Winter Park","state":"FL","lat":28.5974,"long":-81.3036},{"zip":"32793","city":"Winter Park","state":"FL","lat":28.5663,"long":-81.2608},{"zip":"32794","city":"Maitland","state":"FL","lat":28.6278,"long":-81.3631},{"zip":"32798","city":"Zellwood","state":"FL","lat":28.7194,"long":-81.5762},{"zip":"32701","city":"Altamonte Springs","state":"FL","lat":28.6666,"long":-81.365},{"zip":"32707","city":"Casselberry","state":"FL","lat":28.6617,"long":-81.3122},{"zip":"32708","city":"Winter Springs","state":"FL","lat":28.6831,"long":-81.2814},{"zip":"32714","city":"Altamonte Springs","state":"FL","lat":28.6625,"long":-81.4117},{"zip":"32715","city":"Altamonte Springs","state":"FL","lat":28.6611,"long":-81.3656},{"zip":"32716","city":"Altamonte Springs","state":"FL","lat":28.7448,"long":-81.2233},{"zip":"32718","city":"Casselberry","state":"FL","lat":28.7448,"long":-81.2233},{"zip":"32719","city":"Winter Springs","state":"FL","lat":28.7448,"long":-81.2233},{"zip":"32730","city":"Casselberry","state":"FL","lat":28.6513,"long":-81.3418},{"zip":"32732","city":"Geneva","state":"FL","lat":28.7503,"long":-81.1114},{"zip":"32733","city":"Goldenrod","state":"FL","lat":28.6133,"long":-81.2581},{"zip":"32746","city":"Lake Mary","state":"FL","lat":28.7577,"long":-81.3508},{"zip":"32747","city":"Lake Monroe","state":"FL","lat":28.8272,"long":-81.3329},{"zip":"32750","city":"Longwood","state":"FL","lat":28.712,"long":-81.3552},{"zip":"32752","city":"Longwood","state":"FL","lat":28.7448,"long":-81.2233},{"zip":"32762","city":"Oviedo","state":"FL","lat":28.7448,"long":-81.2233},{"zip":"32765","city":"Oviedo","state":"FL","lat":28.6513,"long":-81.2066},{"zip":"32766","city":"Oviedo","state":"FL","lat":28.6607,"long":-81.1134},{"zip":"32771","city":"Sanford","state":"FL","lat":28.8013,"long":-81.285},{"zip":"32772","city":"Sanford","state":"FL","lat":28.8072,"long":-81.2502},{"zip":"32773","city":"Sanford","state":"FL","lat":28.7644,"long":-81.282},{"zip":"32779","city":"Longwood","state":"FL","lat":28.7168,"long":-81.4126},{"zip":"32791","city":"Longwood","state":"FL","lat":28.7448,"long":-81.2233},{"zip":"32795","city":"Lake Mary","state":"FL","lat":28.7448,"long":-81.2233},{"zip":"32799","city":"Mid Florida","state":"FL","lat":28.7448,"long":-81.2233},{"zip":"32706","city":"Cassadaga","state":"FL","lat":28.9664,"long":-81.2371},{"zip":"32713","city":"Debary","state":"FL","lat":28.8846,"long":-81.3065},{"zip":"32720","city":"Deland","state":"FL","lat":29.0266,"long":-81.3349},{"zip":"32721","city":"Deland","state":"FL","lat":28.9973,"long":-81.2995},{"zip":"32722","city":"Glenwood","state":"FL","lat":29.0861,"long":-81.3542},{"zip":"32723","city":"Deland","state":"FL","lat":29.0275,"long":-81.3068},{"zip":"32724","city":"Deland","state":"FL","lat":29.0422,"long":-81.2863},{"zip":"32725","city":"Deltona","state":"FL","lat":28.8989,"long":-81.2473},{"zip":"32728","city":"Deltona","state":"FL","lat":29.0227,"long":-81.1722},{"zip":"32738","city":"Deltona","state":"FL","lat":28.9093,"long":-81.1922},{"zip":"32739","city":"Deltona","state":"FL","lat":29.0227,"long":-81.1722},{"zip":"32744","city":"Lake Helen","state":"FL","lat":28.9806,"long":-81.2334},{"zip":"32745","city":"Mid Florida","state":"FL","lat":28.7676,"long":-81.3522},{"zip":"32759","city":"Oak Hill","state":"FL","lat":28.87,"long":-80.8551},{"zip":"32763","city":"Orange City","state":"FL","lat":28.9453,"long":-81.2995},{"zip":"32764","city":"Osteen","state":"FL","lat":28.8426,"long":-81.1562},{"zip":"32774","city":"Orange City","state":"FL","lat":28.9489,"long":-81.2987}]
