[{"zip":"32815","city":"Orlando","state":"FL","lat":28.3067,"long":-80.6862},{"zip":"32899","city":"Orlando","state":"FL","lat":28.3067,"long":-80.6862},{"zip":"32801","city":"Orlando","state":"FL","lat":28.5399,"long":-81.3727},{"zip":"32802","city":"Orlando","state":"FL","lat":28.5383,"long":-81.3792},{"zip":"32803","city":"Orlando","state":"FL","lat":28.5559,"long":-81.3535},{"zip":"32804","city":"Orlando","state":"FL","lat":28.5754,"long":-81.3955},{"zip":"32805","city":"Orlando","state":"FL","lat":28.5302,"long":-81.4045},{"zip":"32806","city":"Orlando","state":"FL","lat":28.514,"long":-81.357},{"zip":"32807","city":"Orlando","state":"FL","lat":28.5515,"long":-81.3051},{"zip":"32808","city":"Orlando","state":"FL","lat":28.5803,"long":-81.4396},{"zip":"32809","city":"Orlando","state":"FL","lat":28.4637,"long":-81.3948},{"zip":"32810","city":"Orlando","state":"FL","lat":28.6214,"long":-81.4294},{"zip":"32811","city":"Orlando","state":"FL","lat":28.5163,"long":-81.4516},{"zip":"32812","city":"Orlando","state":"FL","lat":28.4998,"long":-81.3288},{"zip":"32814","city":"Orlando","state":"FL","lat":28.5702,"long":-81.3265},{"zip":"32816","city":"Orlando","state":"FL","lat":28.5663,"long":-81.2608},{"zip":"32817","city":"Orlando","state":"FL","lat":28.5891,"long":-81.2277},{"zip":"32818","city":"Orlando","state":"FL","lat":28.5801,"long":-81.4846},{"zip":"32819","city":"Orlando","state":"FL","lat":28.4522,"long":-81.4678},{"zip":"32820","city":"Orlando","state":"FL","lat":28.5725,"long":-81.1219},{"zip":"32821","city":"Orlando","state":"FL","lat":28.3957,"long":-81.4666},{"zip":"32822","city":"Orlando","state":"FL","lat":28.4944,"long":-81.2902},{"zip":"32824","city":"Orlando","state":"FL","lat":28.3932,"long":-81.3622},{"zip":"32825","city":"Orlando","state":"FL","lat":28.5469,"long":-81.2571},{"zip":"32826","city":"Orlando","state":"FL","lat":28.5826,"long":-81.1907},{"zip":"32827","city":"Orlando","state":"FL","lat":28.4317,"long":-81.343},{"zip":"32828","city":"Orlando","state":"FL","lat":28.5523,"long":-81.1795},{"zip":"32829","city":"Orlando","state":"FL","lat":28.4671,"long":-81.2417},{"zip":"32830","city":"Orlando","state":"FL","lat":28.3822,"long":-81.569},{"zip":"32831","city":"Orlando","state":"FL","lat":28.4656,"long":-81.151},{"zip":"32832","city":"Orlando","state":"FL","lat":28.3774,"long":-81.1888},{"zip":"32833","city":"Orlando","state":"FL","lat":28.5088,"long":-81.0703},{"zip":"32834","city":"Orlando","state":"FL","lat":28.5663,"long":-81.2608},{"zip":"32835","city":"Orlando","state":"FL","lat":28.5289,"long":-81.4787},{"zip":"32836","city":"Orlando","state":"FL","lat":28.4115,"long":-81.525},{"zip":"32837","city":"Orlando","state":"FL","lat":28.3949,"long":-81.4179},{"zip":"32839","city":"Orlando","state":"FL","lat":28.4871,"long":-81.4082},{"zip":"32853","city":"Orlando","state":"FL","lat":28.5663,"long":-81.2608},{"zip":"32854","city":"Orlando","state":"FL","lat":28.5663,"long":-81.2608},{"zip":"32855","city":"Orlando","state":"FL","lat":28.5383,"long":-81.3792},{"zip":"32856","city":"Orlando","state":"FL","lat":28.5484,"long":-81.4201},{"zip":"32857","city":"Orlando","state":"FL","lat":28.5663,"long":-81.2608},{"zip":"32858","city":"Orlando","state":"FL","lat":28.5663,"long":-81.2608},{"zip":"32859","city":"Orlando","state":"FL","lat":28.4429,"long":-81.4026},{"zip":"32860","city":"Orlando","state":"FL","lat":28.5663,"long":-81.2608},{"zip":"32861","city":"Orlando","state":"FL","lat":28.5663,"long":-81.2608},{"zip":"32862","city":"Orlando","state":"FL","lat":28.5383,"long":-81.3792},{"zip":"32867","city":"Orlando","state":"FL","lat":28.5663,"long":-81.2608},{"zip":"32868","city":"Orlando","state":"FL","lat":28.5663,"long":-81.2608},{"zip":"32869","city":"Orlando","state":"FL","lat":28.5663,"long":-81.2608},{"zip":"32872","city":"Orlando","state":"FL","lat":28.5383,"long":-81.3792},{"zip":"32877","city":"Orlando","state":"FL","lat":28.5663,"long":-81.2608},{"zip":"32878","city":"Orlando","state":"FL","lat":28.5663,"long":-81.2608},{"zip":"32885","city":"Orlando","state":"FL","lat":28.5456,"long":-81.3782},{"zip":"32886","city":"Orlando","state":"FL","lat":28.5383,"long":-81.3792},{"zip":"32887","city":"Orlando","state":"FL","lat":28.5663,"long":-81.2608},{"zip":"32891","city":"Orlando","state":"FL","lat":28.5663,"long":-81.2608},{"zip":"32896","city":"Orlando","state":"FL","lat":28.5419,"long":-81.3791},{"zip":"32897","city":"Orlando","state":"FL","lat":28.5383,"long":-81.3792}]
