[{"zip":"32901","city":"Melbourne","state":"FL","lat":28.0691,"long":-80.62},{"zip":"32902","city":"Melbourne","state":"FL","lat":28.0836,"long":-80.6081},{"zip":"32903","city":"Indialantic","state":"FL","lat":28.1091,"long":-80.5787},{"zip":"32904","city":"Melbourne","state":"FL","lat":28.0673,"long":-80.678},{"zip":"32905","city":"Palm Bay","state":"FL","lat":28.0313,"long":-80.5995},{"zip":"32906","city":"Palm Bay","state":"FL","lat":28.0671,"long":-80.6503},{"zip":"32907","city":"Palm Bay","state":"FL","lat":28.0168,"long":-80.6739},{"zip":"32908","city":"Palm Bay","state":"FL","lat":27.9816,"long":-80.6894},{"zip":"32909","city":"Palm Bay","state":"FL","lat":27.9694,"long":-80.6473},{"zip":"32910","city":"Palm Bay","state":"FL","lat":28.0345,"long":-80.5887},{"zip":"32911","city":"Palm Bay","state":"FL","lat":28.0345,"long":-80.5887},{"zip":"32912","city":"Melbourne","state":"FL","lat":28.0836,"long":-80.6081},{"zip":"32919","city":"Melbourne","state":"FL","lat":28.0836,"long":-80.6081},{"zip":"32920","city":"Cape Canaveral","state":"FL","lat":28.3903,"long":-80.6043},{"zip":"32922","city":"Cocoa","state":"FL","lat":28.3672,"long":-80.7465},{"zip":"32923","city":"Cocoa","state":"FL","lat":28.4275,"long":-80.829},{"zip":"32924","city":"Cocoa","state":"FL","lat":28.3067,"long":-80.6862},{"zip":"32925","city":"Patrick Afb","state":"FL","lat":28.1743,"long":-80.584},{"zip":"32926","city":"Cocoa","state":"FL","lat":28.391,"long":-80.787},{"zip":"32927","city":"Cocoa","state":"FL","lat":28.4566,"long":-80.7978},{"zip":"32931","city":"Cocoa Beach","state":"FL","lat":28.3325,"long":-80.6121},{"zip":"32932","city":"Cocoa Beach","state":"FL","lat":28.3206,"long":-80.6092},{"zip":"32934","city":"Melbourne","state":"FL","lat":28.1331,"long":-80.7112},{"zip":"32935","city":"Melbourne","state":"FL","lat":28.1384,"long":-80.6524},{"zip":"32936","city":"Melbourne","state":"FL","lat":28.0836,"long":-80.6081},{"zip":"32937","city":"Satellite Beach","state":"FL","lat":28.178,"long":-80.602},{"zip":"32940","city":"Melbourne","state":"FL","lat":28.2061,"long":-80.685},{"zip":"32941","city":"Melbourne","state":"FL","lat":27.9246,"long":-80.5235},{"zip":"32949","city":"Grant","state":"FL","lat":27.9289,"long":-80.5264},{"zip":"32950","city":"Malabar","state":"FL","lat":27.9761,"long":-80.5788},{"zip":"32951","city":"Melbourne Beach","state":"FL","lat":28.0219,"long":-80.5389},{"zip":"32952","city":"Merritt Island","state":"FL","lat":28.2764,"long":-80.6568},{"zip":"32953","city":"Merritt Island","state":"FL","lat":28.3888,"long":-80.7301},{"zip":"32954","city":"Merritt Island","state":"FL","lat":28.5392,"long":-80.672},{"zip":"32955","city":"Rockledge","state":"FL","lat":28.3134,"long":-80.7319},{"zip":"32956","city":"Rockledge","state":"FL","lat":28.3298,"long":-80.7323},{"zip":"32959","city":"Sharpes","state":"FL","lat":28.3067,"long":-80.6862},{"zip":"32976","city":"Sebastian","state":"FL","lat":27.8679,"long":-80.5416},{"zip":"32948","city":"Fellsmere","state":"FL","lat":27.7643,"long":-80.6019},{"zip":"32957","city":"Roseland","state":"FL","lat":27.8359,"long":-80.4931},{"zip":"32958","city":"Sebastian","state":"FL","lat":27.7901,"long":-80.4784},{"zip":"32960","city":"Vero Beach","state":"FL","lat":27.633,"long":-80.4031},{"zip":"32961","city":"Vero Beach","state":"FL","lat":27.6175,"long":-80.4231},{"zip":"32962","city":"Vero Beach","state":"FL","lat":27.5885,"long":-80.3923},{"zip":"32963","city":"Vero Beach","state":"FL","lat":27.6898,"long":-80.3757},{"zip":"32964","city":"Vero Beach","state":"FL","lat":27.6386,"long":-80.3973},{"zip":"32965","city":"Vero Beach","state":"FL","lat":27.6386,"long":-80.3973},{"zip":"32966","city":"Vero Beach","state":"FL","lat":27.6372,"long":-80.4794},{"zip":"32967","city":"Vero Beach","state":"FL","lat":27.6972,"long":-80.4416},{"zip":"32968","city":"Vero Beach","state":"FL","lat":27.5999,"long":-80.4382},{"zip":"32969","city":"Vero Beach","state":"FL","lat":27.709,"long":-80.5726},{"zip":"32970","city":"Wabasso","state":"FL","lat":27.7529,"long":-80.4743},{"zip":"32971","city":"Winter Beach","state":"FL","lat":27.7192,"long":-80.4206},{"zip":"32978","city":"Sebastian","state":"FL","lat":27.709,"long":-80.5726}]
