[{"zip":"33004","city":"Dania","state":"FL","lat":26.0476,"long":-80.1447},{"zip":"33008","city":"Hallandale","state":"FL","lat":25.9812,"long":-80.1484},{"zip":"33009","city":"Hallandale","state":"FL","lat":25.985,"long":-80.1407},{"zip":"33019","city":"Hollywood","state":"FL","lat":26.007,"long":-80.1219},{"zip":"33020","city":"Hollywood","state":"FL","lat":26.0161,"long":-80.1517},{"zip":"33021","city":"Hollywood","state":"FL","lat":26.0218,"long":-80.1891},{"zip":"33022","city":"Hollywood","state":"FL","lat":26.0134,"long":-80.1442},{"zip":"33023","city":"Hollywood","state":"FL","lat":25.9894,"long":-80.2153},{"zip":"33024","city":"Hollywood","state":"FL","lat":26.0296,"long":-80.2489},{"zip":"33025","city":"Hollywood","state":"FL","lat":25.9921,"long":-80.2712},{"zip":"33026","city":"Hollywood","state":"FL","lat":26.0229,"long":-80.2974},{"zip":"33027","city":"Hollywood","state":"FL","lat":25.9974,"long":-80.3248},{"zip":"33028","city":"Pembroke Pines","state":"FL","lat":26.0185,"long":-80.3449},{"zip":"33029","city":"Hollywood","state":"FL","lat":25.9924,"long":-80.4089},{"zip":"33060","city":"Pompano Beach","state":"FL","lat":26.2315,"long":-80.1235},{"zip":"33061","city":"Pompano Beach","state":"FL","lat":26.2539,"long":-80.1342},{"zip":"33062","city":"Pompano Beach","state":"FL","lat":26.2343,"long":-80.0941},{"zip":"33063","city":"Pompano Beach","state":"FL","lat":26.2674,"long":-80.2092},{"zip":"33064","city":"Pompano Beach","state":"FL","lat":26.2785,"long":-80.1157},{"zip":"33065","city":"Pompano Beach","state":"FL","lat":26.2729,"long":-80.2603},{"zip":"33066","city":"Pompano Beach","state":"FL","lat":26.2535,"long":-80.1775},{"zip":"33067","city":"Pompano Beach","state":"FL","lat":26.3033,"long":-80.2415},{"zip":"33068","city":"Pompano Beach","state":"FL","lat":26.216,"long":-80.2205},{"zip":"33069","city":"Pompano Beach","state":"FL","lat":26.2288,"long":-80.1635},{"zip":"33071","city":"Pompano Beach","state":"FL","lat":26.2435,"long":-80.2601},{"zip":"33072","city":"Pompano Beach","state":"FL","lat":26.2335,"long":-80.0924},{"zip":"33073","city":"Pompano Beach","state":"FL","lat":26.2997,"long":-80.181},{"zip":"33074","city":"Pompano Beach","state":"FL","lat":26.2379,"long":-80.1248},{"zip":"33075","city":"Coral Springs","state":"FL","lat":26.2712,"long":-80.2706},{"zip":"33076","city":"Pompano Beach","state":"FL","lat":26.3168,"long":-80.2753},{"zip":"33077","city":"Pompano Beach","state":"FL","lat":26.2379,"long":-80.1248},{"zip":"33081","city":"Hollywood","state":"FL","lat":26.0112,"long":-80.1495},{"zip":"33082","city":"Pembroke Pines","state":"FL","lat":26.0031,"long":-80.2239},{"zip":"33083","city":"Hollywood","state":"FL","lat":26.0112,"long":-80.1495},{"zip":"33084","city":"Hollywood","state":"FL","lat":26.0112,"long":-80.1495},{"zip":"33093","city":"Margate","state":"FL","lat":26.2445,"long":-80.2064},{"zip":"33097","city":"Coconut Creek","state":"FL","lat":26.2517,"long":-80.1789},{"zip":"33301","city":"Fort Lauderdale","state":"FL","lat":26.1216,"long":-80.1288},{"zip":"33302","city":"Fort Lauderdale","state":"FL","lat":26.1223,"long":-80.1434},{"zip":"33303","city":"Fort Lauderdale","state":"FL","lat":26.1969,"long":-80.0952},{"zip":"33304","city":"Fort Lauderdale","state":"FL","lat":26.1387,"long":-80.1218},{"zip":"33305","city":"Fort Lauderdale","state":"FL","lat":26.1497,"long":-80.1229},{"zip":"33306","city":"Fort Lauderdale","state":"FL","lat":26.1656,"long":-80.1118},{"zip":"33307","city":"Fort Lauderdale","state":"FL","lat":26.1223,"long":-80.1434},{"zip":"33308","city":"Fort Lauderdale","state":"FL","lat":26.0984,"long":-80.1822},{"zip":"33309","city":"Fort Lauderdale","state":"FL","lat":26.1817,"long":-80.1746},{"zip":"33310","city":"Fort Lauderdale","state":"FL","lat":26.1443,"long":-80.2069},{"zip":"33311","city":"Fort Lauderdale","state":"FL","lat":26.1421,"long":-80.1728},{"zip":"33312","city":"Fort Lauderdale","state":"FL","lat":26.0968,"long":-80.181},{"zip":"33313","city":"Fort Lauderdale","state":"FL","lat":26.1487,"long":-80.2075},{"zip":"33314","city":"Fort Lauderdale","state":"FL","lat":26.0697,"long":-80.2246},{"zip":"33315","city":"Fort Lauderdale","state":"FL","lat":26.0989,"long":-80.1541},{"zip":"33316","city":"Fort Lauderdale","state":"FL","lat":26.1042,"long":-80.126},{"zip":"33317","city":"Fort Lauderdale","state":"FL","lat":26.1122,"long":-80.2264},{"zip":"33318","city":"Fort Lauderdale","state":"FL","lat":26.1184,"long":-80.252},{"zip":"33319","city":"Fort Lauderdale","state":"FL","lat":26.1848,"long":-80.2406},{"zip":"33320","city":"Fort Lauderdale","state":"FL","lat":26.1625,"long":-80.2582},{"zip":"33321","city":"Fort Lauderdale","state":"FL","lat":26.212,"long":-80.2696},{"zip":"33322","city":"Fort Lauderdale","state":"FL","lat":26.1502,"long":-80.2745},{"zip":"33323","city":"Fort Lauderdale","state":"FL","lat":26.152,"long":-80.3165},{"zip":"33324","city":"Fort Lauderdale","state":"FL","lat":26.1255,"long":-80.2644},{"zip":"33325","city":"Fort Lauderdale","state":"FL","lat":26.1097,"long":-80.3215},{"zip":"33326","city":"Fort Lauderdale","state":"FL","lat":26.1158,"long":-80.3681},{"zip":"33327","city":"Fort Lauderdale","state":"FL","lat":26.1168,"long":-80.4156},{"zip":"33328","city":"Fort Lauderdale","state":"FL","lat":26.0671,"long":-80.2723},{"zip":"33329","city":"Fort Lauderdale","state":"FL","lat":26.1223,"long":-80.1434},{"zip":"33330","city":"Fort Lauderdale","state":"FL","lat":26.0663,"long":-80.3339},{"zip":"33331","city":"Fort Lauderdale","state":"FL","lat":26.048,"long":-80.3749},{"zip":"33332","city":"Fort Lauderdale","state":"FL","lat":26.0596,"long":-80.4146},{"zip":"33334","city":"Fort Lauderdale","state":"FL","lat":26.1845,"long":-80.1344},{"zip":"33335","city":"Fort Lauderdale","state":"FL","lat":26.0892,"long":-80.336},{"zip":"33336","city":"Fort Lauderdale","state":"FL","lat":26.1219,"long":-80.1436},{"zip":"33337","city":"Fort Lauderdale","state":"FL","lat":26.129,"long":-80.2601},{"zip":"33338","city":"Fort Lauderdale","state":"FL","lat":26.1223,"long":-80.1434},{"zip":"33339","city":"Fort Lauderdale","state":"FL","lat":26.1223,"long":-80.1434},{"zip":"33340","city":"Fort Lauderdale","state":"FL","lat":26.1223,"long":-80.1434},{"zip":"33345","city":"Fort Lauderdale","state":"FL","lat":26.1654,"long":-80.2959},{"zip":"33346","city":"Fort Lauderdale","state":"FL","lat":26.1223,"long":-80.1434},{"zip":"33348","city":"Fort Lauderdale","state":"FL","lat":26.1223,"long":-80.1434},{"zip":"33349","city":"Fort Lauderdale","state":"FL","lat":26.1223,"long":-80.1434},{"zip":"33351","city":"Fort Lauderdale","state":"FL","lat":26.1793,"long":-80.2746},{"zip":"33355","city":"Fort Lauderdale","state":"FL","lat":26.1223,"long":-80.1434},{"zip":"33359","city":"Fort Lauderdale","state":"FL","lat":26.1223,"long":-80.1434},{"zip":"33388","city":"Plantation","state":"FL","lat":26.1342,"long":-80.2318},{"zip":"33394","city":"Fort Lauderdale","state":"FL","lat":26.1221,"long":-80.139},{"zip":"33441","city":"Deerfield Beach","state":"FL","lat":26.3096,"long":-80.0992},{"zip":"33442","city":"Deerfield Beach","state":"FL","lat":26.3124,"long":-80.1412},{"zip":"33443","city":"Deerfield Beach","state":"FL","lat":26.3184,"long":-80.0998},{"zip":"33973","city":"Lehigh Acres","state":"FL","lat":26.602,"long":-81.7311},{"zip":"33927","city":"El Jobean","state":"FL","lat":26.9324,"long":-82.2168},{"zip":"33938","city":"Murdock","state":"FL","lat":26.902,"long":-82},{"zip":"33946","city":"Placida","state":"FL","lat":26.8323,"long":-82.2648},{"zip":"33947","city":"Rotonda West","state":"FL","lat":26.8842,"long":-82.2691},{"zip":"33948","city":"Port Charlotte","state":"FL","lat":26.9827,"long":-82.1412},{"zip":"33949","city":"Port Charlotte","state":"FL","lat":26.9939,"long":-82.0984},{"zip":"33950","city":"Punta Gorda","state":"FL","lat":26.9152,"long":-82.0532},{"zip":"33951","city":"Punta Gorda","state":"FL","lat":26.9708,"long":-81.9845},{"zip":"33952","city":"Port Charlotte","state":"FL","lat":26.9905,"long":-82.0964},{"zip":"33953","city":"Port Charlotte","state":"FL","lat":27.004,"long":-82.2117},{"zip":"33954","city":"Port Charlotte","state":"FL","lat":27.0228,"long":-82.1108},{"zip":"33955","city":"Punta Gorda","state":"FL","lat":26.824,"long":-81.9547},{"zip":"33980","city":"Punta Gorda","state":"FL","lat":26.9298,"long":-82.0454},{"zip":"33981","city":"Port Charlotte","state":"FL","lat":26.9379,"long":-82.2388},{"zip":"33982","city":"Punta Gorda","state":"FL","lat":26.9668,"long":-81.9545},{"zip":"33983","city":"Punta Gorda","state":"FL","lat":27.0074,"long":-82.0163},{"zip":"33471","city":"Moore Haven","state":"FL","lat":26.8327,"long":-81.2188},{"zip":"33944","city":"Palmdale","state":"FL","lat":26.9464,"long":-81.3091},{"zip":"33834","city":"Bowling Green","state":"FL","lat":27.6019,"long":-81.8507},{"zip":"33865","city":"Ona","state":"FL","lat":27.4127,"long":-81.928},{"zip":"33873","city":"Wauchula","state":"FL","lat":27.5517,"long":-81.8074},{"zip":"33890","city":"Zolfo Springs","state":"FL","lat":27.48,"long":-81.7423},{"zip":"33440","city":"Clewiston","state":"FL","lat":26.7172,"long":-80.9492},{"zip":"33930","city":"Felda","state":"FL","lat":26.5398,"long":-81.4356},{"zip":"33935","city":"Labelle","state":"FL","lat":26.7321,"long":-81.434},{"zip":"33975","city":"Labelle","state":"FL","lat":26.7633,"long":-81.4388},{"zip":"33825","city":"Avon Park","state":"FL","lat":27.6001,"long":-81.5015},{"zip":"33826","city":"Avon Park","state":"FL","lat":27.5959,"long":-81.5062},{"zip":"33852","city":"Lake Placid","state":"FL","lat":27.2945,"long":-81.3649},{"zip":"33857","city":"Lorida","state":"FL","lat":27.415,"long":-81.1965},{"zip":"33862","city":"Lake Placid","state":"FL","lat":27.2931,"long":-81.3629},{"zip":"33870","city":"Sebring","state":"FL","lat":27.4924,"long":-81.4357},{"zip":"33871","city":"Sebring","state":"FL","lat":27.4858,"long":-81.4079},{"zip":"33872","city":"Sebring","state":"FL","lat":27.4703,"long":-81.4872},{"zip":"33875","city":"Sebring","state":"FL","lat":27.4676,"long":-81.4581},{"zip":"33876","city":"Sebring","state":"FL","lat":27.4287,"long":-81.3519},{"zip":"33960","city":"Venus","state":"FL","lat":27.1203,"long":-81.3909},{"zip":"33503","city":"Balm","state":"FL","lat":27.7648,"long":-82.2734},{"zip":"33508","city":"Brandon","state":"FL","lat":27.9318,"long":-82.295},{"zip":"33509","city":"Brandon","state":"FL","lat":27.9378,"long":-82.2859},{"zip":"33510","city":"Brandon","state":"FL","lat":27.9551,"long":-82.2966},{"zip":"33511","city":"Brandon","state":"FL","lat":27.9056,"long":-82.2881},{"zip":"33527","city":"Dover","state":"FL","lat":27.992,"long":-82.2138},{"zip":"33530","city":"Durant","state":"FL","lat":27.9068,"long":-82.1767},{"zip":"33534","city":"Gibsonton","state":"FL","lat":27.8411,"long":-82.3698},{"zip":"33547","city":"Lithia","state":"FL","lat":27.8293,"long":-82.1357},{"zip":"33548","city":"Lutz","state":"FL","lat":28.1385,"long":-82.4821},{"zip":"33549","city":"Lutz","state":"FL","lat":28.1367,"long":-82.461},{"zip":"33550","city":"Mango","state":"FL","lat":27.9797,"long":-82.3065},{"zip":"33556","city":"Odessa","state":"FL","lat":28.1421,"long":-82.5905},{"zip":"33558","city":"Lutz","state":"FL","lat":28.1474,"long":-82.5152},{"zip":"33563","city":"Plant City","state":"FL","lat":28.013,"long":-82.1339},{"zip":"33564","city":"Plant City","state":"FL","lat":28.0296,"long":-82.1347},{"zip":"33565","city":"Plant City","state":"FL","lat":28.0699,"long":-82.1576},{"zip":"33566","city":"Plant City","state":"FL","lat":28.0094,"long":-82.1138},{"zip":"33567","city":"Plant City","state":"FL","lat":27.922,"long":-82.1216},{"zip":"33568","city":"Riverview","state":"FL","lat":27.872,"long":-82.4388},{"zip":"33569","city":"Riverview","state":"FL","lat":27.845,"long":-82.3125},{"zip":"33570","city":"Ruskin","state":"FL","lat":27.7015,"long":-82.4355},{"zip":"33571","city":"Sun City Center","state":"FL","lat":27.7201,"long":-82.453},{"zip":"33572","city":"Apollo Beach","state":"FL","lat":27.7716,"long":-82.4102},{"zip":"33573","city":"Sun City Center","state":"FL","lat":27.7147,"long":-82.3538},{"zip":"33575","city":"Ruskin","state":"FL","lat":27.7144,"long":-82.4291},{"zip":"33579","city":"Riverview","state":"FL","lat":27.8024,"long":-82.2755},{"zip":"33583","city":"Seffner","state":"FL","lat":27.872,"long":-82.4388},{"zip":"33584","city":"Seffner","state":"FL","lat":27.9922,"long":-82.2863},{"zip":"33586","city":"Sun City","state":"FL","lat":27.6784,"long":-82.4787},{"zip":"33587","city":"Sydney","state":"FL","lat":27.9634,"long":-82.2073},{"zip":"33592","city":"Thonotosassa","state":"FL","lat":28.0617,"long":-82.3082},{"zip":"33594","city":"Valrico","state":"FL","lat":27.9408,"long":-82.242},{"zip":"33595","city":"Valrico","state":"FL","lat":27.9379,"long":-82.2364},{"zip":"33596","city":"Valrico","state":"FL","lat":27.8925,"long":-82.243},{"zip":"33598","city":"Wimauma","state":"FL","lat":27.7015,"long":-82.3151},{"zip":"33601","city":"Tampa","state":"FL","lat":27.9961,"long":-82.582},{"zip":"33602","city":"Tampa","state":"FL","lat":27.9614,"long":-82.4597},{"zip":"33603","city":"Tampa","state":"FL","lat":27.9845,"long":-82.463},{"zip":"33604","city":"Tampa","state":"FL","lat":28.0173,"long":-82.4578},{"zip":"33605","city":"Tampa","state":"FL","lat":27.9671,"long":-82.4334},{"zip":"33606","city":"Tampa","state":"FL","lat":27.9306,"long":-82.4653},{"zip":"33607","city":"Tampa","state":"FL","lat":27.9625,"long":-82.4895},{"zip":"33608","city":"Tampa","state":"FL","lat":27.8434,"long":-82.4884},{"zip":"33609","city":"Tampa","state":"FL","lat":27.9425,"long":-82.5057},{"zip":"33610","city":"Tampa","state":"FL","lat":27.9951,"long":-82.4046},{"zip":"33611","city":"Tampa","state":"FL","lat":27.8914,"long":-82.5067},{"zip":"33612","city":"Tampa","state":"FL","lat":28.0502,"long":-82.45},{"zip":"33613","city":"Tampa","state":"FL","lat":28.0772,"long":-82.4455},{"zip":"33614","city":"Tampa","state":"FL","lat":28.0091,"long":-82.5034},{"zip":"33615","city":"Tampa","state":"FL","lat":28.0081,"long":-82.5805},{"zip":"33616","city":"Tampa","state":"FL","lat":27.8742,"long":-82.5203},{"zip":"33617","city":"Tampa","state":"FL","lat":28.0384,"long":-82.3949},{"zip":"33618","city":"Tampa","state":"FL","lat":28.0763,"long":-82.4852},{"zip":"33619","city":"Tampa","state":"FL","lat":27.9382,"long":-82.3756},{"zip":"33620","city":"Tampa","state":"FL","lat":28.06,"long":-82.4079},{"zip":"33621","city":"Tampa","state":"FL","lat":27.8491,"long":-82.4946},{"zip":"33622","city":"Tampa","state":"FL","lat":27.9475,"long":-82.4584},{"zip":"33623","city":"Tampa","state":"FL","lat":27.9475,"long":-82.4584},{"zip":"33624","city":"Tampa","state":"FL","lat":28.079,"long":-82.5268},{"zip":"33625","city":"Tampa","state":"FL","lat":28.0726,"long":-82.559},{"zip":"33626","city":"Tampa","state":"FL","lat":28.0509,"long":-82.6164},{"zip":"33629","city":"Tampa","state":"FL","lat":27.921,"long":-82.5079},{"zip":"33630","city":"Tampa","state":"FL","lat":27.872,"long":-82.4388},{"zip":"33631","city":"Tampa","state":"FL","lat":27.872,"long":-82.4388},{"zip":"33633","city":"Tampa","state":"FL","lat":27.872,"long":-82.4388},{"zip":"33634","city":"Tampa","state":"FL","lat":28.0068,"long":-82.556},{"zip":"33635","city":"Tampa","state":"FL","lat":28.0301,"long":-82.6048},{"zip":"33637","city":"Tampa","state":"FL","lat":28.0338,"long":-82.3659},{"zip":"33646","city":"Tampa","state":"FL","lat":28.094,"long":-82.4021},{"zip":"33647","city":"Tampa","state":"FL","lat":28.1147,"long":-82.3678},{"zip":"33650","city":"Tampa","state":"FL","lat":27.872,"long":-82.4388},{"zip":"33655","city":"Tampa","state":"FL","lat":27.9475,"long":-82.4584},{"zip":"33660","city":"Tampa","state":"FL","lat":27.872,"long":-82.4388},{"zip":"33661","city":"Tampa","state":"FL","lat":27.872,"long":-82.4388},{"zip":"33662","city":"Tampa","state":"FL","lat":27.872,"long":-82.4388},{"zip":"33663","city":"Tampa","state":"FL","lat":27.872,"long":-82.4388},{"zip":"33664","city":"Tampa","state":"FL","lat":27.872,"long":-82.4388},{"zip":"33672","city":"Tampa","state":"FL","lat":27.9475,"long":-82.4584},{"zip":"33673","city":"Tampa","state":"FL","lat":27.872,"long":-82.4388},{"zip":"33674","city":"Tampa","state":"FL","lat":27.872,"long":-82.4388},{"zip":"33675","city":"Tampa","state":"FL","lat":27.872,"long":-82.4388},{"zip":"33677","city":"Tampa","state":"FL","lat":27.872,"long":-82.4388},{"zip":"33679","city":"Tampa","state":"FL","lat":27.872,"long":-82.4388},{"zip":"33680","city":"Tampa","state":"FL","lat":27.872,"long":-82.4388},{"zip":"33681","city":"Tampa","state":"FL","lat":27.872,"long":-82.4388},{"zip":"33682","city":"Tampa","state":"FL","lat":27.872,"long":-82.4388},{"zip":"33684","city":"Tampa","state":"FL","lat":27.872,"long":-82.4388},{"zip":"33685","city":"Tampa","state":"FL","lat":27.872,"long":-82.4388},{"zip":"33686","city":"Tampa","state":"FL","lat":27.872,"long":-82.4388},{"zip":"33687","city":"Tampa","state":"FL","lat":27.872,"long":-82.4388},{"zip":"33688","city":"Tampa","state":"FL","lat":27.872,"long":-82.4388},{"zip":"33689","city":"Tampa","state":"FL","lat":27.9475,"long":-82.4584},{"zip":"33694","city":"Tampa","state":"FL","lat":27.872,"long":-82.4388},{"zip":"33901","city":"Fort Myers","state":"FL","lat":26.6204,"long":-81.8725},{"zip":"33902","city":"Fort Myers","state":"FL","lat":26.6239,"long":-81.8836},{"zip":"33903","city":"North Fort Myers","state":"FL","lat":26.693,"long":-81.9125},{"zip":"33904","city":"Cape Coral","state":"FL","lat":26.6065,"long":-81.9502},{"zip":"33905","city":"Fort Myers","state":"FL","lat":26.6693,"long":-81.7605},{"zip":"33906","city":"Fort Myers","state":"FL","lat":26.5529,"long":-81.9486},{"zip":"33907","city":"Fort Myers","state":"FL","lat":26.5681,"long":-81.8736},{"zip":"33908","city":"Fort Myers","state":"FL","lat":26.5025,"long":-81.9276},{"zip":"33909","city":"Cape Coral","state":"FL","lat":26.6939,"long":-81.9452},{"zip":"33910","city":"Cape Coral","state":"FL","lat":26.5529,"long":-81.9486},{"zip":"33911","city":"Fort Myers","state":"FL","lat":26.5963,"long":-81.8824},{"zip":"33912","city":"Fort Myers","state":"FL","lat":26.4972,"long":-81.8246},{"zip":"33913","city":"Fort Myers","state":"FL","lat":26.5228,"long":-81.7065},{"zip":"33914","city":"Cape Coral","state":"FL","lat":26.5557,"long":-82.0206},{"zip":"33915","city":"Cape Coral","state":"FL","lat":26.6599,"long":-81.8934},{"zip":"33916","city":"Fort Myers","state":"FL","lat":26.6466,"long":-81.8429},{"zip":"33917","city":"North Fort Myers","state":"FL","lat":26.7357,"long":-81.8435},{"zip":"33918","city":"North Fort Myers","state":"FL","lat":26.6673,"long":-81.8801},{"zip":"33919","city":"Fort Myers","state":"FL","lat":26.5567,"long":-81.9034},{"zip":"33920","city":"Alva","state":"FL","lat":26.7147,"long":-81.6351},{"zip":"33921","city":"Boca Grande","state":"FL","lat":26.7545,"long":-82.2611},{"zip":"33922","city":"Bokeelia","state":"FL","lat":26.6627,"long":-82.1401},{"zip":"33924","city":"Captiva","state":"FL","lat":26.5215,"long":-82.1802},{"zip":"33928","city":"Estero","state":"FL","lat":26.4351,"long":-81.8102},{"zip":"33929","city":"Estero","state":"FL","lat":26.4381,"long":-81.8068},{"zip":"33931","city":"Fort Myers Beach","state":"FL","lat":26.4527,"long":-81.9501},{"zip":"33932","city":"Fort Myers Beach","state":"FL","lat":26.5529,"long":-81.9486},{"zip":"33936","city":"Lehigh Acres","state":"FL","lat":26.5936,"long":-81.6619},{"zip":"33945","city":"Pineland","state":"FL","lat":26.6583,"long":-82.1434},{"zip":"33956","city":"Saint James City","state":"FL","lat":26.529,"long":-82.0916},{"zip":"33957","city":"Sanibel","state":"FL","lat":26.4514,"long":-82.0868},{"zip":"33965","city":"Fort Myers","state":"FL","lat":26.4637,"long":-81.7722},{"zip":"33966","city":"Fort Myers","state":"FL","lat":26.5824,"long":-81.832},{"zip":"33970","city":"Lehigh Acres","state":"FL","lat":26.5647,"long":-81.6208},{"zip":"33971","city":"Lehigh Acres","state":"FL","lat":26.6388,"long":-81.6992},{"zip":"33972","city":"Lehigh Acres","state":"FL","lat":26.6492,"long":-81.6167},{"zip":"33974","city":"Lehigh Acres","state":"FL","lat":26.5677,"long":-81.5954},{"zip":"33976","city":"Lehigh Acres","state":"FL","lat":26.5952,"long":-81.6849},{"zip":"33990","city":"Cape Coral","state":"FL","lat":26.6265,"long":-81.9677},{"zip":"33991","city":"Cape Coral","state":"FL","lat":26.6281,"long":-82.0182},{"zip":"33993","city":"Cape Coral","state":"FL","lat":26.6786,"long":-82.0254},{"zip":"33994","city":"Fort Myers","state":"FL","lat":26.5529,"long":-81.9486},{"zip":"33455","city":"Hobe Sound","state":"FL","lat":27.0813,"long":-80.1509},{"zip":"33475","city":"Hobe Sound","state":"FL","lat":27.0595,"long":-80.1364},{"zip":"33002","city":"Hialeah","state":"FL","lat":25.8576,"long":-80.2781},{"zip":"33010","city":"Hialeah","state":"FL","lat":25.8325,"long":-80.2808},{"zip":"33011","city":"Hialeah","state":"FL","lat":25.8576,"long":-80.2781},{"zip":"33012","city":"Hialeah","state":"FL","lat":25.8654,"long":-80.3059},{"zip":"33013","city":"Hialeah","state":"FL","lat":25.8594,"long":-80.2725},{"zip":"33014","city":"Hialeah","state":"FL","lat":25.8963,"long":-80.3063},{"zip":"33015","city":"Hialeah","state":"FL","lat":25.9388,"long":-80.3165},{"zip":"33016","city":"Hialeah","state":"FL","lat":25.8803,"long":-80.3368},{"zip":"33017","city":"Hialeah","state":"FL","lat":25.8576,"long":-80.2781},{"zip":"33018","city":"Hialeah","state":"FL","lat":25.9098,"long":-80.3889},{"zip":"33030","city":"Homestead","state":"FL","lat":25.4766,"long":-80.4839},{"zip":"33031","city":"Homestead","state":"FL","lat":25.5323,"long":-80.5075},{"zip":"33032","city":"Homestead","state":"FL","lat":25.5303,"long":-80.3918},{"zip":"33033","city":"Homestead","state":"FL","lat":25.4906,"long":-80.438},{"zip":"33034","city":"Homestead","state":"FL","lat":25.2846,"long":-80.6246},{"zip":"33035","city":"Homestead","state":"FL","lat":25.4573,"long":-80.4572},{"zip":"33039","city":"Homestead","state":"FL","lat":25.5021,"long":-80.3997},{"zip":"33054","city":"Opa Locka","state":"FL","lat":25.9097,"long":-80.247},{"zip":"33055","city":"Opa Locka","state":"FL","lat":25.9476,"long":-80.2778},{"zip":"33056","city":"Miami Gardens","state":"FL","lat":25.942,"long":-80.2456},{"zip":"33090","city":"Homestead","state":"FL","lat":25.5584,"long":-80.4582},{"zip":"33092","city":"Homestead","state":"FL","lat":25.5584,"long":-80.4582},{"zip":"33101","city":"Miami","state":"FL","lat":25.7791,"long":-80.1978},{"zip":"33102","city":"Miami","state":"FL","lat":25.7743,"long":-80.1937},{"zip":"33109","city":"Miami Beach","state":"FL","lat":25.7588,"long":-80.1376},{"zip":"33111","city":"Miami","state":"FL","lat":25.7743,"long":-80.1937},{"zip":"33114","city":"Coral Gables","state":"FL","lat":25.7215,"long":-80.2684},{"zip":"33116","city":"Miami","state":"FL","lat":25.7743,"long":-80.1937},{"zip":"33119","city":"Miami Beach","state":"FL","lat":25.7845,"long":-80.132},{"zip":"33122","city":"Miami","state":"FL","lat":25.8001,"long":-80.281},{"zip":"33124","city":"Miami","state":"FL","lat":25.7743,"long":-80.1937},{"zip":"33125","city":"Miami","state":"FL","lat":25.7825,"long":-80.2341},{"zip":"33126","city":"Miami","state":"FL","lat":25.7763,"long":-80.2919},{"zip":"33127","city":"Miami","state":"FL","lat":25.8143,"long":-80.2051},{"zip":"33128","city":"Miami","state":"FL","lat":25.7756,"long":-80.2089},{"zip":"33129","city":"Miami","state":"FL","lat":25.7559,"long":-80.2013},{"zip":"33130","city":"Miami","state":"FL","lat":25.7672,"long":-80.2059},{"zip":"33131","city":"Miami","state":"FL","lat":25.7629,"long":-80.1895},{"zip":"33132","city":"Miami","state":"FL","lat":25.7867,"long":-80.18},{"zip":"33133","city":"Miami","state":"FL","lat":25.7378,"long":-80.2248},{"zip":"33134","city":"Miami","state":"FL","lat":25.768,"long":-80.2714},{"zip":"33135","city":"Miami","state":"FL","lat":25.7664,"long":-80.2317},{"zip":"33136","city":"Miami","state":"FL","lat":25.7864,"long":-80.2042},{"zip":"33137","city":"Miami","state":"FL","lat":25.8156,"long":-80.1897},{"zip":"33138","city":"Miami","state":"FL","lat":25.8521,"long":-80.1821},{"zip":"33139","city":"Miami Beach","state":"FL","lat":25.7873,"long":-80.1564},{"zip":"33140","city":"Miami Beach","state":"FL","lat":25.8198,"long":-80.1337},{"zip":"33141","city":"Miami Beach","state":"FL","lat":25.8486,"long":-80.1446},{"zip":"33142","city":"Miami","state":"FL","lat":25.813,"long":-80.232},{"zip":"33143","city":"Miami","state":"FL","lat":25.7022,"long":-80.2978},{"zip":"33144","city":"Miami","state":"FL","lat":25.7626,"long":-80.3096},{"zip":"33145","city":"Miami","state":"FL","lat":25.7539,"long":-80.2253},{"zip":"33146","city":"Miami","state":"FL","lat":25.7205,"long":-80.2728},{"zip":"33147","city":"Miami","state":"FL","lat":25.8507,"long":-80.2366},{"zip":"33149","city":"Key Biscayne","state":"FL","lat":25.6921,"long":-80.1625},{"zip":"33150","city":"Miami","state":"FL","lat":25.8512,"long":-80.207},{"zip":"33151","city":"Miami","state":"FL","lat":25.8321,"long":-80.2094},{"zip":"33152","city":"Miami","state":"FL","lat":25.7955,"long":-80.3129},{"zip":"33153","city":"Miami","state":"FL","lat":25.8655,"long":-80.1936},{"zip":"33154","city":"Miami Beach","state":"FL","lat":25.7907,"long":-80.13},{"zip":"33155","city":"Miami","state":"FL","lat":25.7392,"long":-80.3103},{"zip":"33156","city":"Miami","state":"FL","lat":25.6682,"long":-80.2973},{"zip":"33157","city":"Miami","state":"FL","lat":25.6062,"long":-80.3426},{"zip":"33158","city":"Miami","state":"FL","lat":25.6364,"long":-80.3187},{"zip":"33160","city":"North Miami Beach","state":"FL","lat":25.9449,"long":-80.1391},{"zip":"33161","city":"Miami","state":"FL","lat":25.8934,"long":-80.1758},{"zip":"33162","city":"Miami","state":"FL","lat":25.9286,"long":-80.183},{"zip":"33163","city":"Miami","state":"FL","lat":25.945,"long":-80.2145},{"zip":"33164","city":"Miami","state":"FL","lat":25.7743,"long":-80.1937},{"zip":"33165","city":"Miami","state":"FL","lat":25.7343,"long":-80.3588},{"zip":"33166","city":"Miami","state":"FL","lat":25.8301,"long":-80.2926},{"zip":"33167","city":"Miami","state":"FL","lat":25.8856,"long":-80.2292},{"zip":"33168","city":"Miami","state":"FL","lat":25.8902,"long":-80.2101},{"zip":"33169","city":"Miami","state":"FL","lat":25.9441,"long":-80.2144},{"zip":"33170","city":"Miami","state":"FL","lat":25.5584,"long":-80.4582},{"zip":"33172","city":"Miami","state":"FL","lat":25.7735,"long":-80.3572},{"zip":"33173","city":"Miami","state":"FL","lat":25.6992,"long":-80.3618},{"zip":"33174","city":"Miami","state":"FL","lat":25.7628,"long":-80.3611},{"zip":"33175","city":"Miami","state":"FL","lat":25.7341,"long":-80.4068},{"zip":"33176","city":"Miami","state":"FL","lat":25.6574,"long":-80.3627},{"zip":"33177","city":"Miami","state":"FL","lat":25.5968,"long":-80.4046},{"zip":"33178","city":"Miami","state":"FL","lat":25.8141,"long":-80.3549},{"zip":"33179","city":"Miami","state":"FL","lat":25.9571,"long":-80.1814},{"zip":"33180","city":"Miami","state":"FL","lat":25.9597,"long":-80.1403},{"zip":"33181","city":"Miami","state":"FL","lat":25.8965,"long":-80.157},{"zip":"33182","city":"Miami","state":"FL","lat":25.7877,"long":-80.4166},{"zip":"33183","city":"Miami","state":"FL","lat":25.7,"long":-80.413},{"zip":"33184","city":"Miami","state":"FL","lat":25.7574,"long":-80.403},{"zip":"33185","city":"Miami","state":"FL","lat":25.7274,"long":-80.4497},{"zip":"33186","city":"Miami","state":"FL","lat":25.6694,"long":-80.4085},{"zip":"33187","city":"Miami","state":"FL","lat":25.596,"long":-80.507},{"zip":"33188","city":"Miami","state":"FL","lat":25.7743,"long":-80.1937},{"zip":"33189","city":"Miami","state":"FL","lat":25.573,"long":-80.3374},{"zip":"33190","city":"Miami","state":"FL","lat":25.5593,"long":-80.3483},{"zip":"33191","city":"Miami","state":"FL","lat":25.7743,"long":-80.1937},{"zip":"33192","city":"Miami","state":"FL","lat":25.7743,"long":-80.1937},{"zip":"33193","city":"Miami","state":"FL","lat":25.6964,"long":-80.4401},{"zip":"33194","city":"Miami","state":"FL","lat":25.5584,"long":-80.4582},{"zip":"33195","city":"Miami","state":"FL","lat":25.7729,"long":-80.187},{"zip":"33196","city":"Miami","state":"FL","lat":25.6615,"long":-80.441},{"zip":"33197","city":"Miami","state":"FL","lat":25.7743,"long":-80.1937},{"zip":"33198","city":"Miami","state":"FL","lat":25.7743,"long":-80.1937},{"zip":"33199","city":"Miami","state":"FL","lat":25.7743,"long":-80.1937},{"zip":"33206","city":"Miami","state":"FL","lat":25.7743,"long":-80.1937},{"zip":"33222","city":"Miami","state":"FL","lat":25.7577,"long":-80.3748},{"zip":"33231","city":"Miami","state":"FL","lat":25.7743,"long":-80.1937},{"zip":"33233","city":"Miami","state":"FL","lat":25.7743,"long":-80.1937},{"zip":"33234","city":"Miami","state":"FL","lat":25.7743,"long":-80.1937},{"zip":"33238","city":"Miami","state":"FL","lat":25.7743,"long":-80.1937},{"zip":"33239","city":"Miami Beach","state":"FL","lat":25.7907,"long":-80.13},{"zip":"33242","city":"Miami","state":"FL","lat":25.7743,"long":-80.1937},{"zip":"33243","city":"Miami","state":"FL","lat":25.7743,"long":-80.1937},{"zip":"33245","city":"Miami","state":"FL","lat":25.7743,"long":-80.1937},{"zip":"33247","city":"Miami","state":"FL","lat":25.7743,"long":-80.1937},{"zip":"33255","city":"Miami","state":"FL","lat":25.7743,"long":-80.1937},{"zip":"33256","city":"Miami","state":"FL","lat":25.7743,"long":-80.1937},{"zip":"33257","city":"Miami","state":"FL","lat":25.7743,"long":-80.1937},{"zip":"33261","city":"Miami","state":"FL","lat":25.7743,"long":-80.1937},{"zip":"33265","city":"Miami","state":"FL","lat":25.7743,"long":-80.1937},{"zip":"33266","city":"Miami","state":"FL","lat":25.7743,"long":-80.1937},{"zip":"33269","city":"Miami","state":"FL","lat":25.7743,"long":-80.1937},{"zip":"33280","city":"Miami","state":"FL","lat":25.7743,"long":-80.1937},{"zip":"33283","city":"Miami","state":"FL","lat":25.7743,"long":-80.1937},{"zip":"33296","city":"Miami","state":"FL","lat":25.7743,"long":-80.1937},{"zip":"33299","city":"Miami","state":"FL","lat":25.7743,"long":-80.1937},{"zip":"33001","city":"Long Key","state":"FL","lat":24.8306,"long":-80.8049},{"zip":"33036","city":"Islamorada","state":"FL","lat":24.9233,"long":-80.63},{"zip":"33037","city":"Key Largo","state":"FL","lat":25.0865,"long":-80.4473},{"zip":"33040","city":"Key West","state":"FL","lat":24.5552,"long":-81.7816},{"zip":"33041","city":"Key West","state":"FL","lat":24.5552,"long":-81.7816},{"zip":"33042","city":"Summerland Key","state":"FL","lat":24.667,"long":-81.5099},{"zip":"33043","city":"Big Pine Key","state":"FL","lat":24.68,"long":-81.362},{"zip":"33045","city":"Key West","state":"FL","lat":24.5552,"long":-81.7816},{"zip":"33050","city":"Marathon","state":"FL","lat":24.7279,"long":-81.0386},{"zip":"33051","city":"Key Colony Beach","state":"FL","lat":24.7234,"long":-81.0203},{"zip":"33052","city":"Marathon Shores","state":"FL","lat":24.7233,"long":-81.0632},{"zip":"33070","city":"Tavernier","state":"FL","lat":25.0108,"long":-80.5218},{"zip":"33848","city":"Intercession City","state":"FL","lat":28.2774,"long":-81.5069},{"zip":"33401","city":"West Palm Beach","state":"FL","lat":26.7165,"long":-80.0679},{"zip":"33402","city":"West Palm Beach","state":"FL","lat":26.7153,"long":-80.0534},{"zip":"33403","city":"West Palm Beach","state":"FL","lat":26.8035,"long":-80.0756},{"zip":"33404","city":"West Palm Beach","state":"FL","lat":26.7832,"long":-80.0638},{"zip":"33405","city":"West Palm Beach","state":"FL","lat":26.67,"long":-80.0582},{"zip":"33406","city":"West Palm Beach","state":"FL","lat":26.6396,"long":-80.0827},{"zip":"33407","city":"West Palm Beach","state":"FL","lat":26.7492,"long":-80.0725},{"zip":"33408","city":"North Palm Beach","state":"FL","lat":26.8289,"long":-80.0603},{"zip":"33409","city":"West Palm Beach","state":"FL","lat":26.7162,"long":-80.0965},{"zip":"33410","city":"Palm Beach Gardens","state":"FL","lat":26.8234,"long":-80.1387},{"zip":"33411","city":"West Palm Beach","state":"FL","lat":26.6644,"long":-80.1741},{"zip":"33412","city":"West Palm Beach","state":"FL","lat":26.8055,"long":-80.2482},{"zip":"33413","city":"West Palm Beach","state":"FL","lat":26.6555,"long":-80.1596},{"zip":"33414","city":"Wellington","state":"FL","lat":26.6587,"long":-80.2414},{"zip":"33415","city":"West Palm Beach","state":"FL","lat":26.656,"long":-80.126},{"zip":"33416","city":"West Palm Beach","state":"FL","lat":26.6654,"long":-80.0929},{"zip":"33417","city":"West Palm Beach","state":"FL","lat":26.7197,"long":-80.1248},{"zip":"33418","city":"Palm Beach Gardens","state":"FL","lat":26.8234,"long":-80.1387},{"zip":"33419","city":"West Palm Beach","state":"FL","lat":26.7153,"long":-80.0534},{"zip":"33420","city":"West Palm Beach","state":"FL","lat":26.7153,"long":-80.0534},{"zip":"33421","city":"Royal Palm Beach","state":"FL","lat":26.7084,"long":-80.2306},{"zip":"33422","city":"West Palm Beach","state":"FL","lat":26.7153,"long":-80.0534},{"zip":"33424","city":"Boynton Beach","state":"FL","lat":26.5253,"long":-80.0664},{"zip":"33425","city":"Boynton Beach","state":"FL","lat":26.5253,"long":-80.0664},{"zip":"33426","city":"Boynton Beach","state":"FL","lat":26.5175,"long":-80.0834},{"zip":"33427","city":"Boca Raton","state":"FL","lat":26.376,"long":-80.1072},{"zip":"33428","city":"Boca Raton","state":"FL","lat":26.3446,"long":-80.2109},{"zip":"33429","city":"Boca Raton","state":"FL","lat":26.3587,"long":-80.0831},{"zip":"33430","city":"Belle Glade","state":"FL","lat":26.6843,"long":-80.6724},{"zip":"33431","city":"Boca Raton","state":"FL","lat":26.3799,"long":-80.0975},{"zip":"33432","city":"Boca Raton","state":"FL","lat":26.3462,"long":-80.0844},{"zip":"33433","city":"Boca Raton","state":"FL","lat":26.3464,"long":-80.1564},{"zip":"33434","city":"Boca Raton","state":"FL","lat":26.3839,"long":-80.1749},{"zip":"33435","city":"Boynton Beach","state":"FL","lat":26.5254,"long":-80.061},{"zip":"33436","city":"Boynton Beach","state":"FL","lat":26.5354,"long":-80.1124},{"zip":"33437","city":"Boynton Beach","state":"FL","lat":26.5312,"long":-80.1418},{"zip":"33438","city":"Canal Point","state":"FL","lat":26.8592,"long":-80.6337},{"zip":"33444","city":"Delray Beach","state":"FL","lat":26.4564,"long":-80.0793},{"zip":"33445","city":"Delray Beach","state":"FL","lat":26.4564,"long":-80.1054},{"zip":"33446","city":"Delray Beach","state":"FL","lat":26.4517,"long":-80.158},{"zip":"33448","city":"Delray Beach","state":"FL","lat":26.4615,"long":-80.0728},{"zip":"33449","city":"Lake Worth","state":"FL","lat":26.6048,"long":-80.2149},{"zip":"33454","city":"Greenacres","state":"FL","lat":26.6237,"long":-80.1253},{"zip":"33458","city":"Jupiter","state":"FL","lat":26.9339,"long":-80.1201},{"zip":"33459","city":"Lake Harbor","state":"FL","lat":26.6931,"long":-80.8145},{"zip":"33460","city":"Lake Worth","state":"FL","lat":26.6182,"long":-80.056},{"zip":"33461","city":"Lake Worth","state":"FL","lat":26.6232,"long":-80.0946},{"zip":"33462","city":"Lake Worth","state":"FL","lat":26.5747,"long":-80.0794},{"zip":"33463","city":"Lake Worth","state":"FL","lat":26.5955,"long":-80.1291},{"zip":"33464","city":"Boca Raton","state":"FL","lat":26.3587,"long":-80.0831},{"zip":"33465","city":"Lake Worth","state":"FL","lat":26.6283,"long":-80.1326},{"zip":"33466","city":"Lake Worth","state":"FL","lat":26.6171,"long":-80.0723},{"zip":"33467","city":"Lake Worth","state":"FL","lat":26.6104,"long":-80.1683},{"zip":"33468","city":"Jupiter","state":"FL","lat":26.9342,"long":-80.0942},{"zip":"33469","city":"Jupiter","state":"FL","lat":26.9831,"long":-80.108},{"zip":"33470","city":"Loxahatchee","state":"FL","lat":26.7383,"long":-80.276},{"zip":"33472","city":"Boynton Beach","state":"FL","lat":26.5384,"long":-80.1856},{"zip":"33473","city":"Boynton Beach","state":"FL","lat":26.5088,"long":-80.1896},{"zip":"33474","city":"Boynton Beach","state":"FL","lat":26.5253,"long":-80.0664},{"zip":"33476","city":"Pahokee","state":"FL","lat":26.8142,"long":-80.6629},{"zip":"33477","city":"Jupiter","state":"FL","lat":26.9217,"long":-80.077},{"zip":"33478","city":"Jupiter","state":"FL","lat":26.9212,"long":-80.2144},{"zip":"33480","city":"Palm Beach","state":"FL","lat":26.7206,"long":-80.0388},{"zip":"33481","city":"Boca Raton","state":"FL","lat":26.3587,"long":-80.0831},{"zip":"33482","city":"Delray Beach","state":"FL","lat":26.4615,"long":-80.0728},{"zip":"33483","city":"Delray Beach","state":"FL","lat":26.4546,"long":-80.0656},{"zip":"33484","city":"Delray Beach","state":"FL","lat":26.4543,"long":-80.1346},{"zip":"33486","city":"Boca Raton","state":"FL","lat":26.3481,"long":-80.1104},{"zip":"33487","city":"Boca Raton","state":"FL","lat":26.4116,"long":-80.0928},{"zip":"33488","city":"Boca Raton","state":"FL","lat":26.3587,"long":-80.0831},{"zip":"33493","city":"South Bay","state":"FL","lat":26.6701,"long":-80.7312},{"zip":"33496","city":"Boca Raton","state":"FL","lat":26.403,"long":-80.1813},{"zip":"33497","city":"Boca Raton","state":"FL","lat":26.3587,"long":-80.0831},{"zip":"33498","city":"Boca Raton","state":"FL","lat":26.3907,"long":-80.2161},{"zip":"33499","city":"Boca Raton","state":"FL","lat":26.3587,"long":-80.0831},{"zip":"33523","city":"Dade City","state":"FL","lat":28.4247,"long":-82.2185},{"zip":"33524","city":"Crystal Springs","state":"FL","lat":28.1822,"long":-82.1523},{"zip":"33525","city":"Dade City","state":"FL","lat":28.3318,"long":-82.2446},{"zip":"33526","city":"Dade City","state":"FL","lat":28.3101,"long":-82.2478},{"zip":"33537","city":"Lacoochee","state":"FL","lat":28.4658,"long":-82.172},{"zip":"33539","city":"Zephyrhills","state":"FL","lat":28.213,"long":-82.1657},{"zip":"33540","city":"Zephyrhills","state":"FL","lat":28.2151,"long":-82.1506},{"zip":"33541","city":"Zephyrhills","state":"FL","lat":28.2311,"long":-82.2057},{"zip":"33542","city":"Zephyrhills","state":"FL","lat":28.2303,"long":-82.1779},{"zip":"33543","city":"Wesley Chapel","state":"FL","lat":28.2397,"long":-82.3279},{"zip":"33544","city":"Wesley Chapel","state":"FL","lat":28.2397,"long":-82.3279},{"zip":"33545","city":"Wesley Chapel","state":"FL","lat":28.2697,"long":-82.2903},{"zip":"33559","city":"Lutz","state":"FL","lat":28.1801,"long":-82.4169},{"zip":"33574","city":"Saint Leo","state":"FL","lat":28.3348,"long":-82.2693},{"zip":"33576","city":"San Antonio","state":"FL","lat":28.3371,"long":-82.2882},{"zip":"33578","city":"Riverview","state":"FL","lat":27.8633,"long":-82.3499},{"zip":"33593","city":"Trilby","state":"FL","lat":28.4625,"long":-82.1948},{"zip":"33701","city":"Saint Petersburg","state":"FL","lat":27.7723,"long":-82.6386},{"zip":"33702","city":"Saint Petersburg","state":"FL","lat":27.8427,"long":-82.6448},{"zip":"33703","city":"Saint Petersburg","state":"FL","lat":27.817,"long":-82.6264},{"zip":"33704","city":"Saint Petersburg","state":"FL","lat":27.7954,"long":-82.6373},{"zip":"33705","city":"Saint Petersburg","state":"FL","lat":27.7391,"long":-82.6435},{"zip":"33706","city":"Saint Petersburg","state":"FL","lat":27.7456,"long":-82.7516},{"zip":"33707","city":"Saint Petersburg","state":"FL","lat":27.7549,"long":-82.7208},{"zip":"33708","city":"Saint Petersburg","state":"FL","lat":27.8116,"long":-82.8014},{"zip":"33709","city":"Saint Petersburg","state":"FL","lat":27.8201,"long":-82.7308},{"zip":"33710","city":"Saint Petersburg","state":"FL","lat":27.7898,"long":-82.7243},{"zip":"33711","city":"Saint Petersburg","state":"FL","lat":27.7465,"long":-82.6897},{"zip":"33712","city":"Saint Petersburg","state":"FL","lat":27.7353,"long":-82.6663},{"zip":"33713","city":"Saint Petersburg","state":"FL","lat":27.789,"long":-82.6779},{"zip":"33714","city":"Saint Petersburg","state":"FL","lat":27.8176,"long":-82.6776},{"zip":"33715","city":"Saint Petersburg","state":"FL","lat":27.6705,"long":-82.7119},{"zip":"33716","city":"Saint Petersburg","state":"FL","lat":27.8738,"long":-82.64},{"zip":"33729","city":"Saint Petersburg","state":"FL","lat":27.8819,"long":-82.6644},{"zip":"33730","city":"Saint Petersburg","state":"FL","lat":27.7709,"long":-82.6793},{"zip":"33731","city":"Saint Petersburg","state":"FL","lat":27.8918,"long":-82.7248},{"zip":"33732","city":"Saint Petersburg","state":"FL","lat":27.8918,"long":-82.7248},{"zip":"33733","city":"Saint Petersburg","state":"FL","lat":27.7709,"long":-82.6793},{"zip":"33734","city":"Saint Petersburg","state":"FL","lat":27.8918,"long":-82.7248},{"zip":"33736","city":"Saint Petersburg","state":"FL","lat":27.8918,"long":-82.7248},{"zip":"33737","city":"Saint Petersburg","state":"FL","lat":27.8918,"long":-82.7248},{"zip":"33738","city":"Saint Petersburg","state":"FL","lat":27.8918,"long":-82.7248},{"zip":"33740","city":"Saint Petersburg","state":"FL","lat":27.8918,"long":-82.7248},{"zip":"33741","city":"Saint Petersburg","state":"FL","lat":27.8918,"long":-82.7248},{"zip":"33742","city":"Saint Petersburg","state":"FL","lat":27.8918,"long":-82.7248},{"zip":"33743","city":"Saint Petersburg","state":"FL","lat":27.8918,"long":-82.7248},{"zip":"33744","city":"Bay Pines","state":"FL","lat":27.8918,"long":-82.7248},{"zip":"33747","city":"Saint Petersburg","state":"FL","lat":27.8918,"long":-82.7248},{"zip":"33755","city":"Clearwater","state":"FL","lat":27.9781,"long":-82.7815},{"zip":"33756","city":"Clearwater","state":"FL","lat":27.947,"long":-82.7943},{"zip":"33757","city":"Clearwater","state":"FL","lat":27.8918,"long":-82.7248},{"zip":"33758","city":"Clearwater","state":"FL","lat":27.8918,"long":-82.7248},{"zip":"33759","city":"Clearwater","state":"FL","lat":27.975,"long":-82.7019},{"zip":"33760","city":"Clearwater","state":"FL","lat":27.9004,"long":-82.7152},{"zip":"33761","city":"Clearwater","state":"FL","lat":28.031,"long":-82.7239},{"zip":"33762","city":"Clearwater","state":"FL","lat":27.8942,"long":-82.6746},{"zip":"33763","city":"Clearwater","state":"FL","lat":28.0173,"long":-82.7461},{"zip":"33764","city":"Clearwater","state":"FL","lat":27.916,"long":-82.7343},{"zip":"33765","city":"Clearwater","state":"FL","lat":27.9902,"long":-82.7433},{"zip":"33766","city":"Clearwater","state":"FL","lat":27.8918,"long":-82.7248},{"zip":"33767","city":"Clearwater Beach","state":"FL","lat":27.9598,"long":-82.8286},{"zip":"33769","city":"Clearwater","state":"FL","lat":27.8918,"long":-82.7248},{"zip":"33770","city":"Largo","state":"FL","lat":27.917,"long":-82.8027},{"zip":"33771","city":"Largo","state":"FL","lat":27.9085,"long":-82.7568},{"zip":"33772","city":"Seminole","state":"FL","lat":27.8466,"long":-82.7954},{"zip":"33773","city":"Largo","state":"FL","lat":27.8802,"long":-82.7534},{"zip":"33774","city":"Largo","state":"FL","lat":27.8839,"long":-82.8265},{"zip":"33775","city":"Seminole","state":"FL","lat":27.8397,"long":-82.7912},{"zip":"33776","city":"Seminole","state":"FL","lat":27.8505,"long":-82.8263},{"zip":"33777","city":"Seminole","state":"FL","lat":27.8688,"long":-82.7344},{"zip":"33778","city":"Largo","state":"FL","lat":27.884,"long":-82.8025},{"zip":"33779","city":"Largo","state":"FL","lat":27.8397,"long":-82.7725},{"zip":"33780","city":"Pinellas Park","state":"FL","lat":27.8918,"long":-82.7248},{"zip":"33781","city":"Pinellas Park","state":"FL","lat":27.8387,"long":-82.7151},{"zip":"33782","city":"Pinellas Park","state":"FL","lat":27.8681,"long":-82.7086},{"zip":"33784","city":"Saint Petersburg","state":"FL","lat":27.8918,"long":-82.7248},{"zip":"33785","city":"Indian Rocks Beach","state":"FL","lat":27.8868,"long":-82.8435},{"zip":"33786","city":"Belleair Beach","state":"FL","lat":27.9229,"long":-82.8393},{"zip":"33801","city":"Lakeland","state":"FL","lat":28.0381,"long":-81.9392},{"zip":"33802","city":"Lakeland","state":"FL","lat":28.021,"long":-81.9852},{"zip":"33803","city":"Lakeland","state":"FL","lat":28.014,"long":-81.9523},{"zip":"33804","city":"Lakeland","state":"FL","lat":28.0395,"long":-81.9498},{"zip":"33805","city":"Lakeland","state":"FL","lat":28.072,"long":-81.9609},{"zip":"33806","city":"Lakeland","state":"FL","lat":28.0395,"long":-81.9498},{"zip":"33807","city":"Lakeland","state":"FL","lat":28.0395,"long":-81.9498},{"zip":"33809","city":"Lakeland","state":"FL","lat":28.1762,"long":-81.9591},{"zip":"33810","city":"Lakeland","state":"FL","lat":28.1479,"long":-82.0372},{"zip":"33811","city":"Lakeland","state":"FL","lat":27.9865,"long":-82.0139},{"zip":"33812","city":"Lakeland","state":"FL","lat":27.9729,"long":-81.8931},{"zip":"33813","city":"Lakeland","state":"FL","lat":27.9611,"long":-81.9398},{"zip":"33815","city":"Lakeland","state":"FL","lat":28.0496,"long":-82.0069},{"zip":"33820","city":"Alturas","state":"FL","lat":28.0026,"long":-81.6186},{"zip":"33823","city":"Auburndale","state":"FL","lat":28.0724,"long":-81.8122},{"zip":"33827","city":"Babson Park","state":"FL","lat":27.8163,"long":-81.5139},{"zip":"33830","city":"Bartow","state":"FL","lat":27.8957,"long":-81.8127},{"zip":"33831","city":"Bartow","state":"FL","lat":27.8964,"long":-81.8431},{"zip":"33835","city":"Bradley","state":"FL","lat":27.6993,"long":-81.9494},{"zip":"33836","city":"Davenport","state":"FL","lat":28.1672,"long":-81.6316},{"zip":"33837","city":"Davenport","state":"FL","lat":28.1963,"long":-81.6079},{"zip":"33838","city":"Dundee","state":"FL","lat":28.0194,"long":-81.6212},{"zip":"33839","city":"Eagle Lake","state":"FL","lat":27.9787,"long":-81.7564},{"zip":"33840","city":"Eaton Park","state":"FL","lat":28.0086,"long":-81.9076},{"zip":"33841","city":"Fort Meade","state":"FL","lat":27.7464,"long":-81.7823},{"zip":"33843","city":"Frostproof","state":"FL","lat":27.7211,"long":-81.5148},{"zip":"33844","city":"Haines City","state":"FL","lat":28.1145,"long":-81.6201},{"zip":"33845","city":"Haines City","state":"FL","lat":28.0026,"long":-81.6186},{"zip":"33846","city":"Highland City","state":"FL","lat":27.9647,"long":-81.8672},{"zip":"33847","city":"Homeland","state":"FL","lat":27.8178,"long":-81.8245},{"zip":"33849","city":"Kathleen","state":"FL","lat":28.1975,"long":-82.0396},{"zip":"33850","city":"Lake Alfred","state":"FL","lat":28.0895,"long":-81.7271},{"zip":"33851","city":"Lake Hamilton","state":"FL","lat":28.0369,"long":-81.628},{"zip":"33853","city":"Lake Wales","state":"FL","lat":27.9002,"long":-81.5847},{"zip":"33854","city":"Lakeshore","state":"FL","lat":27.966,"long":-81.6965},{"zip":"33855","city":"Indian Lake Estates","state":"FL","lat":27.798,"long":-81.3572},{"zip":"33856","city":"Nalcrest","state":"FL","lat":27.8557,"long":-81.4309},{"zip":"33858","city":"Loughman","state":"FL","lat":28.242,"long":-81.5667},{"zip":"33859","city":"Lake Wales","state":"FL","lat":27.8774,"long":-81.6221},{"zip":"33860","city":"Mulberry","state":"FL","lat":27.902,"long":-82.0015},{"zip":"33863","city":"Nichols","state":"FL","lat":27.8903,"long":-82.0315},{"zip":"33867","city":"River Ranch","state":"FL","lat":27.7686,"long":-81.1966},{"zip":"33868","city":"Polk City","state":"FL","lat":28.1987,"long":-81.8083},{"zip":"33877","city":"Waverly","state":"FL","lat":27.9769,"long":-81.6144},{"zip":"33880","city":"Winter Haven","state":"FL","lat":27.9873,"long":-81.7625},{"zip":"33881","city":"Winter Haven","state":"FL","lat":28.0452,"long":-81.7325},{"zip":"33882","city":"Winter Haven","state":"FL","lat":28.0294,"long":-81.7321},{"zip":"33883","city":"Winter Haven","state":"FL","lat":28.0222,"long":-81.7329},{"zip":"33884","city":"Winter Haven","state":"FL","lat":27.981,"long":-81.6736},{"zip":"33885","city":"Winter Haven","state":"FL","lat":28.0026,"long":-81.6186},{"zip":"33888","city":"Winter Haven","state":"FL","lat":28.0231,"long":-81.7234},{"zip":"33896","city":"Davenport","state":"FL","lat":28.2531,"long":-81.6509},{"zip":"33897","city":"Davenport","state":"FL","lat":28.3112,"long":-81.6643},{"zip":"33898","city":"Lake Wales","state":"FL","lat":27.8643,"long":-81.5719},{"zip":"33967","city":"Fort Myers","state":"FL","lat":26.4722,"long":-81.8122},{"zip":"33112","city":"Miami","state":"FL","lat":25.7964,"long":-80.3849},{"zip":"33513","city":"Bushnell","state":"FL","lat":28.6611,"long":-82.1553},{"zip":"33514","city":"Center Hill","state":"FL","lat":28.6635,"long":-81.9963},{"zip":"33521","city":"Coleman","state":"FL","lat":28.7997,"long":-82.0701},{"zip":"33538","city":"Lake Panasoffkee","state":"FL","lat":28.7953,"long":-82.1363},{"zip":"33585","city":"Sumterville","state":"FL","lat":28.7356,"long":-82.0616},{"zip":"33597","city":"Webster","state":"FL","lat":28.549,"long":-82.0805}]
