[{"zip":"33004","city":"Dania","state":"FL","lat":26.0476,"long":-80.1447},{"zip":"33008","city":"Hallandale","state":"FL","lat":25.9812,"long":-80.1484},{"zip":"33009","city":"Hallandale","state":"FL","lat":25.985,"long":-80.1407},{"zip":"33019","city":"Hollywood","state":"FL","lat":26.007,"long":-80.1219},{"zip":"33020","city":"Hollywood","state":"FL","lat":26.0161,"long":-80.1517},{"zip":"33021","city":"Hollywood","state":"FL","lat":26.0218,"long":-80.1891},{"zip":"33022","city":"Hollywood","state":"FL","lat":26.0134,"long":-80.1442},{"zip":"33023","city":"Hollywood","state":"FL","lat":25.9894,"long":-80.2153},{"zip":"33024","city":"Hollywood","state":"FL","lat":26.0296,"long":-80.2489},{"zip":"33025","city":"Hollywood","state":"FL","lat":25.9921,"long":-80.2712},{"zip":"33026","city":"Hollywood","state":"FL","lat":26.0229,"long":-80.2974},{"zip":"33027","city":"Hollywood","state":"FL","lat":25.9974,"long":-80.3248},{"zip":"33028","city":"Pembroke Pines","state":"FL","lat":26.0185,"long":-80.3449},{"zip":"33029","city":"Hollywood","state":"FL","lat":25.9924,"long":-80.4089},{"zip":"33060","city":"Pompano Beach","state":"FL","lat":26.2315,"long":-80.1235},{"zip":"33061","city":"Pompano Beach","state":"FL","lat":26.2539,"long":-80.1342},{"zip":"33062","city":"Pompano Beach","state":"FL","lat":26.2343,"long":-80.0941},{"zip":"33063","city":"Pompano Beach","state":"FL","lat":26.2674,"long":-80.2092},{"zip":"33064","city":"Pompano Beach","state":"FL","lat":26.2785,"long":-80.1157},{"zip":"33065","city":"Pompano Beach","state":"FL","lat":26.2729,"long":-80.2603},{"zip":"33066","city":"Pompano Beach","state":"FL","lat":26.2535,"long":-80.1775},{"zip":"33067","city":"Pompano Beach","state":"FL","lat":26.3033,"long":-80.2415},{"zip":"33068","city":"Pompano Beach","state":"FL","lat":26.216,"long":-80.2205},{"zip":"33069","city":"Pompano Beach","state":"FL","lat":26.2288,"long":-80.1635},{"zip":"33071","city":"Pompano Beach","state":"FL","lat":26.2435,"long":-80.2601},{"zip":"33072","city":"Pompano Beach","state":"FL","lat":26.2335,"long":-80.0924},{"zip":"33073","city":"Pompano Beach","state":"FL","lat":26.2997,"long":-80.181},{"zip":"33074","city":"Pompano Beach","state":"FL","lat":26.2379,"long":-80.1248},{"zip":"33075","city":"Coral Springs","state":"FL","lat":26.2712,"long":-80.2706},{"zip":"33076","city":"Pompano Beach","state":"FL","lat":26.3168,"long":-80.2753},{"zip":"33077","city":"Pompano Beach","state":"FL","lat":26.2379,"long":-80.1248},{"zip":"33081","city":"Hollywood","state":"FL","lat":26.0112,"long":-80.1495},{"zip":"33082","city":"Pembroke Pines","state":"FL","lat":26.0031,"long":-80.2239},{"zip":"33083","city":"Hollywood","state":"FL","lat":26.0112,"long":-80.1495},{"zip":"33084","city":"Hollywood","state":"FL","lat":26.0112,"long":-80.1495},{"zip":"33093","city":"Margate","state":"FL","lat":26.2445,"long":-80.2064},{"zip":"33097","city":"Coconut Creek","state":"FL","lat":26.2517,"long":-80.1789},{"zip":"33002","city":"Hialeah","state":"FL","lat":25.8576,"long":-80.2781},{"zip":"33010","city":"Hialeah","state":"FL","lat":25.8325,"long":-80.2808},{"zip":"33011","city":"Hialeah","state":"FL","lat":25.8576,"long":-80.2781},{"zip":"33012","city":"Hialeah","state":"FL","lat":25.8654,"long":-80.3059},{"zip":"33013","city":"Hialeah","state":"FL","lat":25.8594,"long":-80.2725},{"zip":"33014","city":"Hialeah","state":"FL","lat":25.8963,"long":-80.3063},{"zip":"33015","city":"Hialeah","state":"FL","lat":25.9388,"long":-80.3165},{"zip":"33016","city":"Hialeah","state":"FL","lat":25.8803,"long":-80.3368},{"zip":"33017","city":"Hialeah","state":"FL","lat":25.8576,"long":-80.2781},{"zip":"33018","city":"Hialeah","state":"FL","lat":25.9098,"long":-80.3889},{"zip":"33030","city":"Homestead","state":"FL","lat":25.4766,"long":-80.4839},{"zip":"33031","city":"Homestead","state":"FL","lat":25.5323,"long":-80.5075},{"zip":"33032","city":"Homestead","state":"FL","lat":25.5303,"long":-80.3918},{"zip":"33033","city":"Homestead","state":"FL","lat":25.4906,"long":-80.438},{"zip":"33034","city":"Homestead","state":"FL","lat":25.2846,"long":-80.6246},{"zip":"33035","city":"Homestead","state":"FL","lat":25.4573,"long":-80.4572},{"zip":"33039","city":"Homestead","state":"FL","lat":25.5021,"long":-80.3997},{"zip":"33054","city":"Opa Locka","state":"FL","lat":25.9097,"long":-80.247},{"zip":"33055","city":"Opa Locka","state":"FL","lat":25.9476,"long":-80.2778},{"zip":"33056","city":"Miami Gardens","state":"FL","lat":25.942,"long":-80.2456},{"zip":"33090","city":"Homestead","state":"FL","lat":25.5584,"long":-80.4582},{"zip":"33092","city":"Homestead","state":"FL","lat":25.5584,"long":-80.4582},{"zip":"33001","city":"Long Key","state":"FL","lat":24.8306,"long":-80.8049},{"zip":"33036","city":"Islamorada","state":"FL","lat":24.9233,"long":-80.63},{"zip":"33037","city":"Key Largo","state":"FL","lat":25.0865,"long":-80.4473},{"zip":"33040","city":"Key West","state":"FL","lat":24.5552,"long":-81.7816},{"zip":"33041","city":"Key West","state":"FL","lat":24.5552,"long":-81.7816},{"zip":"33042","city":"Summerland Key","state":"FL","lat":24.667,"long":-81.5099},{"zip":"33043","city":"Big Pine Key","state":"FL","lat":24.68,"long":-81.362},{"zip":"33045","city":"Key West","state":"FL","lat":24.5552,"long":-81.7816},{"zip":"33050","city":"Marathon","state":"FL","lat":24.7279,"long":-81.0386},{"zip":"33051","city":"Key Colony Beach","state":"FL","lat":24.7234,"long":-81.0203},{"zip":"33052","city":"Marathon Shores","state":"FL","lat":24.7233,"long":-81.0632},{"zip":"33070","city":"Tavernier","state":"FL","lat":25.0108,"long":-80.5218}]
