[{"zip":"33101","city":"Miami","state":"FL","lat":25.7791,"long":-80.1978},{"zip":"33102","city":"Miami","state":"FL","lat":25.7743,"long":-80.1937},{"zip":"33109","city":"Miami Beach","state":"FL","lat":25.7588,"long":-80.1376},{"zip":"33111","city":"Miami","state":"FL","lat":25.7743,"long":-80.1937},{"zip":"33114","city":"Coral Gables","state":"FL","lat":25.7215,"long":-80.2684},{"zip":"33116","city":"Miami","state":"FL","lat":25.7743,"long":-80.1937},{"zip":"33119","city":"Miami Beach","state":"FL","lat":25.7845,"long":-80.132},{"zip":"33122","city":"Miami","state":"FL","lat":25.8001,"long":-80.281},{"zip":"33124","city":"Miami","state":"FL","lat":25.7743,"long":-80.1937},{"zip":"33125","city":"Miami","state":"FL","lat":25.7825,"long":-80.2341},{"zip":"33126","city":"Miami","state":"FL","lat":25.7763,"long":-80.2919},{"zip":"33127","city":"Miami","state":"FL","lat":25.8143,"long":-80.2051},{"zip":"33128","city":"Miami","state":"FL","lat":25.7756,"long":-80.2089},{"zip":"33129","city":"Miami","state":"FL","lat":25.7559,"long":-80.2013},{"zip":"33130","city":"Miami","state":"FL","lat":25.7672,"long":-80.2059},{"zip":"33131","city":"Miami","state":"FL","lat":25.7629,"long":-80.1895},{"zip":"33132","city":"Miami","state":"FL","lat":25.7867,"long":-80.18},{"zip":"33133","city":"Miami","state":"FL","lat":25.7378,"long":-80.2248},{"zip":"33134","city":"Miami","state":"FL","lat":25.768,"long":-80.2714},{"zip":"33135","city":"Miami","state":"FL","lat":25.7664,"long":-80.2317},{"zip":"33136","city":"Miami","state":"FL","lat":25.7864,"long":-80.2042},{"zip":"33137","city":"Miami","state":"FL","lat":25.8156,"long":-80.1897},{"zip":"33138","city":"Miami","state":"FL","lat":25.8521,"long":-80.1821},{"zip":"33139","city":"Miami Beach","state":"FL","lat":25.7873,"long":-80.1564},{"zip":"33140","city":"Miami Beach","state":"FL","lat":25.8198,"long":-80.1337},{"zip":"33141","city":"Miami Beach","state":"FL","lat":25.8486,"long":-80.1446},{"zip":"33142","city":"Miami","state":"FL","lat":25.813,"long":-80.232},{"zip":"33143","city":"Miami","state":"FL","lat":25.7022,"long":-80.2978},{"zip":"33144","city":"Miami","state":"FL","lat":25.7626,"long":-80.3096},{"zip":"33145","city":"Miami","state":"FL","lat":25.7539,"long":-80.2253},{"zip":"33146","city":"Miami","state":"FL","lat":25.7205,"long":-80.2728},{"zip":"33147","city":"Miami","state":"FL","lat":25.8507,"long":-80.2366},{"zip":"33149","city":"Key Biscayne","state":"FL","lat":25.6921,"long":-80.1625},{"zip":"33150","city":"Miami","state":"FL","lat":25.8512,"long":-80.207},{"zip":"33151","city":"Miami","state":"FL","lat":25.8321,"long":-80.2094},{"zip":"33152","city":"Miami","state":"FL","lat":25.7955,"long":-80.3129},{"zip":"33153","city":"Miami","state":"FL","lat":25.8655,"long":-80.1936},{"zip":"33154","city":"Miami Beach","state":"FL","lat":25.7907,"long":-80.13},{"zip":"33155","city":"Miami","state":"FL","lat":25.7392,"long":-80.3103},{"zip":"33156","city":"Miami","state":"FL","lat":25.6682,"long":-80.2973},{"zip":"33157","city":"Miami","state":"FL","lat":25.6062,"long":-80.3426},{"zip":"33158","city":"Miami","state":"FL","lat":25.6364,"long":-80.3187},{"zip":"33160","city":"North Miami Beach","state":"FL","lat":25.9449,"long":-80.1391},{"zip":"33161","city":"Miami","state":"FL","lat":25.8934,"long":-80.1758},{"zip":"33162","city":"Miami","state":"FL","lat":25.9286,"long":-80.183},{"zip":"33163","city":"Miami","state":"FL","lat":25.945,"long":-80.2145},{"zip":"33164","city":"Miami","state":"FL","lat":25.7743,"long":-80.1937},{"zip":"33165","city":"Miami","state":"FL","lat":25.7343,"long":-80.3588},{"zip":"33166","city":"Miami","state":"FL","lat":25.8301,"long":-80.2926},{"zip":"33167","city":"Miami","state":"FL","lat":25.8856,"long":-80.2292},{"zip":"33168","city":"Miami","state":"FL","lat":25.8902,"long":-80.2101},{"zip":"33169","city":"Miami","state":"FL","lat":25.9441,"long":-80.2144},{"zip":"33170","city":"Miami","state":"FL","lat":25.5584,"long":-80.4582},{"zip":"33172","city":"Miami","state":"FL","lat":25.7735,"long":-80.3572},{"zip":"33173","city":"Miami","state":"FL","lat":25.6992,"long":-80.3618},{"zip":"33174","city":"Miami","state":"FL","lat":25.7628,"long":-80.3611},{"zip":"33175","city":"Miami","state":"FL","lat":25.7341,"long":-80.4068},{"zip":"33176","city":"Miami","state":"FL","lat":25.6574,"long":-80.3627},{"zip":"33177","city":"Miami","state":"FL","lat":25.5968,"long":-80.4046},{"zip":"33178","city":"Miami","state":"FL","lat":25.8141,"long":-80.3549},{"zip":"33179","city":"Miami","state":"FL","lat":25.9571,"long":-80.1814},{"zip":"33180","city":"Miami","state":"FL","lat":25.9597,"long":-80.1403},{"zip":"33181","city":"Miami","state":"FL","lat":25.8965,"long":-80.157},{"zip":"33182","city":"Miami","state":"FL","lat":25.7877,"long":-80.4166},{"zip":"33183","city":"Miami","state":"FL","lat":25.7,"long":-80.413},{"zip":"33184","city":"Miami","state":"FL","lat":25.7574,"long":-80.403},{"zip":"33185","city":"Miami","state":"FL","lat":25.7274,"long":-80.4497},{"zip":"33186","city":"Miami","state":"FL","lat":25.6694,"long":-80.4085},{"zip":"33187","city":"Miami","state":"FL","lat":25.596,"long":-80.507},{"zip":"33188","city":"Miami","state":"FL","lat":25.7743,"long":-80.1937},{"zip":"33189","city":"Miami","state":"FL","lat":25.573,"long":-80.3374},{"zip":"33190","city":"Miami","state":"FL","lat":25.5593,"long":-80.3483},{"zip":"33191","city":"Miami","state":"FL","lat":25.7743,"long":-80.1937},{"zip":"33192","city":"Miami","state":"FL","lat":25.7743,"long":-80.1937},{"zip":"33193","city":"Miami","state":"FL","lat":25.6964,"long":-80.4401},{"zip":"33194","city":"Miami","state":"FL","lat":25.5584,"long":-80.4582},{"zip":"33195","city":"Miami","state":"FL","lat":25.7729,"long":-80.187},{"zip":"33196","city":"Miami","state":"FL","lat":25.6615,"long":-80.441},{"zip":"33197","city":"Miami","state":"FL","lat":25.7743,"long":-80.1937},{"zip":"33198","city":"Miami","state":"FL","lat":25.7743,"long":-80.1937},{"zip":"33199","city":"Miami","state":"FL","lat":25.7743,"long":-80.1937},{"zip":"33112","city":"Miami","state":"FL","lat":25.7964,"long":-80.3849}]
