[{"zip":"33206","city":"Miami","state":"FL","lat":25.7743,"long":-80.1937},{"zip":"33222","city":"Miami","state":"FL","lat":25.7577,"long":-80.3748},{"zip":"33231","city":"Miami","state":"FL","lat":25.7743,"long":-80.1937},{"zip":"33233","city":"Miami","state":"FL","lat":25.7743,"long":-80.1937},{"zip":"33234","city":"Miami","state":"FL","lat":25.7743,"long":-80.1937},{"zip":"33238","city":"Miami","state":"FL","lat":25.7743,"long":-80.1937},{"zip":"33239","city":"Miami Beach","state":"FL","lat":25.7907,"long":-80.13},{"zip":"33242","city":"Miami","state":"FL","lat":25.7743,"long":-80.1937},{"zip":"33243","city":"Miami","state":"FL","lat":25.7743,"long":-80.1937},{"zip":"33245","city":"Miami","state":"FL","lat":25.7743,"long":-80.1937},{"zip":"33247","city":"Miami","state":"FL","lat":25.7743,"long":-80.1937},{"zip":"33255","city":"Miami","state":"FL","lat":25.7743,"long":-80.1937},{"zip":"33256","city":"Miami","state":"FL","lat":25.7743,"long":-80.1937},{"zip":"33257","city":"Miami","state":"FL","lat":25.7743,"long":-80.1937},{"zip":"33261","city":"Miami","state":"FL","lat":25.7743,"long":-80.1937},{"zip":"33265","city":"Miami","state":"FL","lat":25.7743,"long":-80.1937},{"zip":"33266","city":"Miami","state":"FL","lat":25.7743,"long":-80.1937},{"zip":"33269","city":"Miami","state":"FL","lat":25.7743,"long":-80.1937},{"zip":"33280","city":"Miami","state":"FL","lat":25.7743,"long":-80.1937},{"zip":"33283","city":"Miami","state":"FL","lat":25.7743,"long":-80.1937},{"zip":"33296","city":"Miami","state":"FL","lat":25.7743,"long":-80.1937},{"zip":"33299","city":"Miami","state":"FL","lat":25.7743,"long":-80.1937}]
