[{"zip":"33301","city":"Fort Lauderdale","state":"FL","lat":26.1216,"long":-80.1288},{"zip":"33302","city":"Fort Lauderdale","state":"FL","lat":26.1223,"long":-80.1434},{"zip":"33303","city":"Fort Lauderdale","state":"FL","lat":26.1969,"long":-80.0952},{"zip":"33304","city":"Fort Lauderdale","state":"FL","lat":26.1387,"long":-80.1218},{"zip":"33305","city":"Fort Lauderdale","state":"FL","lat":26.1497,"long":-80.1229},{"zip":"33306","city":"Fort Lauderdale","state":"FL","lat":26.1656,"long":-80.1118},{"zip":"33307","city":"Fort Lauderdale","state":"FL","lat":26.1223,"long":-80.1434},{"zip":"33308","city":"Fort Lauderdale","state":"FL","lat":26.0984,"long":-80.1822},{"zip":"33309","city":"Fort Lauderdale","state":"FL","lat":26.1817,"long":-80.1746},{"zip":"33310","city":"Fort Lauderdale","state":"FL","lat":26.1443,"long":-80.2069},{"zip":"33311","city":"Fort Lauderdale","state":"FL","lat":26.1421,"long":-80.1728},{"zip":"33312","city":"Fort Lauderdale","state":"FL","lat":26.0968,"long":-80.181},{"zip":"33313","city":"Fort Lauderdale","state":"FL","lat":26.1487,"long":-80.2075},{"zip":"33314","city":"Fort Lauderdale","state":"FL","lat":26.0697,"long":-80.2246},{"zip":"33315","city":"Fort Lauderdale","state":"FL","lat":26.0989,"long":-80.1541},{"zip":"33316","city":"Fort Lauderdale","state":"FL","lat":26.1042,"long":-80.126},{"zip":"33317","city":"Fort Lauderdale","state":"FL","lat":26.1122,"long":-80.2264},{"zip":"33318","city":"Fort Lauderdale","state":"FL","lat":26.1184,"long":-80.252},{"zip":"33319","city":"Fort Lauderdale","state":"FL","lat":26.1848,"long":-80.2406},{"zip":"33320","city":"Fort Lauderdale","state":"FL","lat":26.1625,"long":-80.2582},{"zip":"33321","city":"Fort Lauderdale","state":"FL","lat":26.212,"long":-80.2696},{"zip":"33322","city":"Fort Lauderdale","state":"FL","lat":26.1502,"long":-80.2745},{"zip":"33323","city":"Fort Lauderdale","state":"FL","lat":26.152,"long":-80.3165},{"zip":"33324","city":"Fort Lauderdale","state":"FL","lat":26.1255,"long":-80.2644},{"zip":"33325","city":"Fort Lauderdale","state":"FL","lat":26.1097,"long":-80.3215},{"zip":"33326","city":"Fort Lauderdale","state":"FL","lat":26.1158,"long":-80.3681},{"zip":"33327","city":"Fort Lauderdale","state":"FL","lat":26.1168,"long":-80.4156},{"zip":"33328","city":"Fort Lauderdale","state":"FL","lat":26.0671,"long":-80.2723},{"zip":"33329","city":"Fort Lauderdale","state":"FL","lat":26.1223,"long":-80.1434},{"zip":"33330","city":"Fort Lauderdale","state":"FL","lat":26.0663,"long":-80.3339},{"zip":"33331","city":"Fort Lauderdale","state":"FL","lat":26.048,"long":-80.3749},{"zip":"33332","city":"Fort Lauderdale","state":"FL","lat":26.0596,"long":-80.4146},{"zip":"33334","city":"Fort Lauderdale","state":"FL","lat":26.1845,"long":-80.1344},{"zip":"33335","city":"Fort Lauderdale","state":"FL","lat":26.0892,"long":-80.336},{"zip":"33336","city":"Fort Lauderdale","state":"FL","lat":26.1219,"long":-80.1436},{"zip":"33337","city":"Fort Lauderdale","state":"FL","lat":26.129,"long":-80.2601},{"zip":"33338","city":"Fort Lauderdale","state":"FL","lat":26.1223,"long":-80.1434},{"zip":"33339","city":"Fort Lauderdale","state":"FL","lat":26.1223,"long":-80.1434},{"zip":"33340","city":"Fort Lauderdale","state":"FL","lat":26.1223,"long":-80.1434},{"zip":"33345","city":"Fort Lauderdale","state":"FL","lat":26.1654,"long":-80.2959},{"zip":"33346","city":"Fort Lauderdale","state":"FL","lat":26.1223,"long":-80.1434},{"zip":"33348","city":"Fort Lauderdale","state":"FL","lat":26.1223,"long":-80.1434},{"zip":"33349","city":"Fort Lauderdale","state":"FL","lat":26.1223,"long":-80.1434},{"zip":"33351","city":"Fort Lauderdale","state":"FL","lat":26.1793,"long":-80.2746},{"zip":"33355","city":"Fort Lauderdale","state":"FL","lat":26.1223,"long":-80.1434},{"zip":"33359","city":"Fort Lauderdale","state":"FL","lat":26.1223,"long":-80.1434},{"zip":"33388","city":"Plantation","state":"FL","lat":26.1342,"long":-80.2318},{"zip":"33394","city":"Fort Lauderdale","state":"FL","lat":26.1221,"long":-80.139}]
