[{"zip":"33441","city":"Deerfield Beach","state":"FL","lat":26.3096,"long":-80.0992},{"zip":"33442","city":"Deerfield Beach","state":"FL","lat":26.3124,"long":-80.1412},{"zip":"33443","city":"Deerfield Beach","state":"FL","lat":26.3184,"long":-80.0998},{"zip":"33471","city":"Moore Haven","state":"FL","lat":26.8327,"long":-81.2188},{"zip":"33440","city":"Clewiston","state":"FL","lat":26.7172,"long":-80.9492},{"zip":"33455","city":"Hobe Sound","state":"FL","lat":27.0813,"long":-80.1509},{"zip":"33475","city":"Hobe Sound","state":"FL","lat":27.0595,"long":-80.1364},{"zip":"33401","city":"West Palm Beach","state":"FL","lat":26.7165,"long":-80.0679},{"zip":"33402","city":"West Palm Beach","state":"FL","lat":26.7153,"long":-80.0534},{"zip":"33403","city":"West Palm Beach","state":"FL","lat":26.8035,"long":-80.0756},{"zip":"33404","city":"West Palm Beach","state":"FL","lat":26.7832,"long":-80.0638},{"zip":"33405","city":"West Palm Beach","state":"FL","lat":26.67,"long":-80.0582},{"zip":"33406","city":"West Palm Beach","state":"FL","lat":26.6396,"long":-80.0827},{"zip":"33407","city":"West Palm Beach","state":"FL","lat":26.7492,"long":-80.0725},{"zip":"33408","city":"North Palm Beach","state":"FL","lat":26.8289,"long":-80.0603},{"zip":"33409","city":"West Palm Beach","state":"FL","lat":26.7162,"long":-80.0965},{"zip":"33410","city":"Palm Beach Gardens","state":"FL","lat":26.8234,"long":-80.1387},{"zip":"33411","city":"West Palm Beach","state":"FL","lat":26.6644,"long":-80.1741},{"zip":"33412","city":"West Palm Beach","state":"FL","lat":26.8055,"long":-80.2482},{"zip":"33413","city":"West Palm Beach","state":"FL","lat":26.6555,"long":-80.1596},{"zip":"33414","city":"Wellington","state":"FL","lat":26.6587,"long":-80.2414},{"zip":"33415","city":"West Palm Beach","state":"FL","lat":26.656,"long":-80.126},{"zip":"33416","city":"West Palm Beach","state":"FL","lat":26.6654,"long":-80.0929},{"zip":"33417","city":"West Palm Beach","state":"FL","lat":26.7197,"long":-80.1248},{"zip":"33418","city":"Palm Beach Gardens","state":"FL","lat":26.8234,"long":-80.1387},{"zip":"33419","city":"West Palm Beach","state":"FL","lat":26.7153,"long":-80.0534},{"zip":"33420","city":"West Palm Beach","state":"FL","lat":26.7153,"long":-80.0534},{"zip":"33421","city":"Royal Palm Beach","state":"FL","lat":26.7084,"long":-80.2306},{"zip":"33422","city":"West Palm Beach","state":"FL","lat":26.7153,"long":-80.0534},{"zip":"33424","city":"Boynton Beach","state":"FL","lat":26.5253,"long":-80.0664},{"zip":"33425","city":"Boynton Beach","state":"FL","lat":26.5253,"long":-80.0664},{"zip":"33426","city":"Boynton Beach","state":"FL","lat":26.5175,"long":-80.0834},{"zip":"33427","city":"Boca Raton","state":"FL","lat":26.376,"long":-80.1072},{"zip":"33428","city":"Boca Raton","state":"FL","lat":26.3446,"long":-80.2109},{"zip":"33429","city":"Boca Raton","state":"FL","lat":26.3587,"long":-80.0831},{"zip":"33430","city":"Belle Glade","state":"FL","lat":26.6843,"long":-80.6724},{"zip":"33431","city":"Boca Raton","state":"FL","lat":26.3799,"long":-80.0975},{"zip":"33432","city":"Boca Raton","state":"FL","lat":26.3462,"long":-80.0844},{"zip":"33433","city":"Boca Raton","state":"FL","lat":26.3464,"long":-80.1564},{"zip":"33434","city":"Boca Raton","state":"FL","lat":26.3839,"long":-80.1749},{"zip":"33435","city":"Boynton Beach","state":"FL","lat":26.5254,"long":-80.061},{"zip":"33436","city":"Boynton Beach","state":"FL","lat":26.5354,"long":-80.1124},{"zip":"33437","city":"Boynton Beach","state":"FL","lat":26.5312,"long":-80.1418},{"zip":"33438","city":"Canal Point","state":"FL","lat":26.8592,"long":-80.6337},{"zip":"33444","city":"Delray Beach","state":"FL","lat":26.4564,"long":-80.0793},{"zip":"33445","city":"Delray Beach","state":"FL","lat":26.4564,"long":-80.1054},{"zip":"33446","city":"Delray Beach","state":"FL","lat":26.4517,"long":-80.158},{"zip":"33448","city":"Delray Beach","state":"FL","lat":26.4615,"long":-80.0728},{"zip":"33449","city":"Lake Worth","state":"FL","lat":26.6048,"long":-80.2149},{"zip":"33454","city":"Greenacres","state":"FL","lat":26.6237,"long":-80.1253},{"zip":"33458","city":"Jupiter","state":"FL","lat":26.9339,"long":-80.1201},{"zip":"33459","city":"Lake Harbor","state":"FL","lat":26.6931,"long":-80.8145},{"zip":"33460","city":"Lake Worth","state":"FL","lat":26.6182,"long":-80.056},{"zip":"33461","city":"Lake Worth","state":"FL","lat":26.6232,"long":-80.0946},{"zip":"33462","city":"Lake Worth","state":"FL","lat":26.5747,"long":-80.0794},{"zip":"33463","city":"Lake Worth","state":"FL","lat":26.5955,"long":-80.1291},{"zip":"33464","city":"Boca Raton","state":"FL","lat":26.3587,"long":-80.0831},{"zip":"33465","city":"Lake Worth","state":"FL","lat":26.6283,"long":-80.1326},{"zip":"33466","city":"Lake Worth","state":"FL","lat":26.6171,"long":-80.0723},{"zip":"33467","city":"Lake Worth","state":"FL","lat":26.6104,"long":-80.1683},{"zip":"33468","city":"Jupiter","state":"FL","lat":26.9342,"long":-80.0942},{"zip":"33469","city":"Jupiter","state":"FL","lat":26.9831,"long":-80.108},{"zip":"33470","city":"Loxahatchee","state":"FL","lat":26.7383,"long":-80.276},{"zip":"33472","city":"Boynton Beach","state":"FL","lat":26.5384,"long":-80.1856},{"zip":"33473","city":"Boynton Beach","state":"FL","lat":26.5088,"long":-80.1896},{"zip":"33474","city":"Boynton Beach","state":"FL","lat":26.5253,"long":-80.0664},{"zip":"33476","city":"Pahokee","state":"FL","lat":26.8142,"long":-80.6629},{"zip":"33477","city":"Jupiter","state":"FL","lat":26.9217,"long":-80.077},{"zip":"33478","city":"Jupiter","state":"FL","lat":26.9212,"long":-80.2144},{"zip":"33480","city":"Palm Beach","state":"FL","lat":26.7206,"long":-80.0388},{"zip":"33481","city":"Boca Raton","state":"FL","lat":26.3587,"long":-80.0831},{"zip":"33482","city":"Delray Beach","state":"FL","lat":26.4615,"long":-80.0728},{"zip":"33483","city":"Delray Beach","state":"FL","lat":26.4546,"long":-80.0656},{"zip":"33484","city":"Delray Beach","state":"FL","lat":26.4543,"long":-80.1346},{"zip":"33486","city":"Boca Raton","state":"FL","lat":26.3481,"long":-80.1104},{"zip":"33487","city":"Boca Raton","state":"FL","lat":26.4116,"long":-80.0928},{"zip":"33488","city":"Boca Raton","state":"FL","lat":26.3587,"long":-80.0831},{"zip":"33493","city":"South Bay","state":"FL","lat":26.6701,"long":-80.7312},{"zip":"33496","city":"Boca Raton","state":"FL","lat":26.403,"long":-80.1813},{"zip":"33497","city":"Boca Raton","state":"FL","lat":26.3587,"long":-80.0831},{"zip":"33498","city":"Boca Raton","state":"FL","lat":26.3907,"long":-80.2161},{"zip":"33499","city":"Boca Raton","state":"FL","lat":26.3587,"long":-80.0831}]
