[{"zip":"33503","city":"Balm","state":"FL","lat":27.7648,"long":-82.2734},{"zip":"33508","city":"Brandon","state":"FL","lat":27.9318,"long":-82.295},{"zip":"33509","city":"Brandon","state":"FL","lat":27.9378,"long":-82.2859},{"zip":"33510","city":"Brandon","state":"FL","lat":27.9551,"long":-82.2966},{"zip":"33511","city":"Brandon","state":"FL","lat":27.9056,"long":-82.2881},{"zip":"33527","city":"Dover","state":"FL","lat":27.992,"long":-82.2138},{"zip":"33530","city":"Durant","state":"FL","lat":27.9068,"long":-82.1767},{"zip":"33534","city":"Gibsonton","state":"FL","lat":27.8411,"long":-82.3698},{"zip":"33547","city":"Lithia","state":"FL","lat":27.8293,"long":-82.1357},{"zip":"33548","city":"Lutz","state":"FL","lat":28.1385,"long":-82.4821},{"zip":"33549","city":"Lutz","state":"FL","lat":28.1367,"long":-82.461},{"zip":"33550","city":"Mango","state":"FL","lat":27.9797,"long":-82.3065},{"zip":"33556","city":"Odessa","state":"FL","lat":28.1421,"long":-82.5905},{"zip":"33558","city":"Lutz","state":"FL","lat":28.1474,"long":-82.5152},{"zip":"33563","city":"Plant City","state":"FL","lat":28.013,"long":-82.1339},{"zip":"33564","city":"Plant City","state":"FL","lat":28.0296,"long":-82.1347},{"zip":"33565","city":"Plant City","state":"FL","lat":28.0699,"long":-82.1576},{"zip":"33566","city":"Plant City","state":"FL","lat":28.0094,"long":-82.1138},{"zip":"33567","city":"Plant City","state":"FL","lat":27.922,"long":-82.1216},{"zip":"33568","city":"Riverview","state":"FL","lat":27.872,"long":-82.4388},{"zip":"33569","city":"Riverview","state":"FL","lat":27.845,"long":-82.3125},{"zip":"33570","city":"Ruskin","state":"FL","lat":27.7015,"long":-82.4355},{"zip":"33571","city":"Sun City Center","state":"FL","lat":27.7201,"long":-82.453},{"zip":"33572","city":"Apollo Beach","state":"FL","lat":27.7716,"long":-82.4102},{"zip":"33573","city":"Sun City Center","state":"FL","lat":27.7147,"long":-82.3538},{"zip":"33575","city":"Ruskin","state":"FL","lat":27.7144,"long":-82.4291},{"zip":"33579","city":"Riverview","state":"FL","lat":27.8024,"long":-82.2755},{"zip":"33583","city":"Seffner","state":"FL","lat":27.872,"long":-82.4388},{"zip":"33584","city":"Seffner","state":"FL","lat":27.9922,"long":-82.2863},{"zip":"33586","city":"Sun City","state":"FL","lat":27.6784,"long":-82.4787},{"zip":"33587","city":"Sydney","state":"FL","lat":27.9634,"long":-82.2073},{"zip":"33592","city":"Thonotosassa","state":"FL","lat":28.0617,"long":-82.3082},{"zip":"33594","city":"Valrico","state":"FL","lat":27.9408,"long":-82.242},{"zip":"33595","city":"Valrico","state":"FL","lat":27.9379,"long":-82.2364},{"zip":"33596","city":"Valrico","state":"FL","lat":27.8925,"long":-82.243},{"zip":"33598","city":"Wimauma","state":"FL","lat":27.7015,"long":-82.3151},{"zip":"33523","city":"Dade City","state":"FL","lat":28.4247,"long":-82.2185},{"zip":"33524","city":"Crystal Springs","state":"FL","lat":28.1822,"long":-82.1523},{"zip":"33525","city":"Dade City","state":"FL","lat":28.3318,"long":-82.2446},{"zip":"33526","city":"Dade City","state":"FL","lat":28.3101,"long":-82.2478},{"zip":"33537","city":"Lacoochee","state":"FL","lat":28.4658,"long":-82.172},{"zip":"33539","city":"Zephyrhills","state":"FL","lat":28.213,"long":-82.1657},{"zip":"33540","city":"Zephyrhills","state":"FL","lat":28.2151,"long":-82.1506},{"zip":"33541","city":"Zephyrhills","state":"FL","lat":28.2311,"long":-82.2057},{"zip":"33542","city":"Zephyrhills","state":"FL","lat":28.2303,"long":-82.1779},{"zip":"33543","city":"Wesley Chapel","state":"FL","lat":28.2397,"long":-82.3279},{"zip":"33544","city":"Wesley Chapel","state":"FL","lat":28.2397,"long":-82.3279},{"zip":"33545","city":"Wesley Chapel","state":"FL","lat":28.2697,"long":-82.2903},{"zip":"33559","city":"Lutz","state":"FL","lat":28.1801,"long":-82.4169},{"zip":"33574","city":"Saint Leo","state":"FL","lat":28.3348,"long":-82.2693},{"zip":"33576","city":"San Antonio","state":"FL","lat":28.3371,"long":-82.2882},{"zip":"33578","city":"Riverview","state":"FL","lat":27.8633,"long":-82.3499},{"zip":"33593","city":"Trilby","state":"FL","lat":28.4625,"long":-82.1948},{"zip":"33513","city":"Bushnell","state":"FL","lat":28.6611,"long":-82.1553},{"zip":"33514","city":"Center Hill","state":"FL","lat":28.6635,"long":-81.9963},{"zip":"33521","city":"Coleman","state":"FL","lat":28.7997,"long":-82.0701},{"zip":"33538","city":"Lake Panasoffkee","state":"FL","lat":28.7953,"long":-82.1363},{"zip":"33585","city":"Sumterville","state":"FL","lat":28.7356,"long":-82.0616},{"zip":"33597","city":"Webster","state":"FL","lat":28.549,"long":-82.0805}]
