[{"zip":"33701","city":"Saint Petersburg","state":"FL","lat":27.7723,"long":-82.6386},{"zip":"33702","city":"Saint Petersburg","state":"FL","lat":27.8427,"long":-82.6448},{"zip":"33703","city":"Saint Petersburg","state":"FL","lat":27.817,"long":-82.6264},{"zip":"33704","city":"Saint Petersburg","state":"FL","lat":27.7954,"long":-82.6373},{"zip":"33705","city":"Saint Petersburg","state":"FL","lat":27.7391,"long":-82.6435},{"zip":"33706","city":"Saint Petersburg","state":"FL","lat":27.7456,"long":-82.7516},{"zip":"33707","city":"Saint Petersburg","state":"FL","lat":27.7549,"long":-82.7208},{"zip":"33708","city":"Saint Petersburg","state":"FL","lat":27.8116,"long":-82.8014},{"zip":"33709","city":"Saint Petersburg","state":"FL","lat":27.8201,"long":-82.7308},{"zip":"33710","city":"Saint Petersburg","state":"FL","lat":27.7898,"long":-82.7243},{"zip":"33711","city":"Saint Petersburg","state":"FL","lat":27.7465,"long":-82.6897},{"zip":"33712","city":"Saint Petersburg","state":"FL","lat":27.7353,"long":-82.6663},{"zip":"33713","city":"Saint Petersburg","state":"FL","lat":27.789,"long":-82.6779},{"zip":"33714","city":"Saint Petersburg","state":"FL","lat":27.8176,"long":-82.6776},{"zip":"33715","city":"Saint Petersburg","state":"FL","lat":27.6705,"long":-82.7119},{"zip":"33716","city":"Saint Petersburg","state":"FL","lat":27.8738,"long":-82.64},{"zip":"33729","city":"Saint Petersburg","state":"FL","lat":27.8819,"long":-82.6644},{"zip":"33730","city":"Saint Petersburg","state":"FL","lat":27.7709,"long":-82.6793},{"zip":"33731","city":"Saint Petersburg","state":"FL","lat":27.8918,"long":-82.7248},{"zip":"33732","city":"Saint Petersburg","state":"FL","lat":27.8918,"long":-82.7248},{"zip":"33733","city":"Saint Petersburg","state":"FL","lat":27.7709,"long":-82.6793},{"zip":"33734","city":"Saint Petersburg","state":"FL","lat":27.8918,"long":-82.7248},{"zip":"33736","city":"Saint Petersburg","state":"FL","lat":27.8918,"long":-82.7248},{"zip":"33737","city":"Saint Petersburg","state":"FL","lat":27.8918,"long":-82.7248},{"zip":"33738","city":"Saint Petersburg","state":"FL","lat":27.8918,"long":-82.7248},{"zip":"33740","city":"Saint Petersburg","state":"FL","lat":27.8918,"long":-82.7248},{"zip":"33741","city":"Saint Petersburg","state":"FL","lat":27.8918,"long":-82.7248},{"zip":"33742","city":"Saint Petersburg","state":"FL","lat":27.8918,"long":-82.7248},{"zip":"33743","city":"Saint Petersburg","state":"FL","lat":27.8918,"long":-82.7248},{"zip":"33744","city":"Bay Pines","state":"FL","lat":27.8918,"long":-82.7248},{"zip":"33747","city":"Saint Petersburg","state":"FL","lat":27.8918,"long":-82.7248},{"zip":"33755","city":"Clearwater","state":"FL","lat":27.9781,"long":-82.7815},{"zip":"33756","city":"Clearwater","state":"FL","lat":27.947,"long":-82.7943},{"zip":"33757","city":"Clearwater","state":"FL","lat":27.8918,"long":-82.7248},{"zip":"33758","city":"Clearwater","state":"FL","lat":27.8918,"long":-82.7248},{"zip":"33759","city":"Clearwater","state":"FL","lat":27.975,"long":-82.7019},{"zip":"33760","city":"Clearwater","state":"FL","lat":27.9004,"long":-82.7152},{"zip":"33761","city":"Clearwater","state":"FL","lat":28.031,"long":-82.7239},{"zip":"33762","city":"Clearwater","state":"FL","lat":27.8942,"long":-82.6746},{"zip":"33763","city":"Clearwater","state":"FL","lat":28.0173,"long":-82.7461},{"zip":"33764","city":"Clearwater","state":"FL","lat":27.916,"long":-82.7343},{"zip":"33765","city":"Clearwater","state":"FL","lat":27.9902,"long":-82.7433},{"zip":"33766","city":"Clearwater","state":"FL","lat":27.8918,"long":-82.7248},{"zip":"33767","city":"Clearwater Beach","state":"FL","lat":27.9598,"long":-82.8286},{"zip":"33769","city":"Clearwater","state":"FL","lat":27.8918,"long":-82.7248},{"zip":"33770","city":"Largo","state":"FL","lat":27.917,"long":-82.8027},{"zip":"33771","city":"Largo","state":"FL","lat":27.9085,"long":-82.7568},{"zip":"33772","city":"Seminole","state":"FL","lat":27.8466,"long":-82.7954},{"zip":"33773","city":"Largo","state":"FL","lat":27.8802,"long":-82.7534},{"zip":"33774","city":"Largo","state":"FL","lat":27.8839,"long":-82.8265},{"zip":"33775","city":"Seminole","state":"FL","lat":27.8397,"long":-82.7912},{"zip":"33776","city":"Seminole","state":"FL","lat":27.8505,"long":-82.8263},{"zip":"33777","city":"Seminole","state":"FL","lat":27.8688,"long":-82.7344},{"zip":"33778","city":"Largo","state":"FL","lat":27.884,"long":-82.8025},{"zip":"33779","city":"Largo","state":"FL","lat":27.8397,"long":-82.7725},{"zip":"33780","city":"Pinellas Park","state":"FL","lat":27.8918,"long":-82.7248},{"zip":"33781","city":"Pinellas Park","state":"FL","lat":27.8387,"long":-82.7151},{"zip":"33782","city":"Pinellas Park","state":"FL","lat":27.8681,"long":-82.7086},{"zip":"33784","city":"Saint Petersburg","state":"FL","lat":27.8918,"long":-82.7248},{"zip":"33785","city":"Indian Rocks Beach","state":"FL","lat":27.8868,"long":-82.8435},{"zip":"33786","city":"Belleair Beach","state":"FL","lat":27.9229,"long":-82.8393}]
