[{"zip":"33834","city":"Bowling Green","state":"FL","lat":27.6019,"long":-81.8507},{"zip":"33865","city":"Ona","state":"FL","lat":27.4127,"long":-81.928},{"zip":"33873","city":"Wauchula","state":"FL","lat":27.5517,"long":-81.8074},{"zip":"33890","city":"Zolfo Springs","state":"FL","lat":27.48,"long":-81.7423},{"zip":"33825","city":"Avon Park","state":"FL","lat":27.6001,"long":-81.5015},{"zip":"33826","city":"Avon Park","state":"FL","lat":27.5959,"long":-81.5062},{"zip":"33852","city":"Lake Placid","state":"FL","lat":27.2945,"long":-81.3649},{"zip":"33857","city":"Lorida","state":"FL","lat":27.415,"long":-81.1965},{"zip":"33862","city":"Lake Placid","state":"FL","lat":27.2931,"long":-81.3629},{"zip":"33870","city":"Sebring","state":"FL","lat":27.4924,"long":-81.4357},{"zip":"33871","city":"Sebring","state":"FL","lat":27.4858,"long":-81.4079},{"zip":"33872","city":"Sebring","state":"FL","lat":27.4703,"long":-81.4872},{"zip":"33875","city":"Sebring","state":"FL","lat":27.4676,"long":-81.4581},{"zip":"33876","city":"Sebring","state":"FL","lat":27.4287,"long":-81.3519},{"zip":"33848","city":"Intercession City","state":"FL","lat":28.2774,"long":-81.5069},{"zip":"33801","city":"Lakeland","state":"FL","lat":28.0381,"long":-81.9392},{"zip":"33802","city":"Lakeland","state":"FL","lat":28.021,"long":-81.9852},{"zip":"33803","city":"Lakeland","state":"FL","lat":28.014,"long":-81.9523},{"zip":"33804","city":"Lakeland","state":"FL","lat":28.0395,"long":-81.9498},{"zip":"33805","city":"Lakeland","state":"FL","lat":28.072,"long":-81.9609},{"zip":"33806","city":"Lakeland","state":"FL","lat":28.0395,"long":-81.9498},{"zip":"33807","city":"Lakeland","state":"FL","lat":28.0395,"long":-81.9498},{"zip":"33809","city":"Lakeland","state":"FL","lat":28.1762,"long":-81.9591},{"zip":"33810","city":"Lakeland","state":"FL","lat":28.1479,"long":-82.0372},{"zip":"33811","city":"Lakeland","state":"FL","lat":27.9865,"long":-82.0139},{"zip":"33812","city":"Lakeland","state":"FL","lat":27.9729,"long":-81.8931},{"zip":"33813","city":"Lakeland","state":"FL","lat":27.9611,"long":-81.9398},{"zip":"33815","city":"Lakeland","state":"FL","lat":28.0496,"long":-82.0069},{"zip":"33820","city":"Alturas","state":"FL","lat":28.0026,"long":-81.6186},{"zip":"33823","city":"Auburndale","state":"FL","lat":28.0724,"long":-81.8122},{"zip":"33827","city":"Babson Park","state":"FL","lat":27.8163,"long":-81.5139},{"zip":"33830","city":"Bartow","state":"FL","lat":27.8957,"long":-81.8127},{"zip":"33831","city":"Bartow","state":"FL","lat":27.8964,"long":-81.8431},{"zip":"33835","city":"Bradley","state":"FL","lat":27.6993,"long":-81.9494},{"zip":"33836","city":"Davenport","state":"FL","lat":28.1672,"long":-81.6316},{"zip":"33837","city":"Davenport","state":"FL","lat":28.1963,"long":-81.6079},{"zip":"33838","city":"Dundee","state":"FL","lat":28.0194,"long":-81.6212},{"zip":"33839","city":"Eagle Lake","state":"FL","lat":27.9787,"long":-81.7564},{"zip":"33840","city":"Eaton Park","state":"FL","lat":28.0086,"long":-81.9076},{"zip":"33841","city":"Fort Meade","state":"FL","lat":27.7464,"long":-81.7823},{"zip":"33843","city":"Frostproof","state":"FL","lat":27.7211,"long":-81.5148},{"zip":"33844","city":"Haines City","state":"FL","lat":28.1145,"long":-81.6201},{"zip":"33845","city":"Haines City","state":"FL","lat":28.0026,"long":-81.6186},{"zip":"33846","city":"Highland City","state":"FL","lat":27.9647,"long":-81.8672},{"zip":"33847","city":"Homeland","state":"FL","lat":27.8178,"long":-81.8245},{"zip":"33849","city":"Kathleen","state":"FL","lat":28.1975,"long":-82.0396},{"zip":"33850","city":"Lake Alfred","state":"FL","lat":28.0895,"long":-81.7271},{"zip":"33851","city":"Lake Hamilton","state":"FL","lat":28.0369,"long":-81.628},{"zip":"33853","city":"Lake Wales","state":"FL","lat":27.9002,"long":-81.5847},{"zip":"33854","city":"Lakeshore","state":"FL","lat":27.966,"long":-81.6965},{"zip":"33855","city":"Indian Lake Estates","state":"FL","lat":27.798,"long":-81.3572},{"zip":"33856","city":"Nalcrest","state":"FL","lat":27.8557,"long":-81.4309},{"zip":"33858","city":"Loughman","state":"FL","lat":28.242,"long":-81.5667},{"zip":"33859","city":"Lake Wales","state":"FL","lat":27.8774,"long":-81.6221},{"zip":"33860","city":"Mulberry","state":"FL","lat":27.902,"long":-82.0015},{"zip":"33863","city":"Nichols","state":"FL","lat":27.8903,"long":-82.0315},{"zip":"33867","city":"River Ranch","state":"FL","lat":27.7686,"long":-81.1966},{"zip":"33868","city":"Polk City","state":"FL","lat":28.1987,"long":-81.8083},{"zip":"33877","city":"Waverly","state":"FL","lat":27.9769,"long":-81.6144},{"zip":"33880","city":"Winter Haven","state":"FL","lat":27.9873,"long":-81.7625},{"zip":"33881","city":"Winter Haven","state":"FL","lat":28.0452,"long":-81.7325},{"zip":"33882","city":"Winter Haven","state":"FL","lat":28.0294,"long":-81.7321},{"zip":"33883","city":"Winter Haven","state":"FL","lat":28.0222,"long":-81.7329},{"zip":"33884","city":"Winter Haven","state":"FL","lat":27.981,"long":-81.6736},{"zip":"33885","city":"Winter Haven","state":"FL","lat":28.0026,"long":-81.6186},{"zip":"33888","city":"Winter Haven","state":"FL","lat":28.0231,"long":-81.7234},{"zip":"33896","city":"Davenport","state":"FL","lat":28.2531,"long":-81.6509},{"zip":"33897","city":"Davenport","state":"FL","lat":28.3112,"long":-81.6643},{"zip":"33898","city":"Lake Wales","state":"FL","lat":27.8643,"long":-81.5719}]
