[{"zip":"33973","city":"Lehigh Acres","state":"FL","lat":26.602,"long":-81.7311},{"zip":"33927","city":"El Jobean","state":"FL","lat":26.9324,"long":-82.2168},{"zip":"33938","city":"Murdock","state":"FL","lat":26.902,"long":-82},{"zip":"33946","city":"Placida","state":"FL","lat":26.8323,"long":-82.2648},{"zip":"33947","city":"Rotonda West","state":"FL","lat":26.8842,"long":-82.2691},{"zip":"33948","city":"Port Charlotte","state":"FL","lat":26.9827,"long":-82.1412},{"zip":"33949","city":"Port Charlotte","state":"FL","lat":26.9939,"long":-82.0984},{"zip":"33950","city":"Punta Gorda","state":"FL","lat":26.9152,"long":-82.0532},{"zip":"33951","city":"Punta Gorda","state":"FL","lat":26.9708,"long":-81.9845},{"zip":"33952","city":"Port Charlotte","state":"FL","lat":26.9905,"long":-82.0964},{"zip":"33953","city":"Port Charlotte","state":"FL","lat":27.004,"long":-82.2117},{"zip":"33954","city":"Port Charlotte","state":"FL","lat":27.0228,"long":-82.1108},{"zip":"33955","city":"Punta Gorda","state":"FL","lat":26.824,"long":-81.9547},{"zip":"33980","city":"Punta Gorda","state":"FL","lat":26.9298,"long":-82.0454},{"zip":"33981","city":"Port Charlotte","state":"FL","lat":26.9379,"long":-82.2388},{"zip":"33982","city":"Punta Gorda","state":"FL","lat":26.9668,"long":-81.9545},{"zip":"33983","city":"Punta Gorda","state":"FL","lat":27.0074,"long":-82.0163},{"zip":"33944","city":"Palmdale","state":"FL","lat":26.9464,"long":-81.3091},{"zip":"33930","city":"Felda","state":"FL","lat":26.5398,"long":-81.4356},{"zip":"33935","city":"Labelle","state":"FL","lat":26.7321,"long":-81.434},{"zip":"33975","city":"Labelle","state":"FL","lat":26.7633,"long":-81.4388},{"zip":"33960","city":"Venus","state":"FL","lat":27.1203,"long":-81.3909},{"zip":"33901","city":"Fort Myers","state":"FL","lat":26.6204,"long":-81.8725},{"zip":"33902","city":"Fort Myers","state":"FL","lat":26.6239,"long":-81.8836},{"zip":"33903","city":"North Fort Myers","state":"FL","lat":26.693,"long":-81.9125},{"zip":"33904","city":"Cape Coral","state":"FL","lat":26.6065,"long":-81.9502},{"zip":"33905","city":"Fort Myers","state":"FL","lat":26.6693,"long":-81.7605},{"zip":"33906","city":"Fort Myers","state":"FL","lat":26.5529,"long":-81.9486},{"zip":"33907","city":"Fort Myers","state":"FL","lat":26.5681,"long":-81.8736},{"zip":"33908","city":"Fort Myers","state":"FL","lat":26.5025,"long":-81.9276},{"zip":"33909","city":"Cape Coral","state":"FL","lat":26.6939,"long":-81.9452},{"zip":"33910","city":"Cape Coral","state":"FL","lat":26.5529,"long":-81.9486},{"zip":"33911","city":"Fort Myers","state":"FL","lat":26.5963,"long":-81.8824},{"zip":"33912","city":"Fort Myers","state":"FL","lat":26.4972,"long":-81.8246},{"zip":"33913","city":"Fort Myers","state":"FL","lat":26.5228,"long":-81.7065},{"zip":"33914","city":"Cape Coral","state":"FL","lat":26.5557,"long":-82.0206},{"zip":"33915","city":"Cape Coral","state":"FL","lat":26.6599,"long":-81.8934},{"zip":"33916","city":"Fort Myers","state":"FL","lat":26.6466,"long":-81.8429},{"zip":"33917","city":"North Fort Myers","state":"FL","lat":26.7357,"long":-81.8435},{"zip":"33918","city":"North Fort Myers","state":"FL","lat":26.6673,"long":-81.8801},{"zip":"33919","city":"Fort Myers","state":"FL","lat":26.5567,"long":-81.9034},{"zip":"33920","city":"Alva","state":"FL","lat":26.7147,"long":-81.6351},{"zip":"33921","city":"Boca Grande","state":"FL","lat":26.7545,"long":-82.2611},{"zip":"33922","city":"Bokeelia","state":"FL","lat":26.6627,"long":-82.1401},{"zip":"33924","city":"Captiva","state":"FL","lat":26.5215,"long":-82.1802},{"zip":"33928","city":"Estero","state":"FL","lat":26.4351,"long":-81.8102},{"zip":"33929","city":"Estero","state":"FL","lat":26.4381,"long":-81.8068},{"zip":"33931","city":"Fort Myers Beach","state":"FL","lat":26.4527,"long":-81.9501},{"zip":"33932","city":"Fort Myers Beach","state":"FL","lat":26.5529,"long":-81.9486},{"zip":"33936","city":"Lehigh Acres","state":"FL","lat":26.5936,"long":-81.6619},{"zip":"33945","city":"Pineland","state":"FL","lat":26.6583,"long":-82.1434},{"zip":"33956","city":"Saint James City","state":"FL","lat":26.529,"long":-82.0916},{"zip":"33957","city":"Sanibel","state":"FL","lat":26.4514,"long":-82.0868},{"zip":"33965","city":"Fort Myers","state":"FL","lat":26.4637,"long":-81.7722},{"zip":"33966","city":"Fort Myers","state":"FL","lat":26.5824,"long":-81.832},{"zip":"33970","city":"Lehigh Acres","state":"FL","lat":26.5647,"long":-81.6208},{"zip":"33971","city":"Lehigh Acres","state":"FL","lat":26.6388,"long":-81.6992},{"zip":"33972","city":"Lehigh Acres","state":"FL","lat":26.6492,"long":-81.6167},{"zip":"33974","city":"Lehigh Acres","state":"FL","lat":26.5677,"long":-81.5954},{"zip":"33976","city":"Lehigh Acres","state":"FL","lat":26.5952,"long":-81.6849},{"zip":"33990","city":"Cape Coral","state":"FL","lat":26.6265,"long":-81.9677},{"zip":"33991","city":"Cape Coral","state":"FL","lat":26.6281,"long":-82.0182},{"zip":"33993","city":"Cape Coral","state":"FL","lat":26.6786,"long":-82.0254},{"zip":"33994","city":"Fort Myers","state":"FL","lat":26.5529,"long":-81.9486},{"zip":"33967","city":"Fort Myers","state":"FL","lat":26.4722,"long":-81.8122}]
