[{"zip":"34034","city":"APO","state":"AA","lat":33.0364,"long":-82.2493},{"zip":"34423","city":"Crystal River","state":"FL","lat":28.867,"long":-82.5727},{"zip":"34428","city":"Crystal River","state":"FL","lat":28.9584,"long":-82.5993},{"zip":"34429","city":"Crystal River","state":"FL","lat":28.8547,"long":-82.6669},{"zip":"34433","city":"Dunnellon","state":"FL","lat":28.9949,"long":-82.5196},{"zip":"34434","city":"Dunnellon","state":"FL","lat":28.9938,"long":-82.4241},{"zip":"34436","city":"Floral City","state":"FL","lat":28.7304,"long":-82.3077},{"zip":"34442","city":"Hernando","state":"FL","lat":28.9223,"long":-82.39},{"zip":"34445","city":"Holder","state":"FL","lat":28.9669,"long":-82.4207},{"zip":"34446","city":"Homosassa","state":"FL","lat":28.7508,"long":-82.5139},{"zip":"34447","city":"Homosassa Springs","state":"FL","lat":28.8049,"long":-82.5743},{"zip":"34448","city":"Homosassa","state":"FL","lat":28.788,"long":-82.568},{"zip":"34450","city":"Inverness","state":"FL","lat":28.834,"long":-82.2822},{"zip":"34451","city":"Inverness","state":"FL","lat":28.8358,"long":-82.3304},{"zip":"34452","city":"Inverness","state":"FL","lat":28.7778,"long":-82.3603},{"zip":"34453","city":"Inverness","state":"FL","lat":28.8723,"long":-82.3454},{"zip":"34460","city":"Lecanto","state":"FL","lat":28.8593,"long":-82.5087},{"zip":"34461","city":"Lecanto","state":"FL","lat":28.8516,"long":-82.4876},{"zip":"34464","city":"Beverly Hills","state":"FL","lat":28.9169,"long":-82.4582},{"zip":"34465","city":"Beverly Hills","state":"FL","lat":28.9295,"long":-82.4892},{"zip":"34487","city":"Homosassa","state":"FL","lat":28.7814,"long":-82.6151},{"zip":"34101","city":"Naples","state":"FL","lat":26.1423,"long":-81.796},{"zip":"34102","city":"Naples","state":"FL","lat":26.134,"long":-81.7953},{"zip":"34103","city":"Naples","state":"FL","lat":26.1917,"long":-81.8039},{"zip":"34104","city":"Naples","state":"FL","lat":26.1529,"long":-81.7417},{"zip":"34105","city":"Naples","state":"FL","lat":26.1938,"long":-81.7636},{"zip":"34106","city":"Naples","state":"FL","lat":26.1423,"long":-81.796},{"zip":"34107","city":"Naples","state":"FL","lat":26.1423,"long":-81.796},{"zip":"34108","city":"Naples","state":"FL","lat":26.2416,"long":-81.8071},{"zip":"34109","city":"Naples","state":"FL","lat":26.2534,"long":-81.7644},{"zip":"34110","city":"Naples","state":"FL","lat":26.2823,"long":-81.7573},{"zip":"34112","city":"Naples","state":"FL","lat":26.1184,"long":-81.7361},{"zip":"34113","city":"Naples","state":"FL","lat":26.0426,"long":-81.7182},{"zip":"34114","city":"Naples","state":"FL","lat":26.0143,"long":-81.5856},{"zip":"34116","city":"Naples","state":"FL","lat":26.1873,"long":-81.711},{"zip":"34117","city":"Naples","state":"FL","lat":26.1156,"long":-81.5239},{"zip":"34119","city":"Naples","state":"FL","lat":26.2665,"long":-81.7146},{"zip":"34120","city":"Naples","state":"FL","lat":26.3304,"long":-81.5871},{"zip":"34137","city":"Copeland","state":"FL","lat":26.1433,"long":-81.3891},{"zip":"34138","city":"Chokoloskee","state":"FL","lat":25.8129,"long":-81.362},{"zip":"34139","city":"Everglades City","state":"FL","lat":25.857,"long":-81.3778},{"zip":"34140","city":"Goodland","state":"FL","lat":25.9248,"long":-81.6456},{"zip":"34141","city":"Ochopee","state":"FL","lat":25.8734,"long":-81.1599},{"zip":"34142","city":"Immokalee","state":"FL","lat":26.1844,"long":-81.4152},{"zip":"34143","city":"Immokalee","state":"FL","lat":26.4642,"long":-81.5047},{"zip":"34145","city":"Marco Island","state":"FL","lat":25.9388,"long":-81.6968},{"zip":"34146","city":"Marco Island","state":"FL","lat":25.9412,"long":-81.7184},{"zip":"34265","city":"Arcadia","state":"FL","lat":27.1861,"long":-81.8099},{"zip":"34266","city":"Arcadia","state":"FL","lat":27.1861,"long":-81.8667},{"zip":"34267","city":"Fort Ogden","state":"FL","lat":27.1861,"long":-81.8099},{"zip":"34268","city":"Nocatee","state":"FL","lat":27.2038,"long":-81.8644},{"zip":"34269","city":"Arcadia","state":"FL","lat":27.0675,"long":-81.9855},{"zip":"34601","city":"Brooksville","state":"FL","lat":28.5658,"long":-82.3737},{"zip":"34602","city":"Brooksville","state":"FL","lat":28.5093,"long":-82.2957},{"zip":"34603","city":"Brooksville","state":"FL","lat":28.5642,"long":-82.4165},{"zip":"34604","city":"Brooksville","state":"FL","lat":28.4409,"long":-82.4612},{"zip":"34605","city":"Brooksville","state":"FL","lat":28.5059,"long":-82.4226},{"zip":"34606","city":"Spring Hill","state":"FL","lat":28.4655,"long":-82.5981},{"zip":"34607","city":"Spring Hill","state":"FL","lat":28.5065,"long":-82.6267},{"zip":"34608","city":"Spring Hill","state":"FL","lat":28.4797,"long":-82.5562},{"zip":"34609","city":"Spring Hill","state":"FL","lat":28.4794,"long":-82.5083},{"zip":"34611","city":"Spring Hill","state":"FL","lat":28.5642,"long":-82.4165},{"zip":"34613","city":"Brooksville","state":"FL","lat":28.5466,"long":-82.5213},{"zip":"34614","city":"Brooksville","state":"FL","lat":28.6622,"long":-82.5236},{"zip":"34636","city":"Istachatta","state":"FL","lat":28.655,"long":-82.2677},{"zip":"34661","city":"Nobleton","state":"FL","lat":28.6436,"long":-82.2638},{"zip":"34705","city":"Astatula","state":"FL","lat":28.7088,"long":-81.7195},{"zip":"34711","city":"Clermont","state":"FL","lat":28.5525,"long":-81.7574},{"zip":"34712","city":"Clermont","state":"FL","lat":28.5494,"long":-81.7729},{"zip":"34713","city":"Clermont","state":"FL","lat":28.5494,"long":-81.7729},{"zip":"34715","city":"Clermont","state":"FL","lat":28.6259,"long":-81.7306},{"zip":"34729","city":"Ferndale","state":"FL","lat":28.6219,"long":-81.7034},{"zip":"34731","city":"Fruitland Park","state":"FL","lat":28.8639,"long":-81.8998},{"zip":"34736","city":"Groveland","state":"FL","lat":28.5644,"long":-81.8745},{"zip":"34737","city":"Howey In The Hills","state":"FL","lat":28.6971,"long":-81.7976},{"zip":"34748","city":"Leesburg","state":"FL","lat":28.808,"long":-81.8858},{"zip":"34749","city":"Leesburg","state":"FL","lat":28.8108,"long":-81.8779},{"zip":"34753","city":"Mascotte","state":"FL","lat":28.583,"long":-81.8941},{"zip":"34755","city":"Minneola","state":"FL","lat":28.5744,"long":-81.7462},{"zip":"34756","city":"Montverde","state":"FL","lat":28.5972,"long":-81.6794},{"zip":"34762","city":"Okahumpka","state":"FL","lat":28.7545,"long":-81.9151},{"zip":"34788","city":"Leesburg","state":"FL","lat":28.8887,"long":-81.7827},{"zip":"34789","city":"Leesburg","state":"FL","lat":28.8108,"long":-81.8779},{"zip":"34797","city":"Yalaha","state":"FL","lat":28.7444,"long":-81.8263},{"zip":"34133","city":"Bonita Springs","state":"FL","lat":26.3398,"long":-81.7787},{"zip":"34134","city":"Bonita Springs","state":"FL","lat":26.3626,"long":-81.8183},{"zip":"34135","city":"Bonita Springs","state":"FL","lat":26.3771,"long":-81.7334},{"zip":"34136","city":"Bonita Springs","state":"FL","lat":26.3398,"long":-81.7787},{"zip":"34449","city":"Inglis","state":"FL","lat":29.0955,"long":-82.6561},{"zip":"34498","city":"Yankeetown","state":"FL","lat":29.0305,"long":-82.719},{"zip":"34201","city":"Bradenton","state":"FL","lat":27.4047,"long":-82.4705},{"zip":"34202","city":"Bradenton","state":"FL","lat":27.4067,"long":-82.39},{"zip":"34203","city":"Bradenton","state":"FL","lat":27.4547,"long":-82.5359},{"zip":"34204","city":"Bradenton","state":"FL","lat":27.4272,"long":-82.4387},{"zip":"34205","city":"Bradenton","state":"FL","lat":27.4841,"long":-82.5834},{"zip":"34206","city":"Bradenton","state":"FL","lat":27.4989,"long":-82.5748},{"zip":"34207","city":"Bradenton","state":"FL","lat":27.4394,"long":-82.5778},{"zip":"34208","city":"Bradenton","state":"FL","lat":27.4678,"long":-82.512},{"zip":"34209","city":"Bradenton","state":"FL","lat":27.4759,"long":-82.6167},{"zip":"34210","city":"Bradenton","state":"FL","lat":27.4544,"long":-82.6358},{"zip":"34211","city":"Bradenton","state":"FL","lat":27.45,"long":-82.3773},{"zip":"34212","city":"Bradenton","state":"FL","lat":27.4978,"long":-82.4101},{"zip":"34215","city":"Cortez","state":"FL","lat":27.4713,"long":-82.6823},{"zip":"34216","city":"Anna Maria","state":"FL","lat":27.5291,"long":-82.7317},{"zip":"34217","city":"Bradenton Beach","state":"FL","lat":27.4859,"long":-82.7102},{"zip":"34218","city":"Holmes Beach","state":"FL","lat":27.4995,"long":-82.7099},{"zip":"34219","city":"Parrish","state":"FL","lat":27.5572,"long":-82.396},{"zip":"34220","city":"Palmetto","state":"FL","lat":27.5214,"long":-82.5723},{"zip":"34221","city":"Palmetto","state":"FL","lat":27.5429,"long":-82.563},{"zip":"34222","city":"Ellenton","state":"FL","lat":27.5382,"long":-82.5006},{"zip":"34228","city":"Longboat Key","state":"FL","lat":27.4125,"long":-82.659},{"zip":"34243","city":"Sarasota","state":"FL","lat":27.4072,"long":-82.5303},{"zip":"34250","city":"Terra Ceia","state":"FL","lat":27.5722,"long":-82.5832},{"zip":"34251","city":"Myakka City","state":"FL","lat":27.3648,"long":-82.1849},{"zip":"34260","city":"Manasota","state":"FL","lat":27.4272,"long":-82.4387},{"zip":"34264","city":"Oneco","state":"FL","lat":27.4475,"long":-82.5462},{"zip":"34270","city":"Tallevast","state":"FL","lat":27.4054,"long":-82.5435},{"zip":"34280","city":"Bradenton","state":"FL","lat":27.4272,"long":-82.4387},{"zip":"34281","city":"Bradenton","state":"FL","lat":27.4272,"long":-82.4387},{"zip":"34282","city":"Bradenton","state":"FL","lat":27.4272,"long":-82.4387},{"zip":"34420","city":"Belleview","state":"FL","lat":29.0531,"long":-82.0375},{"zip":"34421","city":"Belleview","state":"FL","lat":29.2407,"long":-82.0875},{"zip":"34430","city":"Dunnellon","state":"FL","lat":29.0491,"long":-82.4609},{"zip":"34431","city":"Dunnellon","state":"FL","lat":29.1392,"long":-82.5328},{"zip":"34432","city":"Dunnellon","state":"FL","lat":29.1015,"long":-82.3413},{"zip":"34470","city":"Ocala","state":"FL","lat":29.1989,"long":-82.0874},{"zip":"34471","city":"Ocala","state":"FL","lat":29.1605,"long":-82.1288},{"zip":"34472","city":"Ocala","state":"FL","lat":29.1253,"long":-82.0086},{"zip":"34473","city":"Ocala","state":"FL","lat":29.0058,"long":-82.1828},{"zip":"34474","city":"Ocala","state":"FL","lat":29.1565,"long":-82.2095},{"zip":"34475","city":"Ocala","state":"FL","lat":29.2573,"long":-82.161},{"zip":"34476","city":"Ocala","state":"FL","lat":29.1159,"long":-82.2422},{"zip":"34477","city":"Ocala","state":"FL","lat":29.1872,"long":-82.1401},{"zip":"34478","city":"Ocala","state":"FL","lat":29.1872,"long":-82.1123},{"zip":"34479","city":"Ocala","state":"FL","lat":29.2541,"long":-82.1095},{"zip":"34480","city":"Ocala","state":"FL","lat":29.1056,"long":-82.098},{"zip":"34481","city":"Ocala","state":"FL","lat":29.1281,"long":-82.2975},{"zip":"34482","city":"Ocala","state":"FL","lat":29.2611,"long":-82.2195},{"zip":"34483","city":"Ocala","state":"FL","lat":29.2407,"long":-82.0875},{"zip":"34488","city":"Silver Springs","state":"FL","lat":29.2635,"long":-81.9532},{"zip":"34489","city":"Silver Springs","state":"FL","lat":29.2152,"long":-82.0972},{"zip":"34491","city":"Summerfield","state":"FL","lat":29.0112,"long":-82.0325},{"zip":"34492","city":"Summerfield","state":"FL","lat":28.998,"long":-82.0161},{"zip":"34956","city":"Indiantown","state":"FL","lat":27.0615,"long":-80.4803},{"zip":"34957","city":"Jensen Beach","state":"FL","lat":27.2356,"long":-80.2277},{"zip":"34958","city":"Jensen Beach","state":"FL","lat":27.2424,"long":-80.2246},{"zip":"34990","city":"Palm City","state":"FL","lat":27.1656,"long":-80.2916},{"zip":"34991","city":"Palm City","state":"FL","lat":27.1678,"long":-80.2662},{"zip":"34992","city":"Port Salerno","state":"FL","lat":27.1442,"long":-80.2006},{"zip":"34994","city":"Stuart","state":"FL","lat":27.1968,"long":-80.2538},{"zip":"34995","city":"Stuart","state":"FL","lat":27.1754,"long":-80.2415},{"zip":"34996","city":"Stuart","state":"FL","lat":27.1929,"long":-80.2164},{"zip":"34997","city":"Stuart","state":"FL","lat":27.1398,"long":-80.2129},{"zip":"34972","city":"Okeechobee","state":"FL","lat":27.4203,"long":-80.9454},{"zip":"34973","city":"Okeechobee","state":"FL","lat":27.2439,"long":-80.8298},{"zip":"34974","city":"Okeechobee","state":"FL","lat":27.2002,"long":-80.841},{"zip":"34734","city":"Gotha","state":"FL","lat":28.5384,"long":-81.5208},{"zip":"34740","city":"Killarney","state":"FL","lat":28.5454,"long":-81.6507},{"zip":"34760","city":"Oakland","state":"FL","lat":28.5547,"long":-81.6322},{"zip":"34761","city":"Ocoee","state":"FL","lat":28.5837,"long":-81.5326},{"zip":"34777","city":"Winter Garden","state":"FL","lat":28.5416,"long":-81.6058},{"zip":"34778","city":"Winter Garden","state":"FL","lat":28.5653,"long":-81.5862},{"zip":"34786","city":"Windermere","state":"FL","lat":28.5006,"long":-81.5354},{"zip":"34787","city":"Winter Garden","state":"FL","lat":28.5423,"long":-81.5911},{"zip":"34739","city":"Kenansville","state":"FL","lat":27.8767,"long":-81.05},{"zip":"34741","city":"Kissimmee","state":"FL","lat":28.3051,"long":-81.4242},{"zip":"34742","city":"Kissimmee","state":"FL","lat":28.3047,"long":-81.4167},{"zip":"34743","city":"Kissimmee","state":"FL","lat":28.3306,"long":-81.3544},{"zip":"34744","city":"Kissimmee","state":"FL","lat":28.3078,"long":-81.3681},{"zip":"34745","city":"Kissimmee","state":"FL","lat":28.3047,"long":-81.4167},{"zip":"34746","city":"Kissimmee","state":"FL","lat":28.268,"long":-81.4675},{"zip":"34747","city":"Kissimmee","state":"FL","lat":28.3037,"long":-81.5898},{"zip":"34758","city":"Kissimmee","state":"FL","lat":28.1984,"long":-81.487},{"zip":"34769","city":"Saint Cloud","state":"FL","lat":28.248,"long":-81.2876},{"zip":"34770","city":"Saint Cloud","state":"FL","lat":28.2489,"long":-81.2812},{"zip":"34771","city":"Saint Cloud","state":"FL","lat":28.273,"long":-81.2003},{"zip":"34772","city":"Saint Cloud","state":"FL","lat":28.1905,"long":-81.2645},{"zip":"34773","city":"Saint Cloud","state":"FL","lat":28.1293,"long":-81.0176},{"zip":"34610","city":"Spring Hill","state":"FL","lat":28.4079,"long":-82.5398},{"zip":"34637","city":"Land O Lakes","state":"FL","lat":28.2782,"long":-82.4625},{"zip":"34638","city":"Land O Lakes","state":"FL","lat":28.2478,"long":-82.4962},{"zip":"34639","city":"Land O Lakes","state":"FL","lat":28.2258,"long":-82.4547},{"zip":"34652","city":"New Port Richey","state":"FL","lat":28.2326,"long":-82.7327},{"zip":"34653","city":"New Port Richey","state":"FL","lat":28.2444,"long":-82.6986},{"zip":"34654","city":"New Port Richey","state":"FL","lat":28.3022,"long":-82.6264},{"zip":"34655","city":"New Port Richey","state":"FL","lat":28.2129,"long":-82.6807},{"zip":"34656","city":"New Port Richey","state":"FL","lat":28.2442,"long":-82.7193},{"zip":"34667","city":"Hudson","state":"FL","lat":28.3648,"long":-82.6757},{"zip":"34668","city":"Port Richey","state":"FL","lat":28.3011,"long":-82.6927},{"zip":"34669","city":"Hudson","state":"FL","lat":28.3506,"long":-82.6288},{"zip":"34673","city":"Port Richey","state":"FL","lat":28.2717,"long":-82.7195},{"zip":"34674","city":"Hudson","state":"FL","lat":28.3644,"long":-82.6934},{"zip":"34679","city":"Aripeka","state":"FL","lat":28.4302,"long":-82.6616},{"zip":"34680","city":"Elfers","state":"FL","lat":28.2167,"long":-82.7223},{"zip":"34690","city":"Holiday","state":"FL","lat":28.1913,"long":-82.7279},{"zip":"34691","city":"Holiday","state":"FL","lat":28.1913,"long":-82.756},{"zip":"34692","city":"Holiday","state":"FL","lat":28.188,"long":-82.7346},{"zip":"34660","city":"Ozona","state":"FL","lat":28.067,"long":-82.7784},{"zip":"34677","city":"Oldsmar","state":"FL","lat":28.046,"long":-82.6848},{"zip":"34681","city":"Crystal Beach","state":"FL","lat":28.0914,"long":-82.7798},{"zip":"34682","city":"Palm Harbor","state":"FL","lat":28.0781,"long":-82.7637},{"zip":"34683","city":"Palm Harbor","state":"FL","lat":28.0662,"long":-82.7585},{"zip":"34684","city":"Palm Harbor","state":"FL","lat":28.0848,"long":-82.7253},{"zip":"34685","city":"Palm Harbor","state":"FL","lat":28.0967,"long":-82.6964},{"zip":"34688","city":"Tarpon Springs","state":"FL","lat":28.1458,"long":-82.6825},{"zip":"34689","city":"Tarpon Springs","state":"FL","lat":28.1385,"long":-82.743},{"zip":"34695","city":"Safety Harbor","state":"FL","lat":28.0096,"long":-82.6967},{"zip":"34697","city":"Dunedin","state":"FL","lat":27.8918,"long":-82.7248},{"zip":"34698","city":"Dunedin","state":"FL","lat":28.0284,"long":-82.7794},{"zip":"34714","city":"Clermont","state":"FL","lat":28.4113,"long":-81.7812},{"zip":"34759","city":"Kissimmee","state":"FL","lat":28.0946,"long":-81.499},{"zip":"34945","city":"Fort Pierce","state":"FL","lat":27.4382,"long":-80.444},{"zip":"34946","city":"Fort Pierce","state":"FL","lat":27.5008,"long":-80.36},{"zip":"34947","city":"Fort Pierce","state":"FL","lat":27.4493,"long":-80.3592},{"zip":"34948","city":"Fort Pierce","state":"FL","lat":27.3822,"long":-80.409},{"zip":"34949","city":"Fort Pierce","state":"FL","lat":27.3896,"long":-80.2615},{"zip":"34950","city":"Fort Pierce","state":"FL","lat":27.4486,"long":-80.3385},{"zip":"34951","city":"Fort Pierce","state":"FL","lat":27.5391,"long":-80.4052},{"zip":"34952","city":"Port Saint Lucie","state":"FL","lat":27.2889,"long":-80.298},{"zip":"34953","city":"Port Saint Lucie","state":"FL","lat":27.2625,"long":-80.3793},{"zip":"34954","city":"Fort Pierce","state":"FL","lat":27.3822,"long":-80.409},{"zip":"34979","city":"Fort Pierce","state":"FL","lat":27.3822,"long":-80.409},{"zip":"34981","city":"Fort Pierce","state":"FL","lat":27.4049,"long":-80.3623},{"zip":"34982","city":"Fort Pierce","state":"FL","lat":27.3908,"long":-80.3246},{"zip":"34983","city":"Port Saint Lucie","state":"FL","lat":27.3094,"long":-80.345},{"zip":"34984","city":"Port Saint Lucie","state":"FL","lat":27.2655,"long":-80.3389},{"zip":"34985","city":"Port Saint Lucie","state":"FL","lat":27.2939,"long":-80.3503},{"zip":"34986","city":"Port Saint Lucie","state":"FL","lat":27.3215,"long":-80.403},{"zip":"34987","city":"Port Saint Lucie","state":"FL","lat":27.2606,"long":-80.4771},{"zip":"34988","city":"Port Saint Lucie","state":"FL","lat":27.3868,"long":-80.5037},{"zip":"34223","city":"Englewood","state":"FL","lat":26.9667,"long":-82.3599},{"zip":"34224","city":"Englewood","state":"FL","lat":26.92,"long":-82.3048},{"zip":"34229","city":"Osprey","state":"FL","lat":27.1838,"long":-82.4853},{"zip":"34230","city":"Sarasota","state":"FL","lat":27.335,"long":-82.5372},{"zip":"34231","city":"Sarasota","state":"FL","lat":27.2666,"long":-82.5163},{"zip":"34232","city":"Sarasota","state":"FL","lat":27.3262,"long":-82.4724},{"zip":"34233","city":"Sarasota","state":"FL","lat":27.2866,"long":-82.477},{"zip":"34234","city":"Sarasota","state":"FL","lat":27.3688,"long":-82.5268},{"zip":"34235","city":"Sarasota","state":"FL","lat":27.3672,"long":-82.4848},{"zip":"34236","city":"Sarasota","state":"FL","lat":27.3269,"long":-82.5433},{"zip":"34237","city":"Sarasota","state":"FL","lat":27.3369,"long":-82.5128},{"zip":"34238","city":"Sarasota","state":"FL","lat":27.2427,"long":-82.4751},{"zip":"34239","city":"Sarasota","state":"FL","lat":27.3111,"long":-82.5195},{"zip":"34240","city":"Sarasota","state":"FL","lat":27.339,"long":-82.3473},{"zip":"34241","city":"Sarasota","state":"FL","lat":27.2822,"long":-82.4181},{"zip":"34242","city":"Sarasota","state":"FL","lat":27.2566,"long":-82.5398},{"zip":"34272","city":"Laurel","state":"FL","lat":27.147,"long":-82.4255},{"zip":"34274","city":"Nokomis","state":"FL","lat":27.144,"long":-82.4645},{"zip":"34275","city":"Nokomis","state":"FL","lat":27.1384,"long":-82.4518},{"zip":"34276","city":"Sarasota","state":"FL","lat":27.3364,"long":-82.5307},{"zip":"34277","city":"Sarasota","state":"FL","lat":27.3364,"long":-82.5307},{"zip":"34278","city":"Sarasota","state":"FL","lat":27.3316,"long":-82.5285},{"zip":"34284","city":"Venice","state":"FL","lat":27.1675,"long":-82.381},{"zip":"34285","city":"Venice","state":"FL","lat":27.0933,"long":-82.4498},{"zip":"34286","city":"North Port","state":"FL","lat":27.0748,"long":-82.1756},{"zip":"34287","city":"North Port","state":"FL","lat":27.0478,"long":-82.2416},{"zip":"34288","city":"North Port","state":"FL","lat":27.0498,"long":-82.1288},{"zip":"34289","city":"North Port","state":"FL","lat":27.0808,"long":-82.1516},{"zip":"34290","city":"North Port","state":"FL","lat":27.0459,"long":-82.2491},{"zip":"34291","city":"North Port","state":"FL","lat":27.0997,"long":-82.2095},{"zip":"34292","city":"Venice","state":"FL","lat":27.09,"long":-82.37},{"zip":"34293","city":"Venice","state":"FL","lat":27.0606,"long":-82.352},{"zip":"34295","city":"Englewood","state":"FL","lat":27.086,"long":-82.4389},{"zip":"34484","city":"Oxford","state":"FL","lat":28.9059,"long":-82.0612},{"zip":"34785","city":"Wildwood","state":"FL","lat":28.8454,"long":-82.0347}]
