[{"zip":"34101","city":"Naples","state":"FL","lat":26.1423,"long":-81.796},{"zip":"34102","city":"Naples","state":"FL","lat":26.134,"long":-81.7953},{"zip":"34103","city":"Naples","state":"FL","lat":26.1917,"long":-81.8039},{"zip":"34104","city":"Naples","state":"FL","lat":26.1529,"long":-81.7417},{"zip":"34105","city":"Naples","state":"FL","lat":26.1938,"long":-81.7636},{"zip":"34106","city":"Naples","state":"FL","lat":26.1423,"long":-81.796},{"zip":"34107","city":"Naples","state":"FL","lat":26.1423,"long":-81.796},{"zip":"34108","city":"Naples","state":"FL","lat":26.2416,"long":-81.8071},{"zip":"34109","city":"Naples","state":"FL","lat":26.2534,"long":-81.7644},{"zip":"34110","city":"Naples","state":"FL","lat":26.2823,"long":-81.7573},{"zip":"34112","city":"Naples","state":"FL","lat":26.1184,"long":-81.7361},{"zip":"34113","city":"Naples","state":"FL","lat":26.0426,"long":-81.7182},{"zip":"34114","city":"Naples","state":"FL","lat":26.0143,"long":-81.5856},{"zip":"34116","city":"Naples","state":"FL","lat":26.1873,"long":-81.711},{"zip":"34117","city":"Naples","state":"FL","lat":26.1156,"long":-81.5239},{"zip":"34119","city":"Naples","state":"FL","lat":26.2665,"long":-81.7146},{"zip":"34120","city":"Naples","state":"FL","lat":26.3304,"long":-81.5871},{"zip":"34137","city":"Copeland","state":"FL","lat":26.1433,"long":-81.3891},{"zip":"34138","city":"Chokoloskee","state":"FL","lat":25.8129,"long":-81.362},{"zip":"34139","city":"Everglades City","state":"FL","lat":25.857,"long":-81.3778},{"zip":"34140","city":"Goodland","state":"FL","lat":25.9248,"long":-81.6456},{"zip":"34141","city":"Ochopee","state":"FL","lat":25.8734,"long":-81.1599},{"zip":"34142","city":"Immokalee","state":"FL","lat":26.1844,"long":-81.4152},{"zip":"34143","city":"Immokalee","state":"FL","lat":26.4642,"long":-81.5047},{"zip":"34145","city":"Marco Island","state":"FL","lat":25.9388,"long":-81.6968},{"zip":"34146","city":"Marco Island","state":"FL","lat":25.9412,"long":-81.7184},{"zip":"34133","city":"Bonita Springs","state":"FL","lat":26.3398,"long":-81.7787},{"zip":"34134","city":"Bonita Springs","state":"FL","lat":26.3626,"long":-81.8183},{"zip":"34135","city":"Bonita Springs","state":"FL","lat":26.3771,"long":-81.7334},{"zip":"34136","city":"Bonita Springs","state":"FL","lat":26.3398,"long":-81.7787}]
