[{"zip":"34423","city":"Crystal River","state":"FL","lat":28.867,"long":-82.5727},{"zip":"34428","city":"Crystal River","state":"FL","lat":28.9584,"long":-82.5993},{"zip":"34429","city":"Crystal River","state":"FL","lat":28.8547,"long":-82.6669},{"zip":"34433","city":"Dunnellon","state":"FL","lat":28.9949,"long":-82.5196},{"zip":"34434","city":"Dunnellon","state":"FL","lat":28.9938,"long":-82.4241},{"zip":"34436","city":"Floral City","state":"FL","lat":28.7304,"long":-82.3077},{"zip":"34442","city":"Hernando","state":"FL","lat":28.9223,"long":-82.39},{"zip":"34445","city":"Holder","state":"FL","lat":28.9669,"long":-82.4207},{"zip":"34446","city":"Homosassa","state":"FL","lat":28.7508,"long":-82.5139},{"zip":"34447","city":"Homosassa Springs","state":"FL","lat":28.8049,"long":-82.5743},{"zip":"34448","city":"Homosassa","state":"FL","lat":28.788,"long":-82.568},{"zip":"34450","city":"Inverness","state":"FL","lat":28.834,"long":-82.2822},{"zip":"34451","city":"Inverness","state":"FL","lat":28.8358,"long":-82.3304},{"zip":"34452","city":"Inverness","state":"FL","lat":28.7778,"long":-82.3603},{"zip":"34453","city":"Inverness","state":"FL","lat":28.8723,"long":-82.3454},{"zip":"34460","city":"Lecanto","state":"FL","lat":28.8593,"long":-82.5087},{"zip":"34461","city":"Lecanto","state":"FL","lat":28.8516,"long":-82.4876},{"zip":"34464","city":"Beverly Hills","state":"FL","lat":28.9169,"long":-82.4582},{"zip":"34465","city":"Beverly Hills","state":"FL","lat":28.9295,"long":-82.4892},{"zip":"34487","city":"Homosassa","state":"FL","lat":28.7814,"long":-82.6151},{"zip":"34449","city":"Inglis","state":"FL","lat":29.0955,"long":-82.6561},{"zip":"34498","city":"Yankeetown","state":"FL","lat":29.0305,"long":-82.719},{"zip":"34420","city":"Belleview","state":"FL","lat":29.0531,"long":-82.0375},{"zip":"34421","city":"Belleview","state":"FL","lat":29.2407,"long":-82.0875},{"zip":"34430","city":"Dunnellon","state":"FL","lat":29.0491,"long":-82.4609},{"zip":"34431","city":"Dunnellon","state":"FL","lat":29.1392,"long":-82.5328},{"zip":"34432","city":"Dunnellon","state":"FL","lat":29.1015,"long":-82.3413},{"zip":"34470","city":"Ocala","state":"FL","lat":29.1989,"long":-82.0874},{"zip":"34471","city":"Ocala","state":"FL","lat":29.1605,"long":-82.1288},{"zip":"34472","city":"Ocala","state":"FL","lat":29.1253,"long":-82.0086},{"zip":"34473","city":"Ocala","state":"FL","lat":29.0058,"long":-82.1828},{"zip":"34474","city":"Ocala","state":"FL","lat":29.1565,"long":-82.2095},{"zip":"34475","city":"Ocala","state":"FL","lat":29.2573,"long":-82.161},{"zip":"34476","city":"Ocala","state":"FL","lat":29.1159,"long":-82.2422},{"zip":"34477","city":"Ocala","state":"FL","lat":29.1872,"long":-82.1401},{"zip":"34478","city":"Ocala","state":"FL","lat":29.1872,"long":-82.1123},{"zip":"34479","city":"Ocala","state":"FL","lat":29.2541,"long":-82.1095},{"zip":"34480","city":"Ocala","state":"FL","lat":29.1056,"long":-82.098},{"zip":"34481","city":"Ocala","state":"FL","lat":29.1281,"long":-82.2975},{"zip":"34482","city":"Ocala","state":"FL","lat":29.2611,"long":-82.2195},{"zip":"34483","city":"Ocala","state":"FL","lat":29.2407,"long":-82.0875},{"zip":"34488","city":"Silver Springs","state":"FL","lat":29.2635,"long":-81.9532},{"zip":"34489","city":"Silver Springs","state":"FL","lat":29.2152,"long":-82.0972},{"zip":"34491","city":"Summerfield","state":"FL","lat":29.0112,"long":-82.0325},{"zip":"34492","city":"Summerfield","state":"FL","lat":28.998,"long":-82.0161},{"zip":"34484","city":"Oxford","state":"FL","lat":28.9059,"long":-82.0612}]
