[{"zip":"34601","city":"Brooksville","state":"FL","lat":28.5658,"long":-82.3737},{"zip":"34602","city":"Brooksville","state":"FL","lat":28.5093,"long":-82.2957},{"zip":"34603","city":"Brooksville","state":"FL","lat":28.5642,"long":-82.4165},{"zip":"34604","city":"Brooksville","state":"FL","lat":28.4409,"long":-82.4612},{"zip":"34605","city":"Brooksville","state":"FL","lat":28.5059,"long":-82.4226},{"zip":"34606","city":"Spring Hill","state":"FL","lat":28.4655,"long":-82.5981},{"zip":"34607","city":"Spring Hill","state":"FL","lat":28.5065,"long":-82.6267},{"zip":"34608","city":"Spring Hill","state":"FL","lat":28.4797,"long":-82.5562},{"zip":"34609","city":"Spring Hill","state":"FL","lat":28.4794,"long":-82.5083},{"zip":"34611","city":"Spring Hill","state":"FL","lat":28.5642,"long":-82.4165},{"zip":"34613","city":"Brooksville","state":"FL","lat":28.5466,"long":-82.5213},{"zip":"34614","city":"Brooksville","state":"FL","lat":28.6622,"long":-82.5236},{"zip":"34636","city":"Istachatta","state":"FL","lat":28.655,"long":-82.2677},{"zip":"34661","city":"Nobleton","state":"FL","lat":28.6436,"long":-82.2638},{"zip":"34610","city":"Spring Hill","state":"FL","lat":28.4079,"long":-82.5398},{"zip":"34637","city":"Land O Lakes","state":"FL","lat":28.2782,"long":-82.4625},{"zip":"34638","city":"Land O Lakes","state":"FL","lat":28.2478,"long":-82.4962},{"zip":"34639","city":"Land O Lakes","state":"FL","lat":28.2258,"long":-82.4547},{"zip":"34652","city":"New Port Richey","state":"FL","lat":28.2326,"long":-82.7327},{"zip":"34653","city":"New Port Richey","state":"FL","lat":28.2444,"long":-82.6986},{"zip":"34654","city":"New Port Richey","state":"FL","lat":28.3022,"long":-82.6264},{"zip":"34655","city":"New Port Richey","state":"FL","lat":28.2129,"long":-82.6807},{"zip":"34656","city":"New Port Richey","state":"FL","lat":28.2442,"long":-82.7193},{"zip":"34667","city":"Hudson","state":"FL","lat":28.3648,"long":-82.6757},{"zip":"34668","city":"Port Richey","state":"FL","lat":28.3011,"long":-82.6927},{"zip":"34669","city":"Hudson","state":"FL","lat":28.3506,"long":-82.6288},{"zip":"34673","city":"Port Richey","state":"FL","lat":28.2717,"long":-82.7195},{"zip":"34674","city":"Hudson","state":"FL","lat":28.3644,"long":-82.6934},{"zip":"34679","city":"Aripeka","state":"FL","lat":28.4302,"long":-82.6616},{"zip":"34680","city":"Elfers","state":"FL","lat":28.2167,"long":-82.7223},{"zip":"34690","city":"Holiday","state":"FL","lat":28.1913,"long":-82.7279},{"zip":"34691","city":"Holiday","state":"FL","lat":28.1913,"long":-82.756},{"zip":"34692","city":"Holiday","state":"FL","lat":28.188,"long":-82.7346},{"zip":"34660","city":"Ozona","state":"FL","lat":28.067,"long":-82.7784},{"zip":"34677","city":"Oldsmar","state":"FL","lat":28.046,"long":-82.6848},{"zip":"34681","city":"Crystal Beach","state":"FL","lat":28.0914,"long":-82.7798},{"zip":"34682","city":"Palm Harbor","state":"FL","lat":28.0781,"long":-82.7637},{"zip":"34683","city":"Palm Harbor","state":"FL","lat":28.0662,"long":-82.7585},{"zip":"34684","city":"Palm Harbor","state":"FL","lat":28.0848,"long":-82.7253},{"zip":"34685","city":"Palm Harbor","state":"FL","lat":28.0967,"long":-82.6964},{"zip":"34688","city":"Tarpon Springs","state":"FL","lat":28.1458,"long":-82.6825},{"zip":"34689","city":"Tarpon Springs","state":"FL","lat":28.1385,"long":-82.743},{"zip":"34695","city":"Safety Harbor","state":"FL","lat":28.0096,"long":-82.6967},{"zip":"34697","city":"Dunedin","state":"FL","lat":27.8918,"long":-82.7248},{"zip":"34698","city":"Dunedin","state":"FL","lat":28.0284,"long":-82.7794}]
