[{"zip":"34956","city":"Indiantown","state":"FL","lat":27.0615,"long":-80.4803},{"zip":"34957","city":"Jensen Beach","state":"FL","lat":27.2356,"long":-80.2277},{"zip":"34958","city":"Jensen Beach","state":"FL","lat":27.2424,"long":-80.2246},{"zip":"34990","city":"Palm City","state":"FL","lat":27.1656,"long":-80.2916},{"zip":"34991","city":"Palm City","state":"FL","lat":27.1678,"long":-80.2662},{"zip":"34992","city":"Port Salerno","state":"FL","lat":27.1442,"long":-80.2006},{"zip":"34994","city":"Stuart","state":"FL","lat":27.1968,"long":-80.2538},{"zip":"34995","city":"Stuart","state":"FL","lat":27.1754,"long":-80.2415},{"zip":"34996","city":"Stuart","state":"FL","lat":27.1929,"long":-80.2164},{"zip":"34997","city":"Stuart","state":"FL","lat":27.1398,"long":-80.2129},{"zip":"34972","city":"Okeechobee","state":"FL","lat":27.4203,"long":-80.9454},{"zip":"34973","city":"Okeechobee","state":"FL","lat":27.2439,"long":-80.8298},{"zip":"34974","city":"Okeechobee","state":"FL","lat":27.2002,"long":-80.841},{"zip":"34945","city":"Fort Pierce","state":"FL","lat":27.4382,"long":-80.444},{"zip":"34946","city":"Fort Pierce","state":"FL","lat":27.5008,"long":-80.36},{"zip":"34947","city":"Fort Pierce","state":"FL","lat":27.4493,"long":-80.3592},{"zip":"34948","city":"Fort Pierce","state":"FL","lat":27.3822,"long":-80.409},{"zip":"34949","city":"Fort Pierce","state":"FL","lat":27.3896,"long":-80.2615},{"zip":"34950","city":"Fort Pierce","state":"FL","lat":27.4486,"long":-80.3385},{"zip":"34951","city":"Fort Pierce","state":"FL","lat":27.5391,"long":-80.4052},{"zip":"34952","city":"Port Saint Lucie","state":"FL","lat":27.2889,"long":-80.298},{"zip":"34953","city":"Port Saint Lucie","state":"FL","lat":27.2625,"long":-80.3793},{"zip":"34954","city":"Fort Pierce","state":"FL","lat":27.3822,"long":-80.409},{"zip":"34979","city":"Fort Pierce","state":"FL","lat":27.3822,"long":-80.409},{"zip":"34981","city":"Fort Pierce","state":"FL","lat":27.4049,"long":-80.3623},{"zip":"34982","city":"Fort Pierce","state":"FL","lat":27.3908,"long":-80.3246},{"zip":"34983","city":"Port Saint Lucie","state":"FL","lat":27.3094,"long":-80.345},{"zip":"34984","city":"Port Saint Lucie","state":"FL","lat":27.2655,"long":-80.3389},{"zip":"34985","city":"Port Saint Lucie","state":"FL","lat":27.2939,"long":-80.3503},{"zip":"34986","city":"Port Saint Lucie","state":"FL","lat":27.3215,"long":-80.403},{"zip":"34987","city":"Port Saint Lucie","state":"FL","lat":27.2606,"long":-80.4771},{"zip":"34988","city":"Port Saint Lucie","state":"FL","lat":27.3868,"long":-80.5037}]
