[{"zip":"35034","city":"Brent","state":"AL","lat":32.9357,"long":-87.2114},{"zip":"35035","city":"Brierfield","state":"AL","lat":33.0427,"long":-86.9517},{"zip":"35042","city":"Centreville","state":"AL","lat":32.9503,"long":-87.1192},{"zip":"35074","city":"Green Pond","state":"AL","lat":33.2027,"long":-87.118},{"zip":"35184","city":"West Blocton","state":"AL","lat":33.1424,"long":-87.1369},{"zip":"35188","city":"Woodstock","state":"AL","lat":33.2068,"long":-87.15},{"zip":"35013","city":"Allgood","state":"AL","lat":33.9222,"long":-86.4493},{"zip":"35031","city":"Blountsville","state":"AL","lat":34.0929,"long":-86.5686},{"zip":"35049","city":"Cleveland","state":"AL","lat":33.9778,"long":-86.5598},{"zip":"35079","city":"Hayden","state":"AL","lat":33.9534,"long":-86.7455},{"zip":"35097","city":"Locust Fork","state":"AL","lat":33.905,"long":-86.6261},{"zip":"35121","city":"Oneonta","state":"AL","lat":33.9259,"long":-86.4741},{"zip":"35133","city":"Remlap","state":"AL","lat":33.8168,"long":-86.6008},{"zip":"35959","city":"Cedar Bluff","state":"AL","lat":34.2417,"long":-85.6026},{"zip":"35960","city":"Centre","state":"AL","lat":34.1116,"long":-85.6092},{"zip":"35973","city":"Gaylesville","state":"AL","lat":34.3573,"long":-85.5589},{"zip":"35983","city":"Leesburg","state":"AL","lat":34.1911,"long":-85.7705},{"zip":"35045","city":"Clanton","state":"AL","lat":32.8355,"long":-86.6425},{"zip":"35046","city":"Clanton","state":"AL","lat":32.9229,"long":-86.545},{"zip":"35085","city":"Jemison","state":"AL","lat":32.9805,"long":-86.7181},{"zip":"35171","city":"Thorsby","state":"AL","lat":32.9157,"long":-86.7158},{"zip":"35082","city":"Hollins","state":"AL","lat":33.1162,"long":-86.1386},{"zip":"35616","city":"Cherokee","state":"AL","lat":34.7442,"long":-87.9724},{"zip":"35646","city":"Leighton","state":"AL","lat":34.711,"long":-87.5221},{"zip":"35660","city":"Sheffield","state":"AL","lat":34.7578,"long":-87.6971},{"zip":"35661","city":"Muscle Shoals","state":"AL","lat":34.7561,"long":-87.6304},{"zip":"35662","city":"Muscle Shoals","state":"AL","lat":34.7448,"long":-87.6675},{"zip":"35674","city":"Tuscumbia","state":"AL","lat":34.6874,"long":-87.6833},{"zip":"35072","city":"Goodwater","state":"AL","lat":33.0746,"long":-86.0781},{"zip":"35089","city":"Kellyton","state":"AL","lat":32.9791,"long":-86.0484},{"zip":"35136","city":"Rockford","state":"AL","lat":32.878,"long":-86.24},{"zip":"35183","city":"Weogufka","state":"AL","lat":33.0238,"long":-86.3042},{"zip":"35019","city":"Baileyton","state":"AL","lat":34.2683,"long":-86.6213},{"zip":"35033","city":"Bremen","state":"AL","lat":33.9737,"long":-87.0043},{"zip":"35053","city":"Crane Hill","state":"AL","lat":34.0821,"long":-87.0484},{"zip":"35055","city":"Cullman","state":"AL","lat":34.1761,"long":-86.8298},{"zip":"35056","city":"Cullman","state":"AL","lat":34.1748,"long":-86.8436},{"zip":"35057","city":"Cullman","state":"AL","lat":34.0878,"long":-86.9447},{"zip":"35058","city":"Cullman","state":"AL","lat":34.2098,"long":-86.752},{"zip":"35070","city":"Garden City","state":"AL","lat":34.0058,"long":-86.7499},{"zip":"35077","city":"Hanceville","state":"AL","lat":34.0516,"long":-86.7848},{"zip":"35083","city":"Holly Pond","state":"AL","lat":34.1901,"long":-86.6174},{"zip":"35087","city":"Joppa","state":"AL","lat":34.2837,"long":-86.5519},{"zip":"35098","city":"Logan","state":"AL","lat":34.1377,"long":-87.0266},{"zip":"35179","city":"Vinemont","state":"AL","lat":34.2621,"long":-86.9125},{"zip":"35961","city":"Collinsville","state":"AL","lat":34.268,"long":-85.862},{"zip":"35962","city":"Crossville","state":"AL","lat":34.2588,"long":-86.0306},{"zip":"35963","city":"Dawson","state":"AL","lat":34.3568,"long":-85.9292},{"zip":"35967","city":"Fort Payne","state":"AL","lat":34.4368,"long":-85.7124},{"zip":"35968","city":"Fort Payne","state":"AL","lat":34.4898,"long":-85.7657},{"zip":"35971","city":"Fyffe","state":"AL","lat":34.4373,"long":-85.9288},{"zip":"35974","city":"Geraldine","state":"AL","lat":34.3592,"long":-86.024},{"zip":"35975","city":"Groveoak","state":"AL","lat":34.4359,"long":-86.04},{"zip":"35978","city":"Henagar","state":"AL","lat":34.6186,"long":-85.7274},{"zip":"35981","city":"Ider","state":"AL","lat":34.7351,"long":-85.6416},{"zip":"35984","city":"Mentone","state":"AL","lat":34.5872,"long":-85.5777},{"zip":"35986","city":"Rainsville","state":"AL","lat":34.4989,"long":-85.8446},{"zip":"35988","city":"Sylvania","state":"AL","lat":34.559,"long":-85.7921},{"zip":"35989","city":"Valley Head","state":"AL","lat":34.5697,"long":-85.6272},{"zip":"35901","city":"Gadsden","state":"AL","lat":34.048,"long":-85.9246},{"zip":"35902","city":"Gadsden","state":"AL","lat":34.0143,"long":-86.0066},{"zip":"35903","city":"Gadsden","state":"AL","lat":33.9845,"long":-85.9077},{"zip":"35904","city":"Gadsden","state":"AL","lat":34.0217,"long":-86.0495},{"zip":"35905","city":"Gadsden","state":"AL","lat":33.9352,"long":-85.9576},{"zip":"35906","city":"Rainbow City","state":"AL","lat":33.9318,"long":-86.0898},{"zip":"35907","city":"Gadsden","state":"AL","lat":33.8979,"long":-86.0245},{"zip":"35952","city":"Altoona","state":"AL","lat":34.071,"long":-86.2096},{"zip":"35954","city":"Attalla","state":"AL","lat":34.0296,"long":-86.0967},{"zip":"35972","city":"Gallant","state":"AL","lat":33.9976,"long":-86.2346},{"zip":"35990","city":"Walnut Grove","state":"AL","lat":34.0566,"long":-86.2754},{"zip":"35542","city":"Bankston","state":"AL","lat":33.7008,"long":-87.6897},{"zip":"35545","city":"Belk","state":"AL","lat":33.6476,"long":-87.9314},{"zip":"35546","city":"Berry","state":"AL","lat":33.6945,"long":-87.6226},{"zip":"35555","city":"Fayette","state":"AL","lat":33.6974,"long":-87.8346},{"zip":"35559","city":"Glen Allen","state":"AL","lat":33.8896,"long":-87.6964},{"zip":"35571","city":"Hodges","state":"AL","lat":34.3417,"long":-87.959},{"zip":"35581","city":"Phil Campbell","state":"AL","lat":34.347,"long":-87.7154},{"zip":"35582","city":"Red Bay","state":"AL","lat":34.4513,"long":-88.1129},{"zip":"35585","city":"Spruce Pine","state":"AL","lat":34.4246,"long":-87.8145},{"zip":"35593","city":"Vina","state":"AL","lat":34.3712,"long":-88.0774},{"zip":"35653","city":"Russellville","state":"AL","lat":34.5066,"long":-87.7257},{"zip":"35654","city":"Russellville","state":"AL","lat":34.4675,"long":-87.6478},{"zip":"35443","city":"Boligee","state":"AL","lat":32.7746,"long":-88.0267},{"zip":"35448","city":"Clinton","state":"AL","lat":32.9137,"long":-87.9925},{"zip":"35462","city":"Eutaw","state":"AL","lat":32.8889,"long":-87.9303},{"zip":"35469","city":"Knoxville","state":"AL","lat":32.9824,"long":-87.7919},{"zip":"35491","city":"West Greene","state":"AL","lat":32.9237,"long":-88.0853},{"zip":"35441","city":"Akron","state":"AL","lat":32.8553,"long":-87.7219},{"zip":"35474","city":"Moundville","state":"AL","lat":32.9108,"long":-87.5935},{"zip":"35740","city":"Bridgeport","state":"AL","lat":34.9446,"long":-85.7277},{"zip":"35744","city":"Dutton","state":"AL","lat":34.6046,"long":-85.9067},{"zip":"35745","city":"Estillfork","state":"AL","lat":34.913,"long":-86.1716},{"zip":"35746","city":"Fackler","state":"AL","lat":34.8259,"long":-85.9846},{"zip":"35751","city":"Hollytree","state":"AL","lat":34.7955,"long":-86.2743},{"zip":"35752","city":"Hollywood","state":"AL","lat":34.7304,"long":-85.9532},{"zip":"35755","city":"Langston","state":"AL","lat":34.5001,"long":-86.1353},{"zip":"35764","city":"Paint Rock","state":"AL","lat":34.7031,"long":-86.3068},{"zip":"35765","city":"Pisgah","state":"AL","lat":34.6809,"long":-85.8478},{"zip":"35766","city":"Princeton","state":"AL","lat":34.8713,"long":-86.2513},{"zip":"35768","city":"Scottsboro","state":"AL","lat":34.7507,"long":-86.1422},{"zip":"35769","city":"Scottsboro","state":"AL","lat":34.618,"long":-86.0562},{"zip":"35771","city":"Section","state":"AL","lat":34.5433,"long":-85.994},{"zip":"35772","city":"Stevenson","state":"AL","lat":34.8769,"long":-85.8508},{"zip":"35774","city":"Trenton","state":"AL","lat":34.7632,"long":-86.2295},{"zip":"35776","city":"Woodville","state":"AL","lat":34.6689,"long":-86.2296},{"zip":"35958","city":"Bryant","state":"AL","lat":34.945,"long":-85.6324},{"zip":"35966","city":"Flat Rock","state":"AL","lat":34.8076,"long":-85.7084},{"zip":"35979","city":"Higdon","state":"AL","lat":34.8391,"long":-85.6196},{"zip":"35005","city":"Adamsville","state":"AL","lat":33.5884,"long":-86.9597},{"zip":"35006","city":"Adger","state":"AL","lat":33.4343,"long":-87.1675},{"zip":"35015","city":"Alton","state":"AL","lat":33.5793,"long":-86.6375},{"zip":"35020","city":"Bessemer","state":"AL","lat":33.409,"long":-86.9475},{"zip":"35021","city":"Bessemer","state":"AL","lat":33.5446,"long":-86.9292},{"zip":"35022","city":"Bessemer","state":"AL","lat":33.3224,"long":-86.9657},{"zip":"35023","city":"Bessemer","state":"AL","lat":33.468,"long":-87.0924},{"zip":"35036","city":"Brookside","state":"AL","lat":33.6379,"long":-86.9167},{"zip":"35048","city":"Clay","state":"AL","lat":33.7026,"long":-86.5997},{"zip":"35060","city":"Docena","state":"AL","lat":33.5589,"long":-86.9294},{"zip":"35061","city":"Dolomite","state":"AL","lat":33.4654,"long":-86.9564},{"zip":"35064","city":"Fairfield","state":"AL","lat":33.4735,"long":-86.9183},{"zip":"35068","city":"Fultondale","state":"AL","lat":33.6017,"long":-86.8265},{"zip":"35071","city":"Gardendale","state":"AL","lat":33.7189,"long":-86.8225},{"zip":"35073","city":"Graysville","state":"AL","lat":33.6539,"long":-86.9803},{"zip":"35091","city":"Kimberly","state":"AL","lat":33.7684,"long":-86.8084},{"zip":"35094","city":"Leeds","state":"AL","lat":33.5283,"long":-86.5748},{"zip":"35111","city":"Mc Calla","state":"AL","lat":33.2845,"long":-87.1024},{"zip":"35116","city":"Morris","state":"AL","lat":33.7392,"long":-86.7726},{"zip":"35117","city":"Mount Olive","state":"AL","lat":33.6768,"long":-86.8717},{"zip":"35118","city":"Mulga","state":"AL","lat":33.5363,"long":-87.051},{"zip":"35119","city":"New Castle","state":"AL","lat":33.649,"long":-86.7686},{"zip":"35123","city":"Palmerdale","state":"AL","lat":33.7387,"long":-86.6461},{"zip":"35126","city":"Pinson","state":"AL","lat":33.7299,"long":-86.6451},{"zip":"35127","city":"Pleasant Grove","state":"AL","lat":33.4883,"long":-86.9766},{"zip":"35139","city":"Sayre","state":"AL","lat":33.7111,"long":-86.9759},{"zip":"35142","city":"Shannon","state":"AL","lat":33.4069,"long":-86.8735},{"zip":"35172","city":"Trafford","state":"AL","lat":33.819,"long":-86.7434},{"zip":"35173","city":"Trussville","state":"AL","lat":33.6339,"long":-86.5981},{"zip":"35180","city":"Warrior","state":"AL","lat":33.8529,"long":-86.8198},{"zip":"35181","city":"Watson","state":"AL","lat":33.5446,"long":-86.9292},{"zip":"35201","city":"Birmingham","state":"AL","lat":33.5207,"long":-86.8025},{"zip":"35202","city":"Birmingham","state":"AL","lat":33.5207,"long":-86.8025},{"zip":"35203","city":"Birmingham","state":"AL","lat":33.521,"long":-86.8066},{"zip":"35204","city":"Birmingham","state":"AL","lat":33.5179,"long":-86.8372},{"zip":"35205","city":"Birmingham","state":"AL","lat":33.4951,"long":-86.8059},{"zip":"35206","city":"Birmingham","state":"AL","lat":33.5678,"long":-86.7199},{"zip":"35207","city":"Birmingham","state":"AL","lat":33.5594,"long":-86.8153},{"zip":"35208","city":"Birmingham","state":"AL","lat":33.4977,"long":-86.8799},{"zip":"35209","city":"Birmingham","state":"AL","lat":33.4653,"long":-86.8082},{"zip":"35210","city":"Birmingham","state":"AL","lat":33.5452,"long":-86.6655},{"zip":"35211","city":"Birmingham","state":"AL","lat":33.4816,"long":-86.859},{"zip":"35212","city":"Birmingham","state":"AL","lat":33.5409,"long":-86.7495},{"zip":"35213","city":"Birmingham","state":"AL","lat":33.5066,"long":-86.7428},{"zip":"35214","city":"Birmingham","state":"AL","lat":33.5554,"long":-86.887},{"zip":"35215","city":"Birmingham","state":"AL","lat":33.6493,"long":-86.7057},{"zip":"35216","city":"Birmingham","state":"AL","lat":33.4188,"long":-86.7867},{"zip":"35217","city":"Birmingham","state":"AL","lat":33.5887,"long":-86.765},{"zip":"35218","city":"Birmingham","state":"AL","lat":33.506,"long":-86.893},{"zip":"35219","city":"Birmingham","state":"AL","lat":33.5446,"long":-86.9292},{"zip":"35220","city":"Birmingham","state":"AL","lat":33.5446,"long":-86.9292},{"zip":"35221","city":"Birmingham","state":"AL","lat":33.4523,"long":-86.8935},{"zip":"35222","city":"Birmingham","state":"AL","lat":33.5219,"long":-86.7666},{"zip":"35223","city":"Birmingham","state":"AL","lat":33.4995,"long":-86.7268},{"zip":"35224","city":"Birmingham","state":"AL","lat":33.5191,"long":-86.9342},{"zip":"35226","city":"Birmingham","state":"AL","lat":33.3967,"long":-86.8346},{"zip":"35228","city":"Birmingham","state":"AL","lat":33.4558,"long":-86.9118},{"zip":"35229","city":"Birmingham","state":"AL","lat":33.4629,"long":-86.7904},{"zip":"35231","city":"Birmingham","state":"AL","lat":33.5446,"long":-86.9292},{"zip":"35232","city":"Birmingham","state":"AL","lat":33.5446,"long":-86.9292},{"zip":"35233","city":"Birmingham","state":"AL","lat":33.5062,"long":-86.8003},{"zip":"35234","city":"Birmingham","state":"AL","lat":33.5378,"long":-86.8068},{"zip":"35235","city":"Birmingham","state":"AL","lat":33.6328,"long":-86.6493},{"zip":"35236","city":"Birmingham","state":"AL","lat":33.5446,"long":-86.9292},{"zip":"35237","city":"Birmingham","state":"AL","lat":33.5207,"long":-86.8025},{"zip":"35238","city":"Birmingham","state":"AL","lat":33.5446,"long":-86.9292},{"zip":"35243","city":"Birmingham","state":"AL","lat":33.4459,"long":-86.7502},{"zip":"35244","city":"Birmingham","state":"AL","lat":33.3538,"long":-86.8254},{"zip":"35246","city":"Birmingham","state":"AL","lat":33.5207,"long":-86.8025},{"zip":"35249","city":"Birmingham","state":"AL","lat":33.5207,"long":-86.8025},{"zip":"35253","city":"Birmingham","state":"AL","lat":33.5446,"long":-86.9292},{"zip":"35254","city":"Birmingham","state":"AL","lat":33.5446,"long":-86.9292},{"zip":"35255","city":"Birmingham","state":"AL","lat":33.5446,"long":-86.9292},{"zip":"35259","city":"Birmingham","state":"AL","lat":33.5446,"long":-86.9292},{"zip":"35260","city":"Birmingham","state":"AL","lat":33.5446,"long":-86.9292},{"zip":"35261","city":"Birmingham","state":"AL","lat":33.5446,"long":-86.9292},{"zip":"35266","city":"Birmingham","state":"AL","lat":33.3729,"long":-86.8531},{"zip":"35282","city":"Birmingham","state":"AL","lat":33.5446,"long":-86.9292},{"zip":"35283","city":"Birmingham","state":"AL","lat":33.5207,"long":-86.8025},{"zip":"35285","city":"Birmingham","state":"AL","lat":33.5446,"long":-86.9292},{"zip":"35287","city":"Birmingham","state":"AL","lat":33.5207,"long":-86.8025},{"zip":"35288","city":"Birmingham","state":"AL","lat":33.4458,"long":-86.9285},{"zip":"35290","city":"Birmingham","state":"AL","lat":33.5446,"long":-86.9292},{"zip":"35291","city":"Birmingham","state":"AL","lat":33.5207,"long":-86.8025},{"zip":"35292","city":"Birmingham","state":"AL","lat":33.5207,"long":-86.8025},{"zip":"35293","city":"Birmingham","state":"AL","lat":33.5446,"long":-86.9292},{"zip":"35294","city":"Birmingham","state":"AL","lat":33.5446,"long":-86.9292},{"zip":"35295","city":"Birmingham","state":"AL","lat":33.5207,"long":-86.8025},{"zip":"35296","city":"Birmingham","state":"AL","lat":33.5446,"long":-86.9292},{"zip":"35297","city":"Birmingham","state":"AL","lat":33.5446,"long":-86.9292},{"zip":"35298","city":"Birmingham","state":"AL","lat":33.5446,"long":-86.9292},{"zip":"35544","city":"Beaverton","state":"AL","lat":33.9429,"long":-88.0157},{"zip":"35552","city":"Detroit","state":"AL","lat":34.0282,"long":-88.17},{"zip":"35574","city":"Kennedy","state":"AL","lat":33.6153,"long":-87.9948},{"zip":"35576","city":"Millport","state":"AL","lat":33.5401,"long":-88.2},{"zip":"35586","city":"Sulligent","state":"AL","lat":33.8549,"long":-88.1508},{"zip":"35592","city":"Vernon","state":"AL","lat":33.7613,"long":-88.0979},{"zip":"35610","city":"Anderson","state":"AL","lat":34.9424,"long":-87.2734},{"zip":"35617","city":"Cloverdale","state":"AL","lat":34.9387,"long":-87.7714},{"zip":"35630","city":"Florence","state":"AL","lat":34.8305,"long":-87.656},{"zip":"35631","city":"Florence","state":"AL","lat":34.87,"long":-87.7069},{"zip":"35632","city":"Florence","state":"AL","lat":34.87,"long":-87.7069},{"zip":"35633","city":"Florence","state":"AL","lat":34.8825,"long":-87.7398},{"zip":"35634","city":"Florence","state":"AL","lat":34.9186,"long":-87.6136},{"zip":"35645","city":"Killen","state":"AL","lat":34.9016,"long":-87.5082},{"zip":"35648","city":"Lexington","state":"AL","lat":34.9559,"long":-87.3935},{"zip":"35652","city":"Rogersville","state":"AL","lat":34.8495,"long":-87.3237},{"zip":"35677","city":"Waterloo","state":"AL","lat":34.9357,"long":-87.9624},{"zip":"35618","city":"Courtland","state":"AL","lat":34.6719,"long":-87.3143},{"zip":"35643","city":"Hillsboro","state":"AL","lat":34.6476,"long":-87.1804},{"zip":"35650","city":"Moulton","state":"AL","lat":34.5058,"long":-87.2224},{"zip":"35651","city":"Mount Hope","state":"AL","lat":34.4793,"long":-87.4769},{"zip":"35672","city":"Town Creek","state":"AL","lat":34.6491,"long":-87.4262},{"zip":"35611","city":"Athens","state":"AL","lat":34.8036,"long":-86.9707},{"zip":"35612","city":"Athens","state":"AL","lat":34.7749,"long":-87.0305},{"zip":"35613","city":"Athens","state":"AL","lat":34.8317,"long":-86.8867},{"zip":"35614","city":"Athens","state":"AL","lat":34.8474,"long":-87.0607},{"zip":"35615","city":"Belle Mina","state":"AL","lat":34.6568,"long":-86.8792},{"zip":"35620","city":"Elkmont","state":"AL","lat":34.929,"long":-86.9739},{"zip":"35647","city":"Lester","state":"AL","lat":34.9596,"long":-87.1006},{"zip":"35649","city":"Mooresville","state":"AL","lat":34.6259,"long":-86.8746},{"zip":"35671","city":"Tanner","state":"AL","lat":34.6796,"long":-86.9625},{"zip":"35739","city":"Ardmore","state":"AL","lat":34.9804,"long":-86.8346},{"zip":"35742","city":"Capshaw","state":"AL","lat":34.7731,"long":-86.7928},{"zip":"35741","city":"Brownsboro","state":"AL","lat":34.7167,"long":-86.4687},{"zip":"35748","city":"Gurley","state":"AL","lat":34.714,"long":-86.394},{"zip":"35749","city":"Harvest","state":"AL","lat":34.8273,"long":-86.7499},{"zip":"35750","city":"Hazel Green","state":"AL","lat":34.9496,"long":-86.5935},{"zip":"35756","city":"Madison","state":"AL","lat":34.643,"long":-86.8168},{"zip":"35757","city":"Madison","state":"AL","lat":34.7782,"long":-86.7442},{"zip":"35758","city":"Madison","state":"AL","lat":34.7108,"long":-86.7425},{"zip":"35759","city":"Meridianville","state":"AL","lat":34.8618,"long":-86.5789},{"zip":"35760","city":"New Hope","state":"AL","lat":34.5494,"long":-86.3961},{"zip":"35761","city":"New Market","state":"AL","lat":34.9,"long":-86.4487},{"zip":"35762","city":"Normal","state":"AL","lat":34.789,"long":-86.5719},{"zip":"35763","city":"Owens Cross Roads","state":"AL","lat":34.6215,"long":-86.4644},{"zip":"35767","city":"Ryland","state":"AL","lat":34.7698,"long":-86.4808},{"zip":"35773","city":"Toney","state":"AL","lat":34.9116,"long":-86.7},{"zip":"35801","city":"Huntsville","state":"AL","lat":34.7269,"long":-86.5673},{"zip":"35802","city":"Huntsville","state":"AL","lat":34.6679,"long":-86.5603},{"zip":"35803","city":"Huntsville","state":"AL","lat":34.6205,"long":-86.551},{"zip":"35804","city":"Huntsville","state":"AL","lat":34.7284,"long":-86.5853},{"zip":"35805","city":"Huntsville","state":"AL","lat":34.7059,"long":-86.6165},{"zip":"35806","city":"Huntsville","state":"AL","lat":34.7448,"long":-86.6704},{"zip":"35807","city":"Huntsville","state":"AL","lat":34.734,"long":-86.5229},{"zip":"35808","city":"Huntsville","state":"AL","lat":34.6845,"long":-86.6538},{"zip":"35809","city":"Huntsville","state":"AL","lat":34.734,"long":-86.5229},{"zip":"35810","city":"Huntsville","state":"AL","lat":34.7784,"long":-86.6091},{"zip":"35811","city":"Huntsville","state":"AL","lat":34.7789,"long":-86.5438},{"zip":"35812","city":"Huntsville","state":"AL","lat":34.734,"long":-86.5229},{"zip":"35813","city":"Huntsville","state":"AL","lat":34.734,"long":-86.5229},{"zip":"35814","city":"Huntsville","state":"AL","lat":34.734,"long":-86.5229},{"zip":"35815","city":"Huntsville","state":"AL","lat":34.734,"long":-86.5229},{"zip":"35816","city":"Huntsville","state":"AL","lat":34.7389,"long":-86.6249},{"zip":"35824","city":"Huntsville","state":"AL","lat":34.6583,"long":-86.7295},{"zip":"35893","city":"Huntsville","state":"AL","lat":34.7304,"long":-86.5861},{"zip":"35894","city":"Huntsville","state":"AL","lat":34.734,"long":-86.5229},{"zip":"35895","city":"Huntsville","state":"AL","lat":34.7304,"long":-86.5861},{"zip":"35896","city":"Huntsville","state":"AL","lat":34.7543,"long":-86.6546},{"zip":"35897","city":"Huntsville","state":"AL","lat":34.734,"long":-86.5229},{"zip":"35898","city":"Huntsville","state":"AL","lat":34.734,"long":-86.5229},{"zip":"35899","city":"Huntsville","state":"AL","lat":34.7339,"long":-86.6456},{"zip":"35543","city":"Bear Creek","state":"AL","lat":34.1649,"long":-87.7396},{"zip":"35548","city":"Brilliant","state":"AL","lat":34.0377,"long":-87.7563},{"zip":"35563","city":"Guin","state":"AL","lat":33.9676,"long":-87.9024},{"zip":"35564","city":"Hackleburg","state":"AL","lat":34.2678,"long":-87.8608},{"zip":"35570","city":"Hamilton","state":"AL","lat":34.1534,"long":-88.0085},{"zip":"35594","city":"Winfield","state":"AL","lat":33.9303,"long":-87.7972},{"zip":"35016","city":"Arab","state":"AL","lat":34.3283,"long":-86.4896},{"zip":"35175","city":"Union Grove","state":"AL","lat":34.4093,"long":-86.4628},{"zip":"35747","city":"Grant","state":"AL","lat":34.4959,"long":-86.259},{"zip":"35950","city":"Albertville","state":"AL","lat":34.2739,"long":-86.2064},{"zip":"35951","city":"Albertville","state":"AL","lat":34.3223,"long":-86.1935},{"zip":"35956","city":"Boaz","state":"AL","lat":34.1437,"long":-86.148},{"zip":"35957","city":"Boaz","state":"AL","lat":34.1921,"long":-86.1941},{"zip":"35964","city":"Douglas","state":"AL","lat":34.1737,"long":-86.3236},{"zip":"35976","city":"Guntersville","state":"AL","lat":34.3449,"long":-86.2752},{"zip":"35980","city":"Horton","state":"AL","lat":34.19,"long":-86.3173},{"zip":"35601","city":"Decatur","state":"AL","lat":34.5896,"long":-86.9887},{"zip":"35602","city":"Decatur","state":"AL","lat":34.6059,"long":-86.9833},{"zip":"35603","city":"Decatur","state":"AL","lat":34.5484,"long":-87.0004},{"zip":"35609","city":"Decatur","state":"AL","lat":34.6059,"long":-86.9833},{"zip":"35619","city":"Danville","state":"AL","lat":34.3873,"long":-87.1454},{"zip":"35621","city":"Eva","state":"AL","lat":34.3323,"long":-86.7589},{"zip":"35622","city":"Falkville","state":"AL","lat":34.3477,"long":-86.9131},{"zip":"35640","city":"Hartselle","state":"AL","lat":34.4482,"long":-86.9242},{"zip":"35670","city":"Somerville","state":"AL","lat":34.4995,"long":-86.8009},{"zip":"35673","city":"Trinity","state":"AL","lat":34.5918,"long":-87.0913},{"zip":"35699","city":"Decatur","state":"AL","lat":34.6059,"long":-86.9833},{"zip":"35754","city":"Laceys Spring","state":"AL","lat":34.4996,"long":-86.6129},{"zip":"35775","city":"Valhermoso Springs","state":"AL","lat":34.542,"long":-86.6871},{"zip":"35442","city":"Aliceville","state":"AL","lat":33.1228,"long":-88.1667},{"zip":"35447","city":"Carrollton","state":"AL","lat":33.2485,"long":-88.1321},{"zip":"35461","city":"Ethelsville","state":"AL","lat":33.4157,"long":-88.2167},{"zip":"35466","city":"Gordo","state":"AL","lat":33.3469,"long":-87.9005},{"zip":"35471","city":"Mc Shan","state":"AL","lat":33.2626,"long":-88.0885},{"zip":"35481","city":"Reform","state":"AL","lat":33.3959,"long":-88.0203},{"zip":"35004","city":"Moody","state":"AL","lat":33.6035,"long":-86.4668},{"zip":"35052","city":"Cook Springs","state":"AL","lat":33.5895,"long":-86.3923},{"zip":"35054","city":"Cropwell","state":"AL","lat":33.5296,"long":-86.3007},{"zip":"35112","city":"Margaret","state":"AL","lat":33.6862,"long":-86.475},{"zip":"35120","city":"Odenville","state":"AL","lat":33.6756,"long":-86.409},{"zip":"35125","city":"Pell City","state":"AL","lat":33.5979,"long":-86.3432},{"zip":"35128","city":"Pell City","state":"AL","lat":33.5873,"long":-86.3366},{"zip":"35131","city":"Ragland","state":"AL","lat":33.7367,"long":-86.1619},{"zip":"35135","city":"Riverside","state":"AL","lat":33.6166,"long":-86.1996},{"zip":"35146","city":"Springville","state":"AL","lat":33.7386,"long":-86.4394},{"zip":"35182","city":"Wattsville","state":"AL","lat":33.7068,"long":-86.2567},{"zip":"35953","city":"Ashville","state":"AL","lat":33.8374,"long":-86.2552},{"zip":"35987","city":"Steele","state":"AL","lat":33.9417,"long":-86.2289},{"zip":"35007","city":"Alabaster","state":"AL","lat":33.1934,"long":-86.7944},{"zip":"35040","city":"Calera","state":"AL","lat":33.1098,"long":-86.756},{"zip":"35043","city":"Chelsea","state":"AL","lat":33.2982,"long":-86.6563},{"zip":"35051","city":"Columbiana","state":"AL","lat":33.177,"long":-86.6161},{"zip":"35078","city":"Harpersville","state":"AL","lat":33.3234,"long":-86.4424},{"zip":"35080","city":"Helena","state":"AL","lat":33.2663,"long":-86.902},{"zip":"35114","city":"Maylene","state":"AL","lat":33.2317,"long":-86.8727},{"zip":"35115","city":"Montevallo","state":"AL","lat":33.1248,"long":-86.8622},{"zip":"35124","city":"Pelham","state":"AL","lat":33.2932,"long":-86.768},{"zip":"35137","city":"Saginaw","state":"AL","lat":33.2063,"long":-86.7812},{"zip":"35143","city":"Shelby","state":"AL","lat":33.0785,"long":-86.5536},{"zip":"35144","city":"Siluria","state":"AL","lat":33.2293,"long":-86.825},{"zip":"35147","city":"Sterrett","state":"AL","lat":33.4461,"long":-86.4917},{"zip":"35176","city":"Vandiver","state":"AL","lat":33.4807,"long":-86.5013},{"zip":"35178","city":"Vincent","state":"AL","lat":33.401,"long":-86.3994},{"zip":"35185","city":"Westover","state":"AL","lat":33.3356,"long":-86.5437},{"zip":"35186","city":"Wilsonville","state":"AL","lat":33.2293,"long":-86.5299},{"zip":"35187","city":"Wilton","state":"AL","lat":33.081,"long":-86.8793},{"zip":"35242","city":"Birmingham","state":"AL","lat":33.3813,"long":-86.7046},{"zip":"35459","city":"Emelle","state":"AL","lat":32.755,"long":-88.3057},{"zip":"35460","city":"Epes","state":"AL","lat":32.672,"long":-88.1206},{"zip":"35464","city":"Gainesville","state":"AL","lat":32.821,"long":-88.1589},{"zip":"35470","city":"Livingston","state":"AL","lat":32.5843,"long":-88.1872},{"zip":"35477","city":"Panola","state":"AL","lat":32.8726,"long":-88.2374},{"zip":"35014","city":"Alpine","state":"AL","lat":33.404,"long":-86.2339},{"zip":"35032","city":"Bon Air","state":"AL","lat":33.2649,"long":-86.3364},{"zip":"35044","city":"Childersburg","state":"AL","lat":33.2459,"long":-86.3641},{"zip":"35096","city":"Lincoln","state":"AL","lat":33.6059,"long":-86.1112},{"zip":"35149","city":"Sycamore","state":"AL","lat":33.2512,"long":-86.2025},{"zip":"35150","city":"Sylacauga","state":"AL","lat":33.1717,"long":-86.2713},{"zip":"35151","city":"Sylacauga","state":"AL","lat":33.1756,"long":-86.3574},{"zip":"35160","city":"Talladega","state":"AL","lat":33.4354,"long":-86.1134},{"zip":"35161","city":"Talladega","state":"AL","lat":33.4202,"long":-86.1028},{"zip":"35010","city":"Alexander City","state":"AL","lat":32.9164,"long":-85.9368},{"zip":"35011","city":"Alexander City","state":"AL","lat":32.9902,"long":-85.958},{"zip":"35401","city":"Tuscaloosa","state":"AL","lat":33.1969,"long":-87.5627},{"zip":"35402","city":"Tuscaloosa","state":"AL","lat":33.3066,"long":-87.4532},{"zip":"35403","city":"Tuscaloosa","state":"AL","lat":33.2045,"long":-87.527},{"zip":"35404","city":"Tuscaloosa","state":"AL","lat":33.1826,"long":-87.4827},{"zip":"35405","city":"Tuscaloosa","state":"AL","lat":33.1617,"long":-87.5144},{"zip":"35406","city":"Tuscaloosa","state":"AL","lat":33.2722,"long":-87.536},{"zip":"35407","city":"Tuscaloosa","state":"AL","lat":33.3066,"long":-87.4532},{"zip":"35440","city":"Abernant","state":"AL","lat":33.311,"long":-87.1898},{"zip":"35444","city":"Brookwood","state":"AL","lat":33.2775,"long":-87.309},{"zip":"35446","city":"Buhl","state":"AL","lat":33.2306,"long":-87.7547},{"zip":"35449","city":"Coaling","state":"AL","lat":33.1359,"long":-87.3384},{"zip":"35452","city":"Coker","state":"AL","lat":33.2934,"long":-87.6888},{"zip":"35453","city":"Cottondale","state":"AL","lat":33.1767,"long":-87.3871},{"zip":"35456","city":"Duncanville","state":"AL","lat":33.0618,"long":-87.4422},{"zip":"35457","city":"Echola","state":"AL","lat":33.294,"long":-87.7766},{"zip":"35458","city":"Elrod","state":"AL","lat":33.2562,"long":-87.7922},{"zip":"35463","city":"Fosters","state":"AL","lat":33.0843,"long":-87.6975},{"zip":"35468","city":"Kellerman","state":"AL","lat":33.3407,"long":-87.3047},{"zip":"35473","city":"Northport","state":"AL","lat":33.2723,"long":-87.5825},{"zip":"35475","city":"Northport","state":"AL","lat":33.3992,"long":-87.5599},{"zip":"35476","city":"Northport","state":"AL","lat":33.2273,"long":-87.5943},{"zip":"35478","city":"Peterson","state":"AL","lat":33.3066,"long":-87.4532},{"zip":"35480","city":"Ralph","state":"AL","lat":33.1274,"long":-87.7624},{"zip":"35482","city":"Samantha","state":"AL","lat":33.3066,"long":-87.4532},{"zip":"35486","city":"Tuscaloosa","state":"AL","lat":33.2098,"long":-87.5692},{"zip":"35487","city":"Tuscaloosa","state":"AL","lat":33.3072,"long":-87.5859},{"zip":"35490","city":"Vance","state":"AL","lat":33.175,"long":-87.2574},{"zip":"35038","city":"Burnwell","state":"AL","lat":33.7079,"long":-87.0875},{"zip":"35062","city":"Dora","state":"AL","lat":33.7357,"long":-87.0546},{"zip":"35063","city":"Empire","state":"AL","lat":33.8256,"long":-87.0161},{"zip":"35130","city":"Quinton","state":"AL","lat":33.6561,"long":-87.1007},{"zip":"35148","city":"Sumiton","state":"AL","lat":33.768,"long":-87.0445},{"zip":"35501","city":"Jasper","state":"AL","lat":33.8312,"long":-87.2775},{"zip":"35502","city":"Jasper","state":"AL","lat":33.8312,"long":-87.2775},{"zip":"35503","city":"Jasper","state":"AL","lat":33.9152,"long":-87.3074},{"zip":"35504","city":"Jasper","state":"AL","lat":33.8927,"long":-87.1667},{"zip":"35549","city":"Carbon Hill","state":"AL","lat":33.9093,"long":-87.5403},{"zip":"35550","city":"Cordova","state":"AL","lat":33.768,"long":-87.1841},{"zip":"35554","city":"Eldridge","state":"AL","lat":33.9315,"long":-87.6194},{"zip":"35560","city":"Goodsprings","state":"AL","lat":33.6795,"long":-87.2374},{"zip":"35573","city":"Kansas","state":"AL","lat":33.9018,"long":-87.552},{"zip":"35578","city":"Nauvoo","state":"AL","lat":33.9299,"long":-87.4324},{"zip":"35579","city":"Oakman","state":"AL","lat":33.7002,"long":-87.3686},{"zip":"35580","city":"Parrish","state":"AL","lat":33.7213,"long":-87.2658},{"zip":"35584","city":"Sipsey","state":"AL","lat":33.8201,"long":-87.0779},{"zip":"35587","city":"Townley","state":"AL","lat":33.847,"long":-87.4372},{"zip":"35540","city":"Addison","state":"AL","lat":34.2056,"long":-87.1948},{"zip":"35541","city":"Arley","state":"AL","lat":34.0632,"long":-87.1828},{"zip":"35551","city":"Delmar","state":"AL","lat":34.1701,"long":-87.6059},{"zip":"35553","city":"Double Springs","state":"AL","lat":34.1387,"long":-87.3974},{"zip":"35565","city":"Haleyville","state":"AL","lat":34.2314,"long":-87.5938},{"zip":"35572","city":"Houston","state":"AL","lat":34.118,"long":-87.2618},{"zip":"35575","city":"Lynn","state":"AL","lat":34.053,"long":-87.5398},{"zip":"35577","city":"Natural Bridge","state":"AL","lat":34.0934,"long":-87.6008}]
