[{"zip":"35034","city":"Brent","state":"AL","lat":32.9357,"long":-87.2114},{"zip":"35035","city":"Brierfield","state":"AL","lat":33.0427,"long":-86.9517},{"zip":"35042","city":"Centreville","state":"AL","lat":32.9503,"long":-87.1192},{"zip":"35074","city":"Green Pond","state":"AL","lat":33.2027,"long":-87.118},{"zip":"35013","city":"Allgood","state":"AL","lat":33.9222,"long":-86.4493},{"zip":"35031","city":"Blountsville","state":"AL","lat":34.0929,"long":-86.5686},{"zip":"35049","city":"Cleveland","state":"AL","lat":33.9778,"long":-86.5598},{"zip":"35079","city":"Hayden","state":"AL","lat":33.9534,"long":-86.7455},{"zip":"35097","city":"Locust Fork","state":"AL","lat":33.905,"long":-86.6261},{"zip":"35045","city":"Clanton","state":"AL","lat":32.8355,"long":-86.6425},{"zip":"35046","city":"Clanton","state":"AL","lat":32.9229,"long":-86.545},{"zip":"35085","city":"Jemison","state":"AL","lat":32.9805,"long":-86.7181},{"zip":"35082","city":"Hollins","state":"AL","lat":33.1162,"long":-86.1386},{"zip":"35072","city":"Goodwater","state":"AL","lat":33.0746,"long":-86.0781},{"zip":"35089","city":"Kellyton","state":"AL","lat":32.9791,"long":-86.0484},{"zip":"35019","city":"Baileyton","state":"AL","lat":34.2683,"long":-86.6213},{"zip":"35033","city":"Bremen","state":"AL","lat":33.9737,"long":-87.0043},{"zip":"35053","city":"Crane Hill","state":"AL","lat":34.0821,"long":-87.0484},{"zip":"35055","city":"Cullman","state":"AL","lat":34.1761,"long":-86.8298},{"zip":"35056","city":"Cullman","state":"AL","lat":34.1748,"long":-86.8436},{"zip":"35057","city":"Cullman","state":"AL","lat":34.0878,"long":-86.9447},{"zip":"35058","city":"Cullman","state":"AL","lat":34.2098,"long":-86.752},{"zip":"35070","city":"Garden City","state":"AL","lat":34.0058,"long":-86.7499},{"zip":"35077","city":"Hanceville","state":"AL","lat":34.0516,"long":-86.7848},{"zip":"35083","city":"Holly Pond","state":"AL","lat":34.1901,"long":-86.6174},{"zip":"35087","city":"Joppa","state":"AL","lat":34.2837,"long":-86.5519},{"zip":"35098","city":"Logan","state":"AL","lat":34.1377,"long":-87.0266},{"zip":"35005","city":"Adamsville","state":"AL","lat":33.5884,"long":-86.9597},{"zip":"35006","city":"Adger","state":"AL","lat":33.4343,"long":-87.1675},{"zip":"35015","city":"Alton","state":"AL","lat":33.5793,"long":-86.6375},{"zip":"35020","city":"Bessemer","state":"AL","lat":33.409,"long":-86.9475},{"zip":"35021","city":"Bessemer","state":"AL","lat":33.5446,"long":-86.9292},{"zip":"35022","city":"Bessemer","state":"AL","lat":33.3224,"long":-86.9657},{"zip":"35023","city":"Bessemer","state":"AL","lat":33.468,"long":-87.0924},{"zip":"35036","city":"Brookside","state":"AL","lat":33.6379,"long":-86.9167},{"zip":"35048","city":"Clay","state":"AL","lat":33.7026,"long":-86.5997},{"zip":"35060","city":"Docena","state":"AL","lat":33.5589,"long":-86.9294},{"zip":"35061","city":"Dolomite","state":"AL","lat":33.4654,"long":-86.9564},{"zip":"35064","city":"Fairfield","state":"AL","lat":33.4735,"long":-86.9183},{"zip":"35068","city":"Fultondale","state":"AL","lat":33.6017,"long":-86.8265},{"zip":"35071","city":"Gardendale","state":"AL","lat":33.7189,"long":-86.8225},{"zip":"35073","city":"Graysville","state":"AL","lat":33.6539,"long":-86.9803},{"zip":"35091","city":"Kimberly","state":"AL","lat":33.7684,"long":-86.8084},{"zip":"35094","city":"Leeds","state":"AL","lat":33.5283,"long":-86.5748},{"zip":"35016","city":"Arab","state":"AL","lat":34.3283,"long":-86.4896},{"zip":"35004","city":"Moody","state":"AL","lat":33.6035,"long":-86.4668},{"zip":"35052","city":"Cook Springs","state":"AL","lat":33.5895,"long":-86.3923},{"zip":"35054","city":"Cropwell","state":"AL","lat":33.5296,"long":-86.3007},{"zip":"35007","city":"Alabaster","state":"AL","lat":33.1934,"long":-86.7944},{"zip":"35040","city":"Calera","state":"AL","lat":33.1098,"long":-86.756},{"zip":"35043","city":"Chelsea","state":"AL","lat":33.2982,"long":-86.6563},{"zip":"35051","city":"Columbiana","state":"AL","lat":33.177,"long":-86.6161},{"zip":"35078","city":"Harpersville","state":"AL","lat":33.3234,"long":-86.4424},{"zip":"35080","city":"Helena","state":"AL","lat":33.2663,"long":-86.902},{"zip":"35014","city":"Alpine","state":"AL","lat":33.404,"long":-86.2339},{"zip":"35032","city":"Bon Air","state":"AL","lat":33.2649,"long":-86.3364},{"zip":"35044","city":"Childersburg","state":"AL","lat":33.2459,"long":-86.3641},{"zip":"35096","city":"Lincoln","state":"AL","lat":33.6059,"long":-86.1112},{"zip":"35010","city":"Alexander City","state":"AL","lat":32.9164,"long":-85.9368},{"zip":"35011","city":"Alexander City","state":"AL","lat":32.9902,"long":-85.958},{"zip":"35038","city":"Burnwell","state":"AL","lat":33.7079,"long":-87.0875},{"zip":"35062","city":"Dora","state":"AL","lat":33.7357,"long":-87.0546},{"zip":"35063","city":"Empire","state":"AL","lat":33.8256,"long":-87.0161}]
