[{"zip":"35184","city":"West Blocton","state":"AL","lat":33.1424,"long":-87.1369},{"zip":"35188","city":"Woodstock","state":"AL","lat":33.2068,"long":-87.15},{"zip":"35121","city":"Oneonta","state":"AL","lat":33.9259,"long":-86.4741},{"zip":"35133","city":"Remlap","state":"AL","lat":33.8168,"long":-86.6008},{"zip":"35171","city":"Thorsby","state":"AL","lat":32.9157,"long":-86.7158},{"zip":"35136","city":"Rockford","state":"AL","lat":32.878,"long":-86.24},{"zip":"35183","city":"Weogufka","state":"AL","lat":33.0238,"long":-86.3042},{"zip":"35179","city":"Vinemont","state":"AL","lat":34.2621,"long":-86.9125},{"zip":"35111","city":"Mc Calla","state":"AL","lat":33.2845,"long":-87.1024},{"zip":"35116","city":"Morris","state":"AL","lat":33.7392,"long":-86.7726},{"zip":"35117","city":"Mount Olive","state":"AL","lat":33.6768,"long":-86.8717},{"zip":"35118","city":"Mulga","state":"AL","lat":33.5363,"long":-87.051},{"zip":"35119","city":"New Castle","state":"AL","lat":33.649,"long":-86.7686},{"zip":"35123","city":"Palmerdale","state":"AL","lat":33.7387,"long":-86.6461},{"zip":"35126","city":"Pinson","state":"AL","lat":33.7299,"long":-86.6451},{"zip":"35127","city":"Pleasant Grove","state":"AL","lat":33.4883,"long":-86.9766},{"zip":"35139","city":"Sayre","state":"AL","lat":33.7111,"long":-86.9759},{"zip":"35142","city":"Shannon","state":"AL","lat":33.4069,"long":-86.8735},{"zip":"35172","city":"Trafford","state":"AL","lat":33.819,"long":-86.7434},{"zip":"35173","city":"Trussville","state":"AL","lat":33.6339,"long":-86.5981},{"zip":"35180","city":"Warrior","state":"AL","lat":33.8529,"long":-86.8198},{"zip":"35181","city":"Watson","state":"AL","lat":33.5446,"long":-86.9292},{"zip":"35175","city":"Union Grove","state":"AL","lat":34.4093,"long":-86.4628},{"zip":"35112","city":"Margaret","state":"AL","lat":33.6862,"long":-86.475},{"zip":"35120","city":"Odenville","state":"AL","lat":33.6756,"long":-86.409},{"zip":"35125","city":"Pell City","state":"AL","lat":33.5979,"long":-86.3432},{"zip":"35128","city":"Pell City","state":"AL","lat":33.5873,"long":-86.3366},{"zip":"35131","city":"Ragland","state":"AL","lat":33.7367,"long":-86.1619},{"zip":"35135","city":"Riverside","state":"AL","lat":33.6166,"long":-86.1996},{"zip":"35146","city":"Springville","state":"AL","lat":33.7386,"long":-86.4394},{"zip":"35182","city":"Wattsville","state":"AL","lat":33.7068,"long":-86.2567},{"zip":"35114","city":"Maylene","state":"AL","lat":33.2317,"long":-86.8727},{"zip":"35115","city":"Montevallo","state":"AL","lat":33.1248,"long":-86.8622},{"zip":"35124","city":"Pelham","state":"AL","lat":33.2932,"long":-86.768},{"zip":"35137","city":"Saginaw","state":"AL","lat":33.2063,"long":-86.7812},{"zip":"35143","city":"Shelby","state":"AL","lat":33.0785,"long":-86.5536},{"zip":"35144","city":"Siluria","state":"AL","lat":33.2293,"long":-86.825},{"zip":"35147","city":"Sterrett","state":"AL","lat":33.4461,"long":-86.4917},{"zip":"35176","city":"Vandiver","state":"AL","lat":33.4807,"long":-86.5013},{"zip":"35178","city":"Vincent","state":"AL","lat":33.401,"long":-86.3994},{"zip":"35185","city":"Westover","state":"AL","lat":33.3356,"long":-86.5437},{"zip":"35186","city":"Wilsonville","state":"AL","lat":33.2293,"long":-86.5299},{"zip":"35187","city":"Wilton","state":"AL","lat":33.081,"long":-86.8793},{"zip":"35149","city":"Sycamore","state":"AL","lat":33.2512,"long":-86.2025},{"zip":"35150","city":"Sylacauga","state":"AL","lat":33.1717,"long":-86.2713},{"zip":"35151","city":"Sylacauga","state":"AL","lat":33.1756,"long":-86.3574},{"zip":"35160","city":"Talladega","state":"AL","lat":33.4354,"long":-86.1134},{"zip":"35161","city":"Talladega","state":"AL","lat":33.4202,"long":-86.1028},{"zip":"35130","city":"Quinton","state":"AL","lat":33.6561,"long":-87.1007},{"zip":"35148","city":"Sumiton","state":"AL","lat":33.768,"long":-87.0445}]
