[{"zip":"35443","city":"Boligee","state":"AL","lat":32.7746,"long":-88.0267},{"zip":"35448","city":"Clinton","state":"AL","lat":32.9137,"long":-87.9925},{"zip":"35462","city":"Eutaw","state":"AL","lat":32.8889,"long":-87.9303},{"zip":"35469","city":"Knoxville","state":"AL","lat":32.9824,"long":-87.7919},{"zip":"35491","city":"West Greene","state":"AL","lat":32.9237,"long":-88.0853},{"zip":"35441","city":"Akron","state":"AL","lat":32.8553,"long":-87.7219},{"zip":"35474","city":"Moundville","state":"AL","lat":32.9108,"long":-87.5935},{"zip":"35442","city":"Aliceville","state":"AL","lat":33.1228,"long":-88.1667},{"zip":"35447","city":"Carrollton","state":"AL","lat":33.2485,"long":-88.1321},{"zip":"35461","city":"Ethelsville","state":"AL","lat":33.4157,"long":-88.2167},{"zip":"35466","city":"Gordo","state":"AL","lat":33.3469,"long":-87.9005},{"zip":"35471","city":"Mc Shan","state":"AL","lat":33.2626,"long":-88.0885},{"zip":"35481","city":"Reform","state":"AL","lat":33.3959,"long":-88.0203},{"zip":"35459","city":"Emelle","state":"AL","lat":32.755,"long":-88.3057},{"zip":"35460","city":"Epes","state":"AL","lat":32.672,"long":-88.1206},{"zip":"35464","city":"Gainesville","state":"AL","lat":32.821,"long":-88.1589},{"zip":"35470","city":"Livingston","state":"AL","lat":32.5843,"long":-88.1872},{"zip":"35477","city":"Panola","state":"AL","lat":32.8726,"long":-88.2374},{"zip":"35401","city":"Tuscaloosa","state":"AL","lat":33.1969,"long":-87.5627},{"zip":"35402","city":"Tuscaloosa","state":"AL","lat":33.3066,"long":-87.4532},{"zip":"35403","city":"Tuscaloosa","state":"AL","lat":33.2045,"long":-87.527},{"zip":"35404","city":"Tuscaloosa","state":"AL","lat":33.1826,"long":-87.4827},{"zip":"35405","city":"Tuscaloosa","state":"AL","lat":33.1617,"long":-87.5144},{"zip":"35406","city":"Tuscaloosa","state":"AL","lat":33.2722,"long":-87.536},{"zip":"35407","city":"Tuscaloosa","state":"AL","lat":33.3066,"long":-87.4532},{"zip":"35440","city":"Abernant","state":"AL","lat":33.311,"long":-87.1898},{"zip":"35444","city":"Brookwood","state":"AL","lat":33.2775,"long":-87.309},{"zip":"35446","city":"Buhl","state":"AL","lat":33.2306,"long":-87.7547},{"zip":"35449","city":"Coaling","state":"AL","lat":33.1359,"long":-87.3384},{"zip":"35452","city":"Coker","state":"AL","lat":33.2934,"long":-87.6888},{"zip":"35453","city":"Cottondale","state":"AL","lat":33.1767,"long":-87.3871},{"zip":"35456","city":"Duncanville","state":"AL","lat":33.0618,"long":-87.4422},{"zip":"35457","city":"Echola","state":"AL","lat":33.294,"long":-87.7766},{"zip":"35458","city":"Elrod","state":"AL","lat":33.2562,"long":-87.7922},{"zip":"35463","city":"Fosters","state":"AL","lat":33.0843,"long":-87.6975},{"zip":"35468","city":"Kellerman","state":"AL","lat":33.3407,"long":-87.3047},{"zip":"35473","city":"Northport","state":"AL","lat":33.2723,"long":-87.5825},{"zip":"35475","city":"Northport","state":"AL","lat":33.3992,"long":-87.5599},{"zip":"35476","city":"Northport","state":"AL","lat":33.2273,"long":-87.5943},{"zip":"35478","city":"Peterson","state":"AL","lat":33.3066,"long":-87.4532},{"zip":"35480","city":"Ralph","state":"AL","lat":33.1274,"long":-87.7624},{"zip":"35482","city":"Samantha","state":"AL","lat":33.3066,"long":-87.4532},{"zip":"35486","city":"Tuscaloosa","state":"AL","lat":33.2098,"long":-87.5692},{"zip":"35487","city":"Tuscaloosa","state":"AL","lat":33.3072,"long":-87.5859},{"zip":"35490","city":"Vance","state":"AL","lat":33.175,"long":-87.2574}]
