[{"zip":"35542","city":"Bankston","state":"AL","lat":33.7008,"long":-87.6897},{"zip":"35545","city":"Belk","state":"AL","lat":33.6476,"long":-87.9314},{"zip":"35546","city":"Berry","state":"AL","lat":33.6945,"long":-87.6226},{"zip":"35555","city":"Fayette","state":"AL","lat":33.6974,"long":-87.8346},{"zip":"35559","city":"Glen Allen","state":"AL","lat":33.8896,"long":-87.6964},{"zip":"35571","city":"Hodges","state":"AL","lat":34.3417,"long":-87.959},{"zip":"35581","city":"Phil Campbell","state":"AL","lat":34.347,"long":-87.7154},{"zip":"35582","city":"Red Bay","state":"AL","lat":34.4513,"long":-88.1129},{"zip":"35585","city":"Spruce Pine","state":"AL","lat":34.4246,"long":-87.8145},{"zip":"35593","city":"Vina","state":"AL","lat":34.3712,"long":-88.0774},{"zip":"35544","city":"Beaverton","state":"AL","lat":33.9429,"long":-88.0157},{"zip":"35552","city":"Detroit","state":"AL","lat":34.0282,"long":-88.17},{"zip":"35574","city":"Kennedy","state":"AL","lat":33.6153,"long":-87.9948},{"zip":"35576","city":"Millport","state":"AL","lat":33.5401,"long":-88.2},{"zip":"35586","city":"Sulligent","state":"AL","lat":33.8549,"long":-88.1508},{"zip":"35592","city":"Vernon","state":"AL","lat":33.7613,"long":-88.0979},{"zip":"35543","city":"Bear Creek","state":"AL","lat":34.1649,"long":-87.7396},{"zip":"35548","city":"Brilliant","state":"AL","lat":34.0377,"long":-87.7563},{"zip":"35563","city":"Guin","state":"AL","lat":33.9676,"long":-87.9024},{"zip":"35564","city":"Hackleburg","state":"AL","lat":34.2678,"long":-87.8608},{"zip":"35570","city":"Hamilton","state":"AL","lat":34.1534,"long":-88.0085},{"zip":"35594","city":"Winfield","state":"AL","lat":33.9303,"long":-87.7972},{"zip":"35501","city":"Jasper","state":"AL","lat":33.8312,"long":-87.2775},{"zip":"35502","city":"Jasper","state":"AL","lat":33.8312,"long":-87.2775},{"zip":"35503","city":"Jasper","state":"AL","lat":33.9152,"long":-87.3074},{"zip":"35504","city":"Jasper","state":"AL","lat":33.8927,"long":-87.1667},{"zip":"35549","city":"Carbon Hill","state":"AL","lat":33.9093,"long":-87.5403},{"zip":"35550","city":"Cordova","state":"AL","lat":33.768,"long":-87.1841},{"zip":"35554","city":"Eldridge","state":"AL","lat":33.9315,"long":-87.6194},{"zip":"35560","city":"Goodsprings","state":"AL","lat":33.6795,"long":-87.2374},{"zip":"35573","city":"Kansas","state":"AL","lat":33.9018,"long":-87.552},{"zip":"35578","city":"Nauvoo","state":"AL","lat":33.9299,"long":-87.4324},{"zip":"35579","city":"Oakman","state":"AL","lat":33.7002,"long":-87.3686},{"zip":"35580","city":"Parrish","state":"AL","lat":33.7213,"long":-87.2658},{"zip":"35584","city":"Sipsey","state":"AL","lat":33.8201,"long":-87.0779},{"zip":"35587","city":"Townley","state":"AL","lat":33.847,"long":-87.4372},{"zip":"35540","city":"Addison","state":"AL","lat":34.2056,"long":-87.1948},{"zip":"35541","city":"Arley","state":"AL","lat":34.0632,"long":-87.1828},{"zip":"35551","city":"Delmar","state":"AL","lat":34.1701,"long":-87.6059},{"zip":"35553","city":"Double Springs","state":"AL","lat":34.1387,"long":-87.3974},{"zip":"35565","city":"Haleyville","state":"AL","lat":34.2314,"long":-87.5938},{"zip":"35572","city":"Houston","state":"AL","lat":34.118,"long":-87.2618},{"zip":"35575","city":"Lynn","state":"AL","lat":34.053,"long":-87.5398},{"zip":"35577","city":"Natural Bridge","state":"AL","lat":34.0934,"long":-87.6008}]
