[{"zip":"35616","city":"Cherokee","state":"AL","lat":34.7442,"long":-87.9724},{"zip":"35646","city":"Leighton","state":"AL","lat":34.711,"long":-87.5221},{"zip":"35660","city":"Sheffield","state":"AL","lat":34.7578,"long":-87.6971},{"zip":"35661","city":"Muscle Shoals","state":"AL","lat":34.7561,"long":-87.6304},{"zip":"35662","city":"Muscle Shoals","state":"AL","lat":34.7448,"long":-87.6675},{"zip":"35674","city":"Tuscumbia","state":"AL","lat":34.6874,"long":-87.6833},{"zip":"35653","city":"Russellville","state":"AL","lat":34.5066,"long":-87.7257},{"zip":"35654","city":"Russellville","state":"AL","lat":34.4675,"long":-87.6478},{"zip":"35610","city":"Anderson","state":"AL","lat":34.9424,"long":-87.2734},{"zip":"35617","city":"Cloverdale","state":"AL","lat":34.9387,"long":-87.7714},{"zip":"35630","city":"Florence","state":"AL","lat":34.8305,"long":-87.656},{"zip":"35631","city":"Florence","state":"AL","lat":34.87,"long":-87.7069},{"zip":"35632","city":"Florence","state":"AL","lat":34.87,"long":-87.7069},{"zip":"35633","city":"Florence","state":"AL","lat":34.8825,"long":-87.7398},{"zip":"35634","city":"Florence","state":"AL","lat":34.9186,"long":-87.6136},{"zip":"35645","city":"Killen","state":"AL","lat":34.9016,"long":-87.5082},{"zip":"35648","city":"Lexington","state":"AL","lat":34.9559,"long":-87.3935},{"zip":"35652","city":"Rogersville","state":"AL","lat":34.8495,"long":-87.3237},{"zip":"35677","city":"Waterloo","state":"AL","lat":34.9357,"long":-87.9624},{"zip":"35618","city":"Courtland","state":"AL","lat":34.6719,"long":-87.3143},{"zip":"35643","city":"Hillsboro","state":"AL","lat":34.6476,"long":-87.1804},{"zip":"35650","city":"Moulton","state":"AL","lat":34.5058,"long":-87.2224},{"zip":"35651","city":"Mount Hope","state":"AL","lat":34.4793,"long":-87.4769},{"zip":"35672","city":"Town Creek","state":"AL","lat":34.6491,"long":-87.4262},{"zip":"35611","city":"Athens","state":"AL","lat":34.8036,"long":-86.9707},{"zip":"35612","city":"Athens","state":"AL","lat":34.7749,"long":-87.0305},{"zip":"35613","city":"Athens","state":"AL","lat":34.8317,"long":-86.8867},{"zip":"35614","city":"Athens","state":"AL","lat":34.8474,"long":-87.0607},{"zip":"35615","city":"Belle Mina","state":"AL","lat":34.6568,"long":-86.8792},{"zip":"35620","city":"Elkmont","state":"AL","lat":34.929,"long":-86.9739},{"zip":"35647","city":"Lester","state":"AL","lat":34.9596,"long":-87.1006},{"zip":"35649","city":"Mooresville","state":"AL","lat":34.6259,"long":-86.8746},{"zip":"35671","city":"Tanner","state":"AL","lat":34.6796,"long":-86.9625},{"zip":"35601","city":"Decatur","state":"AL","lat":34.5896,"long":-86.9887},{"zip":"35602","city":"Decatur","state":"AL","lat":34.6059,"long":-86.9833},{"zip":"35603","city":"Decatur","state":"AL","lat":34.5484,"long":-87.0004},{"zip":"35609","city":"Decatur","state":"AL","lat":34.6059,"long":-86.9833},{"zip":"35619","city":"Danville","state":"AL","lat":34.3873,"long":-87.1454},{"zip":"35621","city":"Eva","state":"AL","lat":34.3323,"long":-86.7589},{"zip":"35622","city":"Falkville","state":"AL","lat":34.3477,"long":-86.9131},{"zip":"35640","city":"Hartselle","state":"AL","lat":34.4482,"long":-86.9242},{"zip":"35670","city":"Somerville","state":"AL","lat":34.4995,"long":-86.8009},{"zip":"35673","city":"Trinity","state":"AL","lat":34.5918,"long":-87.0913},{"zip":"35699","city":"Decatur","state":"AL","lat":34.6059,"long":-86.9833}]
