[{"zip":"35740","city":"Bridgeport","state":"AL","lat":34.9446,"long":-85.7277},{"zip":"35744","city":"Dutton","state":"AL","lat":34.6046,"long":-85.9067},{"zip":"35745","city":"Estillfork","state":"AL","lat":34.913,"long":-86.1716},{"zip":"35746","city":"Fackler","state":"AL","lat":34.8259,"long":-85.9846},{"zip":"35751","city":"Hollytree","state":"AL","lat":34.7955,"long":-86.2743},{"zip":"35752","city":"Hollywood","state":"AL","lat":34.7304,"long":-85.9532},{"zip":"35755","city":"Langston","state":"AL","lat":34.5001,"long":-86.1353},{"zip":"35764","city":"Paint Rock","state":"AL","lat":34.7031,"long":-86.3068},{"zip":"35765","city":"Pisgah","state":"AL","lat":34.6809,"long":-85.8478},{"zip":"35766","city":"Princeton","state":"AL","lat":34.8713,"long":-86.2513},{"zip":"35768","city":"Scottsboro","state":"AL","lat":34.7507,"long":-86.1422},{"zip":"35769","city":"Scottsboro","state":"AL","lat":34.618,"long":-86.0562},{"zip":"35771","city":"Section","state":"AL","lat":34.5433,"long":-85.994},{"zip":"35772","city":"Stevenson","state":"AL","lat":34.8769,"long":-85.8508},{"zip":"35774","city":"Trenton","state":"AL","lat":34.7632,"long":-86.2295},{"zip":"35776","city":"Woodville","state":"AL","lat":34.6689,"long":-86.2296},{"zip":"35739","city":"Ardmore","state":"AL","lat":34.9804,"long":-86.8346},{"zip":"35742","city":"Capshaw","state":"AL","lat":34.7731,"long":-86.7928},{"zip":"35741","city":"Brownsboro","state":"AL","lat":34.7167,"long":-86.4687},{"zip":"35748","city":"Gurley","state":"AL","lat":34.714,"long":-86.394},{"zip":"35749","city":"Harvest","state":"AL","lat":34.8273,"long":-86.7499},{"zip":"35750","city":"Hazel Green","state":"AL","lat":34.9496,"long":-86.5935},{"zip":"35756","city":"Madison","state":"AL","lat":34.643,"long":-86.8168},{"zip":"35757","city":"Madison","state":"AL","lat":34.7782,"long":-86.7442},{"zip":"35758","city":"Madison","state":"AL","lat":34.7108,"long":-86.7425},{"zip":"35759","city":"Meridianville","state":"AL","lat":34.8618,"long":-86.5789},{"zip":"35760","city":"New Hope","state":"AL","lat":34.5494,"long":-86.3961},{"zip":"35761","city":"New Market","state":"AL","lat":34.9,"long":-86.4487},{"zip":"35762","city":"Normal","state":"AL","lat":34.789,"long":-86.5719},{"zip":"35763","city":"Owens Cross Roads","state":"AL","lat":34.6215,"long":-86.4644},{"zip":"35767","city":"Ryland","state":"AL","lat":34.7698,"long":-86.4808},{"zip":"35773","city":"Toney","state":"AL","lat":34.9116,"long":-86.7},{"zip":"35747","city":"Grant","state":"AL","lat":34.4959,"long":-86.259},{"zip":"35754","city":"Laceys Spring","state":"AL","lat":34.4996,"long":-86.6129},{"zip":"35775","city":"Valhermoso Springs","state":"AL","lat":34.542,"long":-86.6871}]
