[{"zip":"36003","city":"Autaugaville","state":"AL","lat":32.4625,"long":-86.7149},{"zip":"36006","city":"Billingsley","state":"AL","lat":32.6596,"long":-86.7178},{"zip":"36008","city":"Booth","state":"AL","lat":32.5016,"long":-86.5727},{"zip":"36051","city":"Marbury","state":"AL","lat":32.6841,"long":-86.4946},{"zip":"36066","city":"Prattville","state":"AL","lat":32.4787,"long":-86.43},{"zip":"36067","city":"Prattville","state":"AL","lat":32.4715,"long":-86.4831},{"zip":"36068","city":"Prattville","state":"AL","lat":32.464,"long":-86.4597},{"zip":"36749","city":"Jones","state":"AL","lat":32.5104,"long":-86.8138},{"zip":"36507","city":"Bay Minette","state":"AL","lat":30.8635,"long":-87.7644},{"zip":"36511","city":"Bon Secour","state":"AL","lat":30.3128,"long":-87.7431},{"zip":"36526","city":"Daphne","state":"AL","lat":30.6197,"long":-87.8895},{"zip":"36527","city":"Spanish Fort","state":"AL","lat":30.6959,"long":-87.8867},{"zip":"36530","city":"Elberta","state":"AL","lat":30.3942,"long":-87.589},{"zip":"36532","city":"Fairhope","state":"AL","lat":30.5012,"long":-87.8835},{"zip":"36533","city":"Fairhope","state":"AL","lat":30.4841,"long":-87.8606},{"zip":"36535","city":"Foley","state":"AL","lat":30.4007,"long":-87.6857},{"zip":"36536","city":"Foley","state":"AL","lat":30.4222,"long":-87.7064},{"zip":"36542","city":"Gulf Shores","state":"AL","lat":30.2717,"long":-87.7589},{"zip":"36547","city":"Gulf Shores","state":"AL","lat":30.246,"long":-87.7008},{"zip":"36549","city":"Lillian","state":"AL","lat":30.3972,"long":-87.4745},{"zip":"36550","city":"Little River","state":"AL","lat":31.2246,"long":-87.7548},{"zip":"36551","city":"Loxley","state":"AL","lat":30.618,"long":-87.7562},{"zip":"36555","city":"Magnolia Springs","state":"AL","lat":30.3996,"long":-87.7761},{"zip":"36559","city":"Montrose","state":"AL","lat":30.5623,"long":-87.9005},{"zip":"36561","city":"Orange Beach","state":"AL","lat":30.281,"long":-87.5815},{"zip":"36562","city":"Perdido","state":"AL","lat":31.0403,"long":-87.6667},{"zip":"36564","city":"Point Clear","state":"AL","lat":30.4741,"long":-87.9192},{"zip":"36567","city":"Robertsdale","state":"AL","lat":30.5616,"long":-87.6373},{"zip":"36574","city":"Seminole","state":"AL","lat":30.5048,"long":-87.4659},{"zip":"36576","city":"Silverhill","state":"AL","lat":30.5222,"long":-87.7457},{"zip":"36577","city":"Spanish Fort","state":"AL","lat":30.6749,"long":-87.9153},{"zip":"36578","city":"Stapleton","state":"AL","lat":30.7476,"long":-87.7787},{"zip":"36579","city":"Stockton","state":"AL","lat":31.0129,"long":-87.8633},{"zip":"36580","city":"Summerdale","state":"AL","lat":30.4752,"long":-87.6992},{"zip":"36016","city":"Clayton","state":"AL","lat":31.8874,"long":-85.4509},{"zip":"36017","city":"Clio","state":"AL","lat":31.6852,"long":-85.5904},{"zip":"36027","city":"Eufaula","state":"AL","lat":31.9051,"long":-85.1656},{"zip":"36048","city":"Louisville","state":"AL","lat":31.7943,"long":-85.5581},{"zip":"36072","city":"Eufaula","state":"AL","lat":31.8913,"long":-85.1455},{"zip":"36792","city":"Randolph","state":"AL","lat":32.8888,"long":-86.907},{"zip":"36793","city":"Lawley","state":"AL","lat":32.8646,"long":-86.9567},{"zip":"36029","city":"Fitzpatrick","state":"AL","lat":32.2165,"long":-85.8888},{"zip":"36053","city":"Midway","state":"AL","lat":32.0955,"long":-85.5315},{"zip":"36061","city":"Perote","state":"AL","lat":32.0928,"long":-85.7046},{"zip":"36089","city":"Union Springs","state":"AL","lat":32.1443,"long":-85.7149},{"zip":"36015","city":"Chapman","state":"AL","lat":31.6427,"long":-86.7343},{"zip":"36030","city":"Forest Home","state":"AL","lat":31.8501,"long":-86.8372},{"zip":"36033","city":"Georgiana","state":"AL","lat":31.6287,"long":-86.734},{"zip":"36037","city":"Greenville","state":"AL","lat":31.81,"long":-86.6229},{"zip":"36456","city":"Mc Kenzie","state":"AL","lat":31.545,"long":-86.7356},{"zip":"36201","city":"Anniston","state":"AL","lat":33.6539,"long":-85.8382},{"zip":"36202","city":"Anniston","state":"AL","lat":33.7622,"long":-85.8378},{"zip":"36203","city":"Oxford","state":"AL","lat":33.5815,"long":-85.8328},{"zip":"36204","city":"Anniston","state":"AL","lat":33.7622,"long":-85.8378},{"zip":"36205","city":"Anniston","state":"AL","lat":33.7358,"long":-85.7933},{"zip":"36206","city":"Anniston","state":"AL","lat":33.7191,"long":-85.8389},{"zip":"36207","city":"Anniston","state":"AL","lat":33.6803,"long":-85.7137},{"zip":"36250","city":"Alexandria","state":"AL","lat":33.7808,"long":-85.8924},{"zip":"36253","city":"Bynum","state":"AL","lat":33.7622,"long":-85.8378},{"zip":"36254","city":"Choccolocco","state":"AL","lat":33.6573,"long":-85.6991},{"zip":"36257","city":"De Armanville","state":"AL","lat":33.7622,"long":-85.8378},{"zip":"36260","city":"Eastaboga","state":"AL","lat":33.6031,"long":-85.9608},{"zip":"36265","city":"Jacksonville","state":"AL","lat":33.831,"long":-85.7752},{"zip":"36271","city":"Ohatchee","state":"AL","lat":33.7788,"long":-86.0254},{"zip":"36272","city":"Piedmont","state":"AL","lat":33.8389,"long":-85.646},{"zip":"36277","city":"Weaver","state":"AL","lat":33.7563,"long":-85.8107},{"zip":"36279","city":"Wellington","state":"AL","lat":33.8226,"long":-85.8927},{"zip":"36852","city":"Cusseta","state":"AL","lat":32.7831,"long":-85.2756},{"zip":"36854","city":"Valley","state":"AL","lat":32.8113,"long":-85.1749},{"zip":"36855","city":"Five Points","state":"AL","lat":33.0424,"long":-85.3243},{"zip":"36862","city":"Lafayette","state":"AL","lat":32.9252,"long":-85.4426},{"zip":"36863","city":"Lanett","state":"AL","lat":32.8616,"long":-85.2161},{"zip":"36275","city":"Spring Garden","state":"AL","lat":33.9778,"long":-85.5521},{"zip":"36091","city":"Verbena","state":"AL","lat":32.7499,"long":-86.5114},{"zip":"36750","city":"Maplesville","state":"AL","lat":32.8045,"long":-86.8717},{"zip":"36790","city":"Stanton","state":"AL","lat":32.7332,"long":-86.8963},{"zip":"36904","city":"Butler","state":"AL","lat":32.0829,"long":-88.2064},{"zip":"36908","city":"Gilbertown","state":"AL","lat":31.8666,"long":-88.3265},{"zip":"36910","city":"Jachin","state":"AL","lat":32.0042,"long":-88.2007},{"zip":"36912","city":"Lisman","state":"AL","lat":32.2177,"long":-88.3234},{"zip":"36913","city":"Melvin","state":"AL","lat":32.0042,"long":-88.2007},{"zip":"36915","city":"Needham","state":"AL","lat":31.9879,"long":-88.3367},{"zip":"36916","city":"Pennington","state":"AL","lat":32.2094,"long":-88.049},{"zip":"36919","city":"Silas","state":"AL","lat":31.7668,"long":-88.3091},{"zip":"36921","city":"Toxey","state":"AL","lat":31.9155,"long":-88.151},{"zip":"36922","city":"Ward","state":"AL","lat":32.3038,"long":-88.1476},{"zip":"36436","city":"Dickinson","state":"AL","lat":31.7635,"long":-87.7106},{"zip":"36446","city":"Fulton","state":"AL","lat":31.7925,"long":-87.72},{"zip":"36451","city":"Grove Hill","state":"AL","lat":31.7088,"long":-87.7772},{"zip":"36482","city":"Whatley","state":"AL","lat":31.6395,"long":-87.6565},{"zip":"36524","city":"Coffeeville","state":"AL","lat":31.7843,"long":-88.0715},{"zip":"36540","city":"Gainestown","state":"AL","lat":31.4258,"long":-87.6822},{"zip":"36545","city":"Jackson","state":"AL","lat":31.5131,"long":-87.8672},{"zip":"36727","city":"Campbell","state":"AL","lat":31.9213,"long":-88.008},{"zip":"36784","city":"Thomasville","state":"AL","lat":31.9067,"long":-87.7598},{"zip":"36251","city":"Ashland","state":"AL","lat":33.2474,"long":-85.829},{"zip":"36255","city":"Cragford","state":"AL","lat":33.2171,"long":-85.7108},{"zip":"36258","city":"Delta","state":"AL","lat":33.4573,"long":-85.6793},{"zip":"36266","city":"Lineville","state":"AL","lat":33.3286,"long":-85.7346},{"zip":"36267","city":"Millerville","state":"AL","lat":33.1808,"long":-85.9418},{"zip":"36261","city":"Edwardsville","state":"AL","lat":33.7066,"long":-85.5099},{"zip":"36262","city":"Fruithurst","state":"AL","lat":33.7717,"long":-85.4381},{"zip":"36264","city":"Heflin","state":"AL","lat":33.6115,"long":-85.5885},{"zip":"36269","city":"Muscadine","state":"AL","lat":33.7529,"long":-85.3789},{"zip":"36273","city":"Ranburne","state":"AL","lat":33.5616,"long":-85.3786},{"zip":"36323","city":"Elba","state":"AL","lat":31.4137,"long":-86.0777},{"zip":"36330","city":"Enterprise","state":"AL","lat":31.3408,"long":-85.8421},{"zip":"36331","city":"Enterprise","state":"AL","lat":31.2978,"long":-85.9036},{"zip":"36346","city":"Jack","state":"AL","lat":31.5652,"long":-85.971},{"zip":"36351","city":"New Brockton","state":"AL","lat":31.369,"long":-85.9404},{"zip":"36453","city":"Kinston","state":"AL","lat":31.1926,"long":-86.1514},{"zip":"36401","city":"Evergreen","state":"AL","lat":31.458,"long":-86.9258},{"zip":"36429","city":"Brooklyn","state":"AL","lat":31.2627,"long":-86.7711},{"zip":"36432","city":"Castleberry","state":"AL","lat":31.2991,"long":-87.0225},{"zip":"36454","city":"Lenox","state":"AL","lat":31.3366,"long":-87.1855},{"zip":"36473","city":"Range","state":"AL","lat":31.3058,"long":-87.2137},{"zip":"36475","city":"Repton","state":"AL","lat":31.4256,"long":-87.172},{"zip":"36026","city":"Equality","state":"AL","lat":32.8139,"long":-86.1051},{"zip":"36038","city":"Gantt","state":"AL","lat":31.2609,"long":-86.4448},{"zip":"36420","city":"Andalusia","state":"AL","lat":31.2971,"long":-86.4905},{"zip":"36442","city":"Florala","state":"AL","lat":31.0172,"long":-86.3385},{"zip":"36455","city":"Lockhart","state":"AL","lat":31.0105,"long":-86.3497},{"zip":"36467","city":"Opp","state":"AL","lat":31.2799,"long":-86.2571},{"zip":"36474","city":"Red Level","state":"AL","lat":31.4399,"long":-86.6121},{"zip":"36476","city":"River Falls","state":"AL","lat":31.2609,"long":-86.4448},{"zip":"36483","city":"Wing","state":"AL","lat":31.0223,"long":-86.6293},{"zip":"36009","city":"Brantley","state":"AL","lat":31.571,"long":-86.2743},{"zip":"36028","city":"Dozier","state":"AL","lat":31.5066,"long":-86.3663},{"zip":"36034","city":"Glenwood","state":"AL","lat":31.6641,"long":-86.171},{"zip":"36041","city":"Highland Home","state":"AL","lat":31.9283,"long":-86.2971},{"zip":"36042","city":"Honoraville","state":"AL","lat":31.8784,"long":-86.3981},{"zip":"36049","city":"Luverne","state":"AL","lat":31.7074,"long":-86.2566},{"zip":"36062","city":"Petrey","state":"AL","lat":31.8488,"long":-86.2077},{"zip":"36071","city":"Rutledge","state":"AL","lat":31.7062,"long":-86.3715},{"zip":"36311","city":"Ariton","state":"AL","lat":31.583,"long":-85.7077},{"zip":"36317","city":"Clopton","state":"AL","lat":31.6446,"long":-85.3911},{"zip":"36322","city":"Daleville","state":"AL","lat":31.2811,"long":-85.7305},{"zip":"36350","city":"Midland City","state":"AL","lat":31.3191,"long":-85.4938},{"zip":"36352","city":"Newton","state":"AL","lat":31.3311,"long":-85.5992},{"zip":"36360","city":"Ozark","state":"AL","lat":31.4391,"long":-85.6436},{"zip":"36361","city":"Ozark","state":"AL","lat":31.4591,"long":-85.6405},{"zip":"36362","city":"Fort Rucker","state":"AL","lat":31.348,"long":-85.7214},{"zip":"36371","city":"Pinckard","state":"AL","lat":31.3074,"long":-85.5263},{"zip":"36374","city":"Skipperville","state":"AL","lat":31.5748,"long":-85.537},{"zip":"36701","city":"Selma","state":"AL","lat":32.4197,"long":-87.0245},{"zip":"36702","city":"Selma","state":"AL","lat":32.4074,"long":-87.0211},{"zip":"36703","city":"Selma","state":"AL","lat":32.4156,"long":-87.0135},{"zip":"36758","city":"Plantersville","state":"AL","lat":32.6176,"long":-86.9475},{"zip":"36759","city":"Marion Junction","state":"AL","lat":32.4266,"long":-87.2702},{"zip":"36761","city":"Minter","state":"AL","lat":32.1899,"long":-87.0633},{"zip":"36767","city":"Orrville","state":"AL","lat":32.2949,"long":-87.2214},{"zip":"36773","city":"Safford","state":"AL","lat":32.3002,"long":-87.3693},{"zip":"36775","city":"Sardis","state":"AL","lat":32.2844,"long":-86.992},{"zip":"36785","city":"Tyler","state":"AL","lat":32.3239,"long":-86.8646},{"zip":"36020","city":"Coosada","state":"AL","lat":32.5056,"long":-86.3322},{"zip":"36022","city":"Deatsville","state":"AL","lat":32.6082,"long":-86.3958},{"zip":"36024","city":"Eclectic","state":"AL","lat":32.6542,"long":-86.0316},{"zip":"36025","city":"Elmore","state":"AL","lat":32.5454,"long":-86.3161},{"zip":"36045","city":"Kent","state":"AL","lat":32.619,"long":-85.9486},{"zip":"36054","city":"Millbrook","state":"AL","lat":32.4995,"long":-86.3641},{"zip":"36078","city":"Tallassee","state":"AL","lat":32.551,"long":-85.8978},{"zip":"36080","city":"Titus","state":"AL","lat":32.69,"long":-86.2393},{"zip":"36092","city":"Wetumpka","state":"AL","lat":32.5927,"long":-86.2153},{"zip":"36093","city":"Wetumpka","state":"AL","lat":32.5622,"long":-86.0994},{"zip":"36426","city":"Brewton","state":"AL","lat":31.1294,"long":-87.0961},{"zip":"36427","city":"Brewton","state":"AL","lat":31.1052,"long":-87.0722},{"zip":"36441","city":"Flomaton","state":"AL","lat":31.0402,"long":-87.2664},{"zip":"36502","city":"Atmore","state":"AL","lat":31.0572,"long":-87.4873},{"zip":"36503","city":"Atmore","state":"AL","lat":31.0238,"long":-87.4939},{"zip":"36504","city":"Atmore","state":"AL","lat":31.0158,"long":-87.4972},{"zip":"36543","city":"Huxford","state":"AL","lat":31.2202,"long":-87.4619},{"zip":"36313","city":"Bellwood","state":"AL","lat":31.1732,"long":-85.7933},{"zip":"36314","city":"Black","state":"AL","lat":31.0132,"long":-85.7456},{"zip":"36316","city":"Chancellor","state":"AL","lat":31.1767,"long":-85.8135},{"zip":"36318","city":"Coffee Springs","state":"AL","lat":31.1388,"long":-85.9182},{"zip":"36340","city":"Geneva","state":"AL","lat":31.0414,"long":-85.8847},{"zip":"36344","city":"Hartford","state":"AL","lat":31.086,"long":-85.7192},{"zip":"36349","city":"Malvern","state":"AL","lat":31.1212,"long":-85.5592},{"zip":"36375","city":"Slocomb","state":"AL","lat":31.0956,"long":-85.583},{"zip":"36477","city":"Samson","state":"AL","lat":31.1049,"long":-86.0674},{"zip":"36740","city":"Forkland","state":"AL","lat":32.6108,"long":-87.8441},{"zip":"36742","city":"Gallion","state":"AL","lat":32.5298,"long":-87.6985},{"zip":"36744","city":"Greensboro","state":"AL","lat":32.7167,"long":-87.5905},{"zip":"36765","city":"Newbern","state":"AL","lat":32.5515,"long":-87.5615},{"zip":"36776","city":"Sawyerville","state":"AL","lat":32.7578,"long":-87.7402},{"zip":"36310","city":"Abbeville","state":"AL","lat":31.5755,"long":-85.279},{"zip":"36345","city":"Headland","state":"AL","lat":31.3534,"long":-85.3323},{"zip":"36353","city":"Newville","state":"AL","lat":31.4403,"long":-85.3287},{"zip":"36373","city":"Shorterville","state":"AL","lat":31.501,"long":-85.1135},{"zip":"36301","city":"Dothan","state":"AL","lat":31.1481,"long":-85.3718},{"zip":"36302","city":"Dothan","state":"AL","lat":31.2232,"long":-85.3905},{"zip":"36303","city":"Dothan","state":"AL","lat":31.2668,"long":-85.3971},{"zip":"36304","city":"Dothan","state":"AL","lat":31.156,"long":-85.3559},{"zip":"36305","city":"Dothan","state":"AL","lat":31.2197,"long":-85.4828},{"zip":"36312","city":"Ashford","state":"AL","lat":31.1888,"long":-85.2535},{"zip":"36319","city":"Columbia","state":"AL","lat":31.3352,"long":-85.1455},{"zip":"36320","city":"Cottonwood","state":"AL","lat":31.0507,"long":-85.3154},{"zip":"36321","city":"Cowarts","state":"AL","lat":31.2025,"long":-85.3014},{"zip":"36343","city":"Gordon","state":"AL","lat":31.1002,"long":-85.1234},{"zip":"36370","city":"Pansey","state":"AL","lat":31.1403,"long":-85.1573},{"zip":"36376","city":"Webb","state":"AL","lat":31.2656,"long":-85.2544},{"zip":"36801","city":"Opelika","state":"AL","lat":32.6454,"long":-85.3783},{"zip":"36802","city":"Opelika","state":"AL","lat":32.5782,"long":-85.349},{"zip":"36803","city":"Opelika","state":"AL","lat":32.6454,"long":-85.3783},{"zip":"36804","city":"Opelika","state":"AL","lat":32.5768,"long":-85.312},{"zip":"36830","city":"Auburn","state":"AL","lat":32.5475,"long":-85.4682},{"zip":"36831","city":"Auburn","state":"AL","lat":32.6099,"long":-85.4808},{"zip":"36832","city":"Auburn","state":"AL","lat":32.592,"long":-85.5189},{"zip":"36849","city":"Auburn University","state":"AL","lat":32.6024,"long":-85.4873},{"zip":"36865","city":"Loachapoka","state":"AL","lat":32.6043,"long":-85.5933},{"zip":"36872","city":"Valley","state":"AL","lat":32.5782,"long":-85.349},{"zip":"36874","city":"Salem","state":"AL","lat":32.6212,"long":-85.184},{"zip":"36877","city":"Smiths Station","state":"AL","lat":32.5401,"long":-85.0985},{"zip":"36879","city":"Waverly","state":"AL","lat":32.7632,"long":-85.5144},{"zip":"36032","city":"Fort Deposit","state":"AL","lat":31.996,"long":-86.5761},{"zip":"36040","city":"Hayneville","state":"AL","lat":32.1957,"long":-86.655},{"zip":"36047","city":"Letohatchee","state":"AL","lat":32.0862,"long":-86.488},{"zip":"36752","city":"Lowndesboro","state":"AL","lat":32.2943,"long":-86.6471},{"zip":"36031","city":"Fort Davis","state":"AL","lat":32.2507,"long":-85.7524},{"zip":"36039","city":"Hardaway","state":"AL","lat":32.3129,"long":-85.8838},{"zip":"36075","city":"Shorter","state":"AL","lat":32.3836,"long":-85.9162},{"zip":"36083","city":"Tuskegee","state":"AL","lat":32.4316,"long":-85.6861},{"zip":"36087","city":"Tuskegee Institute","state":"AL","lat":32.4093,"long":-85.738},{"zip":"36088","city":"Tuskegee Institute","state":"AL","lat":32.4145,"long":-85.7253},{"zip":"36866","city":"Notasulga","state":"AL","lat":32.5437,"long":-85.6871},{"zip":"36732","city":"Demopolis","state":"AL","lat":32.4908,"long":-87.8397},{"zip":"36736","city":"Dixons Mills","state":"AL","lat":32.0672,"long":-87.7454},{"zip":"36738","city":"Faunsdale","state":"AL","lat":32.4233,"long":-87.6181},{"zip":"36745","city":"Jefferson","state":"AL","lat":32.414,"long":-87.8986},{"zip":"36748","city":"Linden","state":"AL","lat":32.3053,"long":-87.7954},{"zip":"36754","city":"Magnolia","state":"AL","lat":32.1419,"long":-87.6998},{"zip":"36763","city":"Myrtlewood","state":"AL","lat":32.2516,"long":-87.9494},{"zip":"36764","city":"Nanafalia","state":"AL","lat":32.1129,"long":-87.9881},{"zip":"36782","city":"Sweet Water","state":"AL","lat":32.0773,"long":-87.9228},{"zip":"36783","city":"Thomaston","state":"AL","lat":32.2538,"long":-87.5974},{"zip":"36421","city":"Andalusia","state":"AL","lat":31.3247,"long":-86.5067},{"zip":"36505","city":"Axis","state":"AL","lat":30.9394,"long":-88.0159},{"zip":"36509","city":"Bayou La Batre","state":"AL","lat":30.408,"long":-88.2507},{"zip":"36512","city":"Bucks","state":"AL","lat":31.0105,"long":-88.0242},{"zip":"36521","city":"Chunchula","state":"AL","lat":30.9912,"long":-88.1311},{"zip":"36522","city":"Citronelle","state":"AL","lat":31.0425,"long":-88.2549},{"zip":"36523","city":"Coden","state":"AL","lat":30.3903,"long":-88.2076},{"zip":"36525","city":"Creola","state":"AL","lat":30.9013,"long":-88.0174},{"zip":"36528","city":"Dauphin Island","state":"AL","lat":30.2521,"long":-88.1096},{"zip":"36541","city":"Grand Bay","state":"AL","lat":30.4983,"long":-88.3282},{"zip":"36544","city":"Irvington","state":"AL","lat":30.4802,"long":-88.2396},{"zip":"36560","city":"Mount Vernon","state":"AL","lat":31.0974,"long":-88.035},{"zip":"36568","city":"Saint Elmo","state":"AL","lat":30.4943,"long":-88.2699},{"zip":"36571","city":"Saraland","state":"AL","lat":30.8332,"long":-88.0934},{"zip":"36572","city":"Satsuma","state":"AL","lat":30.8516,"long":-88.0533},{"zip":"36575","city":"Semmes","state":"AL","lat":30.7544,"long":-88.2667},{"zip":"36582","city":"Theodore","state":"AL","lat":30.5444,"long":-88.1807},{"zip":"36587","city":"Wilmer","state":"AL","lat":30.8137,"long":-88.3332},{"zip":"36590","city":"Theodore","state":"AL","lat":30.488,"long":-88.2533},{"zip":"36601","city":"Mobile","state":"AL","lat":30.6944,"long":-88.0431},{"zip":"36602","city":"Mobile","state":"AL","lat":30.6888,"long":-88.0453},{"zip":"36603","city":"Mobile","state":"AL","lat":30.6921,"long":-88.0562},{"zip":"36604","city":"Mobile","state":"AL","lat":30.682,"long":-88.0678},{"zip":"36605","city":"Mobile","state":"AL","lat":30.6341,"long":-88.0846},{"zip":"36606","city":"Mobile","state":"AL","lat":30.6729,"long":-88.1009},{"zip":"36607","city":"Mobile","state":"AL","lat":30.6975,"long":-88.1029},{"zip":"36608","city":"Mobile","state":"AL","lat":30.6817,"long":-88.2945},{"zip":"36609","city":"Mobile","state":"AL","lat":30.6605,"long":-88.1618},{"zip":"36610","city":"Mobile","state":"AL","lat":30.7309,"long":-88.0789},{"zip":"36611","city":"Mobile","state":"AL","lat":30.7705,"long":-88.0781},{"zip":"36612","city":"Mobile","state":"AL","lat":30.7518,"long":-88.1131},{"zip":"36613","city":"Eight Mile","state":"AL","lat":30.7951,"long":-88.1823},{"zip":"36615","city":"Mobile","state":"AL","lat":30.6411,"long":-88.0622},{"zip":"36616","city":"Mobile","state":"AL","lat":30.671,"long":-88.1267},{"zip":"36617","city":"Mobile","state":"AL","lat":30.7145,"long":-88.0918},{"zip":"36618","city":"Mobile","state":"AL","lat":30.7322,"long":-88.1758},{"zip":"36619","city":"Mobile","state":"AL","lat":30.5928,"long":-88.1946},{"zip":"36628","city":"Mobile","state":"AL","lat":30.6944,"long":-88.0431},{"zip":"36633","city":"Mobile","state":"AL","lat":30.6589,"long":-88.178},{"zip":"36640","city":"Mobile","state":"AL","lat":30.6589,"long":-88.178},{"zip":"36641","city":"Mobile","state":"AL","lat":30.6589,"long":-88.178},{"zip":"36644","city":"Mobile","state":"AL","lat":30.6944,"long":-88.0431},{"zip":"36652","city":"Mobile","state":"AL","lat":30.6944,"long":-88.0431},{"zip":"36660","city":"Mobile","state":"AL","lat":30.6589,"long":-88.178},{"zip":"36663","city":"Mobile","state":"AL","lat":30.6944,"long":-88.0431},{"zip":"36670","city":"Mobile","state":"AL","lat":30.6589,"long":-88.178},{"zip":"36671","city":"Mobile","state":"AL","lat":30.6589,"long":-88.178},{"zip":"36675","city":"Mobile","state":"AL","lat":30.6944,"long":-88.0431},{"zip":"36685","city":"Mobile","state":"AL","lat":30.6589,"long":-88.178},{"zip":"36688","city":"Mobile","state":"AL","lat":30.6962,"long":-88.1821},{"zip":"36689","city":"Mobile","state":"AL","lat":30.6589,"long":-88.178},{"zip":"36691","city":"Mobile","state":"AL","lat":30.6944,"long":-88.0431},{"zip":"36693","city":"Mobile","state":"AL","lat":30.6311,"long":-88.1588},{"zip":"36695","city":"Mobile","state":"AL","lat":30.6474,"long":-88.2292},{"zip":"36425","city":"Beatrice","state":"AL","lat":31.7273,"long":-87.1719},{"zip":"36439","city":"Excel","state":"AL","lat":31.4279,"long":-87.3414},{"zip":"36444","city":"Franklin","state":"AL","lat":31.7238,"long":-87.4412},{"zip":"36445","city":"Frisco City","state":"AL","lat":31.4235,"long":-87.3817},{"zip":"36449","city":"Goodway","state":"AL","lat":31.3368,"long":-87.4258},{"zip":"36457","city":"Megargel","state":"AL","lat":31.3612,"long":-87.4353},{"zip":"36458","city":"Mexia","state":"AL","lat":31.5147,"long":-87.4084},{"zip":"36460","city":"Monroeville","state":"AL","lat":31.5153,"long":-87.341},{"zip":"36461","city":"Monroeville","state":"AL","lat":31.5221,"long":-87.3411},{"zip":"36470","city":"Perdue Hill","state":"AL","lat":31.5081,"long":-87.4284},{"zip":"36471","city":"Peterman","state":"AL","lat":31.59,"long":-87.26},{"zip":"36480","city":"Uriah","state":"AL","lat":31.3135,"long":-87.5705},{"zip":"36481","city":"Vredenburgh","state":"AL","lat":31.8085,"long":-87.3164},{"zip":"36013","city":"Cecil","state":"AL","lat":32.2937,"long":-85.9827},{"zip":"36036","city":"Grady","state":"AL","lat":32.0194,"long":-86.1292},{"zip":"36043","city":"Hope Hull","state":"AL","lat":32.2243,"long":-86.3932},{"zip":"36046","city":"Lapine","state":"AL","lat":31.9657,"long":-86.2844},{"zip":"36052","city":"Mathews","state":"AL","lat":32.1283,"long":-86.0413},{"zip":"36057","city":"Mount Meigs","state":"AL","lat":32.2334,"long":-86.2085},{"zip":"36064","city":"Pike Road","state":"AL","lat":32.3357,"long":-86.0959},{"zip":"36065","city":"Pine Level","state":"AL","lat":32.0726,"long":-86.0606},{"zip":"36069","city":"Ramer","state":"AL","lat":32.0677,"long":-86.2463},{"zip":"36101","city":"Montgomery","state":"AL","lat":32.357,"long":-86.2578},{"zip":"36102","city":"Montgomery","state":"AL","lat":32.2334,"long":-86.2085},{"zip":"36103","city":"Montgomery","state":"AL","lat":32.3462,"long":-86.2873},{"zip":"36104","city":"Montgomery","state":"AL","lat":32.373,"long":-86.3081},{"zip":"36105","city":"Montgomery","state":"AL","lat":32.3257,"long":-86.3104},{"zip":"36106","city":"Montgomery","state":"AL","lat":32.3543,"long":-86.2673},{"zip":"36107","city":"Montgomery","state":"AL","lat":32.3804,"long":-86.2799},{"zip":"36108","city":"Montgomery","state":"AL","lat":32.3417,"long":-86.3529},{"zip":"36109","city":"Montgomery","state":"AL","lat":32.3834,"long":-86.2434},{"zip":"36110","city":"Montgomery","state":"AL","lat":32.4217,"long":-86.275},{"zip":"36111","city":"Montgomery","state":"AL","lat":32.3374,"long":-86.2715},{"zip":"36112","city":"Montgomery","state":"AL","lat":32.3808,"long":-86.3491},{"zip":"36113","city":"Montgomery","state":"AL","lat":32.3846,"long":-86.3039},{"zip":"36114","city":"Montgomery","state":"AL","lat":32.404,"long":-86.2539},{"zip":"36115","city":"Montgomery","state":"AL","lat":32.4076,"long":-86.2474},{"zip":"36116","city":"Montgomery","state":"AL","lat":32.3129,"long":-86.2421},{"zip":"36117","city":"Montgomery","state":"AL","lat":32.3736,"long":-86.1833},{"zip":"36118","city":"Montgomery","state":"AL","lat":32.2334,"long":-86.2085},{"zip":"36119","city":"Montgomery","state":"AL","lat":32.2334,"long":-86.2085},{"zip":"36120","city":"Montgomery","state":"AL","lat":32.2334,"long":-86.2085},{"zip":"36121","city":"Montgomery","state":"AL","lat":32.2334,"long":-86.2085},{"zip":"36123","city":"Montgomery","state":"AL","lat":32.3668,"long":-86.3},{"zip":"36124","city":"Montgomery","state":"AL","lat":32.2334,"long":-86.2085},{"zip":"36125","city":"Montgomery","state":"AL","lat":32.2334,"long":-86.2085},{"zip":"36130","city":"Montgomery","state":"AL","lat":32.2334,"long":-86.2085},{"zip":"36131","city":"Montgomery","state":"AL","lat":32.2334,"long":-86.2085},{"zip":"36132","city":"Montgomery","state":"AL","lat":32.2334,"long":-86.2085},{"zip":"36135","city":"Montgomery","state":"AL","lat":32.2334,"long":-86.2085},{"zip":"36140","city":"Montgomery","state":"AL","lat":32.2334,"long":-86.2085},{"zip":"36141","city":"Montgomery","state":"AL","lat":32.2334,"long":-86.2085},{"zip":"36142","city":"Montgomery","state":"AL","lat":32.2334,"long":-86.2085},{"zip":"36177","city":"Montgomery","state":"AL","lat":32.2334,"long":-86.2085},{"zip":"36191","city":"Montgomery","state":"AL","lat":32.2334,"long":-86.2085},{"zip":"36756","city":"Marion","state":"AL","lat":32.6463,"long":-87.3314},{"zip":"36786","city":"Uniontown","state":"AL","lat":32.447,"long":-87.4934},{"zip":"36005","city":"Banks","state":"AL","lat":31.8368,"long":-85.7998},{"zip":"36010","city":"Brundidge","state":"AL","lat":31.7013,"long":-85.8177},{"zip":"36035","city":"Goshen","state":"AL","lat":31.7946,"long":-86.1277},{"zip":"36079","city":"Troy","state":"AL","lat":31.7595,"long":-86.0107},{"zip":"36081","city":"Troy","state":"AL","lat":31.7945,"long":-85.9655},{"zip":"36082","city":"Troy","state":"AL","lat":31.8028,"long":-85.9546},{"zip":"36263","city":"Graham","state":"AL","lat":33.463,"long":-85.334},{"zip":"36274","city":"Roanoke","state":"AL","lat":33.1512,"long":-85.3722},{"zip":"36276","city":"Wadley","state":"AL","lat":33.1492,"long":-85.5513},{"zip":"36278","city":"Wedowee","state":"AL","lat":33.3019,"long":-85.4737},{"zip":"36280","city":"Woodland","state":"AL","lat":33.3743,"long":-85.3997},{"zip":"36851","city":"Cottonton","state":"AL","lat":32.1468,"long":-85.0738},{"zip":"36856","city":"Fort Mitchell","state":"AL","lat":32.2965,"long":-84.9972},{"zip":"36858","city":"Hatchechubbee","state":"AL","lat":32.2845,"long":-85.3029},{"zip":"36859","city":"Holy Trinity","state":"AL","lat":32.2298,"long":-85.0082},{"zip":"36860","city":"Hurtsboro","state":"AL","lat":32.2454,"long":-85.3959},{"zip":"36867","city":"Phenix City","state":"AL","lat":32.4978,"long":-85.0234},{"zip":"36868","city":"Phenix City","state":"AL","lat":32.4646,"long":-85.0206},{"zip":"36869","city":"Phenix City","state":"AL","lat":32.4204,"long":-85.0796},{"zip":"36870","city":"Phenix City","state":"AL","lat":32.4781,"long":-85.124},{"zip":"36871","city":"Pittsview","state":"AL","lat":32.1733,"long":-85.1312},{"zip":"36875","city":"Seale","state":"AL","lat":32.3053,"long":-85.1677},{"zip":"36901","city":"Bellamy","state":"AL","lat":32.449,"long":-88.1336},{"zip":"36907","city":"Cuba","state":"AL","lat":32.411,"long":-88.3611},{"zip":"36925","city":"York","state":"AL","lat":32.4728,"long":-88.2683},{"zip":"36268","city":"Munford","state":"AL","lat":33.541,"long":-85.9363},{"zip":"36023","city":"East Tallassee","state":"AL","lat":32.8002,"long":-85.8034},{"zip":"36256","city":"Daviston","state":"AL","lat":33.0335,"long":-85.7538},{"zip":"36850","city":"Camp Hill","state":"AL","lat":32.7827,"long":-85.6474},{"zip":"36853","city":"Dadeville","state":"AL","lat":32.8224,"long":-85.7704},{"zip":"36861","city":"Jacksons Gap","state":"AL","lat":32.8797,"long":-85.8487},{"zip":"36513","city":"Calvert","state":"AL","lat":31.1552,"long":-88.01},{"zip":"36518","city":"Chatom","state":"AL","lat":31.4876,"long":-88.2699},{"zip":"36529","city":"Deer Park","state":"AL","lat":31.2168,"long":-88.3172},{"zip":"36538","city":"Frankville","state":"AL","lat":31.6468,"long":-88.1332},{"zip":"36539","city":"Fruitdale","state":"AL","lat":31.3488,"long":-88.3766},{"zip":"36548","city":"Leroy","state":"AL","lat":31.491,"long":-87.9687},{"zip":"36553","city":"Mc Intosh","state":"AL","lat":31.2361,"long":-88.0511},{"zip":"36556","city":"Malcolm","state":"AL","lat":31.1913,"long":-88.0075},{"zip":"36558","city":"Millry","state":"AL","lat":31.6269,"long":-88.3559},{"zip":"36569","city":"Saint Stephens","state":"AL","lat":31.533,"long":-88.0521},{"zip":"36581","city":"Sunflower","state":"AL","lat":31.3696,"long":-88.0122},{"zip":"36583","city":"Tibbie","state":"AL","lat":31.4067,"long":-88.1758},{"zip":"36584","city":"Vinegar Bend","state":"AL","lat":31.2584,"long":-88.3865},{"zip":"36585","city":"Wagarville","state":"AL","lat":31.4102,"long":-88.0705},{"zip":"36435","city":"Coy","state":"AL","lat":31.8889,"long":-87.3926},{"zip":"36720","city":"Alberta","state":"AL","lat":32.1585,"long":-87.3468},{"zip":"36722","city":"Arlington","state":"AL","lat":32.0668,"long":-87.5597},{"zip":"36723","city":"Boykin","state":"AL","lat":32.0779,"long":-87.2814},{"zip":"36726","city":"Camden","state":"AL","lat":32.0047,"long":-87.295},{"zip":"36728","city":"Catherine","state":"AL","lat":32.182,"long":-87.4836},{"zip":"36741","city":"Furman","state":"AL","lat":32.0061,"long":-86.9817},{"zip":"36751","city":"Lower Peach Tree","state":"AL","lat":31.8504,"long":-87.5682},{"zip":"36753","city":"Mc Williams","state":"AL","lat":32.0481,"long":-87.2623},{"zip":"36766","city":"Oak Hill","state":"AL","lat":31.947,"long":-87.0745},{"zip":"36768","city":"Pine Apple","state":"AL","lat":31.9265,"long":-87.0047},{"zip":"36769","city":"Pine Hill","state":"AL","lat":31.9735,"long":-87.5771}]
