[{"zip":"36003","city":"Autaugaville","state":"AL","lat":32.4625,"long":-86.7149},{"zip":"36006","city":"Billingsley","state":"AL","lat":32.6596,"long":-86.7178},{"zip":"36008","city":"Booth","state":"AL","lat":32.5016,"long":-86.5727},{"zip":"36051","city":"Marbury","state":"AL","lat":32.6841,"long":-86.4946},{"zip":"36066","city":"Prattville","state":"AL","lat":32.4787,"long":-86.43},{"zip":"36067","city":"Prattville","state":"AL","lat":32.4715,"long":-86.4831},{"zip":"36068","city":"Prattville","state":"AL","lat":32.464,"long":-86.4597},{"zip":"36016","city":"Clayton","state":"AL","lat":31.8874,"long":-85.4509},{"zip":"36017","city":"Clio","state":"AL","lat":31.6852,"long":-85.5904},{"zip":"36027","city":"Eufaula","state":"AL","lat":31.9051,"long":-85.1656},{"zip":"36048","city":"Louisville","state":"AL","lat":31.7943,"long":-85.5581},{"zip":"36072","city":"Eufaula","state":"AL","lat":31.8913,"long":-85.1455},{"zip":"36029","city":"Fitzpatrick","state":"AL","lat":32.2165,"long":-85.8888},{"zip":"36053","city":"Midway","state":"AL","lat":32.0955,"long":-85.5315},{"zip":"36061","city":"Perote","state":"AL","lat":32.0928,"long":-85.7046},{"zip":"36089","city":"Union Springs","state":"AL","lat":32.1443,"long":-85.7149},{"zip":"36015","city":"Chapman","state":"AL","lat":31.6427,"long":-86.7343},{"zip":"36030","city":"Forest Home","state":"AL","lat":31.8501,"long":-86.8372},{"zip":"36033","city":"Georgiana","state":"AL","lat":31.6287,"long":-86.734},{"zip":"36037","city":"Greenville","state":"AL","lat":31.81,"long":-86.6229},{"zip":"36091","city":"Verbena","state":"AL","lat":32.7499,"long":-86.5114},{"zip":"36026","city":"Equality","state":"AL","lat":32.8139,"long":-86.1051},{"zip":"36038","city":"Gantt","state":"AL","lat":31.2609,"long":-86.4448},{"zip":"36009","city":"Brantley","state":"AL","lat":31.571,"long":-86.2743},{"zip":"36028","city":"Dozier","state":"AL","lat":31.5066,"long":-86.3663},{"zip":"36034","city":"Glenwood","state":"AL","lat":31.6641,"long":-86.171},{"zip":"36041","city":"Highland Home","state":"AL","lat":31.9283,"long":-86.2971},{"zip":"36042","city":"Honoraville","state":"AL","lat":31.8784,"long":-86.3981},{"zip":"36049","city":"Luverne","state":"AL","lat":31.7074,"long":-86.2566},{"zip":"36062","city":"Petrey","state":"AL","lat":31.8488,"long":-86.2077},{"zip":"36071","city":"Rutledge","state":"AL","lat":31.7062,"long":-86.3715},{"zip":"36020","city":"Coosada","state":"AL","lat":32.5056,"long":-86.3322},{"zip":"36022","city":"Deatsville","state":"AL","lat":32.6082,"long":-86.3958},{"zip":"36024","city":"Eclectic","state":"AL","lat":32.6542,"long":-86.0316},{"zip":"36025","city":"Elmore","state":"AL","lat":32.5454,"long":-86.3161},{"zip":"36045","city":"Kent","state":"AL","lat":32.619,"long":-85.9486},{"zip":"36054","city":"Millbrook","state":"AL","lat":32.4995,"long":-86.3641},{"zip":"36078","city":"Tallassee","state":"AL","lat":32.551,"long":-85.8978},{"zip":"36080","city":"Titus","state":"AL","lat":32.69,"long":-86.2393},{"zip":"36092","city":"Wetumpka","state":"AL","lat":32.5927,"long":-86.2153},{"zip":"36093","city":"Wetumpka","state":"AL","lat":32.5622,"long":-86.0994},{"zip":"36032","city":"Fort Deposit","state":"AL","lat":31.996,"long":-86.5761},{"zip":"36040","city":"Hayneville","state":"AL","lat":32.1957,"long":-86.655},{"zip":"36047","city":"Letohatchee","state":"AL","lat":32.0862,"long":-86.488},{"zip":"36031","city":"Fort Davis","state":"AL","lat":32.2507,"long":-85.7524},{"zip":"36039","city":"Hardaway","state":"AL","lat":32.3129,"long":-85.8838},{"zip":"36075","city":"Shorter","state":"AL","lat":32.3836,"long":-85.9162},{"zip":"36083","city":"Tuskegee","state":"AL","lat":32.4316,"long":-85.6861},{"zip":"36087","city":"Tuskegee Institute","state":"AL","lat":32.4093,"long":-85.738},{"zip":"36088","city":"Tuskegee Institute","state":"AL","lat":32.4145,"long":-85.7253},{"zip":"36013","city":"Cecil","state":"AL","lat":32.2937,"long":-85.9827},{"zip":"36036","city":"Grady","state":"AL","lat":32.0194,"long":-86.1292},{"zip":"36043","city":"Hope Hull","state":"AL","lat":32.2243,"long":-86.3932},{"zip":"36046","city":"Lapine","state":"AL","lat":31.9657,"long":-86.2844},{"zip":"36052","city":"Mathews","state":"AL","lat":32.1283,"long":-86.0413},{"zip":"36057","city":"Mount Meigs","state":"AL","lat":32.2334,"long":-86.2085},{"zip":"36064","city":"Pike Road","state":"AL","lat":32.3357,"long":-86.0959},{"zip":"36065","city":"Pine Level","state":"AL","lat":32.0726,"long":-86.0606},{"zip":"36069","city":"Ramer","state":"AL","lat":32.0677,"long":-86.2463},{"zip":"36005","city":"Banks","state":"AL","lat":31.8368,"long":-85.7998},{"zip":"36010","city":"Brundidge","state":"AL","lat":31.7013,"long":-85.8177},{"zip":"36035","city":"Goshen","state":"AL","lat":31.7946,"long":-86.1277},{"zip":"36079","city":"Troy","state":"AL","lat":31.7595,"long":-86.0107},{"zip":"36081","city":"Troy","state":"AL","lat":31.7945,"long":-85.9655},{"zip":"36082","city":"Troy","state":"AL","lat":31.8028,"long":-85.9546},{"zip":"36023","city":"East Tallassee","state":"AL","lat":32.8002,"long":-85.8034}]
