[{"zip":"36101","city":"Montgomery","state":"AL","lat":32.357,"long":-86.2578},{"zip":"36102","city":"Montgomery","state":"AL","lat":32.2334,"long":-86.2085},{"zip":"36103","city":"Montgomery","state":"AL","lat":32.3462,"long":-86.2873},{"zip":"36104","city":"Montgomery","state":"AL","lat":32.373,"long":-86.3081},{"zip":"36105","city":"Montgomery","state":"AL","lat":32.3257,"long":-86.3104},{"zip":"36106","city":"Montgomery","state":"AL","lat":32.3543,"long":-86.2673},{"zip":"36107","city":"Montgomery","state":"AL","lat":32.3804,"long":-86.2799},{"zip":"36108","city":"Montgomery","state":"AL","lat":32.3417,"long":-86.3529},{"zip":"36109","city":"Montgomery","state":"AL","lat":32.3834,"long":-86.2434},{"zip":"36110","city":"Montgomery","state":"AL","lat":32.4217,"long":-86.275},{"zip":"36111","city":"Montgomery","state":"AL","lat":32.3374,"long":-86.2715},{"zip":"36112","city":"Montgomery","state":"AL","lat":32.3808,"long":-86.3491},{"zip":"36113","city":"Montgomery","state":"AL","lat":32.3846,"long":-86.3039},{"zip":"36114","city":"Montgomery","state":"AL","lat":32.404,"long":-86.2539},{"zip":"36115","city":"Montgomery","state":"AL","lat":32.4076,"long":-86.2474},{"zip":"36116","city":"Montgomery","state":"AL","lat":32.3129,"long":-86.2421},{"zip":"36117","city":"Montgomery","state":"AL","lat":32.3736,"long":-86.1833},{"zip":"36118","city":"Montgomery","state":"AL","lat":32.2334,"long":-86.2085},{"zip":"36119","city":"Montgomery","state":"AL","lat":32.2334,"long":-86.2085},{"zip":"36120","city":"Montgomery","state":"AL","lat":32.2334,"long":-86.2085},{"zip":"36121","city":"Montgomery","state":"AL","lat":32.2334,"long":-86.2085},{"zip":"36123","city":"Montgomery","state":"AL","lat":32.3668,"long":-86.3},{"zip":"36124","city":"Montgomery","state":"AL","lat":32.2334,"long":-86.2085},{"zip":"36125","city":"Montgomery","state":"AL","lat":32.2334,"long":-86.2085},{"zip":"36130","city":"Montgomery","state":"AL","lat":32.2334,"long":-86.2085},{"zip":"36131","city":"Montgomery","state":"AL","lat":32.2334,"long":-86.2085},{"zip":"36132","city":"Montgomery","state":"AL","lat":32.2334,"long":-86.2085},{"zip":"36135","city":"Montgomery","state":"AL","lat":32.2334,"long":-86.2085},{"zip":"36140","city":"Montgomery","state":"AL","lat":32.2334,"long":-86.2085},{"zip":"36141","city":"Montgomery","state":"AL","lat":32.2334,"long":-86.2085},{"zip":"36142","city":"Montgomery","state":"AL","lat":32.2334,"long":-86.2085},{"zip":"36177","city":"Montgomery","state":"AL","lat":32.2334,"long":-86.2085},{"zip":"36191","city":"Montgomery","state":"AL","lat":32.2334,"long":-86.2085}]
