[{"zip":"36323","city":"Elba","state":"AL","lat":31.4137,"long":-86.0777},{"zip":"36330","city":"Enterprise","state":"AL","lat":31.3408,"long":-85.8421},{"zip":"36331","city":"Enterprise","state":"AL","lat":31.2978,"long":-85.9036},{"zip":"36346","city":"Jack","state":"AL","lat":31.5652,"long":-85.971},{"zip":"36351","city":"New Brockton","state":"AL","lat":31.369,"long":-85.9404},{"zip":"36311","city":"Ariton","state":"AL","lat":31.583,"long":-85.7077},{"zip":"36317","city":"Clopton","state":"AL","lat":31.6446,"long":-85.3911},{"zip":"36322","city":"Daleville","state":"AL","lat":31.2811,"long":-85.7305},{"zip":"36350","city":"Midland City","state":"AL","lat":31.3191,"long":-85.4938},{"zip":"36352","city":"Newton","state":"AL","lat":31.3311,"long":-85.5992},{"zip":"36360","city":"Ozark","state":"AL","lat":31.4391,"long":-85.6436},{"zip":"36361","city":"Ozark","state":"AL","lat":31.4591,"long":-85.6405},{"zip":"36362","city":"Fort Rucker","state":"AL","lat":31.348,"long":-85.7214},{"zip":"36371","city":"Pinckard","state":"AL","lat":31.3074,"long":-85.5263},{"zip":"36374","city":"Skipperville","state":"AL","lat":31.5748,"long":-85.537},{"zip":"36313","city":"Bellwood","state":"AL","lat":31.1732,"long":-85.7933},{"zip":"36314","city":"Black","state":"AL","lat":31.0132,"long":-85.7456},{"zip":"36316","city":"Chancellor","state":"AL","lat":31.1767,"long":-85.8135},{"zip":"36318","city":"Coffee Springs","state":"AL","lat":31.1388,"long":-85.9182},{"zip":"36340","city":"Geneva","state":"AL","lat":31.0414,"long":-85.8847},{"zip":"36344","city":"Hartford","state":"AL","lat":31.086,"long":-85.7192},{"zip":"36349","city":"Malvern","state":"AL","lat":31.1212,"long":-85.5592},{"zip":"36375","city":"Slocomb","state":"AL","lat":31.0956,"long":-85.583},{"zip":"36310","city":"Abbeville","state":"AL","lat":31.5755,"long":-85.279},{"zip":"36345","city":"Headland","state":"AL","lat":31.3534,"long":-85.3323},{"zip":"36353","city":"Newville","state":"AL","lat":31.4403,"long":-85.3287},{"zip":"36373","city":"Shorterville","state":"AL","lat":31.501,"long":-85.1135},{"zip":"36301","city":"Dothan","state":"AL","lat":31.1481,"long":-85.3718},{"zip":"36302","city":"Dothan","state":"AL","lat":31.2232,"long":-85.3905},{"zip":"36303","city":"Dothan","state":"AL","lat":31.2668,"long":-85.3971},{"zip":"36304","city":"Dothan","state":"AL","lat":31.156,"long":-85.3559},{"zip":"36305","city":"Dothan","state":"AL","lat":31.2197,"long":-85.4828},{"zip":"36312","city":"Ashford","state":"AL","lat":31.1888,"long":-85.2535},{"zip":"36319","city":"Columbia","state":"AL","lat":31.3352,"long":-85.1455},{"zip":"36320","city":"Cottonwood","state":"AL","lat":31.0507,"long":-85.3154},{"zip":"36321","city":"Cowarts","state":"AL","lat":31.2025,"long":-85.3014},{"zip":"36343","city":"Gordon","state":"AL","lat":31.1002,"long":-85.1234},{"zip":"36370","city":"Pansey","state":"AL","lat":31.1403,"long":-85.1573},{"zip":"36376","city":"Webb","state":"AL","lat":31.2656,"long":-85.2544}]
