[{"zip":"36456","city":"Mc Kenzie","state":"AL","lat":31.545,"long":-86.7356},{"zip":"36436","city":"Dickinson","state":"AL","lat":31.7635,"long":-87.7106},{"zip":"36446","city":"Fulton","state":"AL","lat":31.7925,"long":-87.72},{"zip":"36451","city":"Grove Hill","state":"AL","lat":31.7088,"long":-87.7772},{"zip":"36482","city":"Whatley","state":"AL","lat":31.6395,"long":-87.6565},{"zip":"36453","city":"Kinston","state":"AL","lat":31.1926,"long":-86.1514},{"zip":"36401","city":"Evergreen","state":"AL","lat":31.458,"long":-86.9258},{"zip":"36429","city":"Brooklyn","state":"AL","lat":31.2627,"long":-86.7711},{"zip":"36432","city":"Castleberry","state":"AL","lat":31.2991,"long":-87.0225},{"zip":"36454","city":"Lenox","state":"AL","lat":31.3366,"long":-87.1855},{"zip":"36473","city":"Range","state":"AL","lat":31.3058,"long":-87.2137},{"zip":"36475","city":"Repton","state":"AL","lat":31.4256,"long":-87.172},{"zip":"36420","city":"Andalusia","state":"AL","lat":31.2971,"long":-86.4905},{"zip":"36442","city":"Florala","state":"AL","lat":31.0172,"long":-86.3385},{"zip":"36455","city":"Lockhart","state":"AL","lat":31.0105,"long":-86.3497},{"zip":"36467","city":"Opp","state":"AL","lat":31.2799,"long":-86.2571},{"zip":"36474","city":"Red Level","state":"AL","lat":31.4399,"long":-86.6121},{"zip":"36476","city":"River Falls","state":"AL","lat":31.2609,"long":-86.4448},{"zip":"36483","city":"Wing","state":"AL","lat":31.0223,"long":-86.6293},{"zip":"36426","city":"Brewton","state":"AL","lat":31.1294,"long":-87.0961},{"zip":"36427","city":"Brewton","state":"AL","lat":31.1052,"long":-87.0722},{"zip":"36441","city":"Flomaton","state":"AL","lat":31.0402,"long":-87.2664},{"zip":"36477","city":"Samson","state":"AL","lat":31.1049,"long":-86.0674},{"zip":"36421","city":"Andalusia","state":"AL","lat":31.3247,"long":-86.5067},{"zip":"36425","city":"Beatrice","state":"AL","lat":31.7273,"long":-87.1719},{"zip":"36439","city":"Excel","state":"AL","lat":31.4279,"long":-87.3414},{"zip":"36444","city":"Franklin","state":"AL","lat":31.7238,"long":-87.4412},{"zip":"36445","city":"Frisco City","state":"AL","lat":31.4235,"long":-87.3817},{"zip":"36449","city":"Goodway","state":"AL","lat":31.3368,"long":-87.4258},{"zip":"36457","city":"Megargel","state":"AL","lat":31.3612,"long":-87.4353},{"zip":"36458","city":"Mexia","state":"AL","lat":31.5147,"long":-87.4084},{"zip":"36460","city":"Monroeville","state":"AL","lat":31.5153,"long":-87.341},{"zip":"36461","city":"Monroeville","state":"AL","lat":31.5221,"long":-87.3411},{"zip":"36470","city":"Perdue Hill","state":"AL","lat":31.5081,"long":-87.4284},{"zip":"36471","city":"Peterman","state":"AL","lat":31.59,"long":-87.26},{"zip":"36480","city":"Uriah","state":"AL","lat":31.3135,"long":-87.5705},{"zip":"36481","city":"Vredenburgh","state":"AL","lat":31.8085,"long":-87.3164},{"zip":"36435","city":"Coy","state":"AL","lat":31.8889,"long":-87.3926}]
