[{"zip":"36507","city":"Bay Minette","state":"AL","lat":30.8635,"long":-87.7644},{"zip":"36511","city":"Bon Secour","state":"AL","lat":30.3128,"long":-87.7431},{"zip":"36526","city":"Daphne","state":"AL","lat":30.6197,"long":-87.8895},{"zip":"36527","city":"Spanish Fort","state":"AL","lat":30.6959,"long":-87.8867},{"zip":"36530","city":"Elberta","state":"AL","lat":30.3942,"long":-87.589},{"zip":"36532","city":"Fairhope","state":"AL","lat":30.5012,"long":-87.8835},{"zip":"36533","city":"Fairhope","state":"AL","lat":30.4841,"long":-87.8606},{"zip":"36535","city":"Foley","state":"AL","lat":30.4007,"long":-87.6857},{"zip":"36536","city":"Foley","state":"AL","lat":30.4222,"long":-87.7064},{"zip":"36542","city":"Gulf Shores","state":"AL","lat":30.2717,"long":-87.7589},{"zip":"36547","city":"Gulf Shores","state":"AL","lat":30.246,"long":-87.7008},{"zip":"36549","city":"Lillian","state":"AL","lat":30.3972,"long":-87.4745},{"zip":"36550","city":"Little River","state":"AL","lat":31.2246,"long":-87.7548},{"zip":"36551","city":"Loxley","state":"AL","lat":30.618,"long":-87.7562},{"zip":"36555","city":"Magnolia Springs","state":"AL","lat":30.3996,"long":-87.7761},{"zip":"36559","city":"Montrose","state":"AL","lat":30.5623,"long":-87.9005},{"zip":"36561","city":"Orange Beach","state":"AL","lat":30.281,"long":-87.5815},{"zip":"36562","city":"Perdido","state":"AL","lat":31.0403,"long":-87.6667},{"zip":"36564","city":"Point Clear","state":"AL","lat":30.4741,"long":-87.9192},{"zip":"36567","city":"Robertsdale","state":"AL","lat":30.5616,"long":-87.6373},{"zip":"36574","city":"Seminole","state":"AL","lat":30.5048,"long":-87.4659},{"zip":"36576","city":"Silverhill","state":"AL","lat":30.5222,"long":-87.7457},{"zip":"36577","city":"Spanish Fort","state":"AL","lat":30.6749,"long":-87.9153},{"zip":"36578","city":"Stapleton","state":"AL","lat":30.7476,"long":-87.7787},{"zip":"36579","city":"Stockton","state":"AL","lat":31.0129,"long":-87.8633},{"zip":"36580","city":"Summerdale","state":"AL","lat":30.4752,"long":-87.6992},{"zip":"36524","city":"Coffeeville","state":"AL","lat":31.7843,"long":-88.0715},{"zip":"36540","city":"Gainestown","state":"AL","lat":31.4258,"long":-87.6822},{"zip":"36545","city":"Jackson","state":"AL","lat":31.5131,"long":-87.8672},{"zip":"36502","city":"Atmore","state":"AL","lat":31.0572,"long":-87.4873},{"zip":"36503","city":"Atmore","state":"AL","lat":31.0238,"long":-87.4939},{"zip":"36504","city":"Atmore","state":"AL","lat":31.0158,"long":-87.4972},{"zip":"36543","city":"Huxford","state":"AL","lat":31.2202,"long":-87.4619},{"zip":"36505","city":"Axis","state":"AL","lat":30.9394,"long":-88.0159},{"zip":"36509","city":"Bayou La Batre","state":"AL","lat":30.408,"long":-88.2507},{"zip":"36512","city":"Bucks","state":"AL","lat":31.0105,"long":-88.0242},{"zip":"36521","city":"Chunchula","state":"AL","lat":30.9912,"long":-88.1311},{"zip":"36522","city":"Citronelle","state":"AL","lat":31.0425,"long":-88.2549},{"zip":"36523","city":"Coden","state":"AL","lat":30.3903,"long":-88.2076},{"zip":"36525","city":"Creola","state":"AL","lat":30.9013,"long":-88.0174},{"zip":"36528","city":"Dauphin Island","state":"AL","lat":30.2521,"long":-88.1096},{"zip":"36541","city":"Grand Bay","state":"AL","lat":30.4983,"long":-88.3282},{"zip":"36544","city":"Irvington","state":"AL","lat":30.4802,"long":-88.2396},{"zip":"36560","city":"Mount Vernon","state":"AL","lat":31.0974,"long":-88.035},{"zip":"36568","city":"Saint Elmo","state":"AL","lat":30.4943,"long":-88.2699},{"zip":"36571","city":"Saraland","state":"AL","lat":30.8332,"long":-88.0934},{"zip":"36572","city":"Satsuma","state":"AL","lat":30.8516,"long":-88.0533},{"zip":"36575","city":"Semmes","state":"AL","lat":30.7544,"long":-88.2667},{"zip":"36582","city":"Theodore","state":"AL","lat":30.5444,"long":-88.1807},{"zip":"36587","city":"Wilmer","state":"AL","lat":30.8137,"long":-88.3332},{"zip":"36590","city":"Theodore","state":"AL","lat":30.488,"long":-88.2533},{"zip":"36513","city":"Calvert","state":"AL","lat":31.1552,"long":-88.01},{"zip":"36518","city":"Chatom","state":"AL","lat":31.4876,"long":-88.2699},{"zip":"36529","city":"Deer Park","state":"AL","lat":31.2168,"long":-88.3172},{"zip":"36538","city":"Frankville","state":"AL","lat":31.6468,"long":-88.1332},{"zip":"36539","city":"Fruitdale","state":"AL","lat":31.3488,"long":-88.3766},{"zip":"36548","city":"Leroy","state":"AL","lat":31.491,"long":-87.9687},{"zip":"36553","city":"Mc Intosh","state":"AL","lat":31.2361,"long":-88.0511},{"zip":"36556","city":"Malcolm","state":"AL","lat":31.1913,"long":-88.0075},{"zip":"36558","city":"Millry","state":"AL","lat":31.6269,"long":-88.3559},{"zip":"36569","city":"Saint Stephens","state":"AL","lat":31.533,"long":-88.0521},{"zip":"36581","city":"Sunflower","state":"AL","lat":31.3696,"long":-88.0122},{"zip":"36583","city":"Tibbie","state":"AL","lat":31.4067,"long":-88.1758},{"zip":"36584","city":"Vinegar Bend","state":"AL","lat":31.2584,"long":-88.3865},{"zip":"36585","city":"Wagarville","state":"AL","lat":31.4102,"long":-88.0705}]
