[{"zip":"36601","city":"Mobile","state":"AL","lat":30.6944,"long":-88.0431},{"zip":"36602","city":"Mobile","state":"AL","lat":30.6888,"long":-88.0453},{"zip":"36603","city":"Mobile","state":"AL","lat":30.6921,"long":-88.0562},{"zip":"36604","city":"Mobile","state":"AL","lat":30.682,"long":-88.0678},{"zip":"36605","city":"Mobile","state":"AL","lat":30.6341,"long":-88.0846},{"zip":"36606","city":"Mobile","state":"AL","lat":30.6729,"long":-88.1009},{"zip":"36607","city":"Mobile","state":"AL","lat":30.6975,"long":-88.1029},{"zip":"36608","city":"Mobile","state":"AL","lat":30.6817,"long":-88.2945},{"zip":"36609","city":"Mobile","state":"AL","lat":30.6605,"long":-88.1618},{"zip":"36610","city":"Mobile","state":"AL","lat":30.7309,"long":-88.0789},{"zip":"36611","city":"Mobile","state":"AL","lat":30.7705,"long":-88.0781},{"zip":"36612","city":"Mobile","state":"AL","lat":30.7518,"long":-88.1131},{"zip":"36613","city":"Eight Mile","state":"AL","lat":30.7951,"long":-88.1823},{"zip":"36615","city":"Mobile","state":"AL","lat":30.6411,"long":-88.0622},{"zip":"36616","city":"Mobile","state":"AL","lat":30.671,"long":-88.1267},{"zip":"36617","city":"Mobile","state":"AL","lat":30.7145,"long":-88.0918},{"zip":"36618","city":"Mobile","state":"AL","lat":30.7322,"long":-88.1758},{"zip":"36619","city":"Mobile","state":"AL","lat":30.5928,"long":-88.1946},{"zip":"36628","city":"Mobile","state":"AL","lat":30.6944,"long":-88.0431},{"zip":"36633","city":"Mobile","state":"AL","lat":30.6589,"long":-88.178},{"zip":"36640","city":"Mobile","state":"AL","lat":30.6589,"long":-88.178},{"zip":"36641","city":"Mobile","state":"AL","lat":30.6589,"long":-88.178},{"zip":"36644","city":"Mobile","state":"AL","lat":30.6944,"long":-88.0431},{"zip":"36652","city":"Mobile","state":"AL","lat":30.6944,"long":-88.0431},{"zip":"36660","city":"Mobile","state":"AL","lat":30.6589,"long":-88.178},{"zip":"36663","city":"Mobile","state":"AL","lat":30.6944,"long":-88.0431},{"zip":"36670","city":"Mobile","state":"AL","lat":30.6589,"long":-88.178},{"zip":"36671","city":"Mobile","state":"AL","lat":30.6589,"long":-88.178},{"zip":"36675","city":"Mobile","state":"AL","lat":30.6944,"long":-88.0431},{"zip":"36685","city":"Mobile","state":"AL","lat":30.6589,"long":-88.178},{"zip":"36688","city":"Mobile","state":"AL","lat":30.6962,"long":-88.1821},{"zip":"36689","city":"Mobile","state":"AL","lat":30.6589,"long":-88.178},{"zip":"36691","city":"Mobile","state":"AL","lat":30.6944,"long":-88.0431},{"zip":"36693","city":"Mobile","state":"AL","lat":30.6311,"long":-88.1588},{"zip":"36695","city":"Mobile","state":"AL","lat":30.6474,"long":-88.2292}]
