[{"zip":"36749","city":"Jones","state":"AL","lat":32.5104,"long":-86.8138},{"zip":"36792","city":"Randolph","state":"AL","lat":32.8888,"long":-86.907},{"zip":"36793","city":"Lawley","state":"AL","lat":32.8646,"long":-86.9567},{"zip":"36750","city":"Maplesville","state":"AL","lat":32.8045,"long":-86.8717},{"zip":"36790","city":"Stanton","state":"AL","lat":32.7332,"long":-86.8963},{"zip":"36727","city":"Campbell","state":"AL","lat":31.9213,"long":-88.008},{"zip":"36784","city":"Thomasville","state":"AL","lat":31.9067,"long":-87.7598},{"zip":"36701","city":"Selma","state":"AL","lat":32.4197,"long":-87.0245},{"zip":"36702","city":"Selma","state":"AL","lat":32.4074,"long":-87.0211},{"zip":"36703","city":"Selma","state":"AL","lat":32.4156,"long":-87.0135},{"zip":"36758","city":"Plantersville","state":"AL","lat":32.6176,"long":-86.9475},{"zip":"36759","city":"Marion Junction","state":"AL","lat":32.4266,"long":-87.2702},{"zip":"36761","city":"Minter","state":"AL","lat":32.1899,"long":-87.0633},{"zip":"36767","city":"Orrville","state":"AL","lat":32.2949,"long":-87.2214},{"zip":"36773","city":"Safford","state":"AL","lat":32.3002,"long":-87.3693},{"zip":"36775","city":"Sardis","state":"AL","lat":32.2844,"long":-86.992},{"zip":"36785","city":"Tyler","state":"AL","lat":32.3239,"long":-86.8646},{"zip":"36740","city":"Forkland","state":"AL","lat":32.6108,"long":-87.8441},{"zip":"36742","city":"Gallion","state":"AL","lat":32.5298,"long":-87.6985},{"zip":"36744","city":"Greensboro","state":"AL","lat":32.7167,"long":-87.5905},{"zip":"36765","city":"Newbern","state":"AL","lat":32.5515,"long":-87.5615},{"zip":"36776","city":"Sawyerville","state":"AL","lat":32.7578,"long":-87.7402},{"zip":"36752","city":"Lowndesboro","state":"AL","lat":32.2943,"long":-86.6471},{"zip":"36732","city":"Demopolis","state":"AL","lat":32.4908,"long":-87.8397},{"zip":"36736","city":"Dixons Mills","state":"AL","lat":32.0672,"long":-87.7454},{"zip":"36738","city":"Faunsdale","state":"AL","lat":32.4233,"long":-87.6181},{"zip":"36745","city":"Jefferson","state":"AL","lat":32.414,"long":-87.8986},{"zip":"36748","city":"Linden","state":"AL","lat":32.3053,"long":-87.7954},{"zip":"36754","city":"Magnolia","state":"AL","lat":32.1419,"long":-87.6998},{"zip":"36763","city":"Myrtlewood","state":"AL","lat":32.2516,"long":-87.9494},{"zip":"36764","city":"Nanafalia","state":"AL","lat":32.1129,"long":-87.9881},{"zip":"36782","city":"Sweet Water","state":"AL","lat":32.0773,"long":-87.9228},{"zip":"36783","city":"Thomaston","state":"AL","lat":32.2538,"long":-87.5974},{"zip":"36756","city":"Marion","state":"AL","lat":32.6463,"long":-87.3314},{"zip":"36786","city":"Uniontown","state":"AL","lat":32.447,"long":-87.4934},{"zip":"36720","city":"Alberta","state":"AL","lat":32.1585,"long":-87.3468},{"zip":"36722","city":"Arlington","state":"AL","lat":32.0668,"long":-87.5597},{"zip":"36723","city":"Boykin","state":"AL","lat":32.0779,"long":-87.2814},{"zip":"36726","city":"Camden","state":"AL","lat":32.0047,"long":-87.295},{"zip":"36728","city":"Catherine","state":"AL","lat":32.182,"long":-87.4836},{"zip":"36741","city":"Furman","state":"AL","lat":32.0061,"long":-86.9817},{"zip":"36751","city":"Lower Peach Tree","state":"AL","lat":31.8504,"long":-87.5682},{"zip":"36753","city":"Mc Williams","state":"AL","lat":32.0481,"long":-87.2623},{"zip":"36766","city":"Oak Hill","state":"AL","lat":31.947,"long":-87.0745},{"zip":"36768","city":"Pine Apple","state":"AL","lat":31.9265,"long":-87.0047},{"zip":"36769","city":"Pine Hill","state":"AL","lat":31.9735,"long":-87.5771}]
