[{"zip":"36852","city":"Cusseta","state":"AL","lat":32.7831,"long":-85.2756},{"zip":"36854","city":"Valley","state":"AL","lat":32.8113,"long":-85.1749},{"zip":"36855","city":"Five Points","state":"AL","lat":33.0424,"long":-85.3243},{"zip":"36862","city":"Lafayette","state":"AL","lat":32.9252,"long":-85.4426},{"zip":"36863","city":"Lanett","state":"AL","lat":32.8616,"long":-85.2161},{"zip":"36801","city":"Opelika","state":"AL","lat":32.6454,"long":-85.3783},{"zip":"36802","city":"Opelika","state":"AL","lat":32.5782,"long":-85.349},{"zip":"36803","city":"Opelika","state":"AL","lat":32.6454,"long":-85.3783},{"zip":"36804","city":"Opelika","state":"AL","lat":32.5768,"long":-85.312},{"zip":"36830","city":"Auburn","state":"AL","lat":32.5475,"long":-85.4682},{"zip":"36831","city":"Auburn","state":"AL","lat":32.6099,"long":-85.4808},{"zip":"36832","city":"Auburn","state":"AL","lat":32.592,"long":-85.5189},{"zip":"36849","city":"Auburn University","state":"AL","lat":32.6024,"long":-85.4873},{"zip":"36865","city":"Loachapoka","state":"AL","lat":32.6043,"long":-85.5933},{"zip":"36872","city":"Valley","state":"AL","lat":32.5782,"long":-85.349},{"zip":"36874","city":"Salem","state":"AL","lat":32.6212,"long":-85.184},{"zip":"36877","city":"Smiths Station","state":"AL","lat":32.5401,"long":-85.0985},{"zip":"36879","city":"Waverly","state":"AL","lat":32.7632,"long":-85.5144},{"zip":"36866","city":"Notasulga","state":"AL","lat":32.5437,"long":-85.6871},{"zip":"36851","city":"Cottonton","state":"AL","lat":32.1468,"long":-85.0738},{"zip":"36856","city":"Fort Mitchell","state":"AL","lat":32.2965,"long":-84.9972},{"zip":"36858","city":"Hatchechubbee","state":"AL","lat":32.2845,"long":-85.3029},{"zip":"36859","city":"Holy Trinity","state":"AL","lat":32.2298,"long":-85.0082},{"zip":"36860","city":"Hurtsboro","state":"AL","lat":32.2454,"long":-85.3959},{"zip":"36867","city":"Phenix City","state":"AL","lat":32.4978,"long":-85.0234},{"zip":"36868","city":"Phenix City","state":"AL","lat":32.4646,"long":-85.0206},{"zip":"36869","city":"Phenix City","state":"AL","lat":32.4204,"long":-85.0796},{"zip":"36870","city":"Phenix City","state":"AL","lat":32.4781,"long":-85.124},{"zip":"36871","city":"Pittsview","state":"AL","lat":32.1733,"long":-85.1312},{"zip":"36875","city":"Seale","state":"AL","lat":32.3053,"long":-85.1677},{"zip":"36850","city":"Camp Hill","state":"AL","lat":32.7827,"long":-85.6474},{"zip":"36853","city":"Dadeville","state":"AL","lat":32.8224,"long":-85.7704},{"zip":"36861","city":"Jacksons Gap","state":"AL","lat":32.8797,"long":-85.8487}]
