[{"zip":"37705","city":"Andersonville","state":"TN","lat":36.1915,"long":-84.0544},{"zip":"37710","city":"Briceville","state":"TN","lat":36.1626,"long":-84.2992},{"zip":"37716","city":"Clinton","state":"TN","lat":36.0869,"long":-84.1897},{"zip":"37717","city":"Clinton","state":"TN","lat":36.11,"long":-84.1672},{"zip":"37769","city":"Lake City","state":"TN","lat":36.2032,"long":-84.1386},{"zip":"37828","city":"Norris","state":"TN","lat":36.2005,"long":-84.0858},{"zip":"37830","city":"Oak Ridge","state":"TN","lat":36.0159,"long":-84.2623},{"zip":"37831","city":"Oak Ridge","state":"TN","lat":36.106,"long":-84.1958},{"zip":"37020","city":"Bell Buckle","state":"TN","lat":35.6381,"long":-86.3949},{"zip":"37160","city":"Shelbyville","state":"TN","lat":35.4863,"long":-86.4624},{"zip":"37161","city":"Shelbyville","state":"TN","lat":35.4834,"long":-86.4603},{"zip":"37162","city":"Shelbyville","state":"TN","lat":35.5108,"long":-86.45},{"zip":"37180","city":"Unionville","state":"TN","lat":35.6224,"long":-86.5639},{"zip":"37183","city":"Wartrace","state":"TN","lat":35.5123,"long":-86.3277},{"zip":"37360","city":"Normandy","state":"TN","lat":35.4296,"long":-86.2557},{"zip":"37367","city":"Pikeville","state":"TN","lat":35.6408,"long":-85.2077},{"zip":"37701","city":"Alcoa","state":"TN","lat":35.7852,"long":-83.9809},{"zip":"37737","city":"Friendsville","state":"TN","lat":35.7523,"long":-84.1061},{"zip":"37777","city":"Louisville","state":"TN","lat":35.8375,"long":-84.0089},{"zip":"37801","city":"Maryville","state":"TN","lat":35.6884,"long":-84.0769},{"zip":"37802","city":"Maryville","state":"TN","lat":35.7565,"long":-83.9705},{"zip":"37803","city":"Maryville","state":"TN","lat":35.6539,"long":-83.9956},{"zip":"37804","city":"Maryville","state":"TN","lat":35.7991,"long":-83.8852},{"zip":"37853","city":"Rockford","state":"TN","lat":35.8305,"long":-83.9412},{"zip":"37878","city":"Tallassee","state":"TN","lat":35.5844,"long":-83.9923},{"zip":"37882","city":"Townsend","state":"TN","lat":35.6784,"long":-83.7572},{"zip":"37886","city":"Walland","state":"TN","lat":35.7533,"long":-83.8243},{"zip":"37310","city":"Charleston","state":"TN","lat":35.2556,"long":-84.7666},{"zip":"37311","city":"Cleveland","state":"TN","lat":35.1313,"long":-84.875},{"zip":"37312","city":"Cleveland","state":"TN","lat":35.2023,"long":-84.8476},{"zip":"37320","city":"Cleveland","state":"TN","lat":35.1727,"long":-84.8619},{"zip":"37323","city":"Cleveland","state":"TN","lat":35.1361,"long":-84.8457},{"zip":"37353","city":"Mc Donald","state":"TN","lat":35.0869,"long":-84.9892},{"zip":"37364","city":"Cleveland","state":"TN","lat":35.1727,"long":-84.8619},{"zip":"37714","city":"Caryville","state":"TN","lat":36.3028,"long":-84.203},{"zip":"37729","city":"Duff","state":"TN","lat":36.5086,"long":-84.0454},{"zip":"37757","city":"Jacksboro","state":"TN","lat":36.3266,"long":-84.1928},{"zip":"37762","city":"Jellico","state":"TN","lat":36.577,"long":-84.126},{"zip":"37766","city":"La Follette","state":"TN","lat":36.4248,"long":-84.0907},{"zip":"37819","city":"Newcomb","state":"TN","lat":36.5428,"long":-84.1798},{"zip":"37847","city":"Pioneer","state":"TN","lat":36.4695,"long":-84.2907},{"zip":"37016","city":"Auburntown","state":"TN","lat":35.9338,"long":-86.1126},{"zip":"37026","city":"Bradyville","state":"TN","lat":35.7053,"long":-86.0912},{"zip":"37149","city":"Readyville","state":"TN","lat":35.7989,"long":-86.2415},{"zip":"37190","city":"Woodbury","state":"TN","lat":35.8143,"long":-86.05},{"zip":"37643","city":"Elizabethton","state":"TN","lat":36.3445,"long":-82.2015},{"zip":"37644","city":"Elizabethton","state":"TN","lat":36.3487,"long":-82.2107},{"zip":"37658","city":"Hampton","state":"TN","lat":36.2577,"long":-82.1891},{"zip":"37682","city":"Milligan College","state":"TN","lat":36.296,"long":-82.3054},{"zip":"37687","city":"Roan Mountain","state":"TN","lat":36.1773,"long":-82.081},{"zip":"37694","city":"Watauga","state":"TN","lat":36.3702,"long":-82.2683},{"zip":"37015","city":"Ashland City","state":"TN","lat":36.2731,"long":-87.0447},{"zip":"37035","city":"Chapmansboro","state":"TN","lat":36.3768,"long":-87.1127},{"zip":"37082","city":"Kingston Springs","state":"TN","lat":36.0953,"long":-87.1156},{"zip":"37143","city":"Pegram","state":"TN","lat":36.1129,"long":-87.0316},{"zip":"37146","city":"Pleasant View","state":"TN","lat":36.3783,"long":-87.0395},{"zip":"37707","city":"Arthur","state":"TN","lat":36.5481,"long":-83.6707},{"zip":"37715","city":"Clairfield","state":"TN","lat":36.565,"long":-83.9397},{"zip":"37724","city":"Cumberland Gap","state":"TN","lat":36.5504,"long":-83.681},{"zip":"37730","city":"Eagan","state":"TN","lat":36.552,"long":-83.9769},{"zip":"37752","city":"Harrogate","state":"TN","lat":36.5767,"long":-83.6073},{"zip":"37773","city":"Lone Mountain","state":"TN","lat":36.3906,"long":-83.5849},{"zip":"37824","city":"New Tazewell","state":"TN","lat":36.45,"long":-83.5911},{"zip":"37825","city":"New Tazewell","state":"TN","lat":36.4245,"long":-83.6469},{"zip":"37851","city":"Pruden","state":"TN","lat":36.5862,"long":-83.901},{"zip":"37867","city":"Shawanee","state":"TN","lat":36.5803,"long":-83.6473},{"zip":"37870","city":"Speedwell","state":"TN","lat":36.4797,"long":-83.8135},{"zip":"37879","city":"Tazewell","state":"TN","lat":36.471,"long":-83.5552},{"zip":"37713","city":"Bybee","state":"TN","lat":36.074,"long":-83.1631},{"zip":"37722","city":"Cosby","state":"TN","lat":35.8347,"long":-83.2187},{"zip":"37727","city":"Del Rio","state":"TN","lat":35.883,"long":-83.015},{"zip":"37753","city":"Hartford","state":"TN","lat":35.8256,"long":-83.0996},{"zip":"37821","city":"Newport","state":"TN","lat":35.9544,"long":-83.2027},{"zip":"37822","city":"Newport","state":"TN","lat":35.967,"long":-83.1877},{"zip":"37843","city":"Parrottsville","state":"TN","lat":35.9983,"long":-83.0736},{"zip":"37018","city":"Beechgrove","state":"TN","lat":35.6447,"long":-86.2046},{"zip":"37342","city":"Hillsboro","state":"TN","lat":35.3699,"long":-85.9724},{"zip":"37349","city":"Manchester","state":"TN","lat":35.4976,"long":-86.0748},{"zip":"37355","city":"Manchester","state":"TN","lat":35.4958,"long":-86.0816},{"zip":"37382","city":"Summitville","state":"TN","lat":35.5595,"long":-85.9925},{"zip":"37388","city":"Tullahoma","state":"TN","lat":35.3468,"long":-86.22},{"zip":"37389","city":"Arnold Afb","state":"TN","lat":35.4976,"long":-86.0748},{"zip":"37723","city":"Crab Orchard","state":"TN","lat":35.9537,"long":-84.8205},{"zip":"37011","city":"Antioch","state":"TN","lat":36.0601,"long":-86.6722},{"zip":"37013","city":"Antioch","state":"TN","lat":36.0595,"long":-86.6592},{"zip":"37070","city":"Goodlettsville","state":"TN","lat":36.3231,"long":-86.7133},{"zip":"37072","city":"Goodlettsville","state":"TN","lat":36.3417,"long":-86.7212},{"zip":"37076","city":"Hermitage","state":"TN","lat":36.1848,"long":-86.6002},{"zip":"37080","city":"Joelton","state":"TN","lat":36.329,"long":-86.9163},{"zip":"37115","city":"Madison","state":"TN","lat":36.2604,"long":-86.7046},{"zip":"37116","city":"Madison","state":"TN","lat":36.1866,"long":-86.7852},{"zip":"37138","city":"Old Hickory","state":"TN","lat":36.2416,"long":-86.6117},{"zip":"37189","city":"Whites Creek","state":"TN","lat":36.2744,"long":-86.8292},{"zip":"37201","city":"Nashville","state":"TN","lat":36.1657,"long":-86.7781},{"zip":"37202","city":"Nashville","state":"TN","lat":36.3403,"long":-86.8273},{"zip":"37203","city":"Nashville","state":"TN","lat":36.1504,"long":-86.7916},{"zip":"37204","city":"Nashville","state":"TN","lat":36.1067,"long":-86.7743},{"zip":"37205","city":"Nashville","state":"TN","lat":36.1114,"long":-86.869},{"zip":"37206","city":"Nashville","state":"TN","lat":36.1798,"long":-86.7411},{"zip":"37207","city":"Nashville","state":"TN","lat":36.2195,"long":-86.774},{"zip":"37208","city":"Nashville","state":"TN","lat":36.1762,"long":-86.8076},{"zip":"37209","city":"Nashville","state":"TN","lat":36.1546,"long":-86.8602},{"zip":"37210","city":"Nashville","state":"TN","lat":36.1379,"long":-86.741},{"zip":"37211","city":"Nashville","state":"TN","lat":36.0725,"long":-86.724},{"zip":"37212","city":"Nashville","state":"TN","lat":36.1337,"long":-86.8006},{"zip":"37213","city":"Nashville","state":"TN","lat":36.1663,"long":-86.7669},{"zip":"37214","city":"Nashville","state":"TN","lat":36.1633,"long":-86.6609},{"zip":"37215","city":"Nashville","state":"TN","lat":36.0986,"long":-86.8219},{"zip":"37216","city":"Nashville","state":"TN","lat":36.2125,"long":-86.7257},{"zip":"37217","city":"Nashville","state":"TN","lat":36.1052,"long":-86.6591},{"zip":"37218","city":"Nashville","state":"TN","lat":36.2071,"long":-86.8456},{"zip":"37219","city":"Nashville","state":"TN","lat":36.1678,"long":-86.7837},{"zip":"37220","city":"Nashville","state":"TN","lat":36.0641,"long":-86.7697},{"zip":"37221","city":"Nashville","state":"TN","lat":36.0662,"long":-86.9639},{"zip":"37222","city":"Nashville","state":"TN","lat":36.1659,"long":-86.7844},{"zip":"37224","city":"Nashville","state":"TN","lat":36.1866,"long":-86.7852},{"zip":"37227","city":"Nashville","state":"TN","lat":36.1866,"long":-86.7852},{"zip":"37228","city":"Nashville","state":"TN","lat":36.1901,"long":-86.8053},{"zip":"37229","city":"Nashville","state":"TN","lat":36.1866,"long":-86.7852},{"zip":"37230","city":"Nashville","state":"TN","lat":36.1866,"long":-86.7852},{"zip":"37232","city":"Nashville","state":"TN","lat":36.1866,"long":-86.7852},{"zip":"37234","city":"Nashville","state":"TN","lat":36.1866,"long":-86.7852},{"zip":"37235","city":"Nashville","state":"TN","lat":36.1866,"long":-86.7852},{"zip":"37236","city":"Nashville","state":"TN","lat":36.1866,"long":-86.7852},{"zip":"37238","city":"Nashville","state":"TN","lat":36.1866,"long":-86.7852},{"zip":"37240","city":"Nashville","state":"TN","lat":36.1866,"long":-86.7852},{"zip":"37241","city":"Nashville","state":"TN","lat":36.1866,"long":-86.7852},{"zip":"37242","city":"Nashville","state":"TN","lat":36.1866,"long":-86.7852},{"zip":"37243","city":"Nashville","state":"TN","lat":36.165,"long":-86.7821},{"zip":"37244","city":"Nashville","state":"TN","lat":36.1866,"long":-86.7852},{"zip":"37246","city":"Nashville","state":"TN","lat":36.1586,"long":-86.79},{"zip":"37250","city":"Nashville","state":"TN","lat":36.1866,"long":-86.7852},{"zip":"37012","city":"Alexandria","state":"TN","lat":36.0711,"long":-86.0372},{"zip":"37059","city":"Dowelltown","state":"TN","lat":35.9725,"long":-85.9055},{"zip":"37095","city":"Liberty","state":"TN","lat":36.0067,"long":-85.9678},{"zip":"37166","city":"Smithville","state":"TN","lat":35.9299,"long":-85.8046},{"zip":"37029","city":"Burns","state":"TN","lat":36.0471,"long":-87.3061},{"zip":"37036","city":"Charlotte","state":"TN","lat":36.2326,"long":-87.2816},{"zip":"37051","city":"Cumberland Furnace","state":"TN","lat":36.2721,"long":-87.3914},{"zip":"37055","city":"Dickson","state":"TN","lat":36.076,"long":-87.3995},{"zip":"37056","city":"Dickson","state":"TN","lat":36.1469,"long":-87.353},{"zip":"37165","city":"Slayden","state":"TN","lat":36.2948,"long":-87.4703},{"zip":"37181","city":"Vanleer","state":"TN","lat":36.2237,"long":-87.4565},{"zip":"37187","city":"White Bluff","state":"TN","lat":36.1253,"long":-87.219},{"zip":"37306","city":"Belvidere","state":"TN","lat":35.1415,"long":-86.1728},{"zip":"37318","city":"Cowan","state":"TN","lat":35.1783,"long":-86.0167},{"zip":"37324","city":"Decherd","state":"TN","lat":35.2326,"long":-86.0589},{"zip":"37330","city":"Estill Springs","state":"TN","lat":35.2705,"long":-86.1396},{"zip":"37345","city":"Huntland","state":"TN","lat":35.0512,"long":-86.2694},{"zip":"37375","city":"Sewanee","state":"TN","lat":35.2011,"long":-85.9126},{"zip":"37376","city":"Sherwood","state":"TN","lat":35.0452,"long":-85.9302},{"zip":"37383","city":"Sewanee","state":"TN","lat":35.1805,"long":-85.9035},{"zip":"37398","city":"Winchester","state":"TN","lat":35.1864,"long":-86.113},{"zip":"37708","city":"Bean Station","state":"TN","lat":36.3249,"long":-83.3142},{"zip":"37709","city":"Blaine","state":"TN","lat":36.1583,"long":-83.6783},{"zip":"37848","city":"Powder Springs","state":"TN","lat":36.2357,"long":-83.6801},{"zip":"37861","city":"Rutledge","state":"TN","lat":36.2501,"long":-83.5125},{"zip":"37881","city":"Thorn Hill","state":"TN","lat":36.3917,"long":-83.366},{"zip":"37888","city":"Washburn","state":"TN","lat":36.3106,"long":-83.5937},{"zip":"37616","city":"Afton","state":"TN","lat":36.2265,"long":-82.7476},{"zip":"37641","city":"Chuckey","state":"TN","lat":36.2569,"long":-82.6905},{"zip":"37743","city":"Greeneville","state":"TN","lat":36.1316,"long":-82.8692},{"zip":"37744","city":"Greeneville","state":"TN","lat":36.1683,"long":-82.8548},{"zip":"37745","city":"Greeneville","state":"TN","lat":36.2455,"long":-82.8238},{"zip":"37809","city":"Midway","state":"TN","lat":36.151,"long":-83.0281},{"zip":"37810","city":"Mohawk","state":"TN","lat":36.1869,"long":-83.0902},{"zip":"37818","city":"Mosheim","state":"TN","lat":36.1839,"long":-82.9674},{"zip":"37301","city":"Altamont","state":"TN","lat":35.4258,"long":-85.7635},{"zip":"37305","city":"Beersheba Springs","state":"TN","lat":35.4652,"long":-85.6942},{"zip":"37313","city":"Coalmont","state":"TN","lat":35.3516,"long":-85.7003},{"zip":"37339","city":"Gruetli Laager","state":"TN","lat":35.3723,"long":-85.618},{"zip":"37356","city":"Monteagle","state":"TN","lat":35.2402,"long":-85.8228},{"zip":"37365","city":"Palmer","state":"TN","lat":35.3741,"long":-85.5643},{"zip":"37366","city":"Pelham","state":"TN","lat":35.314,"long":-85.8441},{"zip":"37387","city":"Tracy City","state":"TN","lat":35.2721,"long":-85.7362},{"zip":"37778","city":"Lowland","state":"TN","lat":36.2133,"long":-83.2752},{"zip":"37813","city":"Morristown","state":"TN","lat":36.1957,"long":-83.2755},{"zip":"37814","city":"Morristown","state":"TN","lat":36.2248,"long":-83.3119},{"zip":"37815","city":"Morristown","state":"TN","lat":36.2133,"long":-83.2752},{"zip":"37816","city":"Morristown","state":"TN","lat":36.2133,"long":-83.2752},{"zip":"37860","city":"Russellville","state":"TN","lat":36.2567,"long":-83.1914},{"zip":"37877","city":"Talbott","state":"TN","lat":36.16,"long":-83.4129},{"zip":"37891","city":"Whitesburg","state":"TN","lat":36.2621,"long":-83.1458},{"zip":"37302","city":"Apison","state":"TN","lat":35.0149,"long":-85.0164},{"zip":"37304","city":"Bakewell","state":"TN","lat":35.3452,"long":-85.138},{"zip":"37308","city":"Birchwood","state":"TN","lat":35.352,"long":-84.9618},{"zip":"37315","city":"Collegedale","state":"TN","lat":35.0479,"long":-85.0574},{"zip":"37341","city":"Harrison","state":"TN","lat":35.1679,"long":-85.0945},{"zip":"37343","city":"Hixson","state":"TN","lat":35.1591,"long":-85.2182},{"zip":"37350","city":"Lookout Mountain","state":"TN","lat":34.9948,"long":-85.3506},{"zip":"37351","city":"Lupton City","state":"TN","lat":35.1045,"long":-85.2631},{"zip":"37363","city":"Ooltewah","state":"TN","lat":35.0781,"long":-85.0635},{"zip":"37373","city":"Sale Creek","state":"TN","lat":35.3858,"long":-85.1023},{"zip":"37377","city":"Signal Mountain","state":"TN","lat":35.1494,"long":-85.3362},{"zip":"37379","city":"Soddy Daisy","state":"TN","lat":35.2527,"long":-85.163},{"zip":"37384","city":"Soddy Daisy","state":"TN","lat":35.2211,"long":-85.2091},{"zip":"37401","city":"Chattanooga","state":"TN","lat":35.0456,"long":-85.3097},{"zip":"37402","city":"Chattanooga","state":"TN","lat":35.0463,"long":-85.3161},{"zip":"37403","city":"Chattanooga","state":"TN","lat":35.045,"long":-85.2965},{"zip":"37404","city":"Chattanooga","state":"TN","lat":35.0306,"long":-85.2722},{"zip":"37405","city":"Chattanooga","state":"TN","lat":35.0768,"long":-85.3082},{"zip":"37406","city":"Chattanooga","state":"TN","lat":35.0614,"long":-85.2478},{"zip":"37407","city":"Chattanooga","state":"TN","lat":35.0024,"long":-85.2849},{"zip":"37408","city":"Chattanooga","state":"TN","lat":35.0292,"long":-85.3068},{"zip":"37409","city":"Chattanooga","state":"TN","lat":34.9981,"long":-85.331},{"zip":"37410","city":"Chattanooga","state":"TN","lat":35.0018,"long":-85.3138},{"zip":"37411","city":"Chattanooga","state":"TN","lat":35.0271,"long":-85.2356},{"zip":"37412","city":"Chattanooga","state":"TN","lat":35.0015,"long":-85.2384},{"zip":"37414","city":"Chattanooga","state":"TN","lat":35.0456,"long":-85.3097},{"zip":"37415","city":"Chattanooga","state":"TN","lat":35.1273,"long":-85.2802},{"zip":"37416","city":"Chattanooga","state":"TN","lat":35.0942,"long":-85.1757},{"zip":"37419","city":"Chattanooga","state":"TN","lat":35.0331,"long":-85.3687},{"zip":"37421","city":"Chattanooga","state":"TN","lat":35.025,"long":-85.1459},{"zip":"37422","city":"Chattanooga","state":"TN","lat":35.0456,"long":-85.3097},{"zip":"37424","city":"Chattanooga","state":"TN","lat":35.0456,"long":-85.3097},{"zip":"37450","city":"Chattanooga","state":"TN","lat":35.0456,"long":-85.3097},{"zip":"37765","city":"Kyles Ford","state":"TN","lat":36.5721,"long":-83.0507},{"zip":"37869","city":"Sneedville","state":"TN","lat":36.5275,"long":-83.2529},{"zip":"37642","city":"Church Hill","state":"TN","lat":36.5399,"long":-82.7252},{"zip":"37645","city":"Mount Carmel","state":"TN","lat":36.5629,"long":-82.6532},{"zip":"37711","city":"Bulls Gap","state":"TN","lat":36.2832,"long":-83.0374},{"zip":"37731","city":"Eidson","state":"TN","lat":36.4995,"long":-83.0827},{"zip":"37811","city":"Mooresburg","state":"TN","lat":36.3621,"long":-83.2095},{"zip":"37857","city":"Rogersville","state":"TN","lat":36.4162,"long":-83.0108},{"zip":"37873","city":"Surgoinsville","state":"TN","lat":36.4741,"long":-82.8306},{"zip":"37025","city":"Bon Aqua","state":"TN","lat":35.9471,"long":-87.2996},{"zip":"37033","city":"Centerville","state":"TN","lat":35.7797,"long":-87.4775},{"zip":"37098","city":"Lyles","state":"TN","lat":35.8502,"long":-87.3127},{"zip":"37137","city":"Nunnelly","state":"TN","lat":35.8763,"long":-87.5067},{"zip":"37140","city":"Only","state":"TN","lat":35.8679,"long":-87.6655},{"zip":"37061","city":"Erin","state":"TN","lat":36.3067,"long":-87.679},{"zip":"37175","city":"Stewart","state":"TN","lat":36.3241,"long":-87.8725},{"zip":"37178","city":"Tennessee Ridge","state":"TN","lat":36.3297,"long":-87.7808},{"zip":"37078","city":"Hurricane Mills","state":"TN","lat":35.924,"long":-87.8105},{"zip":"37101","city":"Mc Ewen","state":"TN","lat":36.1185,"long":-87.6422},{"zip":"37134","city":"New Johnsonville","state":"TN","lat":36.0088,"long":-87.9547},{"zip":"37185","city":"Waverly","state":"TN","lat":36.0997,"long":-87.7991},{"zip":"37725","city":"Dandridge","state":"TN","lat":36.0008,"long":-83.4233},{"zip":"37760","city":"Jefferson City","state":"TN","lat":36.1163,"long":-83.481},{"zip":"37820","city":"New Market","state":"TN","lat":36.081,"long":-83.5673},{"zip":"37871","city":"Strawberry Plains","state":"TN","lat":36.0687,"long":-83.6568},{"zip":"37890","city":"White Pine","state":"TN","lat":36.0776,"long":-83.2998},{"zip":"37640","city":"Butler","state":"TN","lat":36.3282,"long":-81.9856},{"zip":"37680","city":"Laurel Bloomery","state":"TN","lat":36.5793,"long":-81.7254},{"zip":"37683","city":"Mountain City","state":"TN","lat":36.4657,"long":-81.814},{"zip":"37688","city":"Shady Valley","state":"TN","lat":36.5272,"long":-81.9068},{"zip":"37691","city":"Trade","state":"TN","lat":36.3683,"long":-81.7572},{"zip":"37721","city":"Corryton","state":"TN","lat":36.12,"long":-83.813},{"zip":"37754","city":"Heiskell","state":"TN","lat":36.115,"long":-84.0438},{"zip":"37806","city":"Mascot","state":"TN","lat":36.0844,"long":-83.7411},{"zip":"37849","city":"Powell","state":"TN","lat":36.0435,"long":-84.04},{"zip":"37901","city":"Knoxville","state":"TN","lat":36.0323,"long":-83.8848},{"zip":"37902","city":"Knoxville","state":"TN","lat":35.9625,"long":-83.9209},{"zip":"37909","city":"Knoxville","state":"TN","lat":35.946,"long":-84.0235},{"zip":"37912","city":"Knoxville","state":"TN","lat":36.0055,"long":-83.9773},{"zip":"37914","city":"Knoxville","state":"TN","lat":35.9918,"long":-83.8496},{"zip":"37915","city":"Knoxville","state":"TN","lat":35.9721,"long":-83.901},{"zip":"37916","city":"Knoxville","state":"TN","lat":35.9556,"long":-83.9336},{"zip":"37917","city":"Knoxville","state":"TN","lat":35.998,"long":-83.9152},{"zip":"37918","city":"Knoxville","state":"TN","lat":36.0501,"long":-83.9226},{"zip":"37919","city":"Knoxville","state":"TN","lat":35.9244,"long":-84.0015},{"zip":"37920","city":"Knoxville","state":"TN","lat":35.8929,"long":-83.9387},{"zip":"37921","city":"Knoxville","state":"TN","lat":35.9793,"long":-84.003},{"zip":"37922","city":"Knoxville","state":"TN","lat":35.858,"long":-84.1194},{"zip":"37923","city":"Knoxville","state":"TN","lat":35.9331,"long":-84.0761},{"zip":"37924","city":"Knoxville","state":"TN","lat":36.032,"long":-83.8021},{"zip":"37927","city":"Knoxville","state":"TN","lat":35.9901,"long":-83.9622},{"zip":"37928","city":"Knoxville","state":"TN","lat":35.9901,"long":-83.9622},{"zip":"37929","city":"Knoxville","state":"TN","lat":35.9606,"long":-83.9207},{"zip":"37930","city":"Knoxville","state":"TN","lat":35.9029,"long":-83.9536},{"zip":"37931","city":"Knoxville","state":"TN","lat":35.9924,"long":-84.1201},{"zip":"37932","city":"Knoxville","state":"TN","lat":35.9335,"long":-84.1481},{"zip":"37933","city":"Knoxville","state":"TN","lat":35.9901,"long":-83.9622},{"zip":"37934","city":"Knoxville","state":"TN","lat":35.8762,"long":-84.1746},{"zip":"37938","city":"Knoxville","state":"TN","lat":36.1055,"long":-83.946},{"zip":"37939","city":"Knoxville","state":"TN","lat":35.9901,"long":-83.9622},{"zip":"37940","city":"Knoxville","state":"TN","lat":35.9901,"long":-83.9622},{"zip":"37950","city":"Knoxville","state":"TN","lat":35.9901,"long":-83.9622},{"zip":"37995","city":"Knoxville","state":"TN","lat":35.9606,"long":-83.9207},{"zip":"37996","city":"Knoxville","state":"TN","lat":35.9901,"long":-83.9622},{"zip":"37997","city":"Knoxville","state":"TN","lat":35.9901,"long":-83.9622},{"zip":"37998","city":"Knoxville","state":"TN","lat":35.9351,"long":-83.7503},{"zip":"37144","city":"Petersburg","state":"TN","lat":35.2924,"long":-86.6447},{"zip":"37328","city":"Elora","state":"TN","lat":35.0295,"long":-86.3481},{"zip":"37334","city":"Fayetteville","state":"TN","lat":35.1527,"long":-86.5664},{"zip":"37335","city":"Flintville","state":"TN","lat":35.0581,"long":-86.413},{"zip":"37348","city":"Kelso","state":"TN","lat":35.1024,"long":-86.4683},{"zip":"37359","city":"Mulberry","state":"TN","lat":35.1941,"long":-86.4217},{"zip":"37742","city":"Greenback","state":"TN","lat":35.6567,"long":-84.171},{"zip":"37771","city":"Lenoir City","state":"TN","lat":35.8104,"long":-84.2665},{"zip":"37772","city":"Lenoir City","state":"TN","lat":35.7883,"long":-84.2188},{"zip":"37774","city":"Loudon","state":"TN","lat":35.7292,"long":-84.3436},{"zip":"37846","city":"Philadelphia","state":"TN","lat":35.6781,"long":-84.4312},{"zip":"37303","city":"Athens","state":"TN","lat":35.4574,"long":-84.6043},{"zip":"37309","city":"Calhoun","state":"TN","lat":35.3228,"long":-84.7364},{"zip":"37329","city":"Englewood","state":"TN","lat":35.4272,"long":-84.4833},{"zip":"37331","city":"Etowah","state":"TN","lat":35.3314,"long":-84.5283},{"zip":"37370","city":"Riceville","state":"TN","lat":35.3731,"long":-84.6951},{"zip":"37371","city":"Athens","state":"TN","lat":35.4429,"long":-84.593},{"zip":"37826","city":"Niota","state":"TN","lat":35.5819,"long":-84.5721},{"zip":"37083","city":"Lafayette","state":"TN","lat":36.539,"long":-86.0242},{"zip":"37150","city":"Red Boiling Springs","state":"TN","lat":36.5177,"long":-85.8662},{"zip":"37340","city":"Guild","state":"TN","lat":35.0178,"long":-85.5116},{"zip":"37347","city":"Jasper","state":"TN","lat":35.097,"long":-85.5897},{"zip":"37374","city":"Sequatchie","state":"TN","lat":35.1634,"long":-85.6371},{"zip":"37380","city":"South Pittsburg","state":"TN","lat":35.028,"long":-85.7225},{"zip":"37396","city":"Whiteside","state":"TN","lat":34.9873,"long":-85.4977},{"zip":"37397","city":"Whitwell","state":"TN","lat":35.1972,"long":-85.5011},{"zip":"37019","city":"Belfast","state":"TN","lat":35.4069,"long":-86.7095},{"zip":"37034","city":"Chapel Hill","state":"TN","lat":35.6354,"long":-86.6836},{"zip":"37047","city":"Cornersville","state":"TN","lat":35.3409,"long":-86.8286},{"zip":"37091","city":"Lewisburg","state":"TN","lat":35.4596,"long":-86.7812},{"zip":"37174","city":"Spring Hill","state":"TN","lat":35.7173,"long":-86.9048},{"zip":"37322","city":"Decatur","state":"TN","lat":35.5072,"long":-84.8081},{"zip":"37336","city":"Georgetown","state":"TN","lat":35.2932,"long":-84.9127},{"zip":"37880","city":"Ten Mile","state":"TN","lat":35.6862,"long":-84.6548},{"zip":"37314","city":"Cokercreek","state":"TN","lat":35.2467,"long":-84.3031},{"zip":"37354","city":"Madisonville","state":"TN","lat":35.4916,"long":-84.3395},{"zip":"37385","city":"Tellico Plains","state":"TN","lat":35.3562,"long":-84.3068},{"zip":"37874","city":"Sweetwater","state":"TN","lat":35.6015,"long":-84.461},{"zip":"37885","city":"Vonore","state":"TN","lat":35.5354,"long":-84.1778},{"zip":"37040","city":"Clarksville","state":"TN","lat":36.522,"long":-87.349},{"zip":"37041","city":"Clarksville","state":"TN","lat":36.4774,"long":-87.3772},{"zip":"37042","city":"Clarksville","state":"TN","lat":36.5853,"long":-87.4186},{"zip":"37043","city":"Clarksville","state":"TN","lat":36.5107,"long":-87.2757},{"zip":"37044","city":"Clarksville","state":"TN","lat":36.5314,"long":-87.353},{"zip":"37052","city":"Cunningham","state":"TN","lat":36.3789,"long":-87.4245},{"zip":"37142","city":"Palmyra","state":"TN","lat":36.4176,"long":-87.4914},{"zip":"37171","city":"Southside","state":"TN","lat":36.3626,"long":-87.3061},{"zip":"37191","city":"Woodlawn","state":"TN","lat":36.5147,"long":-87.5393},{"zip":"37352","city":"Lynchburg","state":"TN","lat":35.2706,"long":-86.372},{"zip":"37719","city":"Coalfield","state":"TN","lat":36.0352,"long":-84.3907},{"zip":"37726","city":"Deer Lodge","state":"TN","lat":36.2176,"long":-84.8191},{"zip":"37733","city":"Rugby","state":"TN","lat":36.3519,"long":-84.7137},{"zip":"37770","city":"Lancing","state":"TN","lat":36.1456,"long":-84.7135},{"zip":"37829","city":"Oakdale","state":"TN","lat":36.01,"long":-84.5753},{"zip":"37840","city":"Oliver Springs","state":"TN","lat":36.0366,"long":-84.3486},{"zip":"37845","city":"Petros","state":"TN","lat":36.0959,"long":-84.4424},{"zip":"37872","city":"Sunbright","state":"TN","lat":36.2622,"long":-84.6984},{"zip":"37887","city":"Wartburg","state":"TN","lat":36.1016,"long":-84.5652},{"zip":"37096","city":"Linden","state":"TN","lat":35.5944,"long":-87.8567},{"zip":"37097","city":"Lobelville","state":"TN","lat":35.7467,"long":-87.8251},{"zip":"37307","city":"Benton","state":"TN","lat":35.173,"long":-84.6544},{"zip":"37316","city":"Conasauga","state":"TN","lat":34.9971,"long":-84.7327},{"zip":"37317","city":"Copperhill","state":"TN","lat":35.0207,"long":-84.3748},{"zip":"37325","city":"Delano","state":"TN","lat":35.2612,"long":-84.6024},{"zip":"37326","city":"Ducktown","state":"TN","lat":35.0339,"long":-84.3792},{"zip":"37333","city":"Farner","state":"TN","lat":35.1449,"long":-84.3209},{"zip":"37361","city":"Ocoee","state":"TN","lat":35.1025,"long":-84.7136},{"zip":"37362","city":"Old Fort","state":"TN","lat":35.2829,"long":-85.2568},{"zip":"37369","city":"Reliance","state":"TN","lat":35.1807,"long":-84.541},{"zip":"37391","city":"Turtletown","state":"TN","lat":35.1081,"long":-84.3544},{"zip":"37321","city":"Dayton","state":"TN","lat":35.5002,"long":-85.0135},{"zip":"37332","city":"Evensville","state":"TN","lat":35.6153,"long":-85.0228},{"zip":"37337","city":"Grandview","state":"TN","lat":35.7608,"long":-84.8615},{"zip":"37338","city":"Graysville","state":"TN","lat":35.4484,"long":-85.179},{"zip":"37381","city":"Spring City","state":"TN","lat":35.6935,"long":-84.8198},{"zip":"37748","city":"Harriman","state":"TN","lat":35.9348,"long":-84.5155},{"zip":"37763","city":"Kingston","state":"TN","lat":35.8528,"long":-84.4971},{"zip":"37854","city":"Rockwood","state":"TN","lat":35.8587,"long":-84.6842},{"zip":"37010","city":"Adams","state":"TN","lat":36.5582,"long":-87.1226},{"zip":"37032","city":"Cedar Hill","state":"TN","lat":36.5514,"long":-86.9992},{"zip":"37049","city":"Cross Plains","state":"TN","lat":36.5531,"long":-86.6761},{"zip":"37073","city":"Greenbrier","state":"TN","lat":36.4229,"long":-86.7914},{"zip":"37141","city":"Orlinda","state":"TN","lat":36.611,"long":-86.699},{"zip":"37152","city":"Ridgetop","state":"TN","lat":36.4025,"long":-86.7722},{"zip":"37172","city":"Springfield","state":"TN","lat":36.5018,"long":-86.8769},{"zip":"37188","city":"White House","state":"TN","lat":36.46,"long":-86.6705},{"zip":"37037","city":"Christiana","state":"TN","lat":35.696,"long":-86.368},{"zip":"37060","city":"Eagleville","state":"TN","lat":35.7492,"long":-86.6327},{"zip":"37063","city":"Fosterville","state":"TN","lat":35.6551,"long":-86.403},{"zip":"37085","city":"Lascassas","state":"TN","lat":35.9495,"long":-86.3112},{"zip":"37086","city":"La Vergne","state":"TN","lat":36.0127,"long":-86.56},{"zip":"37089","city":"La Vergne","state":"TN","lat":35.8596,"long":-86.421},{"zip":"37118","city":"Milton","state":"TN","lat":35.9221,"long":-86.1824},{"zip":"37127","city":"Murfreesboro","state":"TN","lat":35.763,"long":-86.3722},{"zip":"37128","city":"Murfreesboro","state":"TN","lat":35.8454,"long":-86.4867},{"zip":"37129","city":"Murfreesboro","state":"TN","lat":35.871,"long":-86.4181},{"zip":"37130","city":"Murfreesboro","state":"TN","lat":35.8456,"long":-86.3903},{"zip":"37131","city":"Murfreesboro","state":"TN","lat":35.8596,"long":-86.421},{"zip":"37132","city":"Murfreesboro","state":"TN","lat":35.8596,"long":-86.421},{"zip":"37133","city":"Murfreesboro","state":"TN","lat":35.8456,"long":-86.3903},{"zip":"37153","city":"Rockvale","state":"TN","lat":35.745,"long":-86.5352},{"zip":"37167","city":"Smyrna","state":"TN","lat":35.9656,"long":-86.5048},{"zip":"37732","city":"Elgin","state":"TN","lat":36.3323,"long":-84.6063},{"zip":"37755","city":"Helenwood","state":"TN","lat":36.4329,"long":-84.5381},{"zip":"37756","city":"Huntsville","state":"TN","lat":36.3983,"long":-84.4288},{"zip":"37841","city":"Oneida","state":"TN","lat":36.5053,"long":-84.5293},{"zip":"37852","city":"Robbins","state":"TN","lat":36.3527,"long":-84.5904},{"zip":"37892","city":"Winfield","state":"TN","lat":36.5598,"long":-84.434},{"zip":"37327","city":"Dunlap","state":"TN","lat":35.3842,"long":-85.3925},{"zip":"37738","city":"Gatlinburg","state":"TN","lat":35.729,"long":-83.4874},{"zip":"37764","city":"Kodak","state":"TN","lat":35.9722,"long":-83.6171},{"zip":"37862","city":"Sevierville","state":"TN","lat":35.8452,"long":-83.5386},{"zip":"37863","city":"Pigeon Forge","state":"TN","lat":35.7922,"long":-83.5638},{"zip":"37864","city":"Sevierville","state":"TN","lat":35.8542,"long":-83.6138},{"zip":"37865","city":"Seymour","state":"TN","lat":35.87,"long":-83.7495},{"zip":"37868","city":"Pigeon Forge","state":"TN","lat":35.8809,"long":-83.5561},{"zip":"37876","city":"Sevierville","state":"TN","lat":35.866,"long":-83.4793},{"zip":"37501","city":"Memphis","state":"TN","lat":35.1693,"long":-89.9904},{"zip":"37544","city":"Memphis","state":"TN","lat":35.1496,"long":-90.0487},{"zip":"37030","city":"Carthage","state":"TN","lat":36.2763,"long":-85.9517},{"zip":"37057","city":"Dixon Springs","state":"TN","lat":36.4455,"long":-86.0533},{"zip":"37145","city":"Pleasant Shade","state":"TN","lat":36.3462,"long":-85.9189},{"zip":"37151","city":"Riddleton","state":"TN","lat":36.3506,"long":-86.0335},{"zip":"37023","city":"Big Rock","state":"TN","lat":36.5716,"long":-87.7378},{"zip":"37028","city":"Bumpus Mills","state":"TN","lat":36.6226,"long":-87.8614},{"zip":"37050","city":"Cumberland City","state":"TN","lat":36.3729,"long":-87.6306},{"zip":"37058","city":"Dover","state":"TN","lat":36.4942,"long":-87.8787},{"zip":"37079","city":"Indian Mound","state":"TN","lat":36.4946,"long":-87.6804},{"zip":"37617","city":"Blountville","state":"TN","lat":36.5356,"long":-82.3656},{"zip":"37618","city":"Bluff City","state":"TN","lat":36.4774,"long":-82.2362},{"zip":"37620","city":"Bristol","state":"TN","lat":36.5686,"long":-82.1819},{"zip":"37621","city":"Bristol","state":"TN","lat":36.5042,"long":-82.2645},{"zip":"37625","city":"Bristol","state":"TN","lat":36.5951,"long":-82.1887},{"zip":"37660","city":"Kingsport","state":"TN","lat":36.5484,"long":-82.5618},{"zip":"37662","city":"Kingsport","state":"TN","lat":36.5484,"long":-82.5618},{"zip":"37663","city":"Kingsport","state":"TN","lat":36.4715,"long":-82.4834},{"zip":"37664","city":"Kingsport","state":"TN","lat":36.5208,"long":-82.5168},{"zip":"37665","city":"Kingsport","state":"TN","lat":36.5799,"long":-82.5733},{"zip":"37669","city":"Kingsport","state":"TN","lat":36.5484,"long":-82.5618},{"zip":"37686","city":"Piney Flats","state":"TN","lat":36.4461,"long":-82.334},{"zip":"37699","city":"Piney Flats","state":"TN","lat":36.4195,"long":-82.304},{"zip":"37022","city":"Bethpage","state":"TN","lat":36.5186,"long":-86.3146},{"zip":"37031","city":"Castalian Springs","state":"TN","lat":36.3806,"long":-86.3107},{"zip":"37048","city":"Cottontown","state":"TN","lat":36.4912,"long":-86.6033},{"zip":"37066","city":"Gallatin","state":"TN","lat":36.3834,"long":-86.4512},{"zip":"37075","city":"Hendersonville","state":"TN","lat":36.3054,"long":-86.6072},{"zip":"37077","city":"Hendersonville","state":"TN","lat":36.3047,"long":-86.6211},{"zip":"37119","city":"Mitchellville","state":"TN","lat":36.632,"long":-86.539},{"zip":"37148","city":"Portland","state":"TN","lat":36.5673,"long":-86.5059},{"zip":"37186","city":"Westmoreland","state":"TN","lat":36.5756,"long":-86.2353},{"zip":"37074","city":"Hartsville","state":"TN","lat":36.3947,"long":-86.1704},{"zip":"37650","city":"Erwin","state":"TN","lat":36.1342,"long":-82.4163},{"zip":"37657","city":"Flag Pond","state":"TN","lat":36.0085,"long":-82.5623},{"zip":"37692","city":"Unicoi","state":"TN","lat":36.2066,"long":-82.322},{"zip":"37779","city":"Luttrell","state":"TN","lat":36.2001,"long":-83.76},{"zip":"37807","city":"Maynardville","state":"TN","lat":36.2343,"long":-83.8403},{"zip":"37866","city":"Sharps Chapel","state":"TN","lat":36.3685,"long":-83.8127},{"zip":"37110","city":"Mcminnville","state":"TN","lat":35.6834,"long":-85.77},{"zip":"37111","city":"Mcminnville","state":"TN","lat":35.6834,"long":-85.77},{"zip":"37357","city":"Morrison","state":"TN","lat":35.6029,"long":-85.9197},{"zip":"37378","city":"Smartt","state":"TN","lat":35.6403,"long":-85.8366},{"zip":"37394","city":"Viola","state":"TN","lat":35.5384,"long":-85.8591},{"zip":"37601","city":"Johnson City","state":"TN","lat":36.3339,"long":-82.3408},{"zip":"37602","city":"Johnson City","state":"TN","lat":36.2717,"long":-82.5012},{"zip":"37604","city":"Johnson City","state":"TN","lat":36.3107,"long":-82.381},{"zip":"37605","city":"Johnson City","state":"TN","lat":36.3158,"long":-82.3838},{"zip":"37614","city":"Johnson City","state":"TN","lat":36.1571,"long":-82.5626},{"zip":"37615","city":"Johnson City","state":"TN","lat":36.3996,"long":-82.4523},{"zip":"37656","city":"Fall Branch","state":"TN","lat":36.4158,"long":-82.6256},{"zip":"37659","city":"Jonesborough","state":"TN","lat":36.2954,"long":-82.4902},{"zip":"37681","city":"Limestone","state":"TN","lat":36.254,"long":-82.625},{"zip":"37684","city":"Mountain Home","state":"TN","lat":36.3107,"long":-82.3732},{"zip":"37690","city":"Telford","state":"TN","lat":36.2451,"long":-82.5369},{"zip":"37014","city":"Arrington","state":"TN","lat":35.8566,"long":-86.6633},{"zip":"37024","city":"Brentwood","state":"TN","lat":36.0331,"long":-86.7828},{"zip":"37027","city":"Brentwood","state":"TN","lat":36.0063,"long":-86.7909},{"zip":"37046","city":"College Grove","state":"TN","lat":35.7832,"long":-86.7495},{"zip":"37062","city":"Fairview","state":"TN","lat":35.9755,"long":-87.1321},{"zip":"37064","city":"Franklin","state":"TN","lat":35.9328,"long":-86.8788},{"zip":"37065","city":"Franklin","state":"TN","lat":35.9251,"long":-86.8689},{"zip":"37067","city":"Franklin","state":"TN","lat":35.9121,"long":-86.7655},{"zip":"37068","city":"Franklin","state":"TN","lat":35.8746,"long":-86.9076},{"zip":"37069","city":"Franklin","state":"TN","lat":35.9796,"long":-86.9106},{"zip":"37135","city":"Nolensville","state":"TN","lat":35.9307,"long":-86.6829},{"zip":"37179","city":"Thompsons Station","state":"TN","lat":35.809,"long":-86.8913},{"zip":"37071","city":"Gladeville","state":"TN","lat":36.1562,"long":-86.3049},{"zip":"37087","city":"Lebanon","state":"TN","lat":36.2098,"long":-86.3024},{"zip":"37088","city":"Lebanon","state":"TN","lat":36.2081,"long":-86.2911},{"zip":"37090","city":"Lebanon","state":"TN","lat":36.1185,"long":-86.263},{"zip":"37121","city":"Mount Juliet","state":"TN","lat":36.2001,"long":-86.5186},{"zip":"37122","city":"Mount Juliet","state":"TN","lat":36.1897,"long":-86.5023},{"zip":"37136","city":"Norene","state":"TN","lat":36.1562,"long":-86.3049},{"zip":"37184","city":"Watertown","state":"TN","lat":36.0953,"long":-86.1434}]
