[{"zip":"37020","city":"Bell Buckle","state":"TN","lat":35.6381,"long":-86.3949},{"zip":"37016","city":"Auburntown","state":"TN","lat":35.9338,"long":-86.1126},{"zip":"37026","city":"Bradyville","state":"TN","lat":35.7053,"long":-86.0912},{"zip":"37015","city":"Ashland City","state":"TN","lat":36.2731,"long":-87.0447},{"zip":"37035","city":"Chapmansboro","state":"TN","lat":36.3768,"long":-87.1127},{"zip":"37082","city":"Kingston Springs","state":"TN","lat":36.0953,"long":-87.1156},{"zip":"37018","city":"Beechgrove","state":"TN","lat":35.6447,"long":-86.2046},{"zip":"37011","city":"Antioch","state":"TN","lat":36.0601,"long":-86.6722},{"zip":"37013","city":"Antioch","state":"TN","lat":36.0595,"long":-86.6592},{"zip":"37070","city":"Goodlettsville","state":"TN","lat":36.3231,"long":-86.7133},{"zip":"37072","city":"Goodlettsville","state":"TN","lat":36.3417,"long":-86.7212},{"zip":"37076","city":"Hermitage","state":"TN","lat":36.1848,"long":-86.6002},{"zip":"37080","city":"Joelton","state":"TN","lat":36.329,"long":-86.9163},{"zip":"37012","city":"Alexandria","state":"TN","lat":36.0711,"long":-86.0372},{"zip":"37059","city":"Dowelltown","state":"TN","lat":35.9725,"long":-85.9055},{"zip":"37095","city":"Liberty","state":"TN","lat":36.0067,"long":-85.9678},{"zip":"37029","city":"Burns","state":"TN","lat":36.0471,"long":-87.3061},{"zip":"37036","city":"Charlotte","state":"TN","lat":36.2326,"long":-87.2816},{"zip":"37051","city":"Cumberland Furnace","state":"TN","lat":36.2721,"long":-87.3914},{"zip":"37055","city":"Dickson","state":"TN","lat":36.076,"long":-87.3995},{"zip":"37056","city":"Dickson","state":"TN","lat":36.1469,"long":-87.353},{"zip":"37025","city":"Bon Aqua","state":"TN","lat":35.9471,"long":-87.2996},{"zip":"37033","city":"Centerville","state":"TN","lat":35.7797,"long":-87.4775},{"zip":"37098","city":"Lyles","state":"TN","lat":35.8502,"long":-87.3127},{"zip":"37061","city":"Erin","state":"TN","lat":36.3067,"long":-87.679},{"zip":"37078","city":"Hurricane Mills","state":"TN","lat":35.924,"long":-87.8105},{"zip":"37083","city":"Lafayette","state":"TN","lat":36.539,"long":-86.0242},{"zip":"37019","city":"Belfast","state":"TN","lat":35.4069,"long":-86.7095},{"zip":"37034","city":"Chapel Hill","state":"TN","lat":35.6354,"long":-86.6836},{"zip":"37047","city":"Cornersville","state":"TN","lat":35.3409,"long":-86.8286},{"zip":"37091","city":"Lewisburg","state":"TN","lat":35.4596,"long":-86.7812},{"zip":"37040","city":"Clarksville","state":"TN","lat":36.522,"long":-87.349},{"zip":"37041","city":"Clarksville","state":"TN","lat":36.4774,"long":-87.3772},{"zip":"37042","city":"Clarksville","state":"TN","lat":36.5853,"long":-87.4186},{"zip":"37043","city":"Clarksville","state":"TN","lat":36.5107,"long":-87.2757},{"zip":"37044","city":"Clarksville","state":"TN","lat":36.5314,"long":-87.353},{"zip":"37052","city":"Cunningham","state":"TN","lat":36.3789,"long":-87.4245},{"zip":"37096","city":"Linden","state":"TN","lat":35.5944,"long":-87.8567},{"zip":"37097","city":"Lobelville","state":"TN","lat":35.7467,"long":-87.8251},{"zip":"37010","city":"Adams","state":"TN","lat":36.5582,"long":-87.1226},{"zip":"37032","city":"Cedar Hill","state":"TN","lat":36.5514,"long":-86.9992},{"zip":"37049","city":"Cross Plains","state":"TN","lat":36.5531,"long":-86.6761},{"zip":"37073","city":"Greenbrier","state":"TN","lat":36.4229,"long":-86.7914},{"zip":"37037","city":"Christiana","state":"TN","lat":35.696,"long":-86.368},{"zip":"37060","city":"Eagleville","state":"TN","lat":35.7492,"long":-86.6327},{"zip":"37063","city":"Fosterville","state":"TN","lat":35.6551,"long":-86.403},{"zip":"37085","city":"Lascassas","state":"TN","lat":35.9495,"long":-86.3112},{"zip":"37086","city":"La Vergne","state":"TN","lat":36.0127,"long":-86.56},{"zip":"37089","city":"La Vergne","state":"TN","lat":35.8596,"long":-86.421},{"zip":"37030","city":"Carthage","state":"TN","lat":36.2763,"long":-85.9517},{"zip":"37057","city":"Dixon Springs","state":"TN","lat":36.4455,"long":-86.0533},{"zip":"37023","city":"Big Rock","state":"TN","lat":36.5716,"long":-87.7378},{"zip":"37028","city":"Bumpus Mills","state":"TN","lat":36.6226,"long":-87.8614},{"zip":"37050","city":"Cumberland City","state":"TN","lat":36.3729,"long":-87.6306},{"zip":"37058","city":"Dover","state":"TN","lat":36.4942,"long":-87.8787},{"zip":"37079","city":"Indian Mound","state":"TN","lat":36.4946,"long":-87.6804},{"zip":"37022","city":"Bethpage","state":"TN","lat":36.5186,"long":-86.3146},{"zip":"37031","city":"Castalian Springs","state":"TN","lat":36.3806,"long":-86.3107},{"zip":"37048","city":"Cottontown","state":"TN","lat":36.4912,"long":-86.6033},{"zip":"37066","city":"Gallatin","state":"TN","lat":36.3834,"long":-86.4512},{"zip":"37075","city":"Hendersonville","state":"TN","lat":36.3054,"long":-86.6072},{"zip":"37077","city":"Hendersonville","state":"TN","lat":36.3047,"long":-86.6211},{"zip":"37074","city":"Hartsville","state":"TN","lat":36.3947,"long":-86.1704},{"zip":"37014","city":"Arrington","state":"TN","lat":35.8566,"long":-86.6633},{"zip":"37024","city":"Brentwood","state":"TN","lat":36.0331,"long":-86.7828},{"zip":"37027","city":"Brentwood","state":"TN","lat":36.0063,"long":-86.7909},{"zip":"37046","city":"College Grove","state":"TN","lat":35.7832,"long":-86.7495},{"zip":"37062","city":"Fairview","state":"TN","lat":35.9755,"long":-87.1321},{"zip":"37064","city":"Franklin","state":"TN","lat":35.9328,"long":-86.8788},{"zip":"37065","city":"Franklin","state":"TN","lat":35.9251,"long":-86.8689},{"zip":"37067","city":"Franklin","state":"TN","lat":35.9121,"long":-86.7655},{"zip":"37068","city":"Franklin","state":"TN","lat":35.8746,"long":-86.9076},{"zip":"37069","city":"Franklin","state":"TN","lat":35.9796,"long":-86.9106},{"zip":"37071","city":"Gladeville","state":"TN","lat":36.1562,"long":-86.3049},{"zip":"37087","city":"Lebanon","state":"TN","lat":36.2098,"long":-86.3024},{"zip":"37088","city":"Lebanon","state":"TN","lat":36.2081,"long":-86.2911},{"zip":"37090","city":"Lebanon","state":"TN","lat":36.1185,"long":-86.263}]
