[{"zip":"37160","city":"Shelbyville","state":"TN","lat":35.4863,"long":-86.4624},{"zip":"37161","city":"Shelbyville","state":"TN","lat":35.4834,"long":-86.4603},{"zip":"37162","city":"Shelbyville","state":"TN","lat":35.5108,"long":-86.45},{"zip":"37180","city":"Unionville","state":"TN","lat":35.6224,"long":-86.5639},{"zip":"37183","city":"Wartrace","state":"TN","lat":35.5123,"long":-86.3277},{"zip":"37149","city":"Readyville","state":"TN","lat":35.7989,"long":-86.2415},{"zip":"37190","city":"Woodbury","state":"TN","lat":35.8143,"long":-86.05},{"zip":"37143","city":"Pegram","state":"TN","lat":36.1129,"long":-87.0316},{"zip":"37146","city":"Pleasant View","state":"TN","lat":36.3783,"long":-87.0395},{"zip":"37115","city":"Madison","state":"TN","lat":36.2604,"long":-86.7046},{"zip":"37116","city":"Madison","state":"TN","lat":36.1866,"long":-86.7852},{"zip":"37138","city":"Old Hickory","state":"TN","lat":36.2416,"long":-86.6117},{"zip":"37189","city":"Whites Creek","state":"TN","lat":36.2744,"long":-86.8292},{"zip":"37166","city":"Smithville","state":"TN","lat":35.9299,"long":-85.8046},{"zip":"37165","city":"Slayden","state":"TN","lat":36.2948,"long":-87.4703},{"zip":"37181","city":"Vanleer","state":"TN","lat":36.2237,"long":-87.4565},{"zip":"37187","city":"White Bluff","state":"TN","lat":36.1253,"long":-87.219},{"zip":"37137","city":"Nunnelly","state":"TN","lat":35.8763,"long":-87.5067},{"zip":"37140","city":"Only","state":"TN","lat":35.8679,"long":-87.6655},{"zip":"37175","city":"Stewart","state":"TN","lat":36.3241,"long":-87.8725},{"zip":"37178","city":"Tennessee Ridge","state":"TN","lat":36.3297,"long":-87.7808},{"zip":"37101","city":"Mc Ewen","state":"TN","lat":36.1185,"long":-87.6422},{"zip":"37134","city":"New Johnsonville","state":"TN","lat":36.0088,"long":-87.9547},{"zip":"37185","city":"Waverly","state":"TN","lat":36.0997,"long":-87.7991},{"zip":"37144","city":"Petersburg","state":"TN","lat":35.2924,"long":-86.6447},{"zip":"37150","city":"Red Boiling Springs","state":"TN","lat":36.5177,"long":-85.8662},{"zip":"37174","city":"Spring Hill","state":"TN","lat":35.7173,"long":-86.9048},{"zip":"37142","city":"Palmyra","state":"TN","lat":36.4176,"long":-87.4914},{"zip":"37171","city":"Southside","state":"TN","lat":36.3626,"long":-87.3061},{"zip":"37191","city":"Woodlawn","state":"TN","lat":36.5147,"long":-87.5393},{"zip":"37141","city":"Orlinda","state":"TN","lat":36.611,"long":-86.699},{"zip":"37152","city":"Ridgetop","state":"TN","lat":36.4025,"long":-86.7722},{"zip":"37172","city":"Springfield","state":"TN","lat":36.5018,"long":-86.8769},{"zip":"37188","city":"White House","state":"TN","lat":36.46,"long":-86.6705},{"zip":"37118","city":"Milton","state":"TN","lat":35.9221,"long":-86.1824},{"zip":"37127","city":"Murfreesboro","state":"TN","lat":35.763,"long":-86.3722},{"zip":"37128","city":"Murfreesboro","state":"TN","lat":35.8454,"long":-86.4867},{"zip":"37129","city":"Murfreesboro","state":"TN","lat":35.871,"long":-86.4181},{"zip":"37130","city":"Murfreesboro","state":"TN","lat":35.8456,"long":-86.3903},{"zip":"37131","city":"Murfreesboro","state":"TN","lat":35.8596,"long":-86.421},{"zip":"37132","city":"Murfreesboro","state":"TN","lat":35.8596,"long":-86.421},{"zip":"37133","city":"Murfreesboro","state":"TN","lat":35.8456,"long":-86.3903},{"zip":"37153","city":"Rockvale","state":"TN","lat":35.745,"long":-86.5352},{"zip":"37167","city":"Smyrna","state":"TN","lat":35.9656,"long":-86.5048},{"zip":"37145","city":"Pleasant Shade","state":"TN","lat":36.3462,"long":-85.9189},{"zip":"37151","city":"Riddleton","state":"TN","lat":36.3506,"long":-86.0335},{"zip":"37119","city":"Mitchellville","state":"TN","lat":36.632,"long":-86.539},{"zip":"37148","city":"Portland","state":"TN","lat":36.5673,"long":-86.5059},{"zip":"37186","city":"Westmoreland","state":"TN","lat":36.5756,"long":-86.2353},{"zip":"37110","city":"Mcminnville","state":"TN","lat":35.6834,"long":-85.77},{"zip":"37111","city":"Mcminnville","state":"TN","lat":35.6834,"long":-85.77},{"zip":"37135","city":"Nolensville","state":"TN","lat":35.9307,"long":-86.6829},{"zip":"37179","city":"Thompsons Station","state":"TN","lat":35.809,"long":-86.8913},{"zip":"37121","city":"Mount Juliet","state":"TN","lat":36.2001,"long":-86.5186},{"zip":"37122","city":"Mount Juliet","state":"TN","lat":36.1897,"long":-86.5023},{"zip":"37136","city":"Norene","state":"TN","lat":36.1562,"long":-86.3049},{"zip":"37184","city":"Watertown","state":"TN","lat":36.0953,"long":-86.1434}]
