[{"zip":"37401","city":"Chattanooga","state":"TN","lat":35.0456,"long":-85.3097},{"zip":"37402","city":"Chattanooga","state":"TN","lat":35.0463,"long":-85.3161},{"zip":"37403","city":"Chattanooga","state":"TN","lat":35.045,"long":-85.2965},{"zip":"37404","city":"Chattanooga","state":"TN","lat":35.0306,"long":-85.2722},{"zip":"37405","city":"Chattanooga","state":"TN","lat":35.0768,"long":-85.3082},{"zip":"37406","city":"Chattanooga","state":"TN","lat":35.0614,"long":-85.2478},{"zip":"37407","city":"Chattanooga","state":"TN","lat":35.0024,"long":-85.2849},{"zip":"37408","city":"Chattanooga","state":"TN","lat":35.0292,"long":-85.3068},{"zip":"37409","city":"Chattanooga","state":"TN","lat":34.9981,"long":-85.331},{"zip":"37410","city":"Chattanooga","state":"TN","lat":35.0018,"long":-85.3138},{"zip":"37411","city":"Chattanooga","state":"TN","lat":35.0271,"long":-85.2356},{"zip":"37412","city":"Chattanooga","state":"TN","lat":35.0015,"long":-85.2384},{"zip":"37414","city":"Chattanooga","state":"TN","lat":35.0456,"long":-85.3097},{"zip":"37415","city":"Chattanooga","state":"TN","lat":35.1273,"long":-85.2802},{"zip":"37416","city":"Chattanooga","state":"TN","lat":35.0942,"long":-85.1757},{"zip":"37419","city":"Chattanooga","state":"TN","lat":35.0331,"long":-85.3687},{"zip":"37421","city":"Chattanooga","state":"TN","lat":35.025,"long":-85.1459},{"zip":"37422","city":"Chattanooga","state":"TN","lat":35.0456,"long":-85.3097},{"zip":"37424","city":"Chattanooga","state":"TN","lat":35.0456,"long":-85.3097},{"zip":"37450","city":"Chattanooga","state":"TN","lat":35.0456,"long":-85.3097}]
