[{"zip":"37705","city":"Andersonville","state":"TN","lat":36.1915,"long":-84.0544},{"zip":"37710","city":"Briceville","state":"TN","lat":36.1626,"long":-84.2992},{"zip":"37716","city":"Clinton","state":"TN","lat":36.0869,"long":-84.1897},{"zip":"37717","city":"Clinton","state":"TN","lat":36.11,"long":-84.1672},{"zip":"37769","city":"Lake City","state":"TN","lat":36.2032,"long":-84.1386},{"zip":"37701","city":"Alcoa","state":"TN","lat":35.7852,"long":-83.9809},{"zip":"37737","city":"Friendsville","state":"TN","lat":35.7523,"long":-84.1061},{"zip":"37777","city":"Louisville","state":"TN","lat":35.8375,"long":-84.0089},{"zip":"37714","city":"Caryville","state":"TN","lat":36.3028,"long":-84.203},{"zip":"37729","city":"Duff","state":"TN","lat":36.5086,"long":-84.0454},{"zip":"37757","city":"Jacksboro","state":"TN","lat":36.3266,"long":-84.1928},{"zip":"37762","city":"Jellico","state":"TN","lat":36.577,"long":-84.126},{"zip":"37766","city":"La Follette","state":"TN","lat":36.4248,"long":-84.0907},{"zip":"37707","city":"Arthur","state":"TN","lat":36.5481,"long":-83.6707},{"zip":"37715","city":"Clairfield","state":"TN","lat":36.565,"long":-83.9397},{"zip":"37724","city":"Cumberland Gap","state":"TN","lat":36.5504,"long":-83.681},{"zip":"37730","city":"Eagan","state":"TN","lat":36.552,"long":-83.9769},{"zip":"37752","city":"Harrogate","state":"TN","lat":36.5767,"long":-83.6073},{"zip":"37773","city":"Lone Mountain","state":"TN","lat":36.3906,"long":-83.5849},{"zip":"37713","city":"Bybee","state":"TN","lat":36.074,"long":-83.1631},{"zip":"37722","city":"Cosby","state":"TN","lat":35.8347,"long":-83.2187},{"zip":"37727","city":"Del Rio","state":"TN","lat":35.883,"long":-83.015},{"zip":"37753","city":"Hartford","state":"TN","lat":35.8256,"long":-83.0996},{"zip":"37723","city":"Crab Orchard","state":"TN","lat":35.9537,"long":-84.8205},{"zip":"37708","city":"Bean Station","state":"TN","lat":36.3249,"long":-83.3142},{"zip":"37709","city":"Blaine","state":"TN","lat":36.1583,"long":-83.6783},{"zip":"37743","city":"Greeneville","state":"TN","lat":36.1316,"long":-82.8692},{"zip":"37744","city":"Greeneville","state":"TN","lat":36.1683,"long":-82.8548},{"zip":"37745","city":"Greeneville","state":"TN","lat":36.2455,"long":-82.8238},{"zip":"37778","city":"Lowland","state":"TN","lat":36.2133,"long":-83.2752},{"zip":"37765","city":"Kyles Ford","state":"TN","lat":36.5721,"long":-83.0507},{"zip":"37711","city":"Bulls Gap","state":"TN","lat":36.2832,"long":-83.0374},{"zip":"37731","city":"Eidson","state":"TN","lat":36.4995,"long":-83.0827},{"zip":"37725","city":"Dandridge","state":"TN","lat":36.0008,"long":-83.4233},{"zip":"37760","city":"Jefferson City","state":"TN","lat":36.1163,"long":-83.481},{"zip":"37721","city":"Corryton","state":"TN","lat":36.12,"long":-83.813},{"zip":"37754","city":"Heiskell","state":"TN","lat":36.115,"long":-84.0438},{"zip":"37742","city":"Greenback","state":"TN","lat":35.6567,"long":-84.171},{"zip":"37771","city":"Lenoir City","state":"TN","lat":35.8104,"long":-84.2665},{"zip":"37772","city":"Lenoir City","state":"TN","lat":35.7883,"long":-84.2188},{"zip":"37774","city":"Loudon","state":"TN","lat":35.7292,"long":-84.3436},{"zip":"37719","city":"Coalfield","state":"TN","lat":36.0352,"long":-84.3907},{"zip":"37726","city":"Deer Lodge","state":"TN","lat":36.2176,"long":-84.8191},{"zip":"37733","city":"Rugby","state":"TN","lat":36.3519,"long":-84.7137},{"zip":"37770","city":"Lancing","state":"TN","lat":36.1456,"long":-84.7135},{"zip":"37748","city":"Harriman","state":"TN","lat":35.9348,"long":-84.5155},{"zip":"37763","city":"Kingston","state":"TN","lat":35.8528,"long":-84.4971},{"zip":"37732","city":"Elgin","state":"TN","lat":36.3323,"long":-84.6063},{"zip":"37755","city":"Helenwood","state":"TN","lat":36.4329,"long":-84.5381},{"zip":"37756","city":"Huntsville","state":"TN","lat":36.3983,"long":-84.4288},{"zip":"37738","city":"Gatlinburg","state":"TN","lat":35.729,"long":-83.4874},{"zip":"37764","city":"Kodak","state":"TN","lat":35.9722,"long":-83.6171},{"zip":"37779","city":"Luttrell","state":"TN","lat":36.2001,"long":-83.76}]
