[{"zip":"37828","city":"Norris","state":"TN","lat":36.2005,"long":-84.0858},{"zip":"37830","city":"Oak Ridge","state":"TN","lat":36.0159,"long":-84.2623},{"zip":"37831","city":"Oak Ridge","state":"TN","lat":36.106,"long":-84.1958},{"zip":"37801","city":"Maryville","state":"TN","lat":35.6884,"long":-84.0769},{"zip":"37802","city":"Maryville","state":"TN","lat":35.7565,"long":-83.9705},{"zip":"37803","city":"Maryville","state":"TN","lat":35.6539,"long":-83.9956},{"zip":"37804","city":"Maryville","state":"TN","lat":35.7991,"long":-83.8852},{"zip":"37853","city":"Rockford","state":"TN","lat":35.8305,"long":-83.9412},{"zip":"37878","city":"Tallassee","state":"TN","lat":35.5844,"long":-83.9923},{"zip":"37882","city":"Townsend","state":"TN","lat":35.6784,"long":-83.7572},{"zip":"37886","city":"Walland","state":"TN","lat":35.7533,"long":-83.8243},{"zip":"37819","city":"Newcomb","state":"TN","lat":36.5428,"long":-84.1798},{"zip":"37847","city":"Pioneer","state":"TN","lat":36.4695,"long":-84.2907},{"zip":"37824","city":"New Tazewell","state":"TN","lat":36.45,"long":-83.5911},{"zip":"37825","city":"New Tazewell","state":"TN","lat":36.4245,"long":-83.6469},{"zip":"37851","city":"Pruden","state":"TN","lat":36.5862,"long":-83.901},{"zip":"37867","city":"Shawanee","state":"TN","lat":36.5803,"long":-83.6473},{"zip":"37870","city":"Speedwell","state":"TN","lat":36.4797,"long":-83.8135},{"zip":"37879","city":"Tazewell","state":"TN","lat":36.471,"long":-83.5552},{"zip":"37821","city":"Newport","state":"TN","lat":35.9544,"long":-83.2027},{"zip":"37822","city":"Newport","state":"TN","lat":35.967,"long":-83.1877},{"zip":"37843","city":"Parrottsville","state":"TN","lat":35.9983,"long":-83.0736},{"zip":"37848","city":"Powder Springs","state":"TN","lat":36.2357,"long":-83.6801},{"zip":"37861","city":"Rutledge","state":"TN","lat":36.2501,"long":-83.5125},{"zip":"37881","city":"Thorn Hill","state":"TN","lat":36.3917,"long":-83.366},{"zip":"37888","city":"Washburn","state":"TN","lat":36.3106,"long":-83.5937},{"zip":"37809","city":"Midway","state":"TN","lat":36.151,"long":-83.0281},{"zip":"37810","city":"Mohawk","state":"TN","lat":36.1869,"long":-83.0902},{"zip":"37818","city":"Mosheim","state":"TN","lat":36.1839,"long":-82.9674},{"zip":"37813","city":"Morristown","state":"TN","lat":36.1957,"long":-83.2755},{"zip":"37814","city":"Morristown","state":"TN","lat":36.2248,"long":-83.3119},{"zip":"37815","city":"Morristown","state":"TN","lat":36.2133,"long":-83.2752},{"zip":"37816","city":"Morristown","state":"TN","lat":36.2133,"long":-83.2752},{"zip":"37860","city":"Russellville","state":"TN","lat":36.2567,"long":-83.1914},{"zip":"37877","city":"Talbott","state":"TN","lat":36.16,"long":-83.4129},{"zip":"37891","city":"Whitesburg","state":"TN","lat":36.2621,"long":-83.1458},{"zip":"37869","city":"Sneedville","state":"TN","lat":36.5275,"long":-83.2529},{"zip":"37811","city":"Mooresburg","state":"TN","lat":36.3621,"long":-83.2095},{"zip":"37857","city":"Rogersville","state":"TN","lat":36.4162,"long":-83.0108},{"zip":"37873","city":"Surgoinsville","state":"TN","lat":36.4741,"long":-82.8306},{"zip":"37820","city":"New Market","state":"TN","lat":36.081,"long":-83.5673},{"zip":"37871","city":"Strawberry Plains","state":"TN","lat":36.0687,"long":-83.6568},{"zip":"37890","city":"White Pine","state":"TN","lat":36.0776,"long":-83.2998},{"zip":"37806","city":"Mascot","state":"TN","lat":36.0844,"long":-83.7411},{"zip":"37849","city":"Powell","state":"TN","lat":36.0435,"long":-84.04},{"zip":"37846","city":"Philadelphia","state":"TN","lat":35.6781,"long":-84.4312},{"zip":"37826","city":"Niota","state":"TN","lat":35.5819,"long":-84.5721},{"zip":"37880","city":"Ten Mile","state":"TN","lat":35.6862,"long":-84.6548},{"zip":"37874","city":"Sweetwater","state":"TN","lat":35.6015,"long":-84.461},{"zip":"37885","city":"Vonore","state":"TN","lat":35.5354,"long":-84.1778},{"zip":"37829","city":"Oakdale","state":"TN","lat":36.01,"long":-84.5753},{"zip":"37840","city":"Oliver Springs","state":"TN","lat":36.0366,"long":-84.3486},{"zip":"37845","city":"Petros","state":"TN","lat":36.0959,"long":-84.4424},{"zip":"37872","city":"Sunbright","state":"TN","lat":36.2622,"long":-84.6984},{"zip":"37887","city":"Wartburg","state":"TN","lat":36.1016,"long":-84.5652},{"zip":"37854","city":"Rockwood","state":"TN","lat":35.8587,"long":-84.6842},{"zip":"37841","city":"Oneida","state":"TN","lat":36.5053,"long":-84.5293},{"zip":"37852","city":"Robbins","state":"TN","lat":36.3527,"long":-84.5904},{"zip":"37892","city":"Winfield","state":"TN","lat":36.5598,"long":-84.434},{"zip":"37862","city":"Sevierville","state":"TN","lat":35.8452,"long":-83.5386},{"zip":"37863","city":"Pigeon Forge","state":"TN","lat":35.7922,"long":-83.5638},{"zip":"37864","city":"Sevierville","state":"TN","lat":35.8542,"long":-83.6138},{"zip":"37865","city":"Seymour","state":"TN","lat":35.87,"long":-83.7495},{"zip":"37868","city":"Pigeon Forge","state":"TN","lat":35.8809,"long":-83.5561},{"zip":"37876","city":"Sevierville","state":"TN","lat":35.866,"long":-83.4793},{"zip":"37807","city":"Maynardville","state":"TN","lat":36.2343,"long":-83.8403},{"zip":"37866","city":"Sharps Chapel","state":"TN","lat":36.3685,"long":-83.8127}]
