[{"zip":"37901","city":"Knoxville","state":"TN","lat":36.0323,"long":-83.8848},{"zip":"37902","city":"Knoxville","state":"TN","lat":35.9625,"long":-83.9209},{"zip":"37909","city":"Knoxville","state":"TN","lat":35.946,"long":-84.0235},{"zip":"37912","city":"Knoxville","state":"TN","lat":36.0055,"long":-83.9773},{"zip":"37914","city":"Knoxville","state":"TN","lat":35.9918,"long":-83.8496},{"zip":"37915","city":"Knoxville","state":"TN","lat":35.9721,"long":-83.901},{"zip":"37916","city":"Knoxville","state":"TN","lat":35.9556,"long":-83.9336},{"zip":"37917","city":"Knoxville","state":"TN","lat":35.998,"long":-83.9152},{"zip":"37918","city":"Knoxville","state":"TN","lat":36.0501,"long":-83.9226},{"zip":"37919","city":"Knoxville","state":"TN","lat":35.9244,"long":-84.0015},{"zip":"37920","city":"Knoxville","state":"TN","lat":35.8929,"long":-83.9387},{"zip":"37921","city":"Knoxville","state":"TN","lat":35.9793,"long":-84.003},{"zip":"37922","city":"Knoxville","state":"TN","lat":35.858,"long":-84.1194},{"zip":"37923","city":"Knoxville","state":"TN","lat":35.9331,"long":-84.0761},{"zip":"37924","city":"Knoxville","state":"TN","lat":36.032,"long":-83.8021},{"zip":"37927","city":"Knoxville","state":"TN","lat":35.9901,"long":-83.9622},{"zip":"37928","city":"Knoxville","state":"TN","lat":35.9901,"long":-83.9622},{"zip":"37929","city":"Knoxville","state":"TN","lat":35.9606,"long":-83.9207},{"zip":"37930","city":"Knoxville","state":"TN","lat":35.9029,"long":-83.9536},{"zip":"37931","city":"Knoxville","state":"TN","lat":35.9924,"long":-84.1201},{"zip":"37932","city":"Knoxville","state":"TN","lat":35.9335,"long":-84.1481},{"zip":"37933","city":"Knoxville","state":"TN","lat":35.9901,"long":-83.9622},{"zip":"37934","city":"Knoxville","state":"TN","lat":35.8762,"long":-84.1746},{"zip":"37938","city":"Knoxville","state":"TN","lat":36.1055,"long":-83.946},{"zip":"37939","city":"Knoxville","state":"TN","lat":35.9901,"long":-83.9622},{"zip":"37940","city":"Knoxville","state":"TN","lat":35.9901,"long":-83.9622},{"zip":"37950","city":"Knoxville","state":"TN","lat":35.9901,"long":-83.9622},{"zip":"37995","city":"Knoxville","state":"TN","lat":35.9606,"long":-83.9207},{"zip":"37996","city":"Knoxville","state":"TN","lat":35.9901,"long":-83.9622},{"zip":"37997","city":"Knoxville","state":"TN","lat":35.9901,"long":-83.9622},{"zip":"37998","city":"Knoxville","state":"TN","lat":35.9351,"long":-83.7503}]
