[{"zip":"38834","city":"Corinth","state":"MS","lat":34.8759,"long":-88.5916},{"zip":"38835","city":"Corinth","state":"MS","lat":34.9205,"long":-88.5218},{"zip":"38846","city":"Glen","state":"MS","lat":34.878,"long":-88.4359},{"zip":"38865","city":"Rienzi","state":"MS","lat":34.7968,"long":-88.5795},{"zip":"38603","city":"Ashland","state":"MS","lat":34.8346,"long":-89.1427},{"zip":"38633","city":"Hickory Flat","state":"MS","lat":34.6244,"long":-89.1862},{"zip":"38647","city":"Michigan City","state":"MS","lat":34.9608,"long":-89.2267},{"zip":"38720","city":"Alligator","state":"MS","lat":34.1294,"long":-90.7382},{"zip":"38725","city":"Benoit","state":"MS","lat":33.6448,"long":-91.0338},{"zip":"38726","city":"Beulah","state":"MS","lat":33.788,"long":-90.9795},{"zip":"38730","city":"Boyle","state":"MS","lat":33.6891,"long":-90.7838},{"zip":"38732","city":"Cleveland","state":"MS","lat":33.743,"long":-90.7309},{"zip":"38733","city":"Cleveland","state":"MS","lat":33.624,"long":-90.8195},{"zip":"38740","city":"Duncan","state":"MS","lat":34.047,"long":-90.7652},{"zip":"38746","city":"Gunnison","state":"MS","lat":33.9439,"long":-90.9319},{"zip":"38759","city":"Merigold","state":"MS","lat":33.8373,"long":-90.7256},{"zip":"38762","city":"Mound Bayou","state":"MS","lat":33.886,"long":-90.7302},{"zip":"38764","city":"Pace","state":"MS","lat":33.7915,"long":-90.857},{"zip":"38769","city":"Rosedale","state":"MS","lat":33.8432,"long":-90.9923},{"zip":"38772","city":"Scott","state":"MS","lat":33.5629,"long":-91.0391},{"zip":"38773","city":"Shaw","state":"MS","lat":33.6021,"long":-90.7746},{"zip":"38774","city":"Shelby","state":"MS","lat":33.9491,"long":-90.7625},{"zip":"38781","city":"Winstonville","state":"MS","lat":33.9101,"long":-90.7515},{"zip":"38839","city":"Derma","state":"MS","lat":33.8562,"long":-89.3032},{"zip":"38878","city":"Vardaman","state":"MS","lat":33.919,"long":-89.1921},{"zip":"38913","city":"Banner","state":"MS","lat":34.0949,"long":-89.4154},{"zip":"38914","city":"Big Creek","state":"MS","lat":33.8514,"long":-89.4378},{"zip":"38915","city":"Bruce","state":"MS","lat":34.0066,"long":-89.3484},{"zip":"38916","city":"Calhoun City","state":"MS","lat":33.8408,"long":-89.3178},{"zip":"38951","city":"Pittsboro","state":"MS","lat":33.9443,"long":-89.3376},{"zip":"38955","city":"Slate Spring","state":"MS","lat":33.7439,"long":-89.3753},{"zip":"38917","city":"Carrollton","state":"MS","lat":33.5208,"long":-89.9506},{"zip":"38923","city":"Coila","state":"MS","lat":33.3731,"long":-89.9915},{"zip":"38943","city":"Mc Carley","state":"MS","lat":33.5864,"long":-89.8513},{"zip":"38947","city":"North Carrollton","state":"MS","lat":33.5324,"long":-89.9001},{"zip":"38954","city":"Sidon","state":"MS","lat":33.4095,"long":-90.1779},{"zip":"38850","city":"Houlka","state":"MS","lat":34.0561,"long":-89.0531},{"zip":"38851","city":"Houston","state":"MS","lat":33.9026,"long":-88.967},{"zip":"38860","city":"Okolona","state":"MS","lat":33.9694,"long":-88.7638},{"zip":"38875","city":"Trebloc","state":"MS","lat":33.9068,"long":-88.9554},{"zip":"38877","city":"Van Vleet","state":"MS","lat":33.9871,"long":-88.8988},{"zip":"38614","city":"Clarksdale","state":"MS","lat":34.256,"long":-90.6348},{"zip":"38617","city":"Coahoma","state":"MS","lat":34.3668,"long":-90.5232},{"zip":"38630","city":"Farrell","state":"MS","lat":34.2643,"long":-90.6723},{"zip":"38631","city":"Friars Point","state":"MS","lat":34.3668,"long":-90.6376},{"zip":"38639","city":"Jonestown","state":"MS","lat":34.3037,"long":-90.4294},{"zip":"38644","city":"Lula","state":"MS","lat":34.4618,"long":-90.4981},{"zip":"38645","city":"Lyon","state":"MS","lat":34.2474,"long":-90.4981},{"zip":"38669","city":"Sherard","state":"MS","lat":34.1953,"long":-90.7335},{"zip":"38739","city":"Dublin","state":"MS","lat":34.0604,"long":-90.5011},{"zip":"38767","city":"Rena Lara","state":"MS","lat":34.1412,"long":-90.7865},{"zip":"38632","city":"Hernando","state":"MS","lat":34.8096,"long":-90.0095},{"zip":"38637","city":"Horn Lake","state":"MS","lat":34.9519,"long":-90.0507},{"zip":"38641","city":"Lake Cormorant","state":"MS","lat":34.8937,"long":-90.1608},{"zip":"38651","city":"Nesbit","state":"MS","lat":34.8992,"long":-90.0122},{"zip":"38654","city":"Olive Branch","state":"MS","lat":34.9441,"long":-89.8544},{"zip":"38671","city":"Southaven","state":"MS","lat":34.9771,"long":-89.9992},{"zip":"38672","city":"Southaven","state":"MS","lat":34.9474,"long":-89.9258},{"zip":"38680","city":"Walls","state":"MS","lat":34.9641,"long":-90.1208},{"zip":"38686","city":"Walls","state":"MS","lat":34.9582,"long":-90.1526},{"zip":"38901","city":"Grenada","state":"MS","lat":33.7751,"long":-89.8087},{"zip":"38902","city":"Grenada","state":"MS","lat":33.769,"long":-89.8084},{"zip":"38926","city":"Elliott","state":"MS","lat":33.6895,"long":-89.7583},{"zip":"38929","city":"Gore Springs","state":"MS","lat":33.7245,"long":-89.5754},{"zip":"38940","city":"Holcomb","state":"MS","lat":33.7551,"long":-90.0333},{"zip":"38960","city":"Tie Plant","state":"MS","lat":33.7872,"long":-89.8219},{"zip":"38924","city":"Cruger","state":"MS","lat":33.311,"long":-90.2316},{"zip":"38754","city":"Isola","state":"MS","lat":33.2471,"long":-90.604},{"zip":"38745","city":"Grace","state":"MS","lat":32.9775,"long":-90.983},{"zip":"38843","city":"Fulton","state":"MS","lat":34.2745,"long":-88.3793},{"zip":"38847","city":"Golden","state":"MS","lat":34.4812,"long":-88.1842},{"zip":"38855","city":"Mantachie","state":"MS","lat":34.3243,"long":-88.4912},{"zip":"38858","city":"Nettleton","state":"MS","lat":34.0821,"long":-88.6052},{"zip":"38876","city":"Tremont","state":"MS","lat":34.2335,"long":-88.2392},{"zip":"38601","city":"Abbeville","state":"MS","lat":34.4719,"long":-89.4475},{"zip":"38655","city":"Oxford","state":"MS","lat":34.3308,"long":-89.4835},{"zip":"38673","city":"Taylor","state":"MS","lat":34.2849,"long":-89.6273},{"zip":"38675","city":"Tula","state":"MS","lat":34.3582,"long":-89.4839},{"zip":"38677","city":"University","state":"MS","lat":34.3396,"long":-89.5736},{"zip":"38685","city":"Waterford","state":"MS","lat":34.5476,"long":-89.6129},{"zip":"38874","city":"Toccopola","state":"MS","lat":34.2265,"long":-89.2519},{"zip":"38949","city":"Paris","state":"MS","lat":34.1992,"long":-89.382},{"zip":"38801","city":"Tupelo","state":"MS","lat":34.2538,"long":-88.7209},{"zip":"38802","city":"Tupelo","state":"MS","lat":34.2345,"long":-88.7671},{"zip":"38803","city":"Tupelo","state":"MS","lat":34.1876,"long":-88.7785},{"zip":"38804","city":"Tupelo","state":"MS","lat":34.2823,"long":-88.6715},{"zip":"38824","city":"Baldwyn","state":"MS","lat":34.528,"long":-88.6375},{"zip":"38826","city":"Belden","state":"MS","lat":34.3057,"long":-88.8462},{"zip":"38849","city":"Guntown","state":"MS","lat":34.4563,"long":-88.6975},{"zip":"38857","city":"Mooreville","state":"MS","lat":34.2808,"long":-88.595},{"zip":"38862","city":"Plantersville","state":"MS","lat":34.2011,"long":-88.6335},{"zip":"38866","city":"Saltillo","state":"MS","lat":34.3831,"long":-88.6674},{"zip":"38868","city":"Shannon","state":"MS","lat":34.121,"long":-88.7342},{"zip":"38879","city":"Verona","state":"MS","lat":34.1707,"long":-88.7591},{"zip":"38930","city":"Greenwood","state":"MS","lat":33.5159,"long":-90.1726},{"zip":"38935","city":"Greenwood","state":"MS","lat":33.5162,"long":-90.1795},{"zip":"38941","city":"Itta Bena","state":"MS","lat":33.4798,"long":-90.3394},{"zip":"38944","city":"Minter City","state":"MS","lat":33.7515,"long":-90.3133},{"zip":"38945","city":"Money","state":"MS","lat":33.6507,"long":-90.1969},{"zip":"38946","city":"Morgan City","state":"MS","lat":33.3807,"long":-90.3504},{"zip":"38952","city":"Schlater","state":"MS","lat":33.6244,"long":-90.362},{"zip":"38959","city":"Swiftown","state":"MS","lat":33.3809,"long":-90.3496},{"zip":"38611","city":"Byhalia","state":"MS","lat":34.8854,"long":-89.6763},{"zip":"38634","city":"Holly Springs","state":"MS","lat":34.7676,"long":-89.4487},{"zip":"38635","city":"Holly Springs","state":"MS","lat":34.7471,"long":-89.4897},{"zip":"38642","city":"Lamar","state":"MS","lat":34.9271,"long":-89.3163},{"zip":"38649","city":"Mount Pleasant","state":"MS","lat":34.9536,"long":-89.523},{"zip":"38659","city":"Potts Camp","state":"MS","lat":34.6047,"long":-89.3151},{"zip":"38661","city":"Red Banks","state":"MS","lat":34.8937,"long":-89.5649},{"zip":"38679","city":"Victoria","state":"MS","lat":34.8708,"long":-89.6408},{"zip":"38821","city":"Amory","state":"MS","lat":33.9844,"long":-88.4709},{"zip":"38825","city":"Becker","state":"MS","lat":33.8698,"long":-88.4622},{"zip":"38844","city":"Gattman","state":"MS","lat":33.8742,"long":-88.2588},{"zip":"38848","city":"Greenwood Springs","state":"MS","lat":33.8871,"long":-88.3089},{"zip":"38870","city":"Smithville","state":"MS","lat":34.0648,"long":-88.39},{"zip":"38925","city":"Duck Hill","state":"MS","lat":33.5632,"long":-89.6419},{"zip":"38967","city":"Winona","state":"MS","lat":33.4858,"long":-89.7277},{"zip":"38606","city":"Batesville","state":"MS","lat":34.3115,"long":-89.9443},{"zip":"38619","city":"Como","state":"MS","lat":34.5137,"long":-89.9155},{"zip":"38620","city":"Courtland","state":"MS","lat":34.2596,"long":-89.9396},{"zip":"38621","city":"Crenshaw","state":"MS","lat":34.4491,"long":-90.1701},{"zip":"38658","city":"Pope","state":"MS","lat":34.1906,"long":-90.0027},{"zip":"38665","city":"Sarah","state":"MS","lat":34.591,"long":-90.162},{"zip":"38666","city":"Sardis","state":"MS","lat":34.4276,"long":-89.9221},{"zip":"38820","city":"Algoma","state":"MS","lat":34.1715,"long":-89.0328},{"zip":"38841","city":"Ecru","state":"MS","lat":34.3366,"long":-89.0109},{"zip":"38863","city":"Pontotoc","state":"MS","lat":34.217,"long":-88.9868},{"zip":"38864","city":"Randolph","state":"MS","lat":34.1617,"long":-89.1795},{"zip":"38869","city":"Sherman","state":"MS","lat":34.3575,"long":-88.8351},{"zip":"38871","city":"Thaxton","state":"MS","lat":34.3136,"long":-89.1515},{"zip":"38829","city":"Booneville","state":"MS","lat":34.6694,"long":-88.5443},{"zip":"38856","city":"Marietta","state":"MS","lat":34.5011,"long":-88.4498},{"zip":"38859","city":"New Site","state":"MS","lat":34.5315,"long":-88.3875},{"zip":"38880","city":"Wheeler","state":"MS","lat":34.6126,"long":-88.5822},{"zip":"38609","city":"Belen","state":"MS","lat":34.2351,"long":-90.2927},{"zip":"38622","city":"Crowder","state":"MS","lat":34.1731,"long":-90.1364},{"zip":"38623","city":"Darling","state":"MS","lat":34.359,"long":-90.2743},{"zip":"38628","city":"Falcon","state":"MS","lat":34.3932,"long":-90.2565},{"zip":"38643","city":"Lambert","state":"MS","lat":34.1837,"long":-90.263},{"zip":"38646","city":"Marks","state":"MS","lat":34.2607,"long":-90.2816},{"zip":"38964","city":"Vance","state":"MS","lat":34.0936,"long":-90.3752},{"zip":"38721","city":"Anguilla","state":"MS","lat":32.9739,"long":-90.8316},{"zip":"38765","city":"Panther Burn","state":"MS","lat":33.0662,"long":-90.8684},{"zip":"38736","city":"Doddsville","state":"MS","lat":33.63,"long":-90.5264},{"zip":"38737","city":"Drew","state":"MS","lat":33.867,"long":-90.5406},{"zip":"38738","city":"Parchman","state":"MS","lat":33.9179,"long":-90.4965},{"zip":"38749","city":"Indianola","state":"MS","lat":33.451,"long":-90.6551},{"zip":"38751","city":"Indianola","state":"MS","lat":33.451,"long":-90.6551},{"zip":"38753","city":"Inverness","state":"MS","lat":33.349,"long":-90.6051},{"zip":"38761","city":"Moorhead","state":"MS","lat":33.4783,"long":-90.5143},{"zip":"38768","city":"Rome","state":"MS","lat":33.9632,"long":-90.4784},{"zip":"38771","city":"Ruleville","state":"MS","lat":33.7241,"long":-90.5527},{"zip":"38778","city":"Sunflower","state":"MS","lat":33.5567,"long":-90.5451},{"zip":"38920","city":"Cascilla","state":"MS","lat":33.9079,"long":-90.0362},{"zip":"38921","city":"Charleston","state":"MS","lat":33.9726,"long":-90.1116},{"zip":"38927","city":"Enid","state":"MS","lat":34.1263,"long":-90.0044},{"zip":"38928","city":"Glendora","state":"MS","lat":33.8573,"long":-90.288},{"zip":"38950","city":"Philipp","state":"MS","lat":33.7574,"long":-90.2091},{"zip":"38957","city":"Sumner","state":"MS","lat":33.9833,"long":-90.3895},{"zip":"38958","city":"Swan Lake","state":"MS","lat":33.9292,"long":-90.1885},{"zip":"38962","city":"Tippo","state":"MS","lat":33.9292,"long":-90.1885},{"zip":"38963","city":"Tutwiler","state":"MS","lat":34.0148,"long":-90.4318},{"zip":"38966","city":"Webb","state":"MS","lat":33.9473,"long":-90.3443},{"zip":"38602","city":"Arkabutla","state":"MS","lat":34.6863,"long":-90.1068},{"zip":"38618","city":"Coldwater","state":"MS","lat":34.6924,"long":-89.9869},{"zip":"38638","city":"Independence","state":"MS","lat":34.6959,"long":-89.8288},{"zip":"38668","city":"Senatobia","state":"MS","lat":34.6323,"long":-89.8855},{"zip":"38610","city":"Blue Mountain","state":"MS","lat":34.671,"long":-89.0088},{"zip":"38625","city":"Dumas","state":"MS","lat":34.6491,"long":-88.8072},{"zip":"38629","city":"Falkner","state":"MS","lat":34.8417,"long":-88.9525},{"zip":"38663","city":"Ripley","state":"MS","lat":34.7509,"long":-88.924},{"zip":"38674","city":"Tiplersville","state":"MS","lat":34.9029,"long":-88.9157},{"zip":"38683","city":"Walnut","state":"MS","lat":34.9527,"long":-88.9053},{"zip":"38827","city":"Belmont","state":"MS","lat":34.5102,"long":-88.2309},{"zip":"38833","city":"Burnsville","state":"MS","lat":34.8579,"long":-88.307},{"zip":"38838","city":"Dennis","state":"MS","lat":34.5497,"long":-88.2117},{"zip":"38852","city":"Iuka","state":"MS","lat":34.8089,"long":-88.1983},{"zip":"38873","city":"Tishomingo","state":"MS","lat":34.6478,"long":-88.2194},{"zip":"38626","city":"Dundee","state":"MS","lat":34.5357,"long":-90.3693},{"zip":"38664","city":"Robinsonville","state":"MS","lat":34.8093,"long":-90.3052},{"zip":"38670","city":"Sledge","state":"MS","lat":34.3823,"long":-90.209},{"zip":"38676","city":"Tunica","state":"MS","lat":34.6884,"long":-90.3685},{"zip":"38627","city":"Etta","state":"MS","lat":34.4352,"long":-89.1767},{"zip":"38650","city":"Myrtle","state":"MS","lat":34.5402,"long":-89.1157},{"zip":"38652","city":"New Albany","state":"MS","lat":34.4851,"long":-89.0031},{"zip":"38828","city":"Blue Springs","state":"MS","lat":34.4273,"long":-88.859},{"zip":"38701","city":"Greenville","state":"MS","lat":33.3787,"long":-91.0468},{"zip":"38702","city":"Greenville","state":"MS","lat":33.4258,"long":-90.9946},{"zip":"38703","city":"Greenville","state":"MS","lat":33.4085,"long":-91.0228},{"zip":"38704","city":"Greenville","state":"MS","lat":33.2534,"long":-90.9185},{"zip":"38722","city":"Arcola","state":"MS","lat":33.2698,"long":-90.8798},{"zip":"38723","city":"Avon","state":"MS","lat":33.219,"long":-91.0479},{"zip":"38731","city":"Chatham","state":"MS","lat":33.1007,"long":-91.0979},{"zip":"38744","city":"Glen Allan","state":"MS","lat":33.0254,"long":-91.0092},{"zip":"38748","city":"Hollandale","state":"MS","lat":33.149,"long":-90.9041},{"zip":"38756","city":"Leland","state":"MS","lat":33.3985,"long":-90.8839},{"zip":"38760","city":"Metcalfe","state":"MS","lat":33.4546,"long":-90.9943},{"zip":"38776","city":"Stoneville","state":"MS","lat":33.4096,"long":-90.9104},{"zip":"38780","city":"Wayside","state":"MS","lat":33.269,"long":-91.0337},{"zip":"38782","city":"Winterville","state":"MS","lat":33.5018,"long":-91.0584},{"zip":"38922","city":"Coffeeville","state":"MS","lat":33.9215,"long":-89.6782},{"zip":"38948","city":"Oakland","state":"MS","lat":34.0756,"long":-89.8877},{"zip":"38953","city":"Scobey","state":"MS","lat":33.9253,"long":-89.891},{"zip":"38961","city":"Tillatoba","state":"MS","lat":33.9852,"long":-89.8945},{"zip":"38965","city":"Water Valley","state":"MS","lat":34.1525,"long":-89.638},{"zip":"38221","city":"Big Sandy","state":"TN","lat":36.2285,"long":-88.0627},{"zip":"38320","city":"Camden","state":"TN","lat":36.0556,"long":-88.1119},{"zip":"38333","city":"Eva","state":"TN","lat":36.1142,"long":-87.982},{"zip":"38341","city":"Holladay","state":"TN","lat":35.8951,"long":-88.0912},{"zip":"38201","city":"Mc Kenzie","state":"TN","lat":36.1272,"long":-88.5134},{"zip":"38220","city":"Atwood","state":"TN","lat":35.9663,"long":-88.6247},{"zip":"38235","city":"Mc Lemoresville","state":"TN","lat":35.9778,"long":-88.5744},{"zip":"38258","city":"Trezevant","state":"TN","lat":36.0172,"long":-88.61},{"zip":"38317","city":"Bruceton","state":"TN","lat":36.0268,"long":-88.2518},{"zip":"38318","city":"Buena Vista","state":"TN","lat":35.9431,"long":-88.2926},{"zip":"38321","city":"Cedar Grove","state":"TN","lat":35.8613,"long":-88.5517},{"zip":"38324","city":"Clarksburg","state":"TN","lat":35.8675,"long":-88.3934},{"zip":"38342","city":"Hollow Rock","state":"TN","lat":36.0381,"long":-88.2737},{"zip":"38344","city":"Huntingdon","state":"TN","lat":36.0062,"long":-88.4202},{"zip":"38348","city":"Lavinia","state":"TN","lat":35.8583,"long":-88.6324},{"zip":"38387","city":"Westport","state":"TN","lat":35.8845,"long":-88.2892},{"zip":"38390","city":"Yuma","state":"TN","lat":35.868,"long":-88.3819},{"zip":"38332","city":"Enville","state":"TN","lat":35.4393,"long":-88.4206},{"zip":"38340","city":"Henderson","state":"TN","lat":35.4269,"long":-88.6398},{"zip":"38347","city":"Jacks Creek","state":"TN","lat":35.4782,"long":-88.5019},{"zip":"38352","city":"Luray","state":"TN","lat":35.5355,"long":-88.5379},{"zip":"38551","city":"Celina","state":"TN","lat":36.5475,"long":-85.4966},{"zip":"38575","city":"Moss","state":"TN","lat":36.5966,"long":-85.6772},{"zip":"38001","city":"Alamo","state":"TN","lat":35.8017,"long":-89.1765},{"zip":"38006","city":"Bells","state":"TN","lat":35.7198,"long":-89.0729},{"zip":"38021","city":"Crockett Mills","state":"TN","lat":35.8676,"long":-89.1692},{"zip":"38034","city":"Friendship","state":"TN","lat":35.909,"long":-89.2453},{"zip":"38050","city":"Maury City","state":"TN","lat":35.8379,"long":-89.2273},{"zip":"38336","city":"Fruitvale","state":"TN","lat":35.7484,"long":-89.0327},{"zip":"38337","city":"Gadsden","state":"TN","lat":35.7799,"long":-88.9929},{"zip":"38555","city":"Crossville","state":"TN","lat":35.9623,"long":-85.0514},{"zip":"38557","city":"Crossville","state":"TN","lat":35.9885,"long":-85.0124},{"zip":"38558","city":"Crossville","state":"TN","lat":36.0077,"long":-84.8719},{"zip":"38571","city":"Crossville","state":"TN","lat":36.0527,"long":-85.0138},{"zip":"38572","city":"Crossville","state":"TN","lat":35.8487,"long":-85.1308},{"zip":"38578","city":"Pleasant Hill","state":"TN","lat":35.9813,"long":-85.1984},{"zip":"38311","city":"Bath Springs","state":"TN","lat":35.4521,"long":-88.1286},{"zip":"38329","city":"Decaturville","state":"TN","lat":35.5585,"long":-88.1334},{"zip":"38363","city":"Parsons","state":"TN","lat":35.6664,"long":-88.1195},{"zip":"38374","city":"Scotts Hill","state":"TN","lat":35.505,"long":-88.2405},{"zip":"38380","city":"Sugar Tree","state":"TN","lat":35.792,"long":-88.0322},{"zip":"38007","city":"Bogota","state":"TN","lat":36.164,"long":-89.4384},{"zip":"38024","city":"Dyersburg","state":"TN","lat":36.0444,"long":-89.3836},{"zip":"38025","city":"Dyersburg","state":"TN","lat":36.0345,"long":-89.3856},{"zip":"38030","city":"Finley","state":"TN","lat":36.0169,"long":-89.5134},{"zip":"38047","city":"Lenox","state":"TN","lat":36.0892,"long":-89.4984},{"zip":"38059","city":"Newbern","state":"TN","lat":36.1009,"long":-89.2514},{"zip":"38070","city":"Tigrett","state":"TN","lat":35.942,"long":-89.2434},{"zip":"38259","city":"Trimble","state":"TN","lat":36.2011,"long":-89.1863},{"zip":"38010","city":"Braden","state":"TN","lat":35.2886,"long":-89.488},{"zip":"38036","city":"Gallaway","state":"TN","lat":35.3274,"long":-89.6198},{"zip":"38045","city":"Laconia","state":"TN","lat":35.2904,"long":-89.2322},{"zip":"38046","city":"La Grange","state":"TN","lat":35.0454,"long":-89.2437},{"zip":"38048","city":"Macon","state":"TN","lat":35.1507,"long":-89.4814},{"zip":"38057","city":"Moscow","state":"TN","lat":35.0588,"long":-89.3595},{"zip":"38060","city":"Oakland","state":"TN","lat":35.229,"long":-89.5151},{"zip":"38066","city":"Rossville","state":"TN","lat":35.0768,"long":-89.5678},{"zip":"38068","city":"Somerville","state":"TN","lat":35.2772,"long":-89.3918},{"zip":"38076","city":"Williston","state":"TN","lat":35.1576,"long":-89.3684},{"zip":"38504","city":"Allardt","state":"TN","lat":36.3818,"long":-84.7756},{"zip":"38553","city":"Clarkrange","state":"TN","lat":36.2112,"long":-84.9777},{"zip":"38556","city":"Jamestown","state":"TN","lat":36.4245,"long":-84.9357},{"zip":"38565","city":"Grimsley","state":"TN","lat":36.2598,"long":-85.0015},{"zip":"38577","city":"Pall Mall","state":"TN","lat":36.5781,"long":-85.0384},{"zip":"38589","city":"Wilder","state":"TN","lat":36.2822,"long":-85.0913},{"zip":"38233","city":"Kenton","state":"TN","lat":36.1906,"long":-89.0229},{"zip":"38316","city":"Bradford","state":"TN","lat":36.0645,"long":-88.8046},{"zip":"38330","city":"Dyer","state":"TN","lat":36.0716,"long":-89.0192},{"zip":"38331","city":"Eaton","state":"TN","lat":35.9693,"long":-89.1319},{"zip":"38338","city":"Gibson","state":"TN","lat":35.8708,"long":-88.8464},{"zip":"38343","city":"Humboldt","state":"TN","lat":35.837,"long":-88.9057},{"zip":"38346","city":"Idlewild","state":"TN","lat":36.0306,"long":-88.8056},{"zip":"38355","city":"Medina","state":"TN","lat":35.8081,"long":-88.7627},{"zip":"38358","city":"Milan","state":"TN","lat":35.9251,"long":-88.7688},{"zip":"38369","city":"Rutherford","state":"TN","lat":36.13,"long":-88.9849},{"zip":"38382","city":"Trenton","state":"TN","lat":35.9712,"long":-88.9507},{"zip":"38389","city":"Yorkville","state":"TN","lat":36.1354,"long":-89.1117},{"zip":"38449","city":"Ardmore","state":"TN","lat":35.0574,"long":-86.8796},{"zip":"38455","city":"Elkton","state":"TN","lat":35.0523,"long":-86.8886},{"zip":"38459","city":"Frankewing","state":"TN","lat":35.1834,"long":-86.85},{"zip":"38460","city":"Goodspring","state":"TN","lat":35.1167,"long":-87.1278},{"zip":"38472","city":"Lynnville","state":"TN","lat":35.3792,"long":-87.0629},{"zip":"38473","city":"Minor Hill","state":"TN","lat":35.05,"long":-87.1522},{"zip":"38477","city":"Prospect","state":"TN","lat":35.0666,"long":-87.0174},{"zip":"38478","city":"Pulaski","state":"TN","lat":35.2093,"long":-87.0393},{"zip":"38008","city":"Bolivar","state":"TN","lat":35.2461,"long":-89.0007},{"zip":"38039","city":"Grand Junction","state":"TN","lat":35.049,"long":-89.187},{"zip":"38042","city":"Hickory Valley","state":"TN","lat":35.158,"long":-89.1309},{"zip":"38044","city":"Hornsby","state":"TN","lat":35.2197,"long":-88.8263},{"zip":"38052","city":"Middleton","state":"TN","lat":35.0818,"long":-88.9046},{"zip":"38061","city":"Pocahontas","state":"TN","lat":35.0315,"long":-88.8116},{"zip":"38067","city":"Saulsbury","state":"TN","lat":35.0498,"long":-89.0769},{"zip":"38075","city":"Whiteville","state":"TN","lat":35.3191,"long":-89.1337},{"zip":"38377","city":"Silerton","state":"TN","lat":35.356,"long":-88.8269},{"zip":"38381","city":"Toone","state":"TN","lat":35.3574,"long":-88.9353},{"zip":"38326","city":"Counce","state":"TN","lat":35.0394,"long":-88.2936},{"zip":"38327","city":"Crump","state":"TN","lat":35.2191,"long":-88.3192},{"zip":"38361","city":"Morris Chapel","state":"TN","lat":35.3026,"long":-88.3176},{"zip":"38365","city":"Pickwick Dam","state":"TN","lat":35.0383,"long":-88.2256},{"zip":"38370","city":"Saltillo","state":"TN","lat":35.3815,"long":-88.2472},{"zip":"38372","city":"Savannah","state":"TN","lat":35.2023,"long":-88.2005},{"zip":"38376","city":"Shiloh","state":"TN","lat":35.1195,"long":-88.3507},{"zip":"38475","city":"Olivehill","state":"TN","lat":35.2667,"long":-88.039},{"zip":"38012","city":"Brownsville","state":"TN","lat":35.61,"long":-89.2624},{"zip":"38069","city":"Stanton","state":"TN","lat":35.4482,"long":-89.3326},{"zip":"38328","city":"Darden","state":"TN","lat":35.663,"long":-88.2177},{"zip":"38345","city":"Huron","state":"TN","lat":35.6144,"long":-88.5195},{"zip":"38351","city":"Lexington","state":"TN","lat":35.6512,"long":-88.3927},{"zip":"38368","city":"Reagan","state":"TN","lat":35.5096,"long":-88.3508},{"zip":"38371","city":"Sardis","state":"TN","lat":35.4386,"long":-88.3058},{"zip":"38388","city":"Wildersville","state":"TN","lat":35.7698,"long":-88.4388},{"zip":"38222","city":"Buchanan","state":"TN","lat":36.4146,"long":-88.1515},{"zip":"38223","city":"Como","state":"TN","lat":36.2931,"long":-88.5123},{"zip":"38224","city":"Cottage Grove","state":"TN","lat":36.3479,"long":-88.4614},{"zip":"38231","city":"Henry","state":"TN","lat":36.2039,"long":-88.4198},{"zip":"38236","city":"Mansfield","state":"TN","lat":36.1847,"long":-88.2859},{"zip":"38242","city":"Paris","state":"TN","lat":36.3005,"long":-88.3093},{"zip":"38251","city":"Puryear","state":"TN","lat":36.4456,"long":-88.3472},{"zip":"38256","city":"Springville","state":"TN","lat":36.265,"long":-88.1459},{"zip":"38454","city":"Duck River","state":"TN","lat":35.748,"long":-87.3577},{"zip":"38476","city":"Primm Springs","state":"TN","lat":35.8104,"long":-87.253},{"zip":"38562","city":"Gainesboro","state":"TN","lat":36.3438,"long":-85.6355},{"zip":"38564","city":"Granville","state":"TN","lat":36.2768,"long":-85.7475},{"zip":"38588","city":"Whitleyville","state":"TN","lat":36.5158,"long":-85.6899},{"zip":"38077","city":"Wynnburg","state":"TN","lat":36.3281,"long":-89.4744},{"zip":"38079","city":"Tiptonville","state":"TN","lat":36.3846,"long":-89.4649},{"zip":"38080","city":"Ridgely","state":"TN","lat":36.2638,"long":-89.4858},{"zip":"38037","city":"Gates","state":"TN","lat":35.796,"long":-89.3938},{"zip":"38040","city":"Halls","state":"TN","lat":35.8862,"long":-89.4147},{"zip":"38041","city":"Henning","state":"TN","lat":35.6593,"long":-89.6962},{"zip":"38063","city":"Ripley","state":"TN","lat":35.7527,"long":-89.535},{"zip":"38456","city":"Ethridge","state":"TN","lat":35.3326,"long":-87.3039},{"zip":"38457","city":"Five Points","state":"TN","lat":35.031,"long":-87.2961},{"zip":"38463","city":"Iron City","state":"TN","lat":35.0563,"long":-87.6473},{"zip":"38464","city":"Lawrenceburg","state":"TN","lat":35.2507,"long":-87.3526},{"zip":"38468","city":"Leoma","state":"TN","lat":35.1382,"long":-87.3168},{"zip":"38469","city":"Loretto","state":"TN","lat":35.0728,"long":-87.427},{"zip":"38481","city":"Saint Joseph","state":"TN","lat":35.0376,"long":-87.5018},{"zip":"38483","city":"Summertown","state":"TN","lat":35.4307,"long":-87.3198},{"zip":"38486","city":"Westpoint","state":"TN","lat":35.1393,"long":-87.538},{"zip":"38462","city":"Hohenwald","state":"TN","lat":35.5266,"long":-87.4891},{"zip":"38453","city":"Dellrose","state":"TN","lat":35.1214,"long":-86.8121},{"zip":"38488","city":"Taft","state":"TN","lat":35.0517,"long":-86.6447},{"zip":"38310","city":"Adamsville","state":"TN","lat":35.2556,"long":-88.4134},{"zip":"38315","city":"Bethel Springs","state":"TN","lat":35.2289,"long":-88.644},{"zip":"38334","city":"Finger","state":"TN","lat":35.3544,"long":-88.5876},{"zip":"38339","city":"Guys","state":"TN","lat":35.0142,"long":-88.5208},{"zip":"38357","city":"Michie","state":"TN","lat":35.0603,"long":-88.4405},{"zip":"38359","city":"Milledgeville","state":"TN","lat":35.3729,"long":-88.3675},{"zip":"38367","city":"Ramer","state":"TN","lat":35.0642,"long":-88.6017},{"zip":"38375","city":"Selmer","state":"TN","lat":35.1691,"long":-88.5958},{"zip":"38379","city":"Stantonville","state":"TN","lat":35.1809,"long":-88.4364},{"zip":"38393","city":"Chewalla","state":"TN","lat":34.9969,"long":-88.6456},{"zip":"38301","city":"Jackson","state":"TN","lat":35.6102,"long":-88.814},{"zip":"38302","city":"Jackson","state":"TN","lat":35.6124,"long":-88.8412},{"zip":"38303","city":"Jackson","state":"TN","lat":35.6124,"long":-88.8412},{"zip":"38305","city":"Jackson","state":"TN","lat":35.6829,"long":-88.8281},{"zip":"38308","city":"Jackson","state":"TN","lat":35.6124,"long":-88.8412},{"zip":"38313","city":"Beech Bluff","state":"TN","lat":35.5922,"long":-88.6396},{"zip":"38314","city":"Jackson","state":"TN","lat":35.6124,"long":-88.8412},{"zip":"38356","city":"Medon","state":"TN","lat":35.4345,"long":-88.8953},{"zip":"38362","city":"Oakfield","state":"TN","lat":35.7242,"long":-88.7801},{"zip":"38366","city":"Pinson","state":"TN","lat":35.4781,"long":-88.7304},{"zip":"38378","city":"Spring Creek","state":"TN","lat":35.7668,"long":-88.6839},{"zip":"38391","city":"Denmark","state":"TN","lat":35.5571,"long":-88.9759},{"zip":"38392","city":"Mercer","state":"TN","lat":35.4816,"long":-89.0271},{"zip":"38401","city":"Columbia","state":"TN","lat":35.6156,"long":-87.038},{"zip":"38402","city":"Columbia","state":"TN","lat":35.6151,"long":-87.0353},{"zip":"38451","city":"Culleoka","state":"TN","lat":35.4749,"long":-87.0005},{"zip":"38461","city":"Hampshire","state":"TN","lat":35.5915,"long":-87.3251},{"zip":"38474","city":"Mount Pleasant","state":"TN","lat":35.5301,"long":-87.2037},{"zip":"38482","city":"Santa Fe","state":"TN","lat":35.7588,"long":-87.1515},{"zip":"38487","city":"Williamsport","state":"TN","lat":35.6494,"long":-87.2257},{"zip":"38232","city":"Hornbeak","state":"TN","lat":36.3596,"long":-89.3056},{"zip":"38240","city":"Obion","state":"TN","lat":36.2657,"long":-89.2805},{"zip":"38253","city":"Rives","state":"TN","lat":36.3108,"long":-89.0731},{"zip":"38254","city":"Samburg","state":"TN","lat":36.3791,"long":-89.3538},{"zip":"38257","city":"South Fulton","state":"TN","lat":36.4814,"long":-88.8808},{"zip":"38260","city":"Troy","state":"TN","lat":36.3416,"long":-89.1611},{"zip":"38261","city":"Union City","state":"TN","lat":36.4263,"long":-89.0667},{"zip":"38271","city":"Woodland Mills","state":"TN","lat":36.4583,"long":-89.2332},{"zip":"38281","city":"Union City","state":"TN","lat":36.4242,"long":-89.057},{"zip":"38541","city":"Allons","state":"TN","lat":36.497,"long":-85.3197},{"zip":"38542","city":"Allred","state":"TN","lat":36.324,"long":-85.2031},{"zip":"38543","city":"Alpine","state":"TN","lat":36.3803,"long":-85.1522},{"zip":"38554","city":"Crawford","state":"TN","lat":36.2361,"long":-85.1688},{"zip":"38568","city":"Hilham","state":"TN","lat":36.4227,"long":-85.4464},{"zip":"38570","city":"Livingston","state":"TN","lat":36.389,"long":-85.3205},{"zip":"38573","city":"Monroe","state":"TN","lat":36.4642,"long":-85.2164},{"zip":"38580","city":"Rickman","state":"TN","lat":36.2812,"long":-85.3048},{"zip":"38549","city":"Byrdstown","state":"TN","lat":36.5709,"long":-85.1456},{"zip":"38501","city":"Cookeville","state":"TN","lat":36.2178,"long":-85.5423},{"zip":"38502","city":"Cookeville","state":"TN","lat":36.1628,"long":-85.5016},{"zip":"38503","city":"Cookeville","state":"TN","lat":36.1628,"long":-85.5016},{"zip":"38505","city":"Cookeville","state":"TN","lat":36.1418,"long":-85.4548},{"zip":"38506","city":"Cookeville","state":"TN","lat":36.1819,"long":-85.4408},{"zip":"38544","city":"Baxter","state":"TN","lat":36.1249,"long":-85.6378},{"zip":"38545","city":"Bloomington Springs","state":"TN","lat":36.2321,"long":-85.6628},{"zip":"38548","city":"Buffalo Valley","state":"TN","lat":36.1833,"long":-85.7589},{"zip":"38574","city":"Monterey","state":"TN","lat":36.1509,"long":-85.2542},{"zip":"38582","city":"Silver Point","state":"TN","lat":36.1006,"long":-85.7338},{"zip":"38002","city":"Arlington","state":"TN","lat":35.2752,"long":-89.7295},{"zip":"38014","city":"Brunswick","state":"TN","lat":35.2673,"long":-89.7687},{"zip":"38016","city":"Cordova","state":"TN","lat":35.1602,"long":-89.7816},{"zip":"38017","city":"Collierville","state":"TN","lat":35.0551,"long":-89.6767},{"zip":"38018","city":"Cordova","state":"TN","lat":35.1556,"long":-89.7762},{"zip":"38027","city":"Collierville","state":"TN","lat":35.042,"long":-89.6645},{"zip":"38028","city":"Eads","state":"TN","lat":35.1551,"long":-89.676},{"zip":"38029","city":"Ellendale","state":"TN","lat":35.2017,"long":-89.9715},{"zip":"38053","city":"Millington","state":"TN","lat":35.3185,"long":-89.9054},{"zip":"38054","city":"Millington","state":"TN","lat":35.3341,"long":-89.8706},{"zip":"38055","city":"Millington","state":"TN","lat":35.3415,"long":-89.8973},{"zip":"38083","city":"Millington","state":"TN","lat":35.2017,"long":-89.9715},{"zip":"38088","city":"Cordova","state":"TN","lat":35.1556,"long":-89.7762},{"zip":"38101","city":"Memphis","state":"TN","lat":35.1495,"long":-90.049},{"zip":"38103","city":"Memphis","state":"TN","lat":35.144,"long":-90.048},{"zip":"38104","city":"Memphis","state":"TN","lat":35.1334,"long":-90.0046},{"zip":"38105","city":"Memphis","state":"TN","lat":35.1497,"long":-90.033},{"zip":"38106","city":"Memphis","state":"TN","lat":35.1021,"long":-90.033},{"zip":"38107","city":"Memphis","state":"TN","lat":35.1831,"long":-90.0201},{"zip":"38108","city":"Memphis","state":"TN","lat":35.1787,"long":-89.9682},{"zip":"38109","city":"Memphis","state":"TN","lat":35.0425,"long":-90.0732},{"zip":"38111","city":"Memphis","state":"TN","lat":35.1076,"long":-89.9457},{"zip":"38112","city":"Memphis","state":"TN","lat":35.1483,"long":-89.9729},{"zip":"38113","city":"Memphis","state":"TN","lat":35.1274,"long":-89.9845},{"zip":"38114","city":"Memphis","state":"TN","lat":35.0981,"long":-89.9825},{"zip":"38115","city":"Memphis","state":"TN","lat":35.0579,"long":-89.864},{"zip":"38116","city":"Memphis","state":"TN","lat":35.0303,"long":-90.0123},{"zip":"38117","city":"Memphis","state":"TN","lat":35.1124,"long":-89.9034},{"zip":"38118","city":"Memphis","state":"TN","lat":35.0514,"long":-89.9265},{"zip":"38119","city":"Memphis","state":"TN","lat":35.0821,"long":-89.8501},{"zip":"38120","city":"Memphis","state":"TN","lat":35.1207,"long":-89.8651},{"zip":"38122","city":"Memphis","state":"TN","lat":35.1572,"long":-89.9268},{"zip":"38124","city":"Memphis","state":"TN","lat":35.2017,"long":-89.9715},{"zip":"38125","city":"Memphis","state":"TN","lat":35.0312,"long":-89.8124},{"zip":"38126","city":"Memphis","state":"TN","lat":35.1255,"long":-90.0424},{"zip":"38127","city":"Memphis","state":"TN","lat":35.251,"long":-90.0296},{"zip":"38128","city":"Memphis","state":"TN","lat":35.2213,"long":-89.9413},{"zip":"38130","city":"Memphis","state":"TN","lat":35.2017,"long":-89.9715},{"zip":"38131","city":"Memphis","state":"TN","lat":35.0664,"long":-89.9921},{"zip":"38132","city":"Memphis","state":"TN","lat":35.072,"long":-89.9886},{"zip":"38133","city":"Memphis","state":"TN","lat":35.2054,"long":-89.8036},{"zip":"38134","city":"Memphis","state":"TN","lat":35.1845,"long":-89.8574},{"zip":"38135","city":"Memphis","state":"TN","lat":35.2323,"long":-89.8509},{"zip":"38136","city":"Memphis","state":"TN","lat":35.2017,"long":-89.9715},{"zip":"38137","city":"Memphis","state":"TN","lat":35.2017,"long":-89.9715},{"zip":"38138","city":"Germantown","state":"TN","lat":35.0883,"long":-89.8053},{"zip":"38139","city":"Germantown","state":"TN","lat":35.0874,"long":-89.7703},{"zip":"38141","city":"Memphis","state":"TN","lat":35.0231,"long":-89.8492},{"zip":"38145","city":"Memphis","state":"TN","lat":35.2017,"long":-89.9715},{"zip":"38148","city":"Memphis","state":"TN","lat":35.1495,"long":-90.049},{"zip":"38150","city":"Memphis","state":"TN","lat":35.1495,"long":-90.049},{"zip":"38151","city":"Memphis","state":"TN","lat":35.2017,"long":-89.9715},{"zip":"38152","city":"Memphis","state":"TN","lat":35.2017,"long":-89.9715},{"zip":"38157","city":"Memphis","state":"TN","lat":35.2017,"long":-89.9715},{"zip":"38159","city":"Memphis","state":"TN","lat":35.1495,"long":-90.049},{"zip":"38161","city":"Memphis","state":"TN","lat":35.2017,"long":-89.9715},{"zip":"38163","city":"Memphis","state":"TN","lat":35.2017,"long":-89.9715},{"zip":"38166","city":"Memphis","state":"TN","lat":35.2017,"long":-89.9715},{"zip":"38167","city":"Memphis","state":"TN","lat":35.2017,"long":-89.9715},{"zip":"38168","city":"Memphis","state":"TN","lat":35.2017,"long":-89.9715},{"zip":"38173","city":"Memphis","state":"TN","lat":35.1495,"long":-90.049},{"zip":"38174","city":"Memphis","state":"TN","lat":35.2017,"long":-89.9715},{"zip":"38175","city":"Memphis","state":"TN","lat":35.2017,"long":-89.9715},{"zip":"38177","city":"Memphis","state":"TN","lat":35.2017,"long":-89.9715},{"zip":"38181","city":"Memphis","state":"TN","lat":35.2017,"long":-89.9715},{"zip":"38182","city":"Memphis","state":"TN","lat":35.2017,"long":-89.9715},{"zip":"38183","city":"Germantown","state":"TN","lat":35.2017,"long":-89.9715},{"zip":"38184","city":"Memphis","state":"TN","lat":35.2017,"long":-89.9715},{"zip":"38186","city":"Memphis","state":"TN","lat":35.2017,"long":-89.9715},{"zip":"38187","city":"Memphis","state":"TN","lat":35.2017,"long":-89.9715},{"zip":"38188","city":"Memphis","state":"TN","lat":35.2017,"long":-89.9715},{"zip":"38190","city":"Memphis","state":"TN","lat":35.2017,"long":-89.9715},{"zip":"38193","city":"Memphis","state":"TN","lat":35.2017,"long":-89.9715},{"zip":"38194","city":"Memphis","state":"TN","lat":35.2017,"long":-89.9715},{"zip":"38197","city":"Memphis","state":"TN","lat":35.2017,"long":-89.9715},{"zip":"38547","city":"Brush Creek","state":"TN","lat":36.1107,"long":-86.0203},{"zip":"38552","city":"Chestnut Mound","state":"TN","lat":36.1929,"long":-85.8374},{"zip":"38560","city":"Elmwood","state":"TN","lat":36.2355,"long":-85.8808},{"zip":"38563","city":"Gordonsville","state":"TN","lat":36.1843,"long":-86.0008},{"zip":"38567","city":"Hickman","state":"TN","lat":36.1197,"long":-85.9023},{"zip":"38569","city":"Lancaster","state":"TN","lat":36.0954,"long":-85.8551},{"zip":"38004","city":"Atoka","state":"TN","lat":35.4412,"long":-89.7781},{"zip":"38011","city":"Brighton","state":"TN","lat":35.484,"long":-89.7251},{"zip":"38015","city":"Burlison","state":"TN","lat":35.5399,"long":-89.8177},{"zip":"38019","city":"Covington","state":"TN","lat":35.5598,"long":-89.6501},{"zip":"38023","city":"Drummonds","state":"TN","lat":35.4452,"long":-89.9236},{"zip":"38049","city":"Mason","state":"TN","lat":35.438,"long":-89.5518},{"zip":"38058","city":"Munford","state":"TN","lat":35.459,"long":-89.8197},{"zip":"38071","city":"Tipton","state":"TN","lat":35.4143,"long":-89.8188},{"zip":"38585","city":"Spencer","state":"TN","lat":35.7279,"long":-85.4287},{"zip":"38550","city":"Campaign","state":"TN","lat":35.7734,"long":-85.6192},{"zip":"38581","city":"Rock Island","state":"TN","lat":35.7668,"long":-85.6788},{"zip":"38425","city":"Clifton","state":"TN","lat":35.3819,"long":-87.95},{"zip":"38450","city":"Collinwood","state":"TN","lat":35.1635,"long":-87.7185},{"zip":"38452","city":"Cypress Inn","state":"TN","lat":35.0579,"long":-87.7883},{"zip":"38471","city":"Lutts","state":"TN","lat":35.1138,"long":-87.8923},{"zip":"38485","city":"Waynesboro","state":"TN","lat":35.322,"long":-87.7395},{"zip":"38225","city":"Dresden","state":"TN","lat":36.295,"long":-88.6963},{"zip":"38226","city":"Dukedom","state":"TN","lat":36.4796,"long":-88.6926},{"zip":"38229","city":"Gleason","state":"TN","lat":36.2117,"long":-88.6184},{"zip":"38230","city":"Greenfield","state":"TN","lat":36.1485,"long":-88.7453},{"zip":"38237","city":"Martin","state":"TN","lat":36.3425,"long":-88.8554},{"zip":"38238","city":"Martin","state":"TN","lat":36.3434,"long":-88.8503},{"zip":"38241","city":"Palmersville","state":"TN","lat":36.3948,"long":-88.6142},{"zip":"38255","city":"Sharon","state":"TN","lat":36.2395,"long":-88.8477},{"zip":"38559","city":"Doyle","state":"TN","lat":35.8356,"long":-85.5191},{"zip":"38579","city":"Quebeck","state":"TN","lat":35.8303,"long":-85.552},{"zip":"38583","city":"Sparta","state":"TN","lat":35.9439,"long":-85.4392},{"zip":"38587","city":"Walling","state":"TN","lat":35.8695,"long":-85.6185}]
