[{"zip":"38001","city":"Alamo","state":"TN","lat":35.8017,"long":-89.1765},{"zip":"38006","city":"Bells","state":"TN","lat":35.7198,"long":-89.0729},{"zip":"38021","city":"Crockett Mills","state":"TN","lat":35.8676,"long":-89.1692},{"zip":"38034","city":"Friendship","state":"TN","lat":35.909,"long":-89.2453},{"zip":"38050","city":"Maury City","state":"TN","lat":35.8379,"long":-89.2273},{"zip":"38007","city":"Bogota","state":"TN","lat":36.164,"long":-89.4384},{"zip":"38024","city":"Dyersburg","state":"TN","lat":36.0444,"long":-89.3836},{"zip":"38025","city":"Dyersburg","state":"TN","lat":36.0345,"long":-89.3856},{"zip":"38030","city":"Finley","state":"TN","lat":36.0169,"long":-89.5134},{"zip":"38047","city":"Lenox","state":"TN","lat":36.0892,"long":-89.4984},{"zip":"38059","city":"Newbern","state":"TN","lat":36.1009,"long":-89.2514},{"zip":"38070","city":"Tigrett","state":"TN","lat":35.942,"long":-89.2434},{"zip":"38010","city":"Braden","state":"TN","lat":35.2886,"long":-89.488},{"zip":"38036","city":"Gallaway","state":"TN","lat":35.3274,"long":-89.6198},{"zip":"38045","city":"Laconia","state":"TN","lat":35.2904,"long":-89.2322},{"zip":"38046","city":"La Grange","state":"TN","lat":35.0454,"long":-89.2437},{"zip":"38048","city":"Macon","state":"TN","lat":35.1507,"long":-89.4814},{"zip":"38057","city":"Moscow","state":"TN","lat":35.0588,"long":-89.3595},{"zip":"38060","city":"Oakland","state":"TN","lat":35.229,"long":-89.5151},{"zip":"38066","city":"Rossville","state":"TN","lat":35.0768,"long":-89.5678},{"zip":"38068","city":"Somerville","state":"TN","lat":35.2772,"long":-89.3918},{"zip":"38076","city":"Williston","state":"TN","lat":35.1576,"long":-89.3684},{"zip":"38008","city":"Bolivar","state":"TN","lat":35.2461,"long":-89.0007},{"zip":"38039","city":"Grand Junction","state":"TN","lat":35.049,"long":-89.187},{"zip":"38042","city":"Hickory Valley","state":"TN","lat":35.158,"long":-89.1309},{"zip":"38044","city":"Hornsby","state":"TN","lat":35.2197,"long":-88.8263},{"zip":"38052","city":"Middleton","state":"TN","lat":35.0818,"long":-88.9046},{"zip":"38061","city":"Pocahontas","state":"TN","lat":35.0315,"long":-88.8116},{"zip":"38067","city":"Saulsbury","state":"TN","lat":35.0498,"long":-89.0769},{"zip":"38075","city":"Whiteville","state":"TN","lat":35.3191,"long":-89.1337},{"zip":"38012","city":"Brownsville","state":"TN","lat":35.61,"long":-89.2624},{"zip":"38069","city":"Stanton","state":"TN","lat":35.4482,"long":-89.3326},{"zip":"38077","city":"Wynnburg","state":"TN","lat":36.3281,"long":-89.4744},{"zip":"38079","city":"Tiptonville","state":"TN","lat":36.3846,"long":-89.4649},{"zip":"38080","city":"Ridgely","state":"TN","lat":36.2638,"long":-89.4858},{"zip":"38037","city":"Gates","state":"TN","lat":35.796,"long":-89.3938},{"zip":"38040","city":"Halls","state":"TN","lat":35.8862,"long":-89.4147},{"zip":"38041","city":"Henning","state":"TN","lat":35.6593,"long":-89.6962},{"zip":"38063","city":"Ripley","state":"TN","lat":35.7527,"long":-89.535},{"zip":"38002","city":"Arlington","state":"TN","lat":35.2752,"long":-89.7295},{"zip":"38014","city":"Brunswick","state":"TN","lat":35.2673,"long":-89.7687},{"zip":"38016","city":"Cordova","state":"TN","lat":35.1602,"long":-89.7816},{"zip":"38017","city":"Collierville","state":"TN","lat":35.0551,"long":-89.6767},{"zip":"38018","city":"Cordova","state":"TN","lat":35.1556,"long":-89.7762},{"zip":"38027","city":"Collierville","state":"TN","lat":35.042,"long":-89.6645},{"zip":"38028","city":"Eads","state":"TN","lat":35.1551,"long":-89.676},{"zip":"38029","city":"Ellendale","state":"TN","lat":35.2017,"long":-89.9715},{"zip":"38053","city":"Millington","state":"TN","lat":35.3185,"long":-89.9054},{"zip":"38054","city":"Millington","state":"TN","lat":35.3341,"long":-89.8706},{"zip":"38055","city":"Millington","state":"TN","lat":35.3415,"long":-89.8973},{"zip":"38083","city":"Millington","state":"TN","lat":35.2017,"long":-89.9715},{"zip":"38088","city":"Cordova","state":"TN","lat":35.1556,"long":-89.7762},{"zip":"38004","city":"Atoka","state":"TN","lat":35.4412,"long":-89.7781},{"zip":"38011","city":"Brighton","state":"TN","lat":35.484,"long":-89.7251},{"zip":"38015","city":"Burlison","state":"TN","lat":35.5399,"long":-89.8177},{"zip":"38019","city":"Covington","state":"TN","lat":35.5598,"long":-89.6501},{"zip":"38023","city":"Drummonds","state":"TN","lat":35.4452,"long":-89.9236},{"zip":"38049","city":"Mason","state":"TN","lat":35.438,"long":-89.5518},{"zip":"38058","city":"Munford","state":"TN","lat":35.459,"long":-89.8197},{"zip":"38071","city":"Tipton","state":"TN","lat":35.4143,"long":-89.8188}]
