[{"zip":"38101","city":"Memphis","state":"TN","lat":35.1495,"long":-90.049},{"zip":"38103","city":"Memphis","state":"TN","lat":35.144,"long":-90.048},{"zip":"38104","city":"Memphis","state":"TN","lat":35.1334,"long":-90.0046},{"zip":"38105","city":"Memphis","state":"TN","lat":35.1497,"long":-90.033},{"zip":"38106","city":"Memphis","state":"TN","lat":35.1021,"long":-90.033},{"zip":"38107","city":"Memphis","state":"TN","lat":35.1831,"long":-90.0201},{"zip":"38108","city":"Memphis","state":"TN","lat":35.1787,"long":-89.9682},{"zip":"38109","city":"Memphis","state":"TN","lat":35.0425,"long":-90.0732},{"zip":"38111","city":"Memphis","state":"TN","lat":35.1076,"long":-89.9457},{"zip":"38112","city":"Memphis","state":"TN","lat":35.1483,"long":-89.9729},{"zip":"38113","city":"Memphis","state":"TN","lat":35.1274,"long":-89.9845},{"zip":"38114","city":"Memphis","state":"TN","lat":35.0981,"long":-89.9825},{"zip":"38115","city":"Memphis","state":"TN","lat":35.0579,"long":-89.864},{"zip":"38116","city":"Memphis","state":"TN","lat":35.0303,"long":-90.0123},{"zip":"38117","city":"Memphis","state":"TN","lat":35.1124,"long":-89.9034},{"zip":"38118","city":"Memphis","state":"TN","lat":35.0514,"long":-89.9265},{"zip":"38119","city":"Memphis","state":"TN","lat":35.0821,"long":-89.8501},{"zip":"38120","city":"Memphis","state":"TN","lat":35.1207,"long":-89.8651},{"zip":"38122","city":"Memphis","state":"TN","lat":35.1572,"long":-89.9268},{"zip":"38124","city":"Memphis","state":"TN","lat":35.2017,"long":-89.9715},{"zip":"38125","city":"Memphis","state":"TN","lat":35.0312,"long":-89.8124},{"zip":"38126","city":"Memphis","state":"TN","lat":35.1255,"long":-90.0424},{"zip":"38127","city":"Memphis","state":"TN","lat":35.251,"long":-90.0296},{"zip":"38128","city":"Memphis","state":"TN","lat":35.2213,"long":-89.9413},{"zip":"38130","city":"Memphis","state":"TN","lat":35.2017,"long":-89.9715},{"zip":"38131","city":"Memphis","state":"TN","lat":35.0664,"long":-89.9921},{"zip":"38132","city":"Memphis","state":"TN","lat":35.072,"long":-89.9886},{"zip":"38133","city":"Memphis","state":"TN","lat":35.2054,"long":-89.8036},{"zip":"38134","city":"Memphis","state":"TN","lat":35.1845,"long":-89.8574},{"zip":"38135","city":"Memphis","state":"TN","lat":35.2323,"long":-89.8509},{"zip":"38136","city":"Memphis","state":"TN","lat":35.2017,"long":-89.9715},{"zip":"38137","city":"Memphis","state":"TN","lat":35.2017,"long":-89.9715},{"zip":"38138","city":"Germantown","state":"TN","lat":35.0883,"long":-89.8053},{"zip":"38139","city":"Germantown","state":"TN","lat":35.0874,"long":-89.7703},{"zip":"38141","city":"Memphis","state":"TN","lat":35.0231,"long":-89.8492},{"zip":"38145","city":"Memphis","state":"TN","lat":35.2017,"long":-89.9715},{"zip":"38148","city":"Memphis","state":"TN","lat":35.1495,"long":-90.049},{"zip":"38150","city":"Memphis","state":"TN","lat":35.1495,"long":-90.049},{"zip":"38151","city":"Memphis","state":"TN","lat":35.2017,"long":-89.9715},{"zip":"38152","city":"Memphis","state":"TN","lat":35.2017,"long":-89.9715},{"zip":"38157","city":"Memphis","state":"TN","lat":35.2017,"long":-89.9715},{"zip":"38159","city":"Memphis","state":"TN","lat":35.1495,"long":-90.049},{"zip":"38161","city":"Memphis","state":"TN","lat":35.2017,"long":-89.9715},{"zip":"38163","city":"Memphis","state":"TN","lat":35.2017,"long":-89.9715},{"zip":"38166","city":"Memphis","state":"TN","lat":35.2017,"long":-89.9715},{"zip":"38167","city":"Memphis","state":"TN","lat":35.2017,"long":-89.9715},{"zip":"38168","city":"Memphis","state":"TN","lat":35.2017,"long":-89.9715},{"zip":"38173","city":"Memphis","state":"TN","lat":35.1495,"long":-90.049},{"zip":"38174","city":"Memphis","state":"TN","lat":35.2017,"long":-89.9715},{"zip":"38175","city":"Memphis","state":"TN","lat":35.2017,"long":-89.9715},{"zip":"38177","city":"Memphis","state":"TN","lat":35.2017,"long":-89.9715},{"zip":"38181","city":"Memphis","state":"TN","lat":35.2017,"long":-89.9715},{"zip":"38182","city":"Memphis","state":"TN","lat":35.2017,"long":-89.9715},{"zip":"38183","city":"Germantown","state":"TN","lat":35.2017,"long":-89.9715},{"zip":"38184","city":"Memphis","state":"TN","lat":35.2017,"long":-89.9715},{"zip":"38186","city":"Memphis","state":"TN","lat":35.2017,"long":-89.9715},{"zip":"38187","city":"Memphis","state":"TN","lat":35.2017,"long":-89.9715},{"zip":"38188","city":"Memphis","state":"TN","lat":35.2017,"long":-89.9715},{"zip":"38190","city":"Memphis","state":"TN","lat":35.2017,"long":-89.9715},{"zip":"38193","city":"Memphis","state":"TN","lat":35.2017,"long":-89.9715},{"zip":"38194","city":"Memphis","state":"TN","lat":35.2017,"long":-89.9715},{"zip":"38197","city":"Memphis","state":"TN","lat":35.2017,"long":-89.9715}]
