[{"zip":"38449","city":"Ardmore","state":"TN","lat":35.0574,"long":-86.8796},{"zip":"38455","city":"Elkton","state":"TN","lat":35.0523,"long":-86.8886},{"zip":"38459","city":"Frankewing","state":"TN","lat":35.1834,"long":-86.85},{"zip":"38460","city":"Goodspring","state":"TN","lat":35.1167,"long":-87.1278},{"zip":"38472","city":"Lynnville","state":"TN","lat":35.3792,"long":-87.0629},{"zip":"38473","city":"Minor Hill","state":"TN","lat":35.05,"long":-87.1522},{"zip":"38477","city":"Prospect","state":"TN","lat":35.0666,"long":-87.0174},{"zip":"38478","city":"Pulaski","state":"TN","lat":35.2093,"long":-87.0393},{"zip":"38475","city":"Olivehill","state":"TN","lat":35.2667,"long":-88.039},{"zip":"38454","city":"Duck River","state":"TN","lat":35.748,"long":-87.3577},{"zip":"38476","city":"Primm Springs","state":"TN","lat":35.8104,"long":-87.253},{"zip":"38456","city":"Ethridge","state":"TN","lat":35.3326,"long":-87.3039},{"zip":"38457","city":"Five Points","state":"TN","lat":35.031,"long":-87.2961},{"zip":"38463","city":"Iron City","state":"TN","lat":35.0563,"long":-87.6473},{"zip":"38464","city":"Lawrenceburg","state":"TN","lat":35.2507,"long":-87.3526},{"zip":"38468","city":"Leoma","state":"TN","lat":35.1382,"long":-87.3168},{"zip":"38469","city":"Loretto","state":"TN","lat":35.0728,"long":-87.427},{"zip":"38481","city":"Saint Joseph","state":"TN","lat":35.0376,"long":-87.5018},{"zip":"38483","city":"Summertown","state":"TN","lat":35.4307,"long":-87.3198},{"zip":"38486","city":"Westpoint","state":"TN","lat":35.1393,"long":-87.538},{"zip":"38462","city":"Hohenwald","state":"TN","lat":35.5266,"long":-87.4891},{"zip":"38453","city":"Dellrose","state":"TN","lat":35.1214,"long":-86.8121},{"zip":"38488","city":"Taft","state":"TN","lat":35.0517,"long":-86.6447},{"zip":"38401","city":"Columbia","state":"TN","lat":35.6156,"long":-87.038},{"zip":"38402","city":"Columbia","state":"TN","lat":35.6151,"long":-87.0353},{"zip":"38451","city":"Culleoka","state":"TN","lat":35.4749,"long":-87.0005},{"zip":"38461","city":"Hampshire","state":"TN","lat":35.5915,"long":-87.3251},{"zip":"38474","city":"Mount Pleasant","state":"TN","lat":35.5301,"long":-87.2037},{"zip":"38482","city":"Santa Fe","state":"TN","lat":35.7588,"long":-87.1515},{"zip":"38487","city":"Williamsport","state":"TN","lat":35.6494,"long":-87.2257},{"zip":"38425","city":"Clifton","state":"TN","lat":35.3819,"long":-87.95},{"zip":"38450","city":"Collinwood","state":"TN","lat":35.1635,"long":-87.7185},{"zip":"38452","city":"Cypress Inn","state":"TN","lat":35.0579,"long":-87.7883},{"zip":"38471","city":"Lutts","state":"TN","lat":35.1138,"long":-87.8923},{"zip":"38485","city":"Waynesboro","state":"TN","lat":35.322,"long":-87.7395}]
