[{"zip":"38551","city":"Celina","state":"TN","lat":36.5475,"long":-85.4966},{"zip":"38575","city":"Moss","state":"TN","lat":36.5966,"long":-85.6772},{"zip":"38555","city":"Crossville","state":"TN","lat":35.9623,"long":-85.0514},{"zip":"38557","city":"Crossville","state":"TN","lat":35.9885,"long":-85.0124},{"zip":"38558","city":"Crossville","state":"TN","lat":36.0077,"long":-84.8719},{"zip":"38571","city":"Crossville","state":"TN","lat":36.0527,"long":-85.0138},{"zip":"38572","city":"Crossville","state":"TN","lat":35.8487,"long":-85.1308},{"zip":"38578","city":"Pleasant Hill","state":"TN","lat":35.9813,"long":-85.1984},{"zip":"38504","city":"Allardt","state":"TN","lat":36.3818,"long":-84.7756},{"zip":"38553","city":"Clarkrange","state":"TN","lat":36.2112,"long":-84.9777},{"zip":"38556","city":"Jamestown","state":"TN","lat":36.4245,"long":-84.9357},{"zip":"38565","city":"Grimsley","state":"TN","lat":36.2598,"long":-85.0015},{"zip":"38577","city":"Pall Mall","state":"TN","lat":36.5781,"long":-85.0384},{"zip":"38589","city":"Wilder","state":"TN","lat":36.2822,"long":-85.0913},{"zip":"38562","city":"Gainesboro","state":"TN","lat":36.3438,"long":-85.6355},{"zip":"38564","city":"Granville","state":"TN","lat":36.2768,"long":-85.7475},{"zip":"38588","city":"Whitleyville","state":"TN","lat":36.5158,"long":-85.6899},{"zip":"38541","city":"Allons","state":"TN","lat":36.497,"long":-85.3197},{"zip":"38542","city":"Allred","state":"TN","lat":36.324,"long":-85.2031},{"zip":"38543","city":"Alpine","state":"TN","lat":36.3803,"long":-85.1522},{"zip":"38554","city":"Crawford","state":"TN","lat":36.2361,"long":-85.1688},{"zip":"38568","city":"Hilham","state":"TN","lat":36.4227,"long":-85.4464},{"zip":"38570","city":"Livingston","state":"TN","lat":36.389,"long":-85.3205},{"zip":"38573","city":"Monroe","state":"TN","lat":36.4642,"long":-85.2164},{"zip":"38580","city":"Rickman","state":"TN","lat":36.2812,"long":-85.3048},{"zip":"38549","city":"Byrdstown","state":"TN","lat":36.5709,"long":-85.1456},{"zip":"38501","city":"Cookeville","state":"TN","lat":36.2178,"long":-85.5423},{"zip":"38502","city":"Cookeville","state":"TN","lat":36.1628,"long":-85.5016},{"zip":"38503","city":"Cookeville","state":"TN","lat":36.1628,"long":-85.5016},{"zip":"38505","city":"Cookeville","state":"TN","lat":36.1418,"long":-85.4548},{"zip":"38506","city":"Cookeville","state":"TN","lat":36.1819,"long":-85.4408},{"zip":"38544","city":"Baxter","state":"TN","lat":36.1249,"long":-85.6378},{"zip":"38545","city":"Bloomington Springs","state":"TN","lat":36.2321,"long":-85.6628},{"zip":"38548","city":"Buffalo Valley","state":"TN","lat":36.1833,"long":-85.7589},{"zip":"38574","city":"Monterey","state":"TN","lat":36.1509,"long":-85.2542},{"zip":"38582","city":"Silver Point","state":"TN","lat":36.1006,"long":-85.7338},{"zip":"38547","city":"Brush Creek","state":"TN","lat":36.1107,"long":-86.0203},{"zip":"38552","city":"Chestnut Mound","state":"TN","lat":36.1929,"long":-85.8374},{"zip":"38560","city":"Elmwood","state":"TN","lat":36.2355,"long":-85.8808},{"zip":"38563","city":"Gordonsville","state":"TN","lat":36.1843,"long":-86.0008},{"zip":"38567","city":"Hickman","state":"TN","lat":36.1197,"long":-85.9023},{"zip":"38569","city":"Lancaster","state":"TN","lat":36.0954,"long":-85.8551},{"zip":"38585","city":"Spencer","state":"TN","lat":35.7279,"long":-85.4287},{"zip":"38550","city":"Campaign","state":"TN","lat":35.7734,"long":-85.6192},{"zip":"38581","city":"Rock Island","state":"TN","lat":35.7668,"long":-85.6788},{"zip":"38559","city":"Doyle","state":"TN","lat":35.8356,"long":-85.5191},{"zip":"38579","city":"Quebeck","state":"TN","lat":35.8303,"long":-85.552},{"zip":"38583","city":"Sparta","state":"TN","lat":35.9439,"long":-85.4392},{"zip":"38587","city":"Walling","state":"TN","lat":35.8695,"long":-85.6185}]
