[{"zip":"38603","city":"Ashland","state":"MS","lat":34.8346,"long":-89.1427},{"zip":"38633","city":"Hickory Flat","state":"MS","lat":34.6244,"long":-89.1862},{"zip":"38647","city":"Michigan City","state":"MS","lat":34.9608,"long":-89.2267},{"zip":"38614","city":"Clarksdale","state":"MS","lat":34.256,"long":-90.6348},{"zip":"38617","city":"Coahoma","state":"MS","lat":34.3668,"long":-90.5232},{"zip":"38630","city":"Farrell","state":"MS","lat":34.2643,"long":-90.6723},{"zip":"38631","city":"Friars Point","state":"MS","lat":34.3668,"long":-90.6376},{"zip":"38639","city":"Jonestown","state":"MS","lat":34.3037,"long":-90.4294},{"zip":"38644","city":"Lula","state":"MS","lat":34.4618,"long":-90.4981},{"zip":"38645","city":"Lyon","state":"MS","lat":34.2474,"long":-90.4981},{"zip":"38669","city":"Sherard","state":"MS","lat":34.1953,"long":-90.7335},{"zip":"38632","city":"Hernando","state":"MS","lat":34.8096,"long":-90.0095},{"zip":"38637","city":"Horn Lake","state":"MS","lat":34.9519,"long":-90.0507},{"zip":"38641","city":"Lake Cormorant","state":"MS","lat":34.8937,"long":-90.1608},{"zip":"38651","city":"Nesbit","state":"MS","lat":34.8992,"long":-90.0122},{"zip":"38654","city":"Olive Branch","state":"MS","lat":34.9441,"long":-89.8544},{"zip":"38671","city":"Southaven","state":"MS","lat":34.9771,"long":-89.9992},{"zip":"38672","city":"Southaven","state":"MS","lat":34.9474,"long":-89.9258},{"zip":"38680","city":"Walls","state":"MS","lat":34.9641,"long":-90.1208},{"zip":"38686","city":"Walls","state":"MS","lat":34.9582,"long":-90.1526},{"zip":"38601","city":"Abbeville","state":"MS","lat":34.4719,"long":-89.4475},{"zip":"38655","city":"Oxford","state":"MS","lat":34.3308,"long":-89.4835},{"zip":"38673","city":"Taylor","state":"MS","lat":34.2849,"long":-89.6273},{"zip":"38675","city":"Tula","state":"MS","lat":34.3582,"long":-89.4839},{"zip":"38677","city":"University","state":"MS","lat":34.3396,"long":-89.5736},{"zip":"38685","city":"Waterford","state":"MS","lat":34.5476,"long":-89.6129},{"zip":"38611","city":"Byhalia","state":"MS","lat":34.8854,"long":-89.6763},{"zip":"38634","city":"Holly Springs","state":"MS","lat":34.7676,"long":-89.4487},{"zip":"38635","city":"Holly Springs","state":"MS","lat":34.7471,"long":-89.4897},{"zip":"38642","city":"Lamar","state":"MS","lat":34.9271,"long":-89.3163},{"zip":"38649","city":"Mount Pleasant","state":"MS","lat":34.9536,"long":-89.523},{"zip":"38659","city":"Potts Camp","state":"MS","lat":34.6047,"long":-89.3151},{"zip":"38661","city":"Red Banks","state":"MS","lat":34.8937,"long":-89.5649},{"zip":"38679","city":"Victoria","state":"MS","lat":34.8708,"long":-89.6408},{"zip":"38606","city":"Batesville","state":"MS","lat":34.3115,"long":-89.9443},{"zip":"38619","city":"Como","state":"MS","lat":34.5137,"long":-89.9155},{"zip":"38620","city":"Courtland","state":"MS","lat":34.2596,"long":-89.9396},{"zip":"38621","city":"Crenshaw","state":"MS","lat":34.4491,"long":-90.1701},{"zip":"38658","city":"Pope","state":"MS","lat":34.1906,"long":-90.0027},{"zip":"38665","city":"Sarah","state":"MS","lat":34.591,"long":-90.162},{"zip":"38666","city":"Sardis","state":"MS","lat":34.4276,"long":-89.9221},{"zip":"38609","city":"Belen","state":"MS","lat":34.2351,"long":-90.2927},{"zip":"38622","city":"Crowder","state":"MS","lat":34.1731,"long":-90.1364},{"zip":"38623","city":"Darling","state":"MS","lat":34.359,"long":-90.2743},{"zip":"38628","city":"Falcon","state":"MS","lat":34.3932,"long":-90.2565},{"zip":"38643","city":"Lambert","state":"MS","lat":34.1837,"long":-90.263},{"zip":"38646","city":"Marks","state":"MS","lat":34.2607,"long":-90.2816},{"zip":"38602","city":"Arkabutla","state":"MS","lat":34.6863,"long":-90.1068},{"zip":"38618","city":"Coldwater","state":"MS","lat":34.6924,"long":-89.9869},{"zip":"38638","city":"Independence","state":"MS","lat":34.6959,"long":-89.8288},{"zip":"38668","city":"Senatobia","state":"MS","lat":34.6323,"long":-89.8855},{"zip":"38610","city":"Blue Mountain","state":"MS","lat":34.671,"long":-89.0088},{"zip":"38625","city":"Dumas","state":"MS","lat":34.6491,"long":-88.8072},{"zip":"38629","city":"Falkner","state":"MS","lat":34.8417,"long":-88.9525},{"zip":"38663","city":"Ripley","state":"MS","lat":34.7509,"long":-88.924},{"zip":"38674","city":"Tiplersville","state":"MS","lat":34.9029,"long":-88.9157},{"zip":"38683","city":"Walnut","state":"MS","lat":34.9527,"long":-88.9053},{"zip":"38626","city":"Dundee","state":"MS","lat":34.5357,"long":-90.3693},{"zip":"38664","city":"Robinsonville","state":"MS","lat":34.8093,"long":-90.3052},{"zip":"38670","city":"Sledge","state":"MS","lat":34.3823,"long":-90.209},{"zip":"38676","city":"Tunica","state":"MS","lat":34.6884,"long":-90.3685},{"zip":"38627","city":"Etta","state":"MS","lat":34.4352,"long":-89.1767},{"zip":"38650","city":"Myrtle","state":"MS","lat":34.5402,"long":-89.1157},{"zip":"38652","city":"New Albany","state":"MS","lat":34.4851,"long":-89.0031}]
