[{"zip":"38720","city":"Alligator","state":"MS","lat":34.1294,"long":-90.7382},{"zip":"38725","city":"Benoit","state":"MS","lat":33.6448,"long":-91.0338},{"zip":"38726","city":"Beulah","state":"MS","lat":33.788,"long":-90.9795},{"zip":"38730","city":"Boyle","state":"MS","lat":33.6891,"long":-90.7838},{"zip":"38732","city":"Cleveland","state":"MS","lat":33.743,"long":-90.7309},{"zip":"38733","city":"Cleveland","state":"MS","lat":33.624,"long":-90.8195},{"zip":"38740","city":"Duncan","state":"MS","lat":34.047,"long":-90.7652},{"zip":"38746","city":"Gunnison","state":"MS","lat":33.9439,"long":-90.9319},{"zip":"38759","city":"Merigold","state":"MS","lat":33.8373,"long":-90.7256},{"zip":"38762","city":"Mound Bayou","state":"MS","lat":33.886,"long":-90.7302},{"zip":"38764","city":"Pace","state":"MS","lat":33.7915,"long":-90.857},{"zip":"38769","city":"Rosedale","state":"MS","lat":33.8432,"long":-90.9923},{"zip":"38772","city":"Scott","state":"MS","lat":33.5629,"long":-91.0391},{"zip":"38773","city":"Shaw","state":"MS","lat":33.6021,"long":-90.7746},{"zip":"38774","city":"Shelby","state":"MS","lat":33.9491,"long":-90.7625},{"zip":"38781","city":"Winstonville","state":"MS","lat":33.9101,"long":-90.7515},{"zip":"38739","city":"Dublin","state":"MS","lat":34.0604,"long":-90.5011},{"zip":"38767","city":"Rena Lara","state":"MS","lat":34.1412,"long":-90.7865},{"zip":"38754","city":"Isola","state":"MS","lat":33.2471,"long":-90.604},{"zip":"38745","city":"Grace","state":"MS","lat":32.9775,"long":-90.983},{"zip":"38721","city":"Anguilla","state":"MS","lat":32.9739,"long":-90.8316},{"zip":"38765","city":"Panther Burn","state":"MS","lat":33.0662,"long":-90.8684},{"zip":"38736","city":"Doddsville","state":"MS","lat":33.63,"long":-90.5264},{"zip":"38737","city":"Drew","state":"MS","lat":33.867,"long":-90.5406},{"zip":"38738","city":"Parchman","state":"MS","lat":33.9179,"long":-90.4965},{"zip":"38749","city":"Indianola","state":"MS","lat":33.451,"long":-90.6551},{"zip":"38751","city":"Indianola","state":"MS","lat":33.451,"long":-90.6551},{"zip":"38753","city":"Inverness","state":"MS","lat":33.349,"long":-90.6051},{"zip":"38761","city":"Moorhead","state":"MS","lat":33.4783,"long":-90.5143},{"zip":"38768","city":"Rome","state":"MS","lat":33.9632,"long":-90.4784},{"zip":"38771","city":"Ruleville","state":"MS","lat":33.7241,"long":-90.5527},{"zip":"38778","city":"Sunflower","state":"MS","lat":33.5567,"long":-90.5451},{"zip":"38701","city":"Greenville","state":"MS","lat":33.3787,"long":-91.0468},{"zip":"38702","city":"Greenville","state":"MS","lat":33.4258,"long":-90.9946},{"zip":"38703","city":"Greenville","state":"MS","lat":33.4085,"long":-91.0228},{"zip":"38704","city":"Greenville","state":"MS","lat":33.2534,"long":-90.9185},{"zip":"38722","city":"Arcola","state":"MS","lat":33.2698,"long":-90.8798},{"zip":"38723","city":"Avon","state":"MS","lat":33.219,"long":-91.0479},{"zip":"38731","city":"Chatham","state":"MS","lat":33.1007,"long":-91.0979},{"zip":"38744","city":"Glen Allan","state":"MS","lat":33.0254,"long":-91.0092},{"zip":"38748","city":"Hollandale","state":"MS","lat":33.149,"long":-90.9041},{"zip":"38756","city":"Leland","state":"MS","lat":33.3985,"long":-90.8839},{"zip":"38760","city":"Metcalfe","state":"MS","lat":33.4546,"long":-90.9943},{"zip":"38776","city":"Stoneville","state":"MS","lat":33.4096,"long":-90.9104},{"zip":"38780","city":"Wayside","state":"MS","lat":33.269,"long":-91.0337},{"zip":"38782","city":"Winterville","state":"MS","lat":33.5018,"long":-91.0584}]
