[{"zip":"38834","city":"Corinth","state":"MS","lat":34.8759,"long":-88.5916},{"zip":"38835","city":"Corinth","state":"MS","lat":34.9205,"long":-88.5218},{"zip":"38846","city":"Glen","state":"MS","lat":34.878,"long":-88.4359},{"zip":"38865","city":"Rienzi","state":"MS","lat":34.7968,"long":-88.5795},{"zip":"38839","city":"Derma","state":"MS","lat":33.8562,"long":-89.3032},{"zip":"38878","city":"Vardaman","state":"MS","lat":33.919,"long":-89.1921},{"zip":"38850","city":"Houlka","state":"MS","lat":34.0561,"long":-89.0531},{"zip":"38851","city":"Houston","state":"MS","lat":33.9026,"long":-88.967},{"zip":"38860","city":"Okolona","state":"MS","lat":33.9694,"long":-88.7638},{"zip":"38875","city":"Trebloc","state":"MS","lat":33.9068,"long":-88.9554},{"zip":"38877","city":"Van Vleet","state":"MS","lat":33.9871,"long":-88.8988},{"zip":"38843","city":"Fulton","state":"MS","lat":34.2745,"long":-88.3793},{"zip":"38847","city":"Golden","state":"MS","lat":34.4812,"long":-88.1842},{"zip":"38855","city":"Mantachie","state":"MS","lat":34.3243,"long":-88.4912},{"zip":"38858","city":"Nettleton","state":"MS","lat":34.0821,"long":-88.6052},{"zip":"38876","city":"Tremont","state":"MS","lat":34.2335,"long":-88.2392},{"zip":"38874","city":"Toccopola","state":"MS","lat":34.2265,"long":-89.2519},{"zip":"38801","city":"Tupelo","state":"MS","lat":34.2538,"long":-88.7209},{"zip":"38802","city":"Tupelo","state":"MS","lat":34.2345,"long":-88.7671},{"zip":"38803","city":"Tupelo","state":"MS","lat":34.1876,"long":-88.7785},{"zip":"38804","city":"Tupelo","state":"MS","lat":34.2823,"long":-88.6715},{"zip":"38824","city":"Baldwyn","state":"MS","lat":34.528,"long":-88.6375},{"zip":"38826","city":"Belden","state":"MS","lat":34.3057,"long":-88.8462},{"zip":"38849","city":"Guntown","state":"MS","lat":34.4563,"long":-88.6975},{"zip":"38857","city":"Mooreville","state":"MS","lat":34.2808,"long":-88.595},{"zip":"38862","city":"Plantersville","state":"MS","lat":34.2011,"long":-88.6335},{"zip":"38866","city":"Saltillo","state":"MS","lat":34.3831,"long":-88.6674},{"zip":"38868","city":"Shannon","state":"MS","lat":34.121,"long":-88.7342},{"zip":"38879","city":"Verona","state":"MS","lat":34.1707,"long":-88.7591},{"zip":"38821","city":"Amory","state":"MS","lat":33.9844,"long":-88.4709},{"zip":"38825","city":"Becker","state":"MS","lat":33.8698,"long":-88.4622},{"zip":"38844","city":"Gattman","state":"MS","lat":33.8742,"long":-88.2588},{"zip":"38848","city":"Greenwood Springs","state":"MS","lat":33.8871,"long":-88.3089},{"zip":"38870","city":"Smithville","state":"MS","lat":34.0648,"long":-88.39},{"zip":"38820","city":"Algoma","state":"MS","lat":34.1715,"long":-89.0328},{"zip":"38841","city":"Ecru","state":"MS","lat":34.3366,"long":-89.0109},{"zip":"38863","city":"Pontotoc","state":"MS","lat":34.217,"long":-88.9868},{"zip":"38864","city":"Randolph","state":"MS","lat":34.1617,"long":-89.1795},{"zip":"38869","city":"Sherman","state":"MS","lat":34.3575,"long":-88.8351},{"zip":"38871","city":"Thaxton","state":"MS","lat":34.3136,"long":-89.1515},{"zip":"38829","city":"Booneville","state":"MS","lat":34.6694,"long":-88.5443},{"zip":"38856","city":"Marietta","state":"MS","lat":34.5011,"long":-88.4498},{"zip":"38859","city":"New Site","state":"MS","lat":34.5315,"long":-88.3875},{"zip":"38880","city":"Wheeler","state":"MS","lat":34.6126,"long":-88.5822},{"zip":"38827","city":"Belmont","state":"MS","lat":34.5102,"long":-88.2309},{"zip":"38833","city":"Burnsville","state":"MS","lat":34.8579,"long":-88.307},{"zip":"38838","city":"Dennis","state":"MS","lat":34.5497,"long":-88.2117},{"zip":"38852","city":"Iuka","state":"MS","lat":34.8089,"long":-88.1983},{"zip":"38873","city":"Tishomingo","state":"MS","lat":34.6478,"long":-88.2194},{"zip":"38828","city":"Blue Springs","state":"MS","lat":34.4273,"long":-88.859}]
