[{"zip":"38913","city":"Banner","state":"MS","lat":34.0949,"long":-89.4154},{"zip":"38914","city":"Big Creek","state":"MS","lat":33.8514,"long":-89.4378},{"zip":"38915","city":"Bruce","state":"MS","lat":34.0066,"long":-89.3484},{"zip":"38916","city":"Calhoun City","state":"MS","lat":33.8408,"long":-89.3178},{"zip":"38951","city":"Pittsboro","state":"MS","lat":33.9443,"long":-89.3376},{"zip":"38955","city":"Slate Spring","state":"MS","lat":33.7439,"long":-89.3753},{"zip":"38917","city":"Carrollton","state":"MS","lat":33.5208,"long":-89.9506},{"zip":"38923","city":"Coila","state":"MS","lat":33.3731,"long":-89.9915},{"zip":"38943","city":"Mc Carley","state":"MS","lat":33.5864,"long":-89.8513},{"zip":"38947","city":"North Carrollton","state":"MS","lat":33.5324,"long":-89.9001},{"zip":"38954","city":"Sidon","state":"MS","lat":33.4095,"long":-90.1779},{"zip":"38901","city":"Grenada","state":"MS","lat":33.7751,"long":-89.8087},{"zip":"38902","city":"Grenada","state":"MS","lat":33.769,"long":-89.8084},{"zip":"38926","city":"Elliott","state":"MS","lat":33.6895,"long":-89.7583},{"zip":"38929","city":"Gore Springs","state":"MS","lat":33.7245,"long":-89.5754},{"zip":"38940","city":"Holcomb","state":"MS","lat":33.7551,"long":-90.0333},{"zip":"38960","city":"Tie Plant","state":"MS","lat":33.7872,"long":-89.8219},{"zip":"38924","city":"Cruger","state":"MS","lat":33.311,"long":-90.2316},{"zip":"38949","city":"Paris","state":"MS","lat":34.1992,"long":-89.382},{"zip":"38930","city":"Greenwood","state":"MS","lat":33.5159,"long":-90.1726},{"zip":"38935","city":"Greenwood","state":"MS","lat":33.5162,"long":-90.1795},{"zip":"38941","city":"Itta Bena","state":"MS","lat":33.4798,"long":-90.3394},{"zip":"38944","city":"Minter City","state":"MS","lat":33.7515,"long":-90.3133},{"zip":"38945","city":"Money","state":"MS","lat":33.6507,"long":-90.1969},{"zip":"38946","city":"Morgan City","state":"MS","lat":33.3807,"long":-90.3504},{"zip":"38952","city":"Schlater","state":"MS","lat":33.6244,"long":-90.362},{"zip":"38959","city":"Swiftown","state":"MS","lat":33.3809,"long":-90.3496},{"zip":"38925","city":"Duck Hill","state":"MS","lat":33.5632,"long":-89.6419},{"zip":"38967","city":"Winona","state":"MS","lat":33.4858,"long":-89.7277},{"zip":"38964","city":"Vance","state":"MS","lat":34.0936,"long":-90.3752},{"zip":"38920","city":"Cascilla","state":"MS","lat":33.9079,"long":-90.0362},{"zip":"38921","city":"Charleston","state":"MS","lat":33.9726,"long":-90.1116},{"zip":"38927","city":"Enid","state":"MS","lat":34.1263,"long":-90.0044},{"zip":"38928","city":"Glendora","state":"MS","lat":33.8573,"long":-90.288},{"zip":"38950","city":"Philipp","state":"MS","lat":33.7574,"long":-90.2091},{"zip":"38957","city":"Sumner","state":"MS","lat":33.9833,"long":-90.3895},{"zip":"38958","city":"Swan Lake","state":"MS","lat":33.9292,"long":-90.1885},{"zip":"38962","city":"Tippo","state":"MS","lat":33.9292,"long":-90.1885},{"zip":"38963","city":"Tutwiler","state":"MS","lat":34.0148,"long":-90.4318},{"zip":"38966","city":"Webb","state":"MS","lat":33.9473,"long":-90.3443},{"zip":"38922","city":"Coffeeville","state":"MS","lat":33.9215,"long":-89.6782},{"zip":"38948","city":"Oakland","state":"MS","lat":34.0756,"long":-89.8877},{"zip":"38953","city":"Scobey","state":"MS","lat":33.9253,"long":-89.891},{"zip":"38961","city":"Tillatoba","state":"MS","lat":33.9852,"long":-89.8945},{"zip":"38965","city":"Water Valley","state":"MS","lat":34.1525,"long":-89.638}]
