[{"zip":"39837","city":"Colquitt","state":"GA","lat":31.173,"long":-84.731},{"zip":"39841","city":"Damascus","state":"GA","lat":31.2984,"long":-84.7175},{"zip":"39845","city":"Donalsonville","state":"GA","lat":31.0505,"long":-84.8801},{"zip":"39862","city":"Leary","state":"GA","lat":31.4849,"long":-84.5128},{"zip":"39870","city":"Newton","state":"GA","lat":31.3164,"long":-84.3367},{"zip":"39840","city":"Cuthbert","state":"GA","lat":31.7706,"long":-84.7936},{"zip":"39842","city":"Dawson","state":"GA","lat":31.7703,"long":-84.5238},{"zip":"39866","city":"Morgan","state":"GA","lat":31.5374,"long":-84.5994},{"zip":"39886","city":"Shellman","state":"GA","lat":31.7608,"long":-84.6092},{"zip":"39823","city":"Blakely","state":"GA","lat":31.3791,"long":-84.9353},{"zip":"39824","city":"Bluffton","state":"GA","lat":31.52,"long":-84.867},{"zip":"39836","city":"Coleman","state":"GA","lat":31.6726,"long":-84.8903},{"zip":"39846","city":"Edison","state":"GA","lat":31.5607,"long":-84.7381},{"zip":"39851","city":"Fort Gaines","state":"GA","lat":31.6264,"long":-85.0548},{"zip":"39854","city":"Georgetown","state":"GA","lat":31.8854,"long":-85.1059},{"zip":"39867","city":"Morris","state":"GA","lat":31.8343,"long":-84.9255},{"zip":"39813","city":"Arlington","state":"GA","lat":31.442,"long":-84.7241},{"zip":"39815","city":"Attapulgus","state":"GA","lat":30.7493,"long":-84.4846},{"zip":"39818","city":"Bainbridge","state":"GA","lat":30.8845,"long":-84.5655},{"zip":"39819","city":"Bainbridge","state":"GA","lat":30.9039,"long":-84.569},{"zip":"39852","city":"Fowlstown","state":"GA","lat":30.8024,"long":-84.5471},{"zip":"39901","city":"Atlanta","state":"GA","lat":33.8913,"long":-84.0746},{"zip":"39832","city":"Cedar Springs","state":"GA","lat":31.1745,"long":-85.037},{"zip":"39834","city":"Climax","state":"GA","lat":30.8757,"long":-84.445},{"zip":"39827","city":"Cairo","state":"GA","lat":30.9528,"long":-84.2069},{"zip":"39829","city":"Calvary","state":"GA","lat":30.7462,"long":-84.3125},{"zip":"39897","city":"Whigham","state":"GA","lat":30.8836,"long":-84.3246},{"zip":"39817","city":"Bainbridge","state":"GA","lat":30.9381,"long":-84.5934},{"zip":"39825","city":"Brinson","state":"GA","lat":30.9788,"long":-84.7373},{"zip":"39859","city":"Iron City","state":"GA","lat":31.013,"long":-84.8138},{"zip":"39861","city":"Jakin","state":"GA","lat":31.1824,"long":-85.0121},{"zip":"39826","city":"Bronwood","state":"GA","lat":31.8308,"long":-84.364},{"zip":"39828","city":"Cairo","state":"GA","lat":30.8768,"long":-84.2091},{"zip":"39885","city":"Sasser","state":"GA","lat":31.7191,"long":-84.3479},{"zip":"39877","city":"Parrott","state":"GA","lat":31.8939,"long":-84.5112},{"zip":"39120","city":"Natchez","state":"MS","lat":31.5492,"long":-91.3642},{"zip":"39121","city":"Natchez","state":"MS","lat":31.4706,"long":-91.4044},{"zip":"39122","city":"Natchez","state":"MS","lat":31.5604,"long":-91.4032},{"zip":"39165","city":"Sibley","state":"MS","lat":31.4706,"long":-91.4044},{"zip":"39190","city":"Washington","state":"MS","lat":31.5788,"long":-91.2993},{"zip":"39633","city":"Crosby","state":"MS","lat":31.291,"long":-91.1849},{"zip":"39638","city":"Gloster","state":"MS","lat":31.1903,"long":-90.924},{"zip":"39645","city":"Liberty","state":"MS","lat":31.1384,"long":-90.7133},{"zip":"39664","city":"Smithdale","state":"MS","lat":31.3672,"long":-90.6752},{"zip":"39067","city":"Ethel","state":"MS","lat":33.1204,"long":-89.4659},{"zip":"39090","city":"Kosciusko","state":"MS","lat":33.0446,"long":-89.5724},{"zip":"39107","city":"Mc Adams","state":"MS","lat":33.0828,"long":-89.6412},{"zip":"39108","city":"Mc Cool","state":"MS","lat":33.1632,"long":-89.3268},{"zip":"39160","city":"Sallis","state":"MS","lat":33.001,"long":-89.7552},{"zip":"39751","city":"Mantee","state":"MS","lat":33.7052,"long":-89.1051},{"zip":"39176","city":"Vaiden","state":"MS","lat":33.3343,"long":-89.757},{"zip":"39776","city":"Woodland","state":"MS","lat":33.8066,"long":-89.0256},{"zip":"39735","city":"Ackerman","state":"MS","lat":33.3517,"long":-89.2014},{"zip":"39745","city":"French Camp","state":"MS","lat":33.2898,"long":-89.3999},{"zip":"39772","city":"Weir","state":"MS","lat":33.2645,"long":-89.2804},{"zip":"39086","city":"Hermanville","state":"MS","lat":31.9564,"long":-90.8446},{"zip":"39144","city":"Pattison","state":"MS","lat":31.851,"long":-90.8283},{"zip":"39150","city":"Port Gibson","state":"MS","lat":31.961,"long":-90.984},{"zip":"39330","city":"Enterprise","state":"MS","lat":32.1563,"long":-88.8474},{"zip":"39347","city":"Pachuta","state":"MS","lat":32.0217,"long":-88.8851},{"zip":"39355","city":"Quitman","state":"MS","lat":32.0668,"long":-88.6788},{"zip":"39360","city":"Shubuta","state":"MS","lat":31.9607,"long":-88.7168},{"zip":"39363","city":"Stonewall","state":"MS","lat":32.1564,"long":-88.7748},{"zip":"39741","city":"Cedarbluff","state":"MS","lat":33.6162,"long":-88.8267},{"zip":"39754","city":"Montpelier","state":"MS","lat":33.7179,"long":-88.9478},{"zip":"39755","city":"Pheba","state":"MS","lat":33.5961,"long":-88.9518},{"zip":"39773","city":"West Point","state":"MS","lat":33.6076,"long":-88.6503},{"zip":"39059","city":"Crystal Springs","state":"MS","lat":31.9933,"long":-90.3744},{"zip":"39077","city":"Gallman","state":"MS","lat":31.9288,"long":-90.3926},{"zip":"39078","city":"Georgetown","state":"MS","lat":31.8552,"long":-90.2127},{"zip":"39083","city":"Hazlehurst","state":"MS","lat":31.8562,"long":-90.4051},{"zip":"39191","city":"Wesson","state":"MS","lat":31.6901,"long":-90.4131},{"zip":"39119","city":"Mount Olive","state":"MS","lat":31.7613,"long":-89.6551},{"zip":"39428","city":"Collins","state":"MS","lat":31.6707,"long":-89.5438},{"zip":"39479","city":"Seminary","state":"MS","lat":31.5285,"long":-89.4816},{"zip":"39401","city":"Hattiesburg","state":"MS","lat":31.3146,"long":-89.3065},{"zip":"39402","city":"Hattiesburg","state":"MS","lat":31.3098,"long":-89.3775},{"zip":"39403","city":"Hattiesburg","state":"MS","lat":31.3566,"long":-89.3824},{"zip":"39404","city":"Hattiesburg","state":"MS","lat":31.1721,"long":-89.2948},{"zip":"39406","city":"Hattiesburg","state":"MS","lat":31.1721,"long":-89.2948},{"zip":"39407","city":"Hattiesburg","state":"MS","lat":31.1721,"long":-89.2948},{"zip":"39425","city":"Brooklyn","state":"MS","lat":31.0591,"long":-89.0796},{"zip":"39465","city":"Petal","state":"MS","lat":31.3472,"long":-89.2222},{"zip":"39630","city":"Bude","state":"MS","lat":31.4593,"long":-90.8457},{"zip":"39647","city":"Mc Call Creek","state":"MS","lat":31.4908,"long":-90.7836},{"zip":"39653","city":"Meadville","state":"MS","lat":31.4285,"long":-90.8578},{"zip":"39661","city":"Roxie","state":"MS","lat":31.504,"long":-91.0625},{"zip":"39452","city":"Lucedale","state":"MS","lat":30.8668,"long":-88.649},{"zip":"39362","city":"State Line","state":"MS","lat":31.3916,"long":-88.5171},{"zip":"39451","city":"Leakesville","state":"MS","lat":31.1238,"long":-88.5595},{"zip":"39456","city":"Mc Lain","state":"MS","lat":31.0867,"long":-88.7977},{"zip":"39461","city":"Neely","state":"MS","lat":31.1793,"long":-88.7198},{"zip":"39520","city":"Bay Saint Louis","state":"MS","lat":30.2956,"long":-89.4632},{"zip":"39521","city":"Bay Saint Louis","state":"MS","lat":30.4032,"long":-89.4982},{"zip":"39522","city":"Stennis Space Center","state":"MS","lat":30.4032,"long":-89.4982},{"zip":"39525","city":"Diamondhead","state":"MS","lat":30.3728,"long":-89.3779},{"zip":"39529","city":"Stennis Space Center","state":"MS","lat":30.4032,"long":-89.4982},{"zip":"39556","city":"Kiln","state":"MS","lat":30.4875,"long":-89.4187},{"zip":"39558","city":"Lakeshore","state":"MS","lat":30.2391,"long":-89.4595},{"zip":"39572","city":"Pearlington","state":"MS","lat":30.2508,"long":-89.6011},{"zip":"39576","city":"Waveland","state":"MS","lat":30.2914,"long":-89.3837},{"zip":"39501","city":"Gulfport","state":"MS","lat":30.3826,"long":-89.0976},{"zip":"39502","city":"Gulfport","state":"MS","lat":30.4158,"long":-89.0684},{"zip":"39503","city":"Gulfport","state":"MS","lat":30.4601,"long":-89.0886},{"zip":"39505","city":"Gulfport","state":"MS","lat":30.4158,"long":-89.0684},{"zip":"39506","city":"Gulfport","state":"MS","lat":30.4158,"long":-89.0684},{"zip":"39507","city":"Gulfport","state":"MS","lat":30.3962,"long":-89.0353},{"zip":"39530","city":"Biloxi","state":"MS","lat":30.4035,"long":-88.8971},{"zip":"39531","city":"Biloxi","state":"MS","lat":30.4033,"long":-88.9605},{"zip":"39532","city":"Biloxi","state":"MS","lat":30.511,"long":-88.9681},{"zip":"39533","city":"Biloxi","state":"MS","lat":30.396,"long":-88.8853},{"zip":"39534","city":"Biloxi","state":"MS","lat":30.4067,"long":-88.9211},{"zip":"39535","city":"Biloxi","state":"MS","lat":30.4158,"long":-89.0684},{"zip":"39540","city":"Diberville","state":"MS","lat":30.4383,"long":-88.8989},{"zip":"39560","city":"Long Beach","state":"MS","lat":30.3598,"long":-89.1646},{"zip":"39571","city":"Pass Christian","state":"MS","lat":30.3989,"long":-89.2843},{"zip":"39574","city":"Saucier","state":"MS","lat":30.5961,"long":-89.1477},{"zip":"39041","city":"Bolton","state":"MS","lat":32.3778,"long":-90.4474},{"zip":"39056","city":"Clinton","state":"MS","lat":32.3411,"long":-90.3229},{"zip":"39058","city":"Clinton","state":"MS","lat":32.3415,"long":-90.3218},{"zip":"39060","city":"Clinton","state":"MS","lat":32.3113,"long":-90.3972},{"zip":"39066","city":"Edwards","state":"MS","lat":32.316,"long":-90.5984},{"zip":"39154","city":"Raymond","state":"MS","lat":32.1961,"long":-90.4753},{"zip":"39170","city":"Terry","state":"MS","lat":32.1147,"long":-90.3241},{"zip":"39174","city":"Tougaloo","state":"MS","lat":32.3953,"long":-90.1544},{"zip":"39175","city":"Utica","state":"MS","lat":32.1229,"long":-90.6047},{"zip":"39201","city":"Jackson","state":"MS","lat":32.2935,"long":-90.1867},{"zip":"39202","city":"Jackson","state":"MS","lat":32.3149,"long":-90.1782},{"zip":"39203","city":"Jackson","state":"MS","lat":32.3081,"long":-90.2021},{"zip":"39204","city":"Jackson","state":"MS","lat":32.2832,"long":-90.2306},{"zip":"39205","city":"Jackson","state":"MS","lat":32.2988,"long":-90.1848},{"zip":"39206","city":"Jackson","state":"MS","lat":32.37,"long":-90.1738},{"zip":"39207","city":"Jackson","state":"MS","lat":32.2988,"long":-90.1848},{"zip":"39209","city":"Jackson","state":"MS","lat":32.3184,"long":-90.2446},{"zip":"39210","city":"Jackson","state":"MS","lat":32.3218,"long":-90.1771},{"zip":"39211","city":"Jackson","state":"MS","lat":32.3739,"long":-90.1293},{"zip":"39212","city":"Jackson","state":"MS","lat":32.2435,"long":-90.2612},{"zip":"39213","city":"Jackson","state":"MS","lat":32.3553,"long":-90.2171},{"zip":"39215","city":"Jackson","state":"MS","lat":32.2988,"long":-90.1848},{"zip":"39216","city":"Jackson","state":"MS","lat":32.3386,"long":-90.1708},{"zip":"39217","city":"Jackson","state":"MS","lat":32.2974,"long":-90.2081},{"zip":"39225","city":"Jackson","state":"MS","lat":32.2988,"long":-90.1848},{"zip":"39236","city":"Jackson","state":"MS","lat":32.2988,"long":-90.1848},{"zip":"39250","city":"Jackson","state":"MS","lat":32.2988,"long":-90.1848},{"zip":"39269","city":"Jackson","state":"MS","lat":32.3003,"long":-90.1886},{"zip":"39271","city":"Jackson","state":"MS","lat":32.2988,"long":-90.1848},{"zip":"39272","city":"Byram","state":"MS","lat":32.1888,"long":-90.2595},{"zip":"39282","city":"Jackson","state":"MS","lat":32.2988,"long":-90.1848},{"zip":"39283","city":"Jackson","state":"MS","lat":32.2988,"long":-90.1848},{"zip":"39284","city":"Jackson","state":"MS","lat":32.2988,"long":-90.1848},{"zip":"39286","city":"Jackson","state":"MS","lat":32.2988,"long":-90.1848},{"zip":"39289","city":"Jackson","state":"MS","lat":32.2988,"long":-90.1848},{"zip":"39296","city":"Jackson","state":"MS","lat":32.2988,"long":-90.1848},{"zip":"39063","city":"Durant","state":"MS","lat":33.0828,"long":-89.8612},{"zip":"39079","city":"Goodman","state":"MS","lat":32.9892,"long":-89.9433},{"zip":"39095","city":"Lexington","state":"MS","lat":33.125,"long":-90.0557},{"zip":"39146","city":"Pickens","state":"MS","lat":32.8905,"long":-89.9737},{"zip":"39169","city":"Tchula","state":"MS","lat":33.1624,"long":-90.25},{"zip":"39192","city":"West","state":"MS","lat":33.1883,"long":-89.7695},{"zip":"39038","city":"Belzoni","state":"MS","lat":33.1842,"long":-90.4924},{"zip":"39097","city":"Louise","state":"MS","lat":32.9919,"long":-90.5893},{"zip":"39115","city":"Midnight","state":"MS","lat":33.126,"long":-90.5318},{"zip":"39166","city":"Silver City","state":"MS","lat":33.0507,"long":-90.4928},{"zip":"39113","city":"Mayersville","state":"MS","lat":32.9013,"long":-91.0286},{"zip":"39177","city":"Valley Park","state":"MS","lat":32.6323,"long":-90.8542},{"zip":"39552","city":"Escatawpa","state":"MS","lat":30.4411,"long":-88.6345},{"zip":"39553","city":"Gautier","state":"MS","lat":30.398,"long":-88.6412},{"zip":"39555","city":"Hurley","state":"MS","lat":30.7132,"long":-88.5197},{"zip":"39562","city":"Moss Point","state":"MS","lat":30.5471,"long":-88.4927},{"zip":"39563","city":"Moss Point","state":"MS","lat":30.425,"long":-88.5233},{"zip":"39564","city":"Ocean Springs","state":"MS","lat":30.4404,"long":-88.7801},{"zip":"39565","city":"Vancleave","state":"MS","lat":30.5405,"long":-88.6875},{"zip":"39566","city":"Ocean Springs","state":"MS","lat":30.4113,"long":-88.8278},{"zip":"39567","city":"Pascagoula","state":"MS","lat":30.3658,"long":-88.5561},{"zip":"39568","city":"Pascagoula","state":"MS","lat":30.4411,"long":-88.6345},{"zip":"39569","city":"Pascagoula","state":"MS","lat":30.3658,"long":-88.5561},{"zip":"39581","city":"Pascagoula","state":"MS","lat":30.3664,"long":-88.5289},{"zip":"39595","city":"Pascagoula","state":"MS","lat":30.3658,"long":-88.5561},{"zip":"39338","city":"Louin","state":"MS","lat":32.0997,"long":-89.2199},{"zip":"39348","city":"Paulding","state":"MS","lat":32.0167,"long":-89.0584},{"zip":"39356","city":"Rose Hill","state":"MS","lat":32.1489,"long":-89.0011},{"zip":"39366","city":"Vossburg","state":"MS","lat":31.9506,"long":-88.9707},{"zip":"39422","city":"Bay Springs","state":"MS","lat":31.9449,"long":-89.2338},{"zip":"39439","city":"Heidelberg","state":"MS","lat":31.882,"long":-88.9981},{"zip":"39460","city":"Moss","state":"MS","lat":31.8152,"long":-89.1778},{"zip":"39481","city":"Stringer","state":"MS","lat":31.8447,"long":-89.2621},{"zip":"39069","city":"Fayette","state":"MS","lat":31.7121,"long":-91.0582},{"zip":"39081","city":"Harriston","state":"MS","lat":31.74,"long":-91.0509},{"zip":"39096","city":"Lorman","state":"MS","lat":31.8383,"long":-91.0957},{"zip":"39668","city":"Union Church","state":"MS","lat":31.7105,"long":-90.8259},{"zip":"39421","city":"Bassfield","state":"MS","lat":31.5037,"long":-89.7027},{"zip":"39427","city":"Carson","state":"MS","lat":31.4814,"long":-89.8279},{"zip":"39474","city":"Prentiss","state":"MS","lat":31.6057,"long":-89.8735},{"zip":"39436","city":"Eastabuchie","state":"MS","lat":31.4555,"long":-89.302},{"zip":"39437","city":"Ellisville","state":"MS","lat":31.5797,"long":-89.2231},{"zip":"39440","city":"Laurel","state":"MS","lat":31.7054,"long":-89.1312},{"zip":"39441","city":"Laurel","state":"MS","lat":31.7277,"long":-89.0755},{"zip":"39442","city":"Laurel","state":"MS","lat":31.6823,"long":-89.0406},{"zip":"39443","city":"Laurel","state":"MS","lat":31.7138,"long":-89.0759},{"zip":"39459","city":"Moselle","state":"MS","lat":31.4836,"long":-89.3206},{"zip":"39477","city":"Sandersville","state":"MS","lat":31.7909,"long":-89.0414},{"zip":"39480","city":"Soso","state":"MS","lat":31.7594,"long":-89.3082},{"zip":"39328","city":"De Kalb","state":"MS","lat":32.7162,"long":-88.7332},{"zip":"39352","city":"Porterville","state":"MS","lat":32.6368,"long":-88.4984},{"zip":"39354","city":"Preston","state":"MS","lat":32.8826,"long":-88.8289},{"zip":"39358","city":"Scooba","state":"MS","lat":32.8402,"long":-88.4883},{"zip":"39455","city":"Lumberton","state":"MS","lat":31.0013,"long":-89.4523},{"zip":"39475","city":"Purvis","state":"MS","lat":31.1496,"long":-89.4623},{"zip":"39482","city":"Sumrall","state":"MS","lat":31.36,"long":-89.5777},{"zip":"39301","city":"Meridian","state":"MS","lat":32.3574,"long":-88.656},{"zip":"39302","city":"Meridian","state":"MS","lat":32.3643,"long":-88.7037},{"zip":"39303","city":"Meridian","state":"MS","lat":32.4012,"long":-88.6523},{"zip":"39304","city":"Meridian","state":"MS","lat":32.4208,"long":-88.646},{"zip":"39305","city":"Meridian","state":"MS","lat":32.4401,"long":-88.6783},{"zip":"39307","city":"Meridian","state":"MS","lat":32.3736,"long":-88.7436},{"zip":"39309","city":"Meridian","state":"MS","lat":32.5505,"long":-88.6132},{"zip":"39320","city":"Bailey","state":"MS","lat":32.4676,"long":-88.7228},{"zip":"39325","city":"Collinsville","state":"MS","lat":32.5643,"long":-88.875},{"zip":"39326","city":"Daleville","state":"MS","lat":32.5511,"long":-88.6609},{"zip":"39335","city":"Lauderdale","state":"MS","lat":32.5022,"long":-88.4956},{"zip":"39342","city":"Marion","state":"MS","lat":32.4245,"long":-88.6483},{"zip":"39364","city":"Toomsuba","state":"MS","lat":32.4296,"long":-88.4892},{"zip":"39140","city":"Newhebron","state":"MS","lat":31.73,"long":-90.0153},{"zip":"39641","city":"Jayess","state":"MS","lat":31.4036,"long":-90.1864},{"zip":"39654","city":"Monticello","state":"MS","lat":31.5238,"long":-90.128},{"zip":"39656","city":"Oak Vale","state":"MS","lat":31.442,"long":-89.9827},{"zip":"39663","city":"Silver Creek","state":"MS","lat":31.5755,"long":-90.0173},{"zip":"39665","city":"Sontag","state":"MS","lat":31.6524,"long":-90.2043},{"zip":"39051","city":"Carthage","state":"MS","lat":32.7852,"long":-89.5241},{"zip":"39094","city":"Lena","state":"MS","lat":32.6446,"long":-89.5494},{"zip":"39109","city":"Madden","state":"MS","lat":32.6909,"long":-89.3554},{"zip":"39171","city":"Thomastown","state":"MS","lat":32.864,"long":-89.6695},{"zip":"39189","city":"Walnut Grove","state":"MS","lat":32.6134,"long":-89.4105},{"zip":"39601","city":"Brookhaven","state":"MS","lat":31.5858,"long":-90.452},{"zip":"39602","city":"Brookhaven","state":"MS","lat":31.5334,"long":-90.4907},{"zip":"39603","city":"Brookhaven","state":"MS","lat":31.6123,"long":-90.4467},{"zip":"39629","city":"Bogue Chitto","state":"MS","lat":31.4563,"long":-90.4732},{"zip":"39662","city":"Ruth","state":"MS","lat":31.3795,"long":-90.2867},{"zip":"39701","city":"Columbus","state":"MS","lat":33.4109,"long":-88.5047},{"zip":"39702","city":"Columbus","state":"MS","lat":33.4812,"long":-88.3554},{"zip":"39703","city":"Columbus","state":"MS","lat":33.4841,"long":-88.284},{"zip":"39704","city":"Columbus","state":"MS","lat":33.5485,"long":-88.3796},{"zip":"39705","city":"Columbus","state":"MS","lat":33.5508,"long":-88.4865},{"zip":"39710","city":"Columbus","state":"MS","lat":33.5163,"long":-88.4601},{"zip":"39736","city":"Artesia","state":"MS","lat":33.4115,"long":-88.6443},{"zip":"39743","city":"Crawford","state":"MS","lat":33.3219,"long":-88.5671},{"zip":"39753","city":"Mayhew","state":"MS","lat":33.4838,"long":-88.6409},{"zip":"39766","city":"Steens","state":"MS","lat":33.5671,"long":-88.3278},{"zip":"39045","city":"Camden","state":"MS","lat":32.7853,"long":-89.8698},{"zip":"39046","city":"Canton","state":"MS","lat":32.6205,"long":-90.0061},{"zip":"39071","city":"Flora","state":"MS","lat":32.5578,"long":-90.3235},{"zip":"39110","city":"Madison","state":"MS","lat":32.4671,"long":-90.1087},{"zip":"39130","city":"Madison","state":"MS","lat":32.4618,"long":-90.1154},{"zip":"39157","city":"Ridgeland","state":"MS","lat":32.4122,"long":-90.1207},{"zip":"39158","city":"Ridgeland","state":"MS","lat":32.4285,"long":-90.1323},{"zip":"39163","city":"Sharon","state":"MS","lat":32.6424,"long":-90.0907},{"zip":"39429","city":"Columbia","state":"MS","lat":31.2559,"long":-89.7998},{"zip":"39478","city":"Sandy Hook","state":"MS","lat":31.0479,"long":-89.8183},{"zip":"39483","city":"Foxworth","state":"MS","lat":31.2473,"long":-89.9311},{"zip":"39643","city":"Kokomo","state":"MS","lat":31.244,"long":-90.0194},{"zip":"39730","city":"Aberdeen","state":"MS","lat":33.8284,"long":-88.538},{"zip":"39740","city":"Caledonia","state":"MS","lat":33.6865,"long":-88.3145},{"zip":"39746","city":"Hamilton","state":"MS","lat":33.7404,"long":-88.4112},{"zip":"39756","city":"Prairie","state":"MS","lat":33.7836,"long":-88.6642},{"zip":"39747","city":"Kilmichael","state":"MS","lat":33.4165,"long":-89.5696},{"zip":"39767","city":"Stewart","state":"MS","lat":33.5101,"long":-89.479},{"zip":"39350","city":"Philadelphia","state":"MS","lat":32.7572,"long":-89.1154},{"zip":"39365","city":"Union","state":"MS","lat":32.6439,"long":-89.112},{"zip":"39057","city":"Conehatta","state":"MS","lat":32.467,"long":-89.269},{"zip":"39323","city":"Chunky","state":"MS","lat":32.3505,"long":-88.9551},{"zip":"39327","city":"Decatur","state":"MS","lat":32.4358,"long":-89.1168},{"zip":"39332","city":"Hickory","state":"MS","lat":32.32,"long":-89.0093},{"zip":"39336","city":"Lawrence","state":"MS","lat":32.2876,"long":-89.2724},{"zip":"39337","city":"Little Rock","state":"MS","lat":32.5049,"long":-88.9955},{"zip":"39345","city":"Newton","state":"MS","lat":32.3244,"long":-89.184},{"zip":"39341","city":"Macon","state":"MS","lat":33.1027,"long":-88.5781},{"zip":"39361","city":"Shuqualak","state":"MS","lat":32.9769,"long":-88.5594},{"zip":"39739","city":"Brooksville","state":"MS","lat":33.2346,"long":-88.5823},{"zip":"39759","city":"Starkville","state":"MS","lat":33.4505,"long":-88.8196},{"zip":"39760","city":"Starkville","state":"MS","lat":33.4599,"long":-88.8322},{"zip":"39762","city":"Mississippi State","state":"MS","lat":33.4156,"long":-88.7433},{"zip":"39769","city":"Sturgis","state":"MS","lat":33.357,"long":-89.0473},{"zip":"39426","city":"Carriere","state":"MS","lat":30.6178,"long":-89.5779},{"zip":"39457","city":"Mc Neill","state":"MS","lat":30.6669,"long":-89.6734},{"zip":"39463","city":"Nicholson","state":"MS","lat":30.5637,"long":-89.5578},{"zip":"39466","city":"Picayune","state":"MS","lat":30.5418,"long":-89.691},{"zip":"39470","city":"Poplarville","state":"MS","lat":30.8524,"long":-89.5648},{"zip":"39423","city":"Beaumont","state":"MS","lat":31.1693,"long":-88.92},{"zip":"39462","city":"New Augusta","state":"MS","lat":31.2026,"long":-89.0367},{"zip":"39464","city":"Ovett","state":"MS","lat":31.4738,"long":-89.0396},{"zip":"39476","city":"Richton","state":"MS","lat":31.3434,"long":-88.9101},{"zip":"39632","city":"Chatawa","state":"MS","lat":31.1145,"long":-90.4875},{"zip":"39635","city":"Fernwood","state":"MS","lat":31.1855,"long":-90.449},{"zip":"39648","city":"Mccomb","state":"MS","lat":31.1769,"long":-90.4016},{"zip":"39649","city":"Mccomb","state":"MS","lat":31.2438,"long":-90.4532},{"zip":"39652","city":"Magnolia","state":"MS","lat":31.1217,"long":-90.4831},{"zip":"39657","city":"Osyka","state":"MS","lat":31.0217,"long":-90.479},{"zip":"39666","city":"Summit","state":"MS","lat":31.2975,"long":-90.4654},{"zip":"39042","city":"Brandon","state":"MS","lat":32.3038,"long":-89.964},{"zip":"39043","city":"Brandon","state":"MS","lat":32.269,"long":-89.9875},{"zip":"39047","city":"Brandon","state":"MS","lat":32.3886,"long":-89.9584},{"zip":"39073","city":"Florence","state":"MS","lat":32.1535,"long":-90.1312},{"zip":"39145","city":"Pelahatchie","state":"MS","lat":32.318,"long":-89.7913},{"zip":"39148","city":"Piney Woods","state":"MS","lat":32.0627,"long":-89.9929},{"zip":"39151","city":"Puckett","state":"MS","lat":32.1062,"long":-89.7836},{"zip":"39161","city":"Sandhill","state":"MS","lat":32.4983,"long":-89.8686},{"zip":"39167","city":"Star","state":"MS","lat":32.0961,"long":-90.0615},{"zip":"39193","city":"Whitfield","state":"MS","lat":32.2348,"long":-90.0726},{"zip":"39208","city":"Pearl","state":"MS","lat":32.2604,"long":-90.0897},{"zip":"39218","city":"Richland","state":"MS","lat":32.2287,"long":-90.1591},{"zip":"39232","city":"Flowood","state":"MS","lat":32.3299,"long":-90.0915},{"zip":"39288","city":"Pearl","state":"MS","lat":32.2746,"long":-90.132},{"zip":"39298","city":"Jackson","state":"MS","lat":32.3199,"long":-89.9923},{"zip":"39074","city":"Forest","state":"MS","lat":32.347,"long":-89.4672},{"zip":"39080","city":"Harperville","state":"MS","lat":32.4925,"long":-89.4946},{"zip":"39087","city":"Hillsboro","state":"MS","lat":32.4706,"long":-89.5171},{"zip":"39092","city":"Lake","state":"MS","lat":32.3459,"long":-89.3414},{"zip":"39098","city":"Ludlow","state":"MS","lat":32.566,"long":-89.7135},{"zip":"39117","city":"Morton","state":"MS","lat":32.4029,"long":-89.5949},{"zip":"39152","city":"Pulaski","state":"MS","lat":32.2745,"long":-89.5627},{"zip":"39359","city":"Sebastopol","state":"MS","lat":32.5729,"long":-89.3351},{"zip":"39054","city":"Cary","state":"MS","lat":32.806,"long":-90.9268},{"zip":"39061","city":"Delta City","state":"MS","lat":32.8798,"long":-90.811},{"zip":"39159","city":"Rolling Fork","state":"MS","lat":32.8733,"long":-90.8833},{"zip":"39044","city":"Braxton","state":"MS","lat":32.0016,"long":-89.9672},{"zip":"39062","city":"D Lo","state":"MS","lat":31.9861,"long":-89.9192},{"zip":"39082","city":"Harrisville","state":"MS","lat":31.9676,"long":-90.1054},{"zip":"39111","city":"Magee","state":"MS","lat":31.8495,"long":-89.7503},{"zip":"39114","city":"Mendenhall","state":"MS","lat":31.9494,"long":-89.8095},{"zip":"39149","city":"Pinola","state":"MS","lat":31.8277,"long":-90.0088},{"zip":"39116","city":"Mize","state":"MS","lat":31.8473,"long":-89.5741},{"zip":"39153","city":"Raleigh","state":"MS","lat":32.0508,"long":-89.5088},{"zip":"39168","city":"Taylorsville","state":"MS","lat":31.8394,"long":-89.4049},{"zip":"39561","city":"Mc Henry","state":"MS","lat":30.6975,"long":-89.1536},{"zip":"39573","city":"Perkinston","state":"MS","lat":30.7669,"long":-89.14},{"zip":"39577","city":"Wiggins","state":"MS","lat":30.8609,"long":-89.1324},{"zip":"39667","city":"Tylertown","state":"MS","lat":31.1466,"long":-90.1169},{"zip":"39156","city":"Redwood","state":"MS","lat":32.4867,"long":-90.7859},{"zip":"39180","city":"Vicksburg","state":"MS","lat":32.3258,"long":-90.8507},{"zip":"39181","city":"Vicksburg","state":"MS","lat":32.3486,"long":-90.8642},{"zip":"39182","city":"Vicksburg","state":"MS","lat":32.3486,"long":-90.8642},{"zip":"39183","city":"Vicksburg","state":"MS","lat":32.386,"long":-90.84},{"zip":"39322","city":"Buckatunna","state":"MS","lat":31.5391,"long":-88.5289},{"zip":"39324","city":"Clara","state":"MS","lat":31.5937,"long":-88.7048},{"zip":"39367","city":"Waynesboro","state":"MS","lat":31.6754,"long":-88.6782},{"zip":"39737","city":"Bellefontaine","state":"MS","lat":33.6487,"long":-89.3101},{"zip":"39744","city":"Eupora","state":"MS","lat":33.5494,"long":-89.2904},{"zip":"39750","city":"Maben","state":"MS","lat":33.5686,"long":-89.0605},{"zip":"39752","city":"Mathiston","state":"MS","lat":33.5415,"long":-89.1275},{"zip":"39771","city":"Walthall","state":"MS","lat":33.607,"long":-89.2752},{"zip":"39631","city":"Centreville","state":"MS","lat":31.0893,"long":-91.096},{"zip":"39669","city":"Woodville","state":"MS","lat":31.1459,"long":-91.3076},{"zip":"39339","city":"Louisville","state":"MS","lat":33.1058,"long":-89.0287},{"zip":"39346","city":"Noxapater","state":"MS","lat":32.9789,"long":-89.1221},{"zip":"39039","city":"Benton","state":"MS","lat":32.8158,"long":-90.2815},{"zip":"39040","city":"Bentonia","state":"MS","lat":32.7,"long":-90.3722},{"zip":"39088","city":"Holly Bluff","state":"MS","lat":32.8415,"long":-90.7231},{"zip":"39162","city":"Satartia","state":"MS","lat":32.6125,"long":-90.5965},{"zip":"39173","city":"Tinsley","state":"MS","lat":32.7628,"long":-90.3628},{"zip":"39179","city":"Vaughan","state":"MS","lat":32.8015,"long":-90.0981},{"zip":"39194","city":"Yazoo City","state":"MS","lat":32.8594,"long":-90.4031}]
