[{"zip":"39067","city":"Ethel","state":"MS","lat":33.1204,"long":-89.4659},{"zip":"39090","city":"Kosciusko","state":"MS","lat":33.0446,"long":-89.5724},{"zip":"39086","city":"Hermanville","state":"MS","lat":31.9564,"long":-90.8446},{"zip":"39059","city":"Crystal Springs","state":"MS","lat":31.9933,"long":-90.3744},{"zip":"39077","city":"Gallman","state":"MS","lat":31.9288,"long":-90.3926},{"zip":"39078","city":"Georgetown","state":"MS","lat":31.8552,"long":-90.2127},{"zip":"39083","city":"Hazlehurst","state":"MS","lat":31.8562,"long":-90.4051},{"zip":"39041","city":"Bolton","state":"MS","lat":32.3778,"long":-90.4474},{"zip":"39056","city":"Clinton","state":"MS","lat":32.3411,"long":-90.3229},{"zip":"39058","city":"Clinton","state":"MS","lat":32.3415,"long":-90.3218},{"zip":"39060","city":"Clinton","state":"MS","lat":32.3113,"long":-90.3972},{"zip":"39066","city":"Edwards","state":"MS","lat":32.316,"long":-90.5984},{"zip":"39063","city":"Durant","state":"MS","lat":33.0828,"long":-89.8612},{"zip":"39079","city":"Goodman","state":"MS","lat":32.9892,"long":-89.9433},{"zip":"39095","city":"Lexington","state":"MS","lat":33.125,"long":-90.0557},{"zip":"39038","city":"Belzoni","state":"MS","lat":33.1842,"long":-90.4924},{"zip":"39097","city":"Louise","state":"MS","lat":32.9919,"long":-90.5893},{"zip":"39069","city":"Fayette","state":"MS","lat":31.7121,"long":-91.0582},{"zip":"39081","city":"Harriston","state":"MS","lat":31.74,"long":-91.0509},{"zip":"39096","city":"Lorman","state":"MS","lat":31.8383,"long":-91.0957},{"zip":"39051","city":"Carthage","state":"MS","lat":32.7852,"long":-89.5241},{"zip":"39094","city":"Lena","state":"MS","lat":32.6446,"long":-89.5494},{"zip":"39045","city":"Camden","state":"MS","lat":32.7853,"long":-89.8698},{"zip":"39046","city":"Canton","state":"MS","lat":32.6205,"long":-90.0061},{"zip":"39071","city":"Flora","state":"MS","lat":32.5578,"long":-90.3235},{"zip":"39057","city":"Conehatta","state":"MS","lat":32.467,"long":-89.269},{"zip":"39042","city":"Brandon","state":"MS","lat":32.3038,"long":-89.964},{"zip":"39043","city":"Brandon","state":"MS","lat":32.269,"long":-89.9875},{"zip":"39047","city":"Brandon","state":"MS","lat":32.3886,"long":-89.9584},{"zip":"39073","city":"Florence","state":"MS","lat":32.1535,"long":-90.1312},{"zip":"39074","city":"Forest","state":"MS","lat":32.347,"long":-89.4672},{"zip":"39080","city":"Harperville","state":"MS","lat":32.4925,"long":-89.4946},{"zip":"39087","city":"Hillsboro","state":"MS","lat":32.4706,"long":-89.5171},{"zip":"39092","city":"Lake","state":"MS","lat":32.3459,"long":-89.3414},{"zip":"39098","city":"Ludlow","state":"MS","lat":32.566,"long":-89.7135},{"zip":"39054","city":"Cary","state":"MS","lat":32.806,"long":-90.9268},{"zip":"39061","city":"Delta City","state":"MS","lat":32.8798,"long":-90.811},{"zip":"39044","city":"Braxton","state":"MS","lat":32.0016,"long":-89.9672},{"zip":"39062","city":"D Lo","state":"MS","lat":31.9861,"long":-89.9192},{"zip":"39082","city":"Harrisville","state":"MS","lat":31.9676,"long":-90.1054},{"zip":"39039","city":"Benton","state":"MS","lat":32.8158,"long":-90.2815},{"zip":"39040","city":"Bentonia","state":"MS","lat":32.7,"long":-90.3722},{"zip":"39088","city":"Holly Bluff","state":"MS","lat":32.8415,"long":-90.7231}]
