[{"zip":"39120","city":"Natchez","state":"MS","lat":31.5492,"long":-91.3642},{"zip":"39121","city":"Natchez","state":"MS","lat":31.4706,"long":-91.4044},{"zip":"39122","city":"Natchez","state":"MS","lat":31.5604,"long":-91.4032},{"zip":"39165","city":"Sibley","state":"MS","lat":31.4706,"long":-91.4044},{"zip":"39190","city":"Washington","state":"MS","lat":31.5788,"long":-91.2993},{"zip":"39107","city":"Mc Adams","state":"MS","lat":33.0828,"long":-89.6412},{"zip":"39108","city":"Mc Cool","state":"MS","lat":33.1632,"long":-89.3268},{"zip":"39160","city":"Sallis","state":"MS","lat":33.001,"long":-89.7552},{"zip":"39176","city":"Vaiden","state":"MS","lat":33.3343,"long":-89.757},{"zip":"39144","city":"Pattison","state":"MS","lat":31.851,"long":-90.8283},{"zip":"39150","city":"Port Gibson","state":"MS","lat":31.961,"long":-90.984},{"zip":"39191","city":"Wesson","state":"MS","lat":31.6901,"long":-90.4131},{"zip":"39119","city":"Mount Olive","state":"MS","lat":31.7613,"long":-89.6551},{"zip":"39154","city":"Raymond","state":"MS","lat":32.1961,"long":-90.4753},{"zip":"39170","city":"Terry","state":"MS","lat":32.1147,"long":-90.3241},{"zip":"39174","city":"Tougaloo","state":"MS","lat":32.3953,"long":-90.1544},{"zip":"39175","city":"Utica","state":"MS","lat":32.1229,"long":-90.6047},{"zip":"39146","city":"Pickens","state":"MS","lat":32.8905,"long":-89.9737},{"zip":"39169","city":"Tchula","state":"MS","lat":33.1624,"long":-90.25},{"zip":"39192","city":"West","state":"MS","lat":33.1883,"long":-89.7695},{"zip":"39115","city":"Midnight","state":"MS","lat":33.126,"long":-90.5318},{"zip":"39166","city":"Silver City","state":"MS","lat":33.0507,"long":-90.4928},{"zip":"39113","city":"Mayersville","state":"MS","lat":32.9013,"long":-91.0286},{"zip":"39177","city":"Valley Park","state":"MS","lat":32.6323,"long":-90.8542},{"zip":"39140","city":"Newhebron","state":"MS","lat":31.73,"long":-90.0153},{"zip":"39109","city":"Madden","state":"MS","lat":32.6909,"long":-89.3554},{"zip":"39171","city":"Thomastown","state":"MS","lat":32.864,"long":-89.6695},{"zip":"39189","city":"Walnut Grove","state":"MS","lat":32.6134,"long":-89.4105},{"zip":"39110","city":"Madison","state":"MS","lat":32.4671,"long":-90.1087},{"zip":"39130","city":"Madison","state":"MS","lat":32.4618,"long":-90.1154},{"zip":"39157","city":"Ridgeland","state":"MS","lat":32.4122,"long":-90.1207},{"zip":"39158","city":"Ridgeland","state":"MS","lat":32.4285,"long":-90.1323},{"zip":"39163","city":"Sharon","state":"MS","lat":32.6424,"long":-90.0907},{"zip":"39145","city":"Pelahatchie","state":"MS","lat":32.318,"long":-89.7913},{"zip":"39148","city":"Piney Woods","state":"MS","lat":32.0627,"long":-89.9929},{"zip":"39151","city":"Puckett","state":"MS","lat":32.1062,"long":-89.7836},{"zip":"39161","city":"Sandhill","state":"MS","lat":32.4983,"long":-89.8686},{"zip":"39167","city":"Star","state":"MS","lat":32.0961,"long":-90.0615},{"zip":"39193","city":"Whitfield","state":"MS","lat":32.2348,"long":-90.0726},{"zip":"39117","city":"Morton","state":"MS","lat":32.4029,"long":-89.5949},{"zip":"39152","city":"Pulaski","state":"MS","lat":32.2745,"long":-89.5627},{"zip":"39159","city":"Rolling Fork","state":"MS","lat":32.8733,"long":-90.8833},{"zip":"39111","city":"Magee","state":"MS","lat":31.8495,"long":-89.7503},{"zip":"39114","city":"Mendenhall","state":"MS","lat":31.9494,"long":-89.8095},{"zip":"39149","city":"Pinola","state":"MS","lat":31.8277,"long":-90.0088},{"zip":"39116","city":"Mize","state":"MS","lat":31.8473,"long":-89.5741},{"zip":"39153","city":"Raleigh","state":"MS","lat":32.0508,"long":-89.5088},{"zip":"39168","city":"Taylorsville","state":"MS","lat":31.8394,"long":-89.4049},{"zip":"39156","city":"Redwood","state":"MS","lat":32.4867,"long":-90.7859},{"zip":"39180","city":"Vicksburg","state":"MS","lat":32.3258,"long":-90.8507},{"zip":"39181","city":"Vicksburg","state":"MS","lat":32.3486,"long":-90.8642},{"zip":"39182","city":"Vicksburg","state":"MS","lat":32.3486,"long":-90.8642},{"zip":"39183","city":"Vicksburg","state":"MS","lat":32.386,"long":-90.84},{"zip":"39162","city":"Satartia","state":"MS","lat":32.6125,"long":-90.5965},{"zip":"39173","city":"Tinsley","state":"MS","lat":32.7628,"long":-90.3628},{"zip":"39179","city":"Vaughan","state":"MS","lat":32.8015,"long":-90.0981},{"zip":"39194","city":"Yazoo City","state":"MS","lat":32.8594,"long":-90.4031}]
