[{"zip":"39201","city":"Jackson","state":"MS","lat":32.2935,"long":-90.1867},{"zip":"39202","city":"Jackson","state":"MS","lat":32.3149,"long":-90.1782},{"zip":"39203","city":"Jackson","state":"MS","lat":32.3081,"long":-90.2021},{"zip":"39204","city":"Jackson","state":"MS","lat":32.2832,"long":-90.2306},{"zip":"39205","city":"Jackson","state":"MS","lat":32.2988,"long":-90.1848},{"zip":"39206","city":"Jackson","state":"MS","lat":32.37,"long":-90.1738},{"zip":"39207","city":"Jackson","state":"MS","lat":32.2988,"long":-90.1848},{"zip":"39209","city":"Jackson","state":"MS","lat":32.3184,"long":-90.2446},{"zip":"39210","city":"Jackson","state":"MS","lat":32.3218,"long":-90.1771},{"zip":"39211","city":"Jackson","state":"MS","lat":32.3739,"long":-90.1293},{"zip":"39212","city":"Jackson","state":"MS","lat":32.2435,"long":-90.2612},{"zip":"39213","city":"Jackson","state":"MS","lat":32.3553,"long":-90.2171},{"zip":"39215","city":"Jackson","state":"MS","lat":32.2988,"long":-90.1848},{"zip":"39216","city":"Jackson","state":"MS","lat":32.3386,"long":-90.1708},{"zip":"39217","city":"Jackson","state":"MS","lat":32.2974,"long":-90.2081},{"zip":"39225","city":"Jackson","state":"MS","lat":32.2988,"long":-90.1848},{"zip":"39236","city":"Jackson","state":"MS","lat":32.2988,"long":-90.1848},{"zip":"39250","city":"Jackson","state":"MS","lat":32.2988,"long":-90.1848},{"zip":"39269","city":"Jackson","state":"MS","lat":32.3003,"long":-90.1886},{"zip":"39271","city":"Jackson","state":"MS","lat":32.2988,"long":-90.1848},{"zip":"39272","city":"Byram","state":"MS","lat":32.1888,"long":-90.2595},{"zip":"39282","city":"Jackson","state":"MS","lat":32.2988,"long":-90.1848},{"zip":"39283","city":"Jackson","state":"MS","lat":32.2988,"long":-90.1848},{"zip":"39284","city":"Jackson","state":"MS","lat":32.2988,"long":-90.1848},{"zip":"39286","city":"Jackson","state":"MS","lat":32.2988,"long":-90.1848},{"zip":"39289","city":"Jackson","state":"MS","lat":32.2988,"long":-90.1848},{"zip":"39296","city":"Jackson","state":"MS","lat":32.2988,"long":-90.1848},{"zip":"39208","city":"Pearl","state":"MS","lat":32.2604,"long":-90.0897},{"zip":"39218","city":"Richland","state":"MS","lat":32.2287,"long":-90.1591},{"zip":"39232","city":"Flowood","state":"MS","lat":32.3299,"long":-90.0915},{"zip":"39288","city":"Pearl","state":"MS","lat":32.2746,"long":-90.132},{"zip":"39298","city":"Jackson","state":"MS","lat":32.3199,"long":-89.9923}]
