[{"zip":"39330","city":"Enterprise","state":"MS","lat":32.1563,"long":-88.8474},{"zip":"39347","city":"Pachuta","state":"MS","lat":32.0217,"long":-88.8851},{"zip":"39355","city":"Quitman","state":"MS","lat":32.0668,"long":-88.6788},{"zip":"39360","city":"Shubuta","state":"MS","lat":31.9607,"long":-88.7168},{"zip":"39363","city":"Stonewall","state":"MS","lat":32.1564,"long":-88.7748},{"zip":"39362","city":"State Line","state":"MS","lat":31.3916,"long":-88.5171},{"zip":"39338","city":"Louin","state":"MS","lat":32.0997,"long":-89.2199},{"zip":"39348","city":"Paulding","state":"MS","lat":32.0167,"long":-89.0584},{"zip":"39356","city":"Rose Hill","state":"MS","lat":32.1489,"long":-89.0011},{"zip":"39366","city":"Vossburg","state":"MS","lat":31.9506,"long":-88.9707},{"zip":"39328","city":"De Kalb","state":"MS","lat":32.7162,"long":-88.7332},{"zip":"39352","city":"Porterville","state":"MS","lat":32.6368,"long":-88.4984},{"zip":"39354","city":"Preston","state":"MS","lat":32.8826,"long":-88.8289},{"zip":"39358","city":"Scooba","state":"MS","lat":32.8402,"long":-88.4883},{"zip":"39301","city":"Meridian","state":"MS","lat":32.3574,"long":-88.656},{"zip":"39302","city":"Meridian","state":"MS","lat":32.3643,"long":-88.7037},{"zip":"39303","city":"Meridian","state":"MS","lat":32.4012,"long":-88.6523},{"zip":"39304","city":"Meridian","state":"MS","lat":32.4208,"long":-88.646},{"zip":"39305","city":"Meridian","state":"MS","lat":32.4401,"long":-88.6783},{"zip":"39307","city":"Meridian","state":"MS","lat":32.3736,"long":-88.7436},{"zip":"39309","city":"Meridian","state":"MS","lat":32.5505,"long":-88.6132},{"zip":"39320","city":"Bailey","state":"MS","lat":32.4676,"long":-88.7228},{"zip":"39325","city":"Collinsville","state":"MS","lat":32.5643,"long":-88.875},{"zip":"39326","city":"Daleville","state":"MS","lat":32.5511,"long":-88.6609},{"zip":"39335","city":"Lauderdale","state":"MS","lat":32.5022,"long":-88.4956},{"zip":"39342","city":"Marion","state":"MS","lat":32.4245,"long":-88.6483},{"zip":"39364","city":"Toomsuba","state":"MS","lat":32.4296,"long":-88.4892},{"zip":"39350","city":"Philadelphia","state":"MS","lat":32.7572,"long":-89.1154},{"zip":"39365","city":"Union","state":"MS","lat":32.6439,"long":-89.112},{"zip":"39323","city":"Chunky","state":"MS","lat":32.3505,"long":-88.9551},{"zip":"39327","city":"Decatur","state":"MS","lat":32.4358,"long":-89.1168},{"zip":"39332","city":"Hickory","state":"MS","lat":32.32,"long":-89.0093},{"zip":"39336","city":"Lawrence","state":"MS","lat":32.2876,"long":-89.2724},{"zip":"39337","city":"Little Rock","state":"MS","lat":32.5049,"long":-88.9955},{"zip":"39345","city":"Newton","state":"MS","lat":32.3244,"long":-89.184},{"zip":"39341","city":"Macon","state":"MS","lat":33.1027,"long":-88.5781},{"zip":"39361","city":"Shuqualak","state":"MS","lat":32.9769,"long":-88.5594},{"zip":"39359","city":"Sebastopol","state":"MS","lat":32.5729,"long":-89.3351},{"zip":"39322","city":"Buckatunna","state":"MS","lat":31.5391,"long":-88.5289},{"zip":"39324","city":"Clara","state":"MS","lat":31.5937,"long":-88.7048},{"zip":"39367","city":"Waynesboro","state":"MS","lat":31.6754,"long":-88.6782},{"zip":"39339","city":"Louisville","state":"MS","lat":33.1058,"long":-89.0287},{"zip":"39346","city":"Noxapater","state":"MS","lat":32.9789,"long":-89.1221}]
