[{"zip":"39428","city":"Collins","state":"MS","lat":31.6707,"long":-89.5438},{"zip":"39479","city":"Seminary","state":"MS","lat":31.5285,"long":-89.4816},{"zip":"39401","city":"Hattiesburg","state":"MS","lat":31.3146,"long":-89.3065},{"zip":"39402","city":"Hattiesburg","state":"MS","lat":31.3098,"long":-89.3775},{"zip":"39403","city":"Hattiesburg","state":"MS","lat":31.3566,"long":-89.3824},{"zip":"39404","city":"Hattiesburg","state":"MS","lat":31.1721,"long":-89.2948},{"zip":"39406","city":"Hattiesburg","state":"MS","lat":31.1721,"long":-89.2948},{"zip":"39407","city":"Hattiesburg","state":"MS","lat":31.1721,"long":-89.2948},{"zip":"39425","city":"Brooklyn","state":"MS","lat":31.0591,"long":-89.0796},{"zip":"39465","city":"Petal","state":"MS","lat":31.3472,"long":-89.2222},{"zip":"39452","city":"Lucedale","state":"MS","lat":30.8668,"long":-88.649},{"zip":"39451","city":"Leakesville","state":"MS","lat":31.1238,"long":-88.5595},{"zip":"39456","city":"Mc Lain","state":"MS","lat":31.0867,"long":-88.7977},{"zip":"39461","city":"Neely","state":"MS","lat":31.1793,"long":-88.7198},{"zip":"39422","city":"Bay Springs","state":"MS","lat":31.9449,"long":-89.2338},{"zip":"39439","city":"Heidelberg","state":"MS","lat":31.882,"long":-88.9981},{"zip":"39460","city":"Moss","state":"MS","lat":31.8152,"long":-89.1778},{"zip":"39481","city":"Stringer","state":"MS","lat":31.8447,"long":-89.2621},{"zip":"39421","city":"Bassfield","state":"MS","lat":31.5037,"long":-89.7027},{"zip":"39427","city":"Carson","state":"MS","lat":31.4814,"long":-89.8279},{"zip":"39474","city":"Prentiss","state":"MS","lat":31.6057,"long":-89.8735},{"zip":"39436","city":"Eastabuchie","state":"MS","lat":31.4555,"long":-89.302},{"zip":"39437","city":"Ellisville","state":"MS","lat":31.5797,"long":-89.2231},{"zip":"39440","city":"Laurel","state":"MS","lat":31.7054,"long":-89.1312},{"zip":"39441","city":"Laurel","state":"MS","lat":31.7277,"long":-89.0755},{"zip":"39442","city":"Laurel","state":"MS","lat":31.6823,"long":-89.0406},{"zip":"39443","city":"Laurel","state":"MS","lat":31.7138,"long":-89.0759},{"zip":"39459","city":"Moselle","state":"MS","lat":31.4836,"long":-89.3206},{"zip":"39477","city":"Sandersville","state":"MS","lat":31.7909,"long":-89.0414},{"zip":"39480","city":"Soso","state":"MS","lat":31.7594,"long":-89.3082},{"zip":"39455","city":"Lumberton","state":"MS","lat":31.0013,"long":-89.4523},{"zip":"39475","city":"Purvis","state":"MS","lat":31.1496,"long":-89.4623},{"zip":"39482","city":"Sumrall","state":"MS","lat":31.36,"long":-89.5777},{"zip":"39429","city":"Columbia","state":"MS","lat":31.2559,"long":-89.7998},{"zip":"39478","city":"Sandy Hook","state":"MS","lat":31.0479,"long":-89.8183},{"zip":"39483","city":"Foxworth","state":"MS","lat":31.2473,"long":-89.9311},{"zip":"39426","city":"Carriere","state":"MS","lat":30.6178,"long":-89.5779},{"zip":"39457","city":"Mc Neill","state":"MS","lat":30.6669,"long":-89.6734},{"zip":"39463","city":"Nicholson","state":"MS","lat":30.5637,"long":-89.5578},{"zip":"39466","city":"Picayune","state":"MS","lat":30.5418,"long":-89.691},{"zip":"39470","city":"Poplarville","state":"MS","lat":30.8524,"long":-89.5648},{"zip":"39423","city":"Beaumont","state":"MS","lat":31.1693,"long":-88.92},{"zip":"39462","city":"New Augusta","state":"MS","lat":31.2026,"long":-89.0367},{"zip":"39464","city":"Ovett","state":"MS","lat":31.4738,"long":-89.0396},{"zip":"39476","city":"Richton","state":"MS","lat":31.3434,"long":-88.9101}]
