[{"zip":"39520","city":"Bay Saint Louis","state":"MS","lat":30.2956,"long":-89.4632},{"zip":"39521","city":"Bay Saint Louis","state":"MS","lat":30.4032,"long":-89.4982},{"zip":"39522","city":"Stennis Space Center","state":"MS","lat":30.4032,"long":-89.4982},{"zip":"39525","city":"Diamondhead","state":"MS","lat":30.3728,"long":-89.3779},{"zip":"39529","city":"Stennis Space Center","state":"MS","lat":30.4032,"long":-89.4982},{"zip":"39556","city":"Kiln","state":"MS","lat":30.4875,"long":-89.4187},{"zip":"39558","city":"Lakeshore","state":"MS","lat":30.2391,"long":-89.4595},{"zip":"39572","city":"Pearlington","state":"MS","lat":30.2508,"long":-89.6011},{"zip":"39576","city":"Waveland","state":"MS","lat":30.2914,"long":-89.3837},{"zip":"39501","city":"Gulfport","state":"MS","lat":30.3826,"long":-89.0976},{"zip":"39502","city":"Gulfport","state":"MS","lat":30.4158,"long":-89.0684},{"zip":"39503","city":"Gulfport","state":"MS","lat":30.4601,"long":-89.0886},{"zip":"39505","city":"Gulfport","state":"MS","lat":30.4158,"long":-89.0684},{"zip":"39506","city":"Gulfport","state":"MS","lat":30.4158,"long":-89.0684},{"zip":"39507","city":"Gulfport","state":"MS","lat":30.3962,"long":-89.0353},{"zip":"39530","city":"Biloxi","state":"MS","lat":30.4035,"long":-88.8971},{"zip":"39531","city":"Biloxi","state":"MS","lat":30.4033,"long":-88.9605},{"zip":"39532","city":"Biloxi","state":"MS","lat":30.511,"long":-88.9681},{"zip":"39533","city":"Biloxi","state":"MS","lat":30.396,"long":-88.8853},{"zip":"39534","city":"Biloxi","state":"MS","lat":30.4067,"long":-88.9211},{"zip":"39535","city":"Biloxi","state":"MS","lat":30.4158,"long":-89.0684},{"zip":"39540","city":"Diberville","state":"MS","lat":30.4383,"long":-88.8989},{"zip":"39560","city":"Long Beach","state":"MS","lat":30.3598,"long":-89.1646},{"zip":"39571","city":"Pass Christian","state":"MS","lat":30.3989,"long":-89.2843},{"zip":"39574","city":"Saucier","state":"MS","lat":30.5961,"long":-89.1477},{"zip":"39552","city":"Escatawpa","state":"MS","lat":30.4411,"long":-88.6345},{"zip":"39553","city":"Gautier","state":"MS","lat":30.398,"long":-88.6412},{"zip":"39555","city":"Hurley","state":"MS","lat":30.7132,"long":-88.5197},{"zip":"39562","city":"Moss Point","state":"MS","lat":30.5471,"long":-88.4927},{"zip":"39563","city":"Moss Point","state":"MS","lat":30.425,"long":-88.5233},{"zip":"39564","city":"Ocean Springs","state":"MS","lat":30.4404,"long":-88.7801},{"zip":"39565","city":"Vancleave","state":"MS","lat":30.5405,"long":-88.6875},{"zip":"39566","city":"Ocean Springs","state":"MS","lat":30.4113,"long":-88.8278},{"zip":"39567","city":"Pascagoula","state":"MS","lat":30.3658,"long":-88.5561},{"zip":"39568","city":"Pascagoula","state":"MS","lat":30.4411,"long":-88.6345},{"zip":"39569","city":"Pascagoula","state":"MS","lat":30.3658,"long":-88.5561},{"zip":"39581","city":"Pascagoula","state":"MS","lat":30.3664,"long":-88.5289},{"zip":"39595","city":"Pascagoula","state":"MS","lat":30.3658,"long":-88.5561},{"zip":"39561","city":"Mc Henry","state":"MS","lat":30.6975,"long":-89.1536},{"zip":"39573","city":"Perkinston","state":"MS","lat":30.7669,"long":-89.14},{"zip":"39577","city":"Wiggins","state":"MS","lat":30.8609,"long":-89.1324}]
