[{"zip":"39633","city":"Crosby","state":"MS","lat":31.291,"long":-91.1849},{"zip":"39638","city":"Gloster","state":"MS","lat":31.1903,"long":-90.924},{"zip":"39645","city":"Liberty","state":"MS","lat":31.1384,"long":-90.7133},{"zip":"39664","city":"Smithdale","state":"MS","lat":31.3672,"long":-90.6752},{"zip":"39630","city":"Bude","state":"MS","lat":31.4593,"long":-90.8457},{"zip":"39647","city":"Mc Call Creek","state":"MS","lat":31.4908,"long":-90.7836},{"zip":"39653","city":"Meadville","state":"MS","lat":31.4285,"long":-90.8578},{"zip":"39661","city":"Roxie","state":"MS","lat":31.504,"long":-91.0625},{"zip":"39668","city":"Union Church","state":"MS","lat":31.7105,"long":-90.8259},{"zip":"39641","city":"Jayess","state":"MS","lat":31.4036,"long":-90.1864},{"zip":"39654","city":"Monticello","state":"MS","lat":31.5238,"long":-90.128},{"zip":"39656","city":"Oak Vale","state":"MS","lat":31.442,"long":-89.9827},{"zip":"39663","city":"Silver Creek","state":"MS","lat":31.5755,"long":-90.0173},{"zip":"39665","city":"Sontag","state":"MS","lat":31.6524,"long":-90.2043},{"zip":"39601","city":"Brookhaven","state":"MS","lat":31.5858,"long":-90.452},{"zip":"39602","city":"Brookhaven","state":"MS","lat":31.5334,"long":-90.4907},{"zip":"39603","city":"Brookhaven","state":"MS","lat":31.6123,"long":-90.4467},{"zip":"39629","city":"Bogue Chitto","state":"MS","lat":31.4563,"long":-90.4732},{"zip":"39662","city":"Ruth","state":"MS","lat":31.3795,"long":-90.2867},{"zip":"39643","city":"Kokomo","state":"MS","lat":31.244,"long":-90.0194},{"zip":"39632","city":"Chatawa","state":"MS","lat":31.1145,"long":-90.4875},{"zip":"39635","city":"Fernwood","state":"MS","lat":31.1855,"long":-90.449},{"zip":"39648","city":"Mccomb","state":"MS","lat":31.1769,"long":-90.4016},{"zip":"39649","city":"Mccomb","state":"MS","lat":31.2438,"long":-90.4532},{"zip":"39652","city":"Magnolia","state":"MS","lat":31.1217,"long":-90.4831},{"zip":"39657","city":"Osyka","state":"MS","lat":31.0217,"long":-90.479},{"zip":"39666","city":"Summit","state":"MS","lat":31.2975,"long":-90.4654},{"zip":"39667","city":"Tylertown","state":"MS","lat":31.1466,"long":-90.1169},{"zip":"39631","city":"Centreville","state":"MS","lat":31.0893,"long":-91.096},{"zip":"39669","city":"Woodville","state":"MS","lat":31.1459,"long":-91.3076}]
