[{"zip":"39751","city":"Mantee","state":"MS","lat":33.7052,"long":-89.1051},{"zip":"39776","city":"Woodland","state":"MS","lat":33.8066,"long":-89.0256},{"zip":"39735","city":"Ackerman","state":"MS","lat":33.3517,"long":-89.2014},{"zip":"39745","city":"French Camp","state":"MS","lat":33.2898,"long":-89.3999},{"zip":"39772","city":"Weir","state":"MS","lat":33.2645,"long":-89.2804},{"zip":"39741","city":"Cedarbluff","state":"MS","lat":33.6162,"long":-88.8267},{"zip":"39754","city":"Montpelier","state":"MS","lat":33.7179,"long":-88.9478},{"zip":"39755","city":"Pheba","state":"MS","lat":33.5961,"long":-88.9518},{"zip":"39773","city":"West Point","state":"MS","lat":33.6076,"long":-88.6503},{"zip":"39701","city":"Columbus","state":"MS","lat":33.4109,"long":-88.5047},{"zip":"39702","city":"Columbus","state":"MS","lat":33.4812,"long":-88.3554},{"zip":"39703","city":"Columbus","state":"MS","lat":33.4841,"long":-88.284},{"zip":"39704","city":"Columbus","state":"MS","lat":33.5485,"long":-88.3796},{"zip":"39705","city":"Columbus","state":"MS","lat":33.5508,"long":-88.4865},{"zip":"39710","city":"Columbus","state":"MS","lat":33.5163,"long":-88.4601},{"zip":"39736","city":"Artesia","state":"MS","lat":33.4115,"long":-88.6443},{"zip":"39743","city":"Crawford","state":"MS","lat":33.3219,"long":-88.5671},{"zip":"39753","city":"Mayhew","state":"MS","lat":33.4838,"long":-88.6409},{"zip":"39766","city":"Steens","state":"MS","lat":33.5671,"long":-88.3278},{"zip":"39730","city":"Aberdeen","state":"MS","lat":33.8284,"long":-88.538},{"zip":"39740","city":"Caledonia","state":"MS","lat":33.6865,"long":-88.3145},{"zip":"39746","city":"Hamilton","state":"MS","lat":33.7404,"long":-88.4112},{"zip":"39756","city":"Prairie","state":"MS","lat":33.7836,"long":-88.6642},{"zip":"39747","city":"Kilmichael","state":"MS","lat":33.4165,"long":-89.5696},{"zip":"39767","city":"Stewart","state":"MS","lat":33.5101,"long":-89.479},{"zip":"39739","city":"Brooksville","state":"MS","lat":33.2346,"long":-88.5823},{"zip":"39759","city":"Starkville","state":"MS","lat":33.4505,"long":-88.8196},{"zip":"39760","city":"Starkville","state":"MS","lat":33.4599,"long":-88.8322},{"zip":"39762","city":"Mississippi State","state":"MS","lat":33.4156,"long":-88.7433},{"zip":"39769","city":"Sturgis","state":"MS","lat":33.357,"long":-89.0473},{"zip":"39737","city":"Bellefontaine","state":"MS","lat":33.6487,"long":-89.3101},{"zip":"39744","city":"Eupora","state":"MS","lat":33.5494,"long":-89.2904},{"zip":"39750","city":"Maben","state":"MS","lat":33.5686,"long":-89.0605},{"zip":"39752","city":"Mathiston","state":"MS","lat":33.5415,"long":-89.1275},{"zip":"39771","city":"Walthall","state":"MS","lat":33.607,"long":-89.2752}]
