[{"zip":"39837","city":"Colquitt","state":"GA","lat":31.173,"long":-84.731},{"zip":"39841","city":"Damascus","state":"GA","lat":31.2984,"long":-84.7175},{"zip":"39845","city":"Donalsonville","state":"GA","lat":31.0505,"long":-84.8801},{"zip":"39862","city":"Leary","state":"GA","lat":31.4849,"long":-84.5128},{"zip":"39870","city":"Newton","state":"GA","lat":31.3164,"long":-84.3367},{"zip":"39840","city":"Cuthbert","state":"GA","lat":31.7706,"long":-84.7936},{"zip":"39842","city":"Dawson","state":"GA","lat":31.7703,"long":-84.5238},{"zip":"39866","city":"Morgan","state":"GA","lat":31.5374,"long":-84.5994},{"zip":"39886","city":"Shellman","state":"GA","lat":31.7608,"long":-84.6092},{"zip":"39823","city":"Blakely","state":"GA","lat":31.3791,"long":-84.9353},{"zip":"39824","city":"Bluffton","state":"GA","lat":31.52,"long":-84.867},{"zip":"39836","city":"Coleman","state":"GA","lat":31.6726,"long":-84.8903},{"zip":"39846","city":"Edison","state":"GA","lat":31.5607,"long":-84.7381},{"zip":"39851","city":"Fort Gaines","state":"GA","lat":31.6264,"long":-85.0548},{"zip":"39854","city":"Georgetown","state":"GA","lat":31.8854,"long":-85.1059},{"zip":"39867","city":"Morris","state":"GA","lat":31.8343,"long":-84.9255},{"zip":"39813","city":"Arlington","state":"GA","lat":31.442,"long":-84.7241},{"zip":"39815","city":"Attapulgus","state":"GA","lat":30.7493,"long":-84.4846},{"zip":"39818","city":"Bainbridge","state":"GA","lat":30.8845,"long":-84.5655},{"zip":"39819","city":"Bainbridge","state":"GA","lat":30.9039,"long":-84.569},{"zip":"39852","city":"Fowlstown","state":"GA","lat":30.8024,"long":-84.5471},{"zip":"39832","city":"Cedar Springs","state":"GA","lat":31.1745,"long":-85.037},{"zip":"39834","city":"Climax","state":"GA","lat":30.8757,"long":-84.445},{"zip":"39827","city":"Cairo","state":"GA","lat":30.9528,"long":-84.2069},{"zip":"39829","city":"Calvary","state":"GA","lat":30.7462,"long":-84.3125},{"zip":"39897","city":"Whigham","state":"GA","lat":30.8836,"long":-84.3246},{"zip":"39817","city":"Bainbridge","state":"GA","lat":30.9381,"long":-84.5934},{"zip":"39825","city":"Brinson","state":"GA","lat":30.9788,"long":-84.7373},{"zip":"39859","city":"Iron City","state":"GA","lat":31.013,"long":-84.8138},{"zip":"39861","city":"Jakin","state":"GA","lat":31.1824,"long":-85.0121},{"zip":"39826","city":"Bronwood","state":"GA","lat":31.8308,"long":-84.364},{"zip":"39828","city":"Cairo","state":"GA","lat":30.8768,"long":-84.2091},{"zip":"39885","city":"Sasser","state":"GA","lat":31.7191,"long":-84.3479},{"zip":"39877","city":"Parrott","state":"GA","lat":31.8939,"long":-84.5112}]
