[{"zip":"40342","city":"Lawrenceburg","state":"KY","lat":38.0189,"long":-84.9299},{"zip":"40358","city":"Olympia","state":"KY","lat":38.0849,"long":-83.7008},{"zip":"40360","city":"Owingsville","state":"KY","lat":38.1532,"long":-83.7564},{"zip":"40366","city":"Preston","state":"KY","lat":38.0867,"long":-83.7571},{"zip":"40371","city":"Salt Lick","state":"KY","lat":38.104,"long":-83.6316},{"zip":"40374","city":"Sharpsburg","state":"KY","lat":38.2147,"long":-83.8932},{"zip":"40813","city":"Calvin","state":"KY","lat":36.7146,"long":-83.6405},{"zip":"40845","city":"Hulen","state":"KY","lat":36.7714,"long":-83.5551},{"zip":"40856","city":"Miracle","state":"KY","lat":36.7606,"long":-83.5841},{"zip":"40902","city":"Arjay","state":"KY","lat":36.8283,"long":-83.6415},{"zip":"40913","city":"Beverly","state":"KY","lat":36.9442,"long":-83.556},{"zip":"40940","city":"Frakes","state":"KY","lat":36.607,"long":-83.9484},{"zip":"40955","city":"Ingram","state":"KY","lat":36.7692,"long":-83.7082},{"zip":"40958","city":"Kettle Island","state":"KY","lat":36.8093,"long":-83.5892},{"zip":"40965","city":"Middlesboro","state":"KY","lat":36.6172,"long":-83.7231},{"zip":"40977","city":"Pineville","state":"KY","lat":36.7159,"long":-83.7668},{"zip":"40988","city":"Stoney Fork","state":"KY","lat":36.8323,"long":-83.5346},{"zip":"40348","city":"Millersburg","state":"KY","lat":38.2963,"long":-84.1513},{"zip":"40357","city":"North Middletown","state":"KY","lat":38.1464,"long":-84.1077},{"zip":"40361","city":"Paris","state":"KY","lat":38.2083,"long":-84.245},{"zip":"40362","city":"Paris","state":"KY","lat":38.2098,"long":-84.253},{"zip":"40422","city":"Danville","state":"KY","lat":37.6465,"long":-84.7747},{"zip":"40423","city":"Danville","state":"KY","lat":37.6456,"long":-84.7722},{"zip":"40440","city":"Junction City","state":"KY","lat":37.5822,"long":-84.8028},{"zip":"40452","city":"Mitchellsburg","state":"KY","lat":37.6033,"long":-84.9492},{"zip":"40464","city":"Parksville","state":"KY","lat":37.5778,"long":-84.9281},{"zip":"40468","city":"Perryville","state":"KY","lat":37.6375,"long":-84.9665},{"zip":"40111","city":"Cloverport","state":"KY","lat":37.7731,"long":-86.6282},{"zip":"40115","city":"Custer","state":"KY","lat":37.7358,"long":-86.2378},{"zip":"40140","city":"Garfield","state":"KY","lat":37.8023,"long":-86.4148},{"zip":"40143","city":"Hardinsburg","state":"KY","lat":37.7512,"long":-86.4537},{"zip":"40144","city":"Harned","state":"KY","lat":37.8023,"long":-86.4148},{"zip":"40145","city":"Hudson","state":"KY","lat":37.6506,"long":-86.3012},{"zip":"40146","city":"Irvington","state":"KY","lat":37.8762,"long":-86.2965},{"zip":"40152","city":"Mc Daniels","state":"KY","lat":37.6194,"long":-86.4491},{"zip":"40153","city":"Mc Quady","state":"KY","lat":37.8023,"long":-86.4148},{"zip":"40170","city":"Stephensport","state":"KY","lat":37.9048,"long":-86.524},{"zip":"40171","city":"Union Star","state":"KY","lat":37.9616,"long":-86.4615},{"zip":"40176","city":"Webster","state":"KY","lat":37.9237,"long":-86.3441},{"zip":"40178","city":"Westview","state":"KY","lat":37.6792,"long":-86.4273},{"zip":"40047","city":"Mount Washington","state":"KY","lat":38.0452,"long":-85.5586},{"zip":"40109","city":"Brooks","state":"KY","lat":38.0546,"long":-85.7713},{"zip":"40110","city":"Clermont","state":"KY","lat":37.9346,"long":-85.6555},{"zip":"40129","city":"Hillview","state":"KY","lat":38.0764,"long":-85.6774},{"zip":"40150","city":"Lebanon Junction","state":"KY","lat":37.8511,"long":-85.7246},{"zip":"40165","city":"Shepherdsville","state":"KY","lat":38.0045,"long":-85.6888},{"zip":"40391","city":"Winchester","state":"KY","lat":37.9872,"long":-84.1789},{"zip":"40392","city":"Winchester","state":"KY","lat":37.9901,"long":-84.1797},{"zip":"40914","city":"Big Creek","state":"KY","lat":37.1623,"long":-83.5688},{"zip":"40932","city":"Fall Rock","state":"KY","lat":37.2198,"long":-83.7883},{"zip":"40941","city":"Garrard","state":"KY","lat":37.1237,"long":-83.7463},{"zip":"40944","city":"Goose Rock","state":"KY","lat":37.0904,"long":-83.6944},{"zip":"40951","city":"Hima","state":"KY","lat":37.1206,"long":-83.7783},{"zip":"40962","city":"Manchester","state":"KY","lat":37.1511,"long":-83.7793},{"zip":"40972","city":"Oneida","state":"KY","lat":37.2695,"long":-83.6491},{"zip":"40983","city":"Sextons Creek","state":"KY","lat":37.333,"long":-83.7666},{"zip":"40336","city":"Irvine","state":"KY","lat":37.6858,"long":-83.9862},{"zip":"40472","city":"Ravenna","state":"KY","lat":37.6867,"long":-83.9387},{"zip":"40502","city":"Lexington","state":"KY","lat":38.0174,"long":-84.4854},{"zip":"40503","city":"Lexington","state":"KY","lat":38.001,"long":-84.5282},{"zip":"40504","city":"Lexington","state":"KY","lat":38.0406,"long":-84.5433},{"zip":"40505","city":"Lexington","state":"KY","lat":38.0612,"long":-84.4583},{"zip":"40506","city":"Lexington","state":"KY","lat":38.0287,"long":-84.5075},{"zip":"40507","city":"Lexington","state":"KY","lat":38.0464,"long":-84.4953},{"zip":"40508","city":"Lexington","state":"KY","lat":38.0513,"long":-84.499},{"zip":"40509","city":"Lexington","state":"KY","lat":38.0102,"long":-84.4274},{"zip":"40510","city":"Lexington","state":"KY","lat":38.0702,"long":-84.591},{"zip":"40511","city":"Lexington","state":"KY","lat":38.0932,"long":-84.5007},{"zip":"40512","city":"Lexington","state":"KY","lat":38.0283,"long":-84.4715},{"zip":"40513","city":"Lexington","state":"KY","lat":38.0139,"long":-84.5815},{"zip":"40514","city":"Lexington","state":"KY","lat":37.9833,"long":-84.5767},{"zip":"40515","city":"Lexington","state":"KY","lat":37.9651,"long":-84.4708},{"zip":"40516","city":"Lexington","state":"KY","lat":38.0544,"long":-84.3548},{"zip":"40517","city":"Lexington","state":"KY","lat":37.9849,"long":-84.4816},{"zip":"40522","city":"Lexington","state":"KY","lat":38.0283,"long":-84.4715},{"zip":"40523","city":"Lexington","state":"KY","lat":38.0283,"long":-84.4715},{"zip":"40524","city":"Lexington","state":"KY","lat":38.0283,"long":-84.4715},{"zip":"40526","city":"Lexington","state":"KY","lat":38.0283,"long":-84.4715},{"zip":"40533","city":"Lexington","state":"KY","lat":38.0283,"long":-84.4715},{"zip":"40536","city":"Lexington","state":"KY","lat":38.0321,"long":-84.5084},{"zip":"40544","city":"Lexington","state":"KY","lat":38.0283,"long":-84.4715},{"zip":"40546","city":"Lexington","state":"KY","lat":38.0283,"long":-84.4715},{"zip":"40550","city":"Lexington","state":"KY","lat":38.0283,"long":-84.4715},{"zip":"40555","city":"Lexington","state":"KY","lat":38.0283,"long":-84.4715},{"zip":"40574","city":"Lexington","state":"KY","lat":38.0283,"long":-84.4715},{"zip":"40575","city":"Lexington","state":"KY","lat":38.0283,"long":-84.4715},{"zip":"40576","city":"Lexington","state":"KY","lat":38.0283,"long":-84.4715},{"zip":"40577","city":"Lexington","state":"KY","lat":38.0283,"long":-84.4715},{"zip":"40578","city":"Lexington","state":"KY","lat":38.0283,"long":-84.4715},{"zip":"40579","city":"Lexington","state":"KY","lat":38.0283,"long":-84.4715},{"zip":"40580","city":"Lexington","state":"KY","lat":38.0283,"long":-84.4715},{"zip":"40581","city":"Lexington","state":"KY","lat":38.0283,"long":-84.4715},{"zip":"40582","city":"Lexington","state":"KY","lat":38.0283,"long":-84.4715},{"zip":"40583","city":"Lexington","state":"KY","lat":38.0283,"long":-84.4715},{"zip":"40588","city":"Lexington","state":"KY","lat":38.0283,"long":-84.4715},{"zip":"40591","city":"Lexington","state":"KY","lat":38.0283,"long":-84.4715},{"zip":"40598","city":"Lexington","state":"KY","lat":38.0771,"long":-84.5296},{"zip":"40601","city":"Frankfort","state":"KY","lat":38.2281,"long":-84.8697},{"zip":"40602","city":"Frankfort","state":"KY","lat":38.2341,"long":-84.8748},{"zip":"40603","city":"Frankfort","state":"KY","lat":38.2341,"long":-84.8748},{"zip":"40604","city":"Frankfort","state":"KY","lat":38.2341,"long":-84.8748},{"zip":"40618","city":"Frankfort","state":"KY","lat":38.2341,"long":-84.8748},{"zip":"40619","city":"Frankfort","state":"KY","lat":38.2341,"long":-84.8748},{"zip":"40620","city":"Frankfort","state":"KY","lat":38.2341,"long":-84.8748},{"zip":"40621","city":"Frankfort","state":"KY","lat":38.2009,"long":-84.8733},{"zip":"40622","city":"Frankfort","state":"KY","lat":38.2009,"long":-84.8733},{"zip":"40410","city":"Bryantsville","state":"KY","lat":37.7145,"long":-84.6491},{"zip":"40444","city":"Lancaster","state":"KY","lat":37.6584,"long":-84.5969},{"zip":"40461","city":"Paint Lick","state":"KY","lat":37.6092,"long":-84.4269},{"zip":"40119","city":"Falls Of Rough","state":"KY","lat":37.5522,"long":-86.4836},{"zip":"40121","city":"Fort Knox","state":"KY","lat":37.8928,"long":-85.9489},{"zip":"40122","city":"Fort Knox","state":"KY","lat":37.8911,"long":-85.9636},{"zip":"40159","city":"Radcliff","state":"KY","lat":37.7235,"long":-85.9769},{"zip":"40160","city":"Radcliff","state":"KY","lat":37.8267,"long":-85.9404},{"zip":"40162","city":"Rineyville","state":"KY","lat":37.7525,"long":-85.9954},{"zip":"40175","city":"Vine Grove","state":"KY","lat":37.8589,"long":-86.0069},{"zip":"40177","city":"West Point","state":"KY","lat":37.9954,"long":-85.9545},{"zip":"40801","city":"Ages Brookside","state":"KY","lat":36.8654,"long":-83.2879},{"zip":"40806","city":"Baxter","state":"KY","lat":36.8749,"long":-83.3141},{"zip":"40807","city":"Benham","state":"KY","lat":36.9648,"long":-82.9485},{"zip":"40808","city":"Big Laurel","state":"KY","lat":36.9798,"long":-83.2171},{"zip":"40810","city":"Bledsoe","state":"KY","lat":36.934,"long":-83.3242},{"zip":"40815","city":"Cawood","state":"KY","lat":36.7812,"long":-83.2914},{"zip":"40818","city":"Coalgood","state":"KY","lat":36.8202,"long":-83.2445},{"zip":"40819","city":"Coldiron","state":"KY","lat":36.8201,"long":-83.4707},{"zip":"40820","city":"Cranks","state":"KY","lat":36.7558,"long":-83.1838},{"zip":"40823","city":"Cumberland","state":"KY","lat":36.9711,"long":-82.9771},{"zip":"40824","city":"Dayhoit","state":"KY","lat":36.8356,"long":-83.3753},{"zip":"40828","city":"Evarts","state":"KY","lat":36.8398,"long":-83.2233},{"zip":"40829","city":"Grays Knob","state":"KY","lat":36.7974,"long":-83.2645},{"zip":"40830","city":"Gulston","state":"KY","lat":36.7656,"long":-83.3262},{"zip":"40831","city":"Harlan","state":"KY","lat":36.7596,"long":-83.3499},{"zip":"40843","city":"Holmes Mill","state":"KY","lat":36.8757,"long":-82.9943},{"zip":"40847","city":"Kenvir","state":"KY","lat":36.8537,"long":-83.1571},{"zip":"40849","city":"Lejunior","state":"KY","lat":36.8899,"long":-83.1433},{"zip":"40854","city":"Loyall","state":"KY","lat":36.8481,"long":-83.353},{"zip":"40855","city":"Lynch","state":"KY","lat":36.9603,"long":-82.9198},{"zip":"40863","city":"Pathfork","state":"KY","lat":36.7521,"long":-83.4629},{"zip":"40865","city":"Putney","state":"KY","lat":36.9039,"long":-83.2381},{"zip":"40870","city":"Totz","state":"KY","lat":36.933,"long":-83.1617},{"zip":"40873","city":"Wallins Creek","state":"KY","lat":36.8165,"long":-83.419},{"zip":"40927","city":"Closplint","state":"KY","lat":36.8713,"long":-83.0414},{"zip":"40964","city":"Mary Alice","state":"KY","lat":36.7843,"long":-83.3299},{"zip":"40007","city":"Bethlehem","state":"KY","lat":38.4529,"long":-85.0169},{"zip":"40011","city":"Campbellsburg","state":"KY","lat":38.5231,"long":-85.1611},{"zip":"40019","city":"Eminence","state":"KY","lat":38.3696,"long":-85.1782},{"zip":"40036","city":"Lockport","state":"KY","lat":38.4219,"long":-84.9586},{"zip":"40050","city":"New Castle","state":"KY","lat":38.4374,"long":-85.1756},{"zip":"40055","city":"Pendleton","state":"KY","lat":38.4809,"long":-85.317},{"zip":"40057","city":"Pleasureville","state":"KY","lat":38.4314,"long":-85.0326},{"zip":"40058","city":"Port Royal","state":"KY","lat":38.4941,"long":-85.1242},{"zip":"40068","city":"Smithfield","state":"KY","lat":38.3933,"long":-85.2656},{"zip":"40070","city":"Sulphur","state":"KY","lat":38.4921,"long":-85.252},{"zip":"40075","city":"Turners Station","state":"KY","lat":38.5521,"long":-85.1019},{"zip":"40402","city":"Annville","state":"KY","lat":37.3052,"long":-83.9711},{"zip":"40434","city":"Gray Hawk","state":"KY","lat":37.3951,"long":-83.9402},{"zip":"40447","city":"Mc Kee","state":"KY","lat":37.4338,"long":-84.0251},{"zip":"40481","city":"Sandgap","state":"KY","lat":37.4659,"long":-84.0597},{"zip":"40486","city":"Tyner","state":"KY","lat":37.3693,"long":-83.8619},{"zip":"40488","city":"Waneta","state":"KY","lat":37.4748,"long":-84.0427},{"zip":"40018","city":"Eastwood","state":"KY","lat":38.2331,"long":-85.4558},{"zip":"40023","city":"Fisherville","state":"KY","lat":38.1652,"long":-85.4282},{"zip":"40025","city":"Glenview","state":"KY","lat":38.2997,"long":-85.6487},{"zip":"40027","city":"Harrods Creek","state":"KY","lat":38.3297,"long":-85.633},{"zip":"40041","city":"Masonic Home","state":"KY","lat":38.2536,"long":-85.6622},{"zip":"40059","city":"Prospect","state":"KY","lat":38.356,"long":-85.6083},{"zip":"40118","city":"Fairdale","state":"KY","lat":38.1087,"long":-85.7549},{"zip":"40201","city":"Louisville","state":"KY","lat":38.189,"long":-85.6768},{"zip":"40202","city":"Louisville","state":"KY","lat":38.2507,"long":-85.7476},{"zip":"40203","city":"Louisville","state":"KY","lat":38.2493,"long":-85.7694},{"zip":"40204","city":"Louisville","state":"KY","lat":38.2369,"long":-85.7249},{"zip":"40205","city":"Louisville","state":"KY","lat":38.2222,"long":-85.6885},{"zip":"40206","city":"Louisville","state":"KY","lat":38.2503,"long":-85.7034},{"zip":"40207","city":"Louisville","state":"KY","lat":38.2628,"long":-85.6663},{"zip":"40208","city":"Louisville","state":"KY","lat":38.22,"long":-85.7648},{"zip":"40209","city":"Louisville","state":"KY","lat":38.1901,"long":-85.7519},{"zip":"40210","city":"Louisville","state":"KY","lat":38.2306,"long":-85.7905},{"zip":"40211","city":"Louisville","state":"KY","lat":38.242,"long":-85.8127},{"zip":"40212","city":"Louisville","state":"KY","lat":38.2651,"long":-85.8045},{"zip":"40213","city":"Louisville","state":"KY","lat":38.1839,"long":-85.7106},{"zip":"40214","city":"Louisville","state":"KY","lat":38.1593,"long":-85.778},{"zip":"40215","city":"Louisville","state":"KY","lat":38.1913,"long":-85.7847},{"zip":"40216","city":"Louisville","state":"KY","lat":38.1865,"long":-85.8335},{"zip":"40217","city":"Louisville","state":"KY","lat":38.2174,"long":-85.7404},{"zip":"40218","city":"Louisville","state":"KY","lat":38.189,"long":-85.654},{"zip":"40219","city":"Louisville","state":"KY","lat":38.1381,"long":-85.6953},{"zip":"40220","city":"Louisville","state":"KY","lat":38.2149,"long":-85.6245},{"zip":"40221","city":"Louisville","state":"KY","lat":38.189,"long":-85.6768},{"zip":"40222","city":"Louisville","state":"KY","lat":38.2674,"long":-85.6237},{"zip":"40223","city":"Louisville","state":"KY","lat":38.2651,"long":-85.5582},{"zip":"40224","city":"Louisville","state":"KY","lat":38.189,"long":-85.6768},{"zip":"40225","city":"Louisville","state":"KY","lat":38.189,"long":-85.6768},{"zip":"40228","city":"Louisville","state":"KY","lat":38.1442,"long":-85.6265},{"zip":"40229","city":"Louisville","state":"KY","lat":38.0891,"long":-85.6548},{"zip":"40231","city":"Louisville","state":"KY","lat":38.189,"long":-85.6768},{"zip":"40232","city":"Louisville","state":"KY","lat":38.189,"long":-85.6768},{"zip":"40233","city":"Louisville","state":"KY","lat":38.189,"long":-85.6768},{"zip":"40241","city":"Louisville","state":"KY","lat":38.3045,"long":-85.5815},{"zip":"40242","city":"Louisville","state":"KY","lat":38.2785,"long":-85.594},{"zip":"40243","city":"Louisville","state":"KY","lat":38.2422,"long":-85.5353},{"zip":"40245","city":"Louisville","state":"KY","lat":38.2683,"long":-85.4845},{"zip":"40250","city":"Louisville","state":"KY","lat":38.189,"long":-85.6768},{"zip":"40251","city":"Louisville","state":"KY","lat":38.189,"long":-85.6768},{"zip":"40252","city":"Louisville","state":"KY","lat":38.189,"long":-85.6768},{"zip":"40253","city":"Louisville","state":"KY","lat":38.189,"long":-85.6768},{"zip":"40255","city":"Louisville","state":"KY","lat":38.189,"long":-85.6768},{"zip":"40256","city":"Louisville","state":"KY","lat":38.189,"long":-85.6768},{"zip":"40257","city":"Louisville","state":"KY","lat":38.189,"long":-85.6768},{"zip":"40258","city":"Louisville","state":"KY","lat":38.1457,"long":-85.8641},{"zip":"40259","city":"Louisville","state":"KY","lat":38.2542,"long":-85.7594},{"zip":"40261","city":"Louisville","state":"KY","lat":38.189,"long":-85.6768},{"zip":"40266","city":"Louisville","state":"KY","lat":38.189,"long":-85.6768},{"zip":"40268","city":"Louisville","state":"KY","lat":38.189,"long":-85.6768},{"zip":"40269","city":"Louisville","state":"KY","lat":38.189,"long":-85.6768},{"zip":"40270","city":"Louisville","state":"KY","lat":38.2542,"long":-85.7594},{"zip":"40272","city":"Louisville","state":"KY","lat":38.0846,"long":-85.851},{"zip":"40280","city":"Louisville","state":"KY","lat":38.2467,"long":-85.6853},{"zip":"40281","city":"Louisville","state":"KY","lat":38.189,"long":-85.6768},{"zip":"40282","city":"Louisville","state":"KY","lat":38.189,"long":-85.6768},{"zip":"40283","city":"Louisville","state":"KY","lat":38.189,"long":-85.6768},{"zip":"40285","city":"Louisville","state":"KY","lat":38.189,"long":-85.6768},{"zip":"40287","city":"Louisville","state":"KY","lat":38.189,"long":-85.6768},{"zip":"40289","city":"Louisville","state":"KY","lat":38.2542,"long":-85.7594},{"zip":"40290","city":"Louisville","state":"KY","lat":38.189,"long":-85.6768},{"zip":"40291","city":"Louisville","state":"KY","lat":38.1313,"long":-85.5754},{"zip":"40292","city":"Louisville","state":"KY","lat":38.189,"long":-85.6768},{"zip":"40293","city":"Louisville","state":"KY","lat":38.2542,"long":-85.7594},{"zip":"40294","city":"Louisville","state":"KY","lat":38.2542,"long":-85.7594},{"zip":"40295","city":"Louisville","state":"KY","lat":38.2542,"long":-85.7594},{"zip":"40296","city":"Louisville","state":"KY","lat":38.2542,"long":-85.7594},{"zip":"40297","city":"Louisville","state":"KY","lat":38.2542,"long":-85.7594},{"zip":"40298","city":"Louisville","state":"KY","lat":38.2542,"long":-85.7594},{"zip":"40299","city":"Louisville","state":"KY","lat":38.1768,"long":-85.5218},{"zip":"40339","city":"Keene","state":"KY","lat":37.9434,"long":-84.6419},{"zip":"40340","city":"Nicholasville","state":"KY","lat":37.8662,"long":-84.5795},{"zip":"40356","city":"Nicholasville","state":"KY","lat":37.8808,"long":-84.5646},{"zip":"40390","city":"Wilmore","state":"KY","lat":37.8602,"long":-84.6714},{"zip":"40734","city":"Gray","state":"KY","lat":36.9467,"long":-83.9828},{"zip":"40771","city":"Woodbine","state":"KY","lat":36.8586,"long":-84.0347},{"zip":"40903","city":"Artemus","state":"KY","lat":36.8388,"long":-83.8329},{"zip":"40906","city":"Barbourville","state":"KY","lat":36.8665,"long":-83.8888},{"zip":"40915","city":"Bimble","state":"KY","lat":36.8868,"long":-83.8282},{"zip":"40921","city":"Bryants Store","state":"KY","lat":36.7708,"long":-83.9009},{"zip":"40923","city":"Cannon","state":"KY","lat":36.9195,"long":-83.851},{"zip":"40930","city":"Dewitt","state":"KY","lat":36.877,"long":-83.7377},{"zip":"40935","city":"Flat Lick","state":"KY","lat":36.829,"long":-83.7702},{"zip":"40939","city":"Fourmile","state":"KY","lat":36.7934,"long":-83.7419},{"zip":"40943","city":"Girdler","state":"KY","lat":36.9691,"long":-83.8539},{"zip":"40946","city":"Green Road","state":"KY","lat":36.8713,"long":-83.83},{"zip":"40949","city":"Heidrick","state":"KY","lat":36.8904,"long":-83.8716},{"zip":"40953","city":"Hinkle","state":"KY","lat":36.9362,"long":-83.8045},{"zip":"40982","city":"Scalf","state":"KY","lat":36.9327,"long":-83.6901},{"zip":"40995","city":"Trosper","state":"KY","lat":36.761,"long":-83.8155},{"zip":"40997","city":"Walker","state":"KY","lat":36.8911,"long":-83.6616},{"zip":"40724","city":"Bush","state":"KY","lat":37.0926,"long":-83.8702},{"zip":"40729","city":"East Bernstadt","state":"KY","lat":37.2488,"long":-84.138},{"zip":"40737","city":"Keavy","state":"KY","lat":37.0156,"long":-84.1436},{"zip":"40740","city":"Lily","state":"KY","lat":37.0256,"long":-84.0282},{"zip":"40741","city":"London","state":"KY","lat":37.1549,"long":-84.0961},{"zip":"40742","city":"London","state":"KY","lat":37.1376,"long":-84.1156},{"zip":"40743","city":"London","state":"KY","lat":37.1345,"long":-84.0457},{"zip":"40744","city":"London","state":"KY","lat":37.0995,"long":-84.1131},{"zip":"40745","city":"London","state":"KY","lat":37.1376,"long":-84.1156},{"zip":"40755","city":"Pittsburg","state":"KY","lat":37.1678,"long":-84.1166},{"zip":"40803","city":"Asher","state":"KY","lat":37.0114,"long":-83.4553},{"zip":"40816","city":"Chappell","state":"KY","lat":37.0098,"long":-83.3494},{"zip":"40827","city":"Essie","state":"KY","lat":37.0547,"long":-83.4561},{"zip":"40840","city":"Helton","state":"KY","lat":36.9543,"long":-83.4313},{"zip":"40844","city":"Hoskinston","state":"KY","lat":37.0773,"long":-83.3916},{"zip":"40858","city":"Mozelle","state":"KY","lat":37.0037,"long":-83.4135},{"zip":"40868","city":"Stinnett","state":"KY","lat":37.0883,"long":-83.3907},{"zip":"40874","city":"Warbranch","state":"KY","lat":36.984,"long":-83.4667},{"zip":"40979","city":"Roark","state":"KY","lat":37.0438,"long":-83.4949},{"zip":"40826","city":"Eolia","state":"KY","lat":37.0618,"long":-82.7706},{"zip":"40862","city":"Partridge","state":"KY","lat":37.0129,"long":-82.8795},{"zip":"40419","city":"Crab Orchard","state":"KY","lat":37.4465,"long":-84.4939},{"zip":"40437","city":"Hustonville","state":"KY","lat":37.4595,"long":-84.8528},{"zip":"40442","city":"Kings Mountain","state":"KY","lat":37.3818,"long":-84.7148},{"zip":"40448","city":"Mc Kinney","state":"KY","lat":37.446,"long":-84.6998},{"zip":"40484","city":"Stanford","state":"KY","lat":37.5245,"long":-84.6912},{"zip":"40489","city":"Waynesburg","state":"KY","lat":37.3499,"long":-84.6655},{"zip":"40385","city":"Waco","state":"KY","lat":37.7426,"long":-84.1441},{"zip":"40403","city":"Berea","state":"KY","lat":37.5799,"long":-84.2749},{"zip":"40404","city":"Berea","state":"KY","lat":37.7164,"long":-84.2997},{"zip":"40405","city":"Bighill","state":"KY","lat":37.5545,"long":-84.2083},{"zip":"40475","city":"Richmond","state":"KY","lat":37.7546,"long":-84.2955},{"zip":"40476","city":"Richmond","state":"KY","lat":37.7479,"long":-84.2947},{"zip":"40009","city":"Bradfordsville","state":"KY","lat":37.4662,"long":-85.1436},{"zip":"40033","city":"Lebanon","state":"KY","lat":37.5658,"long":-85.2668},{"zip":"40037","city":"Loretto","state":"KY","lat":37.6421,"long":-85.4113},{"zip":"40049","city":"Nerinx","state":"KY","lat":37.6603,"long":-85.3932},{"zip":"40060","city":"Raywick","state":"KY","lat":37.538,"long":-85.43},{"zip":"40062","city":"Saint Francis","state":"KY","lat":37.6047,"long":-85.4251},{"zip":"40063","city":"Saint Mary","state":"KY","lat":37.5795,"long":-85.3551},{"zip":"40328","city":"Gravel Switch","state":"KY","lat":37.5758,"long":-85.0824},{"zip":"40104","city":"Battletown","state":"KY","lat":38.0393,"long":-86.2991},{"zip":"40108","city":"Brandenburg","state":"KY","lat":37.9662,"long":-86.1084},{"zip":"40117","city":"Ekron","state":"KY","lat":37.9113,"long":-86.1542},{"zip":"40142","city":"Guston","state":"KY","lat":37.8951,"long":-86.2155},{"zip":"40155","city":"Muldraugh","state":"KY","lat":37.9371,"long":-85.9918},{"zip":"40157","city":"Payneville","state":"KY","lat":38.0301,"long":-86.4082},{"zip":"40161","city":"Rhodelia","state":"KY","lat":38.006,"long":-86.3984},{"zip":"40316","city":"Denniston","state":"KY","lat":37.9159,"long":-83.538},{"zip":"40322","city":"Frenchburg","state":"KY","lat":37.947,"long":-83.6084},{"zip":"40346","city":"Means","state":"KY","lat":37.9807,"long":-83.7447},{"zip":"40387","city":"Wellington","state":"KY","lat":37.978,"long":-83.4675},{"zip":"40310","city":"Burgin","state":"KY","lat":37.7534,"long":-84.7666},{"zip":"40330","city":"Harrodsburg","state":"KY","lat":37.8033,"long":-84.8607},{"zip":"40372","city":"Salvisa","state":"KY","lat":37.9167,"long":-84.8577},{"zip":"40334","city":"Hope","state":"KY","lat":38.0161,"long":-83.7713},{"zip":"40337","city":"Jeffersonville","state":"KY","lat":37.964,"long":-83.8558},{"zip":"40353","city":"Mount Sterling","state":"KY","lat":38.0548,"long":-83.9388},{"zip":"40004","city":"Bardstown","state":"KY","lat":37.8083,"long":-85.4613},{"zip":"40008","city":"Bloomfield","state":"KY","lat":37.908,"long":-85.2862},{"zip":"40012","city":"Chaplin","state":"KY","lat":37.9025,"long":-85.2015},{"zip":"40013","city":"Coxs Creek","state":"KY","lat":37.9125,"long":-85.4658},{"zip":"40020","city":"Fairfield","state":"KY","lat":37.934,"long":-85.3862},{"zip":"40048","city":"Nazareth","state":"KY","lat":37.8472,"long":-85.4694},{"zip":"40051","city":"New Haven","state":"KY","lat":37.6438,"long":-85.547},{"zip":"40052","city":"New Hope","state":"KY","lat":37.632,"long":-85.5083},{"zip":"40107","city":"Boston","state":"KY","lat":37.7408,"long":-85.5948},{"zip":"40311","city":"Carlisle","state":"KY","lat":38.3212,"long":-84.0279},{"zip":"40350","city":"Moorefield","state":"KY","lat":38.2926,"long":-83.8929},{"zip":"40010","city":"Buckner","state":"KY","lat":38.3735,"long":-85.4507},{"zip":"40014","city":"Crestwood","state":"KY","lat":38.3326,"long":-85.461},{"zip":"40026","city":"Goshen","state":"KY","lat":38.4113,"long":-85.5708},{"zip":"40031","city":"La Grange","state":"KY","lat":38.4029,"long":-85.3928},{"zip":"40032","city":"La Grange","state":"KY","lat":38.4046,"long":-85.4605},{"zip":"40056","city":"Pewee Valley","state":"KY","lat":38.3039,"long":-85.4834},{"zip":"40077","city":"Westport","state":"KY","lat":38.4921,"long":-85.4524},{"zip":"40355","city":"New Liberty","state":"KY","lat":38.6277,"long":-84.8756},{"zip":"40359","city":"Owenton","state":"KY","lat":38.4986,"long":-84.8086},{"zip":"40363","city":"Perry Park","state":"KY","lat":38.5218,"long":-85.0139},{"zip":"40981","city":"Saul","state":"KY","lat":37.3313,"long":-83.387},{"zip":"40312","city":"Clay City","state":"KY","lat":37.8524,"long":-83.9309},{"zip":"40376","city":"Slade","state":"KY","lat":37.7951,"long":-83.7041},{"zip":"40380","city":"Stanton","state":"KY","lat":37.8223,"long":-83.7853},{"zip":"40409","city":"Brodhead","state":"KY","lat":37.3815,"long":-84.4336},{"zip":"40445","city":"Livingston","state":"KY","lat":37.3074,"long":-84.2318},{"zip":"40456","city":"Mount Vernon","state":"KY","lat":37.3983,"long":-84.3379},{"zip":"40460","city":"Orlando","state":"KY","lat":37.3734,"long":-84.2528},{"zip":"40473","city":"Renfro Valley","state":"KY","lat":37.3879,"long":-84.3316},{"zip":"40492","city":"Wildie","state":"KY","lat":37.4234,"long":-84.3022},{"zip":"40313","city":"Clearfield","state":"KY","lat":38.1287,"long":-83.4425},{"zip":"40317","city":"Elliottville","state":"KY","lat":38.1765,"long":-83.2682},{"zip":"40319","city":"Farmers","state":"KY","lat":38.1403,"long":-83.5337},{"zip":"40351","city":"Morehead","state":"KY","lat":38.199,"long":-83.4436},{"zip":"40324","city":"Georgetown","state":"KY","lat":38.2117,"long":-84.5562},{"zip":"40370","city":"Sadieville","state":"KY","lat":38.3908,"long":-84.5384},{"zip":"40379","city":"Stamping Ground","state":"KY","lat":38.2888,"long":-84.6818},{"zip":"40003","city":"Bagdad","state":"KY","lat":38.2608,"long":-85.0651},{"zip":"40022","city":"Finchville","state":"KY","lat":38.1561,"long":-85.3476},{"zip":"40065","city":"Shelbyville","state":"KY","lat":38.2162,"long":-85.2243},{"zip":"40066","city":"Shelbyville","state":"KY","lat":38.1973,"long":-85.2122},{"zip":"40067","city":"Simpsonville","state":"KY","lat":38.2312,"long":-85.3548},{"zip":"40076","city":"Waddy","state":"KY","lat":38.1054,"long":-85.1288},{"zip":"40046","city":"Mount Eden","state":"KY","lat":38.0352,"long":-85.1641},{"zip":"40071","city":"Taylorsville","state":"KY","lat":38.0471,"long":-85.3829},{"zip":"40006","city":"Bedford","state":"KY","lat":38.5864,"long":-85.3133},{"zip":"40045","city":"Milton","state":"KY","lat":38.6925,"long":-85.3659},{"zip":"40040","city":"Mackville","state":"KY","lat":37.7568,"long":-85.059},{"zip":"40061","city":"Saint Catharine","state":"KY","lat":37.774,"long":-85.2011},{"zip":"40069","city":"Springfield","state":"KY","lat":37.7342,"long":-85.2107},{"zip":"40078","city":"Willisburg","state":"KY","lat":37.8373,"long":-85.1362},{"zip":"40701","city":"Corbin","state":"KY","lat":36.9344,"long":-84.1021},{"zip":"40702","city":"Corbin","state":"KY","lat":36.9374,"long":-84.1031},{"zip":"40730","city":"Emlyn","state":"KY","lat":36.7039,"long":-84.1415},{"zip":"40759","city":"Rockholds","state":"KY","lat":36.8242,"long":-84.104},{"zip":"40763","city":"Siler","state":"KY","lat":36.7025,"long":-83.955},{"zip":"40769","city":"Williamsburg","state":"KY","lat":36.747,"long":-84.1394},{"zip":"40347","city":"Midway","state":"KY","lat":38.1487,"long":-84.6928},{"zip":"40383","city":"Versailles","state":"KY","lat":38.0413,"long":-84.7287},{"zip":"40384","city":"Versailles","state":"KY","lat":38.0526,"long":-84.7299}]
