[{"zip":"40111","city":"Cloverport","state":"KY","lat":37.7731,"long":-86.6282},{"zip":"40115","city":"Custer","state":"KY","lat":37.7358,"long":-86.2378},{"zip":"40140","city":"Garfield","state":"KY","lat":37.8023,"long":-86.4148},{"zip":"40143","city":"Hardinsburg","state":"KY","lat":37.7512,"long":-86.4537},{"zip":"40144","city":"Harned","state":"KY","lat":37.8023,"long":-86.4148},{"zip":"40145","city":"Hudson","state":"KY","lat":37.6506,"long":-86.3012},{"zip":"40146","city":"Irvington","state":"KY","lat":37.8762,"long":-86.2965},{"zip":"40152","city":"Mc Daniels","state":"KY","lat":37.6194,"long":-86.4491},{"zip":"40153","city":"Mc Quady","state":"KY","lat":37.8023,"long":-86.4148},{"zip":"40170","city":"Stephensport","state":"KY","lat":37.9048,"long":-86.524},{"zip":"40171","city":"Union Star","state":"KY","lat":37.9616,"long":-86.4615},{"zip":"40176","city":"Webster","state":"KY","lat":37.9237,"long":-86.3441},{"zip":"40178","city":"Westview","state":"KY","lat":37.6792,"long":-86.4273},{"zip":"40109","city":"Brooks","state":"KY","lat":38.0546,"long":-85.7713},{"zip":"40110","city":"Clermont","state":"KY","lat":37.9346,"long":-85.6555},{"zip":"40129","city":"Hillview","state":"KY","lat":38.0764,"long":-85.6774},{"zip":"40150","city":"Lebanon Junction","state":"KY","lat":37.8511,"long":-85.7246},{"zip":"40165","city":"Shepherdsville","state":"KY","lat":38.0045,"long":-85.6888},{"zip":"40119","city":"Falls Of Rough","state":"KY","lat":37.5522,"long":-86.4836},{"zip":"40121","city":"Fort Knox","state":"KY","lat":37.8928,"long":-85.9489},{"zip":"40122","city":"Fort Knox","state":"KY","lat":37.8911,"long":-85.9636},{"zip":"40159","city":"Radcliff","state":"KY","lat":37.7235,"long":-85.9769},{"zip":"40160","city":"Radcliff","state":"KY","lat":37.8267,"long":-85.9404},{"zip":"40162","city":"Rineyville","state":"KY","lat":37.7525,"long":-85.9954},{"zip":"40175","city":"Vine Grove","state":"KY","lat":37.8589,"long":-86.0069},{"zip":"40177","city":"West Point","state":"KY","lat":37.9954,"long":-85.9545},{"zip":"40118","city":"Fairdale","state":"KY","lat":38.1087,"long":-85.7549},{"zip":"40104","city":"Battletown","state":"KY","lat":38.0393,"long":-86.2991},{"zip":"40108","city":"Brandenburg","state":"KY","lat":37.9662,"long":-86.1084},{"zip":"40117","city":"Ekron","state":"KY","lat":37.9113,"long":-86.1542},{"zip":"40142","city":"Guston","state":"KY","lat":37.8951,"long":-86.2155},{"zip":"40155","city":"Muldraugh","state":"KY","lat":37.9371,"long":-85.9918},{"zip":"40157","city":"Payneville","state":"KY","lat":38.0301,"long":-86.4082},{"zip":"40161","city":"Rhodelia","state":"KY","lat":38.006,"long":-86.3984},{"zip":"40107","city":"Boston","state":"KY","lat":37.7408,"long":-85.5948}]
