[{"zip":"40201","city":"Louisville","state":"KY","lat":38.189,"long":-85.6768},{"zip":"40202","city":"Louisville","state":"KY","lat":38.2507,"long":-85.7476},{"zip":"40203","city":"Louisville","state":"KY","lat":38.2493,"long":-85.7694},{"zip":"40204","city":"Louisville","state":"KY","lat":38.2369,"long":-85.7249},{"zip":"40205","city":"Louisville","state":"KY","lat":38.2222,"long":-85.6885},{"zip":"40206","city":"Louisville","state":"KY","lat":38.2503,"long":-85.7034},{"zip":"40207","city":"Louisville","state":"KY","lat":38.2628,"long":-85.6663},{"zip":"40208","city":"Louisville","state":"KY","lat":38.22,"long":-85.7648},{"zip":"40209","city":"Louisville","state":"KY","lat":38.1901,"long":-85.7519},{"zip":"40210","city":"Louisville","state":"KY","lat":38.2306,"long":-85.7905},{"zip":"40211","city":"Louisville","state":"KY","lat":38.242,"long":-85.8127},{"zip":"40212","city":"Louisville","state":"KY","lat":38.2651,"long":-85.8045},{"zip":"40213","city":"Louisville","state":"KY","lat":38.1839,"long":-85.7106},{"zip":"40214","city":"Louisville","state":"KY","lat":38.1593,"long":-85.778},{"zip":"40215","city":"Louisville","state":"KY","lat":38.1913,"long":-85.7847},{"zip":"40216","city":"Louisville","state":"KY","lat":38.1865,"long":-85.8335},{"zip":"40217","city":"Louisville","state":"KY","lat":38.2174,"long":-85.7404},{"zip":"40218","city":"Louisville","state":"KY","lat":38.189,"long":-85.654},{"zip":"40219","city":"Louisville","state":"KY","lat":38.1381,"long":-85.6953},{"zip":"40220","city":"Louisville","state":"KY","lat":38.2149,"long":-85.6245},{"zip":"40221","city":"Louisville","state":"KY","lat":38.189,"long":-85.6768},{"zip":"40222","city":"Louisville","state":"KY","lat":38.2674,"long":-85.6237},{"zip":"40223","city":"Louisville","state":"KY","lat":38.2651,"long":-85.5582},{"zip":"40224","city":"Louisville","state":"KY","lat":38.189,"long":-85.6768},{"zip":"40225","city":"Louisville","state":"KY","lat":38.189,"long":-85.6768},{"zip":"40228","city":"Louisville","state":"KY","lat":38.1442,"long":-85.6265},{"zip":"40229","city":"Louisville","state":"KY","lat":38.0891,"long":-85.6548},{"zip":"40231","city":"Louisville","state":"KY","lat":38.189,"long":-85.6768},{"zip":"40232","city":"Louisville","state":"KY","lat":38.189,"long":-85.6768},{"zip":"40233","city":"Louisville","state":"KY","lat":38.189,"long":-85.6768},{"zip":"40241","city":"Louisville","state":"KY","lat":38.3045,"long":-85.5815},{"zip":"40242","city":"Louisville","state":"KY","lat":38.2785,"long":-85.594},{"zip":"40243","city":"Louisville","state":"KY","lat":38.2422,"long":-85.5353},{"zip":"40245","city":"Louisville","state":"KY","lat":38.2683,"long":-85.4845},{"zip":"40250","city":"Louisville","state":"KY","lat":38.189,"long":-85.6768},{"zip":"40251","city":"Louisville","state":"KY","lat":38.189,"long":-85.6768},{"zip":"40252","city":"Louisville","state":"KY","lat":38.189,"long":-85.6768},{"zip":"40253","city":"Louisville","state":"KY","lat":38.189,"long":-85.6768},{"zip":"40255","city":"Louisville","state":"KY","lat":38.189,"long":-85.6768},{"zip":"40256","city":"Louisville","state":"KY","lat":38.189,"long":-85.6768},{"zip":"40257","city":"Louisville","state":"KY","lat":38.189,"long":-85.6768},{"zip":"40258","city":"Louisville","state":"KY","lat":38.1457,"long":-85.8641},{"zip":"40259","city":"Louisville","state":"KY","lat":38.2542,"long":-85.7594},{"zip":"40261","city":"Louisville","state":"KY","lat":38.189,"long":-85.6768},{"zip":"40266","city":"Louisville","state":"KY","lat":38.189,"long":-85.6768},{"zip":"40268","city":"Louisville","state":"KY","lat":38.189,"long":-85.6768},{"zip":"40269","city":"Louisville","state":"KY","lat":38.189,"long":-85.6768},{"zip":"40270","city":"Louisville","state":"KY","lat":38.2542,"long":-85.7594},{"zip":"40272","city":"Louisville","state":"KY","lat":38.0846,"long":-85.851},{"zip":"40280","city":"Louisville","state":"KY","lat":38.2467,"long":-85.6853},{"zip":"40281","city":"Louisville","state":"KY","lat":38.189,"long":-85.6768},{"zip":"40282","city":"Louisville","state":"KY","lat":38.189,"long":-85.6768},{"zip":"40283","city":"Louisville","state":"KY","lat":38.189,"long":-85.6768},{"zip":"40285","city":"Louisville","state":"KY","lat":38.189,"long":-85.6768},{"zip":"40287","city":"Louisville","state":"KY","lat":38.189,"long":-85.6768},{"zip":"40289","city":"Louisville","state":"KY","lat":38.2542,"long":-85.7594},{"zip":"40290","city":"Louisville","state":"KY","lat":38.189,"long":-85.6768},{"zip":"40291","city":"Louisville","state":"KY","lat":38.1313,"long":-85.5754},{"zip":"40292","city":"Louisville","state":"KY","lat":38.189,"long":-85.6768},{"zip":"40293","city":"Louisville","state":"KY","lat":38.2542,"long":-85.7594},{"zip":"40294","city":"Louisville","state":"KY","lat":38.2542,"long":-85.7594},{"zip":"40295","city":"Louisville","state":"KY","lat":38.2542,"long":-85.7594},{"zip":"40296","city":"Louisville","state":"KY","lat":38.2542,"long":-85.7594},{"zip":"40297","city":"Louisville","state":"KY","lat":38.2542,"long":-85.7594},{"zip":"40298","city":"Louisville","state":"KY","lat":38.2542,"long":-85.7594},{"zip":"40299","city":"Louisville","state":"KY","lat":38.1768,"long":-85.5218}]
