[{"zip":"40342","city":"Lawrenceburg","state":"KY","lat":38.0189,"long":-84.9299},{"zip":"40358","city":"Olympia","state":"KY","lat":38.0849,"long":-83.7008},{"zip":"40360","city":"Owingsville","state":"KY","lat":38.1532,"long":-83.7564},{"zip":"40366","city":"Preston","state":"KY","lat":38.0867,"long":-83.7571},{"zip":"40371","city":"Salt Lick","state":"KY","lat":38.104,"long":-83.6316},{"zip":"40374","city":"Sharpsburg","state":"KY","lat":38.2147,"long":-83.8932},{"zip":"40348","city":"Millersburg","state":"KY","lat":38.2963,"long":-84.1513},{"zip":"40357","city":"North Middletown","state":"KY","lat":38.1464,"long":-84.1077},{"zip":"40361","city":"Paris","state":"KY","lat":38.2083,"long":-84.245},{"zip":"40362","city":"Paris","state":"KY","lat":38.2098,"long":-84.253},{"zip":"40391","city":"Winchester","state":"KY","lat":37.9872,"long":-84.1789},{"zip":"40392","city":"Winchester","state":"KY","lat":37.9901,"long":-84.1797},{"zip":"40336","city":"Irvine","state":"KY","lat":37.6858,"long":-83.9862},{"zip":"40339","city":"Keene","state":"KY","lat":37.9434,"long":-84.6419},{"zip":"40340","city":"Nicholasville","state":"KY","lat":37.8662,"long":-84.5795},{"zip":"40356","city":"Nicholasville","state":"KY","lat":37.8808,"long":-84.5646},{"zip":"40390","city":"Wilmore","state":"KY","lat":37.8602,"long":-84.6714},{"zip":"40385","city":"Waco","state":"KY","lat":37.7426,"long":-84.1441},{"zip":"40328","city":"Gravel Switch","state":"KY","lat":37.5758,"long":-85.0824},{"zip":"40316","city":"Denniston","state":"KY","lat":37.9159,"long":-83.538},{"zip":"40322","city":"Frenchburg","state":"KY","lat":37.947,"long":-83.6084},{"zip":"40346","city":"Means","state":"KY","lat":37.9807,"long":-83.7447},{"zip":"40387","city":"Wellington","state":"KY","lat":37.978,"long":-83.4675},{"zip":"40310","city":"Burgin","state":"KY","lat":37.7534,"long":-84.7666},{"zip":"40330","city":"Harrodsburg","state":"KY","lat":37.8033,"long":-84.8607},{"zip":"40372","city":"Salvisa","state":"KY","lat":37.9167,"long":-84.8577},{"zip":"40334","city":"Hope","state":"KY","lat":38.0161,"long":-83.7713},{"zip":"40337","city":"Jeffersonville","state":"KY","lat":37.964,"long":-83.8558},{"zip":"40353","city":"Mount Sterling","state":"KY","lat":38.0548,"long":-83.9388},{"zip":"40311","city":"Carlisle","state":"KY","lat":38.3212,"long":-84.0279},{"zip":"40350","city":"Moorefield","state":"KY","lat":38.2926,"long":-83.8929},{"zip":"40355","city":"New Liberty","state":"KY","lat":38.6277,"long":-84.8756},{"zip":"40359","city":"Owenton","state":"KY","lat":38.4986,"long":-84.8086},{"zip":"40363","city":"Perry Park","state":"KY","lat":38.5218,"long":-85.0139},{"zip":"40312","city":"Clay City","state":"KY","lat":37.8524,"long":-83.9309},{"zip":"40376","city":"Slade","state":"KY","lat":37.7951,"long":-83.7041},{"zip":"40380","city":"Stanton","state":"KY","lat":37.8223,"long":-83.7853},{"zip":"40313","city":"Clearfield","state":"KY","lat":38.1287,"long":-83.4425},{"zip":"40317","city":"Elliottville","state":"KY","lat":38.1765,"long":-83.2682},{"zip":"40319","city":"Farmers","state":"KY","lat":38.1403,"long":-83.5337},{"zip":"40351","city":"Morehead","state":"KY","lat":38.199,"long":-83.4436},{"zip":"40324","city":"Georgetown","state":"KY","lat":38.2117,"long":-84.5562},{"zip":"40370","city":"Sadieville","state":"KY","lat":38.3908,"long":-84.5384},{"zip":"40379","city":"Stamping Ground","state":"KY","lat":38.2888,"long":-84.6818},{"zip":"40347","city":"Midway","state":"KY","lat":38.1487,"long":-84.6928},{"zip":"40383","city":"Versailles","state":"KY","lat":38.0413,"long":-84.7287},{"zip":"40384","city":"Versailles","state":"KY","lat":38.0526,"long":-84.7299}]
