[{"zip":"40422","city":"Danville","state":"KY","lat":37.6465,"long":-84.7747},{"zip":"40423","city":"Danville","state":"KY","lat":37.6456,"long":-84.7722},{"zip":"40440","city":"Junction City","state":"KY","lat":37.5822,"long":-84.8028},{"zip":"40452","city":"Mitchellsburg","state":"KY","lat":37.6033,"long":-84.9492},{"zip":"40464","city":"Parksville","state":"KY","lat":37.5778,"long":-84.9281},{"zip":"40468","city":"Perryville","state":"KY","lat":37.6375,"long":-84.9665},{"zip":"40472","city":"Ravenna","state":"KY","lat":37.6867,"long":-83.9387},{"zip":"40410","city":"Bryantsville","state":"KY","lat":37.7145,"long":-84.6491},{"zip":"40444","city":"Lancaster","state":"KY","lat":37.6584,"long":-84.5969},{"zip":"40461","city":"Paint Lick","state":"KY","lat":37.6092,"long":-84.4269},{"zip":"40402","city":"Annville","state":"KY","lat":37.3052,"long":-83.9711},{"zip":"40434","city":"Gray Hawk","state":"KY","lat":37.3951,"long":-83.9402},{"zip":"40447","city":"Mc Kee","state":"KY","lat":37.4338,"long":-84.0251},{"zip":"40481","city":"Sandgap","state":"KY","lat":37.4659,"long":-84.0597},{"zip":"40486","city":"Tyner","state":"KY","lat":37.3693,"long":-83.8619},{"zip":"40488","city":"Waneta","state":"KY","lat":37.4748,"long":-84.0427},{"zip":"40419","city":"Crab Orchard","state":"KY","lat":37.4465,"long":-84.4939},{"zip":"40437","city":"Hustonville","state":"KY","lat":37.4595,"long":-84.8528},{"zip":"40442","city":"Kings Mountain","state":"KY","lat":37.3818,"long":-84.7148},{"zip":"40448","city":"Mc Kinney","state":"KY","lat":37.446,"long":-84.6998},{"zip":"40484","city":"Stanford","state":"KY","lat":37.5245,"long":-84.6912},{"zip":"40489","city":"Waynesburg","state":"KY","lat":37.3499,"long":-84.6655},{"zip":"40403","city":"Berea","state":"KY","lat":37.5799,"long":-84.2749},{"zip":"40404","city":"Berea","state":"KY","lat":37.7164,"long":-84.2997},{"zip":"40405","city":"Bighill","state":"KY","lat":37.5545,"long":-84.2083},{"zip":"40475","city":"Richmond","state":"KY","lat":37.7546,"long":-84.2955},{"zip":"40476","city":"Richmond","state":"KY","lat":37.7479,"long":-84.2947},{"zip":"40409","city":"Brodhead","state":"KY","lat":37.3815,"long":-84.4336},{"zip":"40445","city":"Livingston","state":"KY","lat":37.3074,"long":-84.2318},{"zip":"40456","city":"Mount Vernon","state":"KY","lat":37.3983,"long":-84.3379},{"zip":"40460","city":"Orlando","state":"KY","lat":37.3734,"long":-84.2528},{"zip":"40473","city":"Renfro Valley","state":"KY","lat":37.3879,"long":-84.3316},{"zip":"40492","city":"Wildie","state":"KY","lat":37.4234,"long":-84.3022}]
