[{"zip":"40502","city":"Lexington","state":"KY","lat":38.0174,"long":-84.4854},{"zip":"40503","city":"Lexington","state":"KY","lat":38.001,"long":-84.5282},{"zip":"40504","city":"Lexington","state":"KY","lat":38.0406,"long":-84.5433},{"zip":"40505","city":"Lexington","state":"KY","lat":38.0612,"long":-84.4583},{"zip":"40506","city":"Lexington","state":"KY","lat":38.0287,"long":-84.5075},{"zip":"40507","city":"Lexington","state":"KY","lat":38.0464,"long":-84.4953},{"zip":"40508","city":"Lexington","state":"KY","lat":38.0513,"long":-84.499},{"zip":"40509","city":"Lexington","state":"KY","lat":38.0102,"long":-84.4274},{"zip":"40510","city":"Lexington","state":"KY","lat":38.0702,"long":-84.591},{"zip":"40511","city":"Lexington","state":"KY","lat":38.0932,"long":-84.5007},{"zip":"40512","city":"Lexington","state":"KY","lat":38.0283,"long":-84.4715},{"zip":"40513","city":"Lexington","state":"KY","lat":38.0139,"long":-84.5815},{"zip":"40514","city":"Lexington","state":"KY","lat":37.9833,"long":-84.5767},{"zip":"40515","city":"Lexington","state":"KY","lat":37.9651,"long":-84.4708},{"zip":"40516","city":"Lexington","state":"KY","lat":38.0544,"long":-84.3548},{"zip":"40517","city":"Lexington","state":"KY","lat":37.9849,"long":-84.4816},{"zip":"40522","city":"Lexington","state":"KY","lat":38.0283,"long":-84.4715},{"zip":"40523","city":"Lexington","state":"KY","lat":38.0283,"long":-84.4715},{"zip":"40524","city":"Lexington","state":"KY","lat":38.0283,"long":-84.4715},{"zip":"40526","city":"Lexington","state":"KY","lat":38.0283,"long":-84.4715},{"zip":"40533","city":"Lexington","state":"KY","lat":38.0283,"long":-84.4715},{"zip":"40536","city":"Lexington","state":"KY","lat":38.0321,"long":-84.5084},{"zip":"40544","city":"Lexington","state":"KY","lat":38.0283,"long":-84.4715},{"zip":"40546","city":"Lexington","state":"KY","lat":38.0283,"long":-84.4715},{"zip":"40550","city":"Lexington","state":"KY","lat":38.0283,"long":-84.4715},{"zip":"40555","city":"Lexington","state":"KY","lat":38.0283,"long":-84.4715},{"zip":"40574","city":"Lexington","state":"KY","lat":38.0283,"long":-84.4715},{"zip":"40575","city":"Lexington","state":"KY","lat":38.0283,"long":-84.4715},{"zip":"40576","city":"Lexington","state":"KY","lat":38.0283,"long":-84.4715},{"zip":"40577","city":"Lexington","state":"KY","lat":38.0283,"long":-84.4715},{"zip":"40578","city":"Lexington","state":"KY","lat":38.0283,"long":-84.4715},{"zip":"40579","city":"Lexington","state":"KY","lat":38.0283,"long":-84.4715},{"zip":"40580","city":"Lexington","state":"KY","lat":38.0283,"long":-84.4715},{"zip":"40581","city":"Lexington","state":"KY","lat":38.0283,"long":-84.4715},{"zip":"40582","city":"Lexington","state":"KY","lat":38.0283,"long":-84.4715},{"zip":"40583","city":"Lexington","state":"KY","lat":38.0283,"long":-84.4715},{"zip":"40588","city":"Lexington","state":"KY","lat":38.0283,"long":-84.4715},{"zip":"40591","city":"Lexington","state":"KY","lat":38.0283,"long":-84.4715},{"zip":"40598","city":"Lexington","state":"KY","lat":38.0771,"long":-84.5296}]
