[{"zip":"40734","city":"Gray","state":"KY","lat":36.9467,"long":-83.9828},{"zip":"40771","city":"Woodbine","state":"KY","lat":36.8586,"long":-84.0347},{"zip":"40724","city":"Bush","state":"KY","lat":37.0926,"long":-83.8702},{"zip":"40729","city":"East Bernstadt","state":"KY","lat":37.2488,"long":-84.138},{"zip":"40737","city":"Keavy","state":"KY","lat":37.0156,"long":-84.1436},{"zip":"40740","city":"Lily","state":"KY","lat":37.0256,"long":-84.0282},{"zip":"40741","city":"London","state":"KY","lat":37.1549,"long":-84.0961},{"zip":"40742","city":"London","state":"KY","lat":37.1376,"long":-84.1156},{"zip":"40743","city":"London","state":"KY","lat":37.1345,"long":-84.0457},{"zip":"40744","city":"London","state":"KY","lat":37.0995,"long":-84.1131},{"zip":"40745","city":"London","state":"KY","lat":37.1376,"long":-84.1156},{"zip":"40755","city":"Pittsburg","state":"KY","lat":37.1678,"long":-84.1166},{"zip":"40701","city":"Corbin","state":"KY","lat":36.9344,"long":-84.1021},{"zip":"40702","city":"Corbin","state":"KY","lat":36.9374,"long":-84.1031},{"zip":"40730","city":"Emlyn","state":"KY","lat":36.7039,"long":-84.1415},{"zip":"40759","city":"Rockholds","state":"KY","lat":36.8242,"long":-84.104},{"zip":"40763","city":"Siler","state":"KY","lat":36.7025,"long":-83.955},{"zip":"40769","city":"Williamsburg","state":"KY","lat":36.747,"long":-84.1394}]
