[{"zip":"40813","city":"Calvin","state":"KY","lat":36.7146,"long":-83.6405},{"zip":"40845","city":"Hulen","state":"KY","lat":36.7714,"long":-83.5551},{"zip":"40856","city":"Miracle","state":"KY","lat":36.7606,"long":-83.5841},{"zip":"40801","city":"Ages Brookside","state":"KY","lat":36.8654,"long":-83.2879},{"zip":"40806","city":"Baxter","state":"KY","lat":36.8749,"long":-83.3141},{"zip":"40807","city":"Benham","state":"KY","lat":36.9648,"long":-82.9485},{"zip":"40808","city":"Big Laurel","state":"KY","lat":36.9798,"long":-83.2171},{"zip":"40810","city":"Bledsoe","state":"KY","lat":36.934,"long":-83.3242},{"zip":"40815","city":"Cawood","state":"KY","lat":36.7812,"long":-83.2914},{"zip":"40818","city":"Coalgood","state":"KY","lat":36.8202,"long":-83.2445},{"zip":"40819","city":"Coldiron","state":"KY","lat":36.8201,"long":-83.4707},{"zip":"40820","city":"Cranks","state":"KY","lat":36.7558,"long":-83.1838},{"zip":"40823","city":"Cumberland","state":"KY","lat":36.9711,"long":-82.9771},{"zip":"40824","city":"Dayhoit","state":"KY","lat":36.8356,"long":-83.3753},{"zip":"40828","city":"Evarts","state":"KY","lat":36.8398,"long":-83.2233},{"zip":"40829","city":"Grays Knob","state":"KY","lat":36.7974,"long":-83.2645},{"zip":"40830","city":"Gulston","state":"KY","lat":36.7656,"long":-83.3262},{"zip":"40831","city":"Harlan","state":"KY","lat":36.7596,"long":-83.3499},{"zip":"40843","city":"Holmes Mill","state":"KY","lat":36.8757,"long":-82.9943},{"zip":"40847","city":"Kenvir","state":"KY","lat":36.8537,"long":-83.1571},{"zip":"40849","city":"Lejunior","state":"KY","lat":36.8899,"long":-83.1433},{"zip":"40854","city":"Loyall","state":"KY","lat":36.8481,"long":-83.353},{"zip":"40855","city":"Lynch","state":"KY","lat":36.9603,"long":-82.9198},{"zip":"40863","city":"Pathfork","state":"KY","lat":36.7521,"long":-83.4629},{"zip":"40865","city":"Putney","state":"KY","lat":36.9039,"long":-83.2381},{"zip":"40870","city":"Totz","state":"KY","lat":36.933,"long":-83.1617},{"zip":"40873","city":"Wallins Creek","state":"KY","lat":36.8165,"long":-83.419},{"zip":"40803","city":"Asher","state":"KY","lat":37.0114,"long":-83.4553},{"zip":"40816","city":"Chappell","state":"KY","lat":37.0098,"long":-83.3494},{"zip":"40827","city":"Essie","state":"KY","lat":37.0547,"long":-83.4561},{"zip":"40840","city":"Helton","state":"KY","lat":36.9543,"long":-83.4313},{"zip":"40844","city":"Hoskinston","state":"KY","lat":37.0773,"long":-83.3916},{"zip":"40858","city":"Mozelle","state":"KY","lat":37.0037,"long":-83.4135},{"zip":"40868","city":"Stinnett","state":"KY","lat":37.0883,"long":-83.3907},{"zip":"40874","city":"Warbranch","state":"KY","lat":36.984,"long":-83.4667},{"zip":"40826","city":"Eolia","state":"KY","lat":37.0618,"long":-82.7706},{"zip":"40862","city":"Partridge","state":"KY","lat":37.0129,"long":-82.8795}]
