[{"zip":"40902","city":"Arjay","state":"KY","lat":36.8283,"long":-83.6415},{"zip":"40913","city":"Beverly","state":"KY","lat":36.9442,"long":-83.556},{"zip":"40940","city":"Frakes","state":"KY","lat":36.607,"long":-83.9484},{"zip":"40955","city":"Ingram","state":"KY","lat":36.7692,"long":-83.7082},{"zip":"40958","city":"Kettle Island","state":"KY","lat":36.8093,"long":-83.5892},{"zip":"40965","city":"Middlesboro","state":"KY","lat":36.6172,"long":-83.7231},{"zip":"40977","city":"Pineville","state":"KY","lat":36.7159,"long":-83.7668},{"zip":"40988","city":"Stoney Fork","state":"KY","lat":36.8323,"long":-83.5346},{"zip":"40914","city":"Big Creek","state":"KY","lat":37.1623,"long":-83.5688},{"zip":"40932","city":"Fall Rock","state":"KY","lat":37.2198,"long":-83.7883},{"zip":"40941","city":"Garrard","state":"KY","lat":37.1237,"long":-83.7463},{"zip":"40944","city":"Goose Rock","state":"KY","lat":37.0904,"long":-83.6944},{"zip":"40951","city":"Hima","state":"KY","lat":37.1206,"long":-83.7783},{"zip":"40962","city":"Manchester","state":"KY","lat":37.1511,"long":-83.7793},{"zip":"40972","city":"Oneida","state":"KY","lat":37.2695,"long":-83.6491},{"zip":"40983","city":"Sextons Creek","state":"KY","lat":37.333,"long":-83.7666},{"zip":"40927","city":"Closplint","state":"KY","lat":36.8713,"long":-83.0414},{"zip":"40964","city":"Mary Alice","state":"KY","lat":36.7843,"long":-83.3299},{"zip":"40903","city":"Artemus","state":"KY","lat":36.8388,"long":-83.8329},{"zip":"40906","city":"Barbourville","state":"KY","lat":36.8665,"long":-83.8888},{"zip":"40915","city":"Bimble","state":"KY","lat":36.8868,"long":-83.8282},{"zip":"40921","city":"Bryants Store","state":"KY","lat":36.7708,"long":-83.9009},{"zip":"40923","city":"Cannon","state":"KY","lat":36.9195,"long":-83.851},{"zip":"40930","city":"Dewitt","state":"KY","lat":36.877,"long":-83.7377},{"zip":"40935","city":"Flat Lick","state":"KY","lat":36.829,"long":-83.7702},{"zip":"40939","city":"Fourmile","state":"KY","lat":36.7934,"long":-83.7419},{"zip":"40943","city":"Girdler","state":"KY","lat":36.9691,"long":-83.8539},{"zip":"40946","city":"Green Road","state":"KY","lat":36.8713,"long":-83.83},{"zip":"40949","city":"Heidrick","state":"KY","lat":36.8904,"long":-83.8716},{"zip":"40953","city":"Hinkle","state":"KY","lat":36.9362,"long":-83.8045},{"zip":"40982","city":"Scalf","state":"KY","lat":36.9327,"long":-83.6901},{"zip":"40995","city":"Trosper","state":"KY","lat":36.761,"long":-83.8155},{"zip":"40997","city":"Walker","state":"KY","lat":36.8911,"long":-83.6616},{"zip":"40979","city":"Roark","state":"KY","lat":37.0438,"long":-83.4949},{"zip":"40981","city":"Saul","state":"KY","lat":37.3313,"long":-83.387}]
