[{"zip":"41005","city":"Burlington","state":"KY","lat":39.015,"long":-84.7736},{"zip":"41022","city":"Florence","state":"KY","lat":38.9624,"long":-84.7478},{"zip":"41042","city":"Florence","state":"KY","lat":38.9941,"long":-84.642},{"zip":"41048","city":"Hebron","state":"KY","lat":39.0755,"long":-84.7007},{"zip":"41080","city":"Petersburg","state":"KY","lat":39.0416,"long":-84.8371},{"zip":"41091","city":"Union","state":"KY","lat":38.9435,"long":-84.7274},{"zip":"41092","city":"Verona","state":"KY","lat":38.839,"long":-84.6907},{"zip":"41094","city":"Walton","state":"KY","lat":38.8875,"long":-84.6328},{"zip":"41101","city":"Ashland","state":"KY","lat":38.4722,"long":-82.6461},{"zip":"41102","city":"Ashland","state":"KY","lat":38.4218,"long":-82.7173},{"zip":"41105","city":"Ashland","state":"KY","lat":38.3703,"long":-82.6948},{"zip":"41114","city":"Ashland","state":"KY","lat":38.3703,"long":-82.6948},{"zip":"41129","city":"Catlettsburg","state":"KY","lat":38.3799,"long":-82.6321},{"zip":"41168","city":"Rush","state":"KY","lat":38.3089,"long":-82.7476},{"zip":"41002","city":"Augusta","state":"KY","lat":38.763,"long":-83.9954},{"zip":"41004","city":"Brooksville","state":"KY","lat":38.6644,"long":-84.0786},{"zip":"41043","city":"Foster","state":"KY","lat":38.7506,"long":-84.1566},{"zip":"41044","city":"Germantown","state":"KY","lat":38.6357,"long":-83.99},{"zip":"41061","city":"Milford","state":"KY","lat":38.5817,"long":-84.1566},{"zip":"41310","city":"Bays","state":"KY","lat":37.6405,"long":-83.2441},{"zip":"41317","city":"Clayhole","state":"KY","lat":37.4476,"long":-83.1892},{"zip":"41339","city":"Jackson","state":"KY","lat":37.4868,"long":-83.2913},{"zip":"41348","city":"Lost Creek","state":"KY","lat":37.4418,"long":-83.2976},{"zip":"41366","city":"Rousseau","state":"KY","lat":37.5946,"long":-83.2187},{"zip":"41385","city":"Vancleve","state":"KY","lat":37.6477,"long":-83.3806},{"zip":"41390","city":"Whick","state":"KY","lat":37.4102,"long":-83.3747},{"zip":"41001","city":"Alexandria","state":"KY","lat":38.9406,"long":-84.3943},{"zip":"41007","city":"California","state":"KY","lat":38.9056,"long":-84.3171},{"zip":"41059","city":"Melbourne","state":"KY","lat":39.0067,"long":-84.3538},{"zip":"41071","city":"Newport","state":"KY","lat":39.0563,"long":-84.4787},{"zip":"41072","city":"Newport","state":"KY","lat":38.9638,"long":-84.3689},{"zip":"41073","city":"Bellevue","state":"KY","lat":39.1024,"long":-84.4787},{"zip":"41074","city":"Dayton","state":"KY","lat":39.1114,"long":-84.4712},{"zip":"41075","city":"Fort Thomas","state":"KY","lat":39.0786,"long":-84.4523},{"zip":"41076","city":"Newport","state":"KY","lat":39.0262,"long":-84.4408},{"zip":"41085","city":"Silver Grove","state":"KY","lat":39.0343,"long":-84.3908},{"zip":"41099","city":"Newport","state":"KY","lat":38.9638,"long":-84.3689},{"zip":"41008","city":"Carrollton","state":"KY","lat":38.6696,"long":-85.173},{"zip":"41045","city":"Ghent","state":"KY","lat":38.7188,"long":-85.0557},{"zip":"41083","city":"Sanders","state":"KY","lat":38.661,"long":-84.9732},{"zip":"41098","city":"Worthville","state":"KY","lat":38.6179,"long":-85.0663},{"zip":"41128","city":"Carter","state":"KY","lat":38.4339,"long":-83.1336},{"zip":"41132","city":"Denton","state":"KY","lat":38.2597,"long":-82.8562},{"zip":"41142","city":"Grahn","state":"KY","lat":38.2897,"long":-83.0811},{"zip":"41143","city":"Grayson","state":"KY","lat":38.3326,"long":-82.9485},{"zip":"41146","city":"Hitchins","state":"KY","lat":38.2766,"long":-82.8982},{"zip":"41164","city":"Olive Hill","state":"KY","lat":38.3001,"long":-83.1741},{"zip":"41173","city":"Soldier","state":"KY","lat":38.262,"long":-83.2847},{"zip":"41181","city":"Willard","state":"KY","lat":38.2045,"long":-82.9076},{"zip":"41149","city":"Isonville","state":"KY","lat":38.0462,"long":-83.0506},{"zip":"41171","city":"Sandy Hook","state":"KY","lat":38.1316,"long":-83.0797},{"zip":"41037","city":"Elizaville","state":"KY","lat":38.4195,"long":-83.8255},{"zip":"41039","city":"Ewing","state":"KY","lat":38.4157,"long":-83.8733},{"zip":"41041","city":"Flemingsburg","state":"KY","lat":38.428,"long":-83.708},{"zip":"41049","city":"Hillsboro","state":"KY","lat":38.2929,"long":-83.6697},{"zip":"41065","city":"Muses Mills","state":"KY","lat":38.3501,"long":-83.5271},{"zip":"41081","city":"Plummers Landing","state":"KY","lat":38.3481,"long":-83.7186},{"zip":"41093","city":"Wallingford","state":"KY","lat":38.3374,"long":-83.5625},{"zip":"41601","city":"Allen","state":"KY","lat":37.6074,"long":-82.7225},{"zip":"41602","city":"Auxier","state":"KY","lat":37.737,"long":-82.7582},{"zip":"41603","city":"Banner","state":"KY","lat":37.5707,"long":-82.6806},{"zip":"41604","city":"Beaver","state":"KY","lat":37.3774,"long":-82.6869},{"zip":"41605","city":"Betsy Layne","state":"KY","lat":37.5555,"long":-82.6267},{"zip":"41606","city":"Bevinsville","state":"KY","lat":37.3465,"long":-82.7403},{"zip":"41607","city":"Blue River","state":"KY","lat":37.6253,"long":-82.8418},{"zip":"41612","city":"Bypro","state":"KY","lat":37.3465,"long":-82.7165},{"zip":"41615","city":"Dana","state":"KY","lat":37.5467,"long":-82.6705},{"zip":"41616","city":"David","state":"KY","lat":37.5767,"long":-82.8708},{"zip":"41619","city":"Drift","state":"KY","lat":37.4933,"long":-82.7575},{"zip":"41621","city":"Dwale","state":"KY","lat":37.6246,"long":-82.7227},{"zip":"41622","city":"Eastern","state":"KY","lat":37.517,"long":-82.806},{"zip":"41630","city":"Garrett","state":"KY","lat":37.4798,"long":-82.8316},{"zip":"41631","city":"Grethel","state":"KY","lat":37.4576,"long":-82.6645},{"zip":"41635","city":"Harold","state":"KY","lat":37.5368,"long":-82.6332},{"zip":"41636","city":"Hi Hat","state":"KY","lat":37.3994,"long":-82.7292},{"zip":"41640","city":"Hueysville","state":"KY","lat":37.5087,"long":-82.8518},{"zip":"41642","city":"Ivel","state":"KY","lat":37.5956,"long":-82.6463},{"zip":"41643","city":"Lackey","state":"KY","lat":37.471,"long":-82.8294},{"zip":"41645","city":"Langley","state":"KY","lat":37.5381,"long":-82.7976},{"zip":"41647","city":"Mc Dowell","state":"KY","lat":37.4355,"long":-82.7203},{"zip":"41649","city":"Martin","state":"KY","lat":37.5708,"long":-82.7819},{"zip":"41650","city":"Melvin","state":"KY","lat":37.3536,"long":-82.6763},{"zip":"41651","city":"Minnie","state":"KY","lat":37.4548,"long":-82.7646},{"zip":"41653","city":"Prestonsburg","state":"KY","lat":37.661,"long":-82.7636},{"zip":"41655","city":"Printer","state":"KY","lat":37.5055,"long":-82.706},{"zip":"41659","city":"Stanville","state":"KY","lat":37.5741,"long":-82.6271},{"zip":"41660","city":"Teaberry","state":"KY","lat":37.422,"long":-82.6405},{"zip":"41663","city":"Tram","state":"KY","lat":37.5725,"long":-82.6452},{"zip":"41666","city":"Wayland","state":"KY","lat":37.4367,"long":-82.801},{"zip":"41667","city":"Weeksbury","state":"KY","lat":37.317,"long":-82.7041},{"zip":"41669","city":"Wheelwright","state":"KY","lat":37.3314,"long":-82.7156},{"zip":"41046","city":"Glencoe","state":"KY","lat":38.7229,"long":-84.8116},{"zip":"41086","city":"Sparta","state":"KY","lat":38.7256,"long":-84.8813},{"zip":"41095","city":"Warsaw","state":"KY","lat":38.7807,"long":-84.8496},{"zip":"41010","city":"Corinth","state":"KY","lat":38.5302,"long":-84.5846},{"zip":"41030","city":"Crittenden","state":"KY","lat":38.7741,"long":-84.5982},{"zip":"41035","city":"Dry Ridge","state":"KY","lat":38.7049,"long":-84.6237},{"zip":"41052","city":"Jonesville","state":"KY","lat":38.6398,"long":-84.7755},{"zip":"41054","city":"Mason","state":"KY","lat":38.5932,"long":-84.5786},{"zip":"41097","city":"Williamstown","state":"KY","lat":38.6292,"long":-84.5744},{"zip":"41121","city":"Argillite","state":"KY","lat":38.4322,"long":-82.8094},{"zip":"41139","city":"Flatwoods","state":"KY","lat":38.5188,"long":-82.7212},{"zip":"41144","city":"Greenup","state":"KY","lat":38.5368,"long":-82.9191},{"zip":"41169","city":"Russell","state":"KY","lat":38.5173,"long":-82.6977},{"zip":"41174","city":"South Portsmouth","state":"KY","lat":38.7087,"long":-83.0162},{"zip":"41175","city":"South Shore","state":"KY","lat":38.7148,"long":-82.9366},{"zip":"41183","city":"Worthington","state":"KY","lat":38.5511,"long":-82.7396},{"zip":"41003","city":"Berry","state":"KY","lat":38.516,"long":-84.3611},{"zip":"41031","city":"Cynthiana","state":"KY","lat":38.3964,"long":-84.2949},{"zip":"41204","city":"Boons Camp","state":"KY","lat":37.8216,"long":-82.6704},{"zip":"41216","city":"East Point","state":"KY","lat":37.7579,"long":-82.8182},{"zip":"41219","city":"Flatgap","state":"KY","lat":37.9231,"long":-82.9221},{"zip":"41222","city":"Hagerhill","state":"KY","lat":37.7805,"long":-82.8416},{"zip":"41226","city":"Keaton","state":"KY","lat":37.9856,"long":-82.9602},{"zip":"41234","city":"Meally","state":"KY","lat":37.8078,"long":-82.7415},{"zip":"41238","city":"Oil Springs","state":"KY","lat":37.8101,"long":-82.9424},{"zip":"41240","city":"Paintsville","state":"KY","lat":37.8242,"long":-82.7945},{"zip":"41254","city":"River","state":"KY","lat":37.8795,"long":-82.7251},{"zip":"41255","city":"Sitka","state":"KY","lat":37.8922,"long":-82.8446},{"zip":"41256","city":"Staffordsville","state":"KY","lat":37.8253,"long":-82.8823},{"zip":"41257","city":"Stambaugh","state":"KY","lat":37.9166,"long":-82.8034},{"zip":"41260","city":"Thelma","state":"KY","lat":37.822,"long":-82.7526},{"zip":"41263","city":"Tutor Key","state":"KY","lat":37.8507,"long":-82.7602},{"zip":"41265","city":"Van Lear","state":"KY","lat":37.7481,"long":-82.7054},{"zip":"41268","city":"West Van Lear","state":"KY","lat":37.7862,"long":-82.7807},{"zip":"41271","city":"Williamsport","state":"KY","lat":37.8313,"long":-82.7264},{"zip":"41274","city":"Wittensville","state":"KY","lat":37.8703,"long":-82.81},{"zip":"41011","city":"Covington","state":"KY","lat":39.0708,"long":-84.5212},{"zip":"41012","city":"Covington","state":"KY","lat":38.9447,"long":-84.5205},{"zip":"41014","city":"Covington","state":"KY","lat":39.0642,"long":-84.5118},{"zip":"41015","city":"Latonia","state":"KY","lat":39.0217,"long":-84.4989},{"zip":"41016","city":"Covington","state":"KY","lat":39.0873,"long":-84.549},{"zip":"41017","city":"Ft Mitchell","state":"KY","lat":39.03,"long":-84.559},{"zip":"41018","city":"Erlanger","state":"KY","lat":39.0082,"long":-84.5977},{"zip":"41019","city":"Covington","state":"KY","lat":38.9447,"long":-84.5205},{"zip":"41051","city":"Independence","state":"KY","lat":38.9354,"long":-84.5479},{"zip":"41053","city":"Kenton","state":"KY","lat":38.8684,"long":-84.4561},{"zip":"41063","city":"Morning View","state":"KY","lat":38.8394,"long":-84.5069},{"zip":"41725","city":"Carrie","state":"KY","lat":37.3318,"long":-83.0327},{"zip":"41740","city":"Emmalena","state":"KY","lat":37.3499,"long":-83.0471},{"zip":"41743","city":"Fisty","state":"KY","lat":37.3064,"long":-83.0904},{"zip":"41759","city":"Sassafras","state":"KY","lat":37.2207,"long":-83.0552},{"zip":"41772","city":"Vest","state":"KY","lat":37.4073,"long":-83.0153},{"zip":"41817","city":"Garner","state":"KY","lat":37.3676,"long":-82.9107},{"zip":"41822","city":"Hindman","state":"KY","lat":37.3359,"long":-82.9804},{"zip":"41828","city":"Kite","state":"KY","lat":37.3136,"long":-82.7975},{"zip":"41831","city":"Leburn","state":"KY","lat":37.3794,"long":-82.9523},{"zip":"41834","city":"Littcarr","state":"KY","lat":37.2409,"long":-82.9488},{"zip":"41836","city":"Mallie","state":"KY","lat":37.2692,"long":-82.9161},{"zip":"41839","city":"Mousie","state":"KY","lat":37.4331,"long":-82.9018},{"zip":"41843","city":"Pine Top","state":"KY","lat":37.2868,"long":-82.8741},{"zip":"41844","city":"Pippa Passes","state":"KY","lat":37.3491,"long":-82.8742},{"zip":"41847","city":"Redfox","state":"KY","lat":37.2172,"long":-82.9424},{"zip":"41859","city":"Dema","state":"KY","lat":37.3976,"long":-82.7836},{"zip":"41861","city":"Raven","state":"KY","lat":37.4043,"long":-82.8261},{"zip":"41862","city":"Topmost","state":"KY","lat":37.3485,"long":-82.7926},{"zip":"41124","city":"Blaine","state":"KY","lat":38.027,"long":-82.8513},{"zip":"41159","city":"Martha","state":"KY","lat":38.0152,"long":-82.9558},{"zip":"41160","city":"Mazie","state":"KY","lat":38.027,"long":-82.9724},{"zip":"41180","city":"Webbville","state":"KY","lat":38.1634,"long":-82.7897},{"zip":"41201","city":"Adams","state":"KY","lat":38.0741,"long":-82.7447},{"zip":"41230","city":"Louisa","state":"KY","lat":38.1043,"long":-82.6056},{"zip":"41232","city":"Lowmansville","state":"KY","lat":37.9315,"long":-82.7349},{"zip":"41264","city":"Ulysses","state":"KY","lat":37.9416,"long":-82.6739},{"zip":"41311","city":"Beattyville","state":"KY","lat":37.5999,"long":-83.714},{"zip":"41347","city":"Lone","state":"KY","lat":37.5442,"long":-83.6008},{"zip":"41368","city":"Saint Helens","state":"KY","lat":37.5829,"long":-83.6471},{"zip":"41397","city":"Zoe","state":"KY","lat":37.6867,"long":-83.6702},{"zip":"41714","city":"Bear Branch","state":"KY","lat":37.1939,"long":-83.5035},{"zip":"41749","city":"Hyden","state":"KY","lat":37.1877,"long":-83.4169},{"zip":"41762","city":"Sizerock","state":"KY","lat":37.2187,"long":-83.4974},{"zip":"41764","city":"Smilax","state":"KY","lat":37.1214,"long":-83.2539},{"zip":"41766","city":"Thousandsticks","state":"KY","lat":37.1586,"long":-83.3847},{"zip":"41775","city":"Wendover","state":"KY","lat":37.1079,"long":-83.3563},{"zip":"41776","city":"Wooton","state":"KY","lat":37.1671,"long":-83.2913},{"zip":"41777","city":"Yeaddiss","state":"KY","lat":37.0565,"long":-83.2361},{"zip":"41517","city":"Burdine","state":"KY","lat":37.1893,"long":-82.599},{"zip":"41537","city":"Jenkins","state":"KY","lat":37.1911,"long":-82.6513},{"zip":"41804","city":"Blackey","state":"KY","lat":37.1551,"long":-82.9956},{"zip":"41810","city":"Cromona","state":"KY","lat":37.1865,"long":-82.6971},{"zip":"41812","city":"Deane","state":"KY","lat":37.2409,"long":-82.7696},{"zip":"41815","city":"Ermine","state":"KY","lat":37.1615,"long":-82.7974},{"zip":"41819","city":"Gordon","state":"KY","lat":36.9891,"long":-83.0655},{"zip":"41821","city":"Hallie","state":"KY","lat":37.0837,"long":-83.0027},{"zip":"41824","city":"Isom","state":"KY","lat":37.1932,"long":-82.8754},{"zip":"41825","city":"Jackhorn","state":"KY","lat":37.2246,"long":-82.7228},{"zip":"41826","city":"Jeremiah","state":"KY","lat":37.1699,"long":-82.9258},{"zip":"41832","city":"Letcher","state":"KY","lat":37.1531,"long":-82.9548},{"zip":"41833","city":"Linefork","state":"KY","lat":37.0233,"long":-82.9878},{"zip":"41835","city":"Mc Roberts","state":"KY","lat":37.2137,"long":-82.6734},{"zip":"41837","city":"Mayking","state":"KY","lat":37.1302,"long":-82.7427},{"zip":"41838","city":"Millstone","state":"KY","lat":37.1766,"long":-82.7517},{"zip":"41840","city":"Neon","state":"KY","lat":37.1876,"long":-82.711},{"zip":"41845","city":"Premium","state":"KY","lat":37.1252,"long":-82.9035},{"zip":"41848","city":"Roxana","state":"KY","lat":37.1102,"long":-82.9407},{"zip":"41849","city":"Seco","state":"KY","lat":37.1765,"long":-82.7358},{"zip":"41855","city":"Thornton","state":"KY","lat":37.1906,"long":-82.7851},{"zip":"41858","city":"Whitesburg","state":"KY","lat":37.1388,"long":-82.855},{"zip":"41135","city":"Emerson","state":"KY","lat":38.3563,"long":-83.2877},{"zip":"41141","city":"Garrison","state":"KY","lat":38.5869,"long":-83.2},{"zip":"41166","city":"Quincy","state":"KY","lat":38.6271,"long":-83.1056},{"zip":"41179","city":"Vanceburg","state":"KY","lat":38.4699,"long":-83.2702},{"zip":"41189","city":"Tollesboro","state":"KY","lat":38.5723,"long":-83.5605},{"zip":"41426","city":"Falcon","state":"KY","lat":37.7843,"long":-83.0109},{"zip":"41464","city":"Royalton","state":"KY","lat":37.6751,"long":-83.0218},{"zip":"41465","city":"Salyersville","state":"KY","lat":37.7325,"long":-83.0298},{"zip":"41632","city":"Gunlock","state":"KY","lat":37.5892,"long":-82.9452},{"zip":"41203","city":"Beauty","state":"KY","lat":37.8401,"long":-82.439},{"zip":"41214","city":"Debord","state":"KY","lat":37.8001,"long":-82.5594},{"zip":"41224","city":"Inez","state":"KY","lat":37.8754,"long":-82.5337},{"zip":"41231","city":"Lovely","state":"KY","lat":37.8259,"long":-82.4013},{"zip":"41250","city":"Pilgrim","state":"KY","lat":37.7379,"long":-82.4523},{"zip":"41262","city":"Tomahawk","state":"KY","lat":37.8687,"long":-82.5971},{"zip":"41267","city":"Warfield","state":"KY","lat":37.875,"long":-82.4386},{"zip":"41034","city":"Dover","state":"KY","lat":38.691,"long":-83.8718},{"zip":"41055","city":"Mayslick","state":"KY","lat":38.522,"long":-83.861},{"zip":"41056","city":"Maysville","state":"KY","lat":38.6207,"long":-83.8067},{"zip":"41062","city":"Minerva","state":"KY","lat":38.7196,"long":-83.9103},{"zip":"41096","city":"Washington","state":"KY","lat":38.6123,"long":-83.808},{"zip":"41352","city":"Mize","state":"KY","lat":37.8235,"long":-83.3335},{"zip":"41408","city":"Cannel City","state":"KY","lat":37.7901,"long":-83.2741},{"zip":"41413","city":"Crockett","state":"KY","lat":37.9856,"long":-83.0907},{"zip":"41421","city":"Elkfork","state":"KY","lat":37.9708,"long":-83.1193},{"zip":"41425","city":"Ezel","state":"KY","lat":37.8912,"long":-83.4444},{"zip":"41451","city":"Malone","state":"KY","lat":37.872,"long":-83.2582},{"zip":"41472","city":"West Liberty","state":"KY","lat":37.9215,"long":-83.2596},{"zip":"41477","city":"Wrigley","state":"KY","lat":37.914,"long":-83.2338},{"zip":"41314","city":"Booneville","state":"KY","lat":37.4965,"long":-83.6574},{"zip":"41351","city":"Mistletoe","state":"KY","lat":37.3126,"long":-83.5916},{"zip":"41364","city":"Ricetown","state":"KY","lat":37.3871,"long":-83.6752},{"zip":"41386","city":"Vincent","state":"KY","lat":37.3986,"long":-83.7049},{"zip":"41006","city":"Butler","state":"KY","lat":38.8013,"long":-84.3446},{"zip":"41033","city":"De Mossville","state":"KY","lat":38.7623,"long":-84.4859},{"zip":"41040","city":"Falmouth","state":"KY","lat":38.6643,"long":-84.3451},{"zip":"41367","city":"Rowdy","state":"KY","lat":37.397,"long":-83.227},{"zip":"41701","city":"Hazard","state":"KY","lat":37.2983,"long":-83.1912},{"zip":"41702","city":"Hazard","state":"KY","lat":37.2495,"long":-83.1932},{"zip":"41712","city":"Ary","state":"KY","lat":37.3638,"long":-83.1546},{"zip":"41713","city":"Avawam","state":"KY","lat":37.2254,"long":-83.2736},{"zip":"41719","city":"Bonnyman","state":"KY","lat":37.2983,"long":-83.2544},{"zip":"41721","city":"Buckhorn","state":"KY","lat":37.301,"long":-83.4936},{"zip":"41722","city":"Bulan","state":"KY","lat":37.315,"long":-83.1561},{"zip":"41723","city":"Busy","state":"KY","lat":37.2632,"long":-83.3007},{"zip":"41727","city":"Chavies","state":"KY","lat":37.3479,"long":-83.3563},{"zip":"41729","city":"Combs","state":"KY","lat":37.2649,"long":-83.2174},{"zip":"41731","city":"Cornettsville","state":"KY","lat":37.134,"long":-83.0768},{"zip":"41735","city":"Delphia","state":"KY","lat":37.0233,"long":-83.0956},{"zip":"41736","city":"Dice","state":"KY","lat":37.3758,"long":-83.2419},{"zip":"41739","city":"Dwarf","state":"KY","lat":37.3394,"long":-83.1303},{"zip":"41745","city":"Gays Creek","state":"KY","lat":37.3353,"long":-83.4347},{"zip":"41746","city":"Happy","state":"KY","lat":37.2101,"long":-83.0917},{"zip":"41751","city":"Jeff","state":"KY","lat":37.2184,"long":-83.1427},{"zip":"41754","city":"Krypton","state":"KY","lat":37.3003,"long":-83.3219},{"zip":"41760","city":"Scuddy","state":"KY","lat":37.1971,"long":-83.0817},{"zip":"41763","city":"Slemp","state":"KY","lat":37.0705,"long":-83.1136},{"zip":"41773","city":"Vicco","state":"KY","lat":37.202,"long":-83.0658},{"zip":"41774","city":"Viper","state":"KY","lat":37.1585,"long":-83.1405},{"zip":"41778","city":"Yerkes","state":"KY","lat":37.283,"long":-83.3212},{"zip":"41501","city":"Pikeville","state":"KY","lat":37.5161,"long":-82.5173},{"zip":"41502","city":"Pikeville","state":"KY","lat":37.4793,"long":-82.5188},{"zip":"41503","city":"South Williamson","state":"KY","lat":37.667,"long":-82.2886},{"zip":"41512","city":"Ashcamp","state":"KY","lat":37.2589,"long":-82.4613},{"zip":"41513","city":"Belcher","state":"KY","lat":37.3478,"long":-82.3406},{"zip":"41514","city":"Belfry","state":"KY","lat":37.6401,"long":-82.2573},{"zip":"41519","city":"Canada","state":"KY","lat":37.5899,"long":-82.3308},{"zip":"41520","city":"Dorton","state":"KY","lat":37.279,"long":-82.5773},{"zip":"41522","city":"Elkhorn City","state":"KY","lat":37.3109,"long":-82.4091},{"zip":"41524","city":"Fedscreek","state":"KY","lat":37.4266,"long":-82.2562},{"zip":"41526","city":"Fords Branch","state":"KY","lat":37.4332,"long":-82.511},{"zip":"41527","city":"Forest Hills","state":"KY","lat":37.6432,"long":-82.2991},{"zip":"41528","city":"Freeburn","state":"KY","lat":37.5512,"long":-82.1434},{"zip":"41531","city":"Hardy","state":"KY","lat":37.5928,"long":-82.2328},{"zip":"41534","city":"Hellier","state":"KY","lat":37.2876,"long":-82.4713},{"zip":"41535","city":"Huddy","state":"KY","lat":37.5964,"long":-82.2797},{"zip":"41538","city":"Jonancy","state":"KY","lat":37.4706,"long":-82.3488},{"zip":"41539","city":"Kimper","state":"KY","lat":37.5068,"long":-82.3271},{"zip":"41540","city":"Lick Creek","state":"KY","lat":37.3592,"long":-82.3092},{"zip":"41542","city":"Lookout","state":"KY","lat":37.3148,"long":-82.465},{"zip":"41543","city":"Mc Andrews","state":"KY","lat":37.5624,"long":-82.2803},{"zip":"41544","city":"Mc Carr","state":"KY","lat":37.5969,"long":-82.1674},{"zip":"41547","city":"Majestic","state":"KY","lat":37.5311,"long":-82.0916},{"zip":"41548","city":"Mouthcard","state":"KY","lat":37.3815,"long":-82.2727},{"zip":"41549","city":"Myra","state":"KY","lat":37.2898,"long":-82.5999},{"zip":"41553","city":"Phelps","state":"KY","lat":37.4987,"long":-82.1584},{"zip":"41554","city":"Phyllis","state":"KY","lat":37.4484,"long":-82.2985},{"zip":"41555","city":"Pinsonfork","state":"KY","lat":37.5466,"long":-82.2621},{"zip":"41557","city":"Raccoon","state":"KY","lat":37.4935,"long":-82.4221},{"zip":"41558","city":"Ransom","state":"KY","lat":37.5426,"long":-82.2085},{"zip":"41559","city":"Regina","state":"KY","lat":37.3744,"long":-82.3831},{"zip":"41560","city":"Robinson Creek","state":"KY","lat":37.3799,"long":-82.5616},{"zip":"41561","city":"Rockhouse","state":"KY","lat":37.3316,"long":-82.4626},{"zip":"41562","city":"Shelbiana","state":"KY","lat":37.4063,"long":-82.4673},{"zip":"41563","city":"Shelby Gap","state":"KY","lat":37.2311,"long":-82.5286},{"zip":"41564","city":"Sidney","state":"KY","lat":37.6076,"long":-82.3648},{"zip":"41566","city":"Steele","state":"KY","lat":37.4029,"long":-82.2071},{"zip":"41567","city":"Stone","state":"KY","lat":37.5859,"long":-82.271},{"zip":"41568","city":"Stopover","state":"KY","lat":37.5093,"long":-82.0784},{"zip":"41571","city":"Varney","state":"KY","lat":37.6275,"long":-82.4356},{"zip":"41572","city":"Virgie","state":"KY","lat":37.3197,"long":-82.6114},{"zip":"41064","city":"Mount Olivet","state":"KY","lat":38.5218,"long":-84.048},{"zip":"41301","city":"Campton","state":"KY","lat":37.7287,"long":-83.494},{"zip":"41332","city":"Hazel Green","state":"KY","lat":37.7981,"long":-83.421},{"zip":"41360","city":"Pine Ridge","state":"KY","lat":37.7749,"long":-83.6321},{"zip":"41365","city":"Rogers","state":"KY","lat":37.7093,"long":-83.6314}]
