[{"zip":"41005","city":"Burlington","state":"KY","lat":39.015,"long":-84.7736},{"zip":"41022","city":"Florence","state":"KY","lat":38.9624,"long":-84.7478},{"zip":"41042","city":"Florence","state":"KY","lat":38.9941,"long":-84.642},{"zip":"41048","city":"Hebron","state":"KY","lat":39.0755,"long":-84.7007},{"zip":"41080","city":"Petersburg","state":"KY","lat":39.0416,"long":-84.8371},{"zip":"41091","city":"Union","state":"KY","lat":38.9435,"long":-84.7274},{"zip":"41092","city":"Verona","state":"KY","lat":38.839,"long":-84.6907},{"zip":"41094","city":"Walton","state":"KY","lat":38.8875,"long":-84.6328},{"zip":"41002","city":"Augusta","state":"KY","lat":38.763,"long":-83.9954},{"zip":"41004","city":"Brooksville","state":"KY","lat":38.6644,"long":-84.0786},{"zip":"41043","city":"Foster","state":"KY","lat":38.7506,"long":-84.1566},{"zip":"41044","city":"Germantown","state":"KY","lat":38.6357,"long":-83.99},{"zip":"41061","city":"Milford","state":"KY","lat":38.5817,"long":-84.1566},{"zip":"41001","city":"Alexandria","state":"KY","lat":38.9406,"long":-84.3943},{"zip":"41007","city":"California","state":"KY","lat":38.9056,"long":-84.3171},{"zip":"41059","city":"Melbourne","state":"KY","lat":39.0067,"long":-84.3538},{"zip":"41071","city":"Newport","state":"KY","lat":39.0563,"long":-84.4787},{"zip":"41072","city":"Newport","state":"KY","lat":38.9638,"long":-84.3689},{"zip":"41073","city":"Bellevue","state":"KY","lat":39.1024,"long":-84.4787},{"zip":"41074","city":"Dayton","state":"KY","lat":39.1114,"long":-84.4712},{"zip":"41075","city":"Fort Thomas","state":"KY","lat":39.0786,"long":-84.4523},{"zip":"41076","city":"Newport","state":"KY","lat":39.0262,"long":-84.4408},{"zip":"41085","city":"Silver Grove","state":"KY","lat":39.0343,"long":-84.3908},{"zip":"41099","city":"Newport","state":"KY","lat":38.9638,"long":-84.3689},{"zip":"41008","city":"Carrollton","state":"KY","lat":38.6696,"long":-85.173},{"zip":"41045","city":"Ghent","state":"KY","lat":38.7188,"long":-85.0557},{"zip":"41083","city":"Sanders","state":"KY","lat":38.661,"long":-84.9732},{"zip":"41098","city":"Worthville","state":"KY","lat":38.6179,"long":-85.0663},{"zip":"41037","city":"Elizaville","state":"KY","lat":38.4195,"long":-83.8255},{"zip":"41039","city":"Ewing","state":"KY","lat":38.4157,"long":-83.8733},{"zip":"41041","city":"Flemingsburg","state":"KY","lat":38.428,"long":-83.708},{"zip":"41049","city":"Hillsboro","state":"KY","lat":38.2929,"long":-83.6697},{"zip":"41065","city":"Muses Mills","state":"KY","lat":38.3501,"long":-83.5271},{"zip":"41081","city":"Plummers Landing","state":"KY","lat":38.3481,"long":-83.7186},{"zip":"41093","city":"Wallingford","state":"KY","lat":38.3374,"long":-83.5625},{"zip":"41046","city":"Glencoe","state":"KY","lat":38.7229,"long":-84.8116},{"zip":"41086","city":"Sparta","state":"KY","lat":38.7256,"long":-84.8813},{"zip":"41095","city":"Warsaw","state":"KY","lat":38.7807,"long":-84.8496},{"zip":"41010","city":"Corinth","state":"KY","lat":38.5302,"long":-84.5846},{"zip":"41030","city":"Crittenden","state":"KY","lat":38.7741,"long":-84.5982},{"zip":"41035","city":"Dry Ridge","state":"KY","lat":38.7049,"long":-84.6237},{"zip":"41052","city":"Jonesville","state":"KY","lat":38.6398,"long":-84.7755},{"zip":"41054","city":"Mason","state":"KY","lat":38.5932,"long":-84.5786},{"zip":"41097","city":"Williamstown","state":"KY","lat":38.6292,"long":-84.5744},{"zip":"41003","city":"Berry","state":"KY","lat":38.516,"long":-84.3611},{"zip":"41031","city":"Cynthiana","state":"KY","lat":38.3964,"long":-84.2949},{"zip":"41011","city":"Covington","state":"KY","lat":39.0708,"long":-84.5212},{"zip":"41012","city":"Covington","state":"KY","lat":38.9447,"long":-84.5205},{"zip":"41014","city":"Covington","state":"KY","lat":39.0642,"long":-84.5118},{"zip":"41015","city":"Latonia","state":"KY","lat":39.0217,"long":-84.4989},{"zip":"41016","city":"Covington","state":"KY","lat":39.0873,"long":-84.549},{"zip":"41017","city":"Ft Mitchell","state":"KY","lat":39.03,"long":-84.559},{"zip":"41018","city":"Erlanger","state":"KY","lat":39.0082,"long":-84.5977},{"zip":"41019","city":"Covington","state":"KY","lat":38.9447,"long":-84.5205},{"zip":"41051","city":"Independence","state":"KY","lat":38.9354,"long":-84.5479},{"zip":"41053","city":"Kenton","state":"KY","lat":38.8684,"long":-84.4561},{"zip":"41063","city":"Morning View","state":"KY","lat":38.8394,"long":-84.5069},{"zip":"41034","city":"Dover","state":"KY","lat":38.691,"long":-83.8718},{"zip":"41055","city":"Mayslick","state":"KY","lat":38.522,"long":-83.861},{"zip":"41056","city":"Maysville","state":"KY","lat":38.6207,"long":-83.8067},{"zip":"41062","city":"Minerva","state":"KY","lat":38.7196,"long":-83.9103},{"zip":"41096","city":"Washington","state":"KY","lat":38.6123,"long":-83.808},{"zip":"41006","city":"Butler","state":"KY","lat":38.8013,"long":-84.3446},{"zip":"41033","city":"De Mossville","state":"KY","lat":38.7623,"long":-84.4859},{"zip":"41040","city":"Falmouth","state":"KY","lat":38.6643,"long":-84.3451},{"zip":"41064","city":"Mount Olivet","state":"KY","lat":38.5218,"long":-84.048}]
