[{"zip":"41101","city":"Ashland","state":"KY","lat":38.4722,"long":-82.6461},{"zip":"41102","city":"Ashland","state":"KY","lat":38.4218,"long":-82.7173},{"zip":"41105","city":"Ashland","state":"KY","lat":38.3703,"long":-82.6948},{"zip":"41114","city":"Ashland","state":"KY","lat":38.3703,"long":-82.6948},{"zip":"41129","city":"Catlettsburg","state":"KY","lat":38.3799,"long":-82.6321},{"zip":"41168","city":"Rush","state":"KY","lat":38.3089,"long":-82.7476},{"zip":"41128","city":"Carter","state":"KY","lat":38.4339,"long":-83.1336},{"zip":"41132","city":"Denton","state":"KY","lat":38.2597,"long":-82.8562},{"zip":"41142","city":"Grahn","state":"KY","lat":38.2897,"long":-83.0811},{"zip":"41143","city":"Grayson","state":"KY","lat":38.3326,"long":-82.9485},{"zip":"41146","city":"Hitchins","state":"KY","lat":38.2766,"long":-82.8982},{"zip":"41164","city":"Olive Hill","state":"KY","lat":38.3001,"long":-83.1741},{"zip":"41173","city":"Soldier","state":"KY","lat":38.262,"long":-83.2847},{"zip":"41181","city":"Willard","state":"KY","lat":38.2045,"long":-82.9076},{"zip":"41149","city":"Isonville","state":"KY","lat":38.0462,"long":-83.0506},{"zip":"41171","city":"Sandy Hook","state":"KY","lat":38.1316,"long":-83.0797},{"zip":"41121","city":"Argillite","state":"KY","lat":38.4322,"long":-82.8094},{"zip":"41139","city":"Flatwoods","state":"KY","lat":38.5188,"long":-82.7212},{"zip":"41144","city":"Greenup","state":"KY","lat":38.5368,"long":-82.9191},{"zip":"41169","city":"Russell","state":"KY","lat":38.5173,"long":-82.6977},{"zip":"41174","city":"South Portsmouth","state":"KY","lat":38.7087,"long":-83.0162},{"zip":"41175","city":"South Shore","state":"KY","lat":38.7148,"long":-82.9366},{"zip":"41183","city":"Worthington","state":"KY","lat":38.5511,"long":-82.7396},{"zip":"41124","city":"Blaine","state":"KY","lat":38.027,"long":-82.8513},{"zip":"41159","city":"Martha","state":"KY","lat":38.0152,"long":-82.9558},{"zip":"41160","city":"Mazie","state":"KY","lat":38.027,"long":-82.9724},{"zip":"41180","city":"Webbville","state":"KY","lat":38.1634,"long":-82.7897},{"zip":"41135","city":"Emerson","state":"KY","lat":38.3563,"long":-83.2877},{"zip":"41141","city":"Garrison","state":"KY","lat":38.5869,"long":-83.2},{"zip":"41166","city":"Quincy","state":"KY","lat":38.6271,"long":-83.1056},{"zip":"41179","city":"Vanceburg","state":"KY","lat":38.4699,"long":-83.2702},{"zip":"41189","city":"Tollesboro","state":"KY","lat":38.5723,"long":-83.5605}]
