[{"zip":"41204","city":"Boons Camp","state":"KY","lat":37.8216,"long":-82.6704},{"zip":"41216","city":"East Point","state":"KY","lat":37.7579,"long":-82.8182},{"zip":"41219","city":"Flatgap","state":"KY","lat":37.9231,"long":-82.9221},{"zip":"41222","city":"Hagerhill","state":"KY","lat":37.7805,"long":-82.8416},{"zip":"41226","city":"Keaton","state":"KY","lat":37.9856,"long":-82.9602},{"zip":"41234","city":"Meally","state":"KY","lat":37.8078,"long":-82.7415},{"zip":"41238","city":"Oil Springs","state":"KY","lat":37.8101,"long":-82.9424},{"zip":"41240","city":"Paintsville","state":"KY","lat":37.8242,"long":-82.7945},{"zip":"41254","city":"River","state":"KY","lat":37.8795,"long":-82.7251},{"zip":"41255","city":"Sitka","state":"KY","lat":37.8922,"long":-82.8446},{"zip":"41256","city":"Staffordsville","state":"KY","lat":37.8253,"long":-82.8823},{"zip":"41257","city":"Stambaugh","state":"KY","lat":37.9166,"long":-82.8034},{"zip":"41260","city":"Thelma","state":"KY","lat":37.822,"long":-82.7526},{"zip":"41263","city":"Tutor Key","state":"KY","lat":37.8507,"long":-82.7602},{"zip":"41265","city":"Van Lear","state":"KY","lat":37.7481,"long":-82.7054},{"zip":"41268","city":"West Van Lear","state":"KY","lat":37.7862,"long":-82.7807},{"zip":"41271","city":"Williamsport","state":"KY","lat":37.8313,"long":-82.7264},{"zip":"41274","city":"Wittensville","state":"KY","lat":37.8703,"long":-82.81},{"zip":"41201","city":"Adams","state":"KY","lat":38.0741,"long":-82.7447},{"zip":"41230","city":"Louisa","state":"KY","lat":38.1043,"long":-82.6056},{"zip":"41232","city":"Lowmansville","state":"KY","lat":37.9315,"long":-82.7349},{"zip":"41264","city":"Ulysses","state":"KY","lat":37.9416,"long":-82.6739},{"zip":"41203","city":"Beauty","state":"KY","lat":37.8401,"long":-82.439},{"zip":"41214","city":"Debord","state":"KY","lat":37.8001,"long":-82.5594},{"zip":"41224","city":"Inez","state":"KY","lat":37.8754,"long":-82.5337},{"zip":"41231","city":"Lovely","state":"KY","lat":37.8259,"long":-82.4013},{"zip":"41250","city":"Pilgrim","state":"KY","lat":37.7379,"long":-82.4523},{"zip":"41262","city":"Tomahawk","state":"KY","lat":37.8687,"long":-82.5971},{"zip":"41267","city":"Warfield","state":"KY","lat":37.875,"long":-82.4386}]
