[{"zip":"41310","city":"Bays","state":"KY","lat":37.6405,"long":-83.2441},{"zip":"41317","city":"Clayhole","state":"KY","lat":37.4476,"long":-83.1892},{"zip":"41339","city":"Jackson","state":"KY","lat":37.4868,"long":-83.2913},{"zip":"41348","city":"Lost Creek","state":"KY","lat":37.4418,"long":-83.2976},{"zip":"41366","city":"Rousseau","state":"KY","lat":37.5946,"long":-83.2187},{"zip":"41385","city":"Vancleve","state":"KY","lat":37.6477,"long":-83.3806},{"zip":"41390","city":"Whick","state":"KY","lat":37.4102,"long":-83.3747},{"zip":"41311","city":"Beattyville","state":"KY","lat":37.5999,"long":-83.714},{"zip":"41347","city":"Lone","state":"KY","lat":37.5442,"long":-83.6008},{"zip":"41368","city":"Saint Helens","state":"KY","lat":37.5829,"long":-83.6471},{"zip":"41397","city":"Zoe","state":"KY","lat":37.6867,"long":-83.6702},{"zip":"41352","city":"Mize","state":"KY","lat":37.8235,"long":-83.3335},{"zip":"41314","city":"Booneville","state":"KY","lat":37.4965,"long":-83.6574},{"zip":"41351","city":"Mistletoe","state":"KY","lat":37.3126,"long":-83.5916},{"zip":"41364","city":"Ricetown","state":"KY","lat":37.3871,"long":-83.6752},{"zip":"41386","city":"Vincent","state":"KY","lat":37.3986,"long":-83.7049},{"zip":"41367","city":"Rowdy","state":"KY","lat":37.397,"long":-83.227},{"zip":"41301","city":"Campton","state":"KY","lat":37.7287,"long":-83.494},{"zip":"41332","city":"Hazel Green","state":"KY","lat":37.7981,"long":-83.421},{"zip":"41360","city":"Pine Ridge","state":"KY","lat":37.7749,"long":-83.6321},{"zip":"41365","city":"Rogers","state":"KY","lat":37.7093,"long":-83.6314}]
