[{"zip":"41517","city":"Burdine","state":"KY","lat":37.1893,"long":-82.599},{"zip":"41537","city":"Jenkins","state":"KY","lat":37.1911,"long":-82.6513},{"zip":"41501","city":"Pikeville","state":"KY","lat":37.5161,"long":-82.5173},{"zip":"41502","city":"Pikeville","state":"KY","lat":37.4793,"long":-82.5188},{"zip":"41503","city":"South Williamson","state":"KY","lat":37.667,"long":-82.2886},{"zip":"41512","city":"Ashcamp","state":"KY","lat":37.2589,"long":-82.4613},{"zip":"41513","city":"Belcher","state":"KY","lat":37.3478,"long":-82.3406},{"zip":"41514","city":"Belfry","state":"KY","lat":37.6401,"long":-82.2573},{"zip":"41519","city":"Canada","state":"KY","lat":37.5899,"long":-82.3308},{"zip":"41520","city":"Dorton","state":"KY","lat":37.279,"long":-82.5773},{"zip":"41522","city":"Elkhorn City","state":"KY","lat":37.3109,"long":-82.4091},{"zip":"41524","city":"Fedscreek","state":"KY","lat":37.4266,"long":-82.2562},{"zip":"41526","city":"Fords Branch","state":"KY","lat":37.4332,"long":-82.511},{"zip":"41527","city":"Forest Hills","state":"KY","lat":37.6432,"long":-82.2991},{"zip":"41528","city":"Freeburn","state":"KY","lat":37.5512,"long":-82.1434},{"zip":"41531","city":"Hardy","state":"KY","lat":37.5928,"long":-82.2328},{"zip":"41534","city":"Hellier","state":"KY","lat":37.2876,"long":-82.4713},{"zip":"41535","city":"Huddy","state":"KY","lat":37.5964,"long":-82.2797},{"zip":"41538","city":"Jonancy","state":"KY","lat":37.4706,"long":-82.3488},{"zip":"41539","city":"Kimper","state":"KY","lat":37.5068,"long":-82.3271},{"zip":"41540","city":"Lick Creek","state":"KY","lat":37.3592,"long":-82.3092},{"zip":"41542","city":"Lookout","state":"KY","lat":37.3148,"long":-82.465},{"zip":"41543","city":"Mc Andrews","state":"KY","lat":37.5624,"long":-82.2803},{"zip":"41544","city":"Mc Carr","state":"KY","lat":37.5969,"long":-82.1674},{"zip":"41547","city":"Majestic","state":"KY","lat":37.5311,"long":-82.0916},{"zip":"41548","city":"Mouthcard","state":"KY","lat":37.3815,"long":-82.2727},{"zip":"41549","city":"Myra","state":"KY","lat":37.2898,"long":-82.5999},{"zip":"41553","city":"Phelps","state":"KY","lat":37.4987,"long":-82.1584},{"zip":"41554","city":"Phyllis","state":"KY","lat":37.4484,"long":-82.2985},{"zip":"41555","city":"Pinsonfork","state":"KY","lat":37.5466,"long":-82.2621},{"zip":"41557","city":"Raccoon","state":"KY","lat":37.4935,"long":-82.4221},{"zip":"41558","city":"Ransom","state":"KY","lat":37.5426,"long":-82.2085},{"zip":"41559","city":"Regina","state":"KY","lat":37.3744,"long":-82.3831},{"zip":"41560","city":"Robinson Creek","state":"KY","lat":37.3799,"long":-82.5616},{"zip":"41561","city":"Rockhouse","state":"KY","lat":37.3316,"long":-82.4626},{"zip":"41562","city":"Shelbiana","state":"KY","lat":37.4063,"long":-82.4673},{"zip":"41563","city":"Shelby Gap","state":"KY","lat":37.2311,"long":-82.5286},{"zip":"41564","city":"Sidney","state":"KY","lat":37.6076,"long":-82.3648},{"zip":"41566","city":"Steele","state":"KY","lat":37.4029,"long":-82.2071},{"zip":"41567","city":"Stone","state":"KY","lat":37.5859,"long":-82.271},{"zip":"41568","city":"Stopover","state":"KY","lat":37.5093,"long":-82.0784},{"zip":"41571","city":"Varney","state":"KY","lat":37.6275,"long":-82.4356},{"zip":"41572","city":"Virgie","state":"KY","lat":37.3197,"long":-82.6114}]
