[{"zip":"41601","city":"Allen","state":"KY","lat":37.6074,"long":-82.7225},{"zip":"41602","city":"Auxier","state":"KY","lat":37.737,"long":-82.7582},{"zip":"41603","city":"Banner","state":"KY","lat":37.5707,"long":-82.6806},{"zip":"41604","city":"Beaver","state":"KY","lat":37.3774,"long":-82.6869},{"zip":"41605","city":"Betsy Layne","state":"KY","lat":37.5555,"long":-82.6267},{"zip":"41606","city":"Bevinsville","state":"KY","lat":37.3465,"long":-82.7403},{"zip":"41607","city":"Blue River","state":"KY","lat":37.6253,"long":-82.8418},{"zip":"41612","city":"Bypro","state":"KY","lat":37.3465,"long":-82.7165},{"zip":"41615","city":"Dana","state":"KY","lat":37.5467,"long":-82.6705},{"zip":"41616","city":"David","state":"KY","lat":37.5767,"long":-82.8708},{"zip":"41619","city":"Drift","state":"KY","lat":37.4933,"long":-82.7575},{"zip":"41621","city":"Dwale","state":"KY","lat":37.6246,"long":-82.7227},{"zip":"41622","city":"Eastern","state":"KY","lat":37.517,"long":-82.806},{"zip":"41630","city":"Garrett","state":"KY","lat":37.4798,"long":-82.8316},{"zip":"41631","city":"Grethel","state":"KY","lat":37.4576,"long":-82.6645},{"zip":"41635","city":"Harold","state":"KY","lat":37.5368,"long":-82.6332},{"zip":"41636","city":"Hi Hat","state":"KY","lat":37.3994,"long":-82.7292},{"zip":"41640","city":"Hueysville","state":"KY","lat":37.5087,"long":-82.8518},{"zip":"41642","city":"Ivel","state":"KY","lat":37.5956,"long":-82.6463},{"zip":"41643","city":"Lackey","state":"KY","lat":37.471,"long":-82.8294},{"zip":"41645","city":"Langley","state":"KY","lat":37.5381,"long":-82.7976},{"zip":"41647","city":"Mc Dowell","state":"KY","lat":37.4355,"long":-82.7203},{"zip":"41649","city":"Martin","state":"KY","lat":37.5708,"long":-82.7819},{"zip":"41650","city":"Melvin","state":"KY","lat":37.3536,"long":-82.6763},{"zip":"41651","city":"Minnie","state":"KY","lat":37.4548,"long":-82.7646},{"zip":"41653","city":"Prestonsburg","state":"KY","lat":37.661,"long":-82.7636},{"zip":"41655","city":"Printer","state":"KY","lat":37.5055,"long":-82.706},{"zip":"41659","city":"Stanville","state":"KY","lat":37.5741,"long":-82.6271},{"zip":"41660","city":"Teaberry","state":"KY","lat":37.422,"long":-82.6405},{"zip":"41663","city":"Tram","state":"KY","lat":37.5725,"long":-82.6452},{"zip":"41666","city":"Wayland","state":"KY","lat":37.4367,"long":-82.801},{"zip":"41667","city":"Weeksbury","state":"KY","lat":37.317,"long":-82.7041},{"zip":"41669","city":"Wheelwright","state":"KY","lat":37.3314,"long":-82.7156},{"zip":"41632","city":"Gunlock","state":"KY","lat":37.5892,"long":-82.9452}]
