[{"zip":"41725","city":"Carrie","state":"KY","lat":37.3318,"long":-83.0327},{"zip":"41740","city":"Emmalena","state":"KY","lat":37.3499,"long":-83.0471},{"zip":"41743","city":"Fisty","state":"KY","lat":37.3064,"long":-83.0904},{"zip":"41759","city":"Sassafras","state":"KY","lat":37.2207,"long":-83.0552},{"zip":"41772","city":"Vest","state":"KY","lat":37.4073,"long":-83.0153},{"zip":"41714","city":"Bear Branch","state":"KY","lat":37.1939,"long":-83.5035},{"zip":"41749","city":"Hyden","state":"KY","lat":37.1877,"long":-83.4169},{"zip":"41762","city":"Sizerock","state":"KY","lat":37.2187,"long":-83.4974},{"zip":"41764","city":"Smilax","state":"KY","lat":37.1214,"long":-83.2539},{"zip":"41766","city":"Thousandsticks","state":"KY","lat":37.1586,"long":-83.3847},{"zip":"41775","city":"Wendover","state":"KY","lat":37.1079,"long":-83.3563},{"zip":"41776","city":"Wooton","state":"KY","lat":37.1671,"long":-83.2913},{"zip":"41777","city":"Yeaddiss","state":"KY","lat":37.0565,"long":-83.2361},{"zip":"41701","city":"Hazard","state":"KY","lat":37.2983,"long":-83.1912},{"zip":"41702","city":"Hazard","state":"KY","lat":37.2495,"long":-83.1932},{"zip":"41712","city":"Ary","state":"KY","lat":37.3638,"long":-83.1546},{"zip":"41713","city":"Avawam","state":"KY","lat":37.2254,"long":-83.2736},{"zip":"41719","city":"Bonnyman","state":"KY","lat":37.2983,"long":-83.2544},{"zip":"41721","city":"Buckhorn","state":"KY","lat":37.301,"long":-83.4936},{"zip":"41722","city":"Bulan","state":"KY","lat":37.315,"long":-83.1561},{"zip":"41723","city":"Busy","state":"KY","lat":37.2632,"long":-83.3007},{"zip":"41727","city":"Chavies","state":"KY","lat":37.3479,"long":-83.3563},{"zip":"41729","city":"Combs","state":"KY","lat":37.2649,"long":-83.2174},{"zip":"41731","city":"Cornettsville","state":"KY","lat":37.134,"long":-83.0768},{"zip":"41735","city":"Delphia","state":"KY","lat":37.0233,"long":-83.0956},{"zip":"41736","city":"Dice","state":"KY","lat":37.3758,"long":-83.2419},{"zip":"41739","city":"Dwarf","state":"KY","lat":37.3394,"long":-83.1303},{"zip":"41745","city":"Gays Creek","state":"KY","lat":37.3353,"long":-83.4347},{"zip":"41746","city":"Happy","state":"KY","lat":37.2101,"long":-83.0917},{"zip":"41751","city":"Jeff","state":"KY","lat":37.2184,"long":-83.1427},{"zip":"41754","city":"Krypton","state":"KY","lat":37.3003,"long":-83.3219},{"zip":"41760","city":"Scuddy","state":"KY","lat":37.1971,"long":-83.0817},{"zip":"41763","city":"Slemp","state":"KY","lat":37.0705,"long":-83.1136},{"zip":"41773","city":"Vicco","state":"KY","lat":37.202,"long":-83.0658},{"zip":"41774","city":"Viper","state":"KY","lat":37.1585,"long":-83.1405},{"zip":"41778","city":"Yerkes","state":"KY","lat":37.283,"long":-83.3212}]
