[{"zip":"41817","city":"Garner","state":"KY","lat":37.3676,"long":-82.9107},{"zip":"41822","city":"Hindman","state":"KY","lat":37.3359,"long":-82.9804},{"zip":"41828","city":"Kite","state":"KY","lat":37.3136,"long":-82.7975},{"zip":"41831","city":"Leburn","state":"KY","lat":37.3794,"long":-82.9523},{"zip":"41834","city":"Littcarr","state":"KY","lat":37.2409,"long":-82.9488},{"zip":"41836","city":"Mallie","state":"KY","lat":37.2692,"long":-82.9161},{"zip":"41839","city":"Mousie","state":"KY","lat":37.4331,"long":-82.9018},{"zip":"41843","city":"Pine Top","state":"KY","lat":37.2868,"long":-82.8741},{"zip":"41844","city":"Pippa Passes","state":"KY","lat":37.3491,"long":-82.8742},{"zip":"41847","city":"Redfox","state":"KY","lat":37.2172,"long":-82.9424},{"zip":"41859","city":"Dema","state":"KY","lat":37.3976,"long":-82.7836},{"zip":"41861","city":"Raven","state":"KY","lat":37.4043,"long":-82.8261},{"zip":"41862","city":"Topmost","state":"KY","lat":37.3485,"long":-82.7926},{"zip":"41804","city":"Blackey","state":"KY","lat":37.1551,"long":-82.9956},{"zip":"41810","city":"Cromona","state":"KY","lat":37.1865,"long":-82.6971},{"zip":"41812","city":"Deane","state":"KY","lat":37.2409,"long":-82.7696},{"zip":"41815","city":"Ermine","state":"KY","lat":37.1615,"long":-82.7974},{"zip":"41819","city":"Gordon","state":"KY","lat":36.9891,"long":-83.0655},{"zip":"41821","city":"Hallie","state":"KY","lat":37.0837,"long":-83.0027},{"zip":"41824","city":"Isom","state":"KY","lat":37.1932,"long":-82.8754},{"zip":"41825","city":"Jackhorn","state":"KY","lat":37.2246,"long":-82.7228},{"zip":"41826","city":"Jeremiah","state":"KY","lat":37.1699,"long":-82.9258},{"zip":"41832","city":"Letcher","state":"KY","lat":37.1531,"long":-82.9548},{"zip":"41833","city":"Linefork","state":"KY","lat":37.0233,"long":-82.9878},{"zip":"41835","city":"Mc Roberts","state":"KY","lat":37.2137,"long":-82.6734},{"zip":"41837","city":"Mayking","state":"KY","lat":37.1302,"long":-82.7427},{"zip":"41838","city":"Millstone","state":"KY","lat":37.1766,"long":-82.7517},{"zip":"41840","city":"Neon","state":"KY","lat":37.1876,"long":-82.711},{"zip":"41845","city":"Premium","state":"KY","lat":37.1252,"long":-82.9035},{"zip":"41848","city":"Roxana","state":"KY","lat":37.1102,"long":-82.9407},{"zip":"41849","city":"Seco","state":"KY","lat":37.1765,"long":-82.7358},{"zip":"41855","city":"Thornton","state":"KY","lat":37.1906,"long":-82.7851},{"zip":"41858","city":"Whitesburg","state":"KY","lat":37.1388,"long":-82.855}]
