[{"zip":"42715","city":"Breeding","state":"KY","lat":36.9553,"long":-85.4036},{"zip":"42720","city":"Cane Valley","state":"KY","lat":37.1803,"long":-85.3197},{"zip":"42728","city":"Columbia","state":"KY","lat":37.1161,"long":-85.2656},{"zip":"42741","city":"Glens Fork","state":"KY","lat":37.007,"long":-85.2487},{"zip":"42742","city":"Gradyville","state":"KY","lat":37.0912,"long":-85.465},{"zip":"42753","city":"Knifley","state":"KY","lat":37.2313,"long":-85.172},{"zip":"42120","city":"Adolphus","state":"KY","lat":36.6775,"long":-86.2636},{"zip":"42153","city":"Holland","state":"KY","lat":36.6673,"long":-86.0498},{"zip":"42164","city":"Scottsville","state":"KY","lat":36.7614,"long":-86.1929},{"zip":"42022","city":"Bandana","state":"KY","lat":37.1459,"long":-88.9455},{"zip":"42024","city":"Barlow","state":"KY","lat":37.0493,"long":-89.0408},{"zip":"42056","city":"La Center","state":"KY","lat":37.083,"long":-88.973},{"zip":"42060","city":"Lovelaceville","state":"KY","lat":36.9687,"long":-88.8309},{"zip":"42087","city":"Wickliffe","state":"KY","lat":36.968,"long":-89.0177},{"zip":"42123","city":"Austin","state":"KY","lat":36.8124,"long":-85.985},{"zip":"42127","city":"Cave City","state":"KY","lat":37.117,"long":-85.9443},{"zip":"42130","city":"Eighty Eight","state":"KY","lat":36.913,"long":-85.7753},{"zip":"42131","city":"Etoile","state":"KY","lat":36.8134,"long":-85.9173},{"zip":"42141","city":"Glasgow","state":"KY","lat":36.9882,"long":-85.9221},{"zip":"42142","city":"Glasgow","state":"KY","lat":36.9959,"long":-85.9119},{"zip":"42152","city":"Hiseville","state":"KY","lat":37.0988,"long":-85.8165},{"zip":"42156","city":"Lucas","state":"KY","lat":36.8516,"long":-86.0523},{"zip":"42160","city":"Park City","state":"KY","lat":37.0939,"long":-86.0464},{"zip":"42201","city":"Aberdeen","state":"KY","lat":37.2539,"long":-86.6817},{"zip":"42219","city":"Dunbar","state":"KY","lat":37.1709,"long":-86.7678},{"zip":"42252","city":"Jetson","state":"KY","lat":37.2483,"long":-86.5093},{"zip":"42261","city":"Morgantown","state":"KY","lat":37.2002,"long":-86.6859},{"zip":"42273","city":"Rochester","state":"KY","lat":37.2048,"long":-86.8592},{"zip":"42288","city":"Woodbury","state":"KY","lat":37.1834,"long":-86.6339},{"zip":"42411","city":"Fredonia","state":"KY","lat":37.213,"long":-88.0112},{"zip":"42445","city":"Princeton","state":"KY","lat":37.1151,"long":-87.8632},{"zip":"42020","city":"Almo","state":"KY","lat":36.6923,"long":-88.2929},{"zip":"42036","city":"Dexter","state":"KY","lat":36.7155,"long":-88.236},{"zip":"42049","city":"Hazel","state":"KY","lat":36.5422,"long":-88.3319},{"zip":"42054","city":"Kirksey","state":"KY","lat":36.6731,"long":-88.4238},{"zip":"42071","city":"Murray","state":"KY","lat":36.6099,"long":-88.3032},{"zip":"42076","city":"New Concord","state":"KY","lat":36.55,"long":-88.0955},{"zip":"42021","city":"Arlington","state":"KY","lat":36.7903,"long":-89.0128},{"zip":"42023","city":"Bardwell","state":"KY","lat":36.8634,"long":-89.0209},{"zip":"42035","city":"Cunningham","state":"KY","lat":36.8963,"long":-88.8728},{"zip":"42070","city":"Milburn","state":"KY","lat":36.7987,"long":-88.8998},{"zip":"42516","city":"Bethelridge","state":"KY","lat":37.2337,"long":-84.7583},{"zip":"42528","city":"Dunnville","state":"KY","lat":37.1906,"long":-84.9835},{"zip":"42539","city":"Liberty","state":"KY","lat":37.3146,"long":-84.9719},{"zip":"42541","city":"Middleburg","state":"KY","lat":37.3591,"long":-84.8321},{"zip":"42565","city":"Windsor","state":"KY","lat":37.1568,"long":-84.8799},{"zip":"42566","city":"Yosemite","state":"KY","lat":37.3074,"long":-84.8124},{"zip":"42217","city":"Crofton","state":"KY","lat":37.0344,"long":-87.4891},{"zip":"42221","city":"Fairview","state":"KY","lat":36.8434,"long":-87.3039},{"zip":"42223","city":"Fort Campbell","state":"KY","lat":36.5995,"long":-87.5585},{"zip":"42232","city":"Gracey","state":"KY","lat":36.8564,"long":-87.6545},{"zip":"42236","city":"Herndon","state":"KY","lat":36.7085,"long":-87.6082},{"zip":"42240","city":"Hopkinsville","state":"KY","lat":36.8621,"long":-87.4851},{"zip":"42241","city":"Hopkinsville","state":"KY","lat":36.8656,"long":-87.4912},{"zip":"42254","city":"La Fayette","state":"KY","lat":36.6582,"long":-87.6563},{"zip":"42262","city":"Oak Grove","state":"KY","lat":36.6652,"long":-87.4255},{"zip":"42266","city":"Pembroke","state":"KY","lat":36.7759,"long":-87.3556},{"zip":"42602","city":"Albany","state":"KY","lat":36.6857,"long":-85.1407},{"zip":"42603","city":"Alpha","state":"KY","lat":36.7824,"long":-85.0275},{"zip":"42033","city":"Crayne","state":"KY","lat":37.2706,"long":-88.0825},{"zip":"42037","city":"Dycusburg","state":"KY","lat":37.1595,"long":-88.1845},{"zip":"42064","city":"Marion","state":"KY","lat":37.3254,"long":-88.1005},{"zip":"42717","city":"Burkesville","state":"KY","lat":36.8068,"long":-85.397},{"zip":"42759","city":"Marrowbone","state":"KY","lat":36.8306,"long":-85.5015},{"zip":"42301","city":"Owensboro","state":"KY","lat":37.7513,"long":-87.1554},{"zip":"42302","city":"Owensboro","state":"KY","lat":37.7455,"long":-87.1128},{"zip":"42303","city":"Owensboro","state":"KY","lat":37.7559,"long":-87.0803},{"zip":"42304","city":"Owensboro","state":"KY","lat":37.7455,"long":-87.1128},{"zip":"42334","city":"Curdsville","state":"KY","lat":37.735,"long":-87.3317},{"zip":"42355","city":"Maceo","state":"KY","lat":37.8436,"long":-86.9999},{"zip":"42356","city":"Maple Mount","state":"KY","lat":37.6932,"long":-87.3238},{"zip":"42366","city":"Philpot","state":"KY","lat":37.7183,"long":-86.9372},{"zip":"42376","city":"Utica","state":"KY","lat":37.6206,"long":-87.0591},{"zip":"42377","city":"West Louisville","state":"KY","lat":37.6967,"long":-87.2869},{"zip":"42378","city":"Whitesville","state":"KY","lat":37.6834,"long":-86.8699},{"zip":"42163","city":"Rocky Hill","state":"KY","lat":37.0943,"long":-86.1432},{"zip":"42207","city":"Bee Spring","state":"KY","lat":37.2975,"long":-86.2794},{"zip":"42210","city":"Brownsville","state":"KY","lat":37.2229,"long":-86.2923},{"zip":"42259","city":"Mammoth Cave","state":"KY","lat":37.2802,"long":-86.1688},{"zip":"42275","city":"Roundhill","state":"KY","lat":37.256,"long":-86.407},{"zip":"42285","city":"Sweeden","state":"KY","lat":37.2641,"long":-86.2978},{"zip":"42041","city":"Fulton","state":"KY","lat":36.5475,"long":-88.8749},{"zip":"42050","city":"Hickman","state":"KY","lat":36.5593,"long":-89.1947},{"zip":"42027","city":"Boaz","state":"KY","lat":36.93,"long":-88.6223},{"zip":"42039","city":"Fancy Farm","state":"KY","lat":36.7767,"long":-88.7918},{"zip":"42040","city":"Farmington","state":"KY","lat":36.6,"long":-88.5186},{"zip":"42051","city":"Hickory","state":"KY","lat":36.8478,"long":-88.6788},{"zip":"42061","city":"Lowes","state":"KY","lat":36.8862,"long":-88.7728},{"zip":"42063","city":"Lynnville","state":"KY","lat":36.5603,"long":-88.5692},{"zip":"42066","city":"Mayfield","state":"KY","lat":36.7327,"long":-88.6506},{"zip":"42069","city":"Melber","state":"KY","lat":36.9197,"long":-88.752},{"zip":"42079","city":"Sedalia","state":"KY","lat":36.5748,"long":-88.5815},{"zip":"42082","city":"Symsonia","state":"KY","lat":36.9044,"long":-88.5153},{"zip":"42085","city":"Water Valley","state":"KY","lat":36.5694,"long":-88.8084},{"zip":"42088","city":"Wingo","state":"KY","lat":36.6253,"long":-88.7394},{"zip":"42712","city":"Big Clifty","state":"KY","lat":37.5278,"long":-86.1395},{"zip":"42721","city":"Caneyville","state":"KY","lat":37.4222,"long":-86.4702},{"zip":"42726","city":"Clarkson","state":"KY","lat":37.4336,"long":-86.2083},{"zip":"42754","city":"Leitchfield","state":"KY","lat":37.4603,"long":-86.3249},{"zip":"42755","city":"Leitchfield","state":"KY","lat":37.4801,"long":-86.2939},{"zip":"42762","city":"Millwood","state":"KY","lat":37.4446,"long":-86.4008},{"zip":"42743","city":"Greensburg","state":"KY","lat":37.243,"long":-85.5236},{"zip":"42782","city":"Summersville","state":"KY","lat":37.3419,"long":-85.6194},{"zip":"42348","city":"Hawesville","state":"KY","lat":37.8503,"long":-86.7638},{"zip":"42351","city":"Lewisport","state":"KY","lat":37.909,"long":-86.8957},{"zip":"42364","city":"Pellville","state":"KY","lat":37.7523,"long":-86.8136},{"zip":"42368","city":"Reynolds Station","state":"KY","lat":37.7403,"long":-86.7414},{"zip":"42701","city":"Elizabethtown","state":"KY","lat":37.6848,"long":-85.8784},{"zip":"42702","city":"Elizabethtown","state":"KY","lat":37.694,"long":-85.8591},{"zip":"42724","city":"Cecilia","state":"KY","lat":37.669,"long":-86.0545},{"zip":"42732","city":"Eastview","state":"KY","lat":37.6061,"long":-86.0906},{"zip":"42740","city":"Glendale","state":"KY","lat":37.6034,"long":-85.8921},{"zip":"42776","city":"Sonora","state":"KY","lat":37.5221,"long":-85.923},{"zip":"42784","city":"Upton","state":"KY","lat":37.4568,"long":-85.9086},{"zip":"42788","city":"White Mills","state":"KY","lat":37.5438,"long":-86.0395},{"zip":"42713","city":"Bonnieville","state":"KY","lat":37.3741,"long":-85.896},{"zip":"42722","city":"Canmer","state":"KY","lat":37.2696,"long":-85.7203},{"zip":"42729","city":"Cub Run","state":"KY","lat":37.3149,"long":-86.0813},{"zip":"42746","city":"Hardyville","state":"KY","lat":37.2249,"long":-85.7542},{"zip":"42749","city":"Horse Cave","state":"KY","lat":37.1849,"long":-85.8785},{"zip":"42765","city":"Munfordville","state":"KY","lat":37.2898,"long":-85.9201},{"zip":"42402","city":"Baskett","state":"KY","lat":37.8709,"long":-87.4625},{"zip":"42406","city":"Corydon","state":"KY","lat":37.7443,"long":-87.7},{"zip":"42419","city":"Henderson","state":"KY","lat":37.8072,"long":-87.5991},{"zip":"42420","city":"Henderson","state":"KY","lat":37.8274,"long":-87.5632},{"zip":"42451","city":"Reed","state":"KY","lat":37.8588,"long":-87.3704},{"zip":"42452","city":"Robards","state":"KY","lat":37.6758,"long":-87.5266},{"zip":"42457","city":"Smith Mills","state":"KY","lat":37.8323,"long":-87.7889},{"zip":"42458","city":"Spottsville","state":"KY","lat":37.8399,"long":-87.4247},{"zip":"42031","city":"Clinton","state":"KY","lat":36.6675,"long":-88.9676},{"zip":"42032","city":"Columbus","state":"KY","lat":36.7598,"long":-89.1034},{"zip":"42408","city":"Dawson Springs","state":"KY","lat":37.1964,"long":-87.6821},{"zip":"42410","city":"Earlington","state":"KY","lat":37.2742,"long":-87.5119},{"zip":"42413","city":"Hanson","state":"KY","lat":37.4382,"long":-87.4751},{"zip":"42431","city":"Madisonville","state":"KY","lat":37.3256,"long":-87.4953},{"zip":"42436","city":"Manitou","state":"KY","lat":37.4067,"long":-87.5639},{"zip":"42440","city":"Mortons Gap","state":"KY","lat":37.249,"long":-87.4615},{"zip":"42441","city":"Nebo","state":"KY","lat":37.3683,"long":-87.6865},{"zip":"42442","city":"Nortonville","state":"KY","lat":37.1834,"long":-87.4605},{"zip":"42453","city":"Saint Charles","state":"KY","lat":37.1604,"long":-87.5697},{"zip":"42464","city":"White Plains","state":"KY","lat":37.1788,"long":-87.3644},{"zip":"42716","city":"Buffalo","state":"KY","lat":37.4786,"long":-85.6434},{"zip":"42748","city":"Hodgenville","state":"KY","lat":37.5746,"long":-85.7232},{"zip":"42757","city":"Magnolia","state":"KY","lat":37.4165,"long":-85.7308},{"zip":"42764","city":"Mount Sherman","state":"KY","lat":37.426,"long":-85.6191},{"zip":"42028","city":"Burna","state":"KY","lat":37.2392,"long":-88.3379},{"zip":"42045","city":"Grand Rivers","state":"KY","lat":37.0762,"long":-88.2647},{"zip":"42047","city":"Hampton","state":"KY","lat":37.2831,"long":-88.3714},{"zip":"42058","city":"Ledbetter","state":"KY","lat":37.0611,"long":-88.4665},{"zip":"42078","city":"Salem","state":"KY","lat":37.2553,"long":-88.2711},{"zip":"42081","city":"Smithland","state":"KY","lat":37.2387,"long":-88.3757},{"zip":"42083","city":"Tiline","state":"KY","lat":37.1457,"long":-88.285},{"zip":"42202","city":"Adairville","state":"KY","lat":36.6914,"long":-86.8585},{"zip":"42206","city":"Auburn","state":"KY","lat":36.8818,"long":-86.7198},{"zip":"42256","city":"Lewisburg","state":"KY","lat":37.0037,"long":-86.9887},{"zip":"42265","city":"Olmstead","state":"KY","lat":36.7595,"long":-86.9804},{"zip":"42276","city":"Russellville","state":"KY","lat":36.8453,"long":-86.8823},{"zip":"42038","city":"Eddyville","state":"KY","lat":37.0664,"long":-88.0494},{"zip":"42055","city":"Kuttawa","state":"KY","lat":37.0619,"long":-88.1498},{"zip":"42001","city":"Paducah","state":"KY","lat":37.0634,"long":-88.6632},{"zip":"42002","city":"Paducah","state":"KY","lat":37.0855,"long":-88.7125},{"zip":"42003","city":"Paducah","state":"KY","lat":37.0368,"long":-88.5934},{"zip":"42053","city":"Kevil","state":"KY","lat":37.0872,"long":-88.8764},{"zip":"42086","city":"West Paducah","state":"KY","lat":37.0922,"long":-88.7611},{"zip":"42631","city":"Marshes Siding","state":"KY","lat":36.7773,"long":-84.5025},{"zip":"42634","city":"Parkers Lake","state":"KY","lat":36.8347,"long":-84.4436},{"zip":"42635","city":"Pine Knot","state":"KY","lat":36.6807,"long":-84.3984},{"zip":"42638","city":"Revelo","state":"KY","lat":36.6734,"long":-84.4722},{"zip":"42647","city":"Stearns","state":"KY","lat":36.7082,"long":-84.5165},{"zip":"42649","city":"Strunk","state":"KY","lat":36.6191,"long":-84.4308},{"zip":"42653","city":"Whitley City","state":"KY","lat":36.7217,"long":-84.4676},{"zip":"42322","city":"Beech Grove","state":"KY","lat":37.6151,"long":-87.4069},{"zip":"42327","city":"Calhoun","state":"KY","lat":37.575,"long":-87.2773},{"zip":"42350","city":"Island","state":"KY","lat":37.4471,"long":-87.1692},{"zip":"42352","city":"Livermore","state":"KY","lat":37.5045,"long":-87.1239},{"zip":"42371","city":"Rumsey","state":"KY","lat":37.5076,"long":-87.2806},{"zip":"42372","city":"Sacramento","state":"KY","lat":37.4177,"long":-87.2736},{"zip":"42025","city":"Benton","state":"KY","lat":36.8806,"long":-88.3548},{"zip":"42029","city":"Calvert City","state":"KY","lat":37.0147,"long":-88.3811},{"zip":"42044","city":"Gilbertsville","state":"KY","lat":36.9655,"long":-88.2667},{"zip":"42048","city":"Hardin","state":"KY","lat":36.7762,"long":-88.2622},{"zip":"42124","city":"Beaumont","state":"KY","lat":36.8705,"long":-85.644},{"zip":"42129","city":"Edmonton","state":"KY","lat":37.0008,"long":-85.6095},{"zip":"42154","city":"Knob Lick","state":"KY","lat":37.0556,"long":-85.6985},{"zip":"42166","city":"Summer Shade","state":"KY","lat":36.8883,"long":-85.7083},{"zip":"42214","city":"Center","state":"KY","lat":37.1177,"long":-85.7038},{"zip":"42133","city":"Fountain Run","state":"KY","lat":36.72,"long":-85.952},{"zip":"42140","city":"Gamaliel","state":"KY","lat":36.654,"long":-85.8134},{"zip":"42151","city":"Hestand","state":"KY","lat":36.6535,"long":-85.5698},{"zip":"42157","city":"Mount Hermon","state":"KY","lat":36.7723,"long":-85.8195},{"zip":"42167","city":"Tompkinsville","state":"KY","lat":36.7236,"long":-85.7009},{"zip":"42321","city":"Beech Creek","state":"KY","lat":37.1716,"long":-87.0559},{"zip":"42323","city":"Beechmont","state":"KY","lat":37.1737,"long":-87.0349},{"zip":"42324","city":"Belton","state":"KY","lat":37.1511,"long":-86.9774},{"zip":"42325","city":"Bremen","state":"KY","lat":37.343,"long":-87.233},{"zip":"42326","city":"Browder","state":"KY","lat":37.1999,"long":-87.0001},{"zip":"42330","city":"Central City","state":"KY","lat":37.3007,"long":-87.1202},{"zip":"42332","city":"Cleaton","state":"KY","lat":37.2533,"long":-87.0897},{"zip":"42337","city":"Drakesboro","state":"KY","lat":37.2136,"long":-87.048},{"zip":"42339","city":"Dunmor","state":"KY","lat":37.084,"long":-87.0079},{"zip":"42344","city":"Graham","state":"KY","lat":37.2467,"long":-87.2976},{"zip":"42345","city":"Greenville","state":"KY","lat":37.2076,"long":-87.1806},{"zip":"42367","city":"Powderly","state":"KY","lat":37.2429,"long":-87.1549},{"zip":"42374","city":"South Carrollton","state":"KY","lat":37.3375,"long":-87.1419},{"zip":"42320","city":"Beaver Dam","state":"KY","lat":37.387,"long":-86.8729},{"zip":"42328","city":"Centertown","state":"KY","lat":37.4079,"long":-87.009},{"zip":"42333","city":"Cromwell","state":"KY","lat":37.3418,"long":-86.77},{"zip":"42338","city":"Dundee","state":"KY","lat":37.552,"long":-86.7776},{"zip":"42343","city":"Fordsville","state":"KY","lat":37.6297,"long":-86.7263},{"zip":"42347","city":"Hartford","state":"KY","lat":37.4785,"long":-86.918},{"zip":"42349","city":"Horse Branch","state":"KY","lat":37.4234,"long":-86.6987},{"zip":"42354","city":"Mc Henry","state":"KY","lat":37.3778,"long":-86.9298},{"zip":"42361","city":"Olaton","state":"KY","lat":37.5259,"long":-86.6875},{"zip":"42369","city":"Rockport","state":"KY","lat":37.3554,"long":-87.0065},{"zip":"42370","city":"Rosine","state":"KY","lat":37.449,"long":-86.7389},{"zip":"42501","city":"Somerset","state":"KY","lat":37.1029,"long":-84.5443},{"zip":"42502","city":"Somerset","state":"KY","lat":37.092,"long":-84.6041},{"zip":"42503","city":"Somerset","state":"KY","lat":37.1566,"long":-84.5248},{"zip":"42518","city":"Bronston","state":"KY","lat":36.9525,"long":-84.6314},{"zip":"42519","city":"Burnside","state":"KY","lat":36.9393,"long":-84.5357},{"zip":"42533","city":"Ferguson","state":"KY","lat":37.0677,"long":-84.5927},{"zip":"42544","city":"Nancy","state":"KY","lat":37.0631,"long":-84.7192},{"zip":"42553","city":"Science Hill","state":"KY","lat":37.1683,"long":-84.6487},{"zip":"42558","city":"Tateville","state":"KY","lat":36.9492,"long":-84.5815},{"zip":"42564","city":"West Somerset","state":"KY","lat":37.1114,"long":-84.5929},{"zip":"42567","city":"Eubank","state":"KY","lat":37.2642,"long":-84.6066},{"zip":"42629","city":"Jamestown","state":"KY","lat":36.968,"long":-85.0968},{"zip":"42642","city":"Russell Springs","state":"KY","lat":37.0551,"long":-85.0375},{"zip":"42134","city":"Franklin","state":"KY","lat":36.7254,"long":-86.57},{"zip":"42135","city":"Franklin","state":"KY","lat":36.7223,"long":-86.5772},{"zip":"42718","city":"Campbellsville","state":"KY","lat":37.3466,"long":-85.3508},{"zip":"42719","city":"Campbellsville","state":"KY","lat":37.3379,"long":-85.3304},{"zip":"42733","city":"Elk Horn","state":"KY","lat":37.3393,"long":-85.1918},{"zip":"42758","city":"Mannsville","state":"KY","lat":37.3726,"long":-85.1966},{"zip":"42204","city":"Allensville","state":"KY","lat":36.7167,"long":-87.0661},{"zip":"42216","city":"Clifty","state":"KY","lat":37.0045,"long":-87.1521},{"zip":"42220","city":"Elkton","state":"KY","lat":36.9094,"long":-87.1678},{"zip":"42234","city":"Guthrie","state":"KY","lat":36.7149,"long":-87.1502},{"zip":"42280","city":"Sharon Grove","state":"KY","lat":36.9278,"long":-87.1003},{"zip":"42286","city":"Trenton","state":"KY","lat":36.7314,"long":-87.2611},{"zip":"42211","city":"Cadiz","state":"KY","lat":36.802,"long":-87.8286},{"zip":"42215","city":"Cerulean","state":"KY","lat":36.9496,"long":-87.6648},{"zip":"42437","city":"Morganfield","state":"KY","lat":37.6869,"long":-87.9439},{"zip":"42459","city":"Sturgis","state":"KY","lat":37.5487,"long":-87.9965},{"zip":"42460","city":"Sullivan","state":"KY","lat":37.494,"long":-87.9328},{"zip":"42461","city":"Uniontown","state":"KY","lat":37.7677,"long":-87.9263},{"zip":"42462","city":"Waverly","state":"KY","lat":37.743,"long":-87.8067},{"zip":"42101","city":"Bowling Green","state":"KY","lat":37.0174,"long":-86.4518},{"zip":"42102","city":"Bowling Green","state":"KY","lat":36.9223,"long":-86.387},{"zip":"42103","city":"Bowling Green","state":"KY","lat":36.9663,"long":-86.3933},{"zip":"42104","city":"Bowling Green","state":"KY","lat":36.9375,"long":-86.4481},{"zip":"42122","city":"Alvaton","state":"KY","lat":36.863,"long":-86.3632},{"zip":"42128","city":"Drake","state":"KY","lat":36.9834,"long":-86.394},{"zip":"42159","city":"Oakland","state":"KY","lat":36.9985,"long":-86.2501},{"zip":"42170","city":"Woodburn","state":"KY","lat":36.8557,"long":-86.5623},{"zip":"42171","city":"Smiths Grove","state":"KY","lat":37.0581,"long":-86.1938},{"zip":"42274","city":"Rockfield","state":"KY","lat":36.9241,"long":-86.5979},{"zip":"42633","city":"Monticello","state":"KY","lat":36.8674,"long":-84.8254},{"zip":"42404","city":"Clay","state":"KY","lat":37.4756,"long":-87.8368},{"zip":"42409","city":"Dixon","state":"KY","lat":37.5106,"long":-87.7019},{"zip":"42444","city":"Poole","state":"KY","lat":37.641,"long":-87.6439},{"zip":"42450","city":"Providence","state":"KY","lat":37.405,"long":-87.7505},{"zip":"42455","city":"Sebree","state":"KY","lat":37.5889,"long":-87.5255},{"zip":"42456","city":"Slaughters","state":"KY","lat":37.5054,"long":-87.5053},{"zip":"42463","city":"Wheatcroft","state":"KY","lat":37.488,"long":-87.8661}]
