[{"zip":"42022","city":"Bandana","state":"KY","lat":37.1459,"long":-88.9455},{"zip":"42024","city":"Barlow","state":"KY","lat":37.0493,"long":-89.0408},{"zip":"42056","city":"La Center","state":"KY","lat":37.083,"long":-88.973},{"zip":"42060","city":"Lovelaceville","state":"KY","lat":36.9687,"long":-88.8309},{"zip":"42087","city":"Wickliffe","state":"KY","lat":36.968,"long":-89.0177},{"zip":"42020","city":"Almo","state":"KY","lat":36.6923,"long":-88.2929},{"zip":"42036","city":"Dexter","state":"KY","lat":36.7155,"long":-88.236},{"zip":"42049","city":"Hazel","state":"KY","lat":36.5422,"long":-88.3319},{"zip":"42054","city":"Kirksey","state":"KY","lat":36.6731,"long":-88.4238},{"zip":"42071","city":"Murray","state":"KY","lat":36.6099,"long":-88.3032},{"zip":"42076","city":"New Concord","state":"KY","lat":36.55,"long":-88.0955},{"zip":"42021","city":"Arlington","state":"KY","lat":36.7903,"long":-89.0128},{"zip":"42023","city":"Bardwell","state":"KY","lat":36.8634,"long":-89.0209},{"zip":"42035","city":"Cunningham","state":"KY","lat":36.8963,"long":-88.8728},{"zip":"42070","city":"Milburn","state":"KY","lat":36.7987,"long":-88.8998},{"zip":"42033","city":"Crayne","state":"KY","lat":37.2706,"long":-88.0825},{"zip":"42037","city":"Dycusburg","state":"KY","lat":37.1595,"long":-88.1845},{"zip":"42064","city":"Marion","state":"KY","lat":37.3254,"long":-88.1005},{"zip":"42041","city":"Fulton","state":"KY","lat":36.5475,"long":-88.8749},{"zip":"42050","city":"Hickman","state":"KY","lat":36.5593,"long":-89.1947},{"zip":"42027","city":"Boaz","state":"KY","lat":36.93,"long":-88.6223},{"zip":"42039","city":"Fancy Farm","state":"KY","lat":36.7767,"long":-88.7918},{"zip":"42040","city":"Farmington","state":"KY","lat":36.6,"long":-88.5186},{"zip":"42051","city":"Hickory","state":"KY","lat":36.8478,"long":-88.6788},{"zip":"42061","city":"Lowes","state":"KY","lat":36.8862,"long":-88.7728},{"zip":"42063","city":"Lynnville","state":"KY","lat":36.5603,"long":-88.5692},{"zip":"42066","city":"Mayfield","state":"KY","lat":36.7327,"long":-88.6506},{"zip":"42069","city":"Melber","state":"KY","lat":36.9197,"long":-88.752},{"zip":"42079","city":"Sedalia","state":"KY","lat":36.5748,"long":-88.5815},{"zip":"42082","city":"Symsonia","state":"KY","lat":36.9044,"long":-88.5153},{"zip":"42085","city":"Water Valley","state":"KY","lat":36.5694,"long":-88.8084},{"zip":"42088","city":"Wingo","state":"KY","lat":36.6253,"long":-88.7394},{"zip":"42031","city":"Clinton","state":"KY","lat":36.6675,"long":-88.9676},{"zip":"42032","city":"Columbus","state":"KY","lat":36.7598,"long":-89.1034},{"zip":"42028","city":"Burna","state":"KY","lat":37.2392,"long":-88.3379},{"zip":"42045","city":"Grand Rivers","state":"KY","lat":37.0762,"long":-88.2647},{"zip":"42047","city":"Hampton","state":"KY","lat":37.2831,"long":-88.3714},{"zip":"42058","city":"Ledbetter","state":"KY","lat":37.0611,"long":-88.4665},{"zip":"42078","city":"Salem","state":"KY","lat":37.2553,"long":-88.2711},{"zip":"42081","city":"Smithland","state":"KY","lat":37.2387,"long":-88.3757},{"zip":"42083","city":"Tiline","state":"KY","lat":37.1457,"long":-88.285},{"zip":"42038","city":"Eddyville","state":"KY","lat":37.0664,"long":-88.0494},{"zip":"42055","city":"Kuttawa","state":"KY","lat":37.0619,"long":-88.1498},{"zip":"42001","city":"Paducah","state":"KY","lat":37.0634,"long":-88.6632},{"zip":"42002","city":"Paducah","state":"KY","lat":37.0855,"long":-88.7125},{"zip":"42003","city":"Paducah","state":"KY","lat":37.0368,"long":-88.5934},{"zip":"42053","city":"Kevil","state":"KY","lat":37.0872,"long":-88.8764},{"zip":"42086","city":"West Paducah","state":"KY","lat":37.0922,"long":-88.7611},{"zip":"42025","city":"Benton","state":"KY","lat":36.8806,"long":-88.3548},{"zip":"42029","city":"Calvert City","state":"KY","lat":37.0147,"long":-88.3811},{"zip":"42044","city":"Gilbertsville","state":"KY","lat":36.9655,"long":-88.2667},{"zip":"42048","city":"Hardin","state":"KY","lat":36.7762,"long":-88.2622}]
