[{"zip":"42201","city":"Aberdeen","state":"KY","lat":37.2539,"long":-86.6817},{"zip":"42219","city":"Dunbar","state":"KY","lat":37.1709,"long":-86.7678},{"zip":"42252","city":"Jetson","state":"KY","lat":37.2483,"long":-86.5093},{"zip":"42261","city":"Morgantown","state":"KY","lat":37.2002,"long":-86.6859},{"zip":"42273","city":"Rochester","state":"KY","lat":37.2048,"long":-86.8592},{"zip":"42288","city":"Woodbury","state":"KY","lat":37.1834,"long":-86.6339},{"zip":"42217","city":"Crofton","state":"KY","lat":37.0344,"long":-87.4891},{"zip":"42221","city":"Fairview","state":"KY","lat":36.8434,"long":-87.3039},{"zip":"42223","city":"Fort Campbell","state":"KY","lat":36.5995,"long":-87.5585},{"zip":"42232","city":"Gracey","state":"KY","lat":36.8564,"long":-87.6545},{"zip":"42236","city":"Herndon","state":"KY","lat":36.7085,"long":-87.6082},{"zip":"42240","city":"Hopkinsville","state":"KY","lat":36.8621,"long":-87.4851},{"zip":"42241","city":"Hopkinsville","state":"KY","lat":36.8656,"long":-87.4912},{"zip":"42254","city":"La Fayette","state":"KY","lat":36.6582,"long":-87.6563},{"zip":"42262","city":"Oak Grove","state":"KY","lat":36.6652,"long":-87.4255},{"zip":"42266","city":"Pembroke","state":"KY","lat":36.7759,"long":-87.3556},{"zip":"42207","city":"Bee Spring","state":"KY","lat":37.2975,"long":-86.2794},{"zip":"42210","city":"Brownsville","state":"KY","lat":37.2229,"long":-86.2923},{"zip":"42259","city":"Mammoth Cave","state":"KY","lat":37.2802,"long":-86.1688},{"zip":"42275","city":"Roundhill","state":"KY","lat":37.256,"long":-86.407},{"zip":"42285","city":"Sweeden","state":"KY","lat":37.2641,"long":-86.2978},{"zip":"42202","city":"Adairville","state":"KY","lat":36.6914,"long":-86.8585},{"zip":"42206","city":"Auburn","state":"KY","lat":36.8818,"long":-86.7198},{"zip":"42256","city":"Lewisburg","state":"KY","lat":37.0037,"long":-86.9887},{"zip":"42265","city":"Olmstead","state":"KY","lat":36.7595,"long":-86.9804},{"zip":"42276","city":"Russellville","state":"KY","lat":36.8453,"long":-86.8823},{"zip":"42214","city":"Center","state":"KY","lat":37.1177,"long":-85.7038},{"zip":"42204","city":"Allensville","state":"KY","lat":36.7167,"long":-87.0661},{"zip":"42216","city":"Clifty","state":"KY","lat":37.0045,"long":-87.1521},{"zip":"42220","city":"Elkton","state":"KY","lat":36.9094,"long":-87.1678},{"zip":"42234","city":"Guthrie","state":"KY","lat":36.7149,"long":-87.1502},{"zip":"42280","city":"Sharon Grove","state":"KY","lat":36.9278,"long":-87.1003},{"zip":"42286","city":"Trenton","state":"KY","lat":36.7314,"long":-87.2611},{"zip":"42211","city":"Cadiz","state":"KY","lat":36.802,"long":-87.8286},{"zip":"42215","city":"Cerulean","state":"KY","lat":36.9496,"long":-87.6648},{"zip":"42274","city":"Rockfield","state":"KY","lat":36.9241,"long":-86.5979}]
