[{"zip":"42301","city":"Owensboro","state":"KY","lat":37.7513,"long":-87.1554},{"zip":"42302","city":"Owensboro","state":"KY","lat":37.7455,"long":-87.1128},{"zip":"42303","city":"Owensboro","state":"KY","lat":37.7559,"long":-87.0803},{"zip":"42304","city":"Owensboro","state":"KY","lat":37.7455,"long":-87.1128},{"zip":"42334","city":"Curdsville","state":"KY","lat":37.735,"long":-87.3317},{"zip":"42355","city":"Maceo","state":"KY","lat":37.8436,"long":-86.9999},{"zip":"42356","city":"Maple Mount","state":"KY","lat":37.6932,"long":-87.3238},{"zip":"42366","city":"Philpot","state":"KY","lat":37.7183,"long":-86.9372},{"zip":"42376","city":"Utica","state":"KY","lat":37.6206,"long":-87.0591},{"zip":"42377","city":"West Louisville","state":"KY","lat":37.6967,"long":-87.2869},{"zip":"42378","city":"Whitesville","state":"KY","lat":37.6834,"long":-86.8699},{"zip":"42348","city":"Hawesville","state":"KY","lat":37.8503,"long":-86.7638},{"zip":"42351","city":"Lewisport","state":"KY","lat":37.909,"long":-86.8957},{"zip":"42364","city":"Pellville","state":"KY","lat":37.7523,"long":-86.8136},{"zip":"42368","city":"Reynolds Station","state":"KY","lat":37.7403,"long":-86.7414},{"zip":"42322","city":"Beech Grove","state":"KY","lat":37.6151,"long":-87.4069},{"zip":"42327","city":"Calhoun","state":"KY","lat":37.575,"long":-87.2773},{"zip":"42350","city":"Island","state":"KY","lat":37.4471,"long":-87.1692},{"zip":"42352","city":"Livermore","state":"KY","lat":37.5045,"long":-87.1239},{"zip":"42371","city":"Rumsey","state":"KY","lat":37.5076,"long":-87.2806},{"zip":"42372","city":"Sacramento","state":"KY","lat":37.4177,"long":-87.2736},{"zip":"42321","city":"Beech Creek","state":"KY","lat":37.1716,"long":-87.0559},{"zip":"42323","city":"Beechmont","state":"KY","lat":37.1737,"long":-87.0349},{"zip":"42324","city":"Belton","state":"KY","lat":37.1511,"long":-86.9774},{"zip":"42325","city":"Bremen","state":"KY","lat":37.343,"long":-87.233},{"zip":"42326","city":"Browder","state":"KY","lat":37.1999,"long":-87.0001},{"zip":"42330","city":"Central City","state":"KY","lat":37.3007,"long":-87.1202},{"zip":"42332","city":"Cleaton","state":"KY","lat":37.2533,"long":-87.0897},{"zip":"42337","city":"Drakesboro","state":"KY","lat":37.2136,"long":-87.048},{"zip":"42339","city":"Dunmor","state":"KY","lat":37.084,"long":-87.0079},{"zip":"42344","city":"Graham","state":"KY","lat":37.2467,"long":-87.2976},{"zip":"42345","city":"Greenville","state":"KY","lat":37.2076,"long":-87.1806},{"zip":"42367","city":"Powderly","state":"KY","lat":37.2429,"long":-87.1549},{"zip":"42374","city":"South Carrollton","state":"KY","lat":37.3375,"long":-87.1419},{"zip":"42320","city":"Beaver Dam","state":"KY","lat":37.387,"long":-86.8729},{"zip":"42328","city":"Centertown","state":"KY","lat":37.4079,"long":-87.009},{"zip":"42333","city":"Cromwell","state":"KY","lat":37.3418,"long":-86.77},{"zip":"42338","city":"Dundee","state":"KY","lat":37.552,"long":-86.7776},{"zip":"42343","city":"Fordsville","state":"KY","lat":37.6297,"long":-86.7263},{"zip":"42347","city":"Hartford","state":"KY","lat":37.4785,"long":-86.918},{"zip":"42349","city":"Horse Branch","state":"KY","lat":37.4234,"long":-86.6987},{"zip":"42354","city":"Mc Henry","state":"KY","lat":37.3778,"long":-86.9298},{"zip":"42361","city":"Olaton","state":"KY","lat":37.5259,"long":-86.6875},{"zip":"42369","city":"Rockport","state":"KY","lat":37.3554,"long":-87.0065},{"zip":"42370","city":"Rosine","state":"KY","lat":37.449,"long":-86.7389}]
