[{"zip":"42411","city":"Fredonia","state":"KY","lat":37.213,"long":-88.0112},{"zip":"42445","city":"Princeton","state":"KY","lat":37.1151,"long":-87.8632},{"zip":"42402","city":"Baskett","state":"KY","lat":37.8709,"long":-87.4625},{"zip":"42406","city":"Corydon","state":"KY","lat":37.7443,"long":-87.7},{"zip":"42419","city":"Henderson","state":"KY","lat":37.8072,"long":-87.5991},{"zip":"42420","city":"Henderson","state":"KY","lat":37.8274,"long":-87.5632},{"zip":"42451","city":"Reed","state":"KY","lat":37.8588,"long":-87.3704},{"zip":"42452","city":"Robards","state":"KY","lat":37.6758,"long":-87.5266},{"zip":"42457","city":"Smith Mills","state":"KY","lat":37.8323,"long":-87.7889},{"zip":"42458","city":"Spottsville","state":"KY","lat":37.8399,"long":-87.4247},{"zip":"42408","city":"Dawson Springs","state":"KY","lat":37.1964,"long":-87.6821},{"zip":"42410","city":"Earlington","state":"KY","lat":37.2742,"long":-87.5119},{"zip":"42413","city":"Hanson","state":"KY","lat":37.4382,"long":-87.4751},{"zip":"42431","city":"Madisonville","state":"KY","lat":37.3256,"long":-87.4953},{"zip":"42436","city":"Manitou","state":"KY","lat":37.4067,"long":-87.5639},{"zip":"42440","city":"Mortons Gap","state":"KY","lat":37.249,"long":-87.4615},{"zip":"42441","city":"Nebo","state":"KY","lat":37.3683,"long":-87.6865},{"zip":"42442","city":"Nortonville","state":"KY","lat":37.1834,"long":-87.4605},{"zip":"42453","city":"Saint Charles","state":"KY","lat":37.1604,"long":-87.5697},{"zip":"42464","city":"White Plains","state":"KY","lat":37.1788,"long":-87.3644},{"zip":"42437","city":"Morganfield","state":"KY","lat":37.6869,"long":-87.9439},{"zip":"42459","city":"Sturgis","state":"KY","lat":37.5487,"long":-87.9965},{"zip":"42460","city":"Sullivan","state":"KY","lat":37.494,"long":-87.9328},{"zip":"42461","city":"Uniontown","state":"KY","lat":37.7677,"long":-87.9263},{"zip":"42462","city":"Waverly","state":"KY","lat":37.743,"long":-87.8067},{"zip":"42404","city":"Clay","state":"KY","lat":37.4756,"long":-87.8368},{"zip":"42409","city":"Dixon","state":"KY","lat":37.5106,"long":-87.7019},{"zip":"42444","city":"Poole","state":"KY","lat":37.641,"long":-87.6439},{"zip":"42450","city":"Providence","state":"KY","lat":37.405,"long":-87.7505},{"zip":"42455","city":"Sebree","state":"KY","lat":37.5889,"long":-87.5255},{"zip":"42456","city":"Slaughters","state":"KY","lat":37.5054,"long":-87.5053},{"zip":"42463","city":"Wheatcroft","state":"KY","lat":37.488,"long":-87.8661}]
