[{"zip":"42516","city":"Bethelridge","state":"KY","lat":37.2337,"long":-84.7583},{"zip":"42528","city":"Dunnville","state":"KY","lat":37.1906,"long":-84.9835},{"zip":"42539","city":"Liberty","state":"KY","lat":37.3146,"long":-84.9719},{"zip":"42541","city":"Middleburg","state":"KY","lat":37.3591,"long":-84.8321},{"zip":"42565","city":"Windsor","state":"KY","lat":37.1568,"long":-84.8799},{"zip":"42566","city":"Yosemite","state":"KY","lat":37.3074,"long":-84.8124},{"zip":"42501","city":"Somerset","state":"KY","lat":37.1029,"long":-84.5443},{"zip":"42502","city":"Somerset","state":"KY","lat":37.092,"long":-84.6041},{"zip":"42503","city":"Somerset","state":"KY","lat":37.1566,"long":-84.5248},{"zip":"42518","city":"Bronston","state":"KY","lat":36.9525,"long":-84.6314},{"zip":"42519","city":"Burnside","state":"KY","lat":36.9393,"long":-84.5357},{"zip":"42533","city":"Ferguson","state":"KY","lat":37.0677,"long":-84.5927},{"zip":"42544","city":"Nancy","state":"KY","lat":37.0631,"long":-84.7192},{"zip":"42553","city":"Science Hill","state":"KY","lat":37.1683,"long":-84.6487},{"zip":"42558","city":"Tateville","state":"KY","lat":36.9492,"long":-84.5815},{"zip":"42564","city":"West Somerset","state":"KY","lat":37.1114,"long":-84.5929},{"zip":"42567","city":"Eubank","state":"KY","lat":37.2642,"long":-84.6066}]
