[{"zip":"42715","city":"Breeding","state":"KY","lat":36.9553,"long":-85.4036},{"zip":"42720","city":"Cane Valley","state":"KY","lat":37.1803,"long":-85.3197},{"zip":"42728","city":"Columbia","state":"KY","lat":37.1161,"long":-85.2656},{"zip":"42741","city":"Glens Fork","state":"KY","lat":37.007,"long":-85.2487},{"zip":"42742","city":"Gradyville","state":"KY","lat":37.0912,"long":-85.465},{"zip":"42753","city":"Knifley","state":"KY","lat":37.2313,"long":-85.172},{"zip":"42717","city":"Burkesville","state":"KY","lat":36.8068,"long":-85.397},{"zip":"42759","city":"Marrowbone","state":"KY","lat":36.8306,"long":-85.5015},{"zip":"42712","city":"Big Clifty","state":"KY","lat":37.5278,"long":-86.1395},{"zip":"42721","city":"Caneyville","state":"KY","lat":37.4222,"long":-86.4702},{"zip":"42726","city":"Clarkson","state":"KY","lat":37.4336,"long":-86.2083},{"zip":"42754","city":"Leitchfield","state":"KY","lat":37.4603,"long":-86.3249},{"zip":"42755","city":"Leitchfield","state":"KY","lat":37.4801,"long":-86.2939},{"zip":"42762","city":"Millwood","state":"KY","lat":37.4446,"long":-86.4008},{"zip":"42743","city":"Greensburg","state":"KY","lat":37.243,"long":-85.5236},{"zip":"42782","city":"Summersville","state":"KY","lat":37.3419,"long":-85.6194},{"zip":"42701","city":"Elizabethtown","state":"KY","lat":37.6848,"long":-85.8784},{"zip":"42702","city":"Elizabethtown","state":"KY","lat":37.694,"long":-85.8591},{"zip":"42724","city":"Cecilia","state":"KY","lat":37.669,"long":-86.0545},{"zip":"42732","city":"Eastview","state":"KY","lat":37.6061,"long":-86.0906},{"zip":"42740","city":"Glendale","state":"KY","lat":37.6034,"long":-85.8921},{"zip":"42776","city":"Sonora","state":"KY","lat":37.5221,"long":-85.923},{"zip":"42784","city":"Upton","state":"KY","lat":37.4568,"long":-85.9086},{"zip":"42788","city":"White Mills","state":"KY","lat":37.5438,"long":-86.0395},{"zip":"42713","city":"Bonnieville","state":"KY","lat":37.3741,"long":-85.896},{"zip":"42722","city":"Canmer","state":"KY","lat":37.2696,"long":-85.7203},{"zip":"42729","city":"Cub Run","state":"KY","lat":37.3149,"long":-86.0813},{"zip":"42746","city":"Hardyville","state":"KY","lat":37.2249,"long":-85.7542},{"zip":"42749","city":"Horse Cave","state":"KY","lat":37.1849,"long":-85.8785},{"zip":"42765","city":"Munfordville","state":"KY","lat":37.2898,"long":-85.9201},{"zip":"42716","city":"Buffalo","state":"KY","lat":37.4786,"long":-85.6434},{"zip":"42748","city":"Hodgenville","state":"KY","lat":37.5746,"long":-85.7232},{"zip":"42757","city":"Magnolia","state":"KY","lat":37.4165,"long":-85.7308},{"zip":"42764","city":"Mount Sherman","state":"KY","lat":37.426,"long":-85.6191},{"zip":"42718","city":"Campbellsville","state":"KY","lat":37.3466,"long":-85.3508},{"zip":"42719","city":"Campbellsville","state":"KY","lat":37.3379,"long":-85.3304},{"zip":"42733","city":"Elk Horn","state":"KY","lat":37.3393,"long":-85.1918},{"zip":"42758","city":"Mannsville","state":"KY","lat":37.3726,"long":-85.1966}]
