[{"zip":"43713","city":"Barnesville","state":"OH","lat":39.9853,"long":-81.1375},{"zip":"43718","city":"Belmont","state":"OH","lat":40.032,"long":-81.0066},{"zip":"43719","city":"Bethesda","state":"OH","lat":40.0192,"long":-81.0767},{"zip":"43759","city":"Morristown","state":"OH","lat":40.0113,"long":-80.9701},{"zip":"43902","city":"Alledonia","state":"OH","lat":39.9053,"long":-80.9578},{"zip":"43905","city":"Barton","state":"OH","lat":40.1073,"long":-80.8412},{"zip":"43906","city":"Bellaire","state":"OH","lat":40.0204,"long":-80.7638},{"zip":"43909","city":"Blaine","state":"OH","lat":40.0701,"long":-80.8176},{"zip":"43912","city":"Bridgeport","state":"OH","lat":40.0752,"long":-80.7747},{"zip":"43916","city":"Colerain","state":"OH","lat":40.1224,"long":-80.8149},{"zip":"43927","city":"Fairpoint","state":"OH","lat":40.1225,"long":-80.938},{"zip":"43928","city":"Glencoe","state":"OH","lat":40.0109,"long":-80.8993},{"zip":"43933","city":"Jacobsburg","state":"OH","lat":39.9372,"long":-80.888},{"zip":"43934","city":"Lansing","state":"OH","lat":40.08,"long":-80.8003},{"zip":"43935","city":"Martins Ferry","state":"OH","lat":40.1036,"long":-80.7361},{"zip":"43937","city":"Maynard","state":"OH","lat":40.1302,"long":-80.8773},{"zip":"43940","city":"Neffs","state":"OH","lat":40.0284,"long":-80.8245},{"zip":"43942","city":"Powhatan Point","state":"OH","lat":39.8679,"long":-80.8168},{"zip":"43947","city":"Shadyside","state":"OH","lat":39.9675,"long":-80.7643},{"zip":"43950","city":"Saint Clairsville","state":"OH","lat":40.0778,"long":-80.9788},{"zip":"43951","city":"Lafferty","state":"OH","lat":40.111,"long":-81.0102},{"zip":"43967","city":"Warnock","state":"OH","lat":40.02,"long":-80.9169},{"zip":"43972","city":"Bannock","state":"OH","lat":40.1032,"long":-80.9756},{"zip":"43977","city":"Flushing","state":"OH","lat":40.1451,"long":-81.0757},{"zip":"43983","city":"Piedmont","state":"OH","lat":40.1507,"long":-81.2145},{"zip":"43985","city":"Holloway","state":"OH","lat":40.1623,"long":-81.1326},{"zip":"43009","city":"Cable","state":"OH","lat":40.1784,"long":-83.647},{"zip":"43044","city":"Mechanicsburg","state":"OH","lat":40.0647,"long":-83.5724},{"zip":"43047","city":"Mingo","state":"OH","lat":40.2049,"long":-83.6466},{"zip":"43060","city":"North Lewisburg","state":"OH","lat":40.2229,"long":-83.5615},{"zip":"43070","city":"Rosewood","state":"OH","lat":40.2158,"long":-83.9579},{"zip":"43072","city":"Saint Paris","state":"OH","lat":40.1058,"long":-83.9631},{"zip":"43078","city":"Urbana","state":"OH","lat":40.1066,"long":-83.7671},{"zip":"43083","city":"Westville","state":"OH","lat":40.1022,"long":-83.8379},{"zip":"43084","city":"Woodstock","state":"OH","lat":40.1816,"long":-83.5461},{"zip":"43010","city":"Catawba","state":"OH","lat":39.9991,"long":-83.6222},{"zip":"43920","city":"East Liverpool","state":"OH","lat":40.6774,"long":-80.6006},{"zip":"43945","city":"Salineville","state":"OH","lat":40.6195,"long":-80.835},{"zip":"43962","city":"Summitville","state":"OH","lat":40.6781,"long":-80.8862},{"zip":"43968","city":"Wellsville","state":"OH","lat":40.6171,"long":-80.6621},{"zip":"43803","city":"Bakersville","state":"OH","lat":40.3572,"long":-81.6436},{"zip":"43805","city":"Blissfield","state":"OH","lat":40.3983,"long":-81.9688},{"zip":"43811","city":"Conesville","state":"OH","lat":40.1804,"long":-81.8951},{"zip":"43812","city":"Coshocton","state":"OH","lat":40.2754,"long":-81.866},{"zip":"43824","city":"Fresno","state":"OH","lat":40.3711,"long":-81.7623},{"zip":"43828","city":"Keene","state":"OH","lat":40.3513,"long":-81.8736},{"zip":"43836","city":"Plainfield","state":"OH","lat":40.2087,"long":-81.7197},{"zip":"43843","city":"Walhonding","state":"OH","lat":40.3407,"long":-82.1559},{"zip":"43844","city":"Warsaw","state":"OH","lat":40.3172,"long":-82.056},{"zip":"43845","city":"West Lafayette","state":"OH","lat":40.2718,"long":-81.7361},{"zip":"43512","city":"Defiance","state":"OH","lat":41.2799,"long":-84.3626},{"zip":"43519","city":"Evansport","state":"OH","lat":41.4222,"long":-84.3966},{"zip":"43520","city":"Farmer","state":"OH","lat":41.3907,"long":-84.6313},{"zip":"43526","city":"Hicksville","state":"OH","lat":41.3034,"long":-84.7589},{"zip":"43530","city":"Jewell","state":"OH","lat":41.3258,"long":-84.2793},{"zip":"43536","city":"Mark Center","state":"OH","lat":41.2917,"long":-84.6278},{"zip":"43549","city":"Ney","state":"OH","lat":41.3781,"long":-84.5269},{"zip":"43556","city":"Sherwood","state":"OH","lat":41.2946,"long":-84.5417},{"zip":"43003","city":"Ashley","state":"OH","lat":40.4163,"long":-82.9542},{"zip":"43015","city":"Delaware","state":"OH","lat":40.2932,"long":-83.0723},{"zip":"43021","city":"Galena","state":"OH","lat":40.2011,"long":-82.8749},{"zip":"43032","city":"Kilbourne","state":"OH","lat":40.3286,"long":-82.9588},{"zip":"43035","city":"Lewis Center","state":"OH","lat":40.1879,"long":-82.9878},{"zip":"43061","city":"Ostrander","state":"OH","lat":40.274,"long":-83.1978},{"zip":"43065","city":"Powell","state":"OH","lat":40.1834,"long":-83.0912},{"zip":"43066","city":"Radnor","state":"OH","lat":40.3918,"long":-83.1781},{"zip":"43074","city":"Sunbury","state":"OH","lat":40.2655,"long":-82.8511},{"zip":"43082","city":"Westerville","state":"OH","lat":40.1524,"long":-82.882},{"zip":"43438","city":"Kelleys Island","state":"OH","lat":41.6008,"long":-82.7068},{"zip":"43046","city":"Millersport","state":"OH","lat":39.8993,"long":-82.5283},{"zip":"43102","city":"Amanda","state":"OH","lat":39.6251,"long":-82.7552},{"zip":"43105","city":"Baltimore","state":"OH","lat":39.8645,"long":-82.624},{"zip":"43107","city":"Bremen","state":"OH","lat":39.6909,"long":-82.4096},{"zip":"43110","city":"Canal Winchester","state":"OH","lat":39.8349,"long":-82.8044},{"zip":"43112","city":"Carroll","state":"OH","lat":39.7957,"long":-82.7084},{"zip":"43130","city":"Lancaster","state":"OH","lat":39.7187,"long":-82.6031},{"zip":"43136","city":"Lithopolis","state":"OH","lat":39.8013,"long":-82.8125},{"zip":"43147","city":"Pickerington","state":"OH","lat":39.9061,"long":-82.7563},{"zip":"43148","city":"Pleasantville","state":"OH","lat":39.8227,"long":-82.5043},{"zip":"43150","city":"Rushville","state":"OH","lat":39.7674,"long":-82.428},{"zip":"43154","city":"Stoutsville","state":"OH","lat":39.6067,"long":-82.8193},{"zip":"43155","city":"Sugar Grove","state":"OH","lat":39.6277,"long":-82.5321},{"zip":"43157","city":"Thurston","state":"OH","lat":39.8427,"long":-82.5462},{"zip":"43106","city":"Bloomingburg","state":"OH","lat":39.6286,"long":-83.4095},{"zip":"43128","city":"Jeffersonville","state":"OH","lat":39.659,"long":-83.5687},{"zip":"43142","city":"Milledgeville","state":"OH","lat":39.5937,"long":-83.5873},{"zip":"43160","city":"Washington Court House","state":"OH","lat":39.537,"long":-83.455},{"zip":"43002","city":"Amlin","state":"OH","lat":40.072,"long":-83.1792},{"zip":"43004","city":"Blacklick","state":"OH","lat":40.021,"long":-82.8079},{"zip":"43016","city":"Dublin","state":"OH","lat":40.0985,"long":-83.1537},{"zip":"43017","city":"Dublin","state":"OH","lat":40.1093,"long":-83.1146},{"zip":"43026","city":"Hilliard","state":"OH","lat":40.0322,"long":-83.1383},{"zip":"43054","city":"New Albany","state":"OH","lat":40.0847,"long":-82.7988},{"zip":"43068","city":"Reynoldsburg","state":"OH","lat":39.9551,"long":-82.8035},{"zip":"43069","city":"Reynoldsburg","state":"OH","lat":39.9555,"long":-82.7992},{"zip":"43081","city":"Westerville","state":"OH","lat":40.1146,"long":-82.9105},{"zip":"43085","city":"Columbus","state":"OH","lat":40.0999,"long":-83.0157},{"zip":"43086","city":"Westerville","state":"OH","lat":39.969,"long":-83.0114},{"zip":"43109","city":"Brice","state":"OH","lat":39.9181,"long":-82.8321},{"zip":"43119","city":"Galloway","state":"OH","lat":39.9366,"long":-83.1838},{"zip":"43123","city":"Grove City","state":"OH","lat":39.8814,"long":-83.0839},{"zip":"43125","city":"Groveport","state":"OH","lat":39.8581,"long":-82.8872},{"zip":"43126","city":"Harrisburg","state":"OH","lat":39.8139,"long":-83.1664},{"zip":"43195","city":"Groveport","state":"OH","lat":39.8614,"long":-82.8916},{"zip":"43199","city":"Groveport","state":"OH","lat":39.969,"long":-83.0114},{"zip":"43201","city":"Columbus","state":"OH","lat":39.9952,"long":-83.0047},{"zip":"43202","city":"Columbus","state":"OH","lat":40.0201,"long":-83.0118},{"zip":"43203","city":"Columbus","state":"OH","lat":39.9719,"long":-82.9691},{"zip":"43204","city":"Columbus","state":"OH","lat":39.9523,"long":-83.078},{"zip":"43205","city":"Columbus","state":"OH","lat":39.9569,"long":-82.9644},{"zip":"43206","city":"Columbus","state":"OH","lat":39.9426,"long":-82.9748},{"zip":"43207","city":"Columbus","state":"OH","lat":39.9046,"long":-82.9703},{"zip":"43209","city":"Columbus","state":"OH","lat":39.9539,"long":-82.9301},{"zip":"43210","city":"Columbus","state":"OH","lat":40.0028,"long":-83.0164},{"zip":"43211","city":"Columbus","state":"OH","lat":40.0118,"long":-82.9732},{"zip":"43212","city":"Columbus","state":"OH","lat":39.9874,"long":-83.0456},{"zip":"43213","city":"Columbus","state":"OH","lat":39.9727,"long":-82.8329},{"zip":"43214","city":"Columbus","state":"OH","lat":40.0535,"long":-83.0187},{"zip":"43215","city":"Columbus","state":"OH","lat":39.9671,"long":-83.0044},{"zip":"43216","city":"Columbus","state":"OH","lat":39.969,"long":-83.0114},{"zip":"43217","city":"Columbus","state":"OH","lat":39.8277,"long":-82.9342},{"zip":"43218","city":"Columbus","state":"OH","lat":39.969,"long":-83.0114},{"zip":"43219","city":"Columbus","state":"OH","lat":40.0326,"long":-82.9103},{"zip":"43220","city":"Columbus","state":"OH","lat":40.0495,"long":-83.0669},{"zip":"43221","city":"Columbus","state":"OH","lat":40.0226,"long":-83.0776},{"zip":"43222","city":"Columbus","state":"OH","lat":39.9576,"long":-83.0311},{"zip":"43223","city":"Columbus","state":"OH","lat":39.9388,"long":-83.0463},{"zip":"43224","city":"Columbus","state":"OH","lat":40.0425,"long":-82.9689},{"zip":"43226","city":"Columbus","state":"OH","lat":39.969,"long":-83.0114},{"zip":"43227","city":"Columbus","state":"OH","lat":39.9444,"long":-82.8903},{"zip":"43228","city":"Columbus","state":"OH","lat":39.9648,"long":-83.126},{"zip":"43229","city":"Columbus","state":"OH","lat":40.0839,"long":-82.9726},{"zip":"43230","city":"Columbus","state":"OH","lat":40.0347,"long":-82.8726},{"zip":"43231","city":"Columbus","state":"OH","lat":40.081,"long":-82.9383},{"zip":"43232","city":"Columbus","state":"OH","lat":39.923,"long":-82.8664},{"zip":"43234","city":"Columbus","state":"OH","lat":39.969,"long":-83.0114},{"zip":"43235","city":"Columbus","state":"OH","lat":40.1088,"long":-82.9742},{"zip":"43236","city":"Columbus","state":"OH","lat":40.1357,"long":-83.0076},{"zip":"43240","city":"Columbus","state":"OH","lat":40.1454,"long":-82.9817},{"zip":"43251","city":"Columbus","state":"OH","lat":39.969,"long":-83.0114},{"zip":"43260","city":"Columbus","state":"OH","lat":39.969,"long":-83.0114},{"zip":"43266","city":"Columbus","state":"OH","lat":39.969,"long":-83.0114},{"zip":"43268","city":"Columbus","state":"OH","lat":39.969,"long":-83.0114},{"zip":"43270","city":"Columbus","state":"OH","lat":39.969,"long":-83.0114},{"zip":"43271","city":"Columbus","state":"OH","lat":39.969,"long":-83.0114},{"zip":"43272","city":"Columbus","state":"OH","lat":39.969,"long":-83.0114},{"zip":"43279","city":"Columbus","state":"OH","lat":39.969,"long":-83.0114},{"zip":"43287","city":"Columbus","state":"OH","lat":39.969,"long":-83.0114},{"zip":"43291","city":"Columbus","state":"OH","lat":39.969,"long":-83.0114},{"zip":"43502","city":"Archbold","state":"OH","lat":41.5333,"long":-84.3048},{"zip":"43515","city":"Delta","state":"OH","lat":41.5577,"long":-83.9866},{"zip":"43521","city":"Fayette","state":"OH","lat":41.6717,"long":-84.325},{"zip":"43533","city":"Lyons","state":"OH","lat":41.6905,"long":-84.0624},{"zip":"43540","city":"Metamora","state":"OH","lat":41.6952,"long":-83.926},{"zip":"43553","city":"Pettisville","state":"OH","lat":41.5306,"long":-84.2297},{"zip":"43558","city":"Swanton","state":"OH","lat":41.5945,"long":-83.8718},{"zip":"43567","city":"Wauseon","state":"OH","lat":41.5668,"long":-84.1537},{"zip":"43722","city":"Buffalo","state":"OH","lat":39.9159,"long":-81.5201},{"zip":"43723","city":"Byesville","state":"OH","lat":39.9623,"long":-81.5485},{"zip":"43725","city":"Cambridge","state":"OH","lat":40.027,"long":-81.582},{"zip":"43732","city":"Cumberland","state":"OH","lat":39.852,"long":-81.6576},{"zip":"43733","city":"Derwent","state":"OH","lat":39.9236,"long":-81.543},{"zip":"43736","city":"Fairview","state":"OH","lat":40.065,"long":-81.2558},{"zip":"43749","city":"Kimbolton","state":"OH","lat":40.1589,"long":-81.549},{"zip":"43750","city":"Kipling","state":"OH","lat":39.9945,"long":-81.5006},{"zip":"43755","city":"Lore City","state":"OH","lat":40.0459,"long":-81.4479},{"zip":"43768","city":"Old Washington","state":"OH","lat":40.0392,"long":-81.4522},{"zip":"43772","city":"Pleasant City","state":"OH","lat":39.9095,"long":-81.558},{"zip":"43773","city":"Quaker City","state":"OH","lat":39.9866,"long":-81.2899},{"zip":"43778","city":"Salesville","state":"OH","lat":40.0081,"long":-81.3728},{"zip":"43780","city":"Senecaville","state":"OH","lat":39.9337,"long":-81.458},{"zip":"43326","city":"Kenton","state":"OH","lat":40.6404,"long":-83.6111},{"zip":"43340","city":"Mount Victory","state":"OH","lat":40.5232,"long":-83.4942},{"zip":"43345","city":"Ridgeway","state":"OH","lat":40.5209,"long":-83.5702},{"zip":"43346","city":"Roundhead","state":"OH","lat":40.5732,"long":-83.8462},{"zip":"43907","city":"Cadiz","state":"OH","lat":40.2632,"long":-81.0307},{"zip":"43973","city":"Freeport","state":"OH","lat":40.1925,"long":-81.277},{"zip":"43974","city":"Harrisville","state":"OH","lat":40.1815,"long":-80.8882},{"zip":"43976","city":"Hopedale","state":"OH","lat":40.3496,"long":-80.9021},{"zip":"43981","city":"New Athens","state":"OH","lat":40.1839,"long":-80.9959},{"zip":"43984","city":"New Rumley","state":"OH","lat":40.4017,"long":-81.0309},{"zip":"43986","city":"Jewett","state":"OH","lat":40.3745,"long":-81.0004},{"zip":"43988","city":"Scio","state":"OH","lat":40.4012,"long":-81.1016},{"zip":"43510","city":"Colton","state":"OH","lat":41.4199,"long":-84.0137},{"zip":"43516","city":"Deshler","state":"OH","lat":41.2239,"long":-83.8964},{"zip":"43523","city":"Grelton","state":"OH","lat":41.3411,"long":-84.0005},{"zip":"43524","city":"Hamler","state":"OH","lat":41.2292,"long":-84.0341},{"zip":"43527","city":"Holgate","state":"OH","lat":41.2549,"long":-84.1447},{"zip":"43532","city":"Liberty Center","state":"OH","lat":41.4514,"long":-83.9859},{"zip":"43534","city":"Mc Clure","state":"OH","lat":41.3773,"long":-83.9425},{"zip":"43535","city":"Malinta","state":"OH","lat":41.3084,"long":-84.0457},{"zip":"43545","city":"Napoleon","state":"OH","lat":41.391,"long":-84.1433},{"zip":"43548","city":"New Bavaria","state":"OH","lat":41.2037,"long":-84.1683},{"zip":"43550","city":"Okolona","state":"OH","lat":41.3267,"long":-84.1117},{"zip":"43555","city":"Ridgeville Corners","state":"OH","lat":41.4351,"long":-84.2544},{"zip":"43111","city":"Carbon Hill","state":"OH","lat":39.5045,"long":-82.2429},{"zip":"43127","city":"Haydenville","state":"OH","lat":39.4766,"long":-82.3281},{"zip":"43135","city":"Laurelville","state":"OH","lat":39.4757,"long":-82.7212},{"zip":"43138","city":"Logan","state":"OH","lat":39.5372,"long":-82.4126},{"zip":"43144","city":"Murray City","state":"OH","lat":39.5055,"long":-82.1711},{"zip":"43149","city":"Rockbridge","state":"OH","lat":39.5509,"long":-82.5626},{"zip":"43152","city":"South Bloomingville","state":"OH","lat":39.4174,"long":-82.5923},{"zip":"43158","city":"Union Furnace","state":"OH","lat":39.4617,"long":-82.3563},{"zip":"43901","city":"Adena","state":"OH","lat":40.2126,"long":-80.8815},{"zip":"43903","city":"Amsterdam","state":"OH","lat":40.4731,"long":-80.9596},{"zip":"43908","city":"Bergholz","state":"OH","lat":40.5195,"long":-80.884},{"zip":"43910","city":"Bloomingdale","state":"OH","lat":40.3742,"long":-80.8072},{"zip":"43913","city":"Brilliant","state":"OH","lat":40.2683,"long":-80.6319},{"zip":"43917","city":"Dillonvale","state":"OH","lat":40.2251,"long":-80.8031},{"zip":"43925","city":"East Springfield","state":"OH","lat":40.4506,"long":-80.8604},{"zip":"43926","city":"Empire","state":"OH","lat":40.5092,"long":-80.6241},{"zip":"43930","city":"Hammondsville","state":"OH","lat":40.5676,"long":-80.7659},{"zip":"43932","city":"Irondale","state":"OH","lat":40.5111,"long":-80.7915},{"zip":"43938","city":"Mingo Junction","state":"OH","lat":40.3203,"long":-80.625},{"zip":"43939","city":"Mount Pleasant","state":"OH","lat":40.1753,"long":-80.7979},{"zip":"43941","city":"Piney Fork","state":"OH","lat":40.2639,"long":-80.8358},{"zip":"43943","city":"Rayland","state":"OH","lat":40.2083,"long":-80.7125},{"zip":"43944","city":"Richmond","state":"OH","lat":40.4261,"long":-80.7613},{"zip":"43948","city":"Smithfield","state":"OH","lat":40.2709,"long":-80.7815},{"zip":"43952","city":"Steubenville","state":"OH","lat":40.3698,"long":-80.634},{"zip":"43953","city":"Steubenville","state":"OH","lat":40.3524,"long":-80.6781},{"zip":"43961","city":"Stratton","state":"OH","lat":40.5185,"long":-80.6285},{"zip":"43963","city":"Tiltonsville","state":"OH","lat":40.1681,"long":-80.6996},{"zip":"43964","city":"Toronto","state":"OH","lat":40.4733,"long":-80.6325},{"zip":"43970","city":"Wolf Run","state":"OH","lat":40.4673,"long":-80.8893},{"zip":"43971","city":"Yorkville","state":"OH","lat":40.1581,"long":-80.7077},{"zip":"43005","city":"Bladensburg","state":"OH","lat":40.2962,"long":-82.2736},{"zip":"43006","city":"Brinkhaven","state":"OH","lat":40.4583,"long":-82.1553},{"zip":"43011","city":"Centerburg","state":"OH","lat":40.2865,"long":-82.68},{"zip":"43014","city":"Danville","state":"OH","lat":40.4557,"long":-82.2639},{"zip":"43019","city":"Fredericktown","state":"OH","lat":40.4976,"long":-82.5857},{"zip":"43022","city":"Gambier","state":"OH","lat":40.3782,"long":-82.3828},{"zip":"43028","city":"Howard","state":"OH","lat":40.4158,"long":-82.3334},{"zip":"43037","city":"Martinsburg","state":"OH","lat":40.268,"long":-82.3567},{"zip":"43048","city":"Mount Liberty","state":"OH","lat":40.3467,"long":-82.6302},{"zip":"43050","city":"Mount Vernon","state":"OH","lat":40.3849,"long":-82.4873},{"zip":"43001","city":"Alexandria","state":"OH","lat":40.106,"long":-82.6077},{"zip":"43008","city":"Buckeye Lake","state":"OH","lat":39.9337,"long":-82.4724},{"zip":"43013","city":"Croton","state":"OH","lat":40.2376,"long":-82.6989},{"zip":"43018","city":"Etna","state":"OH","lat":39.9572,"long":-82.6837},{"zip":"43023","city":"Granville","state":"OH","lat":40.0788,"long":-82.5194},{"zip":"43025","city":"Hebron","state":"OH","lat":39.9535,"long":-82.4919},{"zip":"43027","city":"Homer","state":"OH","lat":40.2528,"long":-82.5177},{"zip":"43030","city":"Jacksontown","state":"OH","lat":39.9688,"long":-82.43},{"zip":"43031","city":"Johnstown","state":"OH","lat":40.1445,"long":-82.6973},{"zip":"43033","city":"Kirkersville","state":"OH","lat":39.961,"long":-82.5998},{"zip":"43055","city":"Newark","state":"OH","lat":40.0724,"long":-82.4046},{"zip":"43056","city":"Heath","state":"OH","lat":40.0197,"long":-82.3875},{"zip":"43058","city":"Newark","state":"OH","lat":40.0581,"long":-82.4013},{"zip":"43062","city":"Pataskala","state":"OH","lat":40.0009,"long":-82.6687},{"zip":"43071","city":"Saint Louisville","state":"OH","lat":40.1818,"long":-82.356},{"zip":"43073","city":"Summit Station","state":"OH","lat":39.9965,"long":-82.754},{"zip":"43080","city":"Utica","state":"OH","lat":40.2441,"long":-82.4135},{"zip":"43093","city":"Newark","state":"OH","lat":40.0951,"long":-82.4827},{"zip":"43721","city":"Brownsville","state":"OH","lat":39.947,"long":-82.2565},{"zip":"43740","city":"Gratiot","state":"OH","lat":39.9522,"long":-82.2128},{"zip":"43310","city":"Belle Center","state":"OH","lat":40.5024,"long":-83.7688},{"zip":"43311","city":"Bellefontaine","state":"OH","lat":40.3605,"long":-83.7571},{"zip":"43318","city":"De Graff","state":"OH","lat":40.3058,"long":-83.9153},{"zip":"43319","city":"East Liberty","state":"OH","lat":40.3077,"long":-83.5862},{"zip":"43324","city":"Huntsville","state":"OH","lat":40.4413,"long":-83.7927},{"zip":"43331","city":"Lakeview","state":"OH","lat":40.5019,"long":-83.9202},{"zip":"43333","city":"Lewistown","state":"OH","lat":40.4277,"long":-83.9209},{"zip":"43336","city":"Middleburg","state":"OH","lat":40.2926,"long":-83.5824},{"zip":"43343","city":"Quincy","state":"OH","lat":40.2876,"long":-83.9744},{"zip":"43347","city":"Rushsylvania","state":"OH","lat":40.4658,"long":-83.6598},{"zip":"43348","city":"Russells Point","state":"OH","lat":40.4675,"long":-83.887},{"zip":"43357","city":"West Liberty","state":"OH","lat":40.2625,"long":-83.7528},{"zip":"43358","city":"West Mansfield","state":"OH","lat":40.4043,"long":-83.5243},{"zip":"43360","city":"Zanesfield","state":"OH","lat":40.3211,"long":-83.6405},{"zip":"43434","city":"Harbor View","state":"OH","lat":41.6934,"long":-83.4444},{"zip":"43504","city":"Berkey","state":"OH","lat":41.6989,"long":-83.831},{"zip":"43528","city":"Holland","state":"OH","lat":41.6226,"long":-83.7257},{"zip":"43537","city":"Maumee","state":"OH","lat":41.5817,"long":-83.6628},{"zip":"43542","city":"Monclova","state":"OH","lat":41.5684,"long":-83.7757},{"zip":"43547","city":"Neapolis","state":"OH","lat":41.492,"long":-83.8706},{"zip":"43560","city":"Sylvania","state":"OH","lat":41.708,"long":-83.7068},{"zip":"43566","city":"Waterville","state":"OH","lat":41.5022,"long":-83.7331},{"zip":"43571","city":"Whitehouse","state":"OH","lat":41.5194,"long":-83.8115},{"zip":"43601","city":"Toledo","state":"OH","lat":41.7207,"long":-83.5694},{"zip":"43603","city":"Toledo","state":"OH","lat":41.6868,"long":-83.4394},{"zip":"43604","city":"Toledo","state":"OH","lat":41.6614,"long":-83.5249},{"zip":"43605","city":"Toledo","state":"OH","lat":41.6525,"long":-83.5085},{"zip":"43606","city":"Toledo","state":"OH","lat":41.6712,"long":-83.606},{"zip":"43607","city":"Toledo","state":"OH","lat":41.6504,"long":-83.5974},{"zip":"43608","city":"Toledo","state":"OH","lat":41.6779,"long":-83.5344},{"zip":"43609","city":"Toledo","state":"OH","lat":41.6298,"long":-83.5773},{"zip":"43610","city":"Toledo","state":"OH","lat":41.6767,"long":-83.5573},{"zip":"43611","city":"Toledo","state":"OH","lat":41.7045,"long":-83.4892},{"zip":"43612","city":"Toledo","state":"OH","lat":41.7046,"long":-83.5656},{"zip":"43613","city":"Toledo","state":"OH","lat":41.7039,"long":-83.6034},{"zip":"43614","city":"Toledo","state":"OH","lat":41.6028,"long":-83.6292},{"zip":"43615","city":"Toledo","state":"OH","lat":41.6492,"long":-83.6706},{"zip":"43616","city":"Oregon","state":"OH","lat":41.6418,"long":-83.4714},{"zip":"43617","city":"Toledo","state":"OH","lat":41.6668,"long":-83.717},{"zip":"43620","city":"Toledo","state":"OH","lat":41.6654,"long":-83.5536},{"zip":"43623","city":"Toledo","state":"OH","lat":41.708,"long":-83.6434},{"zip":"43635","city":"Toledo","state":"OH","lat":41.6868,"long":-83.4394},{"zip":"43652","city":"Toledo","state":"OH","lat":41.6868,"long":-83.4394},{"zip":"43654","city":"Toledo","state":"OH","lat":41.6868,"long":-83.4394},{"zip":"43656","city":"Toledo","state":"OH","lat":41.6782,"long":-83.4972},{"zip":"43657","city":"Toledo","state":"OH","lat":41.6868,"long":-83.4394},{"zip":"43659","city":"Toledo","state":"OH","lat":41.6868,"long":-83.4394},{"zip":"43660","city":"Toledo","state":"OH","lat":41.6546,"long":-83.5329},{"zip":"43661","city":"Toledo","state":"OH","lat":41.6782,"long":-83.4972},{"zip":"43666","city":"Toledo","state":"OH","lat":41.6782,"long":-83.4972},{"zip":"43667","city":"Toledo","state":"OH","lat":41.6868,"long":-83.4394},{"zip":"43681","city":"Toledo","state":"OH","lat":41.6868,"long":-83.4394},{"zip":"43682","city":"Toledo","state":"OH","lat":41.6868,"long":-83.4394},{"zip":"43697","city":"Toledo","state":"OH","lat":41.6868,"long":-83.4394},{"zip":"43699","city":"Toledo","state":"OH","lat":41.6538,"long":-83.6589},{"zip":"43064","city":"Plain City","state":"OH","lat":40.0974,"long":-83.269},{"zip":"43140","city":"London","state":"OH","lat":39.9001,"long":-83.4439},{"zip":"43143","city":"Mount Sterling","state":"OH","lat":39.7175,"long":-83.2806},{"zip":"43151","city":"Sedalia","state":"OH","lat":39.733,"long":-83.4764},{"zip":"43153","city":"South Solon","state":"OH","lat":39.7423,"long":-83.597},{"zip":"43162","city":"West Jefferson","state":"OH","lat":39.9424,"long":-83.2853},{"zip":"43301","city":"Marion","state":"OH","lat":40.6166,"long":-83.0693},{"zip":"43302","city":"Marion","state":"OH","lat":40.5876,"long":-83.1271},{"zip":"43314","city":"Caledonia","state":"OH","lat":40.6272,"long":-82.9925},{"zip":"43322","city":"Green Camp","state":"OH","lat":40.5322,"long":-83.2078},{"zip":"43332","city":"La Rue","state":"OH","lat":40.5789,"long":-83.3734},{"zip":"43335","city":"Martel","state":"OH","lat":40.6685,"long":-82.91},{"zip":"43337","city":"Morral","state":"OH","lat":40.6954,"long":-83.2046},{"zip":"43341","city":"New Bloomington","state":"OH","lat":40.6073,"long":-83.3224},{"zip":"43342","city":"Prospect","state":"OH","lat":40.4727,"long":-83.1763},{"zip":"43356","city":"Waldo","state":"OH","lat":40.4605,"long":-83.0706},{"zip":"43716","city":"Beallsville","state":"OH","lat":39.8484,"long":-81.0368},{"zip":"43747","city":"Jerusalem","state":"OH","lat":39.8488,"long":-81.0921},{"zip":"43752","city":"Laings","state":"OH","lat":39.7171,"long":-81.01},{"zip":"43754","city":"Lewisville","state":"OH","lat":39.7684,"long":-81.2316},{"zip":"43757","city":"Malaga","state":"OH","lat":39.8594,"long":-81.1516},{"zip":"43786","city":"Stafford","state":"OH","lat":39.7112,"long":-81.2758},{"zip":"43793","city":"Woodsfield","state":"OH","lat":39.7515,"long":-81.0759},{"zip":"43914","city":"Cameron","state":"OH","lat":39.7687,"long":-80.9454},{"zip":"43915","city":"Clarington","state":"OH","lat":39.7819,"long":-80.9113},{"zip":"43931","city":"Hannibal","state":"OH","lat":39.6673,"long":-80.872},{"zip":"43946","city":"Sardis","state":"OH","lat":39.6526,"long":-80.9243},{"zip":"43728","city":"Chesterhill","state":"OH","lat":39.4953,"long":-81.8773},{"zip":"43756","city":"Mcconnelsville","state":"OH","lat":39.6487,"long":-81.8532},{"zip":"43758","city":"Malta","state":"OH","lat":39.6482,"long":-81.9127},{"zip":"43787","city":"Stockport","state":"OH","lat":39.549,"long":-81.8262},{"zip":"43315","city":"Cardington","state":"OH","lat":40.5066,"long":-82.9337},{"zip":"43317","city":"Chesterville","state":"OH","lat":40.4789,"long":-82.6828},{"zip":"43320","city":"Edison","state":"OH","lat":40.5905,"long":-82.9023},{"zip":"43321","city":"Fulton","state":"OH","lat":40.4626,"long":-82.8288},{"zip":"43325","city":"Iberia","state":"OH","lat":40.6703,"long":-82.8435},{"zip":"43334","city":"Marengo","state":"OH","lat":40.3895,"long":-82.8121},{"zip":"43338","city":"Mount Gilead","state":"OH","lat":40.5384,"long":-82.8062},{"zip":"43349","city":"Shauck","state":"OH","lat":40.6142,"long":-82.6619},{"zip":"43350","city":"Sparta","state":"OH","lat":40.5289,"long":-82.8229},{"zip":"43701","city":"Zanesville","state":"OH","lat":39.9274,"long":-82.0041},{"zip":"43702","city":"Zanesville","state":"OH","lat":39.9403,"long":-82.0132},{"zip":"43720","city":"Blue Rock","state":"OH","lat":39.8,"long":-81.891},{"zip":"43727","city":"Chandlersville","state":"OH","lat":39.8897,"long":-81.8301},{"zip":"43734","city":"Duncan Falls","state":"OH","lat":39.8778,"long":-81.9117},{"zip":"43735","city":"East Fultonham","state":"OH","lat":39.8501,"long":-82.1221},{"zip":"43738","city":"Fultonham","state":"OH","lat":39.8555,"long":-82.1378},{"zip":"43746","city":"Hopewell","state":"OH","lat":39.9601,"long":-82.1756},{"zip":"43762","city":"New Concord","state":"OH","lat":40.0088,"long":-81.7387},{"zip":"43767","city":"Norwich","state":"OH","lat":39.9934,"long":-81.8024},{"zip":"43771","city":"Philo","state":"OH","lat":39.8458,"long":-81.9175},{"zip":"43777","city":"Roseville","state":"OH","lat":39.8187,"long":-82.0792},{"zip":"43791","city":"White Cottage","state":"OH","lat":39.8713,"long":-82.0987},{"zip":"43802","city":"Adamsville","state":"OH","lat":40.0793,"long":-81.8718},{"zip":"43821","city":"Dresden","state":"OH","lat":40.1069,"long":-81.9998},{"zip":"43822","city":"Frazeysburg","state":"OH","lat":40.1316,"long":-82.1293},{"zip":"43830","city":"Nashport","state":"OH","lat":40.0386,"long":-82.0998},{"zip":"43842","city":"Trinway","state":"OH","lat":40.1412,"long":-82.0099},{"zip":"43711","city":"Ava","state":"OH","lat":39.8276,"long":-81.5549},{"zip":"43717","city":"Belle Valley","state":"OH","lat":39.7906,"long":-81.5562},{"zip":"43724","city":"Caldwell","state":"OH","lat":39.7467,"long":-81.5153},{"zip":"43779","city":"Sarahsville","state":"OH","lat":39.8162,"long":-81.4243},{"zip":"43788","city":"Summerfield","state":"OH","lat":39.8036,"long":-81.332},{"zip":"43408","city":"Clay Center","state":"OH","lat":41.5686,"long":-83.3632},{"zip":"43412","city":"Curtice","state":"OH","lat":41.6477,"long":-83.2858},{"zip":"43416","city":"Elmore","state":"OH","lat":41.4681,"long":-83.2767},{"zip":"43430","city":"Genoa","state":"OH","lat":41.53,"long":-83.359},{"zip":"43432","city":"Graytown","state":"OH","lat":41.5647,"long":-83.2613},{"zip":"43433","city":"Gypsum","state":"OH","lat":41.5038,"long":-82.8708},{"zip":"43436","city":"Isle Saint George","state":"OH","lat":41.7153,"long":-82.8227},{"zip":"43439","city":"Lacarne","state":"OH","lat":41.5181,"long":-83.0413},{"zip":"43440","city":"Lakeside Marblehead","state":"OH","lat":41.5247,"long":-82.7766},{"zip":"43445","city":"Martin","state":"OH","lat":41.5694,"long":-83.3116},{"zip":"43446","city":"Middle Bass","state":"OH","lat":41.6835,"long":-82.8047},{"zip":"43449","city":"Oak Harbor","state":"OH","lat":41.5236,"long":-83.1278},{"zip":"43452","city":"Port Clinton","state":"OH","lat":41.512,"long":-82.9377},{"zip":"43456","city":"Put In Bay","state":"OH","lat":41.6514,"long":-82.8226},{"zip":"43458","city":"Rocky Ridge","state":"OH","lat":41.5302,"long":-83.2128},{"zip":"43468","city":"Williston","state":"OH","lat":41.6037,"long":-83.3399},{"zip":"43076","city":"Thornville","state":"OH","lat":39.8974,"long":-82.4071},{"zip":"43730","city":"Corning","state":"OH","lat":39.6361,"long":-82.1102},{"zip":"43731","city":"Crooksville","state":"OH","lat":39.7623,"long":-82.084},{"zip":"43739","city":"Glenford","state":"OH","lat":39.8699,"long":-82.3026},{"zip":"43748","city":"Junction City","state":"OH","lat":39.6965,"long":-82.3155},{"zip":"43760","city":"Mount Perry","state":"OH","lat":39.8788,"long":-82.188},{"zip":"43761","city":"Moxahala","state":"OH","lat":39.7403,"long":-82.2484},{"zip":"43764","city":"New Lexington","state":"OH","lat":39.7174,"long":-82.2019},{"zip":"43766","city":"New Straitsville","state":"OH","lat":39.5869,"long":-82.2488},{"zip":"43782","city":"Shawnee","state":"OH","lat":39.611,"long":-82.2085},{"zip":"43783","city":"Somerset","state":"OH","lat":39.7936,"long":-82.2991},{"zip":"43103","city":"Ashville","state":"OH","lat":39.7316,"long":-82.9446},{"zip":"43113","city":"Circleville","state":"OH","lat":39.5988,"long":-82.93},{"zip":"43116","city":"Commercial Point","state":"OH","lat":39.7699,"long":-83.0602},{"zip":"43117","city":"Derby","state":"OH","lat":39.7687,"long":-83.2057},{"zip":"43137","city":"Lockbourne","state":"OH","lat":39.8142,"long":-82.9764},{"zip":"43145","city":"New Holland","state":"OH","lat":39.5589,"long":-83.2504},{"zip":"43146","city":"Orient","state":"OH","lat":39.7954,"long":-83.1543},{"zip":"43156","city":"Tarlton","state":"OH","lat":39.5535,"long":-82.7763},{"zip":"43164","city":"Williamsport","state":"OH","lat":39.6117,"long":-83.1251},{"zip":"43101","city":"Adelphi","state":"OH","lat":39.4667,"long":-82.7471},{"zip":"43115","city":"Clarksburg","state":"OH","lat":39.4904,"long":-83.1563},{"zip":"43407","city":"Burgoon","state":"OH","lat":41.268,"long":-83.2475},{"zip":"43410","city":"Clyde","state":"OH","lat":41.3024,"long":-82.9918},{"zip":"43420","city":"Fremont","state":"OH","lat":41.3498,"long":-83.1181},{"zip":"43431","city":"Gibsonburg","state":"OH","lat":41.3805,"long":-83.3358},{"zip":"43435","city":"Helena","state":"OH","lat":41.326,"long":-83.3186},{"zip":"43442","city":"Lindsey","state":"OH","lat":41.4147,"long":-83.2135},{"zip":"43464","city":"Vickery","state":"OH","lat":41.391,"long":-82.899},{"zip":"43469","city":"Woodville","state":"OH","lat":41.4512,"long":-83.3646},{"zip":"43804","city":"Baltic","state":"OH","lat":40.4476,"long":-81.6792},{"zip":"43832","city":"Newcomerstown","state":"OH","lat":40.2739,"long":-81.594},{"zip":"43837","city":"Port Washington","state":"OH","lat":40.3404,"long":-81.5215},{"zip":"43840","city":"Stone Creek","state":"OH","lat":40.4052,"long":-81.589},{"zip":"43007","city":"Broadway","state":"OH","lat":40.3406,"long":-83.4163},{"zip":"43029","city":"Irwin","state":"OH","lat":40.1284,"long":-83.4587},{"zip":"43036","city":"Magnetic Springs","state":"OH","lat":40.3528,"long":-83.2634},{"zip":"43040","city":"Marysville","state":"OH","lat":40.2477,"long":-83.3622},{"zip":"43041","city":"Marysville","state":"OH","lat":40.2364,"long":-83.3671},{"zip":"43045","city":"Milford Center","state":"OH","lat":40.1817,"long":-83.4373},{"zip":"43067","city":"Raymond","state":"OH","lat":40.338,"long":-83.4655},{"zip":"43077","city":"Unionville Center","state":"OH","lat":40.1367,"long":-83.3408},{"zip":"43344","city":"Richwood","state":"OH","lat":40.437,"long":-83.3136},{"zip":"43501","city":"Alvordton","state":"OH","lat":41.6625,"long":-84.4355},{"zip":"43505","city":"Blakeslee","state":"OH","lat":41.5239,"long":-84.7303},{"zip":"43506","city":"Bryan","state":"OH","lat":41.4748,"long":-84.5629},{"zip":"43517","city":"Edgerton","state":"OH","lat":41.4425,"long":-84.7349},{"zip":"43518","city":"Edon","state":"OH","lat":41.5842,"long":-84.757},{"zip":"43531","city":"Kunkle","state":"OH","lat":41.6367,"long":-84.4952},{"zip":"43543","city":"Montpelier","state":"OH","lat":41.5982,"long":-84.6147},{"zip":"43554","city":"Pioneer","state":"OH","lat":41.6656,"long":-84.5363},{"zip":"43557","city":"Stryker","state":"OH","lat":41.4861,"long":-84.4089},{"zip":"43570","city":"West Unity","state":"OH","lat":41.5756,"long":-84.4421},{"zip":"43402","city":"Bowling Green","state":"OH","lat":41.3815,"long":-83.6507},{"zip":"43403","city":"Bowling Green","state":"OH","lat":41.377,"long":-83.6371},{"zip":"43406","city":"Bradner","state":"OH","lat":41.3298,"long":-83.4456},{"zip":"43413","city":"Cygnet","state":"OH","lat":41.2401,"long":-83.6433},{"zip":"43414","city":"Dunbridge","state":"OH","lat":41.4581,"long":-83.6102},{"zip":"43437","city":"Jerry City","state":"OH","lat":41.2559,"long":-83.6022},{"zip":"43441","city":"Lemoyne","state":"OH","lat":41.4959,"long":-83.4741},{"zip":"43443","city":"Luckey","state":"OH","lat":41.4517,"long":-83.4674},{"zip":"43447","city":"Millbury","state":"OH","lat":41.5611,"long":-83.4381},{"zip":"43450","city":"Pemberville","state":"OH","lat":41.4023,"long":-83.4736},{"zip":"43451","city":"Portage","state":"OH","lat":41.3127,"long":-83.6143},{"zip":"43457","city":"Risingsun","state":"OH","lat":41.2706,"long":-83.4326},{"zip":"43460","city":"Rossford","state":"OH","lat":41.6049,"long":-83.5638},{"zip":"43462","city":"Rudolph","state":"OH","lat":41.2967,"long":-83.6832},{"zip":"43463","city":"Stony Ridge","state":"OH","lat":41.5091,"long":-83.5085},{"zip":"43465","city":"Walbridge","state":"OH","lat":41.5861,"long":-83.493},{"zip":"43466","city":"Wayne","state":"OH","lat":41.2993,"long":-83.4701},{"zip":"43467","city":"West Millgrove","state":"OH","lat":41.2426,"long":-83.4896},{"zip":"43511","city":"Custar","state":"OH","lat":41.2953,"long":-83.8349},{"zip":"43522","city":"Grand Rapids","state":"OH","lat":41.4379,"long":-83.8552},{"zip":"43525","city":"Haskins","state":"OH","lat":41.4667,"long":-83.7055},{"zip":"43529","city":"Hoytville","state":"OH","lat":41.1872,"long":-83.7847},{"zip":"43541","city":"Milton Center","state":"OH","lat":41.3009,"long":-83.8296},{"zip":"43551","city":"Perrysburg","state":"OH","lat":41.5429,"long":-83.5927},{"zip":"43552","city":"Perrysburg","state":"OH","lat":41.557,"long":-83.6272},{"zip":"43565","city":"Tontogany","state":"OH","lat":41.4192,"long":-83.7408},{"zip":"43569","city":"Weston","state":"OH","lat":41.3516,"long":-83.7973},{"zip":"43619","city":"Northwood","state":"OH","lat":41.608,"long":-83.4806},{"zip":"43316","city":"Carey","state":"OH","lat":40.9486,"long":-83.3836},{"zip":"43323","city":"Harpster","state":"OH","lat":40.7475,"long":-83.2343},{"zip":"43330","city":"Kirby","state":"OH","lat":40.813,"long":-83.4196},{"zip":"43351","city":"Upper Sandusky","state":"OH","lat":40.8249,"long":-83.2977},{"zip":"43359","city":"Wharton","state":"OH","lat":40.8612,"long":-83.463}]
