[{"zip":"43009","city":"Cable","state":"OH","lat":40.1784,"long":-83.647},{"zip":"43044","city":"Mechanicsburg","state":"OH","lat":40.0647,"long":-83.5724},{"zip":"43047","city":"Mingo","state":"OH","lat":40.2049,"long":-83.6466},{"zip":"43060","city":"North Lewisburg","state":"OH","lat":40.2229,"long":-83.5615},{"zip":"43070","city":"Rosewood","state":"OH","lat":40.2158,"long":-83.9579},{"zip":"43072","city":"Saint Paris","state":"OH","lat":40.1058,"long":-83.9631},{"zip":"43078","city":"Urbana","state":"OH","lat":40.1066,"long":-83.7671},{"zip":"43083","city":"Westville","state":"OH","lat":40.1022,"long":-83.8379},{"zip":"43084","city":"Woodstock","state":"OH","lat":40.1816,"long":-83.5461},{"zip":"43010","city":"Catawba","state":"OH","lat":39.9991,"long":-83.6222},{"zip":"43003","city":"Ashley","state":"OH","lat":40.4163,"long":-82.9542},{"zip":"43015","city":"Delaware","state":"OH","lat":40.2932,"long":-83.0723},{"zip":"43021","city":"Galena","state":"OH","lat":40.2011,"long":-82.8749},{"zip":"43032","city":"Kilbourne","state":"OH","lat":40.3286,"long":-82.9588},{"zip":"43035","city":"Lewis Center","state":"OH","lat":40.1879,"long":-82.9878},{"zip":"43061","city":"Ostrander","state":"OH","lat":40.274,"long":-83.1978},{"zip":"43065","city":"Powell","state":"OH","lat":40.1834,"long":-83.0912},{"zip":"43066","city":"Radnor","state":"OH","lat":40.3918,"long":-83.1781},{"zip":"43074","city":"Sunbury","state":"OH","lat":40.2655,"long":-82.8511},{"zip":"43082","city":"Westerville","state":"OH","lat":40.1524,"long":-82.882},{"zip":"43046","city":"Millersport","state":"OH","lat":39.8993,"long":-82.5283},{"zip":"43002","city":"Amlin","state":"OH","lat":40.072,"long":-83.1792},{"zip":"43004","city":"Blacklick","state":"OH","lat":40.021,"long":-82.8079},{"zip":"43016","city":"Dublin","state":"OH","lat":40.0985,"long":-83.1537},{"zip":"43017","city":"Dublin","state":"OH","lat":40.1093,"long":-83.1146},{"zip":"43026","city":"Hilliard","state":"OH","lat":40.0322,"long":-83.1383},{"zip":"43054","city":"New Albany","state":"OH","lat":40.0847,"long":-82.7988},{"zip":"43068","city":"Reynoldsburg","state":"OH","lat":39.9551,"long":-82.8035},{"zip":"43069","city":"Reynoldsburg","state":"OH","lat":39.9555,"long":-82.7992},{"zip":"43081","city":"Westerville","state":"OH","lat":40.1146,"long":-82.9105},{"zip":"43085","city":"Columbus","state":"OH","lat":40.0999,"long":-83.0157},{"zip":"43086","city":"Westerville","state":"OH","lat":39.969,"long":-83.0114},{"zip":"43005","city":"Bladensburg","state":"OH","lat":40.2962,"long":-82.2736},{"zip":"43006","city":"Brinkhaven","state":"OH","lat":40.4583,"long":-82.1553},{"zip":"43011","city":"Centerburg","state":"OH","lat":40.2865,"long":-82.68},{"zip":"43014","city":"Danville","state":"OH","lat":40.4557,"long":-82.2639},{"zip":"43019","city":"Fredericktown","state":"OH","lat":40.4976,"long":-82.5857},{"zip":"43022","city":"Gambier","state":"OH","lat":40.3782,"long":-82.3828},{"zip":"43028","city":"Howard","state":"OH","lat":40.4158,"long":-82.3334},{"zip":"43037","city":"Martinsburg","state":"OH","lat":40.268,"long":-82.3567},{"zip":"43048","city":"Mount Liberty","state":"OH","lat":40.3467,"long":-82.6302},{"zip":"43050","city":"Mount Vernon","state":"OH","lat":40.3849,"long":-82.4873},{"zip":"43001","city":"Alexandria","state":"OH","lat":40.106,"long":-82.6077},{"zip":"43008","city":"Buckeye Lake","state":"OH","lat":39.9337,"long":-82.4724},{"zip":"43013","city":"Croton","state":"OH","lat":40.2376,"long":-82.6989},{"zip":"43018","city":"Etna","state":"OH","lat":39.9572,"long":-82.6837},{"zip":"43023","city":"Granville","state":"OH","lat":40.0788,"long":-82.5194},{"zip":"43025","city":"Hebron","state":"OH","lat":39.9535,"long":-82.4919},{"zip":"43027","city":"Homer","state":"OH","lat":40.2528,"long":-82.5177},{"zip":"43030","city":"Jacksontown","state":"OH","lat":39.9688,"long":-82.43},{"zip":"43031","city":"Johnstown","state":"OH","lat":40.1445,"long":-82.6973},{"zip":"43033","city":"Kirkersville","state":"OH","lat":39.961,"long":-82.5998},{"zip":"43055","city":"Newark","state":"OH","lat":40.0724,"long":-82.4046},{"zip":"43056","city":"Heath","state":"OH","lat":40.0197,"long":-82.3875},{"zip":"43058","city":"Newark","state":"OH","lat":40.0581,"long":-82.4013},{"zip":"43062","city":"Pataskala","state":"OH","lat":40.0009,"long":-82.6687},{"zip":"43071","city":"Saint Louisville","state":"OH","lat":40.1818,"long":-82.356},{"zip":"43073","city":"Summit Station","state":"OH","lat":39.9965,"long":-82.754},{"zip":"43080","city":"Utica","state":"OH","lat":40.2441,"long":-82.4135},{"zip":"43093","city":"Newark","state":"OH","lat":40.0951,"long":-82.4827},{"zip":"43064","city":"Plain City","state":"OH","lat":40.0974,"long":-83.269},{"zip":"43076","city":"Thornville","state":"OH","lat":39.8974,"long":-82.4071},{"zip":"43007","city":"Broadway","state":"OH","lat":40.3406,"long":-83.4163},{"zip":"43029","city":"Irwin","state":"OH","lat":40.1284,"long":-83.4587},{"zip":"43036","city":"Magnetic Springs","state":"OH","lat":40.3528,"long":-83.2634},{"zip":"43040","city":"Marysville","state":"OH","lat":40.2477,"long":-83.3622},{"zip":"43041","city":"Marysville","state":"OH","lat":40.2364,"long":-83.3671},{"zip":"43045","city":"Milford Center","state":"OH","lat":40.1817,"long":-83.4373},{"zip":"43067","city":"Raymond","state":"OH","lat":40.338,"long":-83.4655},{"zip":"43077","city":"Unionville Center","state":"OH","lat":40.1367,"long":-83.3408}]
