[{"zip":"43102","city":"Amanda","state":"OH","lat":39.6251,"long":-82.7552},{"zip":"43105","city":"Baltimore","state":"OH","lat":39.8645,"long":-82.624},{"zip":"43107","city":"Bremen","state":"OH","lat":39.6909,"long":-82.4096},{"zip":"43110","city":"Canal Winchester","state":"OH","lat":39.8349,"long":-82.8044},{"zip":"43112","city":"Carroll","state":"OH","lat":39.7957,"long":-82.7084},{"zip":"43130","city":"Lancaster","state":"OH","lat":39.7187,"long":-82.6031},{"zip":"43136","city":"Lithopolis","state":"OH","lat":39.8013,"long":-82.8125},{"zip":"43147","city":"Pickerington","state":"OH","lat":39.9061,"long":-82.7563},{"zip":"43148","city":"Pleasantville","state":"OH","lat":39.8227,"long":-82.5043},{"zip":"43150","city":"Rushville","state":"OH","lat":39.7674,"long":-82.428},{"zip":"43154","city":"Stoutsville","state":"OH","lat":39.6067,"long":-82.8193},{"zip":"43155","city":"Sugar Grove","state":"OH","lat":39.6277,"long":-82.5321},{"zip":"43157","city":"Thurston","state":"OH","lat":39.8427,"long":-82.5462},{"zip":"43106","city":"Bloomingburg","state":"OH","lat":39.6286,"long":-83.4095},{"zip":"43128","city":"Jeffersonville","state":"OH","lat":39.659,"long":-83.5687},{"zip":"43142","city":"Milledgeville","state":"OH","lat":39.5937,"long":-83.5873},{"zip":"43160","city":"Washington Court House","state":"OH","lat":39.537,"long":-83.455},{"zip":"43109","city":"Brice","state":"OH","lat":39.9181,"long":-82.8321},{"zip":"43119","city":"Galloway","state":"OH","lat":39.9366,"long":-83.1838},{"zip":"43123","city":"Grove City","state":"OH","lat":39.8814,"long":-83.0839},{"zip":"43125","city":"Groveport","state":"OH","lat":39.8581,"long":-82.8872},{"zip":"43126","city":"Harrisburg","state":"OH","lat":39.8139,"long":-83.1664},{"zip":"43195","city":"Groveport","state":"OH","lat":39.8614,"long":-82.8916},{"zip":"43199","city":"Groveport","state":"OH","lat":39.969,"long":-83.0114},{"zip":"43111","city":"Carbon Hill","state":"OH","lat":39.5045,"long":-82.2429},{"zip":"43127","city":"Haydenville","state":"OH","lat":39.4766,"long":-82.3281},{"zip":"43135","city":"Laurelville","state":"OH","lat":39.4757,"long":-82.7212},{"zip":"43138","city":"Logan","state":"OH","lat":39.5372,"long":-82.4126},{"zip":"43144","city":"Murray City","state":"OH","lat":39.5055,"long":-82.1711},{"zip":"43149","city":"Rockbridge","state":"OH","lat":39.5509,"long":-82.5626},{"zip":"43152","city":"South Bloomingville","state":"OH","lat":39.4174,"long":-82.5923},{"zip":"43158","city":"Union Furnace","state":"OH","lat":39.4617,"long":-82.3563},{"zip":"43140","city":"London","state":"OH","lat":39.9001,"long":-83.4439},{"zip":"43143","city":"Mount Sterling","state":"OH","lat":39.7175,"long":-83.2806},{"zip":"43151","city":"Sedalia","state":"OH","lat":39.733,"long":-83.4764},{"zip":"43153","city":"South Solon","state":"OH","lat":39.7423,"long":-83.597},{"zip":"43162","city":"West Jefferson","state":"OH","lat":39.9424,"long":-83.2853},{"zip":"43103","city":"Ashville","state":"OH","lat":39.7316,"long":-82.9446},{"zip":"43113","city":"Circleville","state":"OH","lat":39.5988,"long":-82.93},{"zip":"43116","city":"Commercial Point","state":"OH","lat":39.7699,"long":-83.0602},{"zip":"43117","city":"Derby","state":"OH","lat":39.7687,"long":-83.2057},{"zip":"43137","city":"Lockbourne","state":"OH","lat":39.8142,"long":-82.9764},{"zip":"43145","city":"New Holland","state":"OH","lat":39.5589,"long":-83.2504},{"zip":"43146","city":"Orient","state":"OH","lat":39.7954,"long":-83.1543},{"zip":"43156","city":"Tarlton","state":"OH","lat":39.5535,"long":-82.7763},{"zip":"43164","city":"Williamsport","state":"OH","lat":39.6117,"long":-83.1251},{"zip":"43101","city":"Adelphi","state":"OH","lat":39.4667,"long":-82.7471},{"zip":"43115","city":"Clarksburg","state":"OH","lat":39.4904,"long":-83.1563}]
