[{"zip":"43326","city":"Kenton","state":"OH","lat":40.6404,"long":-83.6111},{"zip":"43340","city":"Mount Victory","state":"OH","lat":40.5232,"long":-83.4942},{"zip":"43345","city":"Ridgeway","state":"OH","lat":40.5209,"long":-83.5702},{"zip":"43346","city":"Roundhead","state":"OH","lat":40.5732,"long":-83.8462},{"zip":"43310","city":"Belle Center","state":"OH","lat":40.5024,"long":-83.7688},{"zip":"43311","city":"Bellefontaine","state":"OH","lat":40.3605,"long":-83.7571},{"zip":"43318","city":"De Graff","state":"OH","lat":40.3058,"long":-83.9153},{"zip":"43319","city":"East Liberty","state":"OH","lat":40.3077,"long":-83.5862},{"zip":"43324","city":"Huntsville","state":"OH","lat":40.4413,"long":-83.7927},{"zip":"43331","city":"Lakeview","state":"OH","lat":40.5019,"long":-83.9202},{"zip":"43333","city":"Lewistown","state":"OH","lat":40.4277,"long":-83.9209},{"zip":"43336","city":"Middleburg","state":"OH","lat":40.2926,"long":-83.5824},{"zip":"43343","city":"Quincy","state":"OH","lat":40.2876,"long":-83.9744},{"zip":"43347","city":"Rushsylvania","state":"OH","lat":40.4658,"long":-83.6598},{"zip":"43348","city":"Russells Point","state":"OH","lat":40.4675,"long":-83.887},{"zip":"43357","city":"West Liberty","state":"OH","lat":40.2625,"long":-83.7528},{"zip":"43358","city":"West Mansfield","state":"OH","lat":40.4043,"long":-83.5243},{"zip":"43360","city":"Zanesfield","state":"OH","lat":40.3211,"long":-83.6405},{"zip":"43301","city":"Marion","state":"OH","lat":40.6166,"long":-83.0693},{"zip":"43302","city":"Marion","state":"OH","lat":40.5876,"long":-83.1271},{"zip":"43314","city":"Caledonia","state":"OH","lat":40.6272,"long":-82.9925},{"zip":"43322","city":"Green Camp","state":"OH","lat":40.5322,"long":-83.2078},{"zip":"43332","city":"La Rue","state":"OH","lat":40.5789,"long":-83.3734},{"zip":"43335","city":"Martel","state":"OH","lat":40.6685,"long":-82.91},{"zip":"43337","city":"Morral","state":"OH","lat":40.6954,"long":-83.2046},{"zip":"43341","city":"New Bloomington","state":"OH","lat":40.6073,"long":-83.3224},{"zip":"43342","city":"Prospect","state":"OH","lat":40.4727,"long":-83.1763},{"zip":"43356","city":"Waldo","state":"OH","lat":40.4605,"long":-83.0706},{"zip":"43315","city":"Cardington","state":"OH","lat":40.5066,"long":-82.9337},{"zip":"43317","city":"Chesterville","state":"OH","lat":40.4789,"long":-82.6828},{"zip":"43320","city":"Edison","state":"OH","lat":40.5905,"long":-82.9023},{"zip":"43321","city":"Fulton","state":"OH","lat":40.4626,"long":-82.8288},{"zip":"43325","city":"Iberia","state":"OH","lat":40.6703,"long":-82.8435},{"zip":"43334","city":"Marengo","state":"OH","lat":40.3895,"long":-82.8121},{"zip":"43338","city":"Mount Gilead","state":"OH","lat":40.5384,"long":-82.8062},{"zip":"43349","city":"Shauck","state":"OH","lat":40.6142,"long":-82.6619},{"zip":"43350","city":"Sparta","state":"OH","lat":40.5289,"long":-82.8229},{"zip":"43344","city":"Richwood","state":"OH","lat":40.437,"long":-83.3136},{"zip":"43316","city":"Carey","state":"OH","lat":40.9486,"long":-83.3836},{"zip":"43323","city":"Harpster","state":"OH","lat":40.7475,"long":-83.2343},{"zip":"43330","city":"Kirby","state":"OH","lat":40.813,"long":-83.4196},{"zip":"43351","city":"Upper Sandusky","state":"OH","lat":40.8249,"long":-83.2977},{"zip":"43359","city":"Wharton","state":"OH","lat":40.8612,"long":-83.463}]
