[{"zip":"43512","city":"Defiance","state":"OH","lat":41.2799,"long":-84.3626},{"zip":"43519","city":"Evansport","state":"OH","lat":41.4222,"long":-84.3966},{"zip":"43520","city":"Farmer","state":"OH","lat":41.3907,"long":-84.6313},{"zip":"43526","city":"Hicksville","state":"OH","lat":41.3034,"long":-84.7589},{"zip":"43530","city":"Jewell","state":"OH","lat":41.3258,"long":-84.2793},{"zip":"43536","city":"Mark Center","state":"OH","lat":41.2917,"long":-84.6278},{"zip":"43549","city":"Ney","state":"OH","lat":41.3781,"long":-84.5269},{"zip":"43556","city":"Sherwood","state":"OH","lat":41.2946,"long":-84.5417},{"zip":"43502","city":"Archbold","state":"OH","lat":41.5333,"long":-84.3048},{"zip":"43515","city":"Delta","state":"OH","lat":41.5577,"long":-83.9866},{"zip":"43521","city":"Fayette","state":"OH","lat":41.6717,"long":-84.325},{"zip":"43533","city":"Lyons","state":"OH","lat":41.6905,"long":-84.0624},{"zip":"43540","city":"Metamora","state":"OH","lat":41.6952,"long":-83.926},{"zip":"43553","city":"Pettisville","state":"OH","lat":41.5306,"long":-84.2297},{"zip":"43558","city":"Swanton","state":"OH","lat":41.5945,"long":-83.8718},{"zip":"43567","city":"Wauseon","state":"OH","lat":41.5668,"long":-84.1537},{"zip":"43510","city":"Colton","state":"OH","lat":41.4199,"long":-84.0137},{"zip":"43516","city":"Deshler","state":"OH","lat":41.2239,"long":-83.8964},{"zip":"43523","city":"Grelton","state":"OH","lat":41.3411,"long":-84.0005},{"zip":"43524","city":"Hamler","state":"OH","lat":41.2292,"long":-84.0341},{"zip":"43527","city":"Holgate","state":"OH","lat":41.2549,"long":-84.1447},{"zip":"43532","city":"Liberty Center","state":"OH","lat":41.4514,"long":-83.9859},{"zip":"43534","city":"Mc Clure","state":"OH","lat":41.3773,"long":-83.9425},{"zip":"43535","city":"Malinta","state":"OH","lat":41.3084,"long":-84.0457},{"zip":"43545","city":"Napoleon","state":"OH","lat":41.391,"long":-84.1433},{"zip":"43548","city":"New Bavaria","state":"OH","lat":41.2037,"long":-84.1683},{"zip":"43550","city":"Okolona","state":"OH","lat":41.3267,"long":-84.1117},{"zip":"43555","city":"Ridgeville Corners","state":"OH","lat":41.4351,"long":-84.2544},{"zip":"43504","city":"Berkey","state":"OH","lat":41.6989,"long":-83.831},{"zip":"43528","city":"Holland","state":"OH","lat":41.6226,"long":-83.7257},{"zip":"43537","city":"Maumee","state":"OH","lat":41.5817,"long":-83.6628},{"zip":"43542","city":"Monclova","state":"OH","lat":41.5684,"long":-83.7757},{"zip":"43547","city":"Neapolis","state":"OH","lat":41.492,"long":-83.8706},{"zip":"43560","city":"Sylvania","state":"OH","lat":41.708,"long":-83.7068},{"zip":"43566","city":"Waterville","state":"OH","lat":41.5022,"long":-83.7331},{"zip":"43571","city":"Whitehouse","state":"OH","lat":41.5194,"long":-83.8115},{"zip":"43501","city":"Alvordton","state":"OH","lat":41.6625,"long":-84.4355},{"zip":"43505","city":"Blakeslee","state":"OH","lat":41.5239,"long":-84.7303},{"zip":"43506","city":"Bryan","state":"OH","lat":41.4748,"long":-84.5629},{"zip":"43517","city":"Edgerton","state":"OH","lat":41.4425,"long":-84.7349},{"zip":"43518","city":"Edon","state":"OH","lat":41.5842,"long":-84.757},{"zip":"43531","city":"Kunkle","state":"OH","lat":41.6367,"long":-84.4952},{"zip":"43543","city":"Montpelier","state":"OH","lat":41.5982,"long":-84.6147},{"zip":"43554","city":"Pioneer","state":"OH","lat":41.6656,"long":-84.5363},{"zip":"43557","city":"Stryker","state":"OH","lat":41.4861,"long":-84.4089},{"zip":"43570","city":"West Unity","state":"OH","lat":41.5756,"long":-84.4421},{"zip":"43511","city":"Custar","state":"OH","lat":41.2953,"long":-83.8349},{"zip":"43522","city":"Grand Rapids","state":"OH","lat":41.4379,"long":-83.8552},{"zip":"43525","city":"Haskins","state":"OH","lat":41.4667,"long":-83.7055},{"zip":"43529","city":"Hoytville","state":"OH","lat":41.1872,"long":-83.7847},{"zip":"43541","city":"Milton Center","state":"OH","lat":41.3009,"long":-83.8296},{"zip":"43551","city":"Perrysburg","state":"OH","lat":41.5429,"long":-83.5927},{"zip":"43552","city":"Perrysburg","state":"OH","lat":41.557,"long":-83.6272},{"zip":"43565","city":"Tontogany","state":"OH","lat":41.4192,"long":-83.7408},{"zip":"43569","city":"Weston","state":"OH","lat":41.3516,"long":-83.7973}]
