[{"zip":"43601","city":"Toledo","state":"OH","lat":41.7207,"long":-83.5694},{"zip":"43603","city":"Toledo","state":"OH","lat":41.6868,"long":-83.4394},{"zip":"43604","city":"Toledo","state":"OH","lat":41.6614,"long":-83.5249},{"zip":"43605","city":"Toledo","state":"OH","lat":41.6525,"long":-83.5085},{"zip":"43606","city":"Toledo","state":"OH","lat":41.6712,"long":-83.606},{"zip":"43607","city":"Toledo","state":"OH","lat":41.6504,"long":-83.5974},{"zip":"43608","city":"Toledo","state":"OH","lat":41.6779,"long":-83.5344},{"zip":"43609","city":"Toledo","state":"OH","lat":41.6298,"long":-83.5773},{"zip":"43610","city":"Toledo","state":"OH","lat":41.6767,"long":-83.5573},{"zip":"43611","city":"Toledo","state":"OH","lat":41.7045,"long":-83.4892},{"zip":"43612","city":"Toledo","state":"OH","lat":41.7046,"long":-83.5656},{"zip":"43613","city":"Toledo","state":"OH","lat":41.7039,"long":-83.6034},{"zip":"43614","city":"Toledo","state":"OH","lat":41.6028,"long":-83.6292},{"zip":"43615","city":"Toledo","state":"OH","lat":41.6492,"long":-83.6706},{"zip":"43616","city":"Oregon","state":"OH","lat":41.6418,"long":-83.4714},{"zip":"43617","city":"Toledo","state":"OH","lat":41.6668,"long":-83.717},{"zip":"43620","city":"Toledo","state":"OH","lat":41.6654,"long":-83.5536},{"zip":"43623","city":"Toledo","state":"OH","lat":41.708,"long":-83.6434},{"zip":"43635","city":"Toledo","state":"OH","lat":41.6868,"long":-83.4394},{"zip":"43652","city":"Toledo","state":"OH","lat":41.6868,"long":-83.4394},{"zip":"43654","city":"Toledo","state":"OH","lat":41.6868,"long":-83.4394},{"zip":"43656","city":"Toledo","state":"OH","lat":41.6782,"long":-83.4972},{"zip":"43657","city":"Toledo","state":"OH","lat":41.6868,"long":-83.4394},{"zip":"43659","city":"Toledo","state":"OH","lat":41.6868,"long":-83.4394},{"zip":"43660","city":"Toledo","state":"OH","lat":41.6546,"long":-83.5329},{"zip":"43661","city":"Toledo","state":"OH","lat":41.6782,"long":-83.4972},{"zip":"43666","city":"Toledo","state":"OH","lat":41.6782,"long":-83.4972},{"zip":"43667","city":"Toledo","state":"OH","lat":41.6868,"long":-83.4394},{"zip":"43681","city":"Toledo","state":"OH","lat":41.6868,"long":-83.4394},{"zip":"43682","city":"Toledo","state":"OH","lat":41.6868,"long":-83.4394},{"zip":"43697","city":"Toledo","state":"OH","lat":41.6868,"long":-83.4394},{"zip":"43699","city":"Toledo","state":"OH","lat":41.6538,"long":-83.6589},{"zip":"43619","city":"Northwood","state":"OH","lat":41.608,"long":-83.4806}]
