[{"zip":"43713","city":"Barnesville","state":"OH","lat":39.9853,"long":-81.1375},{"zip":"43718","city":"Belmont","state":"OH","lat":40.032,"long":-81.0066},{"zip":"43719","city":"Bethesda","state":"OH","lat":40.0192,"long":-81.0767},{"zip":"43759","city":"Morristown","state":"OH","lat":40.0113,"long":-80.9701},{"zip":"43722","city":"Buffalo","state":"OH","lat":39.9159,"long":-81.5201},{"zip":"43723","city":"Byesville","state":"OH","lat":39.9623,"long":-81.5485},{"zip":"43725","city":"Cambridge","state":"OH","lat":40.027,"long":-81.582},{"zip":"43732","city":"Cumberland","state":"OH","lat":39.852,"long":-81.6576},{"zip":"43733","city":"Derwent","state":"OH","lat":39.9236,"long":-81.543},{"zip":"43736","city":"Fairview","state":"OH","lat":40.065,"long":-81.2558},{"zip":"43749","city":"Kimbolton","state":"OH","lat":40.1589,"long":-81.549},{"zip":"43750","city":"Kipling","state":"OH","lat":39.9945,"long":-81.5006},{"zip":"43755","city":"Lore City","state":"OH","lat":40.0459,"long":-81.4479},{"zip":"43768","city":"Old Washington","state":"OH","lat":40.0392,"long":-81.4522},{"zip":"43772","city":"Pleasant City","state":"OH","lat":39.9095,"long":-81.558},{"zip":"43773","city":"Quaker City","state":"OH","lat":39.9866,"long":-81.2899},{"zip":"43778","city":"Salesville","state":"OH","lat":40.0081,"long":-81.3728},{"zip":"43780","city":"Senecaville","state":"OH","lat":39.9337,"long":-81.458},{"zip":"43721","city":"Brownsville","state":"OH","lat":39.947,"long":-82.2565},{"zip":"43740","city":"Gratiot","state":"OH","lat":39.9522,"long":-82.2128},{"zip":"43716","city":"Beallsville","state":"OH","lat":39.8484,"long":-81.0368},{"zip":"43747","city":"Jerusalem","state":"OH","lat":39.8488,"long":-81.0921},{"zip":"43752","city":"Laings","state":"OH","lat":39.7171,"long":-81.01},{"zip":"43754","city":"Lewisville","state":"OH","lat":39.7684,"long":-81.2316},{"zip":"43757","city":"Malaga","state":"OH","lat":39.8594,"long":-81.1516},{"zip":"43786","city":"Stafford","state":"OH","lat":39.7112,"long":-81.2758},{"zip":"43793","city":"Woodsfield","state":"OH","lat":39.7515,"long":-81.0759},{"zip":"43728","city":"Chesterhill","state":"OH","lat":39.4953,"long":-81.8773},{"zip":"43756","city":"Mcconnelsville","state":"OH","lat":39.6487,"long":-81.8532},{"zip":"43758","city":"Malta","state":"OH","lat":39.6482,"long":-81.9127},{"zip":"43787","city":"Stockport","state":"OH","lat":39.549,"long":-81.8262},{"zip":"43701","city":"Zanesville","state":"OH","lat":39.9274,"long":-82.0041},{"zip":"43702","city":"Zanesville","state":"OH","lat":39.9403,"long":-82.0132},{"zip":"43720","city":"Blue Rock","state":"OH","lat":39.8,"long":-81.891},{"zip":"43727","city":"Chandlersville","state":"OH","lat":39.8897,"long":-81.8301},{"zip":"43734","city":"Duncan Falls","state":"OH","lat":39.8778,"long":-81.9117},{"zip":"43735","city":"East Fultonham","state":"OH","lat":39.8501,"long":-82.1221},{"zip":"43738","city":"Fultonham","state":"OH","lat":39.8555,"long":-82.1378},{"zip":"43746","city":"Hopewell","state":"OH","lat":39.9601,"long":-82.1756},{"zip":"43762","city":"New Concord","state":"OH","lat":40.0088,"long":-81.7387},{"zip":"43767","city":"Norwich","state":"OH","lat":39.9934,"long":-81.8024},{"zip":"43771","city":"Philo","state":"OH","lat":39.8458,"long":-81.9175},{"zip":"43777","city":"Roseville","state":"OH","lat":39.8187,"long":-82.0792},{"zip":"43791","city":"White Cottage","state":"OH","lat":39.8713,"long":-82.0987},{"zip":"43711","city":"Ava","state":"OH","lat":39.8276,"long":-81.5549},{"zip":"43717","city":"Belle Valley","state":"OH","lat":39.7906,"long":-81.5562},{"zip":"43724","city":"Caldwell","state":"OH","lat":39.7467,"long":-81.5153},{"zip":"43779","city":"Sarahsville","state":"OH","lat":39.8162,"long":-81.4243},{"zip":"43788","city":"Summerfield","state":"OH","lat":39.8036,"long":-81.332},{"zip":"43730","city":"Corning","state":"OH","lat":39.6361,"long":-82.1102},{"zip":"43731","city":"Crooksville","state":"OH","lat":39.7623,"long":-82.084},{"zip":"43739","city":"Glenford","state":"OH","lat":39.8699,"long":-82.3026},{"zip":"43748","city":"Junction City","state":"OH","lat":39.6965,"long":-82.3155},{"zip":"43760","city":"Mount Perry","state":"OH","lat":39.8788,"long":-82.188},{"zip":"43761","city":"Moxahala","state":"OH","lat":39.7403,"long":-82.2484},{"zip":"43764","city":"New Lexington","state":"OH","lat":39.7174,"long":-82.2019},{"zip":"43766","city":"New Straitsville","state":"OH","lat":39.5869,"long":-82.2488},{"zip":"43782","city":"Shawnee","state":"OH","lat":39.611,"long":-82.2085},{"zip":"43783","city":"Somerset","state":"OH","lat":39.7936,"long":-82.2991}]
