[{"zip":"43803","city":"Bakersville","state":"OH","lat":40.3572,"long":-81.6436},{"zip":"43805","city":"Blissfield","state":"OH","lat":40.3983,"long":-81.9688},{"zip":"43811","city":"Conesville","state":"OH","lat":40.1804,"long":-81.8951},{"zip":"43812","city":"Coshocton","state":"OH","lat":40.2754,"long":-81.866},{"zip":"43824","city":"Fresno","state":"OH","lat":40.3711,"long":-81.7623},{"zip":"43828","city":"Keene","state":"OH","lat":40.3513,"long":-81.8736},{"zip":"43836","city":"Plainfield","state":"OH","lat":40.2087,"long":-81.7197},{"zip":"43843","city":"Walhonding","state":"OH","lat":40.3407,"long":-82.1559},{"zip":"43844","city":"Warsaw","state":"OH","lat":40.3172,"long":-82.056},{"zip":"43845","city":"West Lafayette","state":"OH","lat":40.2718,"long":-81.7361},{"zip":"43802","city":"Adamsville","state":"OH","lat":40.0793,"long":-81.8718},{"zip":"43821","city":"Dresden","state":"OH","lat":40.1069,"long":-81.9998},{"zip":"43822","city":"Frazeysburg","state":"OH","lat":40.1316,"long":-82.1293},{"zip":"43830","city":"Nashport","state":"OH","lat":40.0386,"long":-82.0998},{"zip":"43842","city":"Trinway","state":"OH","lat":40.1412,"long":-82.0099},{"zip":"43804","city":"Baltic","state":"OH","lat":40.4476,"long":-81.6792},{"zip":"43832","city":"Newcomerstown","state":"OH","lat":40.2739,"long":-81.594},{"zip":"43837","city":"Port Washington","state":"OH","lat":40.3404,"long":-81.5215},{"zip":"43840","city":"Stone Creek","state":"OH","lat":40.4052,"long":-81.589}]
