[{"zip":"43902","city":"Alledonia","state":"OH","lat":39.9053,"long":-80.9578},{"zip":"43905","city":"Barton","state":"OH","lat":40.1073,"long":-80.8412},{"zip":"43906","city":"Bellaire","state":"OH","lat":40.0204,"long":-80.7638},{"zip":"43909","city":"Blaine","state":"OH","lat":40.0701,"long":-80.8176},{"zip":"43912","city":"Bridgeport","state":"OH","lat":40.0752,"long":-80.7747},{"zip":"43916","city":"Colerain","state":"OH","lat":40.1224,"long":-80.8149},{"zip":"43927","city":"Fairpoint","state":"OH","lat":40.1225,"long":-80.938},{"zip":"43928","city":"Glencoe","state":"OH","lat":40.0109,"long":-80.8993},{"zip":"43933","city":"Jacobsburg","state":"OH","lat":39.9372,"long":-80.888},{"zip":"43934","city":"Lansing","state":"OH","lat":40.08,"long":-80.8003},{"zip":"43935","city":"Martins Ferry","state":"OH","lat":40.1036,"long":-80.7361},{"zip":"43937","city":"Maynard","state":"OH","lat":40.1302,"long":-80.8773},{"zip":"43940","city":"Neffs","state":"OH","lat":40.0284,"long":-80.8245},{"zip":"43942","city":"Powhatan Point","state":"OH","lat":39.8679,"long":-80.8168},{"zip":"43947","city":"Shadyside","state":"OH","lat":39.9675,"long":-80.7643},{"zip":"43950","city":"Saint Clairsville","state":"OH","lat":40.0778,"long":-80.9788},{"zip":"43951","city":"Lafferty","state":"OH","lat":40.111,"long":-81.0102},{"zip":"43967","city":"Warnock","state":"OH","lat":40.02,"long":-80.9169},{"zip":"43972","city":"Bannock","state":"OH","lat":40.1032,"long":-80.9756},{"zip":"43977","city":"Flushing","state":"OH","lat":40.1451,"long":-81.0757},{"zip":"43983","city":"Piedmont","state":"OH","lat":40.1507,"long":-81.2145},{"zip":"43985","city":"Holloway","state":"OH","lat":40.1623,"long":-81.1326},{"zip":"43920","city":"East Liverpool","state":"OH","lat":40.6774,"long":-80.6006},{"zip":"43945","city":"Salineville","state":"OH","lat":40.6195,"long":-80.835},{"zip":"43962","city":"Summitville","state":"OH","lat":40.6781,"long":-80.8862},{"zip":"43968","city":"Wellsville","state":"OH","lat":40.6171,"long":-80.6621},{"zip":"43907","city":"Cadiz","state":"OH","lat":40.2632,"long":-81.0307},{"zip":"43973","city":"Freeport","state":"OH","lat":40.1925,"long":-81.277},{"zip":"43974","city":"Harrisville","state":"OH","lat":40.1815,"long":-80.8882},{"zip":"43976","city":"Hopedale","state":"OH","lat":40.3496,"long":-80.9021},{"zip":"43981","city":"New Athens","state":"OH","lat":40.1839,"long":-80.9959},{"zip":"43984","city":"New Rumley","state":"OH","lat":40.4017,"long":-81.0309},{"zip":"43986","city":"Jewett","state":"OH","lat":40.3745,"long":-81.0004},{"zip":"43988","city":"Scio","state":"OH","lat":40.4012,"long":-81.1016},{"zip":"43901","city":"Adena","state":"OH","lat":40.2126,"long":-80.8815},{"zip":"43903","city":"Amsterdam","state":"OH","lat":40.4731,"long":-80.9596},{"zip":"43908","city":"Bergholz","state":"OH","lat":40.5195,"long":-80.884},{"zip":"43910","city":"Bloomingdale","state":"OH","lat":40.3742,"long":-80.8072},{"zip":"43913","city":"Brilliant","state":"OH","lat":40.2683,"long":-80.6319},{"zip":"43917","city":"Dillonvale","state":"OH","lat":40.2251,"long":-80.8031},{"zip":"43925","city":"East Springfield","state":"OH","lat":40.4506,"long":-80.8604},{"zip":"43926","city":"Empire","state":"OH","lat":40.5092,"long":-80.6241},{"zip":"43930","city":"Hammondsville","state":"OH","lat":40.5676,"long":-80.7659},{"zip":"43932","city":"Irondale","state":"OH","lat":40.5111,"long":-80.7915},{"zip":"43938","city":"Mingo Junction","state":"OH","lat":40.3203,"long":-80.625},{"zip":"43939","city":"Mount Pleasant","state":"OH","lat":40.1753,"long":-80.7979},{"zip":"43941","city":"Piney Fork","state":"OH","lat":40.2639,"long":-80.8358},{"zip":"43943","city":"Rayland","state":"OH","lat":40.2083,"long":-80.7125},{"zip":"43944","city":"Richmond","state":"OH","lat":40.4261,"long":-80.7613},{"zip":"43948","city":"Smithfield","state":"OH","lat":40.2709,"long":-80.7815},{"zip":"43952","city":"Steubenville","state":"OH","lat":40.3698,"long":-80.634},{"zip":"43953","city":"Steubenville","state":"OH","lat":40.3524,"long":-80.6781},{"zip":"43961","city":"Stratton","state":"OH","lat":40.5185,"long":-80.6285},{"zip":"43963","city":"Tiltonsville","state":"OH","lat":40.1681,"long":-80.6996},{"zip":"43964","city":"Toronto","state":"OH","lat":40.4733,"long":-80.6325},{"zip":"43970","city":"Wolf Run","state":"OH","lat":40.4673,"long":-80.8893},{"zip":"43971","city":"Yorkville","state":"OH","lat":40.1581,"long":-80.7077},{"zip":"43914","city":"Cameron","state":"OH","lat":39.7687,"long":-80.9454},{"zip":"43915","city":"Clarington","state":"OH","lat":39.7819,"long":-80.9113},{"zip":"43931","city":"Hannibal","state":"OH","lat":39.6673,"long":-80.872},{"zip":"43946","city":"Sardis","state":"OH","lat":39.6526,"long":-80.9243}]
