[{"zip":"44805","city":"Ashland","state":"OH","lat":40.8559,"long":-82.3189},{"zip":"44838","city":"Hayesville","state":"OH","lat":40.7731,"long":-82.2624},{"zip":"44840","city":"Jeromesville","state":"OH","lat":40.8134,"long":-82.1861},{"zip":"44842","city":"Loudonville","state":"OH","lat":40.6361,"long":-82.2356},{"zip":"44848","city":"Nankin","state":"OH","lat":40.9206,"long":-82.2817},{"zip":"44859","city":"Nova","state":"OH","lat":41.0282,"long":-82.3384},{"zip":"44864","city":"Perrysville","state":"OH","lat":40.6606,"long":-82.3213},{"zip":"44866","city":"Polk","state":"OH","lat":40.9343,"long":-82.2126},{"zip":"44874","city":"Savannah","state":"OH","lat":40.9653,"long":-82.3652},{"zip":"44880","city":"Sullivan","state":"OH","lat":41.0368,"long":-82.2172},{"zip":"44003","city":"Andover","state":"OH","lat":41.6225,"long":-80.5754},{"zip":"44004","city":"Ashtabula","state":"OH","lat":41.8679,"long":-80.7947},{"zip":"44005","city":"Ashtabula","state":"OH","lat":41.8651,"long":-80.7898},{"zip":"44010","city":"Austinburg","state":"OH","lat":41.7554,"long":-80.8584},{"zip":"44030","city":"Conneaut","state":"OH","lat":41.9345,"long":-80.5803},{"zip":"44032","city":"Dorset","state":"OH","lat":41.659,"long":-80.6683},{"zip":"44041","city":"Geneva","state":"OH","lat":41.8029,"long":-80.9474},{"zip":"44047","city":"Jefferson","state":"OH","lat":41.7335,"long":-80.7562},{"zip":"44048","city":"Kingsville","state":"OH","lat":41.8723,"long":-80.6601},{"zip":"44068","city":"North Kingsville","state":"OH","lat":41.9046,"long":-80.685},{"zip":"44076","city":"Orwell","state":"OH","lat":41.5293,"long":-80.8208},{"zip":"44082","city":"Pierpont","state":"OH","lat":41.7677,"long":-80.5741},{"zip":"44084","city":"Rock Creek","state":"OH","lat":41.6603,"long":-80.8606},{"zip":"44085","city":"Rome","state":"OH","lat":41.6053,"long":-80.8709},{"zip":"44088","city":"Unionville","state":"OH","lat":41.7833,"long":-81.0034},{"zip":"44093","city":"Williamsfield","state":"OH","lat":41.5383,"long":-80.5964},{"zip":"44099","city":"Windsor","state":"OH","lat":41.5623,"long":-80.9667},{"zip":"44607","city":"Augusta","state":"OH","lat":40.686,"long":-81.0219},{"zip":"44615","city":"Carrollton","state":"OH","lat":40.5787,"long":-81.0818},{"zip":"44620","city":"Dellroy","state":"OH","lat":40.5861,"long":-81.1986},{"zip":"44639","city":"Leesville","state":"OH","lat":40.4517,"long":-81.212},{"zip":"44644","city":"Malvern","state":"OH","lat":40.6845,"long":-81.1838},{"zip":"44651","city":"Mechanicstown","state":"OH","lat":40.6263,"long":-80.956},{"zip":"44675","city":"Sherrodsville","state":"OH","lat":40.5184,"long":-81.2339},{"zip":"44408","city":"Columbiana","state":"OH","lat":40.8853,"long":-80.6975},{"zip":"44413","city":"East Palestine","state":"OH","lat":40.8406,"long":-80.5465},{"zip":"44415","city":"Elkton","state":"OH","lat":40.763,"long":-80.7042},{"zip":"44423","city":"Hanoverton","state":"OH","lat":40.7731,"long":-80.9144},{"zip":"44427","city":"Kensington","state":"OH","lat":40.7142,"long":-80.9381},{"zip":"44431","city":"Leetonia","state":"OH","lat":40.8631,"long":-80.7585},{"zip":"44432","city":"Lisbon","state":"OH","lat":40.7592,"long":-80.7587},{"zip":"44441","city":"Negley","state":"OH","lat":40.7579,"long":-80.553},{"zip":"44445","city":"New Waterford","state":"OH","lat":40.8489,"long":-80.6209},{"zip":"44455","city":"Rogers","state":"OH","lat":40.7789,"long":-80.6202},{"zip":"44460","city":"Salem","state":"OH","lat":40.9,"long":-80.8619},{"zip":"44490","city":"Washingtonville","state":"OH","lat":40.8973,"long":-80.7631},{"zip":"44492","city":"West Point","state":"OH","lat":40.7093,"long":-80.7014},{"zip":"44493","city":"Winona","state":"OH","lat":40.8286,"long":-80.8967},{"zip":"44625","city":"East Rochester","state":"OH","lat":40.7563,"long":-81.0175},{"zip":"44634","city":"Homeworth","state":"OH","lat":40.8301,"long":-81.0333},{"zip":"44665","city":"North Georgetown","state":"OH","lat":40.8436,"long":-80.9794},{"zip":"44820","city":"Bucyrus","state":"OH","lat":40.8103,"long":-82.9698},{"zip":"44825","city":"Chatfield","state":"OH","lat":40.9542,"long":-82.9432},{"zip":"44827","city":"Crestline","state":"OH","lat":40.7927,"long":-82.7367},{"zip":"44833","city":"Galion","state":"OH","lat":40.7303,"long":-82.7939},{"zip":"44854","city":"New Washington","state":"OH","lat":40.9571,"long":-82.8504},{"zip":"44856","city":"North Robinson","state":"OH","lat":40.7934,"long":-82.8566},{"zip":"44860","city":"Oceola","state":"OH","lat":40.8357,"long":-83.1029},{"zip":"44881","city":"Sulphur Springs","state":"OH","lat":40.8709,"long":-82.8771},{"zip":"44887","city":"Tiro","state":"OH","lat":40.881,"long":-82.797},{"zip":"44017","city":"Berea","state":"OH","lat":41.3676,"long":-81.8618},{"zip":"44022","city":"Chagrin Falls","state":"OH","lat":41.4494,"long":-81.4314},{"zip":"44040","city":"Gates Mills","state":"OH","lat":41.5324,"long":-81.415},{"zip":"44070","city":"North Olmsted","state":"OH","lat":41.4201,"long":-81.9131},{"zip":"44101","city":"Cleveland","state":"OH","lat":41.5234,"long":-81.5996},{"zip":"44102","city":"Cleveland","state":"OH","lat":41.4735,"long":-81.7398},{"zip":"44103","city":"Cleveland","state":"OH","lat":41.5157,"long":-81.6405},{"zip":"44104","city":"Cleveland","state":"OH","lat":41.4809,"long":-81.6245},{"zip":"44105","city":"Cleveland","state":"OH","lat":41.4509,"long":-81.619},{"zip":"44106","city":"Cleveland","state":"OH","lat":41.5084,"long":-81.6076},{"zip":"44107","city":"Lakewood","state":"OH","lat":41.4847,"long":-81.8018},{"zip":"44108","city":"Cleveland","state":"OH","lat":41.5349,"long":-81.609},{"zip":"44109","city":"Cleveland","state":"OH","lat":41.4458,"long":-81.7033},{"zip":"44110","city":"Cleveland","state":"OH","lat":41.5636,"long":-81.5733},{"zip":"44111","city":"Cleveland","state":"OH","lat":41.4571,"long":-81.7844},{"zip":"44112","city":"Cleveland","state":"OH","lat":41.5356,"long":-81.5737},{"zip":"44113","city":"Cleveland","state":"OH","lat":41.4816,"long":-81.7018},{"zip":"44114","city":"Cleveland","state":"OH","lat":41.5064,"long":-81.6743},{"zip":"44115","city":"Cleveland","state":"OH","lat":41.4946,"long":-81.667},{"zip":"44116","city":"Rocky River","state":"OH","lat":41.4694,"long":-81.8512},{"zip":"44117","city":"Euclid","state":"OH","lat":41.5696,"long":-81.5257},{"zip":"44118","city":"Cleveland","state":"OH","lat":41.5008,"long":-81.5516},{"zip":"44119","city":"Cleveland","state":"OH","lat":41.5882,"long":-81.5468},{"zip":"44120","city":"Cleveland","state":"OH","lat":41.4714,"long":-81.5839},{"zip":"44121","city":"Cleveland","state":"OH","lat":41.5277,"long":-81.5323},{"zip":"44122","city":"Beachwood","state":"OH","lat":41.4701,"long":-81.5232},{"zip":"44123","city":"Euclid","state":"OH","lat":41.6025,"long":-81.5258},{"zip":"44124","city":"Cleveland","state":"OH","lat":41.501,"long":-81.4694},{"zip":"44125","city":"Cleveland","state":"OH","lat":41.4335,"long":-81.6323},{"zip":"44126","city":"Cleveland","state":"OH","lat":41.4429,"long":-81.853},{"zip":"44127","city":"Cleveland","state":"OH","lat":41.4701,"long":-81.649},{"zip":"44128","city":"Cleveland","state":"OH","lat":41.4416,"long":-81.5486},{"zip":"44129","city":"Cleveland","state":"OH","lat":41.3897,"long":-81.7351},{"zip":"44130","city":"Cleveland","state":"OH","lat":41.3826,"long":-81.7964},{"zip":"44131","city":"Independence","state":"OH","lat":41.3809,"long":-81.6642},{"zip":"44132","city":"Euclid","state":"OH","lat":41.6069,"long":-81.4993},{"zip":"44133","city":"North Royalton","state":"OH","lat":41.3232,"long":-81.7457},{"zip":"44134","city":"Cleveland","state":"OH","lat":41.3853,"long":-81.7044},{"zip":"44135","city":"Cleveland","state":"OH","lat":41.4342,"long":-81.8044},{"zip":"44136","city":"Strongsville","state":"OH","lat":41.3132,"long":-81.8285},{"zip":"44137","city":"Maple Heights","state":"OH","lat":41.4105,"long":-81.5603},{"zip":"44138","city":"Olmsted Falls","state":"OH","lat":41.3734,"long":-81.9158},{"zip":"44139","city":"Solon","state":"OH","lat":41.3866,"long":-81.4421},{"zip":"44140","city":"Bay Village","state":"OH","lat":41.4841,"long":-81.9289},{"zip":"44141","city":"Brecksville","state":"OH","lat":41.3166,"long":-81.6261},{"zip":"44142","city":"Brookpark","state":"OH","lat":41.3979,"long":-81.8118},{"zip":"44143","city":"Cleveland","state":"OH","lat":41.5592,"long":-81.4828},{"zip":"44144","city":"Cleveland","state":"OH","lat":41.4385,"long":-81.7398},{"zip":"44145","city":"Westlake","state":"OH","lat":41.4535,"long":-81.9218},{"zip":"44146","city":"Bedford","state":"OH","lat":41.3921,"long":-81.5232},{"zip":"44147","city":"Broadview Heights","state":"OH","lat":41.3141,"long":-81.6731},{"zip":"44181","city":"Cleveland","state":"OH","lat":41.6857,"long":-81.6728},{"zip":"44188","city":"Cleveland","state":"OH","lat":41.6857,"long":-81.6728},{"zip":"44190","city":"Cleveland","state":"OH","lat":41.6857,"long":-81.6728},{"zip":"44191","city":"Cleveland","state":"OH","lat":41.6857,"long":-81.6728},{"zip":"44192","city":"Cleveland","state":"OH","lat":41.4995,"long":-81.6954},{"zip":"44193","city":"Cleveland","state":"OH","lat":41.4995,"long":-81.6954},{"zip":"44194","city":"Cleveland","state":"OH","lat":41.6857,"long":-81.6728},{"zip":"44195","city":"Cleveland","state":"OH","lat":41.6857,"long":-81.6728},{"zip":"44197","city":"Cleveland","state":"OH","lat":41.6857,"long":-81.6728},{"zip":"44198","city":"Cleveland","state":"OH","lat":41.6857,"long":-81.6728},{"zip":"44199","city":"Cleveland","state":"OH","lat":41.4995,"long":-81.6954},{"zip":"44089","city":"Vermilion","state":"OH","lat":41.41,"long":-82.3554},{"zip":"44814","city":"Berlin Heights","state":"OH","lat":41.3205,"long":-82.4777},{"zip":"44816","city":"Birmingham","state":"OH","lat":41.3349,"long":-82.355},{"zip":"44824","city":"Castalia","state":"OH","lat":41.3872,"long":-82.7994},{"zip":"44839","city":"Huron","state":"OH","lat":41.3757,"long":-82.5386},{"zip":"44846","city":"Milan","state":"OH","lat":41.3111,"long":-82.6126},{"zip":"44870","city":"Sandusky","state":"OH","lat":41.4349,"long":-82.7063},{"zip":"44871","city":"Sandusky","state":"OH","lat":41.4489,"long":-82.708},{"zip":"44021","city":"Burton","state":"OH","lat":41.4527,"long":-81.1526},{"zip":"44023","city":"Chagrin Falls","state":"OH","lat":41.3872,"long":-81.3042},{"zip":"44024","city":"Chardon","state":"OH","lat":41.5719,"long":-81.2056},{"zip":"44026","city":"Chesterland","state":"OH","lat":41.5344,"long":-81.3421},{"zip":"44033","city":"East Claridon","state":"OH","lat":41.5333,"long":-81.1112},{"zip":"44046","city":"Huntsburg","state":"OH","lat":41.5384,"long":-81.0734},{"zip":"44062","city":"Middlefield","state":"OH","lat":41.4455,"long":-81.0373},{"zip":"44064","city":"Montville","state":"OH","lat":41.6034,"long":-81.057},{"zip":"44065","city":"Newbury","state":"OH","lat":41.475,"long":-81.2345},{"zip":"44072","city":"Novelty","state":"OH","lat":41.4763,"long":-81.3342},{"zip":"44073","city":"Novelty","state":"OH","lat":41.4948,"long":-81.3407},{"zip":"44080","city":"Parkman","state":"OH","lat":41.3706,"long":-81.0651},{"zip":"44086","city":"Thompson","state":"OH","lat":41.6762,"long":-81.0573},{"zip":"44804","city":"Arcadia","state":"OH","lat":41.1116,"long":-83.5019},{"zip":"44693","city":"Deersville","state":"OH","lat":40.2947,"long":-81.1839},{"zip":"44695","city":"Bowerston","state":"OH","lat":40.4371,"long":-81.1862},{"zip":"44699","city":"Tippecanoe","state":"OH","lat":40.2797,"long":-81.2919},{"zip":"44610","city":"Berlin","state":"OH","lat":40.5612,"long":-81.7943},{"zip":"44611","city":"Big Prairie","state":"OH","lat":40.6188,"long":-82.072},{"zip":"44617","city":"Charm","state":"OH","lat":40.5071,"long":-81.7829},{"zip":"44628","city":"Glenmont","state":"OH","lat":40.5217,"long":-82.1505},{"zip":"44633","city":"Holmesville","state":"OH","lat":40.633,"long":-81.9275},{"zip":"44637","city":"Killbuck","state":"OH","lat":40.4933,"long":-81.9837},{"zip":"44638","city":"Lakeville","state":"OH","lat":40.652,"long":-82.1455},{"zip":"44654","city":"Millersburg","state":"OH","lat":40.5567,"long":-81.8324},{"zip":"44660","city":"Mount Hope","state":"OH","lat":40.6223,"long":-81.7825},{"zip":"44661","city":"Nashville","state":"OH","lat":40.5956,"long":-82.113},{"zip":"44687","city":"Walnut Creek","state":"OH","lat":40.5516,"long":-81.7284},{"zip":"44690","city":"Winesburg","state":"OH","lat":40.6164,"long":-81.6951},{"zip":"44811","city":"Bellevue","state":"OH","lat":41.2684,"long":-82.8577},{"zip":"44826","city":"Collins","state":"OH","lat":41.245,"long":-82.4904},{"zip":"44837","city":"Greenwich","state":"OH","lat":41.0407,"long":-82.5133},{"zip":"44847","city":"Monroeville","state":"OH","lat":41.2181,"long":-82.7023},{"zip":"44850","city":"New Haven","state":"OH","lat":41.035,"long":-82.677},{"zip":"44851","city":"New London","state":"OH","lat":41.0906,"long":-82.3966},{"zip":"44855","city":"North Fairfield","state":"OH","lat":41.103,"long":-82.5998},{"zip":"44857","city":"Norwalk","state":"OH","lat":41.2403,"long":-82.6078},{"zip":"44888","city":"Willard","state":"OH","lat":41.0531,"long":-82.7263},{"zip":"44889","city":"Wakeman","state":"OH","lat":41.2637,"long":-82.3782},{"zip":"44890","city":"Willard","state":"OH","lat":41.0628,"long":-82.7288},{"zip":"44045","city":"Grand River","state":"OH","lat":41.7427,"long":-81.2821},{"zip":"44057","city":"Madison","state":"OH","lat":41.8054,"long":-81.0588},{"zip":"44060","city":"Mentor","state":"OH","lat":41.6895,"long":-81.3421},{"zip":"44061","city":"Mentor","state":"OH","lat":41.6662,"long":-81.3396},{"zip":"44077","city":"Painesville","state":"OH","lat":41.7079,"long":-81.199},{"zip":"44081","city":"Perry","state":"OH","lat":41.7679,"long":-81.1433},{"zip":"44092","city":"Wickliffe","state":"OH","lat":41.6046,"long":-81.4692},{"zip":"44094","city":"Willoughby","state":"OH","lat":41.6302,"long":-81.4076},{"zip":"44095","city":"Eastlake","state":"OH","lat":41.6587,"long":-81.4445},{"zip":"44096","city":"Willoughby","state":"OH","lat":41.6398,"long":-81.4065},{"zip":"44097","city":"Eastlake","state":"OH","lat":41.6539,"long":-81.4504},{"zip":"44001","city":"Amherst","state":"OH","lat":41.3617,"long":-82.2538},{"zip":"44011","city":"Avon","state":"OH","lat":41.4467,"long":-82.0204},{"zip":"44012","city":"Avon Lake","state":"OH","lat":41.5019,"long":-82.0111},{"zip":"44028","city":"Columbia Station","state":"OH","lat":41.3187,"long":-81.9344},{"zip":"44035","city":"Elyria","state":"OH","lat":41.3724,"long":-82.1051},{"zip":"44036","city":"Elyria","state":"OH","lat":41.4015,"long":-82.0771},{"zip":"44039","city":"North Ridgeville","state":"OH","lat":41.3964,"long":-82.0033},{"zip":"44044","city":"Grafton","state":"OH","lat":41.2854,"long":-82.0431},{"zip":"44049","city":"Kipton","state":"OH","lat":41.2664,"long":-82.3064},{"zip":"44050","city":"Lagrange","state":"OH","lat":41.2423,"long":-82.1279},{"zip":"44052","city":"Lorain","state":"OH","lat":41.4578,"long":-82.171},{"zip":"44053","city":"Lorain","state":"OH","lat":41.432,"long":-82.2038},{"zip":"44054","city":"Sheffield Lake","state":"OH","lat":41.4823,"long":-82.0965},{"zip":"44055","city":"Lorain","state":"OH","lat":41.4361,"long":-82.135},{"zip":"44074","city":"Oberlin","state":"OH","lat":41.2899,"long":-82.2229},{"zip":"44090","city":"Wellington","state":"OH","lat":41.1712,"long":-82.2269},{"zip":"44401","city":"Berlin Center","state":"OH","lat":41.0243,"long":-80.9341},{"zip":"44405","city":"Campbell","state":"OH","lat":41.0778,"long":-80.5897},{"zip":"44406","city":"Canfield","state":"OH","lat":41.0293,"long":-80.7564},{"zip":"44416","city":"Ellsworth","state":"OH","lat":41.0242,"long":-80.8573},{"zip":"44422","city":"Greenford","state":"OH","lat":40.9439,"long":-80.7915},{"zip":"44429","city":"Lake Milton","state":"OH","lat":41.1014,"long":-80.9724},{"zip":"44436","city":"Lowellville","state":"OH","lat":41.0503,"long":-80.5416},{"zip":"44442","city":"New Middletown","state":"OH","lat":40.9646,"long":-80.5534},{"zip":"44443","city":"New Springfield","state":"OH","lat":40.9265,"long":-80.5856},{"zip":"44449","city":"North Benton","state":"OH","lat":40.9876,"long":-81.0162},{"zip":"44451","city":"North Jackson","state":"OH","lat":41.088,"long":-80.8623},{"zip":"44452","city":"North Lima","state":"OH","lat":40.9649,"long":-80.6549},{"zip":"44454","city":"Petersburg","state":"OH","lat":40.9049,"long":-80.54},{"zip":"44471","city":"Struthers","state":"OH","lat":41.0508,"long":-80.5985},{"zip":"44501","city":"Youngstown","state":"OH","lat":41.0171,"long":-80.8029},{"zip":"44502","city":"Youngstown","state":"OH","lat":41.0774,"long":-80.6409},{"zip":"44503","city":"Youngstown","state":"OH","lat":41.102,"long":-80.65},{"zip":"44504","city":"Youngstown","state":"OH","lat":41.1237,"long":-80.6539},{"zip":"44505","city":"Youngstown","state":"OH","lat":41.1257,"long":-80.6277},{"zip":"44506","city":"Youngstown","state":"OH","lat":41.096,"long":-80.6259},{"zip":"44507","city":"Youngstown","state":"OH","lat":41.0732,"long":-80.6553},{"zip":"44509","city":"Youngstown","state":"OH","lat":41.105,"long":-80.6945},{"zip":"44510","city":"Youngstown","state":"OH","lat":41.1197,"long":-80.6672},{"zip":"44511","city":"Youngstown","state":"OH","lat":41.0704,"long":-80.6931},{"zip":"44512","city":"Youngstown","state":"OH","lat":41.0252,"long":-80.6687},{"zip":"44513","city":"Youngstown","state":"OH","lat":41.0171,"long":-80.8029},{"zip":"44514","city":"Youngstown","state":"OH","lat":41.0093,"long":-80.6183},{"zip":"44515","city":"Youngstown","state":"OH","lat":41.0979,"long":-80.7598},{"zip":"44555","city":"Youngstown","state":"OH","lat":41.1039,"long":-80.6436},{"zip":"44609","city":"Beloit","state":"OH","lat":40.8957,"long":-80.9897},{"zip":"44619","city":"Damascus","state":"OH","lat":40.9021,"long":-80.9628},{"zip":"44672","city":"Sebring","state":"OH","lat":40.9227,"long":-81.0232},{"zip":"44149","city":"Strongsville","state":"OH","lat":41.3134,"long":-81.8562},{"zip":"44212","city":"Brunswick","state":"OH","lat":41.2471,"long":-81.828},{"zip":"44215","city":"Chippewa Lake","state":"OH","lat":41.0653,"long":-81.9017},{"zip":"44233","city":"Hinckley","state":"OH","lat":41.2419,"long":-81.7453},{"zip":"44235","city":"Homerville","state":"OH","lat":41.0267,"long":-82.125},{"zip":"44251","city":"Westfield Center","state":"OH","lat":41.0288,"long":-81.9283},{"zip":"44253","city":"Litchfield","state":"OH","lat":41.1668,"long":-82.0157},{"zip":"44254","city":"Lodi","state":"OH","lat":41.0327,"long":-82.0147},{"zip":"44256","city":"Medina","state":"OH","lat":41.1404,"long":-81.8584},{"zip":"44258","city":"Medina","state":"OH","lat":41.1276,"long":-81.8411},{"zip":"44273","city":"Seville","state":"OH","lat":41.0227,"long":-81.8562},{"zip":"44274","city":"Sharon Center","state":"OH","lat":41.0992,"long":-81.7343},{"zip":"44275","city":"Spencer","state":"OH","lat":41.0983,"long":-82.0999},{"zip":"44280","city":"Valley City","state":"OH","lat":41.2368,"long":-81.9245},{"zip":"44281","city":"Wadsworth","state":"OH","lat":41.0384,"long":-81.7374},{"zip":"44282","city":"Wadsworth","state":"OH","lat":41.0256,"long":-81.7299},{"zip":"44201","city":"Atwater","state":"OH","lat":41.0335,"long":-81.1985},{"zip":"44202","city":"Aurora","state":"OH","lat":41.3176,"long":-81.3454},{"zip":"44211","city":"Brady Lake","state":"OH","lat":41.1698,"long":-81.3124},{"zip":"44231","city":"Garrettsville","state":"OH","lat":41.2988,"long":-81.0704},{"zip":"44234","city":"Hiram","state":"OH","lat":41.3323,"long":-81.1464},{"zip":"44240","city":"Kent","state":"OH","lat":41.1449,"long":-81.3498},{"zip":"44241","city":"Streetsboro","state":"OH","lat":41.2491,"long":-81.3383},{"zip":"44242","city":"Kent","state":"OH","lat":41.1537,"long":-81.3579},{"zip":"44243","city":"Kent","state":"OH","lat":41.1475,"long":-81.3415},{"zip":"44255","city":"Mantua","state":"OH","lat":41.2941,"long":-81.2283},{"zip":"44265","city":"Randolph","state":"OH","lat":41.0109,"long":-81.2977},{"zip":"44266","city":"Ravenna","state":"OH","lat":41.1649,"long":-81.2337},{"zip":"44272","city":"Rootstown","state":"OH","lat":41.0995,"long":-81.2026},{"zip":"44285","city":"Wayland","state":"OH","lat":41.1597,"long":-81.07},{"zip":"44288","city":"Windham","state":"OH","lat":41.2392,"long":-81.0535},{"zip":"44411","city":"Deerfield","state":"OH","lat":41.0359,"long":-81.0528},{"zip":"44412","city":"Diamond","state":"OH","lat":41.0935,"long":-81.0425},{"zip":"44813","city":"Bellville","state":"OH","lat":40.6136,"long":-82.5175},{"zip":"44822","city":"Butler","state":"OH","lat":40.5438,"long":-82.399},{"zip":"44843","city":"Lucas","state":"OH","lat":40.7039,"long":-82.4087},{"zip":"44862","city":"Ontario","state":"OH","lat":40.7729,"long":-82.5321},{"zip":"44865","city":"Plymouth","state":"OH","lat":41.0003,"long":-82.6635},{"zip":"44875","city":"Shelby","state":"OH","lat":40.8784,"long":-82.6549},{"zip":"44878","city":"Shiloh","state":"OH","lat":40.934,"long":-82.5222},{"zip":"44901","city":"Mansfield","state":"OH","lat":40.8508,"long":-82.5114},{"zip":"44902","city":"Mansfield","state":"OH","lat":40.7559,"long":-82.5123},{"zip":"44903","city":"Mansfield","state":"OH","lat":40.7623,"long":-82.5254},{"zip":"44904","city":"Mansfield","state":"OH","lat":40.6824,"long":-82.5286},{"zip":"44905","city":"Mansfield","state":"OH","lat":40.7779,"long":-82.4613},{"zip":"44906","city":"Mansfield","state":"OH","lat":40.7627,"long":-82.5593},{"zip":"44907","city":"Mansfield","state":"OH","lat":40.7345,"long":-82.5198},{"zip":"44802","city":"Alvada","state":"OH","lat":41.0463,"long":-83.377},{"zip":"44807","city":"Attica","state":"OH","lat":41.0773,"long":-82.9032},{"zip":"44809","city":"Bascom","state":"OH","lat":41.1328,"long":-83.2854},{"zip":"44815","city":"Bettsville","state":"OH","lat":41.2469,"long":-83.2398},{"zip":"44818","city":"Bloomville","state":"OH","lat":41.0182,"long":-82.9899},{"zip":"44828","city":"Flat Rock","state":"OH","lat":41.2371,"long":-82.8597},{"zip":"44830","city":"Fostoria","state":"OH","lat":41.1623,"long":-83.4139},{"zip":"44836","city":"Green Springs","state":"OH","lat":41.2281,"long":-83.0885},{"zip":"44841","city":"Kansas","state":"OH","lat":41.2512,"long":-83.306},{"zip":"44845","city":"Melmore","state":"OH","lat":41.0242,"long":-83.1098},{"zip":"44853","city":"New Riegel","state":"OH","lat":41.0514,"long":-83.3185},{"zip":"44861","city":"Old Fort","state":"OH","lat":41.2395,"long":-83.1479},{"zip":"44867","city":"Republic","state":"OH","lat":41.1259,"long":-83.0194},{"zip":"44883","city":"Tiffin","state":"OH","lat":41.1238,"long":-83.1844},{"zip":"44601","city":"Alliance","state":"OH","lat":40.9158,"long":-81.1182},{"zip":"44608","city":"Beach City","state":"OH","lat":40.6562,"long":-81.5851},{"zip":"44613","city":"Brewster","state":"OH","lat":40.7142,"long":-81.5957},{"zip":"44614","city":"Canal Fulton","state":"OH","lat":40.8887,"long":-81.5773},{"zip":"44626","city":"East Sparta","state":"OH","lat":40.6971,"long":-81.3687},{"zip":"44630","city":"Greentown","state":"OH","lat":40.9295,"long":-81.4001},{"zip":"44632","city":"Hartville","state":"OH","lat":40.9618,"long":-81.3239},{"zip":"44640","city":"Limaville","state":"OH","lat":40.9836,"long":-81.1497},{"zip":"44641","city":"Louisville","state":"OH","lat":40.8477,"long":-81.2595},{"zip":"44643","city":"Magnolia","state":"OH","lat":40.6514,"long":-81.3076},{"zip":"44646","city":"Massillon","state":"OH","lat":40.8116,"long":-81.4973},{"zip":"44647","city":"Massillon","state":"OH","lat":40.7959,"long":-81.5533},{"zip":"44648","city":"Massillon","state":"OH","lat":40.8118,"long":-81.3683},{"zip":"44650","city":"Maximo","state":"OH","lat":40.8746,"long":-81.1739},{"zip":"44652","city":"Middlebranch","state":"OH","lat":40.8951,"long":-81.3262},{"zip":"44657","city":"Minerva","state":"OH","lat":40.742,"long":-81.1031},{"zip":"44662","city":"Navarre","state":"OH","lat":40.7204,"long":-81.5338},{"zip":"44666","city":"North Lawrence","state":"OH","lat":40.8387,"long":-81.6299},{"zip":"44669","city":"Paris","state":"OH","lat":40.8014,"long":-81.154},{"zip":"44670","city":"Robertsville","state":"OH","lat":40.7647,"long":-81.1879},{"zip":"44688","city":"Waynesburg","state":"OH","lat":40.6829,"long":-81.2659},{"zip":"44689","city":"Wilmot","state":"OH","lat":40.6567,"long":-81.6352},{"zip":"44701","city":"Canton","state":"OH","lat":40.7824,"long":-81.3712},{"zip":"44702","city":"Canton","state":"OH","lat":40.8027,"long":-81.3739},{"zip":"44703","city":"Canton","state":"OH","lat":40.8098,"long":-81.3814},{"zip":"44704","city":"Canton","state":"OH","lat":40.7991,"long":-81.3537},{"zip":"44705","city":"Canton","state":"OH","lat":40.8259,"long":-81.3399},{"zip":"44706","city":"Canton","state":"OH","lat":40.768,"long":-81.4119},{"zip":"44707","city":"Canton","state":"OH","lat":40.7598,"long":-81.35},{"zip":"44708","city":"Canton","state":"OH","lat":40.812,"long":-81.4241},{"zip":"44709","city":"Canton","state":"OH","lat":40.8423,"long":-81.3862},{"zip":"44710","city":"Canton","state":"OH","lat":40.7911,"long":-81.4169},{"zip":"44711","city":"Canton","state":"OH","lat":40.8118,"long":-81.3683},{"zip":"44714","city":"Canton","state":"OH","lat":40.8272,"long":-81.361},{"zip":"44718","city":"Canton","state":"OH","lat":40.8465,"long":-81.4408},{"zip":"44720","city":"North Canton","state":"OH","lat":40.7989,"long":-81.3784},{"zip":"44721","city":"Canton","state":"OH","lat":40.8834,"long":-81.3328},{"zip":"44730","city":"East Canton","state":"OH","lat":40.7873,"long":-81.2826},{"zip":"44735","city":"Canton","state":"OH","lat":40.8118,"long":-81.3683},{"zip":"44750","city":"Canton","state":"OH","lat":40.7846,"long":-81.4189},{"zip":"44767","city":"Canton","state":"OH","lat":40.8957,"long":-81.4246},{"zip":"44799","city":"Canton","state":"OH","lat":40.8118,"long":-81.3683},{"zip":"44056","city":"Macedonia","state":"OH","lat":41.3222,"long":-81.4996},{"zip":"44067","city":"Northfield","state":"OH","lat":41.3208,"long":-81.5429},{"zip":"44087","city":"Twinsburg","state":"OH","lat":41.3289,"long":-81.4559},{"zip":"44203","city":"Barberton","state":"OH","lat":41.0197,"long":-81.6212},{"zip":"44210","city":"Bath","state":"OH","lat":41.1889,"long":-81.6362},{"zip":"44216","city":"Clinton","state":"OH","lat":40.9391,"long":-81.5871},{"zip":"44221","city":"Cuyahoga Falls","state":"OH","lat":41.1401,"long":-81.479},{"zip":"44222","city":"Cuyahoga Falls","state":"OH","lat":41.1339,"long":-81.4846},{"zip":"44223","city":"Cuyahoga Falls","state":"OH","lat":41.1464,"long":-81.5107},{"zip":"44224","city":"Stow","state":"OH","lat":41.1748,"long":-81.438},{"zip":"44232","city":"Green","state":"OH","lat":40.9325,"long":-81.462},{"zip":"44236","city":"Hudson","state":"OH","lat":41.2458,"long":-81.4367},{"zip":"44237","city":"Hudson","state":"OH","lat":41.1287,"long":-81.54},{"zip":"44250","city":"Lakemore","state":"OH","lat":41.0222,"long":-81.4279},{"zip":"44260","city":"Mogadore","state":"OH","lat":41.0382,"long":-81.359},{"zip":"44262","city":"Munroe Falls","state":"OH","lat":41.142,"long":-81.4376},{"zip":"44264","city":"Peninsula","state":"OH","lat":41.2256,"long":-81.54},{"zip":"44278","city":"Tallmadge","state":"OH","lat":41.0975,"long":-81.426},{"zip":"44286","city":"Richfield","state":"OH","lat":41.2371,"long":-81.6467},{"zip":"44301","city":"Akron","state":"OH","lat":41.0449,"long":-81.52},{"zip":"44302","city":"Akron","state":"OH","lat":41.092,"long":-81.542},{"zip":"44303","city":"Akron","state":"OH","lat":41.1025,"long":-81.5386},{"zip":"44304","city":"Akron","state":"OH","lat":41.0808,"long":-81.5085},{"zip":"44305","city":"Akron","state":"OH","lat":41.076,"long":-81.4644},{"zip":"44306","city":"Akron","state":"OH","lat":41.0479,"long":-81.4916},{"zip":"44307","city":"Akron","state":"OH","lat":41.0695,"long":-81.5488},{"zip":"44308","city":"Akron","state":"OH","lat":41.0796,"long":-81.5194},{"zip":"44309","city":"Akron","state":"OH","lat":41.0962,"long":-81.5123},{"zip":"44310","city":"Akron","state":"OH","lat":41.1075,"long":-81.5006},{"zip":"44311","city":"Akron","state":"OH","lat":41.0638,"long":-81.52},{"zip":"44312","city":"Akron","state":"OH","lat":41.0334,"long":-81.4385},{"zip":"44313","city":"Akron","state":"OH","lat":41.122,"long":-81.5685},{"zip":"44314","city":"Akron","state":"OH","lat":41.0408,"long":-81.5598},{"zip":"44315","city":"Akron","state":"OH","lat":41.028,"long":-81.4632},{"zip":"44316","city":"Akron","state":"OH","lat":41.0675,"long":-81.4847},{"zip":"44317","city":"Akron","state":"OH","lat":41.0525,"long":-81.5291},{"zip":"44319","city":"Akron","state":"OH","lat":40.9791,"long":-81.5347},{"zip":"44320","city":"Akron","state":"OH","lat":41.0835,"long":-81.5674},{"zip":"44321","city":"Akron","state":"OH","lat":41.1002,"long":-81.6443},{"zip":"44325","city":"Akron","state":"OH","lat":41.0764,"long":-81.5103},{"zip":"44326","city":"Akron","state":"OH","lat":41.0814,"long":-81.519},{"zip":"44328","city":"Akron","state":"OH","lat":41.076,"long":-81.5206},{"zip":"44333","city":"Akron","state":"OH","lat":41.1552,"long":-81.6314},{"zip":"44334","city":"Fairlawn","state":"OH","lat":41.1278,"long":-81.6098},{"zip":"44372","city":"Akron","state":"OH","lat":41.1287,"long":-81.54},{"zip":"44396","city":"Akron","state":"OH","lat":41.1287,"long":-81.54},{"zip":"44398","city":"Akron","state":"OH","lat":41.1287,"long":-81.54},{"zip":"44685","city":"Uniontown","state":"OH","lat":40.9637,"long":-81.4211},{"zip":"44402","city":"Bristolville","state":"OH","lat":41.3797,"long":-80.8568},{"zip":"44403","city":"Brookfield","state":"OH","lat":41.248,"long":-80.5788},{"zip":"44404","city":"Burghill","state":"OH","lat":41.3347,"long":-80.5441},{"zip":"44410","city":"Cortland","state":"OH","lat":41.3251,"long":-80.7327},{"zip":"44417","city":"Farmdale","state":"OH","lat":41.3923,"long":-80.6628},{"zip":"44418","city":"Fowler","state":"OH","lat":41.3349,"long":-80.6059},{"zip":"44420","city":"Girard","state":"OH","lat":41.1611,"long":-80.6933},{"zip":"44424","city":"Hartford","state":"OH","lat":41.3091,"long":-80.5847},{"zip":"44425","city":"Hubbard","state":"OH","lat":41.1624,"long":-80.5762},{"zip":"44428","city":"Kinsman","state":"OH","lat":41.4354,"long":-80.5765},{"zip":"44430","city":"Leavittsburg","state":"OH","lat":41.2445,"long":-80.8869},{"zip":"44437","city":"Mc Donald","state":"OH","lat":41.158,"long":-80.7312},{"zip":"44438","city":"Masury","state":"OH","lat":41.2255,"long":-80.5326},{"zip":"44439","city":"Mesopotamia","state":"OH","lat":41.4584,"long":-80.9551},{"zip":"44440","city":"Mineral Ridge","state":"OH","lat":41.1318,"long":-80.7553},{"zip":"44444","city":"Newton Falls","state":"OH","lat":41.191,"long":-80.9701},{"zip":"44446","city":"Niles","state":"OH","lat":41.1824,"long":-80.7558},{"zip":"44450","city":"North Bloomfield","state":"OH","lat":41.4569,"long":-80.8068},{"zip":"44453","city":"Orangeville","state":"OH","lat":41.3252,"long":-80.5336},{"zip":"44470","city":"Southington","state":"OH","lat":41.2983,"long":-80.9485},{"zip":"44473","city":"Vienna","state":"OH","lat":41.2175,"long":-80.655},{"zip":"44481","city":"Warren","state":"OH","lat":41.1724,"long":-80.8718},{"zip":"44482","city":"Warren","state":"OH","lat":41.3174,"long":-80.7613},{"zip":"44483","city":"Warren","state":"OH","lat":41.2639,"long":-80.8164},{"zip":"44484","city":"Warren","state":"OH","lat":41.2318,"long":-80.7642},{"zip":"44485","city":"Warren","state":"OH","lat":41.2405,"long":-80.8441},{"zip":"44486","city":"Warren","state":"OH","lat":41.3174,"long":-80.7613},{"zip":"44491","city":"West Farmington","state":"OH","lat":41.3508,"long":-80.9672},{"zip":"44612","city":"Bolivar","state":"OH","lat":40.6347,"long":-81.4464},{"zip":"44621","city":"Dennison","state":"OH","lat":40.4089,"long":-81.3203},{"zip":"44622","city":"Dover","state":"OH","lat":40.5343,"long":-81.4763},{"zip":"44624","city":"Dundee","state":"OH","lat":40.589,"long":-81.6058},{"zip":"44629","city":"Gnadenhutten","state":"OH","lat":40.3584,"long":-81.4343},{"zip":"44653","city":"Midvale","state":"OH","lat":40.438,"long":-81.3729},{"zip":"44656","city":"Mineral City","state":"OH","lat":40.5705,"long":-81.3436},{"zip":"44663","city":"New Philadelphia","state":"OH","lat":40.4845,"long":-81.4358},{"zip":"44671","city":"Sandyville","state":"OH","lat":40.6442,"long":-81.3653},{"zip":"44678","city":"Somerdale","state":"OH","lat":40.5649,"long":-81.3524},{"zip":"44679","city":"Stillwater","state":"OH","lat":40.3234,"long":-81.3084},{"zip":"44680","city":"Strasburg","state":"OH","lat":40.6003,"long":-81.5366},{"zip":"44681","city":"Sugarcreek","state":"OH","lat":40.5148,"long":-81.6604},{"zip":"44682","city":"Tuscarawas","state":"OH","lat":40.3959,"long":-81.4069},{"zip":"44683","city":"Uhrichsville","state":"OH","lat":40.3905,"long":-81.3374},{"zip":"44697","city":"Zoar","state":"OH","lat":40.6142,"long":-81.4223},{"zip":"44214","city":"Burbank","state":"OH","lat":40.9637,"long":-81.9958},{"zip":"44217","city":"Creston","state":"OH","lat":40.9788,"long":-81.9211},{"zip":"44230","city":"Doylestown","state":"OH","lat":40.965,"long":-81.6848},{"zip":"44270","city":"Rittman","state":"OH","lat":40.9684,"long":-81.7826},{"zip":"44276","city":"Sterling","state":"OH","lat":40.9369,"long":-81.8305},{"zip":"44287","city":"West Salem","state":"OH","lat":40.9485,"long":-82.1066},{"zip":"44606","city":"Apple Creek","state":"OH","lat":40.7551,"long":-81.8093},{"zip":"44618","city":"Dalton","state":"OH","lat":40.7793,"long":-81.7008},{"zip":"44627","city":"Fredericksburg","state":"OH","lat":40.686,"long":-81.8518},{"zip":"44636","city":"Kidron","state":"OH","lat":40.7384,"long":-81.7428},{"zip":"44645","city":"Marshallville","state":"OH","lat":40.9067,"long":-81.7225},{"zip":"44659","city":"Mount Eaton","state":"OH","lat":40.6949,"long":-81.7026},{"zip":"44667","city":"Orrville","state":"OH","lat":40.8458,"long":-81.7741},{"zip":"44676","city":"Shreve","state":"OH","lat":40.6926,"long":-82.0325},{"zip":"44677","city":"Smithville","state":"OH","lat":40.8592,"long":-81.8633},{"zip":"44691","city":"Wooster","state":"OH","lat":40.8094,"long":-81.9483},{"zip":"44817","city":"Bloomdale","state":"OH","lat":41.1815,"long":-83.5724},{"zip":"44844","city":"Mc Cutchenville","state":"OH","lat":40.9752,"long":-83.2637},{"zip":"44849","city":"Nevada","state":"OH","lat":40.8259,"long":-83.1266},{"zip":"44882","city":"Sycamore","state":"OH","lat":40.9413,"long":-83.1492}]
