[{"zip":"44003","city":"Andover","state":"OH","lat":41.6225,"long":-80.5754},{"zip":"44004","city":"Ashtabula","state":"OH","lat":41.8679,"long":-80.7947},{"zip":"44005","city":"Ashtabula","state":"OH","lat":41.8651,"long":-80.7898},{"zip":"44010","city":"Austinburg","state":"OH","lat":41.7554,"long":-80.8584},{"zip":"44030","city":"Conneaut","state":"OH","lat":41.9345,"long":-80.5803},{"zip":"44032","city":"Dorset","state":"OH","lat":41.659,"long":-80.6683},{"zip":"44041","city":"Geneva","state":"OH","lat":41.8029,"long":-80.9474},{"zip":"44047","city":"Jefferson","state":"OH","lat":41.7335,"long":-80.7562},{"zip":"44048","city":"Kingsville","state":"OH","lat":41.8723,"long":-80.6601},{"zip":"44068","city":"North Kingsville","state":"OH","lat":41.9046,"long":-80.685},{"zip":"44076","city":"Orwell","state":"OH","lat":41.5293,"long":-80.8208},{"zip":"44082","city":"Pierpont","state":"OH","lat":41.7677,"long":-80.5741},{"zip":"44084","city":"Rock Creek","state":"OH","lat":41.6603,"long":-80.8606},{"zip":"44085","city":"Rome","state":"OH","lat":41.6053,"long":-80.8709},{"zip":"44088","city":"Unionville","state":"OH","lat":41.7833,"long":-81.0034},{"zip":"44093","city":"Williamsfield","state":"OH","lat":41.5383,"long":-80.5964},{"zip":"44099","city":"Windsor","state":"OH","lat":41.5623,"long":-80.9667},{"zip":"44017","city":"Berea","state":"OH","lat":41.3676,"long":-81.8618},{"zip":"44022","city":"Chagrin Falls","state":"OH","lat":41.4494,"long":-81.4314},{"zip":"44040","city":"Gates Mills","state":"OH","lat":41.5324,"long":-81.415},{"zip":"44070","city":"North Olmsted","state":"OH","lat":41.4201,"long":-81.9131},{"zip":"44089","city":"Vermilion","state":"OH","lat":41.41,"long":-82.3554},{"zip":"44021","city":"Burton","state":"OH","lat":41.4527,"long":-81.1526},{"zip":"44023","city":"Chagrin Falls","state":"OH","lat":41.3872,"long":-81.3042},{"zip":"44024","city":"Chardon","state":"OH","lat":41.5719,"long":-81.2056},{"zip":"44026","city":"Chesterland","state":"OH","lat":41.5344,"long":-81.3421},{"zip":"44033","city":"East Claridon","state":"OH","lat":41.5333,"long":-81.1112},{"zip":"44046","city":"Huntsburg","state":"OH","lat":41.5384,"long":-81.0734},{"zip":"44062","city":"Middlefield","state":"OH","lat":41.4455,"long":-81.0373},{"zip":"44064","city":"Montville","state":"OH","lat":41.6034,"long":-81.057},{"zip":"44065","city":"Newbury","state":"OH","lat":41.475,"long":-81.2345},{"zip":"44072","city":"Novelty","state":"OH","lat":41.4763,"long":-81.3342},{"zip":"44073","city":"Novelty","state":"OH","lat":41.4948,"long":-81.3407},{"zip":"44080","city":"Parkman","state":"OH","lat":41.3706,"long":-81.0651},{"zip":"44086","city":"Thompson","state":"OH","lat":41.6762,"long":-81.0573},{"zip":"44045","city":"Grand River","state":"OH","lat":41.7427,"long":-81.2821},{"zip":"44057","city":"Madison","state":"OH","lat":41.8054,"long":-81.0588},{"zip":"44060","city":"Mentor","state":"OH","lat":41.6895,"long":-81.3421},{"zip":"44061","city":"Mentor","state":"OH","lat":41.6662,"long":-81.3396},{"zip":"44077","city":"Painesville","state":"OH","lat":41.7079,"long":-81.199},{"zip":"44081","city":"Perry","state":"OH","lat":41.7679,"long":-81.1433},{"zip":"44092","city":"Wickliffe","state":"OH","lat":41.6046,"long":-81.4692},{"zip":"44094","city":"Willoughby","state":"OH","lat":41.6302,"long":-81.4076},{"zip":"44095","city":"Eastlake","state":"OH","lat":41.6587,"long":-81.4445},{"zip":"44096","city":"Willoughby","state":"OH","lat":41.6398,"long":-81.4065},{"zip":"44097","city":"Eastlake","state":"OH","lat":41.6539,"long":-81.4504},{"zip":"44001","city":"Amherst","state":"OH","lat":41.3617,"long":-82.2538},{"zip":"44011","city":"Avon","state":"OH","lat":41.4467,"long":-82.0204},{"zip":"44012","city":"Avon Lake","state":"OH","lat":41.5019,"long":-82.0111},{"zip":"44028","city":"Columbia Station","state":"OH","lat":41.3187,"long":-81.9344},{"zip":"44035","city":"Elyria","state":"OH","lat":41.3724,"long":-82.1051},{"zip":"44036","city":"Elyria","state":"OH","lat":41.4015,"long":-82.0771},{"zip":"44039","city":"North Ridgeville","state":"OH","lat":41.3964,"long":-82.0033},{"zip":"44044","city":"Grafton","state":"OH","lat":41.2854,"long":-82.0431},{"zip":"44049","city":"Kipton","state":"OH","lat":41.2664,"long":-82.3064},{"zip":"44050","city":"Lagrange","state":"OH","lat":41.2423,"long":-82.1279},{"zip":"44052","city":"Lorain","state":"OH","lat":41.4578,"long":-82.171},{"zip":"44053","city":"Lorain","state":"OH","lat":41.432,"long":-82.2038},{"zip":"44054","city":"Sheffield Lake","state":"OH","lat":41.4823,"long":-82.0965},{"zip":"44055","city":"Lorain","state":"OH","lat":41.4361,"long":-82.135},{"zip":"44074","city":"Oberlin","state":"OH","lat":41.2899,"long":-82.2229},{"zip":"44090","city":"Wellington","state":"OH","lat":41.1712,"long":-82.2269},{"zip":"44056","city":"Macedonia","state":"OH","lat":41.3222,"long":-81.4996},{"zip":"44067","city":"Northfield","state":"OH","lat":41.3208,"long":-81.5429},{"zip":"44087","city":"Twinsburg","state":"OH","lat":41.3289,"long":-81.4559}]
