[{"zip":"44101","city":"Cleveland","state":"OH","lat":41.5234,"long":-81.5996},{"zip":"44102","city":"Cleveland","state":"OH","lat":41.4735,"long":-81.7398},{"zip":"44103","city":"Cleveland","state":"OH","lat":41.5157,"long":-81.6405},{"zip":"44104","city":"Cleveland","state":"OH","lat":41.4809,"long":-81.6245},{"zip":"44105","city":"Cleveland","state":"OH","lat":41.4509,"long":-81.619},{"zip":"44106","city":"Cleveland","state":"OH","lat":41.5084,"long":-81.6076},{"zip":"44107","city":"Lakewood","state":"OH","lat":41.4847,"long":-81.8018},{"zip":"44108","city":"Cleveland","state":"OH","lat":41.5349,"long":-81.609},{"zip":"44109","city":"Cleveland","state":"OH","lat":41.4458,"long":-81.7033},{"zip":"44110","city":"Cleveland","state":"OH","lat":41.5636,"long":-81.5733},{"zip":"44111","city":"Cleveland","state":"OH","lat":41.4571,"long":-81.7844},{"zip":"44112","city":"Cleveland","state":"OH","lat":41.5356,"long":-81.5737},{"zip":"44113","city":"Cleveland","state":"OH","lat":41.4816,"long":-81.7018},{"zip":"44114","city":"Cleveland","state":"OH","lat":41.5064,"long":-81.6743},{"zip":"44115","city":"Cleveland","state":"OH","lat":41.4946,"long":-81.667},{"zip":"44116","city":"Rocky River","state":"OH","lat":41.4694,"long":-81.8512},{"zip":"44117","city":"Euclid","state":"OH","lat":41.5696,"long":-81.5257},{"zip":"44118","city":"Cleveland","state":"OH","lat":41.5008,"long":-81.5516},{"zip":"44119","city":"Cleveland","state":"OH","lat":41.5882,"long":-81.5468},{"zip":"44120","city":"Cleveland","state":"OH","lat":41.4714,"long":-81.5839},{"zip":"44121","city":"Cleveland","state":"OH","lat":41.5277,"long":-81.5323},{"zip":"44122","city":"Beachwood","state":"OH","lat":41.4701,"long":-81.5232},{"zip":"44123","city":"Euclid","state":"OH","lat":41.6025,"long":-81.5258},{"zip":"44124","city":"Cleveland","state":"OH","lat":41.501,"long":-81.4694},{"zip":"44125","city":"Cleveland","state":"OH","lat":41.4335,"long":-81.6323},{"zip":"44126","city":"Cleveland","state":"OH","lat":41.4429,"long":-81.853},{"zip":"44127","city":"Cleveland","state":"OH","lat":41.4701,"long":-81.649},{"zip":"44128","city":"Cleveland","state":"OH","lat":41.4416,"long":-81.5486},{"zip":"44129","city":"Cleveland","state":"OH","lat":41.3897,"long":-81.7351},{"zip":"44130","city":"Cleveland","state":"OH","lat":41.3826,"long":-81.7964},{"zip":"44131","city":"Independence","state":"OH","lat":41.3809,"long":-81.6642},{"zip":"44132","city":"Euclid","state":"OH","lat":41.6069,"long":-81.4993},{"zip":"44133","city":"North Royalton","state":"OH","lat":41.3232,"long":-81.7457},{"zip":"44134","city":"Cleveland","state":"OH","lat":41.3853,"long":-81.7044},{"zip":"44135","city":"Cleveland","state":"OH","lat":41.4342,"long":-81.8044},{"zip":"44136","city":"Strongsville","state":"OH","lat":41.3132,"long":-81.8285},{"zip":"44137","city":"Maple Heights","state":"OH","lat":41.4105,"long":-81.5603},{"zip":"44138","city":"Olmsted Falls","state":"OH","lat":41.3734,"long":-81.9158},{"zip":"44139","city":"Solon","state":"OH","lat":41.3866,"long":-81.4421},{"zip":"44140","city":"Bay Village","state":"OH","lat":41.4841,"long":-81.9289},{"zip":"44141","city":"Brecksville","state":"OH","lat":41.3166,"long":-81.6261},{"zip":"44142","city":"Brookpark","state":"OH","lat":41.3979,"long":-81.8118},{"zip":"44143","city":"Cleveland","state":"OH","lat":41.5592,"long":-81.4828},{"zip":"44144","city":"Cleveland","state":"OH","lat":41.4385,"long":-81.7398},{"zip":"44145","city":"Westlake","state":"OH","lat":41.4535,"long":-81.9218},{"zip":"44146","city":"Bedford","state":"OH","lat":41.3921,"long":-81.5232},{"zip":"44147","city":"Broadview Heights","state":"OH","lat":41.3141,"long":-81.6731},{"zip":"44181","city":"Cleveland","state":"OH","lat":41.6857,"long":-81.6728},{"zip":"44188","city":"Cleveland","state":"OH","lat":41.6857,"long":-81.6728},{"zip":"44190","city":"Cleveland","state":"OH","lat":41.6857,"long":-81.6728},{"zip":"44191","city":"Cleveland","state":"OH","lat":41.6857,"long":-81.6728},{"zip":"44192","city":"Cleveland","state":"OH","lat":41.4995,"long":-81.6954},{"zip":"44193","city":"Cleveland","state":"OH","lat":41.4995,"long":-81.6954},{"zip":"44194","city":"Cleveland","state":"OH","lat":41.6857,"long":-81.6728},{"zip":"44195","city":"Cleveland","state":"OH","lat":41.6857,"long":-81.6728},{"zip":"44197","city":"Cleveland","state":"OH","lat":41.6857,"long":-81.6728},{"zip":"44198","city":"Cleveland","state":"OH","lat":41.6857,"long":-81.6728},{"zip":"44199","city":"Cleveland","state":"OH","lat":41.4995,"long":-81.6954},{"zip":"44149","city":"Strongsville","state":"OH","lat":41.3134,"long":-81.8562}]
