[{"zip":"44212","city":"Brunswick","state":"OH","lat":41.2471,"long":-81.828},{"zip":"44215","city":"Chippewa Lake","state":"OH","lat":41.0653,"long":-81.9017},{"zip":"44233","city":"Hinckley","state":"OH","lat":41.2419,"long":-81.7453},{"zip":"44235","city":"Homerville","state":"OH","lat":41.0267,"long":-82.125},{"zip":"44251","city":"Westfield Center","state":"OH","lat":41.0288,"long":-81.9283},{"zip":"44253","city":"Litchfield","state":"OH","lat":41.1668,"long":-82.0157},{"zip":"44254","city":"Lodi","state":"OH","lat":41.0327,"long":-82.0147},{"zip":"44256","city":"Medina","state":"OH","lat":41.1404,"long":-81.8584},{"zip":"44258","city":"Medina","state":"OH","lat":41.1276,"long":-81.8411},{"zip":"44273","city":"Seville","state":"OH","lat":41.0227,"long":-81.8562},{"zip":"44274","city":"Sharon Center","state":"OH","lat":41.0992,"long":-81.7343},{"zip":"44275","city":"Spencer","state":"OH","lat":41.0983,"long":-82.0999},{"zip":"44280","city":"Valley City","state":"OH","lat":41.2368,"long":-81.9245},{"zip":"44281","city":"Wadsworth","state":"OH","lat":41.0384,"long":-81.7374},{"zip":"44282","city":"Wadsworth","state":"OH","lat":41.0256,"long":-81.7299},{"zip":"44201","city":"Atwater","state":"OH","lat":41.0335,"long":-81.1985},{"zip":"44202","city":"Aurora","state":"OH","lat":41.3176,"long":-81.3454},{"zip":"44211","city":"Brady Lake","state":"OH","lat":41.1698,"long":-81.3124},{"zip":"44231","city":"Garrettsville","state":"OH","lat":41.2988,"long":-81.0704},{"zip":"44234","city":"Hiram","state":"OH","lat":41.3323,"long":-81.1464},{"zip":"44240","city":"Kent","state":"OH","lat":41.1449,"long":-81.3498},{"zip":"44241","city":"Streetsboro","state":"OH","lat":41.2491,"long":-81.3383},{"zip":"44242","city":"Kent","state":"OH","lat":41.1537,"long":-81.3579},{"zip":"44243","city":"Kent","state":"OH","lat":41.1475,"long":-81.3415},{"zip":"44255","city":"Mantua","state":"OH","lat":41.2941,"long":-81.2283},{"zip":"44265","city":"Randolph","state":"OH","lat":41.0109,"long":-81.2977},{"zip":"44266","city":"Ravenna","state":"OH","lat":41.1649,"long":-81.2337},{"zip":"44272","city":"Rootstown","state":"OH","lat":41.0995,"long":-81.2026},{"zip":"44285","city":"Wayland","state":"OH","lat":41.1597,"long":-81.07},{"zip":"44288","city":"Windham","state":"OH","lat":41.2392,"long":-81.0535},{"zip":"44203","city":"Barberton","state":"OH","lat":41.0197,"long":-81.6212},{"zip":"44210","city":"Bath","state":"OH","lat":41.1889,"long":-81.6362},{"zip":"44216","city":"Clinton","state":"OH","lat":40.9391,"long":-81.5871},{"zip":"44221","city":"Cuyahoga Falls","state":"OH","lat":41.1401,"long":-81.479},{"zip":"44222","city":"Cuyahoga Falls","state":"OH","lat":41.1339,"long":-81.4846},{"zip":"44223","city":"Cuyahoga Falls","state":"OH","lat":41.1464,"long":-81.5107},{"zip":"44224","city":"Stow","state":"OH","lat":41.1748,"long":-81.438},{"zip":"44232","city":"Green","state":"OH","lat":40.9325,"long":-81.462},{"zip":"44236","city":"Hudson","state":"OH","lat":41.2458,"long":-81.4367},{"zip":"44237","city":"Hudson","state":"OH","lat":41.1287,"long":-81.54},{"zip":"44250","city":"Lakemore","state":"OH","lat":41.0222,"long":-81.4279},{"zip":"44260","city":"Mogadore","state":"OH","lat":41.0382,"long":-81.359},{"zip":"44262","city":"Munroe Falls","state":"OH","lat":41.142,"long":-81.4376},{"zip":"44264","city":"Peninsula","state":"OH","lat":41.2256,"long":-81.54},{"zip":"44278","city":"Tallmadge","state":"OH","lat":41.0975,"long":-81.426},{"zip":"44286","city":"Richfield","state":"OH","lat":41.2371,"long":-81.6467},{"zip":"44214","city":"Burbank","state":"OH","lat":40.9637,"long":-81.9958},{"zip":"44217","city":"Creston","state":"OH","lat":40.9788,"long":-81.9211},{"zip":"44230","city":"Doylestown","state":"OH","lat":40.965,"long":-81.6848},{"zip":"44270","city":"Rittman","state":"OH","lat":40.9684,"long":-81.7826},{"zip":"44276","city":"Sterling","state":"OH","lat":40.9369,"long":-81.8305},{"zip":"44287","city":"West Salem","state":"OH","lat":40.9485,"long":-82.1066}]
