[{"zip":"44301","city":"Akron","state":"OH","lat":41.0449,"long":-81.52},{"zip":"44302","city":"Akron","state":"OH","lat":41.092,"long":-81.542},{"zip":"44303","city":"Akron","state":"OH","lat":41.1025,"long":-81.5386},{"zip":"44304","city":"Akron","state":"OH","lat":41.0808,"long":-81.5085},{"zip":"44305","city":"Akron","state":"OH","lat":41.076,"long":-81.4644},{"zip":"44306","city":"Akron","state":"OH","lat":41.0479,"long":-81.4916},{"zip":"44307","city":"Akron","state":"OH","lat":41.0695,"long":-81.5488},{"zip":"44308","city":"Akron","state":"OH","lat":41.0796,"long":-81.5194},{"zip":"44309","city":"Akron","state":"OH","lat":41.0962,"long":-81.5123},{"zip":"44310","city":"Akron","state":"OH","lat":41.1075,"long":-81.5006},{"zip":"44311","city":"Akron","state":"OH","lat":41.0638,"long":-81.52},{"zip":"44312","city":"Akron","state":"OH","lat":41.0334,"long":-81.4385},{"zip":"44313","city":"Akron","state":"OH","lat":41.122,"long":-81.5685},{"zip":"44314","city":"Akron","state":"OH","lat":41.0408,"long":-81.5598},{"zip":"44315","city":"Akron","state":"OH","lat":41.028,"long":-81.4632},{"zip":"44316","city":"Akron","state":"OH","lat":41.0675,"long":-81.4847},{"zip":"44317","city":"Akron","state":"OH","lat":41.0525,"long":-81.5291},{"zip":"44319","city":"Akron","state":"OH","lat":40.9791,"long":-81.5347},{"zip":"44320","city":"Akron","state":"OH","lat":41.0835,"long":-81.5674},{"zip":"44321","city":"Akron","state":"OH","lat":41.1002,"long":-81.6443},{"zip":"44325","city":"Akron","state":"OH","lat":41.0764,"long":-81.5103},{"zip":"44326","city":"Akron","state":"OH","lat":41.0814,"long":-81.519},{"zip":"44328","city":"Akron","state":"OH","lat":41.076,"long":-81.5206},{"zip":"44333","city":"Akron","state":"OH","lat":41.1552,"long":-81.6314},{"zip":"44334","city":"Fairlawn","state":"OH","lat":41.1278,"long":-81.6098},{"zip":"44372","city":"Akron","state":"OH","lat":41.1287,"long":-81.54},{"zip":"44396","city":"Akron","state":"OH","lat":41.1287,"long":-81.54},{"zip":"44398","city":"Akron","state":"OH","lat":41.1287,"long":-81.54}]
