[{"zip":"44501","city":"Youngstown","state":"OH","lat":41.0171,"long":-80.8029},{"zip":"44502","city":"Youngstown","state":"OH","lat":41.0774,"long":-80.6409},{"zip":"44503","city":"Youngstown","state":"OH","lat":41.102,"long":-80.65},{"zip":"44504","city":"Youngstown","state":"OH","lat":41.1237,"long":-80.6539},{"zip":"44505","city":"Youngstown","state":"OH","lat":41.1257,"long":-80.6277},{"zip":"44506","city":"Youngstown","state":"OH","lat":41.096,"long":-80.6259},{"zip":"44507","city":"Youngstown","state":"OH","lat":41.0732,"long":-80.6553},{"zip":"44509","city":"Youngstown","state":"OH","lat":41.105,"long":-80.6945},{"zip":"44510","city":"Youngstown","state":"OH","lat":41.1197,"long":-80.6672},{"zip":"44511","city":"Youngstown","state":"OH","lat":41.0704,"long":-80.6931},{"zip":"44512","city":"Youngstown","state":"OH","lat":41.0252,"long":-80.6687},{"zip":"44513","city":"Youngstown","state":"OH","lat":41.0171,"long":-80.8029},{"zip":"44514","city":"Youngstown","state":"OH","lat":41.0093,"long":-80.6183},{"zip":"44515","city":"Youngstown","state":"OH","lat":41.0979,"long":-80.7598},{"zip":"44555","city":"Youngstown","state":"OH","lat":41.1039,"long":-80.6436}]
