[{"zip":"44607","city":"Augusta","state":"OH","lat":40.686,"long":-81.0219},{"zip":"44615","city":"Carrollton","state":"OH","lat":40.5787,"long":-81.0818},{"zip":"44620","city":"Dellroy","state":"OH","lat":40.5861,"long":-81.1986},{"zip":"44639","city":"Leesville","state":"OH","lat":40.4517,"long":-81.212},{"zip":"44644","city":"Malvern","state":"OH","lat":40.6845,"long":-81.1838},{"zip":"44651","city":"Mechanicstown","state":"OH","lat":40.6263,"long":-80.956},{"zip":"44675","city":"Sherrodsville","state":"OH","lat":40.5184,"long":-81.2339},{"zip":"44625","city":"East Rochester","state":"OH","lat":40.7563,"long":-81.0175},{"zip":"44634","city":"Homeworth","state":"OH","lat":40.8301,"long":-81.0333},{"zip":"44665","city":"North Georgetown","state":"OH","lat":40.8436,"long":-80.9794},{"zip":"44693","city":"Deersville","state":"OH","lat":40.2947,"long":-81.1839},{"zip":"44695","city":"Bowerston","state":"OH","lat":40.4371,"long":-81.1862},{"zip":"44699","city":"Tippecanoe","state":"OH","lat":40.2797,"long":-81.2919},{"zip":"44610","city":"Berlin","state":"OH","lat":40.5612,"long":-81.7943},{"zip":"44611","city":"Big Prairie","state":"OH","lat":40.6188,"long":-82.072},{"zip":"44617","city":"Charm","state":"OH","lat":40.5071,"long":-81.7829},{"zip":"44628","city":"Glenmont","state":"OH","lat":40.5217,"long":-82.1505},{"zip":"44633","city":"Holmesville","state":"OH","lat":40.633,"long":-81.9275},{"zip":"44637","city":"Killbuck","state":"OH","lat":40.4933,"long":-81.9837},{"zip":"44638","city":"Lakeville","state":"OH","lat":40.652,"long":-82.1455},{"zip":"44654","city":"Millersburg","state":"OH","lat":40.5567,"long":-81.8324},{"zip":"44660","city":"Mount Hope","state":"OH","lat":40.6223,"long":-81.7825},{"zip":"44661","city":"Nashville","state":"OH","lat":40.5956,"long":-82.113},{"zip":"44687","city":"Walnut Creek","state":"OH","lat":40.5516,"long":-81.7284},{"zip":"44690","city":"Winesburg","state":"OH","lat":40.6164,"long":-81.6951},{"zip":"44609","city":"Beloit","state":"OH","lat":40.8957,"long":-80.9897},{"zip":"44619","city":"Damascus","state":"OH","lat":40.9021,"long":-80.9628},{"zip":"44672","city":"Sebring","state":"OH","lat":40.9227,"long":-81.0232},{"zip":"44601","city":"Alliance","state":"OH","lat":40.9158,"long":-81.1182},{"zip":"44608","city":"Beach City","state":"OH","lat":40.6562,"long":-81.5851},{"zip":"44613","city":"Brewster","state":"OH","lat":40.7142,"long":-81.5957},{"zip":"44614","city":"Canal Fulton","state":"OH","lat":40.8887,"long":-81.5773},{"zip":"44626","city":"East Sparta","state":"OH","lat":40.6971,"long":-81.3687},{"zip":"44630","city":"Greentown","state":"OH","lat":40.9295,"long":-81.4001},{"zip":"44632","city":"Hartville","state":"OH","lat":40.9618,"long":-81.3239},{"zip":"44640","city":"Limaville","state":"OH","lat":40.9836,"long":-81.1497},{"zip":"44641","city":"Louisville","state":"OH","lat":40.8477,"long":-81.2595},{"zip":"44643","city":"Magnolia","state":"OH","lat":40.6514,"long":-81.3076},{"zip":"44646","city":"Massillon","state":"OH","lat":40.8116,"long":-81.4973},{"zip":"44647","city":"Massillon","state":"OH","lat":40.7959,"long":-81.5533},{"zip":"44648","city":"Massillon","state":"OH","lat":40.8118,"long":-81.3683},{"zip":"44650","city":"Maximo","state":"OH","lat":40.8746,"long":-81.1739},{"zip":"44652","city":"Middlebranch","state":"OH","lat":40.8951,"long":-81.3262},{"zip":"44657","city":"Minerva","state":"OH","lat":40.742,"long":-81.1031},{"zip":"44662","city":"Navarre","state":"OH","lat":40.7204,"long":-81.5338},{"zip":"44666","city":"North Lawrence","state":"OH","lat":40.8387,"long":-81.6299},{"zip":"44669","city":"Paris","state":"OH","lat":40.8014,"long":-81.154},{"zip":"44670","city":"Robertsville","state":"OH","lat":40.7647,"long":-81.1879},{"zip":"44688","city":"Waynesburg","state":"OH","lat":40.6829,"long":-81.2659},{"zip":"44689","city":"Wilmot","state":"OH","lat":40.6567,"long":-81.6352},{"zip":"44685","city":"Uniontown","state":"OH","lat":40.9637,"long":-81.4211},{"zip":"44612","city":"Bolivar","state":"OH","lat":40.6347,"long":-81.4464},{"zip":"44621","city":"Dennison","state":"OH","lat":40.4089,"long":-81.3203},{"zip":"44622","city":"Dover","state":"OH","lat":40.5343,"long":-81.4763},{"zip":"44624","city":"Dundee","state":"OH","lat":40.589,"long":-81.6058},{"zip":"44629","city":"Gnadenhutten","state":"OH","lat":40.3584,"long":-81.4343},{"zip":"44653","city":"Midvale","state":"OH","lat":40.438,"long":-81.3729},{"zip":"44656","city":"Mineral City","state":"OH","lat":40.5705,"long":-81.3436},{"zip":"44663","city":"New Philadelphia","state":"OH","lat":40.4845,"long":-81.4358},{"zip":"44671","city":"Sandyville","state":"OH","lat":40.6442,"long":-81.3653},{"zip":"44678","city":"Somerdale","state":"OH","lat":40.5649,"long":-81.3524},{"zip":"44679","city":"Stillwater","state":"OH","lat":40.3234,"long":-81.3084},{"zip":"44680","city":"Strasburg","state":"OH","lat":40.6003,"long":-81.5366},{"zip":"44681","city":"Sugarcreek","state":"OH","lat":40.5148,"long":-81.6604},{"zip":"44682","city":"Tuscarawas","state":"OH","lat":40.3959,"long":-81.4069},{"zip":"44683","city":"Uhrichsville","state":"OH","lat":40.3905,"long":-81.3374},{"zip":"44697","city":"Zoar","state":"OH","lat":40.6142,"long":-81.4223},{"zip":"44606","city":"Apple Creek","state":"OH","lat":40.7551,"long":-81.8093},{"zip":"44618","city":"Dalton","state":"OH","lat":40.7793,"long":-81.7008},{"zip":"44627","city":"Fredericksburg","state":"OH","lat":40.686,"long":-81.8518},{"zip":"44636","city":"Kidron","state":"OH","lat":40.7384,"long":-81.7428},{"zip":"44645","city":"Marshallville","state":"OH","lat":40.9067,"long":-81.7225},{"zip":"44659","city":"Mount Eaton","state":"OH","lat":40.6949,"long":-81.7026},{"zip":"44667","city":"Orrville","state":"OH","lat":40.8458,"long":-81.7741},{"zip":"44676","city":"Shreve","state":"OH","lat":40.6926,"long":-82.0325},{"zip":"44677","city":"Smithville","state":"OH","lat":40.8592,"long":-81.8633},{"zip":"44691","city":"Wooster","state":"OH","lat":40.8094,"long":-81.9483}]
