[{"zip":"44701","city":"Canton","state":"OH","lat":40.7824,"long":-81.3712},{"zip":"44702","city":"Canton","state":"OH","lat":40.8027,"long":-81.3739},{"zip":"44703","city":"Canton","state":"OH","lat":40.8098,"long":-81.3814},{"zip":"44704","city":"Canton","state":"OH","lat":40.7991,"long":-81.3537},{"zip":"44705","city":"Canton","state":"OH","lat":40.8259,"long":-81.3399},{"zip":"44706","city":"Canton","state":"OH","lat":40.768,"long":-81.4119},{"zip":"44707","city":"Canton","state":"OH","lat":40.7598,"long":-81.35},{"zip":"44708","city":"Canton","state":"OH","lat":40.812,"long":-81.4241},{"zip":"44709","city":"Canton","state":"OH","lat":40.8423,"long":-81.3862},{"zip":"44710","city":"Canton","state":"OH","lat":40.7911,"long":-81.4169},{"zip":"44711","city":"Canton","state":"OH","lat":40.8118,"long":-81.3683},{"zip":"44714","city":"Canton","state":"OH","lat":40.8272,"long":-81.361},{"zip":"44718","city":"Canton","state":"OH","lat":40.8465,"long":-81.4408},{"zip":"44720","city":"North Canton","state":"OH","lat":40.7989,"long":-81.3784},{"zip":"44721","city":"Canton","state":"OH","lat":40.8834,"long":-81.3328},{"zip":"44730","city":"East Canton","state":"OH","lat":40.7873,"long":-81.2826},{"zip":"44735","city":"Canton","state":"OH","lat":40.8118,"long":-81.3683},{"zip":"44750","city":"Canton","state":"OH","lat":40.7846,"long":-81.4189},{"zip":"44767","city":"Canton","state":"OH","lat":40.8957,"long":-81.4246},{"zip":"44799","city":"Canton","state":"OH","lat":40.8118,"long":-81.3683}]
