[{"zip":"44805","city":"Ashland","state":"OH","lat":40.8559,"long":-82.3189},{"zip":"44838","city":"Hayesville","state":"OH","lat":40.7731,"long":-82.2624},{"zip":"44840","city":"Jeromesville","state":"OH","lat":40.8134,"long":-82.1861},{"zip":"44842","city":"Loudonville","state":"OH","lat":40.6361,"long":-82.2356},{"zip":"44848","city":"Nankin","state":"OH","lat":40.9206,"long":-82.2817},{"zip":"44859","city":"Nova","state":"OH","lat":41.0282,"long":-82.3384},{"zip":"44864","city":"Perrysville","state":"OH","lat":40.6606,"long":-82.3213},{"zip":"44866","city":"Polk","state":"OH","lat":40.9343,"long":-82.2126},{"zip":"44874","city":"Savannah","state":"OH","lat":40.9653,"long":-82.3652},{"zip":"44880","city":"Sullivan","state":"OH","lat":41.0368,"long":-82.2172},{"zip":"44820","city":"Bucyrus","state":"OH","lat":40.8103,"long":-82.9698},{"zip":"44825","city":"Chatfield","state":"OH","lat":40.9542,"long":-82.9432},{"zip":"44827","city":"Crestline","state":"OH","lat":40.7927,"long":-82.7367},{"zip":"44833","city":"Galion","state":"OH","lat":40.7303,"long":-82.7939},{"zip":"44854","city":"New Washington","state":"OH","lat":40.9571,"long":-82.8504},{"zip":"44856","city":"North Robinson","state":"OH","lat":40.7934,"long":-82.8566},{"zip":"44860","city":"Oceola","state":"OH","lat":40.8357,"long":-83.1029},{"zip":"44881","city":"Sulphur Springs","state":"OH","lat":40.8709,"long":-82.8771},{"zip":"44887","city":"Tiro","state":"OH","lat":40.881,"long":-82.797},{"zip":"44814","city":"Berlin Heights","state":"OH","lat":41.3205,"long":-82.4777},{"zip":"44816","city":"Birmingham","state":"OH","lat":41.3349,"long":-82.355},{"zip":"44824","city":"Castalia","state":"OH","lat":41.3872,"long":-82.7994},{"zip":"44839","city":"Huron","state":"OH","lat":41.3757,"long":-82.5386},{"zip":"44846","city":"Milan","state":"OH","lat":41.3111,"long":-82.6126},{"zip":"44870","city":"Sandusky","state":"OH","lat":41.4349,"long":-82.7063},{"zip":"44871","city":"Sandusky","state":"OH","lat":41.4489,"long":-82.708},{"zip":"44804","city":"Arcadia","state":"OH","lat":41.1116,"long":-83.5019},{"zip":"44811","city":"Bellevue","state":"OH","lat":41.2684,"long":-82.8577},{"zip":"44826","city":"Collins","state":"OH","lat":41.245,"long":-82.4904},{"zip":"44837","city":"Greenwich","state":"OH","lat":41.0407,"long":-82.5133},{"zip":"44847","city":"Monroeville","state":"OH","lat":41.2181,"long":-82.7023},{"zip":"44850","city":"New Haven","state":"OH","lat":41.035,"long":-82.677},{"zip":"44851","city":"New London","state":"OH","lat":41.0906,"long":-82.3966},{"zip":"44855","city":"North Fairfield","state":"OH","lat":41.103,"long":-82.5998},{"zip":"44857","city":"Norwalk","state":"OH","lat":41.2403,"long":-82.6078},{"zip":"44888","city":"Willard","state":"OH","lat":41.0531,"long":-82.7263},{"zip":"44889","city":"Wakeman","state":"OH","lat":41.2637,"long":-82.3782},{"zip":"44890","city":"Willard","state":"OH","lat":41.0628,"long":-82.7288},{"zip":"44813","city":"Bellville","state":"OH","lat":40.6136,"long":-82.5175},{"zip":"44822","city":"Butler","state":"OH","lat":40.5438,"long":-82.399},{"zip":"44843","city":"Lucas","state":"OH","lat":40.7039,"long":-82.4087},{"zip":"44862","city":"Ontario","state":"OH","lat":40.7729,"long":-82.5321},{"zip":"44865","city":"Plymouth","state":"OH","lat":41.0003,"long":-82.6635},{"zip":"44875","city":"Shelby","state":"OH","lat":40.8784,"long":-82.6549},{"zip":"44878","city":"Shiloh","state":"OH","lat":40.934,"long":-82.5222},{"zip":"44802","city":"Alvada","state":"OH","lat":41.0463,"long":-83.377},{"zip":"44807","city":"Attica","state":"OH","lat":41.0773,"long":-82.9032},{"zip":"44809","city":"Bascom","state":"OH","lat":41.1328,"long":-83.2854},{"zip":"44815","city":"Bettsville","state":"OH","lat":41.2469,"long":-83.2398},{"zip":"44818","city":"Bloomville","state":"OH","lat":41.0182,"long":-82.9899},{"zip":"44828","city":"Flat Rock","state":"OH","lat":41.2371,"long":-82.8597},{"zip":"44830","city":"Fostoria","state":"OH","lat":41.1623,"long":-83.4139},{"zip":"44836","city":"Green Springs","state":"OH","lat":41.2281,"long":-83.0885},{"zip":"44841","city":"Kansas","state":"OH","lat":41.2512,"long":-83.306},{"zip":"44845","city":"Melmore","state":"OH","lat":41.0242,"long":-83.1098},{"zip":"44853","city":"New Riegel","state":"OH","lat":41.0514,"long":-83.3185},{"zip":"44861","city":"Old Fort","state":"OH","lat":41.2395,"long":-83.1479},{"zip":"44867","city":"Republic","state":"OH","lat":41.1259,"long":-83.0194},{"zip":"44883","city":"Tiffin","state":"OH","lat":41.1238,"long":-83.1844},{"zip":"44817","city":"Bloomdale","state":"OH","lat":41.1815,"long":-83.5724},{"zip":"44844","city":"Mc Cutchenville","state":"OH","lat":40.9752,"long":-83.2637},{"zip":"44849","city":"Nevada","state":"OH","lat":40.8259,"long":-83.1266},{"zip":"44882","city":"Sycamore","state":"OH","lat":40.9413,"long":-83.1492}]
