[{"zip":"45105","city":"Bentonville","state":"OH","lat":38.7498,"long":-83.6126},{"zip":"45144","city":"Manchester","state":"OH","lat":38.6982,"long":-83.6181},{"zip":"45616","city":"Blue Creek","state":"OH","lat":38.7776,"long":-83.3302},{"zip":"45618","city":"Cherry Fork","state":"OH","lat":38.8922,"long":-83.6218},{"zip":"45650","city":"Lynx","state":"OH","lat":38.7391,"long":-83.4262},{"zip":"45660","city":"Peebles","state":"OH","lat":38.9869,"long":-83.3687},{"zip":"45679","city":"Seaman","state":"OH","lat":38.9621,"long":-83.5936},{"zip":"45693","city":"West Union","state":"OH","lat":38.8017,"long":-83.5333},{"zip":"45697","city":"Winchester","state":"OH","lat":38.9353,"long":-83.6661},{"zip":"45801","city":"Lima","state":"OH","lat":40.7641,"long":-84.0973},{"zip":"45802","city":"Lima","state":"OH","lat":40.7818,"long":-84.1386},{"zip":"45804","city":"Lima","state":"OH","lat":40.7275,"long":-84.089},{"zip":"45805","city":"Lima","state":"OH","lat":40.7399,"long":-84.1459},{"zip":"45807","city":"Lima","state":"OH","lat":40.7955,"long":-84.1383},{"zip":"45808","city":"Beaverdam","state":"OH","lat":40.8314,"long":-83.9758},{"zip":"45809","city":"Gomer","state":"OH","lat":40.8451,"long":-84.1872},{"zip":"45817","city":"Bluffton","state":"OH","lat":40.879,"long":-83.8914},{"zip":"45820","city":"Cairo","state":"OH","lat":40.8304,"long":-84.0852},{"zip":"45833","city":"Delphos","state":"OH","lat":40.8336,"long":-84.3247},{"zip":"45850","city":"Harrod","state":"OH","lat":40.7177,"long":-83.9436},{"zip":"45854","city":"Lafayette","state":"OH","lat":40.7582,"long":-83.9499},{"zip":"45887","city":"Spencerville","state":"OH","lat":40.7038,"long":-84.3413},{"zip":"45701","city":"Athens","state":"OH","lat":39.3178,"long":-82.102},{"zip":"45710","city":"Albany","state":"OH","lat":39.2097,"long":-82.2177},{"zip":"45711","city":"Amesville","state":"OH","lat":39.4086,"long":-81.965},{"zip":"45716","city":"Buchtel","state":"OH","lat":39.462,"long":-82.1818},{"zip":"45717","city":"Carbondale","state":"OH","lat":39.3778,"long":-82.271},{"zip":"45719","city":"Chauncey","state":"OH","lat":39.4002,"long":-82.1302},{"zip":"45723","city":"Coolville","state":"OH","lat":39.2141,"long":-81.8329},{"zip":"45732","city":"Glouster","state":"OH","lat":39.4978,"long":-82.0871},{"zip":"45735","city":"Guysville","state":"OH","lat":39.2493,"long":-81.922},{"zip":"45739","city":"Hockingport","state":"OH","lat":39.1979,"long":-81.7446},{"zip":"45740","city":"Jacksonville","state":"OH","lat":39.477,"long":-82.0794},{"zip":"45761","city":"Millfield","state":"OH","lat":39.4077,"long":-82.1113},{"zip":"45764","city":"Nelsonville","state":"OH","lat":39.4556,"long":-82.2309},{"zip":"45766","city":"New Marshfield","state":"OH","lat":39.3228,"long":-82.2594},{"zip":"45776","city":"Shade","state":"OH","lat":39.2129,"long":-82.0218},{"zip":"45777","city":"Sharpsburg","state":"OH","lat":39.4359,"long":-81.9115},{"zip":"45778","city":"Stewart","state":"OH","lat":39.3213,"long":-81.8929},{"zip":"45780","city":"The Plains","state":"OH","lat":39.3662,"long":-82.1341},{"zip":"45782","city":"Trimble","state":"OH","lat":39.4845,"long":-82.0805},{"zip":"45806","city":"Lima","state":"OH","lat":40.6752,"long":-84.1244},{"zip":"45819","city":"Buckland","state":"OH","lat":40.6241,"long":-84.2603},{"zip":"45865","city":"Minster","state":"OH","lat":40.391,"long":-84.3729},{"zip":"45869","city":"New Bremen","state":"OH","lat":40.4389,"long":-84.3821},{"zip":"45870","city":"New Hampshire","state":"OH","lat":40.5563,"long":-83.9514},{"zip":"45871","city":"New Knoxville","state":"OH","lat":40.5039,"long":-84.3118},{"zip":"45884","city":"Saint Johns","state":"OH","lat":40.5559,"long":-84.0836},{"zip":"45885","city":"Saint Marys","state":"OH","lat":40.544,"long":-84.3944},{"zip":"45888","city":"Uniopolis","state":"OH","lat":40.6023,"long":-84.086},{"zip":"45895","city":"Wapakoneta","state":"OH","lat":40.569,"long":-84.1774},{"zip":"45896","city":"Waynesfield","state":"OH","lat":40.6072,"long":-83.9585},{"zip":"45101","city":"Aberdeen","state":"OH","lat":38.6709,"long":-83.7637},{"zip":"45115","city":"Decatur","state":"OH","lat":38.8237,"long":-83.6995},{"zip":"45118","city":"Fayetteville","state":"OH","lat":39.1862,"long":-83.9501},{"zip":"45119","city":"Feesburg","state":"OH","lat":38.8806,"long":-84.0087},{"zip":"45121","city":"Georgetown","state":"OH","lat":38.8717,"long":-83.9092},{"zip":"45130","city":"Hamersville","state":"OH","lat":38.92,"long":-83.9931},{"zip":"45131","city":"Higginsport","state":"OH","lat":38.7903,"long":-83.9666},{"zip":"45154","city":"Mount Orab","state":"OH","lat":39.0454,"long":-83.948},{"zip":"45167","city":"Ripley","state":"OH","lat":38.7551,"long":-83.8227},{"zip":"45168","city":"Russellville","state":"OH","lat":38.8511,"long":-83.7625},{"zip":"45171","city":"Sardinia","state":"OH","lat":38.9832,"long":-83.7966},{"zip":"45275","city":"Cincinnati","state":"OH","lat":39.162,"long":-84.4569},{"zip":"45003","city":"College Corner","state":"OH","lat":39.5755,"long":-84.805},{"zip":"45004","city":"Collinsville","state":"OH","lat":39.5153,"long":-84.6094},{"zip":"45011","city":"Hamilton","state":"OH","lat":39.4059,"long":-84.5221},{"zip":"45012","city":"Hamilton","state":"OH","lat":39.441,"long":-84.5757},{"zip":"45013","city":"Hamilton","state":"OH","lat":39.4361,"long":-84.6185},{"zip":"45014","city":"Fairfield","state":"OH","lat":39.3266,"long":-84.5479},{"zip":"45015","city":"Hamilton","state":"OH","lat":39.3494,"long":-84.5376},{"zip":"45018","city":"Fairfield","state":"OH","lat":39.441,"long":-84.5757},{"zip":"45042","city":"Middletown","state":"OH","lat":39.5321,"long":-84.3896},{"zip":"45044","city":"Middletown","state":"OH","lat":39.5151,"long":-84.3983},{"zip":"45050","city":"Monroe","state":"OH","lat":39.4413,"long":-84.3652},{"zip":"45053","city":"Okeana","state":"OH","lat":39.3537,"long":-84.7761},{"zip":"45055","city":"Overpeck","state":"OH","lat":39.4518,"long":-84.5152},{"zip":"45056","city":"Oxford","state":"OH","lat":39.507,"long":-84.7452},{"zip":"45061","city":"Ross","state":"OH","lat":39.3124,"long":-84.6483},{"zip":"45062","city":"Seven Mile","state":"OH","lat":39.479,"long":-84.5512},{"zip":"45063","city":"Shandon","state":"OH","lat":39.3258,"long":-84.7121},{"zip":"45064","city":"Somerville","state":"OH","lat":39.5554,"long":-84.6219},{"zip":"45067","city":"Trenton","state":"OH","lat":39.4799,"long":-84.4598},{"zip":"45069","city":"West Chester","state":"OH","lat":39.3402,"long":-84.3998},{"zip":"45071","city":"West Chester","state":"OH","lat":39.3317,"long":-84.4072},{"zip":"45389","city":"Christiansburg","state":"OH","lat":40.0564,"long":-84.0254},{"zip":"45319","city":"Donnelsville","state":"OH","lat":39.9189,"long":-83.9449},{"zip":"45323","city":"Enon","state":"OH","lat":39.8663,"long":-83.9385},{"zip":"45341","city":"Medway","state":"OH","lat":39.8789,"long":-84.0218},{"zip":"45344","city":"New Carlisle","state":"OH","lat":39.93,"long":-84.0217},{"zip":"45349","city":"North Hampton","state":"OH","lat":39.9893,"long":-83.9389},{"zip":"45368","city":"South Charleston","state":"OH","lat":39.8543,"long":-83.6653},{"zip":"45369","city":"South Vienna","state":"OH","lat":39.9473,"long":-83.6157},{"zip":"45372","city":"Tremont City","state":"OH","lat":40.0139,"long":-83.8333},{"zip":"45501","city":"Springfield","state":"OH","lat":39.9271,"long":-83.8132},{"zip":"45502","city":"Springfield","state":"OH","lat":39.9242,"long":-83.8088},{"zip":"45503","city":"Springfield","state":"OH","lat":39.9528,"long":-83.7804},{"zip":"45504","city":"Springfield","state":"OH","lat":39.9408,"long":-83.8343},{"zip":"45505","city":"Springfield","state":"OH","lat":39.9106,"long":-83.7856},{"zip":"45506","city":"Springfield","state":"OH","lat":39.9104,"long":-83.8275},{"zip":"45102","city":"Amelia","state":"OH","lat":39.0211,"long":-84.2112},{"zip":"45103","city":"Batavia","state":"OH","lat":39.0957,"long":-84.1451},{"zip":"45106","city":"Bethel","state":"OH","lat":38.9424,"long":-84.0919},{"zip":"45112","city":"Chilo","state":"OH","lat":38.7926,"long":-84.1382},{"zip":"45120","city":"Felicity","state":"OH","lat":38.8262,"long":-84.0986},{"zip":"45122","city":"Goshen","state":"OH","lat":39.2209,"long":-84.1188},{"zip":"45140","city":"Loveland","state":"OH","lat":39.2445,"long":-84.2588},{"zip":"45147","city":"Miamiville","state":"OH","lat":39.2137,"long":-84.3002},{"zip":"45150","city":"Milford","state":"OH","lat":39.1657,"long":-84.233},{"zip":"45153","city":"Moscow","state":"OH","lat":38.8583,"long":-84.1958},{"zip":"45156","city":"Neville","state":"OH","lat":38.8101,"long":-84.2122},{"zip":"45157","city":"New Richmond","state":"OH","lat":38.9537,"long":-84.2379},{"zip":"45158","city":"Newtonsville","state":"OH","lat":39.182,"long":-84.0863},{"zip":"45160","city":"Owensville","state":"OH","lat":39.1232,"long":-84.135},{"zip":"45176","city":"Williamsburg","state":"OH","lat":39.0753,"long":-84.0432},{"zip":"45245","city":"Cincinnati","state":"OH","lat":39.0688,"long":-84.2802},{"zip":"45107","city":"Blanchester","state":"OH","lat":39.3034,"long":-83.974},{"zip":"45113","city":"Clarksville","state":"OH","lat":39.4042,"long":-83.9594},{"zip":"45114","city":"Cuba","state":"OH","lat":39.3568,"long":-83.8572},{"zip":"45146","city":"Martinsville","state":"OH","lat":39.3127,"long":-83.8005},{"zip":"45148","city":"Midland","state":"OH","lat":39.2917,"long":-83.8931},{"zip":"45159","city":"New Vienna","state":"OH","lat":39.3321,"long":-83.6882},{"zip":"45164","city":"Port William","state":"OH","lat":39.5514,"long":-83.7881},{"zip":"45166","city":"Reesville","state":"OH","lat":39.4805,"long":-83.6772},{"zip":"45169","city":"Sabina","state":"OH","lat":39.49,"long":-83.6503},{"zip":"45177","city":"Wilmington","state":"OH","lat":39.4488,"long":-83.8417},{"zip":"45303","city":"Ansonia","state":"OH","lat":40.2151,"long":-84.6406},{"zip":"45304","city":"Arcanum","state":"OH","lat":39.9888,"long":-84.5312},{"zip":"45328","city":"Gettysburg","state":"OH","lat":40.1147,"long":-84.4934},{"zip":"45331","city":"Greenville","state":"OH","lat":40.0987,"long":-84.6342},{"zip":"45332","city":"Hollansburg","state":"OH","lat":39.9899,"long":-84.7901},{"zip":"45346","city":"New Madison","state":"OH","lat":39.9687,"long":-84.7222},{"zip":"45348","city":"New Weston","state":"OH","lat":40.3349,"long":-84.6308},{"zip":"45350","city":"North Star","state":"OH","lat":40.3243,"long":-84.5737},{"zip":"45351","city":"Osgood","state":"OH","lat":40.3406,"long":-84.4963},{"zip":"45352","city":"Palestine","state":"OH","lat":40.0503,"long":-84.7457},{"zip":"45358","city":"Pitsburg","state":"OH","lat":39.987,"long":-84.4866},{"zip":"45362","city":"Rossburg","state":"OH","lat":40.2946,"long":-84.6264},{"zip":"45380","city":"Versailles","state":"OH","lat":40.2273,"long":-84.4957},{"zip":"45388","city":"Yorkshire","state":"OH","lat":40.3283,"long":-84.4836},{"zip":"45390","city":"Union City","state":"OH","lat":40.2018,"long":-84.7832},{"zip":"45614","city":"Bidwell","state":"OH","lat":38.9276,"long":-82.2701},{"zip":"45620","city":"Cheshire","state":"OH","lat":38.9587,"long":-82.1235},{"zip":"45623","city":"Crown City","state":"OH","lat":38.6135,"long":-82.2657},{"zip":"45631","city":"Gallipolis","state":"OH","lat":38.8148,"long":-82.229},{"zip":"45643","city":"Kerr","state":"OH","lat":38.8683,"long":-82.2562},{"zip":"45658","city":"Patriot","state":"OH","lat":38.777,"long":-82.4275},{"zip":"45674","city":"Rio Grande","state":"OH","lat":38.8814,"long":-82.3782},{"zip":"45685","city":"Thurman","state":"OH","lat":38.8705,"long":-82.4063},{"zip":"45686","city":"Vinton","state":"OH","lat":38.9783,"long":-82.357},{"zip":"45301","city":"Alpha","state":"OH","lat":39.7117,"long":-84.0233},{"zip":"45305","city":"Bellbrook","state":"OH","lat":39.6402,"long":-84.0824},{"zip":"45307","city":"Bowersville","state":"OH","lat":39.5806,"long":-83.7249},{"zip":"45314","city":"Cedarville","state":"OH","lat":39.7484,"long":-83.8013},{"zip":"45316","city":"Clifton","state":"OH","lat":39.797,"long":-83.8256},{"zip":"45324","city":"Fairborn","state":"OH","lat":39.8053,"long":-84.0198},{"zip":"45335","city":"Jamestown","state":"OH","lat":39.6428,"long":-83.7504},{"zip":"45370","city":"Spring Valley","state":"OH","lat":39.6083,"long":-84.026},{"zip":"45384","city":"Wilberforce","state":"OH","lat":39.7128,"long":-83.8781},{"zip":"45385","city":"Xenia","state":"OH","lat":39.6842,"long":-83.9369},{"zip":"45387","city":"Yellow Springs","state":"OH","lat":39.7996,"long":-83.8891},{"zip":"45431","city":"Dayton","state":"OH","lat":39.7574,"long":-84.0569},{"zip":"45433","city":"Dayton","state":"OH","lat":39.8138,"long":-84.059},{"zip":"45001","city":"Addyston","state":"OH","lat":39.1374,"long":-84.7096},{"zip":"45002","city":"Cleves","state":"OH","lat":39.1937,"long":-84.734},{"zip":"45030","city":"Harrison","state":"OH","lat":39.2592,"long":-84.7837},{"zip":"45033","city":"Hooven","state":"OH","lat":39.1773,"long":-84.7627},{"zip":"45041","city":"Miamitown","state":"OH","lat":39.2159,"long":-84.7041},{"zip":"45051","city":"Mount Saint Joseph","state":"OH","lat":39.0965,"long":-84.6431},{"zip":"45052","city":"North Bend","state":"OH","lat":39.1536,"long":-84.7273},{"zip":"45111","city":"Camp Dennison","state":"OH","lat":39.1962,"long":-84.2897},{"zip":"45174","city":"Terrace Park","state":"OH","lat":39.1602,"long":-84.3098},{"zip":"45201","city":"Cincinnati","state":"OH","lat":39.1668,"long":-84.5382},{"zip":"45202","city":"Cincinnati","state":"OH","lat":39.1072,"long":-84.502},{"zip":"45203","city":"Cincinnati","state":"OH","lat":39.1075,"long":-84.5257},{"zip":"45204","city":"Cincinnati","state":"OH","lat":39.0963,"long":-84.5719},{"zip":"45205","city":"Cincinnati","state":"OH","lat":39.1104,"long":-84.5757},{"zip":"45206","city":"Cincinnati","state":"OH","lat":39.1269,"long":-84.4853},{"zip":"45207","city":"Cincinnati","state":"OH","lat":39.1397,"long":-84.4706},{"zip":"45208","city":"Cincinnati","state":"OH","lat":39.1361,"long":-84.4355},{"zip":"45209","city":"Cincinnati","state":"OH","lat":39.1516,"long":-84.4278},{"zip":"45211","city":"Cincinnati","state":"OH","lat":39.1524,"long":-84.5967},{"zip":"45212","city":"Cincinnati","state":"OH","lat":39.1642,"long":-84.4522},{"zip":"45213","city":"Cincinnati","state":"OH","lat":39.1802,"long":-84.4204},{"zip":"45214","city":"Cincinnati","state":"OH","lat":39.1219,"long":-84.5506},{"zip":"45215","city":"Cincinnati","state":"OH","lat":39.2353,"long":-84.4619},{"zip":"45216","city":"Cincinnati","state":"OH","lat":39.2003,"long":-84.4859},{"zip":"45217","city":"Cincinnati","state":"OH","lat":39.1661,"long":-84.4959},{"zip":"45218","city":"Cincinnati","state":"OH","lat":39.2663,"long":-84.5221},{"zip":"45219","city":"Cincinnati","state":"OH","lat":39.127,"long":-84.5131},{"zip":"45220","city":"Cincinnati","state":"OH","lat":39.1432,"long":-84.5217},{"zip":"45221","city":"Cincinnati","state":"OH","lat":39.1668,"long":-84.5382},{"zip":"45222","city":"Cincinnati","state":"OH","lat":39.1668,"long":-84.5382},{"zip":"45223","city":"Cincinnati","state":"OH","lat":39.1696,"long":-84.5478},{"zip":"45224","city":"Cincinnati","state":"OH","lat":39.1991,"long":-84.5251},{"zip":"45225","city":"Cincinnati","state":"OH","lat":39.1447,"long":-84.5533},{"zip":"45226","city":"Cincinnati","state":"OH","lat":39.1174,"long":-84.4312},{"zip":"45227","city":"Cincinnati","state":"OH","lat":39.1539,"long":-84.3854},{"zip":"45229","city":"Cincinnati","state":"OH","lat":39.149,"long":-84.4892},{"zip":"45230","city":"Cincinnati","state":"OH","lat":39.0713,"long":-84.3758},{"zip":"45231","city":"Cincinnati","state":"OH","lat":39.2418,"long":-84.5437},{"zip":"45232","city":"Cincinnati","state":"OH","lat":39.1859,"long":-84.5141},{"zip":"45233","city":"Cincinnati","state":"OH","lat":39.111,"long":-84.6594},{"zip":"45234","city":"Cincinnati","state":"OH","lat":39.1668,"long":-84.5382},{"zip":"45235","city":"Cincinnati","state":"OH","lat":39.1668,"long":-84.5382},{"zip":"45236","city":"Cincinnati","state":"OH","lat":39.21,"long":-84.395},{"zip":"45237","city":"Cincinnati","state":"OH","lat":39.188,"long":-84.458},{"zip":"45238","city":"Cincinnati","state":"OH","lat":39.1092,"long":-84.6108},{"zip":"45239","city":"Cincinnati","state":"OH","lat":39.2045,"long":-84.5799},{"zip":"45240","city":"Cincinnati","state":"OH","lat":39.2851,"long":-84.5288},{"zip":"45241","city":"Cincinnati","state":"OH","lat":39.2638,"long":-84.4092},{"zip":"45242","city":"Cincinnati","state":"OH","lat":39.2447,"long":-84.3455},{"zip":"45243","city":"Cincinnati","state":"OH","lat":39.1848,"long":-84.3448},{"zip":"45244","city":"Cincinnati","state":"OH","lat":39.1191,"long":-84.351},{"zip":"45246","city":"Cincinnati","state":"OH","lat":39.2839,"long":-84.4744},{"zip":"45247","city":"Cincinnati","state":"OH","lat":39.2208,"long":-84.6418},{"zip":"45248","city":"Cincinnati","state":"OH","lat":39.1652,"long":-84.6625},{"zip":"45249","city":"Cincinnati","state":"OH","lat":39.2692,"long":-84.3307},{"zip":"45250","city":"Cincinnati","state":"OH","lat":39.1668,"long":-84.5382},{"zip":"45251","city":"Cincinnati","state":"OH","lat":39.2672,"long":-84.5993},{"zip":"45252","city":"Cincinnati","state":"OH","lat":39.2668,"long":-84.6283},{"zip":"45253","city":"Cincinnati","state":"OH","lat":39.1668,"long":-84.5382},{"zip":"45254","city":"Cincinnati","state":"OH","lat":39.1668,"long":-84.5382},{"zip":"45255","city":"Cincinnati","state":"OH","lat":39.0584,"long":-84.3396},{"zip":"45258","city":"Cincinnati","state":"OH","lat":39.1668,"long":-84.5382},{"zip":"45262","city":"Cincinnati","state":"OH","lat":39.1668,"long":-84.5382},{"zip":"45263","city":"Cincinnati","state":"OH","lat":39.1668,"long":-84.5382},{"zip":"45264","city":"Cincinnati","state":"OH","lat":39.1668,"long":-84.5382},{"zip":"45267","city":"Cincinnati","state":"OH","lat":39.1668,"long":-84.5382},{"zip":"45268","city":"Cincinnati","state":"OH","lat":39.1668,"long":-84.5382},{"zip":"45269","city":"Cincinnati","state":"OH","lat":39.1668,"long":-84.5382},{"zip":"45270","city":"Cincinnati","state":"OH","lat":39.1668,"long":-84.5382},{"zip":"45271","city":"Cincinnati","state":"OH","lat":39.1668,"long":-84.5382},{"zip":"45273","city":"Cincinnati","state":"OH","lat":39.1668,"long":-84.5382},{"zip":"45274","city":"Cincinnati","state":"OH","lat":39.1668,"long":-84.5382},{"zip":"45277","city":"Cincinnati","state":"OH","lat":39.1668,"long":-84.5382},{"zip":"45280","city":"Cincinnati","state":"OH","lat":39.162,"long":-84.4569},{"zip":"45296","city":"Cincinnati","state":"OH","lat":39.1668,"long":-84.5382},{"zip":"45298","city":"Cincinnati","state":"OH","lat":39.1668,"long":-84.5382},{"zip":"45299","city":"Cincinnati","state":"OH","lat":39.2622,"long":-84.5093},{"zip":"45999","city":"Cincinnati","state":"OH","lat":39.1668,"long":-84.5382},{"zip":"45814","city":"Arlington","state":"OH","lat":40.8761,"long":-83.6685},{"zip":"45816","city":"Benton Ridge","state":"OH","lat":41.0031,"long":-83.7931},{"zip":"45839","city":"Findlay","state":"OH","lat":41.0442,"long":-83.6499},{"zip":"45840","city":"Findlay","state":"OH","lat":41.0449,"long":-83.6457},{"zip":"45841","city":"Jenera","state":"OH","lat":40.9004,"long":-83.7256},{"zip":"45858","city":"Mc Comb","state":"OH","lat":41.1125,"long":-83.8014},{"zip":"45867","city":"Mount Blanchard","state":"OH","lat":40.8929,"long":-83.5553},{"zip":"45868","city":"Mount Cory","state":"OH","lat":40.9437,"long":-83.8093},{"zip":"45881","city":"Rawson","state":"OH","lat":40.9589,"long":-83.7841},{"zip":"45889","city":"Van Buren","state":"OH","lat":41.1327,"long":-83.6473},{"zip":"45890","city":"Vanlue","state":"OH","lat":40.9583,"long":-83.4971},{"zip":"45897","city":"Williamstown","state":"OH","lat":40.834,"long":-83.6518},{"zip":"45810","city":"Ada","state":"OH","lat":40.7709,"long":-83.8154},{"zip":"45812","city":"Alger","state":"OH","lat":40.706,"long":-83.825},{"zip":"45835","city":"Dola","state":"OH","lat":40.7598,"long":-83.7001},{"zip":"45836","city":"Dunkirk","state":"OH","lat":40.7824,"long":-83.6339},{"zip":"45843","city":"Forest","state":"OH","lat":40.7816,"long":-83.5351},{"zip":"45859","city":"Mc Guffey","state":"OH","lat":40.6899,"long":-83.8111},{"zip":"45123","city":"Greenfield","state":"OH","lat":39.3478,"long":-83.3898},{"zip":"45132","city":"Highland","state":"OH","lat":39.3445,"long":-83.5974},{"zip":"45133","city":"Hillsboro","state":"OH","lat":39.1679,"long":-83.6064},{"zip":"45135","city":"Leesburg","state":"OH","lat":39.3458,"long":-83.5481},{"zip":"45142","city":"Lynchburg","state":"OH","lat":39.2119,"long":-83.8021},{"zip":"45155","city":"Mowrystown","state":"OH","lat":39.0388,"long":-83.7505},{"zip":"45172","city":"Sinking Spring","state":"OH","lat":39.0738,"long":-83.3853},{"zip":"45621","city":"Coalton","state":"OH","lat":39.1108,"long":-82.6077},{"zip":"45640","city":"Jackson","state":"OH","lat":39.0428,"long":-82.6472},{"zip":"45656","city":"Oak Hill","state":"OH","lat":38.8916,"long":-82.5883},{"zip":"45692","city":"Wellston","state":"OH","lat":39.1189,"long":-82.5485},{"zip":"45619","city":"Chesapeake","state":"OH","lat":38.4551,"long":-82.4504},{"zip":"45638","city":"Ironton","state":"OH","lat":38.5294,"long":-82.6654},{"zip":"45645","city":"Kitts Hill","state":"OH","lat":38.5649,"long":-82.5489},{"zip":"45659","city":"Pedro","state":"OH","lat":38.6503,"long":-82.6477},{"zip":"45669","city":"Proctorville","state":"OH","lat":38.4635,"long":-82.3523},{"zip":"45675","city":"Rock Camp","state":"OH","lat":38.5367,"long":-82.5327},{"zip":"45678","city":"Scottown","state":"OH","lat":38.594,"long":-82.3967},{"zip":"45680","city":"South Point","state":"OH","lat":38.4339,"long":-82.5529},{"zip":"45688","city":"Waterloo","state":"OH","lat":38.7182,"long":-82.5174},{"zip":"45696","city":"Willow Wood","state":"OH","lat":38.594,"long":-82.453},{"zip":"45720","city":"Chester","state":"OH","lat":39.0856,"long":-81.9214},{"zip":"45741","city":"Langsville","state":"OH","lat":39.0697,"long":-82.2499},{"zip":"45743","city":"Long Bottom","state":"OH","lat":39.0802,"long":-81.8887},{"zip":"45760","city":"Middleport","state":"OH","lat":38.9993,"long":-82.06},{"zip":"45769","city":"Pomeroy","state":"OH","lat":39.0607,"long":-82.0331},{"zip":"45770","city":"Portland","state":"OH","lat":38.9999,"long":-81.8135},{"zip":"45771","city":"Racine","state":"OH","lat":38.9786,"long":-81.9258},{"zip":"45772","city":"Reedsville","state":"OH","lat":39.149,"long":-81.7924},{"zip":"45775","city":"Rutland","state":"OH","lat":39.0909,"long":-82.1486},{"zip":"45779","city":"Syracuse","state":"OH","lat":38.9976,"long":-81.974},{"zip":"45783","city":"Tuppers Plains","state":"OH","lat":39.1683,"long":-81.8423},{"zip":"45310","city":"Burkettsville","state":"OH","lat":40.3541,"long":-84.6435},{"zip":"45822","city":"Celina","state":"OH","lat":40.5566,"long":-84.6287},{"zip":"45826","city":"Chickasaw","state":"OH","lat":40.437,"long":-84.4933},{"zip":"45828","city":"Coldwater","state":"OH","lat":40.4846,"long":-84.6517},{"zip":"45846","city":"Fort Recovery","state":"OH","lat":40.4018,"long":-84.7613},{"zip":"45860","city":"Maria Stein","state":"OH","lat":40.4062,"long":-84.5076},{"zip":"45862","city":"Mendon","state":"OH","lat":40.6777,"long":-84.5152},{"zip":"45866","city":"Montezuma","state":"OH","lat":40.489,"long":-84.5494},{"zip":"45882","city":"Rockford","state":"OH","lat":40.6771,"long":-84.6642},{"zip":"45883","city":"Saint Henry","state":"OH","lat":40.4091,"long":-84.6333},{"zip":"45308","city":"Bradford","state":"OH","lat":40.1286,"long":-84.4293},{"zip":"45312","city":"Casstown","state":"OH","lat":40.0716,"long":-84.1088},{"zip":"45317","city":"Conover","state":"OH","lat":40.1457,"long":-84.0283},{"zip":"45318","city":"Covington","state":"OH","lat":40.1176,"long":-84.3496},{"zip":"45326","city":"Fletcher","state":"OH","lat":40.1445,"long":-84.101},{"zip":"45337","city":"Laura","state":"OH","lat":39.9785,"long":-84.3994},{"zip":"45339","city":"Ludlow Falls","state":"OH","lat":39.9871,"long":-84.3334},{"zip":"45356","city":"Piqua","state":"OH","lat":40.1486,"long":-84.2531},{"zip":"45359","city":"Pleasant Hill","state":"OH","lat":40.0531,"long":-84.3436},{"zip":"45361","city":"Potsdam","state":"OH","lat":39.9635,"long":-84.4145},{"zip":"45371","city":"Tipp City","state":"OH","lat":39.942,"long":-84.1663},{"zip":"45373","city":"Troy","state":"OH","lat":40.0374,"long":-84.2032},{"zip":"45374","city":"Troy","state":"OH","lat":40.04,"long":-84.2298},{"zip":"45383","city":"West Milton","state":"OH","lat":39.9531,"long":-84.3242},{"zip":"45734","city":"Graysville","state":"OH","lat":39.663,"long":-81.1822},{"zip":"45309","city":"Brookville","state":"OH","lat":39.8414,"long":-84.4165},{"zip":"45315","city":"Clayton","state":"OH","lat":39.8551,"long":-84.3399},{"zip":"45322","city":"Englewood","state":"OH","lat":39.877,"long":-84.3319},{"zip":"45325","city":"Farmersville","state":"OH","lat":39.6867,"long":-84.4205},{"zip":"45327","city":"Germantown","state":"OH","lat":39.6244,"long":-84.3764},{"zip":"45342","city":"Miamisburg","state":"OH","lat":39.6321,"long":-84.2675},{"zip":"45343","city":"Miamisburg","state":"OH","lat":39.7505,"long":-84.2686},{"zip":"45345","city":"New Lebanon","state":"OH","lat":39.7398,"long":-84.3956},{"zip":"45354","city":"Phillipsburg","state":"OH","lat":39.9054,"long":-84.4028},{"zip":"45377","city":"Vandalia","state":"OH","lat":39.8883,"long":-84.2023},{"zip":"45401","city":"Dayton","state":"OH","lat":39.7505,"long":-84.2686},{"zip":"45402","city":"Dayton","state":"OH","lat":39.7563,"long":-84.1895},{"zip":"45403","city":"Dayton","state":"OH","lat":39.7617,"long":-84.1498},{"zip":"45404","city":"Dayton","state":"OH","lat":39.7862,"long":-84.1622},{"zip":"45405","city":"Dayton","state":"OH","lat":39.7899,"long":-84.2135},{"zip":"45406","city":"Dayton","state":"OH","lat":39.7821,"long":-84.2373},{"zip":"45409","city":"Dayton","state":"OH","lat":39.7238,"long":-84.1854},{"zip":"45410","city":"Dayton","state":"OH","lat":39.7474,"long":-84.16},{"zip":"45412","city":"Dayton","state":"OH","lat":39.7589,"long":-84.1916},{"zip":"45413","city":"Dayton","state":"OH","lat":39.7505,"long":-84.2686},{"zip":"45414","city":"Dayton","state":"OH","lat":39.8285,"long":-84.2024},{"zip":"45415","city":"Dayton","state":"OH","lat":39.8355,"long":-84.2613},{"zip":"45416","city":"Dayton","state":"OH","lat":39.8011,"long":-84.2578},{"zip":"45417","city":"Dayton","state":"OH","lat":39.7528,"long":-84.247},{"zip":"45419","city":"Dayton","state":"OH","lat":39.7155,"long":-84.1637},{"zip":"45420","city":"Dayton","state":"OH","lat":39.7171,"long":-84.1342},{"zip":"45422","city":"Dayton","state":"OH","lat":39.7581,"long":-84.2001},{"zip":"45423","city":"Dayton","state":"OH","lat":39.7589,"long":-84.1916},{"zip":"45424","city":"Dayton","state":"OH","lat":39.8353,"long":-84.1123},{"zip":"45426","city":"Dayton","state":"OH","lat":39.7982,"long":-84.3211},{"zip":"45428","city":"Dayton","state":"OH","lat":39.7467,"long":-84.2593},{"zip":"45429","city":"Dayton","state":"OH","lat":39.6841,"long":-84.1633},{"zip":"45430","city":"Dayton","state":"OH","lat":39.7092,"long":-84.1048},{"zip":"45432","city":"Dayton","state":"OH","lat":39.739,"long":-84.0856},{"zip":"45434","city":"Dayton","state":"OH","lat":39.7216,"long":-84.029},{"zip":"45435","city":"Dayton","state":"OH","lat":39.7505,"long":-84.2686},{"zip":"45437","city":"Dayton","state":"OH","lat":39.7505,"long":-84.2686},{"zip":"45439","city":"Dayton","state":"OH","lat":39.701,"long":-84.2187},{"zip":"45440","city":"Dayton","state":"OH","lat":39.6749,"long":-84.1136},{"zip":"45441","city":"Dayton","state":"OH","lat":39.7505,"long":-84.2686},{"zip":"45448","city":"Dayton","state":"OH","lat":39.7505,"long":-84.2686},{"zip":"45449","city":"Dayton","state":"OH","lat":39.6651,"long":-84.2401},{"zip":"45458","city":"Dayton","state":"OH","lat":39.6062,"long":-84.1695},{"zip":"45459","city":"Dayton","state":"OH","lat":39.6464,"long":-84.1717},{"zip":"45469","city":"Dayton","state":"OH","lat":39.7405,"long":-84.1789},{"zip":"45470","city":"Dayton","state":"OH","lat":39.7505,"long":-84.2686},{"zip":"45475","city":"Dayton","state":"OH","lat":39.7505,"long":-84.2686},{"zip":"45479","city":"Dayton","state":"OH","lat":39.7344,"long":-84.1944},{"zip":"45481","city":"Dayton","state":"OH","lat":39.7505,"long":-84.2686},{"zip":"45482","city":"Dayton","state":"OH","lat":39.7505,"long":-84.2686},{"zip":"45490","city":"Dayton","state":"OH","lat":39.7505,"long":-84.2686},{"zip":"45727","city":"Dexter City","state":"OH","lat":39.6526,"long":-81.4672},{"zip":"45813","city":"Antwerp","state":"OH","lat":41.1887,"long":-84.7448},{"zip":"45821","city":"Cecil","state":"OH","lat":41.2174,"long":-84.6296},{"zip":"45849","city":"Grover Hill","state":"OH","lat":41.0245,"long":-84.4956},{"zip":"45851","city":"Haviland","state":"OH","lat":41.0329,"long":-84.6139},{"zip":"45855","city":"Latty","state":"OH","lat":41.0879,"long":-84.5841},{"zip":"45861","city":"Melrose","state":"OH","lat":41.0812,"long":-84.4287},{"zip":"45873","city":"Oakwood","state":"OH","lat":41.0908,"long":-84.3969},{"zip":"45879","city":"Paulding","state":"OH","lat":41.141,"long":-84.5722},{"zip":"45880","city":"Payne","state":"OH","lat":41.0807,"long":-84.7341},{"zip":"45613","city":"Beaver","state":"OH","lat":39.0332,"long":-82.8514},{"zip":"45624","city":"Cynthiana","state":"OH","lat":39.1737,"long":-83.3485},{"zip":"45642","city":"Jasper","state":"OH","lat":39.0523,"long":-83.05},{"zip":"45646","city":"Latham","state":"OH","lat":39.0804,"long":-83.3283},{"zip":"45661","city":"Piketon","state":"OH","lat":39.0437,"long":-83.121},{"zip":"45683","city":"Stockdale","state":"OH","lat":38.9555,"long":-82.8584},{"zip":"45687","city":"Wakefield","state":"OH","lat":38.9703,"long":-83.0199},{"zip":"45690","city":"Waverly","state":"OH","lat":39.1264,"long":-83.0049},{"zip":"45070","city":"West Elkton","state":"OH","lat":39.5897,"long":-84.5581},{"zip":"45311","city":"Camden","state":"OH","lat":39.6134,"long":-84.61},{"zip":"45320","city":"Eaton","state":"OH","lat":39.7426,"long":-84.6508},{"zip":"45321","city":"Eldorado","state":"OH","lat":39.8882,"long":-84.6786},{"zip":"45330","city":"Gratis","state":"OH","lat":39.6483,"long":-84.5282},{"zip":"45338","city":"Lewisburg","state":"OH","lat":39.8534,"long":-84.5369},{"zip":"45347","city":"New Paris","state":"OH","lat":39.8617,"long":-84.7793},{"zip":"45378","city":"Verona","state":"OH","lat":39.9029,"long":-84.4887},{"zip":"45381","city":"West Alexandria","state":"OH","lat":39.7259,"long":-84.5352},{"zip":"45382","city":"West Manchester","state":"OH","lat":39.9026,"long":-84.6194},{"zip":"45815","city":"Belmore","state":"OH","lat":41.1539,"long":-83.9413},{"zip":"45827","city":"Cloverdale","state":"OH","lat":41.0379,"long":-84.2938},{"zip":"45830","city":"Columbus Grove","state":"OH","lat":40.9137,"long":-84.0705},{"zip":"45831","city":"Continental","state":"OH","lat":41.1148,"long":-84.2358},{"zip":"45837","city":"Dupont","state":"OH","lat":41.0463,"long":-84.3195},{"zip":"45844","city":"Fort Jennings","state":"OH","lat":40.9484,"long":-84.2374},{"zip":"45848","city":"Glandorf","state":"OH","lat":41.0289,"long":-84.0791},{"zip":"45853","city":"Kalida","state":"OH","lat":40.9828,"long":-84.1994},{"zip":"45856","city":"Leipsic","state":"OH","lat":41.1092,"long":-83.9957},{"zip":"45864","city":"Miller City","state":"OH","lat":41.1038,"long":-84.1315},{"zip":"45875","city":"Ottawa","state":"OH","lat":41.0192,"long":-84.0472},{"zip":"45876","city":"Ottoville","state":"OH","lat":40.9323,"long":-84.3388},{"zip":"45877","city":"Pandora","state":"OH","lat":40.9509,"long":-83.9521},{"zip":"45893","city":"Vaughnsville","state":"OH","lat":40.8821,"long":-84.148},{"zip":"45601","city":"Chillicothe","state":"OH","lat":39.338,"long":-82.9895},{"zip":"45612","city":"Bainbridge","state":"OH","lat":39.2131,"long":-83.2763},{"zip":"45617","city":"Bourneville","state":"OH","lat":39.2804,"long":-83.159},{"zip":"45628","city":"Frankfort","state":"OH","lat":39.391,"long":-83.2034},{"zip":"45633","city":"Hallsville","state":"OH","lat":39.4656,"long":-82.7479},{"zip":"45644","city":"Kingston","state":"OH","lat":39.4414,"long":-82.8488},{"zip":"45647","city":"Londonderry","state":"OH","lat":39.2723,"long":-82.7833},{"zip":"45673","city":"Richmond Dale","state":"OH","lat":39.2039,"long":-82.812},{"zip":"45681","city":"South Salem","state":"OH","lat":39.3021,"long":-83.272},{"zip":"45629","city":"Franklin Furnace","state":"OH","lat":38.6282,"long":-82.8145},{"zip":"45630","city":"Friendship","state":"OH","lat":38.6991,"long":-83.0916},{"zip":"45636","city":"Haverhill","state":"OH","lat":38.5848,"long":-82.8321},{"zip":"45648","city":"Lucasville","state":"OH","lat":38.8938,"long":-82.994},{"zip":"45652","city":"Mc Dermott","state":"OH","lat":38.8362,"long":-83.0689},{"zip":"45653","city":"Minford","state":"OH","lat":38.8751,"long":-82.8555},{"zip":"45657","city":"Otway","state":"OH","lat":38.852,"long":-83.2222},{"zip":"45662","city":"Portsmouth","state":"OH","lat":38.7932,"long":-82.9306},{"zip":"45663","city":"West Portsmouth","state":"OH","lat":38.7495,"long":-83.1335},{"zip":"45671","city":"Rarden","state":"OH","lat":38.9577,"long":-83.2365},{"zip":"45677","city":"Scioto Furnace","state":"OH","lat":38.7941,"long":-82.7555},{"zip":"45682","city":"South Webster","state":"OH","lat":38.82,"long":-82.7202},{"zip":"45684","city":"Stout","state":"OH","lat":38.6546,"long":-83.209},{"zip":"45694","city":"Wheelersburg","state":"OH","lat":38.7418,"long":-82.8204},{"zip":"45699","city":"Lucasville","state":"OH","lat":38.8795,"long":-82.9968},{"zip":"45302","city":"Anna","state":"OH","lat":40.4051,"long":-84.2103},{"zip":"45306","city":"Botkins","state":"OH","lat":40.4659,"long":-84.178},{"zip":"45333","city":"Houston","state":"OH","lat":40.2535,"long":-84.3521},{"zip":"45334","city":"Jackson Center","state":"OH","lat":40.4358,"long":-84.0457},{"zip":"45336","city":"Kettlersville","state":"OH","lat":40.4413,"long":-84.2626},{"zip":"45340","city":"Maplewood","state":"OH","lat":40.3643,"long":-84.0565},{"zip":"45353","city":"Pemberton","state":"OH","lat":40.2952,"long":-84.0323},{"zip":"45360","city":"Port Jefferson","state":"OH","lat":40.3307,"long":-84.0926},{"zip":"45363","city":"Russia","state":"OH","lat":40.2341,"long":-84.4123},{"zip":"45365","city":"Sidney","state":"OH","lat":40.2874,"long":-84.1622},{"zip":"45367","city":"Sidney","state":"OH","lat":40.2842,"long":-84.1555},{"zip":"45845","city":"Fort Loramie","state":"OH","lat":40.3306,"long":-84.3741},{"zip":"45832","city":"Convoy","state":"OH","lat":40.927,"long":-84.7238},{"zip":"45838","city":"Elgin","state":"OH","lat":40.7425,"long":-84.4758},{"zip":"45863","city":"Middle Point","state":"OH","lat":40.8993,"long":-84.4541},{"zip":"45874","city":"Ohio City","state":"OH","lat":40.7854,"long":-84.6731},{"zip":"45886","city":"Scott","state":"OH","lat":40.9892,"long":-84.5845},{"zip":"45891","city":"Van Wert","state":"OH","lat":40.8689,"long":-84.5904},{"zip":"45894","city":"Venedocia","state":"OH","lat":40.7685,"long":-84.462},{"zip":"45898","city":"Willshire","state":"OH","lat":40.7346,"long":-84.7777},{"zip":"45899","city":"Wren","state":"OH","lat":40.8009,"long":-84.7752},{"zip":"45622","city":"Creola","state":"OH","lat":39.3543,"long":-82.503},{"zip":"45634","city":"Hamden","state":"OH","lat":39.1685,"long":-82.51},{"zip":"45651","city":"Mc Arthur","state":"OH","lat":39.28,"long":-82.4753},{"zip":"45654","city":"New Plymouth","state":"OH","lat":39.3884,"long":-82.3892},{"zip":"45672","city":"Ray","state":"OH","lat":39.2077,"long":-82.6908},{"zip":"45695","city":"Wilkesville","state":"OH","lat":39.1416,"long":-82.3682},{"zip":"45698","city":"Zaleski","state":"OH","lat":39.283,"long":-82.3977},{"zip":"45005","city":"Franklin","state":"OH","lat":39.5357,"long":-84.303},{"zip":"45032","city":"Harveysburg","state":"OH","lat":39.5013,"long":-84.0067},{"zip":"45034","city":"Kings Mills","state":"OH","lat":39.358,"long":-84.2473},{"zip":"45036","city":"Lebanon","state":"OH","lat":39.4293,"long":-84.1735},{"zip":"45039","city":"Maineville","state":"OH","lat":39.317,"long":-84.2438},{"zip":"45040","city":"Mason","state":"OH","lat":39.3357,"long":-84.3149},{"zip":"45054","city":"Oregonia","state":"OH","lat":39.4145,"long":-84.0511},{"zip":"45065","city":"South Lebanon","state":"OH","lat":39.3715,"long":-84.2108},{"zip":"45066","city":"Springboro","state":"OH","lat":39.563,"long":-84.2288},{"zip":"45068","city":"Waynesville","state":"OH","lat":39.5285,"long":-84.0815},{"zip":"45152","city":"Morrow","state":"OH","lat":39.3476,"long":-84.1181},{"zip":"45162","city":"Pleasant Plain","state":"OH","lat":39.2884,"long":-84.0967},{"zip":"45712","city":"Barlow","state":"OH","lat":39.3987,"long":-81.6649},{"zip":"45713","city":"Bartlett","state":"OH","lat":39.4195,"long":-81.8157},{"zip":"45714","city":"Belpre","state":"OH","lat":39.2868,"long":-81.5968},{"zip":"45715","city":"Beverly","state":"OH","lat":39.5714,"long":-81.6346},{"zip":"45721","city":"Coal Run","state":"OH","lat":39.4307,"long":-81.4451},{"zip":"45724","city":"Cutler","state":"OH","lat":39.4042,"long":-81.7657},{"zip":"45729","city":"Fleming","state":"OH","lat":39.4136,"long":-81.6078},{"zip":"45742","city":"Little Hocking","state":"OH","lat":39.28,"long":-81.7071},{"zip":"45744","city":"Lowell","state":"OH","lat":39.5385,"long":-81.5197},{"zip":"45745","city":"Lower Salem","state":"OH","lat":39.5611,"long":-81.3968},{"zip":"45746","city":"Macksburg","state":"OH","lat":39.6204,"long":-81.4471},{"zip":"45750","city":"Marietta","state":"OH","lat":39.4281,"long":-81.4644},{"zip":"45767","city":"New Matamoras","state":"OH","lat":39.5288,"long":-81.094},{"zip":"45768","city":"Newport","state":"OH","lat":39.3971,"long":-81.2402},{"zip":"45773","city":"Reno","state":"OH","lat":39.4585,"long":-81.2673},{"zip":"45784","city":"Vincent","state":"OH","lat":39.3374,"long":-81.6743},{"zip":"45786","city":"Waterford","state":"OH","lat":39.5159,"long":-81.6559},{"zip":"45787","city":"Watertown","state":"OH","lat":39.4307,"long":-81.4451},{"zip":"45788","city":"Whipple","state":"OH","lat":39.5136,"long":-81.3668},{"zip":"45789","city":"Wingett Run","state":"OH","lat":39.5428,"long":-81.284},{"zip":"45872","city":"North Baltimore","state":"OH","lat":41.1867,"long":-83.6806}]
