[{"zip":"45003","city":"College Corner","state":"OH","lat":39.5755,"long":-84.805},{"zip":"45004","city":"Collinsville","state":"OH","lat":39.5153,"long":-84.6094},{"zip":"45011","city":"Hamilton","state":"OH","lat":39.4059,"long":-84.5221},{"zip":"45012","city":"Hamilton","state":"OH","lat":39.441,"long":-84.5757},{"zip":"45013","city":"Hamilton","state":"OH","lat":39.4361,"long":-84.6185},{"zip":"45014","city":"Fairfield","state":"OH","lat":39.3266,"long":-84.5479},{"zip":"45015","city":"Hamilton","state":"OH","lat":39.3494,"long":-84.5376},{"zip":"45018","city":"Fairfield","state":"OH","lat":39.441,"long":-84.5757},{"zip":"45042","city":"Middletown","state":"OH","lat":39.5321,"long":-84.3896},{"zip":"45044","city":"Middletown","state":"OH","lat":39.5151,"long":-84.3983},{"zip":"45050","city":"Monroe","state":"OH","lat":39.4413,"long":-84.3652},{"zip":"45053","city":"Okeana","state":"OH","lat":39.3537,"long":-84.7761},{"zip":"45055","city":"Overpeck","state":"OH","lat":39.4518,"long":-84.5152},{"zip":"45056","city":"Oxford","state":"OH","lat":39.507,"long":-84.7452},{"zip":"45061","city":"Ross","state":"OH","lat":39.3124,"long":-84.6483},{"zip":"45062","city":"Seven Mile","state":"OH","lat":39.479,"long":-84.5512},{"zip":"45063","city":"Shandon","state":"OH","lat":39.3258,"long":-84.7121},{"zip":"45064","city":"Somerville","state":"OH","lat":39.5554,"long":-84.6219},{"zip":"45067","city":"Trenton","state":"OH","lat":39.4799,"long":-84.4598},{"zip":"45069","city":"West Chester","state":"OH","lat":39.3402,"long":-84.3998},{"zip":"45071","city":"West Chester","state":"OH","lat":39.3317,"long":-84.4072},{"zip":"45001","city":"Addyston","state":"OH","lat":39.1374,"long":-84.7096},{"zip":"45002","city":"Cleves","state":"OH","lat":39.1937,"long":-84.734},{"zip":"45030","city":"Harrison","state":"OH","lat":39.2592,"long":-84.7837},{"zip":"45033","city":"Hooven","state":"OH","lat":39.1773,"long":-84.7627},{"zip":"45041","city":"Miamitown","state":"OH","lat":39.2159,"long":-84.7041},{"zip":"45051","city":"Mount Saint Joseph","state":"OH","lat":39.0965,"long":-84.6431},{"zip":"45052","city":"North Bend","state":"OH","lat":39.1536,"long":-84.7273},{"zip":"45070","city":"West Elkton","state":"OH","lat":39.5897,"long":-84.5581},{"zip":"45005","city":"Franklin","state":"OH","lat":39.5357,"long":-84.303},{"zip":"45032","city":"Harveysburg","state":"OH","lat":39.5013,"long":-84.0067},{"zip":"45034","city":"Kings Mills","state":"OH","lat":39.358,"long":-84.2473},{"zip":"45036","city":"Lebanon","state":"OH","lat":39.4293,"long":-84.1735},{"zip":"45039","city":"Maineville","state":"OH","lat":39.317,"long":-84.2438},{"zip":"45040","city":"Mason","state":"OH","lat":39.3357,"long":-84.3149},{"zip":"45054","city":"Oregonia","state":"OH","lat":39.4145,"long":-84.0511},{"zip":"45065","city":"South Lebanon","state":"OH","lat":39.3715,"long":-84.2108},{"zip":"45066","city":"Springboro","state":"OH","lat":39.563,"long":-84.2288},{"zip":"45068","city":"Waynesville","state":"OH","lat":39.5285,"long":-84.0815}]
