[{"zip":"45275","city":"Cincinnati","state":"OH","lat":39.162,"long":-84.4569},{"zip":"45245","city":"Cincinnati","state":"OH","lat":39.0688,"long":-84.2802},{"zip":"45201","city":"Cincinnati","state":"OH","lat":39.1668,"long":-84.5382},{"zip":"45202","city":"Cincinnati","state":"OH","lat":39.1072,"long":-84.502},{"zip":"45203","city":"Cincinnati","state":"OH","lat":39.1075,"long":-84.5257},{"zip":"45204","city":"Cincinnati","state":"OH","lat":39.0963,"long":-84.5719},{"zip":"45205","city":"Cincinnati","state":"OH","lat":39.1104,"long":-84.5757},{"zip":"45206","city":"Cincinnati","state":"OH","lat":39.1269,"long":-84.4853},{"zip":"45207","city":"Cincinnati","state":"OH","lat":39.1397,"long":-84.4706},{"zip":"45208","city":"Cincinnati","state":"OH","lat":39.1361,"long":-84.4355},{"zip":"45209","city":"Cincinnati","state":"OH","lat":39.1516,"long":-84.4278},{"zip":"45211","city":"Cincinnati","state":"OH","lat":39.1524,"long":-84.5967},{"zip":"45212","city":"Cincinnati","state":"OH","lat":39.1642,"long":-84.4522},{"zip":"45213","city":"Cincinnati","state":"OH","lat":39.1802,"long":-84.4204},{"zip":"45214","city":"Cincinnati","state":"OH","lat":39.1219,"long":-84.5506},{"zip":"45215","city":"Cincinnati","state":"OH","lat":39.2353,"long":-84.4619},{"zip":"45216","city":"Cincinnati","state":"OH","lat":39.2003,"long":-84.4859},{"zip":"45217","city":"Cincinnati","state":"OH","lat":39.1661,"long":-84.4959},{"zip":"45218","city":"Cincinnati","state":"OH","lat":39.2663,"long":-84.5221},{"zip":"45219","city":"Cincinnati","state":"OH","lat":39.127,"long":-84.5131},{"zip":"45220","city":"Cincinnati","state":"OH","lat":39.1432,"long":-84.5217},{"zip":"45221","city":"Cincinnati","state":"OH","lat":39.1668,"long":-84.5382},{"zip":"45222","city":"Cincinnati","state":"OH","lat":39.1668,"long":-84.5382},{"zip":"45223","city":"Cincinnati","state":"OH","lat":39.1696,"long":-84.5478},{"zip":"45224","city":"Cincinnati","state":"OH","lat":39.1991,"long":-84.5251},{"zip":"45225","city":"Cincinnati","state":"OH","lat":39.1447,"long":-84.5533},{"zip":"45226","city":"Cincinnati","state":"OH","lat":39.1174,"long":-84.4312},{"zip":"45227","city":"Cincinnati","state":"OH","lat":39.1539,"long":-84.3854},{"zip":"45229","city":"Cincinnati","state":"OH","lat":39.149,"long":-84.4892},{"zip":"45230","city":"Cincinnati","state":"OH","lat":39.0713,"long":-84.3758},{"zip":"45231","city":"Cincinnati","state":"OH","lat":39.2418,"long":-84.5437},{"zip":"45232","city":"Cincinnati","state":"OH","lat":39.1859,"long":-84.5141},{"zip":"45233","city":"Cincinnati","state":"OH","lat":39.111,"long":-84.6594},{"zip":"45234","city":"Cincinnati","state":"OH","lat":39.1668,"long":-84.5382},{"zip":"45235","city":"Cincinnati","state":"OH","lat":39.1668,"long":-84.5382},{"zip":"45236","city":"Cincinnati","state":"OH","lat":39.21,"long":-84.395},{"zip":"45237","city":"Cincinnati","state":"OH","lat":39.188,"long":-84.458},{"zip":"45238","city":"Cincinnati","state":"OH","lat":39.1092,"long":-84.6108},{"zip":"45239","city":"Cincinnati","state":"OH","lat":39.2045,"long":-84.5799},{"zip":"45240","city":"Cincinnati","state":"OH","lat":39.2851,"long":-84.5288},{"zip":"45241","city":"Cincinnati","state":"OH","lat":39.2638,"long":-84.4092},{"zip":"45242","city":"Cincinnati","state":"OH","lat":39.2447,"long":-84.3455},{"zip":"45243","city":"Cincinnati","state":"OH","lat":39.1848,"long":-84.3448},{"zip":"45244","city":"Cincinnati","state":"OH","lat":39.1191,"long":-84.351},{"zip":"45246","city":"Cincinnati","state":"OH","lat":39.2839,"long":-84.4744},{"zip":"45247","city":"Cincinnati","state":"OH","lat":39.2208,"long":-84.6418},{"zip":"45248","city":"Cincinnati","state":"OH","lat":39.1652,"long":-84.6625},{"zip":"45249","city":"Cincinnati","state":"OH","lat":39.2692,"long":-84.3307},{"zip":"45250","city":"Cincinnati","state":"OH","lat":39.1668,"long":-84.5382},{"zip":"45251","city":"Cincinnati","state":"OH","lat":39.2672,"long":-84.5993},{"zip":"45252","city":"Cincinnati","state":"OH","lat":39.2668,"long":-84.6283},{"zip":"45253","city":"Cincinnati","state":"OH","lat":39.1668,"long":-84.5382},{"zip":"45254","city":"Cincinnati","state":"OH","lat":39.1668,"long":-84.5382},{"zip":"45255","city":"Cincinnati","state":"OH","lat":39.0584,"long":-84.3396},{"zip":"45258","city":"Cincinnati","state":"OH","lat":39.1668,"long":-84.5382},{"zip":"45262","city":"Cincinnati","state":"OH","lat":39.1668,"long":-84.5382},{"zip":"45263","city":"Cincinnati","state":"OH","lat":39.1668,"long":-84.5382},{"zip":"45264","city":"Cincinnati","state":"OH","lat":39.1668,"long":-84.5382},{"zip":"45267","city":"Cincinnati","state":"OH","lat":39.1668,"long":-84.5382},{"zip":"45268","city":"Cincinnati","state":"OH","lat":39.1668,"long":-84.5382},{"zip":"45269","city":"Cincinnati","state":"OH","lat":39.1668,"long":-84.5382},{"zip":"45270","city":"Cincinnati","state":"OH","lat":39.1668,"long":-84.5382},{"zip":"45271","city":"Cincinnati","state":"OH","lat":39.1668,"long":-84.5382},{"zip":"45273","city":"Cincinnati","state":"OH","lat":39.1668,"long":-84.5382},{"zip":"45274","city":"Cincinnati","state":"OH","lat":39.1668,"long":-84.5382},{"zip":"45277","city":"Cincinnati","state":"OH","lat":39.1668,"long":-84.5382},{"zip":"45280","city":"Cincinnati","state":"OH","lat":39.162,"long":-84.4569},{"zip":"45296","city":"Cincinnati","state":"OH","lat":39.1668,"long":-84.5382},{"zip":"45298","city":"Cincinnati","state":"OH","lat":39.1668,"long":-84.5382},{"zip":"45299","city":"Cincinnati","state":"OH","lat":39.2622,"long":-84.5093}]
