[{"zip":"45389","city":"Christiansburg","state":"OH","lat":40.0564,"long":-84.0254},{"zip":"45319","city":"Donnelsville","state":"OH","lat":39.9189,"long":-83.9449},{"zip":"45323","city":"Enon","state":"OH","lat":39.8663,"long":-83.9385},{"zip":"45341","city":"Medway","state":"OH","lat":39.8789,"long":-84.0218},{"zip":"45344","city":"New Carlisle","state":"OH","lat":39.93,"long":-84.0217},{"zip":"45349","city":"North Hampton","state":"OH","lat":39.9893,"long":-83.9389},{"zip":"45368","city":"South Charleston","state":"OH","lat":39.8543,"long":-83.6653},{"zip":"45369","city":"South Vienna","state":"OH","lat":39.9473,"long":-83.6157},{"zip":"45372","city":"Tremont City","state":"OH","lat":40.0139,"long":-83.8333},{"zip":"45303","city":"Ansonia","state":"OH","lat":40.2151,"long":-84.6406},{"zip":"45304","city":"Arcanum","state":"OH","lat":39.9888,"long":-84.5312},{"zip":"45328","city":"Gettysburg","state":"OH","lat":40.1147,"long":-84.4934},{"zip":"45331","city":"Greenville","state":"OH","lat":40.0987,"long":-84.6342},{"zip":"45332","city":"Hollansburg","state":"OH","lat":39.9899,"long":-84.7901},{"zip":"45346","city":"New Madison","state":"OH","lat":39.9687,"long":-84.7222},{"zip":"45348","city":"New Weston","state":"OH","lat":40.3349,"long":-84.6308},{"zip":"45350","city":"North Star","state":"OH","lat":40.3243,"long":-84.5737},{"zip":"45351","city":"Osgood","state":"OH","lat":40.3406,"long":-84.4963},{"zip":"45352","city":"Palestine","state":"OH","lat":40.0503,"long":-84.7457},{"zip":"45358","city":"Pitsburg","state":"OH","lat":39.987,"long":-84.4866},{"zip":"45362","city":"Rossburg","state":"OH","lat":40.2946,"long":-84.6264},{"zip":"45380","city":"Versailles","state":"OH","lat":40.2273,"long":-84.4957},{"zip":"45388","city":"Yorkshire","state":"OH","lat":40.3283,"long":-84.4836},{"zip":"45390","city":"Union City","state":"OH","lat":40.2018,"long":-84.7832},{"zip":"45301","city":"Alpha","state":"OH","lat":39.7117,"long":-84.0233},{"zip":"45305","city":"Bellbrook","state":"OH","lat":39.6402,"long":-84.0824},{"zip":"45307","city":"Bowersville","state":"OH","lat":39.5806,"long":-83.7249},{"zip":"45314","city":"Cedarville","state":"OH","lat":39.7484,"long":-83.8013},{"zip":"45316","city":"Clifton","state":"OH","lat":39.797,"long":-83.8256},{"zip":"45324","city":"Fairborn","state":"OH","lat":39.8053,"long":-84.0198},{"zip":"45335","city":"Jamestown","state":"OH","lat":39.6428,"long":-83.7504},{"zip":"45370","city":"Spring Valley","state":"OH","lat":39.6083,"long":-84.026},{"zip":"45384","city":"Wilberforce","state":"OH","lat":39.7128,"long":-83.8781},{"zip":"45385","city":"Xenia","state":"OH","lat":39.6842,"long":-83.9369},{"zip":"45387","city":"Yellow Springs","state":"OH","lat":39.7996,"long":-83.8891},{"zip":"45310","city":"Burkettsville","state":"OH","lat":40.3541,"long":-84.6435},{"zip":"45308","city":"Bradford","state":"OH","lat":40.1286,"long":-84.4293},{"zip":"45312","city":"Casstown","state":"OH","lat":40.0716,"long":-84.1088},{"zip":"45317","city":"Conover","state":"OH","lat":40.1457,"long":-84.0283},{"zip":"45318","city":"Covington","state":"OH","lat":40.1176,"long":-84.3496},{"zip":"45326","city":"Fletcher","state":"OH","lat":40.1445,"long":-84.101},{"zip":"45337","city":"Laura","state":"OH","lat":39.9785,"long":-84.3994},{"zip":"45339","city":"Ludlow Falls","state":"OH","lat":39.9871,"long":-84.3334},{"zip":"45356","city":"Piqua","state":"OH","lat":40.1486,"long":-84.2531},{"zip":"45359","city":"Pleasant Hill","state":"OH","lat":40.0531,"long":-84.3436},{"zip":"45361","city":"Potsdam","state":"OH","lat":39.9635,"long":-84.4145},{"zip":"45371","city":"Tipp City","state":"OH","lat":39.942,"long":-84.1663},{"zip":"45373","city":"Troy","state":"OH","lat":40.0374,"long":-84.2032},{"zip":"45374","city":"Troy","state":"OH","lat":40.04,"long":-84.2298},{"zip":"45383","city":"West Milton","state":"OH","lat":39.9531,"long":-84.3242},{"zip":"45309","city":"Brookville","state":"OH","lat":39.8414,"long":-84.4165},{"zip":"45315","city":"Clayton","state":"OH","lat":39.8551,"long":-84.3399},{"zip":"45322","city":"Englewood","state":"OH","lat":39.877,"long":-84.3319},{"zip":"45325","city":"Farmersville","state":"OH","lat":39.6867,"long":-84.4205},{"zip":"45327","city":"Germantown","state":"OH","lat":39.6244,"long":-84.3764},{"zip":"45342","city":"Miamisburg","state":"OH","lat":39.6321,"long":-84.2675},{"zip":"45343","city":"Miamisburg","state":"OH","lat":39.7505,"long":-84.2686},{"zip":"45345","city":"New Lebanon","state":"OH","lat":39.7398,"long":-84.3956},{"zip":"45354","city":"Phillipsburg","state":"OH","lat":39.9054,"long":-84.4028},{"zip":"45377","city":"Vandalia","state":"OH","lat":39.8883,"long":-84.2023},{"zip":"45311","city":"Camden","state":"OH","lat":39.6134,"long":-84.61},{"zip":"45320","city":"Eaton","state":"OH","lat":39.7426,"long":-84.6508},{"zip":"45321","city":"Eldorado","state":"OH","lat":39.8882,"long":-84.6786},{"zip":"45330","city":"Gratis","state":"OH","lat":39.6483,"long":-84.5282},{"zip":"45338","city":"Lewisburg","state":"OH","lat":39.8534,"long":-84.5369},{"zip":"45347","city":"New Paris","state":"OH","lat":39.8617,"long":-84.7793},{"zip":"45378","city":"Verona","state":"OH","lat":39.9029,"long":-84.4887},{"zip":"45381","city":"West Alexandria","state":"OH","lat":39.7259,"long":-84.5352},{"zip":"45382","city":"West Manchester","state":"OH","lat":39.9026,"long":-84.6194},{"zip":"45302","city":"Anna","state":"OH","lat":40.4051,"long":-84.2103},{"zip":"45306","city":"Botkins","state":"OH","lat":40.4659,"long":-84.178},{"zip":"45333","city":"Houston","state":"OH","lat":40.2535,"long":-84.3521},{"zip":"45334","city":"Jackson Center","state":"OH","lat":40.4358,"long":-84.0457},{"zip":"45336","city":"Kettlersville","state":"OH","lat":40.4413,"long":-84.2626},{"zip":"45340","city":"Maplewood","state":"OH","lat":40.3643,"long":-84.0565},{"zip":"45353","city":"Pemberton","state":"OH","lat":40.2952,"long":-84.0323},{"zip":"45360","city":"Port Jefferson","state":"OH","lat":40.3307,"long":-84.0926},{"zip":"45363","city":"Russia","state":"OH","lat":40.2341,"long":-84.4123},{"zip":"45365","city":"Sidney","state":"OH","lat":40.2874,"long":-84.1622},{"zip":"45367","city":"Sidney","state":"OH","lat":40.2842,"long":-84.1555}]
