[{"zip":"45701","city":"Athens","state":"OH","lat":39.3178,"long":-82.102},{"zip":"45710","city":"Albany","state":"OH","lat":39.2097,"long":-82.2177},{"zip":"45711","city":"Amesville","state":"OH","lat":39.4086,"long":-81.965},{"zip":"45716","city":"Buchtel","state":"OH","lat":39.462,"long":-82.1818},{"zip":"45717","city":"Carbondale","state":"OH","lat":39.3778,"long":-82.271},{"zip":"45719","city":"Chauncey","state":"OH","lat":39.4002,"long":-82.1302},{"zip":"45723","city":"Coolville","state":"OH","lat":39.2141,"long":-81.8329},{"zip":"45732","city":"Glouster","state":"OH","lat":39.4978,"long":-82.0871},{"zip":"45735","city":"Guysville","state":"OH","lat":39.2493,"long":-81.922},{"zip":"45739","city":"Hockingport","state":"OH","lat":39.1979,"long":-81.7446},{"zip":"45740","city":"Jacksonville","state":"OH","lat":39.477,"long":-82.0794},{"zip":"45761","city":"Millfield","state":"OH","lat":39.4077,"long":-82.1113},{"zip":"45764","city":"Nelsonville","state":"OH","lat":39.4556,"long":-82.2309},{"zip":"45766","city":"New Marshfield","state":"OH","lat":39.3228,"long":-82.2594},{"zip":"45776","city":"Shade","state":"OH","lat":39.2129,"long":-82.0218},{"zip":"45777","city":"Sharpsburg","state":"OH","lat":39.4359,"long":-81.9115},{"zip":"45778","city":"Stewart","state":"OH","lat":39.3213,"long":-81.8929},{"zip":"45780","city":"The Plains","state":"OH","lat":39.3662,"long":-82.1341},{"zip":"45782","city":"Trimble","state":"OH","lat":39.4845,"long":-82.0805},{"zip":"45720","city":"Chester","state":"OH","lat":39.0856,"long":-81.9214},{"zip":"45741","city":"Langsville","state":"OH","lat":39.0697,"long":-82.2499},{"zip":"45743","city":"Long Bottom","state":"OH","lat":39.0802,"long":-81.8887},{"zip":"45760","city":"Middleport","state":"OH","lat":38.9993,"long":-82.06},{"zip":"45769","city":"Pomeroy","state":"OH","lat":39.0607,"long":-82.0331},{"zip":"45770","city":"Portland","state":"OH","lat":38.9999,"long":-81.8135},{"zip":"45771","city":"Racine","state":"OH","lat":38.9786,"long":-81.9258},{"zip":"45772","city":"Reedsville","state":"OH","lat":39.149,"long":-81.7924},{"zip":"45775","city":"Rutland","state":"OH","lat":39.0909,"long":-82.1486},{"zip":"45779","city":"Syracuse","state":"OH","lat":38.9976,"long":-81.974},{"zip":"45783","city":"Tuppers Plains","state":"OH","lat":39.1683,"long":-81.8423},{"zip":"45734","city":"Graysville","state":"OH","lat":39.663,"long":-81.1822},{"zip":"45727","city":"Dexter City","state":"OH","lat":39.6526,"long":-81.4672},{"zip":"45712","city":"Barlow","state":"OH","lat":39.3987,"long":-81.6649},{"zip":"45713","city":"Bartlett","state":"OH","lat":39.4195,"long":-81.8157},{"zip":"45714","city":"Belpre","state":"OH","lat":39.2868,"long":-81.5968},{"zip":"45715","city":"Beverly","state":"OH","lat":39.5714,"long":-81.6346},{"zip":"45721","city":"Coal Run","state":"OH","lat":39.4307,"long":-81.4451},{"zip":"45724","city":"Cutler","state":"OH","lat":39.4042,"long":-81.7657},{"zip":"45729","city":"Fleming","state":"OH","lat":39.4136,"long":-81.6078},{"zip":"45742","city":"Little Hocking","state":"OH","lat":39.28,"long":-81.7071},{"zip":"45744","city":"Lowell","state":"OH","lat":39.5385,"long":-81.5197},{"zip":"45745","city":"Lower Salem","state":"OH","lat":39.5611,"long":-81.3968},{"zip":"45746","city":"Macksburg","state":"OH","lat":39.6204,"long":-81.4471},{"zip":"45750","city":"Marietta","state":"OH","lat":39.4281,"long":-81.4644},{"zip":"45767","city":"New Matamoras","state":"OH","lat":39.5288,"long":-81.094},{"zip":"45768","city":"Newport","state":"OH","lat":39.3971,"long":-81.2402},{"zip":"45773","city":"Reno","state":"OH","lat":39.4585,"long":-81.2673},{"zip":"45784","city":"Vincent","state":"OH","lat":39.3374,"long":-81.6743},{"zip":"45786","city":"Waterford","state":"OH","lat":39.5159,"long":-81.6559},{"zip":"45787","city":"Watertown","state":"OH","lat":39.4307,"long":-81.4451},{"zip":"45788","city":"Whipple","state":"OH","lat":39.5136,"long":-81.3668},{"zip":"45789","city":"Wingett Run","state":"OH","lat":39.5428,"long":-81.284}]
