[{"zip":"45801","city":"Lima","state":"OH","lat":40.7641,"long":-84.0973},{"zip":"45802","city":"Lima","state":"OH","lat":40.7818,"long":-84.1386},{"zip":"45804","city":"Lima","state":"OH","lat":40.7275,"long":-84.089},{"zip":"45805","city":"Lima","state":"OH","lat":40.7399,"long":-84.1459},{"zip":"45807","city":"Lima","state":"OH","lat":40.7955,"long":-84.1383},{"zip":"45808","city":"Beaverdam","state":"OH","lat":40.8314,"long":-83.9758},{"zip":"45809","city":"Gomer","state":"OH","lat":40.8451,"long":-84.1872},{"zip":"45817","city":"Bluffton","state":"OH","lat":40.879,"long":-83.8914},{"zip":"45820","city":"Cairo","state":"OH","lat":40.8304,"long":-84.0852},{"zip":"45833","city":"Delphos","state":"OH","lat":40.8336,"long":-84.3247},{"zip":"45850","city":"Harrod","state":"OH","lat":40.7177,"long":-83.9436},{"zip":"45854","city":"Lafayette","state":"OH","lat":40.7582,"long":-83.9499},{"zip":"45887","city":"Spencerville","state":"OH","lat":40.7038,"long":-84.3413},{"zip":"45806","city":"Lima","state":"OH","lat":40.6752,"long":-84.1244},{"zip":"45819","city":"Buckland","state":"OH","lat":40.6241,"long":-84.2603},{"zip":"45865","city":"Minster","state":"OH","lat":40.391,"long":-84.3729},{"zip":"45869","city":"New Bremen","state":"OH","lat":40.4389,"long":-84.3821},{"zip":"45870","city":"New Hampshire","state":"OH","lat":40.5563,"long":-83.9514},{"zip":"45871","city":"New Knoxville","state":"OH","lat":40.5039,"long":-84.3118},{"zip":"45884","city":"Saint Johns","state":"OH","lat":40.5559,"long":-84.0836},{"zip":"45885","city":"Saint Marys","state":"OH","lat":40.544,"long":-84.3944},{"zip":"45888","city":"Uniopolis","state":"OH","lat":40.6023,"long":-84.086},{"zip":"45895","city":"Wapakoneta","state":"OH","lat":40.569,"long":-84.1774},{"zip":"45896","city":"Waynesfield","state":"OH","lat":40.6072,"long":-83.9585},{"zip":"45814","city":"Arlington","state":"OH","lat":40.8761,"long":-83.6685},{"zip":"45816","city":"Benton Ridge","state":"OH","lat":41.0031,"long":-83.7931},{"zip":"45839","city":"Findlay","state":"OH","lat":41.0442,"long":-83.6499},{"zip":"45840","city":"Findlay","state":"OH","lat":41.0449,"long":-83.6457},{"zip":"45841","city":"Jenera","state":"OH","lat":40.9004,"long":-83.7256},{"zip":"45858","city":"Mc Comb","state":"OH","lat":41.1125,"long":-83.8014},{"zip":"45867","city":"Mount Blanchard","state":"OH","lat":40.8929,"long":-83.5553},{"zip":"45868","city":"Mount Cory","state":"OH","lat":40.9437,"long":-83.8093},{"zip":"45881","city":"Rawson","state":"OH","lat":40.9589,"long":-83.7841},{"zip":"45889","city":"Van Buren","state":"OH","lat":41.1327,"long":-83.6473},{"zip":"45890","city":"Vanlue","state":"OH","lat":40.9583,"long":-83.4971},{"zip":"45897","city":"Williamstown","state":"OH","lat":40.834,"long":-83.6518},{"zip":"45810","city":"Ada","state":"OH","lat":40.7709,"long":-83.8154},{"zip":"45812","city":"Alger","state":"OH","lat":40.706,"long":-83.825},{"zip":"45835","city":"Dola","state":"OH","lat":40.7598,"long":-83.7001},{"zip":"45836","city":"Dunkirk","state":"OH","lat":40.7824,"long":-83.6339},{"zip":"45843","city":"Forest","state":"OH","lat":40.7816,"long":-83.5351},{"zip":"45859","city":"Mc Guffey","state":"OH","lat":40.6899,"long":-83.8111},{"zip":"45822","city":"Celina","state":"OH","lat":40.5566,"long":-84.6287},{"zip":"45826","city":"Chickasaw","state":"OH","lat":40.437,"long":-84.4933},{"zip":"45828","city":"Coldwater","state":"OH","lat":40.4846,"long":-84.6517},{"zip":"45846","city":"Fort Recovery","state":"OH","lat":40.4018,"long":-84.7613},{"zip":"45860","city":"Maria Stein","state":"OH","lat":40.4062,"long":-84.5076},{"zip":"45862","city":"Mendon","state":"OH","lat":40.6777,"long":-84.5152},{"zip":"45866","city":"Montezuma","state":"OH","lat":40.489,"long":-84.5494},{"zip":"45882","city":"Rockford","state":"OH","lat":40.6771,"long":-84.6642},{"zip":"45883","city":"Saint Henry","state":"OH","lat":40.4091,"long":-84.6333},{"zip":"45813","city":"Antwerp","state":"OH","lat":41.1887,"long":-84.7448},{"zip":"45821","city":"Cecil","state":"OH","lat":41.2174,"long":-84.6296},{"zip":"45849","city":"Grover Hill","state":"OH","lat":41.0245,"long":-84.4956},{"zip":"45851","city":"Haviland","state":"OH","lat":41.0329,"long":-84.6139},{"zip":"45855","city":"Latty","state":"OH","lat":41.0879,"long":-84.5841},{"zip":"45861","city":"Melrose","state":"OH","lat":41.0812,"long":-84.4287},{"zip":"45873","city":"Oakwood","state":"OH","lat":41.0908,"long":-84.3969},{"zip":"45879","city":"Paulding","state":"OH","lat":41.141,"long":-84.5722},{"zip":"45880","city":"Payne","state":"OH","lat":41.0807,"long":-84.7341},{"zip":"45815","city":"Belmore","state":"OH","lat":41.1539,"long":-83.9413},{"zip":"45827","city":"Cloverdale","state":"OH","lat":41.0379,"long":-84.2938},{"zip":"45830","city":"Columbus Grove","state":"OH","lat":40.9137,"long":-84.0705},{"zip":"45831","city":"Continental","state":"OH","lat":41.1148,"long":-84.2358},{"zip":"45837","city":"Dupont","state":"OH","lat":41.0463,"long":-84.3195},{"zip":"45844","city":"Fort Jennings","state":"OH","lat":40.9484,"long":-84.2374},{"zip":"45848","city":"Glandorf","state":"OH","lat":41.0289,"long":-84.0791},{"zip":"45853","city":"Kalida","state":"OH","lat":40.9828,"long":-84.1994},{"zip":"45856","city":"Leipsic","state":"OH","lat":41.1092,"long":-83.9957},{"zip":"45864","city":"Miller City","state":"OH","lat":41.1038,"long":-84.1315},{"zip":"45875","city":"Ottawa","state":"OH","lat":41.0192,"long":-84.0472},{"zip":"45876","city":"Ottoville","state":"OH","lat":40.9323,"long":-84.3388},{"zip":"45877","city":"Pandora","state":"OH","lat":40.9509,"long":-83.9521},{"zip":"45893","city":"Vaughnsville","state":"OH","lat":40.8821,"long":-84.148},{"zip":"45845","city":"Fort Loramie","state":"OH","lat":40.3306,"long":-84.3741},{"zip":"45832","city":"Convoy","state":"OH","lat":40.927,"long":-84.7238},{"zip":"45838","city":"Elgin","state":"OH","lat":40.7425,"long":-84.4758},{"zip":"45863","city":"Middle Point","state":"OH","lat":40.8993,"long":-84.4541},{"zip":"45874","city":"Ohio City","state":"OH","lat":40.7854,"long":-84.6731},{"zip":"45886","city":"Scott","state":"OH","lat":40.9892,"long":-84.5845},{"zip":"45891","city":"Van Wert","state":"OH","lat":40.8689,"long":-84.5904},{"zip":"45894","city":"Venedocia","state":"OH","lat":40.7685,"long":-84.462},{"zip":"45898","city":"Willshire","state":"OH","lat":40.7346,"long":-84.7777},{"zip":"45899","city":"Wren","state":"OH","lat":40.8009,"long":-84.7752},{"zip":"45872","city":"North Baltimore","state":"OH","lat":41.1867,"long":-83.6806}]
