[{"zip":"46711","city":"Berne","state":"IN","lat":40.6716,"long":-84.9343},{"zip":"46733","city":"Decatur","state":"IN","lat":40.8273,"long":-84.9314},{"zip":"46740","city":"Geneva","state":"IN","lat":40.6071,"long":-84.9621},{"zip":"46769","city":"Linn Grove","state":"IN","lat":40.645,"long":-85.033},{"zip":"46772","city":"Monroe","state":"IN","lat":40.7005,"long":-84.8441},{"zip":"46780","city":"Pleasant Mills","state":"IN","lat":40.7778,"long":-84.8422},{"zip":"46782","city":"Preble","state":"IN","lat":40.832,"long":-85.0054},{"zip":"46704","city":"Arcola","state":"IN","lat":41.1038,"long":-85.2925},{"zip":"46741","city":"Grabill","state":"IN","lat":41.2108,"long":-84.9406},{"zip":"46743","city":"Harlan","state":"IN","lat":41.2285,"long":-84.8386},{"zip":"46745","city":"Hoagland","state":"IN","lat":40.9524,"long":-85.0075},{"zip":"46748","city":"Huntertown","state":"IN","lat":41.2391,"long":-85.1677},{"zip":"46765","city":"Leo","state":"IN","lat":41.2249,"long":-85.0301},{"zip":"46773","city":"Monroeville","state":"IN","lat":40.987,"long":-84.8937},{"zip":"46774","city":"New Haven","state":"IN","lat":41.0699,"long":-85.0117},{"zip":"46797","city":"Woodburn","state":"IN","lat":41.1253,"long":-84.8533},{"zip":"46798","city":"Yoder","state":"IN","lat":40.9371,"long":-85.1958},{"zip":"46799","city":"Zanesville","state":"IN","lat":40.9188,"long":-85.2824},{"zip":"46801","city":"Fort Wayne","state":"IN","lat":41.0938,"long":-85.0707},{"zip":"46802","city":"Fort Wayne","state":"IN","lat":41.0707,"long":-85.1543},{"zip":"46803","city":"Fort Wayne","state":"IN","lat":41.0695,"long":-85.1074},{"zip":"46804","city":"Fort Wayne","state":"IN","lat":41.0508,"long":-85.256},{"zip":"46805","city":"Fort Wayne","state":"IN","lat":41.0977,"long":-85.1189},{"zip":"46806","city":"Fort Wayne","state":"IN","lat":41.048,"long":-85.1135},{"zip":"46807","city":"Fort Wayne","state":"IN","lat":41.0491,"long":-85.1462},{"zip":"46808","city":"Fort Wayne","state":"IN","lat":41.0939,"long":-85.1621},{"zip":"46809","city":"Fort Wayne","state":"IN","lat":41.0254,"long":-85.1834},{"zip":"46814","city":"Fort Wayne","state":"IN","lat":41.0456,"long":-85.3058},{"zip":"46815","city":"Fort Wayne","state":"IN","lat":41.1053,"long":-85.0624},{"zip":"46816","city":"Fort Wayne","state":"IN","lat":41.0165,"long":-85.0976},{"zip":"46818","city":"Fort Wayne","state":"IN","lat":41.1468,"long":-85.2067},{"zip":"46819","city":"Fort Wayne","state":"IN","lat":41.0052,"long":-85.1527},{"zip":"46825","city":"Fort Wayne","state":"IN","lat":41.1465,"long":-85.1232},{"zip":"46835","city":"Fort Wayne","state":"IN","lat":41.1371,"long":-85.0685},{"zip":"46845","city":"Fort Wayne","state":"IN","lat":41.1958,"long":-85.1191},{"zip":"46850","city":"Fort Wayne","state":"IN","lat":41.0938,"long":-85.0707},{"zip":"46851","city":"Fort Wayne","state":"IN","lat":41.0938,"long":-85.0707},{"zip":"46852","city":"Fort Wayne","state":"IN","lat":41.0938,"long":-85.0707},{"zip":"46853","city":"Fort Wayne","state":"IN","lat":41.0938,"long":-85.0707},{"zip":"46854","city":"Fort Wayne","state":"IN","lat":41.0938,"long":-85.0707},{"zip":"46855","city":"Fort Wayne","state":"IN","lat":41.0938,"long":-85.0707},{"zip":"46856","city":"Fort Wayne","state":"IN","lat":41.0938,"long":-85.0707},{"zip":"46857","city":"Fort Wayne","state":"IN","lat":41.0938,"long":-85.0707},{"zip":"46858","city":"Fort Wayne","state":"IN","lat":41.0938,"long":-85.0707},{"zip":"46859","city":"Fort Wayne","state":"IN","lat":41.0938,"long":-85.0707},{"zip":"46860","city":"Fort Wayne","state":"IN","lat":41.0938,"long":-85.0707},{"zip":"46861","city":"Fort Wayne","state":"IN","lat":41.0938,"long":-85.0707},{"zip":"46862","city":"Fort Wayne","state":"IN","lat":41.0938,"long":-85.0707},{"zip":"46863","city":"Fort Wayne","state":"IN","lat":41.0938,"long":-85.0707},{"zip":"46864","city":"Fort Wayne","state":"IN","lat":41.0938,"long":-85.0707},{"zip":"46865","city":"Fort Wayne","state":"IN","lat":41.1263,"long":-85.0907},{"zip":"46866","city":"Fort Wayne","state":"IN","lat":41.0938,"long":-85.0707},{"zip":"46867","city":"Fort Wayne","state":"IN","lat":41.0938,"long":-85.0707},{"zip":"46868","city":"Fort Wayne","state":"IN","lat":41.0938,"long":-85.0707},{"zip":"46869","city":"Fort Wayne","state":"IN","lat":41.0938,"long":-85.0707},{"zip":"46885","city":"Fort Wayne","state":"IN","lat":41.0938,"long":-85.0707},{"zip":"46895","city":"Fort Wayne","state":"IN","lat":41.0938,"long":-85.0707},{"zip":"46896","city":"Fort Wayne","state":"IN","lat":41.0938,"long":-85.0707},{"zip":"46897","city":"Fort Wayne","state":"IN","lat":41.0938,"long":-85.0707},{"zip":"46898","city":"Fort Wayne","state":"IN","lat":41.0938,"long":-85.0707},{"zip":"46899","city":"Fort Wayne","state":"IN","lat":41.0938,"long":-85.0707},{"zip":"46052","city":"Lebanon","state":"IN","lat":40.0449,"long":-86.4641},{"zip":"46071","city":"Thorntown","state":"IN","lat":40.1133,"long":-86.5898},{"zip":"46075","city":"Whitestown","state":"IN","lat":40,"long":-86.3507},{"zip":"46077","city":"Zionsville","state":"IN","lat":39.9561,"long":-86.2767},{"zip":"46102","city":"Advance","state":"IN","lat":39.9956,"long":-86.6198},{"zip":"46147","city":"Jamestown","state":"IN","lat":39.9579,"long":-86.6236},{"zip":"46160","city":"Morgantown","state":"IN","lat":39.3628,"long":-86.2803},{"zip":"46913","city":"Bringhurst","state":"IN","lat":40.5163,"long":-86.5204},{"zip":"46915","city":"Burlington","state":"IN","lat":40.4777,"long":-86.3866},{"zip":"46916","city":"Burrows","state":"IN","lat":40.6767,"long":-86.5075},{"zip":"46917","city":"Camden","state":"IN","lat":40.5996,"long":-86.5152},{"zip":"46920","city":"Cutler","state":"IN","lat":40.4785,"long":-86.4462},{"zip":"46923","city":"Delphi","state":"IN","lat":40.5734,"long":-86.6788},{"zip":"46929","city":"Flora","state":"IN","lat":40.5445,"long":-86.5016},{"zip":"46977","city":"Rockfield","state":"IN","lat":40.6411,"long":-86.5739},{"zip":"46932","city":"Galveston","state":"IN","lat":40.5862,"long":-86.1972},{"zip":"46942","city":"Lake Cicott","state":"IN","lat":40.7361,"long":-86.3734},{"zip":"46947","city":"Logansport","state":"IN","lat":40.7604,"long":-86.3599},{"zip":"46950","city":"Lucerne","state":"IN","lat":40.8614,"long":-86.4077},{"zip":"46961","city":"New Waverly","state":"IN","lat":40.7621,"long":-86.1936},{"zip":"46967","city":"Onward","state":"IN","lat":40.6947,"long":-86.1951},{"zip":"46978","city":"Royal Center","state":"IN","lat":40.8645,"long":-86.5078},{"zip":"46988","city":"Twelve Mile","state":"IN","lat":40.8547,"long":-86.2126},{"zip":"46994","city":"Walton","state":"IN","lat":40.6772,"long":-86.2805},{"zip":"46998","city":"Young America","state":"IN","lat":40.5686,"long":-86.3467},{"zip":"46035","city":"Colfax","state":"IN","lat":40.1956,"long":-86.6593},{"zip":"46039","city":"Forest","state":"IN","lat":40.3757,"long":-86.3201},{"zip":"46041","city":"Frankfort","state":"IN","lat":40.3044,"long":-86.4689},{"zip":"46050","city":"Kirklin","state":"IN","lat":40.2031,"long":-86.3324},{"zip":"46057","city":"Michigantown","state":"IN","lat":40.3108,"long":-86.3753},{"zip":"46058","city":"Mulberry","state":"IN","lat":40.3433,"long":-86.6613},{"zip":"46065","city":"Rossville","state":"IN","lat":40.4109,"long":-86.608},{"zip":"46067","city":"Sedalia","state":"IN","lat":40.4156,"long":-86.5147},{"zip":"46705","city":"Ashley","state":"IN","lat":41.5347,"long":-85.0504},{"zip":"46706","city":"Auburn","state":"IN","lat":41.359,"long":-85.0468},{"zip":"46721","city":"Butler","state":"IN","lat":41.4287,"long":-84.8787},{"zip":"46730","city":"Corunna","state":"IN","lat":41.4504,"long":-85.137},{"zip":"46738","city":"Garrett","state":"IN","lat":41.3482,"long":-85.1347},{"zip":"46785","city":"Saint Joe","state":"IN","lat":41.324,"long":-84.9043},{"zip":"46788","city":"Spencerville","state":"IN","lat":41.2696,"long":-84.9398},{"zip":"46793","city":"Waterloo","state":"IN","lat":41.4402,"long":-85.0221},{"zip":"46507","city":"Bristol","state":"IN","lat":41.7169,"long":-85.8262},{"zip":"46514","city":"Elkhart","state":"IN","lat":41.7101,"long":-85.9729},{"zip":"46515","city":"Elkhart","state":"IN","lat":41.682,"long":-85.9767},{"zip":"46516","city":"Elkhart","state":"IN","lat":41.6763,"long":-85.9621},{"zip":"46517","city":"Elkhart","state":"IN","lat":41.6469,"long":-85.9728},{"zip":"46526","city":"Goshen","state":"IN","lat":41.5848,"long":-85.8581},{"zip":"46527","city":"Goshen","state":"IN","lat":41.5977,"long":-85.8581},{"zip":"46528","city":"Goshen","state":"IN","lat":41.6248,"long":-85.8391},{"zip":"46540","city":"Middlebury","state":"IN","lat":41.6754,"long":-85.7114},{"zip":"46543","city":"Millersburg","state":"IN","lat":41.5335,"long":-85.7072},{"zip":"46550","city":"Nappanee","state":"IN","lat":41.4493,"long":-85.9945},{"zip":"46553","city":"New Paris","state":"IN","lat":41.4917,"long":-85.8338},{"zip":"46573","city":"Wakarusa","state":"IN","lat":41.5401,"long":-86.0205},{"zip":"46133","city":"Glenwood","state":"IN","lat":39.6124,"long":-85.2735},{"zip":"46910","city":"Akron","state":"IN","lat":41.0389,"long":-86.0395},{"zip":"46912","city":"Athens","state":"IN","lat":41.0537,"long":-86.1253},{"zip":"46922","city":"Delong","state":"IN","lat":41.1384,"long":-86.4164},{"zip":"46931","city":"Fulton","state":"IN","lat":40.9473,"long":-86.2628},{"zip":"46935","city":"Grass Creek","state":"IN","lat":40.9475,"long":-86.4044},{"zip":"46939","city":"Kewanna","state":"IN","lat":41.0087,"long":-86.4061},{"zip":"46945","city":"Leiters Ford","state":"IN","lat":41.1217,"long":-86.3858},{"zip":"46975","city":"Rochester","state":"IN","lat":41.0655,"long":-86.231},{"zip":"46928","city":"Fairmount","state":"IN","lat":40.4188,"long":-85.6713},{"zip":"46930","city":"Fowlerton","state":"IN","lat":40.4099,"long":-85.571},{"zip":"46933","city":"Gas City","state":"IN","lat":40.4879,"long":-85.6055},{"zip":"46938","city":"Jonesboro","state":"IN","lat":40.4815,"long":-85.6365},{"zip":"46952","city":"Marion","state":"IN","lat":40.5743,"long":-85.6741},{"zip":"46953","city":"Marion","state":"IN","lat":40.5359,"long":-85.6616},{"zip":"46957","city":"Matthews","state":"IN","lat":40.3887,"long":-85.4994},{"zip":"46986","city":"Swayzee","state":"IN","lat":40.5112,"long":-85.8265},{"zip":"46987","city":"Sweetser","state":"IN","lat":40.5647,"long":-85.7656},{"zip":"46989","city":"Upland","state":"IN","lat":40.4548,"long":-85.499},{"zip":"46991","city":"Van Buren","state":"IN","lat":40.6174,"long":-85.5148},{"zip":"46030","city":"Arcadia","state":"IN","lat":40.1776,"long":-86.0409},{"zip":"46031","city":"Atlanta","state":"IN","lat":40.2103,"long":-86.019},{"zip":"46032","city":"Carmel","state":"IN","lat":39.9712,"long":-86.1245},{"zip":"46033","city":"Carmel","state":"IN","lat":39.9744,"long":-86.0829},{"zip":"46034","city":"Cicero","state":"IN","lat":40.1298,"long":-86.0381},{"zip":"46037","city":"Fishers","state":"IN","lat":39.9559,"long":-85.9601},{"zip":"46038","city":"Fishers","state":"IN","lat":39.9575,"long":-86.023},{"zip":"46060","city":"Noblesville","state":"IN","lat":40.0563,"long":-86.0163},{"zip":"46061","city":"Noblesville","state":"IN","lat":40.0725,"long":-86.0523},{"zip":"46062","city":"Noblesville","state":"IN","lat":40.0617,"long":-86.0555},{"zip":"46069","city":"Sheridan","state":"IN","lat":40.135,"long":-86.2205},{"zip":"46074","city":"Westfield","state":"IN","lat":40.0489,"long":-86.1499},{"zip":"46082","city":"Carmel","state":"IN","lat":40.0725,"long":-86.0523},{"zip":"46085","city":"Fishers","state":"IN","lat":39.9556,"long":-86.0139},{"zip":"46262","city":"Indianapolis","state":"IN","lat":39.7684,"long":-86.158},{"zip":"46280","city":"Indianapolis","state":"IN","lat":39.9416,"long":-86.1157},{"zip":"46290","city":"Indianapolis","state":"IN","lat":39.9347,"long":-86.1633},{"zip":"46040","city":"Fortville","state":"IN","lat":39.9323,"long":-85.848},{"zip":"46055","city":"Mccordsville","state":"IN","lat":39.9081,"long":-85.9228},{"zip":"46117","city":"Charlottesville","state":"IN","lat":39.8388,"long":-85.6258},{"zip":"46129","city":"Finly","state":"IN","lat":39.8215,"long":-85.7652},{"zip":"46140","city":"Greenfield","state":"IN","lat":39.7902,"long":-85.8141},{"zip":"46154","city":"Maxwell","state":"IN","lat":39.8568,"long":-85.7684},{"zip":"46163","city":"New Palestine","state":"IN","lat":39.7233,"long":-85.9052},{"zip":"46186","city":"Wilkinson","state":"IN","lat":39.8957,"long":-85.6144},{"zip":"46103","city":"Amo","state":"IN","lat":39.6886,"long":-86.6136},{"zip":"46112","city":"Brownsburg","state":"IN","lat":39.8466,"long":-86.3869},{"zip":"46118","city":"Clayton","state":"IN","lat":39.6682,"long":-86.4959},{"zip":"46121","city":"Coatesville","state":"IN","lat":39.6878,"long":-86.6703},{"zip":"46122","city":"Danville","state":"IN","lat":39.7628,"long":-86.5343},{"zip":"46123","city":"Avon","state":"IN","lat":39.7629,"long":-86.3996},{"zip":"46149","city":"Lizton","state":"IN","lat":39.8843,"long":-86.5429},{"zip":"46165","city":"North Salem","state":"IN","lat":39.8671,"long":-86.6388},{"zip":"46167","city":"Pittsboro","state":"IN","lat":39.8615,"long":-86.4645},{"zip":"46168","city":"Plainfield","state":"IN","lat":39.6893,"long":-86.3919},{"zip":"46180","city":"Stilesville","state":"IN","lat":39.6391,"long":-86.6182},{"zip":"46148","city":"Knightstown","state":"IN","lat":39.806,"long":-85.5261},{"zip":"46901","city":"Kokomo","state":"IN","lat":40.4988,"long":-86.1453},{"zip":"46902","city":"Kokomo","state":"IN","lat":40.4509,"long":-86.1352},{"zip":"46903","city":"Kokomo","state":"IN","lat":40.4696,"long":-86.1189},{"zip":"46904","city":"Kokomo","state":"IN","lat":40.4696,"long":-86.1189},{"zip":"46936","city":"Greentown","state":"IN","lat":40.4791,"long":-85.9582},{"zip":"46937","city":"Hemlock","state":"IN","lat":40.4187,"long":-86.0181},{"zip":"46965","city":"Oakford","state":"IN","lat":40.4127,"long":-86.1015},{"zip":"46979","city":"Russiaville","state":"IN","lat":40.4151,"long":-86.2675},{"zip":"46995","city":"West Middleton","state":"IN","lat":40.4421,"long":-86.2155},{"zip":"46702","city":"Andrews","state":"IN","lat":40.8618,"long":-85.6067},{"zip":"46713","city":"Bippus","state":"IN","lat":40.9442,"long":-85.6239},{"zip":"46750","city":"Huntington","state":"IN","lat":40.8811,"long":-85.5054},{"zip":"46770","city":"Markle","state":"IN","lat":40.8331,"long":-85.319},{"zip":"46783","city":"Roanoke","state":"IN","lat":40.96,"long":-85.3526},{"zip":"46792","city":"Warren","state":"IN","lat":40.6886,"long":-85.4183},{"zip":"46310","city":"Demotte","state":"IN","lat":41.1713,"long":-87.2491},{"zip":"46380","city":"Tefft","state":"IN","lat":41.1948,"long":-86.9686},{"zip":"46392","city":"Wheatfield","state":"IN","lat":41.1779,"long":-87.0699},{"zip":"46106","city":"Bargersville","state":"IN","lat":39.5,"long":-86.1797},{"zip":"46124","city":"Edinburgh","state":"IN","lat":39.3626,"long":-85.9707},{"zip":"46131","city":"Franklin","state":"IN","lat":39.4854,"long":-86.0608},{"zip":"46142","city":"Greenwood","state":"IN","lat":39.6224,"long":-86.149},{"zip":"46143","city":"Greenwood","state":"IN","lat":39.596,"long":-86.1309},{"zip":"46162","city":"Needham","state":"IN","lat":39.5605,"long":-85.9656},{"zip":"46164","city":"Nineveh","state":"IN","lat":39.3656,"long":-86.0976},{"zip":"46181","city":"Trafalgar","state":"IN","lat":39.3696,"long":-86.1838},{"zip":"46184","city":"Whiteland","state":"IN","lat":39.5611,"long":-86.0723},{"zip":"46502","city":"Atwood","state":"IN","lat":41.254,"long":-85.9697},{"zip":"46508","city":"Burket","state":"IN","lat":41.1547,"long":-85.9693},{"zip":"46510","city":"Claypool","state":"IN","lat":41.1165,"long":-85.8686},{"zip":"46524","city":"Etna Green","state":"IN","lat":41.2918,"long":-86.035},{"zip":"46538","city":"Leesburg","state":"IN","lat":41.3266,"long":-85.816},{"zip":"46539","city":"Mentone","state":"IN","lat":41.1615,"long":-86.0299},{"zip":"46542","city":"Milford","state":"IN","lat":41.4011,"long":-85.8554},{"zip":"46555","city":"North Webster","state":"IN","lat":41.3326,"long":-85.7103},{"zip":"46562","city":"Pierceton","state":"IN","lat":41.2124,"long":-85.7061},{"zip":"46567","city":"Syracuse","state":"IN","lat":41.4065,"long":-85.7184},{"zip":"46580","city":"Warsaw","state":"IN","lat":41.2438,"long":-85.8508},{"zip":"46581","city":"Warsaw","state":"IN","lat":41.2394,"long":-85.8643},{"zip":"46582","city":"Warsaw","state":"IN","lat":41.2842,"long":-85.8547},{"zip":"46590","city":"Winona Lake","state":"IN","lat":41.211,"long":-85.8305},{"zip":"46982","city":"Silver Lake","state":"IN","lat":41.0743,"long":-85.8792},{"zip":"46565","city":"Shipshewana","state":"IN","lat":41.6633,"long":-85.5932},{"zip":"46571","city":"Topeka","state":"IN","lat":41.5634,"long":-85.5317},{"zip":"46746","city":"Howe","state":"IN","lat":41.7286,"long":-85.4727},{"zip":"46761","city":"Lagrange","state":"IN","lat":41.652,"long":-85.404},{"zip":"46771","city":"Mongo","state":"IN","lat":41.6848,"long":-85.2797},{"zip":"46786","city":"South Milford","state":"IN","lat":41.5326,"long":-85.2722},{"zip":"46789","city":"Stroh","state":"IN","lat":41.5835,"long":-85.1992},{"zip":"46795","city":"Wolcottville","state":"IN","lat":41.557,"long":-85.315},{"zip":"46303","city":"Cedar Lake","state":"IN","lat":41.3713,"long":-87.4764},{"zip":"46307","city":"Crown Point","state":"IN","lat":41.4236,"long":-87.3556},{"zip":"46308","city":"Crown Point","state":"IN","lat":41.417,"long":-87.3653},{"zip":"46311","city":"Dyer","state":"IN","lat":41.492,"long":-87.5108},{"zip":"46312","city":"East Chicago","state":"IN","lat":41.6349,"long":-87.4627},{"zip":"46319","city":"Griffith","state":"IN","lat":41.5335,"long":-87.4228},{"zip":"46320","city":"Hammond","state":"IN","lat":41.6099,"long":-87.5079},{"zip":"46321","city":"Munster","state":"IN","lat":41.5544,"long":-87.5011},{"zip":"46322","city":"Highland","state":"IN","lat":41.55,"long":-87.4569},{"zip":"46323","city":"Hammond","state":"IN","lat":41.5878,"long":-87.4532},{"zip":"46324","city":"Hammond","state":"IN","lat":41.584,"long":-87.5034},{"zip":"46325","city":"Hammond","state":"IN","lat":41.4615,"long":-87.3728},{"zip":"46327","city":"Hammond","state":"IN","lat":41.6327,"long":-87.5113},{"zip":"46342","city":"Hobart","state":"IN","lat":41.5263,"long":-87.2525},{"zip":"46355","city":"Leroy","state":"IN","lat":41.3594,"long":-87.2708},{"zip":"46356","city":"Lowell","state":"IN","lat":41.2845,"long":-87.4191},{"zip":"46373","city":"Saint John","state":"IN","lat":41.4495,"long":-87.4764},{"zip":"46375","city":"Schererville","state":"IN","lat":41.4922,"long":-87.4605},{"zip":"46376","city":"Schneider","state":"IN","lat":41.19,"long":-87.4779},{"zip":"46377","city":"Shelby","state":"IN","lat":41.1917,"long":-87.3398},{"zip":"46394","city":"Whiting","state":"IN","lat":41.6787,"long":-87.5005},{"zip":"46401","city":"Gary","state":"IN","lat":41.5907,"long":-87.3199},{"zip":"46402","city":"Gary","state":"IN","lat":41.5997,"long":-87.3385},{"zip":"46403","city":"Gary","state":"IN","lat":41.6036,"long":-87.259},{"zip":"46404","city":"Gary","state":"IN","lat":41.5899,"long":-87.3732},{"zip":"46405","city":"Lake Station","state":"IN","lat":41.5686,"long":-87.2622},{"zip":"46406","city":"Gary","state":"IN","lat":41.5878,"long":-87.4062},{"zip":"46407","city":"Gary","state":"IN","lat":41.5804,"long":-87.335},{"zip":"46408","city":"Gary","state":"IN","lat":41.5422,"long":-87.3588},{"zip":"46409","city":"Gary","state":"IN","lat":41.5412,"long":-87.3271},{"zip":"46410","city":"Merrillville","state":"IN","lat":41.4957,"long":-87.3509},{"zip":"46411","city":"Merrillville","state":"IN","lat":41.4615,"long":-87.3728},{"zip":"46340","city":"Hanna","state":"IN","lat":41.4088,"long":-86.7759},{"zip":"46345","city":"Kingsbury","state":"IN","lat":41.526,"long":-86.6997},{"zip":"46346","city":"Kingsford Heights","state":"IN","lat":41.4802,"long":-86.6919},{"zip":"46348","city":"La Crosse","state":"IN","lat":41.3157,"long":-86.8682},{"zip":"46350","city":"La Porte","state":"IN","lat":41.5994,"long":-86.7077},{"zip":"46352","city":"La Porte","state":"IN","lat":41.499,"long":-86.7099},{"zip":"46360","city":"Michigan City","state":"IN","lat":41.698,"long":-86.8699},{"zip":"46361","city":"Michigan City","state":"IN","lat":41.7035,"long":-86.9151},{"zip":"46365","city":"Mill Creek","state":"IN","lat":41.6091,"long":-86.544},{"zip":"46371","city":"Rolling Prairie","state":"IN","lat":41.7229,"long":-86.5841},{"zip":"46382","city":"Union Mills","state":"IN","lat":41.4602,"long":-86.8355},{"zip":"46390","city":"Wanatah","state":"IN","lat":41.3845,"long":-86.8764},{"zip":"46391","city":"Westville","state":"IN","lat":41.5365,"long":-86.9013},{"zip":"46001","city":"Alexandria","state":"IN","lat":40.2561,"long":-85.6681},{"zip":"46011","city":"Anderson","state":"IN","lat":40.1146,"long":-85.7253},{"zip":"46012","city":"Anderson","state":"IN","lat":40.1309,"long":-85.6536},{"zip":"46013","city":"Anderson","state":"IN","lat":40.0619,"long":-85.6801},{"zip":"46014","city":"Anderson","state":"IN","lat":40.1617,"long":-85.7197},{"zip":"46015","city":"Anderson","state":"IN","lat":40.0938,"long":-85.6578},{"zip":"46016","city":"Anderson","state":"IN","lat":40.0988,"long":-85.6846},{"zip":"46017","city":"Anderson","state":"IN","lat":40.0742,"long":-85.6069},{"zip":"46018","city":"Anderson","state":"IN","lat":40.1617,"long":-85.7197},{"zip":"46036","city":"Elwood","state":"IN","lat":40.2803,"long":-85.8391},{"zip":"46044","city":"Frankton","state":"IN","lat":40.2285,"long":-85.7791},{"zip":"46048","city":"Ingalls","state":"IN","lat":39.9573,"long":-85.7981},{"zip":"46051","city":"Lapel","state":"IN","lat":40.0854,"long":-85.844},{"zip":"46056","city":"Markleville","state":"IN","lat":39.9944,"long":-85.6227},{"zip":"46063","city":"Orestes","state":"IN","lat":40.2715,"long":-85.7281},{"zip":"46064","city":"Pendleton","state":"IN","lat":39.9975,"long":-85.7466},{"zip":"46070","city":"Summitville","state":"IN","lat":40.3398,"long":-85.6403},{"zip":"46107","city":"Beech Grove","state":"IN","lat":39.7154,"long":-86.0933},{"zip":"46113","city":"Camby","state":"IN","lat":39.6405,"long":-86.3118},{"zip":"46183","city":"West Newton","state":"IN","lat":39.6531,"long":-86.2828},{"zip":"46201","city":"Indianapolis","state":"IN","lat":39.775,"long":-86.1093},{"zip":"46202","city":"Indianapolis","state":"IN","lat":39.7851,"long":-86.1595},{"zip":"46203","city":"Indianapolis","state":"IN","lat":39.743,"long":-86.1179},{"zip":"46204","city":"Indianapolis","state":"IN","lat":39.772,"long":-86.1535},{"zip":"46205","city":"Indianapolis","state":"IN","lat":39.8268,"long":-86.1386},{"zip":"46206","city":"Indianapolis","state":"IN","lat":39.7613,"long":-86.1613},{"zip":"46207","city":"Indianapolis","state":"IN","lat":39.7673,"long":-86.1606},{"zip":"46208","city":"Indianapolis","state":"IN","lat":39.8299,"long":-86.1794},{"zip":"46209","city":"Indianapolis","state":"IN","lat":39.7795,"long":-86.1328},{"zip":"46211","city":"Indianapolis","state":"IN","lat":39.7795,"long":-86.1328},{"zip":"46214","city":"Indianapolis","state":"IN","lat":39.7924,"long":-86.2875},{"zip":"46216","city":"Indianapolis","state":"IN","lat":39.8647,"long":-86.0136},{"zip":"46217","city":"Indianapolis","state":"IN","lat":39.6782,"long":-86.1976},{"zip":"46218","city":"Indianapolis","state":"IN","lat":39.8082,"long":-86.1014},{"zip":"46219","city":"Indianapolis","state":"IN","lat":39.7821,"long":-86.0495},{"zip":"46220","city":"Indianapolis","state":"IN","lat":39.8647,"long":-86.1181},{"zip":"46221","city":"Indianapolis","state":"IN","lat":39.7509,"long":-86.1924},{"zip":"46222","city":"Indianapolis","state":"IN","lat":39.789,"long":-86.2136},{"zip":"46224","city":"Indianapolis","state":"IN","lat":39.794,"long":-86.2707},{"zip":"46225","city":"Indianapolis","state":"IN","lat":39.7406,"long":-86.1569},{"zip":"46226","city":"Indianapolis","state":"IN","lat":39.8326,"long":-86.0836},{"zip":"46227","city":"Indianapolis","state":"IN","lat":39.6789,"long":-86.1302},{"zip":"46228","city":"Indianapolis","state":"IN","lat":39.8462,"long":-86.1951},{"zip":"46229","city":"Indianapolis","state":"IN","lat":39.7886,"long":-85.9779},{"zip":"46230","city":"Indianapolis","state":"IN","lat":39.7795,"long":-86.1328},{"zip":"46231","city":"Indianapolis","state":"IN","lat":39.7038,"long":-86.3029},{"zip":"46234","city":"Indianapolis","state":"IN","lat":39.8088,"long":-86.3163},{"zip":"46235","city":"Indianapolis","state":"IN","lat":39.8471,"long":-85.9741},{"zip":"46236","city":"Indianapolis","state":"IN","lat":39.8689,"long":-85.9765},{"zip":"46237","city":"Indianapolis","state":"IN","lat":39.673,"long":-86.0757},{"zip":"46239","city":"Indianapolis","state":"IN","lat":39.7265,"long":-86.0005},{"zip":"46240","city":"Indianapolis","state":"IN","lat":39.9069,"long":-86.1238},{"zip":"46241","city":"Indianapolis","state":"IN","lat":39.7096,"long":-86.2614},{"zip":"46242","city":"Indianapolis","state":"IN","lat":39.7795,"long":-86.1328},{"zip":"46244","city":"Indianapolis","state":"IN","lat":39.7795,"long":-86.1328},{"zip":"46247","city":"Indianapolis","state":"IN","lat":39.7795,"long":-86.1328},{"zip":"46249","city":"Indianapolis","state":"IN","lat":39.859,"long":-86.0061},{"zip":"46250","city":"Indianapolis","state":"IN","lat":39.9048,"long":-86.0673},{"zip":"46251","city":"Indianapolis","state":"IN","lat":39.7795,"long":-86.1328},{"zip":"46253","city":"Indianapolis","state":"IN","lat":39.7795,"long":-86.1328},{"zip":"46254","city":"Indianapolis","state":"IN","lat":39.849,"long":-86.272},{"zip":"46255","city":"Indianapolis","state":"IN","lat":39.7684,"long":-86.158},{"zip":"46256","city":"Indianapolis","state":"IN","lat":39.8977,"long":-86.0094},{"zip":"46259","city":"Indianapolis","state":"IN","lat":39.667,"long":-85.9981},{"zip":"46260","city":"Indianapolis","state":"IN","lat":39.8977,"long":-86.1797},{"zip":"46266","city":"Indianapolis","state":"IN","lat":39.7684,"long":-86.158},{"zip":"46268","city":"Indianapolis","state":"IN","lat":39.8682,"long":-86.2123},{"zip":"46274","city":"Indianapolis","state":"IN","lat":39.7795,"long":-86.1328},{"zip":"46275","city":"Indianapolis","state":"IN","lat":39.7795,"long":-86.1328},{"zip":"46277","city":"Indianapolis","state":"IN","lat":39.7795,"long":-86.1328},{"zip":"46278","city":"Indianapolis","state":"IN","lat":39.8726,"long":-86.2768},{"zip":"46282","city":"Indianapolis","state":"IN","lat":39.7795,"long":-86.1328},{"zip":"46283","city":"Indianapolis","state":"IN","lat":39.7795,"long":-86.1328},{"zip":"46285","city":"Indianapolis","state":"IN","lat":39.7795,"long":-86.1328},{"zip":"46291","city":"Indianapolis","state":"IN","lat":39.7795,"long":-86.1328},{"zip":"46295","city":"Indianapolis","state":"IN","lat":39.7795,"long":-86.1328},{"zip":"46296","city":"Indianapolis","state":"IN","lat":39.796,"long":-86.1495},{"zip":"46298","city":"Indianapolis","state":"IN","lat":39.7795,"long":-86.1328},{"zip":"46501","city":"Argos","state":"IN","lat":41.2308,"long":-86.2506},{"zip":"46504","city":"Bourbon","state":"IN","lat":41.3098,"long":-86.1174},{"zip":"46506","city":"Bremen","state":"IN","lat":41.4467,"long":-86.1932},{"zip":"46511","city":"Culver","state":"IN","lat":41.22,"long":-86.4269},{"zip":"46513","city":"Donaldson","state":"IN","lat":41.3619,"long":-86.4443},{"zip":"46537","city":"Lapaz","state":"IN","lat":41.4599,"long":-86.3102},{"zip":"46563","city":"Plymouth","state":"IN","lat":41.353,"long":-86.3015},{"zip":"46570","city":"Tippecanoe","state":"IN","lat":41.2166,"long":-86.1095},{"zip":"46572","city":"Tyner","state":"IN","lat":41.4098,"long":-86.4025},{"zip":"46911","city":"Amboy","state":"IN","lat":40.6105,"long":-85.9497},{"zip":"46914","city":"Bunker Hill","state":"IN","lat":40.6423,"long":-86.0961},{"zip":"46919","city":"Converse","state":"IN","lat":40.577,"long":-85.8763},{"zip":"46921","city":"Deedsville","state":"IN","lat":40.9103,"long":-86.1011},{"zip":"46926","city":"Denver","state":"IN","lat":40.867,"long":-86.0752},{"zip":"46951","city":"Macy","state":"IN","lat":40.9618,"long":-86.1264},{"zip":"46958","city":"Mexico","state":"IN","lat":40.8224,"long":-86.1162},{"zip":"46959","city":"Miami","state":"IN","lat":40.6147,"long":-86.1064},{"zip":"46970","city":"Peru","state":"IN","lat":40.7492,"long":-86.068},{"zip":"46971","city":"Grissom Arb","state":"IN","lat":40.6683,"long":-86.1378},{"zip":"46111","city":"Brooklyn","state":"IN","lat":39.5396,"long":-86.3701},{"zip":"46125","city":"Eminence","state":"IN","lat":39.5214,"long":-86.6414},{"zip":"46151","city":"Martinsville","state":"IN","lat":39.4776,"long":-86.4668},{"zip":"46157","city":"Monrovia","state":"IN","lat":39.5714,"long":-86.4894},{"zip":"46158","city":"Mooresville","state":"IN","lat":39.5915,"long":-86.3642},{"zip":"46166","city":"Paragon","state":"IN","lat":39.4042,"long":-86.5779},{"zip":"46349","city":"Lake Village","state":"IN","lat":41.1387,"long":-87.4454},{"zip":"46372","city":"Roselawn","state":"IN","lat":41.1434,"long":-87.322},{"zip":"46379","city":"Sumava Resorts","state":"IN","lat":41.1671,"long":-87.4335},{"zip":"46381","city":"Thayer","state":"IN","lat":41.1711,"long":-87.3313},{"zip":"46701","city":"Albion","state":"IN","lat":41.3482,"long":-85.4142},{"zip":"46710","city":"Avilla","state":"IN","lat":41.3689,"long":-85.2414},{"zip":"46732","city":"Cromwell","state":"IN","lat":41.3751,"long":-85.6031},{"zip":"46755","city":"Kendallville","state":"IN","lat":41.4482,"long":-85.2609},{"zip":"46760","city":"Kimmell","state":"IN","lat":41.3953,"long":-85.5483},{"zip":"46763","city":"Laotto","state":"IN","lat":41.2991,"long":-85.1901},{"zip":"46767","city":"Ligonier","state":"IN","lat":41.4662,"long":-85.5927},{"zip":"46784","city":"Rome City","state":"IN","lat":41.4849,"long":-85.3743},{"zip":"46794","city":"Wawaka","state":"IN","lat":41.457,"long":-85.4822},{"zip":"46796","city":"Wolflake","state":"IN","lat":41.3361,"long":-85.5002},{"zip":"46301","city":"Beverly Shores","state":"IN","lat":41.6925,"long":-86.9775},{"zip":"46302","city":"Boone Grove","state":"IN","lat":41.3542,"long":-87.1304},{"zip":"46304","city":"Chesterton","state":"IN","lat":41.6143,"long":-87.047},{"zip":"46341","city":"Hebron","state":"IN","lat":41.3155,"long":-87.2088},{"zip":"46347","city":"Kouts","state":"IN","lat":41.3091,"long":-87.024},{"zip":"46368","city":"Portage","state":"IN","lat":41.5672,"long":-87.1757},{"zip":"46383","city":"Valparaiso","state":"IN","lat":41.4547,"long":-87.0656},{"zip":"46384","city":"Valparaiso","state":"IN","lat":41.4905,"long":-87.0761},{"zip":"46385","city":"Valparaiso","state":"IN","lat":41.4706,"long":-87.0783},{"zip":"46393","city":"Wheeler","state":"IN","lat":41.5116,"long":-87.1792},{"zip":"46960","city":"Monterey","state":"IN","lat":41.1383,"long":-86.5179},{"zip":"46985","city":"Star City","state":"IN","lat":40.9602,"long":-86.5404},{"zip":"46996","city":"Winamac","state":"IN","lat":41.0562,"long":-86.6307},{"zip":"46105","city":"Bainbridge","state":"IN","lat":39.7612,"long":-86.812},{"zip":"46120","city":"Cloverdale","state":"IN","lat":39.5148,"long":-86.7939},{"zip":"46128","city":"Fillmore","state":"IN","lat":39.6475,"long":-86.7469},{"zip":"46135","city":"Greencastle","state":"IN","lat":39.6495,"long":-86.8686},{"zip":"46170","city":"Putnamville","state":"IN","lat":39.5742,"long":-86.8653},{"zip":"46171","city":"Reelsville","state":"IN","lat":39.5464,"long":-86.95},{"zip":"46172","city":"Roachdale","state":"IN","lat":39.8325,"long":-86.7902},{"zip":"46175","city":"Russellville","state":"IN","lat":39.8366,"long":-86.967},{"zip":"46104","city":"Arlington","state":"IN","lat":39.6488,"long":-85.5828},{"zip":"46115","city":"Carthage","state":"IN","lat":39.7466,"long":-85.5754},{"zip":"46127","city":"Falmouth","state":"IN","lat":39.729,"long":-85.3331},{"zip":"46146","city":"Homer","state":"IN","lat":39.5781,"long":-85.578},{"zip":"46150","city":"Manilla","state":"IN","lat":39.5742,"long":-85.6194},{"zip":"46155","city":"Mays","state":"IN","lat":39.7437,"long":-85.43},{"zip":"46156","city":"Milroy","state":"IN","lat":39.4955,"long":-85.5044},{"zip":"46173","city":"Rushville","state":"IN","lat":39.6192,"long":-85.4321},{"zip":"46530","city":"Granger","state":"IN","lat":41.7427,"long":-86.1411},{"zip":"46536","city":"Lakeville","state":"IN","lat":41.5253,"long":-86.2714},{"zip":"46544","city":"Mishawaka","state":"IN","lat":41.6507,"long":-86.1623},{"zip":"46545","city":"Mishawaka","state":"IN","lat":41.6835,"long":-86.1682},{"zip":"46546","city":"Mishawaka","state":"IN","lat":41.662,"long":-86.1586},{"zip":"46552","city":"New Carlisle","state":"IN","lat":41.7051,"long":-86.4838},{"zip":"46554","city":"North Liberty","state":"IN","lat":41.5425,"long":-86.4133},{"zip":"46556","city":"Notre Dame","state":"IN","lat":41.5968,"long":-86.293},{"zip":"46561","city":"Osceola","state":"IN","lat":41.6695,"long":-86.087},{"zip":"46574","city":"Walkerton","state":"IN","lat":41.4667,"long":-86.4831},{"zip":"46595","city":"Wyatt","state":"IN","lat":41.5259,"long":-86.1694},{"zip":"46601","city":"South Bend","state":"IN","lat":41.6727,"long":-86.2535},{"zip":"46613","city":"South Bend","state":"IN","lat":41.6546,"long":-86.2479},{"zip":"46614","city":"South Bend","state":"IN","lat":41.6255,"long":-86.2433},{"zip":"46615","city":"South Bend","state":"IN","lat":41.6741,"long":-86.2104},{"zip":"46616","city":"South Bend","state":"IN","lat":41.6919,"long":-86.2647},{"zip":"46617","city":"South Bend","state":"IN","lat":41.685,"long":-86.2351},{"zip":"46619","city":"South Bend","state":"IN","lat":41.6674,"long":-86.3153},{"zip":"46624","city":"South Bend","state":"IN","lat":41.7332,"long":-86.2833},{"zip":"46626","city":"South Bend","state":"IN","lat":41.6774,"long":-86.2525},{"zip":"46628","city":"South Bend","state":"IN","lat":41.7015,"long":-86.2949},{"zip":"46634","city":"South Bend","state":"IN","lat":41.5968,"long":-86.293},{"zip":"46635","city":"South Bend","state":"IN","lat":41.7168,"long":-86.2078},{"zip":"46637","city":"South Bend","state":"IN","lat":41.7299,"long":-86.2407},{"zip":"46660","city":"South Bend","state":"IN","lat":41.5968,"long":-86.293},{"zip":"46680","city":"South Bend","state":"IN","lat":41.5968,"long":-86.293},{"zip":"46699","city":"South Bend","state":"IN","lat":41.5968,"long":-86.293},{"zip":"46110","city":"Boggstown","state":"IN","lat":39.5666,"long":-85.9141},{"zip":"46126","city":"Fairland","state":"IN","lat":39.6295,"long":-85.8913},{"zip":"46130","city":"Fountaintown","state":"IN","lat":39.6751,"long":-85.7848},{"zip":"46144","city":"Gwynneville","state":"IN","lat":39.6617,"long":-85.6476},{"zip":"46161","city":"Morristown","state":"IN","lat":39.6675,"long":-85.6934},{"zip":"46176","city":"Shelbyville","state":"IN","lat":39.5043,"long":-85.7875},{"zip":"46182","city":"Waldron","state":"IN","lat":39.4688,"long":-85.6644},{"zip":"46366","city":"North Judson","state":"IN","lat":41.215,"long":-86.7759},{"zip":"46374","city":"San Pierre","state":"IN","lat":41.2111,"long":-86.8725},{"zip":"46531","city":"Grovertown","state":"IN","lat":41.3496,"long":-86.5243},{"zip":"46532","city":"Hamlet","state":"IN","lat":41.3931,"long":-86.5948},{"zip":"46534","city":"Knox","state":"IN","lat":41.2809,"long":-86.6082},{"zip":"46968","city":"Ora","state":"IN","lat":41.1756,"long":-86.5543},{"zip":"46703","city":"Angola","state":"IN","lat":41.6563,"long":-85.0198},{"zip":"46737","city":"Fremont","state":"IN","lat":41.7331,"long":-84.9452},{"zip":"46742","city":"Hamilton","state":"IN","lat":41.5566,"long":-84.8951},{"zip":"46747","city":"Hudson","state":"IN","lat":41.5328,"long":-85.0811},{"zip":"46776","city":"Orland","state":"IN","lat":41.7309,"long":-85.1465},{"zip":"46779","city":"Pleasant Lake","state":"IN","lat":41.5843,"long":-85.0213},{"zip":"46045","city":"Goldsmith","state":"IN","lat":40.2898,"long":-86.1494},{"zip":"46047","city":"Hobbs","state":"IN","lat":40.2836,"long":-85.9475},{"zip":"46049","city":"Kempton","state":"IN","lat":40.2884,"long":-86.2297},{"zip":"46068","city":"Sharpsville","state":"IN","lat":40.3732,"long":-86.1086},{"zip":"46072","city":"Tipton","state":"IN","lat":40.2817,"long":-86.0433},{"zip":"46076","city":"Windfall","state":"IN","lat":40.3669,"long":-85.9476},{"zip":"46940","city":"La Fontaine","state":"IN","lat":40.6909,"long":-85.6971},{"zip":"46941","city":"Lagro","state":"IN","lat":40.8199,"long":-85.7204},{"zip":"46943","city":"Laketon","state":"IN","lat":40.9743,"long":-85.8375},{"zip":"46946","city":"Liberty Mills","state":"IN","lat":41.0356,"long":-85.7358},{"zip":"46962","city":"North Manchester","state":"IN","lat":40.9986,"long":-85.7842},{"zip":"46974","city":"Roann","state":"IN","lat":40.9482,"long":-85.9301},{"zip":"46980","city":"Servia","state":"IN","lat":40.9567,"long":-85.7405},{"zip":"46984","city":"Somerset","state":"IN","lat":40.6714,"long":-85.8288},{"zip":"46990","city":"Urbana","state":"IN","lat":40.8987,"long":-85.7485},{"zip":"46992","city":"Wabash","state":"IN","lat":40.7909,"long":-85.8321},{"zip":"46714","city":"Bluffton","state":"IN","lat":40.7368,"long":-85.1622},{"zip":"46731","city":"Craigville","state":"IN","lat":40.793,"long":-85.0904},{"zip":"46759","city":"Keystone","state":"IN","lat":40.5897,"long":-85.2767},{"zip":"46766","city":"Liberty Center","state":"IN","lat":40.7002,"long":-85.2774},{"zip":"46777","city":"Ossian","state":"IN","lat":40.8806,"long":-85.157},{"zip":"46778","city":"Petroleum","state":"IN","lat":40.6114,"long":-85.1526},{"zip":"46781","city":"Poneto","state":"IN","lat":40.6419,"long":-85.2562},{"zip":"46791","city":"Uniondale","state":"IN","lat":40.8369,"long":-85.2403},{"zip":"46723","city":"Churubusco","state":"IN","lat":41.229,"long":-85.3244},{"zip":"46725","city":"Columbia City","state":"IN","lat":41.1619,"long":-85.4737},{"zip":"46764","city":"Larwill","state":"IN","lat":41.1646,"long":-85.6139},{"zip":"46787","city":"South Whitley","state":"IN","lat":41.0726,"long":-85.6143}]
