[{"zip":"46052","city":"Lebanon","state":"IN","lat":40.0449,"long":-86.4641},{"zip":"46071","city":"Thorntown","state":"IN","lat":40.1133,"long":-86.5898},{"zip":"46075","city":"Whitestown","state":"IN","lat":40,"long":-86.3507},{"zip":"46077","city":"Zionsville","state":"IN","lat":39.9561,"long":-86.2767},{"zip":"46035","city":"Colfax","state":"IN","lat":40.1956,"long":-86.6593},{"zip":"46039","city":"Forest","state":"IN","lat":40.3757,"long":-86.3201},{"zip":"46041","city":"Frankfort","state":"IN","lat":40.3044,"long":-86.4689},{"zip":"46050","city":"Kirklin","state":"IN","lat":40.2031,"long":-86.3324},{"zip":"46057","city":"Michigantown","state":"IN","lat":40.3108,"long":-86.3753},{"zip":"46058","city":"Mulberry","state":"IN","lat":40.3433,"long":-86.6613},{"zip":"46065","city":"Rossville","state":"IN","lat":40.4109,"long":-86.608},{"zip":"46067","city":"Sedalia","state":"IN","lat":40.4156,"long":-86.5147},{"zip":"46030","city":"Arcadia","state":"IN","lat":40.1776,"long":-86.0409},{"zip":"46031","city":"Atlanta","state":"IN","lat":40.2103,"long":-86.019},{"zip":"46032","city":"Carmel","state":"IN","lat":39.9712,"long":-86.1245},{"zip":"46033","city":"Carmel","state":"IN","lat":39.9744,"long":-86.0829},{"zip":"46034","city":"Cicero","state":"IN","lat":40.1298,"long":-86.0381},{"zip":"46037","city":"Fishers","state":"IN","lat":39.9559,"long":-85.9601},{"zip":"46038","city":"Fishers","state":"IN","lat":39.9575,"long":-86.023},{"zip":"46060","city":"Noblesville","state":"IN","lat":40.0563,"long":-86.0163},{"zip":"46061","city":"Noblesville","state":"IN","lat":40.0725,"long":-86.0523},{"zip":"46062","city":"Noblesville","state":"IN","lat":40.0617,"long":-86.0555},{"zip":"46069","city":"Sheridan","state":"IN","lat":40.135,"long":-86.2205},{"zip":"46074","city":"Westfield","state":"IN","lat":40.0489,"long":-86.1499},{"zip":"46082","city":"Carmel","state":"IN","lat":40.0725,"long":-86.0523},{"zip":"46085","city":"Fishers","state":"IN","lat":39.9556,"long":-86.0139},{"zip":"46040","city":"Fortville","state":"IN","lat":39.9323,"long":-85.848},{"zip":"46055","city":"Mccordsville","state":"IN","lat":39.9081,"long":-85.9228},{"zip":"46001","city":"Alexandria","state":"IN","lat":40.2561,"long":-85.6681},{"zip":"46011","city":"Anderson","state":"IN","lat":40.1146,"long":-85.7253},{"zip":"46012","city":"Anderson","state":"IN","lat":40.1309,"long":-85.6536},{"zip":"46013","city":"Anderson","state":"IN","lat":40.0619,"long":-85.6801},{"zip":"46014","city":"Anderson","state":"IN","lat":40.1617,"long":-85.7197},{"zip":"46015","city":"Anderson","state":"IN","lat":40.0938,"long":-85.6578},{"zip":"46016","city":"Anderson","state":"IN","lat":40.0988,"long":-85.6846},{"zip":"46017","city":"Anderson","state":"IN","lat":40.0742,"long":-85.6069},{"zip":"46018","city":"Anderson","state":"IN","lat":40.1617,"long":-85.7197},{"zip":"46036","city":"Elwood","state":"IN","lat":40.2803,"long":-85.8391},{"zip":"46044","city":"Frankton","state":"IN","lat":40.2285,"long":-85.7791},{"zip":"46048","city":"Ingalls","state":"IN","lat":39.9573,"long":-85.7981},{"zip":"46051","city":"Lapel","state":"IN","lat":40.0854,"long":-85.844},{"zip":"46056","city":"Markleville","state":"IN","lat":39.9944,"long":-85.6227},{"zip":"46063","city":"Orestes","state":"IN","lat":40.2715,"long":-85.7281},{"zip":"46064","city":"Pendleton","state":"IN","lat":39.9975,"long":-85.7466},{"zip":"46070","city":"Summitville","state":"IN","lat":40.3398,"long":-85.6403},{"zip":"46045","city":"Goldsmith","state":"IN","lat":40.2898,"long":-86.1494},{"zip":"46047","city":"Hobbs","state":"IN","lat":40.2836,"long":-85.9475},{"zip":"46049","city":"Kempton","state":"IN","lat":40.2884,"long":-86.2297},{"zip":"46068","city":"Sharpsville","state":"IN","lat":40.3732,"long":-86.1086},{"zip":"46072","city":"Tipton","state":"IN","lat":40.2817,"long":-86.0433},{"zip":"46076","city":"Windfall","state":"IN","lat":40.3669,"long":-85.9476}]
