[{"zip":"46102","city":"Advance","state":"IN","lat":39.9956,"long":-86.6198},{"zip":"46147","city":"Jamestown","state":"IN","lat":39.9579,"long":-86.6236},{"zip":"46160","city":"Morgantown","state":"IN","lat":39.3628,"long":-86.2803},{"zip":"46133","city":"Glenwood","state":"IN","lat":39.6124,"long":-85.2735},{"zip":"46117","city":"Charlottesville","state":"IN","lat":39.8388,"long":-85.6258},{"zip":"46129","city":"Finly","state":"IN","lat":39.8215,"long":-85.7652},{"zip":"46140","city":"Greenfield","state":"IN","lat":39.7902,"long":-85.8141},{"zip":"46154","city":"Maxwell","state":"IN","lat":39.8568,"long":-85.7684},{"zip":"46163","city":"New Palestine","state":"IN","lat":39.7233,"long":-85.9052},{"zip":"46186","city":"Wilkinson","state":"IN","lat":39.8957,"long":-85.6144},{"zip":"46103","city":"Amo","state":"IN","lat":39.6886,"long":-86.6136},{"zip":"46112","city":"Brownsburg","state":"IN","lat":39.8466,"long":-86.3869},{"zip":"46118","city":"Clayton","state":"IN","lat":39.6682,"long":-86.4959},{"zip":"46121","city":"Coatesville","state":"IN","lat":39.6878,"long":-86.6703},{"zip":"46122","city":"Danville","state":"IN","lat":39.7628,"long":-86.5343},{"zip":"46123","city":"Avon","state":"IN","lat":39.7629,"long":-86.3996},{"zip":"46149","city":"Lizton","state":"IN","lat":39.8843,"long":-86.5429},{"zip":"46165","city":"North Salem","state":"IN","lat":39.8671,"long":-86.6388},{"zip":"46167","city":"Pittsboro","state":"IN","lat":39.8615,"long":-86.4645},{"zip":"46168","city":"Plainfield","state":"IN","lat":39.6893,"long":-86.3919},{"zip":"46180","city":"Stilesville","state":"IN","lat":39.6391,"long":-86.6182},{"zip":"46148","city":"Knightstown","state":"IN","lat":39.806,"long":-85.5261},{"zip":"46106","city":"Bargersville","state":"IN","lat":39.5,"long":-86.1797},{"zip":"46124","city":"Edinburgh","state":"IN","lat":39.3626,"long":-85.9707},{"zip":"46131","city":"Franklin","state":"IN","lat":39.4854,"long":-86.0608},{"zip":"46142","city":"Greenwood","state":"IN","lat":39.6224,"long":-86.149},{"zip":"46143","city":"Greenwood","state":"IN","lat":39.596,"long":-86.1309},{"zip":"46162","city":"Needham","state":"IN","lat":39.5605,"long":-85.9656},{"zip":"46164","city":"Nineveh","state":"IN","lat":39.3656,"long":-86.0976},{"zip":"46181","city":"Trafalgar","state":"IN","lat":39.3696,"long":-86.1838},{"zip":"46184","city":"Whiteland","state":"IN","lat":39.5611,"long":-86.0723},{"zip":"46107","city":"Beech Grove","state":"IN","lat":39.7154,"long":-86.0933},{"zip":"46113","city":"Camby","state":"IN","lat":39.6405,"long":-86.3118},{"zip":"46183","city":"West Newton","state":"IN","lat":39.6531,"long":-86.2828},{"zip":"46111","city":"Brooklyn","state":"IN","lat":39.5396,"long":-86.3701},{"zip":"46125","city":"Eminence","state":"IN","lat":39.5214,"long":-86.6414},{"zip":"46151","city":"Martinsville","state":"IN","lat":39.4776,"long":-86.4668},{"zip":"46157","city":"Monrovia","state":"IN","lat":39.5714,"long":-86.4894},{"zip":"46158","city":"Mooresville","state":"IN","lat":39.5915,"long":-86.3642},{"zip":"46166","city":"Paragon","state":"IN","lat":39.4042,"long":-86.5779},{"zip":"46105","city":"Bainbridge","state":"IN","lat":39.7612,"long":-86.812},{"zip":"46120","city":"Cloverdale","state":"IN","lat":39.5148,"long":-86.7939},{"zip":"46128","city":"Fillmore","state":"IN","lat":39.6475,"long":-86.7469},{"zip":"46135","city":"Greencastle","state":"IN","lat":39.6495,"long":-86.8686},{"zip":"46170","city":"Putnamville","state":"IN","lat":39.5742,"long":-86.8653},{"zip":"46171","city":"Reelsville","state":"IN","lat":39.5464,"long":-86.95},{"zip":"46172","city":"Roachdale","state":"IN","lat":39.8325,"long":-86.7902},{"zip":"46175","city":"Russellville","state":"IN","lat":39.8366,"long":-86.967},{"zip":"46104","city":"Arlington","state":"IN","lat":39.6488,"long":-85.5828},{"zip":"46115","city":"Carthage","state":"IN","lat":39.7466,"long":-85.5754},{"zip":"46127","city":"Falmouth","state":"IN","lat":39.729,"long":-85.3331},{"zip":"46146","city":"Homer","state":"IN","lat":39.5781,"long":-85.578},{"zip":"46150","city":"Manilla","state":"IN","lat":39.5742,"long":-85.6194},{"zip":"46155","city":"Mays","state":"IN","lat":39.7437,"long":-85.43},{"zip":"46156","city":"Milroy","state":"IN","lat":39.4955,"long":-85.5044},{"zip":"46173","city":"Rushville","state":"IN","lat":39.6192,"long":-85.4321},{"zip":"46110","city":"Boggstown","state":"IN","lat":39.5666,"long":-85.9141},{"zip":"46126","city":"Fairland","state":"IN","lat":39.6295,"long":-85.8913},{"zip":"46130","city":"Fountaintown","state":"IN","lat":39.6751,"long":-85.7848},{"zip":"46144","city":"Gwynneville","state":"IN","lat":39.6617,"long":-85.6476},{"zip":"46161","city":"Morristown","state":"IN","lat":39.6675,"long":-85.6934},{"zip":"46176","city":"Shelbyville","state":"IN","lat":39.5043,"long":-85.7875},{"zip":"46182","city":"Waldron","state":"IN","lat":39.4688,"long":-85.6644}]
