[{"zip":"46262","city":"Indianapolis","state":"IN","lat":39.7684,"long":-86.158},{"zip":"46280","city":"Indianapolis","state":"IN","lat":39.9416,"long":-86.1157},{"zip":"46290","city":"Indianapolis","state":"IN","lat":39.9347,"long":-86.1633},{"zip":"46201","city":"Indianapolis","state":"IN","lat":39.775,"long":-86.1093},{"zip":"46202","city":"Indianapolis","state":"IN","lat":39.7851,"long":-86.1595},{"zip":"46203","city":"Indianapolis","state":"IN","lat":39.743,"long":-86.1179},{"zip":"46204","city":"Indianapolis","state":"IN","lat":39.772,"long":-86.1535},{"zip":"46205","city":"Indianapolis","state":"IN","lat":39.8268,"long":-86.1386},{"zip":"46206","city":"Indianapolis","state":"IN","lat":39.7613,"long":-86.1613},{"zip":"46207","city":"Indianapolis","state":"IN","lat":39.7673,"long":-86.1606},{"zip":"46208","city":"Indianapolis","state":"IN","lat":39.8299,"long":-86.1794},{"zip":"46209","city":"Indianapolis","state":"IN","lat":39.7795,"long":-86.1328},{"zip":"46211","city":"Indianapolis","state":"IN","lat":39.7795,"long":-86.1328},{"zip":"46214","city":"Indianapolis","state":"IN","lat":39.7924,"long":-86.2875},{"zip":"46216","city":"Indianapolis","state":"IN","lat":39.8647,"long":-86.0136},{"zip":"46217","city":"Indianapolis","state":"IN","lat":39.6782,"long":-86.1976},{"zip":"46218","city":"Indianapolis","state":"IN","lat":39.8082,"long":-86.1014},{"zip":"46219","city":"Indianapolis","state":"IN","lat":39.7821,"long":-86.0495},{"zip":"46220","city":"Indianapolis","state":"IN","lat":39.8647,"long":-86.1181},{"zip":"46221","city":"Indianapolis","state":"IN","lat":39.7509,"long":-86.1924},{"zip":"46222","city":"Indianapolis","state":"IN","lat":39.789,"long":-86.2136},{"zip":"46224","city":"Indianapolis","state":"IN","lat":39.794,"long":-86.2707},{"zip":"46225","city":"Indianapolis","state":"IN","lat":39.7406,"long":-86.1569},{"zip":"46226","city":"Indianapolis","state":"IN","lat":39.8326,"long":-86.0836},{"zip":"46227","city":"Indianapolis","state":"IN","lat":39.6789,"long":-86.1302},{"zip":"46228","city":"Indianapolis","state":"IN","lat":39.8462,"long":-86.1951},{"zip":"46229","city":"Indianapolis","state":"IN","lat":39.7886,"long":-85.9779},{"zip":"46230","city":"Indianapolis","state":"IN","lat":39.7795,"long":-86.1328},{"zip":"46231","city":"Indianapolis","state":"IN","lat":39.7038,"long":-86.3029},{"zip":"46234","city":"Indianapolis","state":"IN","lat":39.8088,"long":-86.3163},{"zip":"46235","city":"Indianapolis","state":"IN","lat":39.8471,"long":-85.9741},{"zip":"46236","city":"Indianapolis","state":"IN","lat":39.8689,"long":-85.9765},{"zip":"46237","city":"Indianapolis","state":"IN","lat":39.673,"long":-86.0757},{"zip":"46239","city":"Indianapolis","state":"IN","lat":39.7265,"long":-86.0005},{"zip":"46240","city":"Indianapolis","state":"IN","lat":39.9069,"long":-86.1238},{"zip":"46241","city":"Indianapolis","state":"IN","lat":39.7096,"long":-86.2614},{"zip":"46242","city":"Indianapolis","state":"IN","lat":39.7795,"long":-86.1328},{"zip":"46244","city":"Indianapolis","state":"IN","lat":39.7795,"long":-86.1328},{"zip":"46247","city":"Indianapolis","state":"IN","lat":39.7795,"long":-86.1328},{"zip":"46249","city":"Indianapolis","state":"IN","lat":39.859,"long":-86.0061},{"zip":"46250","city":"Indianapolis","state":"IN","lat":39.9048,"long":-86.0673},{"zip":"46251","city":"Indianapolis","state":"IN","lat":39.7795,"long":-86.1328},{"zip":"46253","city":"Indianapolis","state":"IN","lat":39.7795,"long":-86.1328},{"zip":"46254","city":"Indianapolis","state":"IN","lat":39.849,"long":-86.272},{"zip":"46255","city":"Indianapolis","state":"IN","lat":39.7684,"long":-86.158},{"zip":"46256","city":"Indianapolis","state":"IN","lat":39.8977,"long":-86.0094},{"zip":"46259","city":"Indianapolis","state":"IN","lat":39.667,"long":-85.9981},{"zip":"46260","city":"Indianapolis","state":"IN","lat":39.8977,"long":-86.1797},{"zip":"46266","city":"Indianapolis","state":"IN","lat":39.7684,"long":-86.158},{"zip":"46268","city":"Indianapolis","state":"IN","lat":39.8682,"long":-86.2123},{"zip":"46274","city":"Indianapolis","state":"IN","lat":39.7795,"long":-86.1328},{"zip":"46275","city":"Indianapolis","state":"IN","lat":39.7795,"long":-86.1328},{"zip":"46277","city":"Indianapolis","state":"IN","lat":39.7795,"long":-86.1328},{"zip":"46278","city":"Indianapolis","state":"IN","lat":39.8726,"long":-86.2768},{"zip":"46282","city":"Indianapolis","state":"IN","lat":39.7795,"long":-86.1328},{"zip":"46283","city":"Indianapolis","state":"IN","lat":39.7795,"long":-86.1328},{"zip":"46285","city":"Indianapolis","state":"IN","lat":39.7795,"long":-86.1328},{"zip":"46291","city":"Indianapolis","state":"IN","lat":39.7795,"long":-86.1328},{"zip":"46295","city":"Indianapolis","state":"IN","lat":39.7795,"long":-86.1328},{"zip":"46296","city":"Indianapolis","state":"IN","lat":39.796,"long":-86.1495},{"zip":"46298","city":"Indianapolis","state":"IN","lat":39.7795,"long":-86.1328}]
