[{"zip":"46507","city":"Bristol","state":"IN","lat":41.7169,"long":-85.8262},{"zip":"46514","city":"Elkhart","state":"IN","lat":41.7101,"long":-85.9729},{"zip":"46515","city":"Elkhart","state":"IN","lat":41.682,"long":-85.9767},{"zip":"46516","city":"Elkhart","state":"IN","lat":41.6763,"long":-85.9621},{"zip":"46517","city":"Elkhart","state":"IN","lat":41.6469,"long":-85.9728},{"zip":"46526","city":"Goshen","state":"IN","lat":41.5848,"long":-85.8581},{"zip":"46527","city":"Goshen","state":"IN","lat":41.5977,"long":-85.8581},{"zip":"46528","city":"Goshen","state":"IN","lat":41.6248,"long":-85.8391},{"zip":"46540","city":"Middlebury","state":"IN","lat":41.6754,"long":-85.7114},{"zip":"46543","city":"Millersburg","state":"IN","lat":41.5335,"long":-85.7072},{"zip":"46550","city":"Nappanee","state":"IN","lat":41.4493,"long":-85.9945},{"zip":"46553","city":"New Paris","state":"IN","lat":41.4917,"long":-85.8338},{"zip":"46573","city":"Wakarusa","state":"IN","lat":41.5401,"long":-86.0205},{"zip":"46502","city":"Atwood","state":"IN","lat":41.254,"long":-85.9697},{"zip":"46508","city":"Burket","state":"IN","lat":41.1547,"long":-85.9693},{"zip":"46510","city":"Claypool","state":"IN","lat":41.1165,"long":-85.8686},{"zip":"46524","city":"Etna Green","state":"IN","lat":41.2918,"long":-86.035},{"zip":"46538","city":"Leesburg","state":"IN","lat":41.3266,"long":-85.816},{"zip":"46539","city":"Mentone","state":"IN","lat":41.1615,"long":-86.0299},{"zip":"46542","city":"Milford","state":"IN","lat":41.4011,"long":-85.8554},{"zip":"46555","city":"North Webster","state":"IN","lat":41.3326,"long":-85.7103},{"zip":"46562","city":"Pierceton","state":"IN","lat":41.2124,"long":-85.7061},{"zip":"46567","city":"Syracuse","state":"IN","lat":41.4065,"long":-85.7184},{"zip":"46580","city":"Warsaw","state":"IN","lat":41.2438,"long":-85.8508},{"zip":"46581","city":"Warsaw","state":"IN","lat":41.2394,"long":-85.8643},{"zip":"46582","city":"Warsaw","state":"IN","lat":41.2842,"long":-85.8547},{"zip":"46590","city":"Winona Lake","state":"IN","lat":41.211,"long":-85.8305},{"zip":"46565","city":"Shipshewana","state":"IN","lat":41.6633,"long":-85.5932},{"zip":"46571","city":"Topeka","state":"IN","lat":41.5634,"long":-85.5317},{"zip":"46501","city":"Argos","state":"IN","lat":41.2308,"long":-86.2506},{"zip":"46504","city":"Bourbon","state":"IN","lat":41.3098,"long":-86.1174},{"zip":"46506","city":"Bremen","state":"IN","lat":41.4467,"long":-86.1932},{"zip":"46511","city":"Culver","state":"IN","lat":41.22,"long":-86.4269},{"zip":"46513","city":"Donaldson","state":"IN","lat":41.3619,"long":-86.4443},{"zip":"46537","city":"Lapaz","state":"IN","lat":41.4599,"long":-86.3102},{"zip":"46563","city":"Plymouth","state":"IN","lat":41.353,"long":-86.3015},{"zip":"46570","city":"Tippecanoe","state":"IN","lat":41.2166,"long":-86.1095},{"zip":"46572","city":"Tyner","state":"IN","lat":41.4098,"long":-86.4025},{"zip":"46530","city":"Granger","state":"IN","lat":41.7427,"long":-86.1411},{"zip":"46536","city":"Lakeville","state":"IN","lat":41.5253,"long":-86.2714},{"zip":"46544","city":"Mishawaka","state":"IN","lat":41.6507,"long":-86.1623},{"zip":"46545","city":"Mishawaka","state":"IN","lat":41.6835,"long":-86.1682},{"zip":"46546","city":"Mishawaka","state":"IN","lat":41.662,"long":-86.1586},{"zip":"46552","city":"New Carlisle","state":"IN","lat":41.7051,"long":-86.4838},{"zip":"46554","city":"North Liberty","state":"IN","lat":41.5425,"long":-86.4133},{"zip":"46556","city":"Notre Dame","state":"IN","lat":41.5968,"long":-86.293},{"zip":"46561","city":"Osceola","state":"IN","lat":41.6695,"long":-86.087},{"zip":"46574","city":"Walkerton","state":"IN","lat":41.4667,"long":-86.4831},{"zip":"46595","city":"Wyatt","state":"IN","lat":41.5259,"long":-86.1694},{"zip":"46531","city":"Grovertown","state":"IN","lat":41.3496,"long":-86.5243},{"zip":"46532","city":"Hamlet","state":"IN","lat":41.3931,"long":-86.5948},{"zip":"46534","city":"Knox","state":"IN","lat":41.2809,"long":-86.6082}]
