[{"zip":"46601","city":"South Bend","state":"IN","lat":41.6727,"long":-86.2535},{"zip":"46613","city":"South Bend","state":"IN","lat":41.6546,"long":-86.2479},{"zip":"46614","city":"South Bend","state":"IN","lat":41.6255,"long":-86.2433},{"zip":"46615","city":"South Bend","state":"IN","lat":41.6741,"long":-86.2104},{"zip":"46616","city":"South Bend","state":"IN","lat":41.6919,"long":-86.2647},{"zip":"46617","city":"South Bend","state":"IN","lat":41.685,"long":-86.2351},{"zip":"46619","city":"South Bend","state":"IN","lat":41.6674,"long":-86.3153},{"zip":"46624","city":"South Bend","state":"IN","lat":41.7332,"long":-86.2833},{"zip":"46626","city":"South Bend","state":"IN","lat":41.6774,"long":-86.2525},{"zip":"46628","city":"South Bend","state":"IN","lat":41.7015,"long":-86.2949},{"zip":"46634","city":"South Bend","state":"IN","lat":41.5968,"long":-86.293},{"zip":"46635","city":"South Bend","state":"IN","lat":41.7168,"long":-86.2078},{"zip":"46637","city":"South Bend","state":"IN","lat":41.7299,"long":-86.2407},{"zip":"46660","city":"South Bend","state":"IN","lat":41.5968,"long":-86.293},{"zip":"46680","city":"South Bend","state":"IN","lat":41.5968,"long":-86.293},{"zip":"46699","city":"South Bend","state":"IN","lat":41.5968,"long":-86.293}]
