[{"zip":"46801","city":"Fort Wayne","state":"IN","lat":41.0938,"long":-85.0707},{"zip":"46802","city":"Fort Wayne","state":"IN","lat":41.0707,"long":-85.1543},{"zip":"46803","city":"Fort Wayne","state":"IN","lat":41.0695,"long":-85.1074},{"zip":"46804","city":"Fort Wayne","state":"IN","lat":41.0508,"long":-85.256},{"zip":"46805","city":"Fort Wayne","state":"IN","lat":41.0977,"long":-85.1189},{"zip":"46806","city":"Fort Wayne","state":"IN","lat":41.048,"long":-85.1135},{"zip":"46807","city":"Fort Wayne","state":"IN","lat":41.0491,"long":-85.1462},{"zip":"46808","city":"Fort Wayne","state":"IN","lat":41.0939,"long":-85.1621},{"zip":"46809","city":"Fort Wayne","state":"IN","lat":41.0254,"long":-85.1834},{"zip":"46814","city":"Fort Wayne","state":"IN","lat":41.0456,"long":-85.3058},{"zip":"46815","city":"Fort Wayne","state":"IN","lat":41.1053,"long":-85.0624},{"zip":"46816","city":"Fort Wayne","state":"IN","lat":41.0165,"long":-85.0976},{"zip":"46818","city":"Fort Wayne","state":"IN","lat":41.1468,"long":-85.2067},{"zip":"46819","city":"Fort Wayne","state":"IN","lat":41.0052,"long":-85.1527},{"zip":"46825","city":"Fort Wayne","state":"IN","lat":41.1465,"long":-85.1232},{"zip":"46835","city":"Fort Wayne","state":"IN","lat":41.1371,"long":-85.0685},{"zip":"46845","city":"Fort Wayne","state":"IN","lat":41.1958,"long":-85.1191},{"zip":"46850","city":"Fort Wayne","state":"IN","lat":41.0938,"long":-85.0707},{"zip":"46851","city":"Fort Wayne","state":"IN","lat":41.0938,"long":-85.0707},{"zip":"46852","city":"Fort Wayne","state":"IN","lat":41.0938,"long":-85.0707},{"zip":"46853","city":"Fort Wayne","state":"IN","lat":41.0938,"long":-85.0707},{"zip":"46854","city":"Fort Wayne","state":"IN","lat":41.0938,"long":-85.0707},{"zip":"46855","city":"Fort Wayne","state":"IN","lat":41.0938,"long":-85.0707},{"zip":"46856","city":"Fort Wayne","state":"IN","lat":41.0938,"long":-85.0707},{"zip":"46857","city":"Fort Wayne","state":"IN","lat":41.0938,"long":-85.0707},{"zip":"46858","city":"Fort Wayne","state":"IN","lat":41.0938,"long":-85.0707},{"zip":"46859","city":"Fort Wayne","state":"IN","lat":41.0938,"long":-85.0707},{"zip":"46860","city":"Fort Wayne","state":"IN","lat":41.0938,"long":-85.0707},{"zip":"46861","city":"Fort Wayne","state":"IN","lat":41.0938,"long":-85.0707},{"zip":"46862","city":"Fort Wayne","state":"IN","lat":41.0938,"long":-85.0707},{"zip":"46863","city":"Fort Wayne","state":"IN","lat":41.0938,"long":-85.0707},{"zip":"46864","city":"Fort Wayne","state":"IN","lat":41.0938,"long":-85.0707},{"zip":"46865","city":"Fort Wayne","state":"IN","lat":41.1263,"long":-85.0907},{"zip":"46866","city":"Fort Wayne","state":"IN","lat":41.0938,"long":-85.0707},{"zip":"46867","city":"Fort Wayne","state":"IN","lat":41.0938,"long":-85.0707},{"zip":"46868","city":"Fort Wayne","state":"IN","lat":41.0938,"long":-85.0707},{"zip":"46869","city":"Fort Wayne","state":"IN","lat":41.0938,"long":-85.0707},{"zip":"46885","city":"Fort Wayne","state":"IN","lat":41.0938,"long":-85.0707},{"zip":"46895","city":"Fort Wayne","state":"IN","lat":41.0938,"long":-85.0707},{"zip":"46896","city":"Fort Wayne","state":"IN","lat":41.0938,"long":-85.0707},{"zip":"46897","city":"Fort Wayne","state":"IN","lat":41.0938,"long":-85.0707},{"zip":"46898","city":"Fort Wayne","state":"IN","lat":41.0938,"long":-85.0707},{"zip":"46899","city":"Fort Wayne","state":"IN","lat":41.0938,"long":-85.0707}]
