[{"zip":"47201","city":"Columbus","state":"IN","lat":39.2055,"long":-85.9317},{"zip":"47202","city":"Columbus","state":"IN","lat":39.2014,"long":-85.9214},{"zip":"47203","city":"Columbus","state":"IN","lat":39.2301,"long":-85.8855},{"zip":"47226","city":"Clifford","state":"IN","lat":39.2826,"long":-85.8685},{"zip":"47232","city":"Elizabethtown","state":"IN","lat":39.1243,"long":-85.8153},{"zip":"47236","city":"Grammer","state":"IN","lat":39.1522,"long":-85.7261},{"zip":"47244","city":"Hartsville","state":"IN","lat":39.2676,"long":-85.698},{"zip":"47246","city":"Hope","state":"IN","lat":39.3039,"long":-85.7714},{"zip":"47247","city":"Jonesville","state":"IN","lat":39.0593,"long":-85.8886},{"zip":"47280","city":"Taylorsville","state":"IN","lat":39.2953,"long":-85.9498},{"zip":"47917","city":"Ambia","state":"IN","lat":40.4793,"long":-87.4796},{"zip":"47921","city":"Boswell","state":"IN","lat":40.518,"long":-87.3789},{"zip":"47942","city":"Earl Park","state":"IN","lat":40.6945,"long":-87.4232},{"zip":"47944","city":"Fowler","state":"IN","lat":40.6255,"long":-87.309},{"zip":"47970","city":"Otterbein","state":"IN","lat":40.517,"long":-87.1225},{"zip":"47971","city":"Oxford","state":"IN","lat":40.5217,"long":-87.2526},{"zip":"47984","city":"Talbot","state":"IN","lat":40.5053,"long":-87.4542},{"zip":"47986","city":"Templeton","state":"IN","lat":40.5055,"long":-87.207},{"zip":"47348","city":"Hartford City","state":"IN","lat":40.4541,"long":-85.3758},{"zip":"47359","city":"Montpelier","state":"IN","lat":40.5577,"long":-85.2513},{"zip":"47435","city":"Helmsburg","state":"IN","lat":39.1963,"long":-86.2302},{"zip":"47448","city":"Nashville","state":"IN","lat":39.2367,"long":-86.222},{"zip":"47997","city":"Yeoman","state":"IN","lat":40.6677,"long":-86.7236},{"zip":"47104","city":"Bethlehem","state":"IN","lat":38.5399,"long":-85.4218},{"zip":"47106","city":"Borden","state":"IN","lat":38.4362,"long":-85.9215},{"zip":"47111","city":"Charlestown","state":"IN","lat":38.4568,"long":-85.6606},{"zip":"47126","city":"Henryville","state":"IN","lat":38.5398,"long":-85.7734},{"zip":"47129","city":"Clarksville","state":"IN","lat":38.311,"long":-85.7645},{"zip":"47130","city":"Jeffersonville","state":"IN","lat":38.3078,"long":-85.7359},{"zip":"47131","city":"Jeffersonville","state":"IN","lat":38.437,"long":-85.705},{"zip":"47132","city":"Jeffersonville","state":"IN","lat":38.2868,"long":-85.7321},{"zip":"47133","city":"Jeffersonville","state":"IN","lat":38.2868,"long":-85.7321},{"zip":"47134","city":"Jeffersonville","state":"IN","lat":38.2868,"long":-85.7321},{"zip":"47141","city":"Marysville","state":"IN","lat":38.5856,"long":-85.6436},{"zip":"47143","city":"Memphis","state":"IN","lat":38.4642,"long":-85.7775},{"zip":"47144","city":"Jeffersonville","state":"IN","lat":38.2868,"long":-85.7321},{"zip":"47147","city":"Nabb","state":"IN","lat":38.6128,"long":-85.5217},{"zip":"47162","city":"New Washington","state":"IN","lat":38.5575,"long":-85.4599},{"zip":"47163","city":"Otisco","state":"IN","lat":38.5423,"long":-85.6647},{"zip":"47172","city":"Sellersburg","state":"IN","lat":38.4046,"long":-85.788},{"zip":"47177","city":"Underwood","state":"IN","lat":38.6037,"long":-85.7744},{"zip":"47190","city":"Jeffersonville","state":"IN","lat":38.437,"long":-85.705},{"zip":"47199","city":"Jeffersonville","state":"IN","lat":38.2868,"long":-85.7321},{"zip":"47833","city":"Bowling Green","state":"IN","lat":39.3812,"long":-87.0052},{"zip":"47834","city":"Brazil","state":"IN","lat":39.521,"long":-87.1278},{"zip":"47837","city":"Carbon","state":"IN","lat":39.5913,"long":-87.1132},{"zip":"47840","city":"Centerpoint","state":"IN","lat":39.391,"long":-87.0935},{"zip":"47841","city":"Clay City","state":"IN","lat":39.2727,"long":-87.1082},{"zip":"47845","city":"Coalmont","state":"IN","lat":39.1934,"long":-87.2311},{"zip":"47846","city":"Cory","state":"IN","lat":39.3435,"long":-87.1956},{"zip":"47853","city":"Harmony","state":"IN","lat":39.5372,"long":-87.0729},{"zip":"47857","city":"Knightsville","state":"IN","lat":39.5269,"long":-87.0869},{"zip":"47868","city":"Poland","state":"IN","lat":39.4462,"long":-86.9631},{"zip":"47881","city":"Staunton","state":"IN","lat":39.4875,"long":-87.1889},{"zip":"47116","city":"Eckerty","state":"IN","lat":38.3185,"long":-86.6059},{"zip":"47118","city":"English","state":"IN","lat":38.3258,"long":-86.4429},{"zip":"47123","city":"Grantsburg","state":"IN","lat":38.282,"long":-86.4843},{"zip":"47137","city":"Leavenworth","state":"IN","lat":38.1865,"long":-86.3838},{"zip":"47140","city":"Marengo","state":"IN","lat":38.3736,"long":-86.3578},{"zip":"47145","city":"Milltown","state":"IN","lat":38.3445,"long":-86.3003},{"zip":"47174","city":"Sulphur","state":"IN","lat":38.2259,"long":-86.4908},{"zip":"47175","city":"Taswell","state":"IN","lat":38.3463,"long":-86.5387},{"zip":"47501","city":"Washington","state":"IN","lat":38.6536,"long":-87.1707},{"zip":"47519","city":"Cannelburg","state":"IN","lat":38.6698,"long":-86.9983},{"zip":"47529","city":"Elnora","state":"IN","lat":38.8772,"long":-87.085},{"zip":"47558","city":"Montgomery","state":"IN","lat":38.6521,"long":-87.0476},{"zip":"47562","city":"Odon","state":"IN","lat":38.8187,"long":-86.9752},{"zip":"47568","city":"Plainville","state":"IN","lat":38.8062,"long":-87.1522},{"zip":"47001","city":"Aurora","state":"IN","lat":39.0719,"long":-84.9452},{"zip":"47018","city":"Dillsboro","state":"IN","lat":38.9962,"long":-85.055},{"zip":"47022","city":"Guilford","state":"IN","lat":39.2059,"long":-84.9616},{"zip":"47025","city":"Lawrenceburg","state":"IN","lat":39.1401,"long":-84.8658},{"zip":"47032","city":"Moores Hill","state":"IN","lat":39.0945,"long":-85.0638},{"zip":"47060","city":"West Harrison","state":"IN","lat":39.3008,"long":-84.881},{"zip":"47225","city":"Clarksburg","state":"IN","lat":39.4241,"long":-85.3477},{"zip":"47240","city":"Greensburg","state":"IN","lat":39.2998,"long":-85.4918},{"zip":"47261","city":"Millhousen","state":"IN","lat":39.292,"long":-85.4918},{"zip":"47263","city":"New Point","state":"IN","lat":39.3083,"long":-85.3297},{"zip":"47272","city":"Saint Paul","state":"IN","lat":39.4277,"long":-85.5994},{"zip":"47283","city":"Westport","state":"IN","lat":39.1749,"long":-85.5856},{"zip":"47302","city":"Muncie","state":"IN","lat":40.1684,"long":-85.3807},{"zip":"47303","city":"Muncie","state":"IN","lat":40.218,"long":-85.379},{"zip":"47304","city":"Muncie","state":"IN","lat":40.2111,"long":-85.4291},{"zip":"47305","city":"Muncie","state":"IN","lat":40.1933,"long":-85.3862},{"zip":"47306","city":"Muncie","state":"IN","lat":40.2023,"long":-85.4082},{"zip":"47307","city":"Muncie","state":"IN","lat":40.1621,"long":-85.4428},{"zip":"47308","city":"Muncie","state":"IN","lat":40.2279,"long":-85.3967},{"zip":"47320","city":"Albany","state":"IN","lat":40.292,"long":-85.258},{"zip":"47334","city":"Daleville","state":"IN","lat":40.1257,"long":-85.511},{"zip":"47338","city":"Eaton","state":"IN","lat":40.3377,"long":-85.3544},{"zip":"47342","city":"Gaston","state":"IN","lat":40.2948,"long":-85.4898},{"zip":"47367","city":"Oakville","state":"IN","lat":40.0792,"long":-85.39},{"zip":"47383","city":"Selma","state":"IN","lat":40.1693,"long":-85.2738},{"zip":"47396","city":"Yorktown","state":"IN","lat":40.1836,"long":-85.496},{"zip":"47513","city":"Birdseye","state":"IN","lat":38.3006,"long":-86.7102},{"zip":"47521","city":"Celestine","state":"IN","lat":38.3878,"long":-86.7568},{"zip":"47527","city":"Dubois","state":"IN","lat":38.4728,"long":-86.7832},{"zip":"47532","city":"Ferdinand","state":"IN","lat":38.2336,"long":-86.8607},{"zip":"47541","city":"Holland","state":"IN","lat":38.2456,"long":-87.0361},{"zip":"47542","city":"Huntingburg","state":"IN","lat":38.2979,"long":-86.9533},{"zip":"47545","city":"Ireland","state":"IN","lat":38.4137,"long":-87.0009},{"zip":"47546","city":"Jasper","state":"IN","lat":38.3604,"long":-86.9295},{"zip":"47547","city":"Jasper","state":"IN","lat":38.3647,"long":-86.8762},{"zip":"47549","city":"Jasper","state":"IN","lat":38.3647,"long":-86.8762},{"zip":"47575","city":"Saint Anthony","state":"IN","lat":38.3211,"long":-86.8234},{"zip":"47580","city":"Schnellville","state":"IN","lat":38.3414,"long":-86.7565},{"zip":"47322","city":"Bentonville","state":"IN","lat":39.657,"long":-85.168},{"zip":"47331","city":"Connersville","state":"IN","lat":39.6435,"long":-85.1464},{"zip":"47119","city":"Floyds Knobs","state":"IN","lat":38.351,"long":-85.8996},{"zip":"47122","city":"Georgetown","state":"IN","lat":38.3029,"long":-85.9617},{"zip":"47124","city":"Greenville","state":"IN","lat":38.3535,"long":-86.0083},{"zip":"47146","city":"Mount Saint Francis","state":"IN","lat":38.2985,"long":-85.897},{"zip":"47150","city":"New Albany","state":"IN","lat":38.3089,"long":-85.8221},{"zip":"47151","city":"New Albany","state":"IN","lat":38.2856,"long":-85.8241},{"zip":"47918","city":"Attica","state":"IN","lat":40.2811,"long":-87.2241},{"zip":"47932","city":"Covington","state":"IN","lat":40.1326,"long":-87.3819},{"zip":"47949","city":"Hillsboro","state":"IN","lat":40.0835,"long":-87.1545},{"zip":"47952","city":"Kingman","state":"IN","lat":40.0174,"long":-87.2569},{"zip":"47958","city":"Mellott","state":"IN","lat":40.1641,"long":-87.1475},{"zip":"47969","city":"Newtown","state":"IN","lat":40.2035,"long":-87.147},{"zip":"47987","city":"Veedersburg","state":"IN","lat":40.1186,"long":-87.2602},{"zip":"47988","city":"Wallace","state":"IN","lat":39.9865,"long":-87.1477},{"zip":"47003","city":"West College Corner","state":"IN","lat":39.5676,"long":-84.8161},{"zip":"47010","city":"Bath","state":"IN","lat":39.4992,"long":-84.836},{"zip":"47012","city":"Brookville","state":"IN","lat":39.4213,"long":-84.9994},{"zip":"47016","city":"Cedar Grove","state":"IN","lat":39.3459,"long":-84.8924},{"zip":"47024","city":"Laurel","state":"IN","lat":39.4916,"long":-85.208},{"zip":"47030","city":"Metamora","state":"IN","lat":39.4288,"long":-85.1504},{"zip":"47035","city":"New Trenton","state":"IN","lat":39.31,"long":-84.9007},{"zip":"47036","city":"Oldenburg","state":"IN","lat":39.3862,"long":-85.2385},{"zip":"47639","city":"Haubstadt","state":"IN","lat":38.1895,"long":-87.5798},{"zip":"47640","city":"Hazleton","state":"IN","lat":38.4623,"long":-87.4983},{"zip":"47647","city":"Buckskin","state":"IN","lat":38.2284,"long":-87.412},{"zip":"47648","city":"Fort Branch","state":"IN","lat":38.2471,"long":-87.5682},{"zip":"47649","city":"Francisco","state":"IN","lat":38.333,"long":-87.4536},{"zip":"47654","city":"Mackey","state":"IN","lat":38.2523,"long":-87.3917},{"zip":"47660","city":"Oakland City","state":"IN","lat":38.3361,"long":-87.3519},{"zip":"47665","city":"Owensville","state":"IN","lat":38.2744,"long":-87.7091},{"zip":"47666","city":"Patoka","state":"IN","lat":38.4143,"long":-87.5958},{"zip":"47670","city":"Princeton","state":"IN","lat":38.3525,"long":-87.5691},{"zip":"47683","city":"Somerville","state":"IN","lat":38.2764,"long":-87.3778},{"zip":"47424","city":"Bloomfield","state":"IN","lat":39.0295,"long":-86.8675},{"zip":"47438","city":"Jasonville","state":"IN","lat":39.1723,"long":-87.2023},{"zip":"47439","city":"Koleen","state":"IN","lat":39.0371,"long":-86.9616},{"zip":"47441","city":"Linton","state":"IN","lat":39.0461,"long":-87.1723},{"zip":"47443","city":"Lyons","state":"IN","lat":38.9717,"long":-87.1016},{"zip":"47445","city":"Midland","state":"IN","lat":39.122,"long":-87.1917},{"zip":"47449","city":"Newberry","state":"IN","lat":38.9229,"long":-87.0081},{"zip":"47453","city":"Owensburg","state":"IN","lat":38.9253,"long":-86.7742},{"zip":"47457","city":"Scotland","state":"IN","lat":38.9128,"long":-86.9039},{"zip":"47459","city":"Solsberry","state":"IN","lat":39.119,"long":-86.7378},{"zip":"47465","city":"Switz City","state":"IN","lat":39.0369,"long":-87.0502},{"zip":"47471","city":"Worthington","state":"IN","lat":39.123,"long":-86.9991},{"zip":"47107","city":"Bradford","state":"IN","lat":38.3678,"long":-86.0619},{"zip":"47110","city":"Central","state":"IN","lat":38.097,"long":-86.1723},{"zip":"47112","city":"Corydon","state":"IN","lat":38.2189,"long":-86.1145},{"zip":"47114","city":"Crandall","state":"IN","lat":38.2876,"long":-86.0664},{"zip":"47115","city":"Depauw","state":"IN","lat":38.3361,"long":-86.2109},{"zip":"47117","city":"Elizabeth","state":"IN","lat":38.1244,"long":-85.9589},{"zip":"47135","city":"Laconia","state":"IN","lat":38.0527,"long":-86.0844},{"zip":"47136","city":"Lanesville","state":"IN","lat":38.2448,"long":-85.9593},{"zip":"47142","city":"Mauckport","state":"IN","lat":38.0437,"long":-86.1846},{"zip":"47160","city":"New Middletown","state":"IN","lat":38.1645,"long":-86.051},{"zip":"47161","city":"New Salisbury","state":"IN","lat":38.3399,"long":-86.0887},{"zip":"47164","city":"Palmyra","state":"IN","lat":38.4105,"long":-86.0888},{"zip":"47166","city":"Ramsey","state":"IN","lat":38.3034,"long":-86.169},{"zip":"47337","city":"Dunreith","state":"IN","lat":39.8031,"long":-85.4371},{"zip":"47344","city":"Greensboro","state":"IN","lat":39.8789,"long":-85.464},{"zip":"47351","city":"Kennard","state":"IN","lat":39.904,"long":-85.5205},{"zip":"47352","city":"Lewisville","state":"IN","lat":39.8283,"long":-85.3621},{"zip":"47356","city":"Middletown","state":"IN","lat":40.0475,"long":-85.5368},{"zip":"47360","city":"Mooreland","state":"IN","lat":39.9941,"long":-85.2581},{"zip":"47361","city":"Mount Summit","state":"IN","lat":40.0042,"long":-85.3851},{"zip":"47362","city":"New Castle","state":"IN","lat":39.9208,"long":-85.3663},{"zip":"47366","city":"New Lisbon","state":"IN","lat":39.8634,"long":-85.263},{"zip":"47384","city":"Shirley","state":"IN","lat":39.9158,"long":-85.5182},{"zip":"47385","city":"Spiceland","state":"IN","lat":39.8271,"long":-85.445},{"zip":"47386","city":"Springport","state":"IN","lat":40.0527,"long":-85.3833},{"zip":"47387","city":"Straughn","state":"IN","lat":39.8319,"long":-85.2724},{"zip":"47388","city":"Sulphur Springs","state":"IN","lat":40.006,"long":-85.4434},{"zip":"47220","city":"Brownstown","state":"IN","lat":38.8836,"long":-86.0486},{"zip":"47228","city":"Cortland","state":"IN","lat":38.9745,"long":-85.9628},{"zip":"47229","city":"Crothersville","state":"IN","lat":38.8067,"long":-85.847},{"zip":"47235","city":"Freetown","state":"IN","lat":38.9957,"long":-86.1241},{"zip":"47249","city":"Kurtz","state":"IN","lat":38.9606,"long":-86.2033},{"zip":"47260","city":"Medora","state":"IN","lat":38.8255,"long":-86.1897},{"zip":"47264","city":"Norman","state":"IN","lat":38.9526,"long":-86.275},{"zip":"47274","city":"Seymour","state":"IN","lat":38.9571,"long":-85.8825},{"zip":"47281","city":"Vallonia","state":"IN","lat":38.8174,"long":-86.069},{"zip":"47943","city":"Fair Oaks","state":"IN","lat":41.075,"long":-87.2575},{"zip":"47977","city":"Remington","state":"IN","lat":40.7667,"long":-87.1599},{"zip":"47978","city":"Rensselaer","state":"IN","lat":40.9948,"long":-87.1037},{"zip":"47326","city":"Bryant","state":"IN","lat":40.5446,"long":-84.9117},{"zip":"47336","city":"Dunkirk","state":"IN","lat":40.3883,"long":-85.2255},{"zip":"47369","city":"Pennville","state":"IN","lat":40.5082,"long":-85.1492},{"zip":"47371","city":"Portland","state":"IN","lat":40.4306,"long":-84.9928},{"zip":"47373","city":"Redkey","state":"IN","lat":40.3265,"long":-85.162},{"zip":"47381","city":"Salamonia","state":"IN","lat":40.3818,"long":-84.8669},{"zip":"47224","city":"Canaan","state":"IN","lat":38.887,"long":-85.2213},{"zip":"47230","city":"Deputy","state":"IN","lat":38.7759,"long":-85.6304},{"zip":"47231","city":"Dupont","state":"IN","lat":38.8905,"long":-85.5092},{"zip":"47243","city":"Hanover","state":"IN","lat":38.7138,"long":-85.4763},{"zip":"47250","city":"Madison","state":"IN","lat":38.7649,"long":-85.407},{"zip":"47223","city":"Butlerville","state":"IN","lat":39.0491,"long":-85.4789},{"zip":"47227","city":"Commiskey","state":"IN","lat":38.8526,"long":-85.6434},{"zip":"47245","city":"Hayden","state":"IN","lat":38.9831,"long":-85.7405},{"zip":"47265","city":"North Vernon","state":"IN","lat":39.0018,"long":-85.6272},{"zip":"47270","city":"Paris Crossing","state":"IN","lat":38.8558,"long":-85.7487},{"zip":"47273","city":"Scipio","state":"IN","lat":39.0665,"long":-85.7129},{"zip":"47282","city":"Vernon","state":"IN","lat":38.9848,"long":-85.6094},{"zip":"47512","city":"Bicknell","state":"IN","lat":38.7727,"long":-87.3137},{"zip":"47516","city":"Bruceville","state":"IN","lat":38.7563,"long":-87.4313},{"zip":"47524","city":"Decker","state":"IN","lat":38.5076,"long":-87.5537},{"zip":"47528","city":"Edwardsport","state":"IN","lat":38.8106,"long":-87.2519},{"zip":"47535","city":"Freelandville","state":"IN","lat":38.8627,"long":-87.3127},{"zip":"47557","city":"Monroe City","state":"IN","lat":38.6001,"long":-87.3641},{"zip":"47561","city":"Oaktown","state":"IN","lat":38.8579,"long":-87.3879},{"zip":"47573","city":"Ragsdale","state":"IN","lat":38.7441,"long":-87.3214},{"zip":"47578","city":"Sandborn","state":"IN","lat":38.8817,"long":-87.2025},{"zip":"47591","city":"Vincennes","state":"IN","lat":38.6734,"long":-87.5098},{"zip":"47596","city":"Westphalia","state":"IN","lat":38.8628,"long":-87.2256},{"zip":"47597","city":"Wheatland","state":"IN","lat":38.6671,"long":-87.3062},{"zip":"47420","city":"Avoca","state":"IN","lat":38.9132,"long":-86.5489},{"zip":"47421","city":"Bedford","state":"IN","lat":38.8729,"long":-86.4871},{"zip":"47436","city":"Heltonville","state":"IN","lat":38.948,"long":-86.3703},{"zip":"47437","city":"Huron","state":"IN","lat":38.7222,"long":-86.671},{"zip":"47446","city":"Mitchell","state":"IN","lat":38.7426,"long":-86.4761},{"zip":"47451","city":"Oolitic","state":"IN","lat":38.8938,"long":-86.5246},{"zip":"47462","city":"Springville","state":"IN","lat":38.9507,"long":-86.6139},{"zip":"47467","city":"Tunnelton","state":"IN","lat":38.7687,"long":-86.3428},{"zip":"47470","city":"Williams","state":"IN","lat":38.7735,"long":-86.6285},{"zip":"47522","city":"Crane","state":"IN","lat":38.8949,"long":-86.9002},{"zip":"47553","city":"Loogootee","state":"IN","lat":38.6629,"long":-86.9137},{"zip":"47581","city":"Shoals","state":"IN","lat":38.6791,"long":-86.7761},{"zip":"47401","city":"Bloomington","state":"IN","lat":39.1401,"long":-86.5083},{"zip":"47402","city":"Bloomington","state":"IN","lat":39.1732,"long":-86.5015},{"zip":"47403","city":"Bloomington","state":"IN","lat":39.1263,"long":-86.5769},{"zip":"47404","city":"Bloomington","state":"IN","lat":39.195,"long":-86.5757},{"zip":"47405","city":"Bloomington","state":"IN","lat":39.1682,"long":-86.5186},{"zip":"47406","city":"Bloomington","state":"IN","lat":39.1745,"long":-86.5183},{"zip":"47407","city":"Bloomington","state":"IN","lat":39.1732,"long":-86.5015},{"zip":"47408","city":"Bloomington","state":"IN","lat":39.2303,"long":-86.4692},{"zip":"47426","city":"Clear Creek","state":"IN","lat":39.1732,"long":-86.5015},{"zip":"47429","city":"Ellettsville","state":"IN","lat":39.2545,"long":-86.6196},{"zip":"47434","city":"Harrodsburg","state":"IN","lat":39.013,"long":-86.5457},{"zip":"47458","city":"Smithville","state":"IN","lat":39.1732,"long":-86.5015},{"zip":"47463","city":"Stanford","state":"IN","lat":39.0859,"long":-86.6689},{"zip":"47464","city":"Stinesville","state":"IN","lat":39.2998,"long":-86.6482},{"zip":"47468","city":"Unionville","state":"IN","lat":39.2514,"long":-86.4189},{"zip":"47916","city":"Alamo","state":"IN","lat":39.9836,"long":-87.0554},{"zip":"47933","city":"Crawfordsville","state":"IN","lat":40.0325,"long":-86.9074},{"zip":"47940","city":"Darlington","state":"IN","lat":40.1118,"long":-86.7645},{"zip":"47954","city":"Ladoga","state":"IN","lat":39.9132,"long":-86.8031},{"zip":"47955","city":"Linden","state":"IN","lat":40.1833,"long":-86.8905},{"zip":"47965","city":"New Market","state":"IN","lat":39.9524,"long":-86.9206},{"zip":"47967","city":"New Richmond","state":"IN","lat":40.1812,"long":-86.9789},{"zip":"47968","city":"New Ross","state":"IN","lat":39.9883,"long":-86.7528},{"zip":"47989","city":"Waveland","state":"IN","lat":39.902,"long":-87.0178},{"zip":"47990","city":"Waynetown","state":"IN","lat":40.0858,"long":-87.0512},{"zip":"47994","city":"Wingate","state":"IN","lat":40.1666,"long":-87.0664},{"zip":"47922","city":"Brook","state":"IN","lat":40.8655,"long":-87.3527},{"zip":"47948","city":"Goodland","state":"IN","lat":40.7669,"long":-87.2999},{"zip":"47951","city":"Kentland","state":"IN","lat":40.7877,"long":-87.4471},{"zip":"47963","city":"Morocco","state":"IN","lat":40.9645,"long":-87.4187},{"zip":"47964","city":"Mount Ayr","state":"IN","lat":40.9521,"long":-87.2986},{"zip":"47040","city":"Rising Sun","state":"IN","lat":38.9567,"long":-84.8807},{"zip":"47432","city":"French Lick","state":"IN","lat":38.5324,"long":-86.6196},{"zip":"47452","city":"Orleans","state":"IN","lat":38.6535,"long":-86.4532},{"zip":"47454","city":"Paoli","state":"IN","lat":38.5507,"long":-86.449},{"zip":"47469","city":"West Baden Springs","state":"IN","lat":38.6208,"long":-86.5899},{"zip":"47427","city":"Coal City","state":"IN","lat":39.2303,"long":-87.0458},{"zip":"47431","city":"Freedom","state":"IN","lat":39.2151,"long":-86.85},{"zip":"47433","city":"Gosport","state":"IN","lat":39.345,"long":-86.6583},{"zip":"47455","city":"Patricksburg","state":"IN","lat":39.3165,"long":-86.9562},{"zip":"47456","city":"Quincy","state":"IN","lat":39.4429,"long":-86.6696},{"zip":"47460","city":"Spencer","state":"IN","lat":39.2891,"long":-86.7789},{"zip":"47830","city":"Bellmore","state":"IN","lat":39.7791,"long":-87.2218},{"zip":"47832","city":"Bloomingdale","state":"IN","lat":39.8348,"long":-87.256},{"zip":"47836","city":"Bridgeton","state":"IN","lat":39.645,"long":-87.1775},{"zip":"47859","city":"Marshall","state":"IN","lat":39.9062,"long":-87.178},{"zip":"47860","city":"Mecca","state":"IN","lat":39.7219,"long":-87.3303},{"zip":"47862","city":"Montezuma","state":"IN","lat":39.7961,"long":-87.3607},{"zip":"47872","city":"Rockville","state":"IN","lat":39.7682,"long":-87.1978},{"zip":"47874","city":"Rosedale","state":"IN","lat":39.6239,"long":-87.3086},{"zip":"47514","city":"Branchville","state":"IN","lat":38.1572,"long":-86.5859},{"zip":"47515","city":"Bristow","state":"IN","lat":38.1981,"long":-86.6821},{"zip":"47520","city":"Cannelton","state":"IN","lat":37.9495,"long":-86.7156},{"zip":"47525","city":"Derby","state":"IN","lat":38.0239,"long":-86.577},{"zip":"47551","city":"Leopold","state":"IN","lat":38.1011,"long":-86.6044},{"zip":"47574","city":"Rome","state":"IN","lat":37.9372,"long":-86.534},{"zip":"47576","city":"Saint Croix","state":"IN","lat":38.1834,"long":-86.6058},{"zip":"47586","city":"Tell City","state":"IN","lat":37.9655,"long":-86.7457},{"zip":"47564","city":"Otwell","state":"IN","lat":38.4662,"long":-87.0985},{"zip":"47567","city":"Petersburg","state":"IN","lat":38.4789,"long":-87.2883},{"zip":"47584","city":"Spurgeon","state":"IN","lat":38.2523,"long":-87.2572},{"zip":"47585","city":"Stendal","state":"IN","lat":38.2835,"long":-87.1205},{"zip":"47590","city":"Velpen","state":"IN","lat":38.368,"long":-87.099},{"zip":"47598","city":"Winslow","state":"IN","lat":38.364,"long":-87.2223},{"zip":"47612","city":"Cynthiana","state":"IN","lat":38.193,"long":-87.6992},{"zip":"47616","city":"Griffin","state":"IN","lat":38.2069,"long":-87.9166},{"zip":"47620","city":"Mount Vernon","state":"IN","lat":37.9506,"long":-87.8569},{"zip":"47631","city":"New Harmony","state":"IN","lat":38.1245,"long":-87.9172},{"zip":"47633","city":"Poseyville","state":"IN","lat":38.172,"long":-87.8027},{"zip":"47638","city":"Wadesville","state":"IN","lat":38.0828,"long":-87.7543},{"zip":"47946","city":"Francesville","state":"IN","lat":40.9709,"long":-86.8553},{"zip":"47957","city":"Medaryville","state":"IN","lat":41.0897,"long":-86.8808},{"zip":"47340","city":"Farmland","state":"IN","lat":40.1945,"long":-85.1254},{"zip":"47354","city":"Losantville","state":"IN","lat":40.0475,"long":-85.2108},{"zip":"47355","city":"Lynn","state":"IN","lat":40.0519,"long":-84.93},{"zip":"47358","city":"Modoc","state":"IN","lat":40.0582,"long":-85.0919},{"zip":"47368","city":"Parker City","state":"IN","lat":40.1938,"long":-85.1963},{"zip":"47380","city":"Ridgeville","state":"IN","lat":40.2804,"long":-85.0371},{"zip":"47382","city":"Saratoga","state":"IN","lat":40.2347,"long":-84.9185},{"zip":"47390","city":"Union City","state":"IN","lat":40.2024,"long":-84.8268},{"zip":"47394","city":"Winchester","state":"IN","lat":40.1696,"long":-85.0044},{"zip":"47006","city":"Batesville","state":"IN","lat":39.3001,"long":-85.2221},{"zip":"47017","city":"Cross Plains","state":"IN","lat":38.949,"long":-85.2122},{"zip":"47021","city":"Friendship","state":"IN","lat":38.9703,"long":-85.1504},{"zip":"47023","city":"Holton","state":"IN","lat":39.0498,"long":-85.3739},{"zip":"47031","city":"Milan","state":"IN","lat":39.1503,"long":-85.1324},{"zip":"47033","city":"Morris","state":"IN","lat":39.2814,"long":-85.1739},{"zip":"47034","city":"Napoleon","state":"IN","lat":39.2048,"long":-85.327},{"zip":"47037","city":"Osgood","state":"IN","lat":39.1573,"long":-85.2938},{"zip":"47039","city":"Pierceville","state":"IN","lat":39.1116,"long":-85.2551},{"zip":"47041","city":"Sunman","state":"IN","lat":39.237,"long":-85.0947},{"zip":"47042","city":"Versailles","state":"IN","lat":39.0511,"long":-85.2235},{"zip":"47102","city":"Austin","state":"IN","lat":38.7478,"long":-85.7962},{"zip":"47138","city":"Lexington","state":"IN","lat":38.6523,"long":-85.6252},{"zip":"47170","city":"Scottsburg","state":"IN","lat":38.6885,"long":-85.7987},{"zip":"47234","city":"Flat Rock","state":"IN","lat":39.3774,"long":-85.7679},{"zip":"47523","city":"Dale","state":"IN","lat":38.1706,"long":-87.007},{"zip":"47531","city":"Evanston","state":"IN","lat":38.0224,"long":-86.8364},{"zip":"47536","city":"Fulda","state":"IN","lat":38.1114,"long":-86.8361},{"zip":"47537","city":"Gentryville","state":"IN","lat":38.0855,"long":-87.0441},{"zip":"47550","city":"Lamar","state":"IN","lat":38.0429,"long":-86.9497},{"zip":"47552","city":"Lincoln City","state":"IN","lat":38.1242,"long":-86.996},{"zip":"47556","city":"Mariah Hill","state":"IN","lat":38.1664,"long":-86.9172},{"zip":"47577","city":"Saint Meinrad","state":"IN","lat":38.1712,"long":-86.8092},{"zip":"47579","city":"Santa Claus","state":"IN","lat":38.1176,"long":-86.9286},{"zip":"47588","city":"Troy","state":"IN","lat":38.0331,"long":-86.7981},{"zip":"47611","city":"Chrisney","state":"IN","lat":38.0148,"long":-87.0364},{"zip":"47615","city":"Grandview","state":"IN","lat":37.9703,"long":-86.9568},{"zip":"47617","city":"Hatfield","state":"IN","lat":37.9036,"long":-87.2499},{"zip":"47634","city":"Richland","state":"IN","lat":37.9136,"long":-87.201},{"zip":"47635","city":"Rockport","state":"IN","lat":37.8858,"long":-87.077},{"zip":"47838","city":"Carlisle","state":"IN","lat":38.9763,"long":-87.3667},{"zip":"47848","city":"Dugger","state":"IN","lat":39.0691,"long":-87.2599},{"zip":"47849","city":"Fairbanks","state":"IN","lat":39.1901,"long":-87.547},{"zip":"47850","city":"Farmersburg","state":"IN","lat":39.2685,"long":-87.5024},{"zip":"47852","city":"Graysville","state":"IN","lat":39.0805,"long":-87.4496},{"zip":"47855","city":"Hymera","state":"IN","lat":39.1833,"long":-87.2994},{"zip":"47861","city":"Merom","state":"IN","lat":39.0564,"long":-87.5675},{"zip":"47865","city":"Paxton","state":"IN","lat":39.0212,"long":-87.3886},{"zip":"47879","city":"Shelburn","state":"IN","lat":39.1784,"long":-87.3936},{"zip":"47882","city":"Sullivan","state":"IN","lat":39.101,"long":-87.4102},{"zip":"47011","city":"Bennington","state":"IN","lat":38.876,"long":-85.0719},{"zip":"47019","city":"East Enterprise","state":"IN","lat":38.8728,"long":-84.988},{"zip":"47020","city":"Florence","state":"IN","lat":38.8224,"long":-84.9399},{"zip":"47038","city":"Patriot","state":"IN","lat":38.8537,"long":-84.8515},{"zip":"47043","city":"Vevay","state":"IN","lat":38.7724,"long":-85.0852},{"zip":"47901","city":"Lafayette","state":"IN","lat":40.4177,"long":-86.8884},{"zip":"47902","city":"Lafayette","state":"IN","lat":40.3887,"long":-86.8949},{"zip":"47903","city":"Lafayette","state":"IN","lat":40.3044,"long":-86.8245},{"zip":"47904","city":"Lafayette","state":"IN","lat":40.4276,"long":-86.8735},{"zip":"47905","city":"Lafayette","state":"IN","lat":40.4001,"long":-86.8602},{"zip":"47906","city":"West Lafayette","state":"IN","lat":40.444,"long":-86.9237},{"zip":"47907","city":"West Lafayette","state":"IN","lat":40.4249,"long":-86.9162},{"zip":"47909","city":"Lafayette","state":"IN","lat":40.3228,"long":-86.8881},{"zip":"47920","city":"Battle Ground","state":"IN","lat":40.5248,"long":-86.8238},{"zip":"47924","city":"Buck Creek","state":"IN","lat":40.4876,"long":-86.7631},{"zip":"47930","city":"Clarks Hill","state":"IN","lat":40.247,"long":-86.725},{"zip":"47941","city":"Dayton","state":"IN","lat":40.3761,"long":-86.774},{"zip":"47962","city":"Montmorenci","state":"IN","lat":40.4732,"long":-87.0276},{"zip":"47981","city":"Romney","state":"IN","lat":40.258,"long":-86.9208},{"zip":"47983","city":"Stockwell","state":"IN","lat":40.2845,"long":-86.7724},{"zip":"47992","city":"Westpoint","state":"IN","lat":40.3581,"long":-87.0575},{"zip":"47996","city":"West Lafayette","state":"IN","lat":40.3887,"long":-86.8949},{"zip":"47325","city":"Brownsville","state":"IN","lat":39.6845,"long":-84.9881},{"zip":"47353","city":"Liberty","state":"IN","lat":39.6126,"long":-84.9089},{"zip":"47618","city":"Inglefield","state":"IN","lat":38.1081,"long":-87.5589},{"zip":"47701","city":"Evansville","state":"IN","lat":37.9971,"long":-87.575},{"zip":"47702","city":"Evansville","state":"IN","lat":37.9971,"long":-87.575},{"zip":"47703","city":"Evansville","state":"IN","lat":37.9971,"long":-87.575},{"zip":"47704","city":"Evansville","state":"IN","lat":37.9971,"long":-87.575},{"zip":"47705","city":"Evansville","state":"IN","lat":37.9971,"long":-87.575},{"zip":"47706","city":"Evansville","state":"IN","lat":37.9971,"long":-87.575},{"zip":"47708","city":"Evansville","state":"IN","lat":37.9718,"long":-87.572},{"zip":"47710","city":"Evansville","state":"IN","lat":38.0086,"long":-87.5746},{"zip":"47711","city":"Evansville","state":"IN","lat":38.0617,"long":-87.5548},{"zip":"47712","city":"Evansville","state":"IN","lat":37.929,"long":-87.6604},{"zip":"47713","city":"Evansville","state":"IN","lat":37.9623,"long":-87.5577},{"zip":"47714","city":"Evansville","state":"IN","lat":37.9591,"long":-87.5293},{"zip":"47715","city":"Evansville","state":"IN","lat":37.9678,"long":-87.4855},{"zip":"47716","city":"Evansville","state":"IN","lat":37.9971,"long":-87.575},{"zip":"47719","city":"Evansville","state":"IN","lat":37.9971,"long":-87.575},{"zip":"47720","city":"Evansville","state":"IN","lat":38.0599,"long":-87.638},{"zip":"47721","city":"Evansville","state":"IN","lat":37.978,"long":-87.6008},{"zip":"47722","city":"Evansville","state":"IN","lat":37.9702,"long":-87.542},{"zip":"47724","city":"Evansville","state":"IN","lat":37.9971,"long":-87.575},{"zip":"47725","city":"Evansville","state":"IN","lat":38.1071,"long":-87.5256},{"zip":"47728","city":"Evansville","state":"IN","lat":37.9971,"long":-87.575},{"zip":"47730","city":"Evansville","state":"IN","lat":37.9971,"long":-87.575},{"zip":"47731","city":"Evansville","state":"IN","lat":37.9971,"long":-87.575},{"zip":"47732","city":"Evansville","state":"IN","lat":37.9971,"long":-87.575},{"zip":"47733","city":"Evansville","state":"IN","lat":37.9971,"long":-87.575},{"zip":"47734","city":"Evansville","state":"IN","lat":37.9971,"long":-87.575},{"zip":"47735","city":"Evansville","state":"IN","lat":37.9971,"long":-87.575},{"zip":"47736","city":"Evansville","state":"IN","lat":37.9971,"long":-87.575},{"zip":"47737","city":"Evansville","state":"IN","lat":37.9971,"long":-87.575},{"zip":"47740","city":"Evansville","state":"IN","lat":37.9971,"long":-87.575},{"zip":"47747","city":"Evansville","state":"IN","lat":37.9971,"long":-87.575},{"zip":"47750","city":"Evansville","state":"IN","lat":37.9623,"long":-87.5055},{"zip":"47831","city":"Blanford","state":"IN","lat":39.665,"long":-87.5206},{"zip":"47842","city":"Clinton","state":"IN","lat":39.6591,"long":-87.4208},{"zip":"47847","city":"Dana","state":"IN","lat":39.839,"long":-87.4712},{"zip":"47854","city":"Hillsdale","state":"IN","lat":39.7712,"long":-87.4041},{"zip":"47875","city":"Saint Bernice","state":"IN","lat":39.8778,"long":-87.4436},{"zip":"47884","city":"Universal","state":"IN","lat":39.6221,"long":-87.4548},{"zip":"47928","city":"Cayuga","state":"IN","lat":39.93,"long":-87.459},{"zip":"47966","city":"Newport","state":"IN","lat":39.8842,"long":-87.4086},{"zip":"47974","city":"Perrysville","state":"IN","lat":40.0737,"long":-87.4648},{"zip":"47801","city":"Terre Haute","state":"IN","lat":39.4667,"long":-87.4139},{"zip":"47802","city":"Terre Haute","state":"IN","lat":39.407,"long":-87.402},{"zip":"47803","city":"Terre Haute","state":"IN","lat":39.4657,"long":-87.354},{"zip":"47804","city":"Terre Haute","state":"IN","lat":39.4937,"long":-87.3945},{"zip":"47805","city":"Terre Haute","state":"IN","lat":39.5327,"long":-87.3255},{"zip":"47807","city":"Terre Haute","state":"IN","lat":39.471,"long":-87.4009},{"zip":"47808","city":"Terre Haute","state":"IN","lat":39.4336,"long":-87.4101},{"zip":"47809","city":"Terre Haute","state":"IN","lat":39.471,"long":-87.4111},{"zip":"47851","city":"Fontanet","state":"IN","lat":39.5737,"long":-87.2454},{"zip":"47858","city":"Lewis","state":"IN","lat":39.2733,"long":-87.2637},{"zip":"47863","city":"New Goshen","state":"IN","lat":39.5803,"long":-87.4616},{"zip":"47866","city":"Pimento","state":"IN","lat":39.2929,"long":-87.3355},{"zip":"47869","city":"Prairie Creek","state":"IN","lat":39.275,"long":-87.4972},{"zip":"47870","city":"Prairieton","state":"IN","lat":39.3712,"long":-87.4759},{"zip":"47871","city":"Riley","state":"IN","lat":39.39,"long":-87.3},{"zip":"47876","city":"Saint Mary Of The Woods","state":"IN","lat":39.4336,"long":-87.4101},{"zip":"47878","city":"Seelyville","state":"IN","lat":39.4928,"long":-87.2665},{"zip":"47880","city":"Shepardsville","state":"IN","lat":39.6006,"long":-87.4196},{"zip":"47885","city":"West Terre Haute","state":"IN","lat":39.4984,"long":-87.4688},{"zip":"47975","city":"Pine Village","state":"IN","lat":40.4328,"long":-87.2317},{"zip":"47982","city":"State Line","state":"IN","lat":40.1967,"long":-87.5265},{"zip":"47991","city":"West Lebanon","state":"IN","lat":40.2659,"long":-87.4384},{"zip":"47993","city":"Williamsport","state":"IN","lat":40.3142,"long":-87.4039},{"zip":"47601","city":"Boonville","state":"IN","lat":38.0474,"long":-87.262},{"zip":"47610","city":"Chandler","state":"IN","lat":38.0423,"long":-87.3756},{"zip":"47613","city":"Elberfeld","state":"IN","lat":38.2053,"long":-87.4179},{"zip":"47619","city":"Lynnville","state":"IN","lat":38.1961,"long":-87.2935},{"zip":"47629","city":"Newburgh","state":"IN","lat":38.0624,"long":-87.2452},{"zip":"47630","city":"Newburgh","state":"IN","lat":37.9637,"long":-87.3938},{"zip":"47637","city":"Tennyson","state":"IN","lat":38.1232,"long":-87.1388},{"zip":"47108","city":"Campbellsburg","state":"IN","lat":38.669,"long":-86.2358},{"zip":"47120","city":"Fredericksburg","state":"IN","lat":38.4331,"long":-86.1897},{"zip":"47125","city":"Hardinsburg","state":"IN","lat":38.4626,"long":-86.318},{"zip":"47165","city":"Pekin","state":"IN","lat":38.4931,"long":-86.017},{"zip":"47167","city":"Salem","state":"IN","lat":38.6071,"long":-86.0787},{"zip":"47324","city":"Boston","state":"IN","lat":39.7412,"long":-84.8519},{"zip":"47327","city":"Cambridge City","state":"IN","lat":39.8182,"long":-85.1685},{"zip":"47330","city":"Centerville","state":"IN","lat":39.8081,"long":-85.0032},{"zip":"47335","city":"Dublin","state":"IN","lat":39.8127,"long":-85.2044},{"zip":"47339","city":"Economy","state":"IN","lat":39.9781,"long":-85.088},{"zip":"47341","city":"Fountain City","state":"IN","lat":39.9634,"long":-84.909},{"zip":"47345","city":"Greens Fork","state":"IN","lat":39.8916,"long":-85.0494},{"zip":"47346","city":"Hagerstown","state":"IN","lat":39.9228,"long":-85.1601},{"zip":"47357","city":"Milton","state":"IN","lat":39.7763,"long":-85.1423},{"zip":"47370","city":"Pershing","state":"IN","lat":39.8613,"long":-85.1474},{"zip":"47374","city":"Richmond","state":"IN","lat":39.8324,"long":-84.8936},{"zip":"47375","city":"Richmond","state":"IN","lat":39.8289,"long":-84.8902},{"zip":"47392","city":"Webster","state":"IN","lat":39.9119,"long":-84.9351},{"zip":"47393","city":"Williamsburg","state":"IN","lat":39.958,"long":-84.9984},{"zip":"47923","city":"Brookston","state":"IN","lat":40.6011,"long":-86.8753},{"zip":"47925","city":"Buffalo","state":"IN","lat":40.8825,"long":-86.7453},{"zip":"47926","city":"Burnettsville","state":"IN","lat":40.7612,"long":-86.5936},{"zip":"47929","city":"Chalmers","state":"IN","lat":40.6693,"long":-86.8626},{"zip":"47950","city":"Idaville","state":"IN","lat":40.7674,"long":-86.6556},{"zip":"47959","city":"Monon","state":"IN","lat":40.8612,"long":-86.8635},{"zip":"47960","city":"Monticello","state":"IN","lat":40.7626,"long":-86.755},{"zip":"47980","city":"Reynolds","state":"IN","lat":40.7606,"long":-86.8691},{"zip":"47995","city":"Wolcott","state":"IN","lat":40.7516,"long":-87.029}]
