[{"zip":"47501","city":"Washington","state":"IN","lat":38.6536,"long":-87.1707},{"zip":"47519","city":"Cannelburg","state":"IN","lat":38.6698,"long":-86.9983},{"zip":"47529","city":"Elnora","state":"IN","lat":38.8772,"long":-87.085},{"zip":"47558","city":"Montgomery","state":"IN","lat":38.6521,"long":-87.0476},{"zip":"47562","city":"Odon","state":"IN","lat":38.8187,"long":-86.9752},{"zip":"47568","city":"Plainville","state":"IN","lat":38.8062,"long":-87.1522},{"zip":"47513","city":"Birdseye","state":"IN","lat":38.3006,"long":-86.7102},{"zip":"47521","city":"Celestine","state":"IN","lat":38.3878,"long":-86.7568},{"zip":"47527","city":"Dubois","state":"IN","lat":38.4728,"long":-86.7832},{"zip":"47532","city":"Ferdinand","state":"IN","lat":38.2336,"long":-86.8607},{"zip":"47541","city":"Holland","state":"IN","lat":38.2456,"long":-87.0361},{"zip":"47542","city":"Huntingburg","state":"IN","lat":38.2979,"long":-86.9533},{"zip":"47545","city":"Ireland","state":"IN","lat":38.4137,"long":-87.0009},{"zip":"47546","city":"Jasper","state":"IN","lat":38.3604,"long":-86.9295},{"zip":"47547","city":"Jasper","state":"IN","lat":38.3647,"long":-86.8762},{"zip":"47549","city":"Jasper","state":"IN","lat":38.3647,"long":-86.8762},{"zip":"47575","city":"Saint Anthony","state":"IN","lat":38.3211,"long":-86.8234},{"zip":"47580","city":"Schnellville","state":"IN","lat":38.3414,"long":-86.7565},{"zip":"47512","city":"Bicknell","state":"IN","lat":38.7727,"long":-87.3137},{"zip":"47516","city":"Bruceville","state":"IN","lat":38.7563,"long":-87.4313},{"zip":"47524","city":"Decker","state":"IN","lat":38.5076,"long":-87.5537},{"zip":"47528","city":"Edwardsport","state":"IN","lat":38.8106,"long":-87.2519},{"zip":"47535","city":"Freelandville","state":"IN","lat":38.8627,"long":-87.3127},{"zip":"47557","city":"Monroe City","state":"IN","lat":38.6001,"long":-87.3641},{"zip":"47561","city":"Oaktown","state":"IN","lat":38.8579,"long":-87.3879},{"zip":"47573","city":"Ragsdale","state":"IN","lat":38.7441,"long":-87.3214},{"zip":"47578","city":"Sandborn","state":"IN","lat":38.8817,"long":-87.2025},{"zip":"47591","city":"Vincennes","state":"IN","lat":38.6734,"long":-87.5098},{"zip":"47596","city":"Westphalia","state":"IN","lat":38.8628,"long":-87.2256},{"zip":"47597","city":"Wheatland","state":"IN","lat":38.6671,"long":-87.3062},{"zip":"47522","city":"Crane","state":"IN","lat":38.8949,"long":-86.9002},{"zip":"47553","city":"Loogootee","state":"IN","lat":38.6629,"long":-86.9137},{"zip":"47581","city":"Shoals","state":"IN","lat":38.6791,"long":-86.7761},{"zip":"47514","city":"Branchville","state":"IN","lat":38.1572,"long":-86.5859},{"zip":"47515","city":"Bristow","state":"IN","lat":38.1981,"long":-86.6821},{"zip":"47520","city":"Cannelton","state":"IN","lat":37.9495,"long":-86.7156},{"zip":"47525","city":"Derby","state":"IN","lat":38.0239,"long":-86.577},{"zip":"47551","city":"Leopold","state":"IN","lat":38.1011,"long":-86.6044},{"zip":"47574","city":"Rome","state":"IN","lat":37.9372,"long":-86.534},{"zip":"47576","city":"Saint Croix","state":"IN","lat":38.1834,"long":-86.6058},{"zip":"47586","city":"Tell City","state":"IN","lat":37.9655,"long":-86.7457},{"zip":"47564","city":"Otwell","state":"IN","lat":38.4662,"long":-87.0985},{"zip":"47567","city":"Petersburg","state":"IN","lat":38.4789,"long":-87.2883},{"zip":"47584","city":"Spurgeon","state":"IN","lat":38.2523,"long":-87.2572},{"zip":"47585","city":"Stendal","state":"IN","lat":38.2835,"long":-87.1205},{"zip":"47590","city":"Velpen","state":"IN","lat":38.368,"long":-87.099},{"zip":"47598","city":"Winslow","state":"IN","lat":38.364,"long":-87.2223},{"zip":"47523","city":"Dale","state":"IN","lat":38.1706,"long":-87.007},{"zip":"47531","city":"Evanston","state":"IN","lat":38.0224,"long":-86.8364},{"zip":"47536","city":"Fulda","state":"IN","lat":38.1114,"long":-86.8361},{"zip":"47537","city":"Gentryville","state":"IN","lat":38.0855,"long":-87.0441},{"zip":"47550","city":"Lamar","state":"IN","lat":38.0429,"long":-86.9497},{"zip":"47552","city":"Lincoln City","state":"IN","lat":38.1242,"long":-86.996},{"zip":"47556","city":"Mariah Hill","state":"IN","lat":38.1664,"long":-86.9172},{"zip":"47577","city":"Saint Meinrad","state":"IN","lat":38.1712,"long":-86.8092},{"zip":"47579","city":"Santa Claus","state":"IN","lat":38.1176,"long":-86.9286},{"zip":"47588","city":"Troy","state":"IN","lat":38.0331,"long":-86.7981}]
