[{"zip":"47639","city":"Haubstadt","state":"IN","lat":38.1895,"long":-87.5798},{"zip":"47640","city":"Hazleton","state":"IN","lat":38.4623,"long":-87.4983},{"zip":"47647","city":"Buckskin","state":"IN","lat":38.2284,"long":-87.412},{"zip":"47648","city":"Fort Branch","state":"IN","lat":38.2471,"long":-87.5682},{"zip":"47649","city":"Francisco","state":"IN","lat":38.333,"long":-87.4536},{"zip":"47654","city":"Mackey","state":"IN","lat":38.2523,"long":-87.3917},{"zip":"47660","city":"Oakland City","state":"IN","lat":38.3361,"long":-87.3519},{"zip":"47665","city":"Owensville","state":"IN","lat":38.2744,"long":-87.7091},{"zip":"47666","city":"Patoka","state":"IN","lat":38.4143,"long":-87.5958},{"zip":"47670","city":"Princeton","state":"IN","lat":38.3525,"long":-87.5691},{"zip":"47683","city":"Somerville","state":"IN","lat":38.2764,"long":-87.3778},{"zip":"47612","city":"Cynthiana","state":"IN","lat":38.193,"long":-87.6992},{"zip":"47616","city":"Griffin","state":"IN","lat":38.2069,"long":-87.9166},{"zip":"47620","city":"Mount Vernon","state":"IN","lat":37.9506,"long":-87.8569},{"zip":"47631","city":"New Harmony","state":"IN","lat":38.1245,"long":-87.9172},{"zip":"47633","city":"Poseyville","state":"IN","lat":38.172,"long":-87.8027},{"zip":"47638","city":"Wadesville","state":"IN","lat":38.0828,"long":-87.7543},{"zip":"47611","city":"Chrisney","state":"IN","lat":38.0148,"long":-87.0364},{"zip":"47615","city":"Grandview","state":"IN","lat":37.9703,"long":-86.9568},{"zip":"47617","city":"Hatfield","state":"IN","lat":37.9036,"long":-87.2499},{"zip":"47634","city":"Richland","state":"IN","lat":37.9136,"long":-87.201},{"zip":"47635","city":"Rockport","state":"IN","lat":37.8858,"long":-87.077},{"zip":"47618","city":"Inglefield","state":"IN","lat":38.1081,"long":-87.5589},{"zip":"47601","city":"Boonville","state":"IN","lat":38.0474,"long":-87.262},{"zip":"47610","city":"Chandler","state":"IN","lat":38.0423,"long":-87.3756},{"zip":"47613","city":"Elberfeld","state":"IN","lat":38.2053,"long":-87.4179},{"zip":"47619","city":"Lynnville","state":"IN","lat":38.1961,"long":-87.2935},{"zip":"47629","city":"Newburgh","state":"IN","lat":38.0624,"long":-87.2452},{"zip":"47630","city":"Newburgh","state":"IN","lat":37.9637,"long":-87.3938},{"zip":"47637","city":"Tennyson","state":"IN","lat":38.1232,"long":-87.1388}]
