[{"zip":"48705","city":"Barton City","state":"MI","lat":44.702,"long":-83.5994},{"zip":"48721","city":"Black River","state":"MI","lat":44.8138,"long":-83.3407},{"zip":"48728","city":"Curran","state":"MI","lat":44.7336,"long":-83.832},{"zip":"48737","city":"Glennie","state":"MI","lat":44.5582,"long":-83.6899},{"zip":"48738","city":"Greenbush","state":"MI","lat":44.548,"long":-83.3269},{"zip":"48740","city":"Harrisville","state":"MI","lat":44.6546,"long":-83.3424},{"zip":"48742","city":"Lincoln","state":"MI","lat":44.7111,"long":-83.3947},{"zip":"48745","city":"Mikado","state":"MI","lat":44.5833,"long":-83.4355},{"zip":"48762","city":"Spruce","state":"MI","lat":44.8224,"long":-83.5044},{"zip":"48658","city":"Standish","state":"MI","lat":43.9733,"long":-83.9433},{"zip":"48659","city":"Sterling","state":"MI","lat":44.0669,"long":-84.0505},{"zip":"48703","city":"Au Gres","state":"MI","lat":44.0338,"long":-83.702},{"zip":"48749","city":"Omer","state":"MI","lat":44.0499,"long":-83.843},{"zip":"48765","city":"Turner","state":"MI","lat":44.1105,"long":-83.7019},{"zip":"48766","city":"Twining","state":"MI","lat":44.1293,"long":-83.8491},{"zip":"48897","city":"Woodland","state":"MI","lat":42.7057,"long":-85.1326},{"zip":"48611","city":"Auburn","state":"MI","lat":43.608,"long":-84.1027},{"zip":"48613","city":"Bentley","state":"MI","lat":43.9267,"long":-84.1053},{"zip":"48631","city":"Kawkawlin","state":"MI","lat":43.6794,"long":-83.9927},{"zip":"48634","city":"Linwood","state":"MI","lat":43.7714,"long":-84.0513},{"zip":"48650","city":"Pinconning","state":"MI","lat":43.8491,"long":-84.0082},{"zip":"48706","city":"Bay City","state":"MI","lat":43.6088,"long":-83.953},{"zip":"48707","city":"Bay City","state":"MI","lat":43.7378,"long":-83.9333},{"zip":"48708","city":"Bay City","state":"MI","lat":43.5821,"long":-83.8781},{"zip":"48710","city":"University Center","state":"MI","lat":43.5566,"long":-83.9943},{"zip":"48732","city":"Essexville","state":"MI","lat":43.6069,"long":-83.8217},{"zip":"48747","city":"Munger","state":"MI","lat":43.5286,"long":-83.7672},{"zip":"48617","city":"Clare","state":"MI","lat":43.8223,"long":-84.7635},{"zip":"48622","city":"Farwell","state":"MI","lat":43.8342,"long":-84.8754},{"zip":"48625","city":"Harrison","state":"MI","lat":44.0285,"long":-84.7729},{"zip":"48632","city":"Lake","state":"MI","lat":43.8575,"long":-85.0219},{"zip":"48633","city":"Lake George","state":"MI","lat":43.9583,"long":-84.9193},{"zip":"48808","city":"Bath","state":"MI","lat":42.8206,"long":-84.4545},{"zip":"48820","city":"Dewitt","state":"MI","lat":42.8428,"long":-84.5797},{"zip":"48822","city":"Eagle","state":"MI","lat":42.8263,"long":-84.759},{"zip":"48831","city":"Elsie","state":"MI","lat":43.0886,"long":-84.3869},{"zip":"48833","city":"Eureka","state":"MI","lat":43.1036,"long":-84.5139},{"zip":"48835","city":"Fowler","state":"MI","lat":42.9941,"long":-84.76},{"zip":"48853","city":"Maple Rapids","state":"MI","lat":43.0992,"long":-84.6898},{"zip":"48866","city":"Ovid","state":"MI","lat":42.9969,"long":-84.3649},{"zip":"48879","city":"Saint Johns","state":"MI","lat":43.0059,"long":-84.5719},{"zip":"48894","city":"Westphalia","state":"MI","lat":42.9328,"long":-84.8083},{"zip":"48813","city":"Charlotte","state":"MI","lat":42.5702,"long":-84.8352},{"zip":"48821","city":"Dimondale","state":"MI","lat":42.6501,"long":-84.6486},{"zip":"48827","city":"Eaton Rapids","state":"MI","lat":42.5166,"long":-84.6565},{"zip":"48837","city":"Grand Ledge","state":"MI","lat":42.7529,"long":-84.7373},{"zip":"48861","city":"Mulliken","state":"MI","lat":42.7377,"long":-84.8979},{"zip":"48876","city":"Potterville","state":"MI","lat":42.6398,"long":-84.7346},{"zip":"48890","city":"Sunfield","state":"MI","lat":42.7693,"long":-84.9813},{"zip":"48908","city":"Lansing","state":"MI","lat":42.5961,"long":-84.8382},{"zip":"48917","city":"Lansing","state":"MI","lat":42.7376,"long":-84.6244},{"zip":"48411","city":"Atlas","state":"MI","lat":42.94,"long":-83.5369},{"zip":"48420","city":"Clio","state":"MI","lat":43.1779,"long":-83.7249},{"zip":"48423","city":"Davison","state":"MI","lat":43.0348,"long":-83.5268},{"zip":"48430","city":"Fenton","state":"MI","lat":42.7851,"long":-83.7294},{"zip":"48433","city":"Flushing","state":"MI","lat":43.072,"long":-83.8424},{"zip":"48436","city":"Gaines","state":"MI","lat":42.8813,"long":-83.8855},{"zip":"48437","city":"Genesee","state":"MI","lat":43.1123,"long":-83.6154},{"zip":"48438","city":"Goodrich","state":"MI","lat":42.9147,"long":-83.4845},{"zip":"48439","city":"Grand Blanc","state":"MI","lat":42.9282,"long":-83.6264},{"zip":"48449","city":"Lennon","state":"MI","lat":42.9693,"long":-83.9279},{"zip":"48451","city":"Linden","state":"MI","lat":42.8104,"long":-83.7993},{"zip":"48457","city":"Montrose","state":"MI","lat":43.1754,"long":-83.8824},{"zip":"48458","city":"Mount Morris","state":"MI","lat":43.116,"long":-83.6895},{"zip":"48463","city":"Otisville","state":"MI","lat":43.1706,"long":-83.5172},{"zip":"48473","city":"Swartz Creek","state":"MI","lat":42.9468,"long":-83.817},{"zip":"48480","city":"Grand Blanc","state":"MI","lat":42.918,"long":-83.617},{"zip":"48501","city":"Flint","state":"MI","lat":42.9659,"long":-83.7808},{"zip":"48502","city":"Flint","state":"MI","lat":43.0151,"long":-83.6948},{"zip":"48503","city":"Flint","state":"MI","lat":43.0128,"long":-83.6914},{"zip":"48504","city":"Flint","state":"MI","lat":43.0573,"long":-83.7498},{"zip":"48505","city":"Flint","state":"MI","lat":43.0634,"long":-83.7001},{"zip":"48506","city":"Flint","state":"MI","lat":43.0653,"long":-83.631},{"zip":"48507","city":"Flint","state":"MI","lat":42.9821,"long":-83.734},{"zip":"48509","city":"Burton","state":"MI","lat":43.0259,"long":-83.6041},{"zip":"48519","city":"Burton","state":"MI","lat":42.9859,"long":-83.6135},{"zip":"48529","city":"Burton","state":"MI","lat":42.9744,"long":-83.6629},{"zip":"48531","city":"Flint","state":"MI","lat":43.002,"long":-83.6925},{"zip":"48532","city":"Flint","state":"MI","lat":43.0111,"long":-83.803},{"zip":"48550","city":"Flint","state":"MI","lat":43.0349,"long":-83.6887},{"zip":"48551","city":"Flint","state":"MI","lat":42.979,"long":-83.7131},{"zip":"48552","city":"Flint","state":"MI","lat":42.9779,"long":-83.7131},{"zip":"48553","city":"Flint","state":"MI","lat":42.9736,"long":-83.7203},{"zip":"48554","city":"Flint","state":"MI","lat":42.9722,"long":-83.7946},{"zip":"48555","city":"Flint","state":"MI","lat":43.0113,"long":-83.7108},{"zip":"48556","city":"Flint","state":"MI","lat":43.0327,"long":-83.6463},{"zip":"48557","city":"Flint","state":"MI","lat":43.0806,"long":-83.7837},{"zip":"48612","city":"Beaverton","state":"MI","lat":43.8866,"long":-84.4241},{"zip":"48624","city":"Gladwin","state":"MI","lat":44.0296,"long":-84.4968},{"zip":"48638","city":"Saginaw","state":"MI","lat":43.4343,"long":-84.0091},{"zip":"48652","city":"Rhodes","state":"MI","lat":43.8517,"long":-84.2134},{"zip":"48615","city":"Breckenridge","state":"MI","lat":43.3935,"long":-84.5023},{"zip":"48662","city":"Wheeler","state":"MI","lat":43.3962,"long":-84.4243},{"zip":"48801","city":"Alma","state":"MI","lat":43.3809,"long":-84.6635},{"zip":"48806","city":"Ashley","state":"MI","lat":43.1891,"long":-84.488},{"zip":"48807","city":"Bannister","state":"MI","lat":43.1615,"long":-84.3597},{"zip":"48830","city":"Elm Hall","state":"MI","lat":43.3639,"long":-84.8362},{"zip":"48832","city":"Elwell","state":"MI","lat":43.4106,"long":-84.7631},{"zip":"48847","city":"Ithaca","state":"MI","lat":43.2828,"long":-84.6088},{"zip":"48856","city":"Middleton","state":"MI","lat":43.1689,"long":-84.7552},{"zip":"48862","city":"North Star","state":"MI","lat":43.2484,"long":-84.5433},{"zip":"48871","city":"Perrinton","state":"MI","lat":43.1649,"long":-84.666},{"zip":"48874","city":"Pompeii","state":"MI","lat":43.1863,"long":-84.6017},{"zip":"48877","city":"Riverdale","state":"MI","lat":43.4017,"long":-84.8429},{"zip":"48880","city":"Saint Louis","state":"MI","lat":43.4278,"long":-84.5952},{"zip":"48889","city":"Sumner","state":"MI","lat":43.3091,"long":-84.7907},{"zip":"48413","city":"Bad Axe","state":"MI","lat":43.8067,"long":-83.0054},{"zip":"48432","city":"Filion","state":"MI","lat":43.9014,"long":-82.9825},{"zip":"48441","city":"Harbor Beach","state":"MI","lat":43.8312,"long":-82.6886},{"zip":"48445","city":"Kinde","state":"MI","lat":43.948,"long":-82.9755},{"zip":"48467","city":"Port Austin","state":"MI","lat":44.0223,"long":-82.9984},{"zip":"48468","city":"Port Hope","state":"MI","lat":43.928,"long":-82.7529},{"zip":"48470","city":"Ruth","state":"MI","lat":43.7404,"long":-82.7414},{"zip":"48475","city":"Ubly","state":"MI","lat":43.6896,"long":-82.964},{"zip":"48720","city":"Bay Port","state":"MI","lat":43.8377,"long":-83.3525},{"zip":"48725","city":"Caseville","state":"MI","lat":43.9429,"long":-83.2659},{"zip":"48731","city":"Elkton","state":"MI","lat":43.8344,"long":-83.1786},{"zip":"48754","city":"Owendale","state":"MI","lat":43.7206,"long":-83.2307},{"zip":"48755","city":"Pigeon","state":"MI","lat":43.8179,"long":-83.2755},{"zip":"48759","city":"Sebewaing","state":"MI","lat":43.7289,"long":-83.4366},{"zip":"48805","city":"Okemos","state":"MI","lat":42.5992,"long":-84.372},{"zip":"48819","city":"Dansville","state":"MI","lat":42.5505,"long":-84.2939},{"zip":"48823","city":"East Lansing","state":"MI","lat":42.7388,"long":-84.4764},{"zip":"48824","city":"East Lansing","state":"MI","lat":42.7283,"long":-84.4882},{"zip":"48825","city":"East Lansing","state":"MI","lat":42.7238,"long":-84.4648},{"zip":"48826","city":"East Lansing","state":"MI","lat":42.737,"long":-84.4839},{"zip":"48840","city":"Haslett","state":"MI","lat":42.7531,"long":-84.3989},{"zip":"48842","city":"Holt","state":"MI","lat":42.6394,"long":-84.5242},{"zip":"48854","city":"Mason","state":"MI","lat":42.5796,"long":-84.4561},{"zip":"48864","city":"Okemos","state":"MI","lat":42.7053,"long":-84.4187},{"zip":"48892","city":"Webberville","state":"MI","lat":42.663,"long":-84.1701},{"zip":"48895","city":"Williamston","state":"MI","lat":42.6967,"long":-84.2926},{"zip":"48901","city":"Lansing","state":"MI","lat":42.7325,"long":-84.5555},{"zip":"48906","city":"Lansing","state":"MI","lat":42.7635,"long":-84.558},{"zip":"48909","city":"Lansing","state":"MI","lat":42.7325,"long":-84.5555},{"zip":"48910","city":"Lansing","state":"MI","lat":42.7008,"long":-84.549},{"zip":"48911","city":"Lansing","state":"MI","lat":42.6797,"long":-84.5772},{"zip":"48912","city":"Lansing","state":"MI","lat":42.7371,"long":-84.5244},{"zip":"48913","city":"Lansing","state":"MI","lat":42.7325,"long":-84.5555},{"zip":"48915","city":"Lansing","state":"MI","lat":42.7391,"long":-84.5704},{"zip":"48916","city":"Lansing","state":"MI","lat":42.7325,"long":-84.5555},{"zip":"48918","city":"Lansing","state":"MI","lat":42.7325,"long":-84.5555},{"zip":"48919","city":"Lansing","state":"MI","lat":42.7286,"long":-84.5517},{"zip":"48922","city":"Lansing","state":"MI","lat":42.7325,"long":-84.5587},{"zip":"48924","city":"Lansing","state":"MI","lat":42.7325,"long":-84.5555},{"zip":"48929","city":"Lansing","state":"MI","lat":42.7325,"long":-84.5587},{"zip":"48930","city":"Lansing","state":"MI","lat":42.7325,"long":-84.5587},{"zip":"48933","city":"Lansing","state":"MI","lat":42.7334,"long":-84.5571},{"zip":"48937","city":"Lansing","state":"MI","lat":42.7487,"long":-84.559},{"zip":"48951","city":"Lansing","state":"MI","lat":42.7035,"long":-84.5365},{"zip":"48956","city":"Lansing","state":"MI","lat":42.7325,"long":-84.5587},{"zip":"48980","city":"Lansing","state":"MI","lat":42.7325,"long":-84.5555},{"zip":"48809","city":"Belding","state":"MI","lat":43.0885,"long":-85.2313},{"zip":"48815","city":"Clarksville","state":"MI","lat":42.8302,"long":-85.2494},{"zip":"48845","city":"Hubbardston","state":"MI","lat":43.0923,"long":-84.8422},{"zip":"48846","city":"Ionia","state":"MI","lat":42.9859,"long":-85.071},{"zip":"48849","city":"Lake Odessa","state":"MI","lat":42.7863,"long":-85.1357},{"zip":"48851","city":"Lyons","state":"MI","lat":42.9634,"long":-84.9209},{"zip":"48860","city":"Muir","state":"MI","lat":43.0439,"long":-84.9391},{"zip":"48865","city":"Orleans","state":"MI","lat":43.0895,"long":-85.1165},{"zip":"48870","city":"Palo","state":"MI","lat":43.1136,"long":-85.0077},{"zip":"48873","city":"Pewamo","state":"MI","lat":43.0007,"long":-84.8492},{"zip":"48875","city":"Portland","state":"MI","lat":42.8624,"long":-84.9139},{"zip":"48881","city":"Saranac","state":"MI","lat":42.9357,"long":-85.203},{"zip":"48887","city":"Smyrna","state":"MI","lat":43.0595,"long":-85.2628},{"zip":"48730","city":"East Tawas","state":"MI","lat":44.3008,"long":-83.4776},{"zip":"48739","city":"Hale","state":"MI","lat":44.3819,"long":-83.8359},{"zip":"48743","city":"Long Lake","state":"MI","lat":44.4416,"long":-83.8516},{"zip":"48748","city":"National City","state":"MI","lat":44.3137,"long":-83.6839},{"zip":"48750","city":"Oscoda","state":"MI","lat":44.4465,"long":-83.3619},{"zip":"48763","city":"Tawas City","state":"MI","lat":44.2675,"long":-83.5449},{"zip":"48764","city":"Tawas City","state":"MI","lat":44.2665,"long":-83.5192},{"zip":"48770","city":"Whittemore","state":"MI","lat":44.2325,"long":-83.8068},{"zip":"48804","city":"Mount Pleasant","state":"MI","lat":43.6406,"long":-84.8474},{"zip":"48858","city":"Mount Pleasant","state":"MI","lat":43.6013,"long":-84.7736},{"zip":"48859","city":"Mount Pleasant","state":"MI","lat":43.5647,"long":-84.8473},{"zip":"48878","city":"Rosebush","state":"MI","lat":43.6843,"long":-84.7833},{"zip":"48883","city":"Shepherd","state":"MI","lat":43.5657,"long":-84.5873},{"zip":"48893","city":"Weidman","state":"MI","lat":43.6453,"long":-85.0046},{"zip":"48896","city":"Winn","state":"MI","lat":43.5234,"long":-84.9017},{"zip":"48003","city":"Almont","state":"MI","lat":42.926,"long":-83.0362},{"zip":"48412","city":"Attica","state":"MI","lat":43.0547,"long":-83.1668},{"zip":"48421","city":"Columbiaville","state":"MI","lat":43.1503,"long":-83.3811},{"zip":"48428","city":"Dryden","state":"MI","lat":42.9378,"long":-83.1501},{"zip":"48440","city":"Hadley","state":"MI","lat":42.9306,"long":-83.36},{"zip":"48444","city":"Imlay City","state":"MI","lat":43.0425,"long":-83.0708},{"zip":"48446","city":"Lapeer","state":"MI","lat":43.0579,"long":-83.3332},{"zip":"48455","city":"Metamora","state":"MI","lat":42.9414,"long":-83.2891},{"zip":"48461","city":"North Branch","state":"MI","lat":43.2069,"long":-83.2267},{"zip":"48464","city":"Otter Lake","state":"MI","lat":43.2183,"long":-83.4242},{"zip":"48727","city":"Clifford","state":"MI","lat":43.31,"long":-83.1741},{"zip":"48760","city":"Silverwood","state":"MI","lat":43.3141,"long":-83.272},{"zip":"48114","city":"Brighton","state":"MI","lat":42.57,"long":-83.7484},{"zip":"48116","city":"Brighton","state":"MI","lat":42.5371,"long":-83.7756},{"zip":"48137","city":"Gregory","state":"MI","lat":42.496,"long":-84.0847},{"zip":"48139","city":"Hamburg","state":"MI","lat":42.4523,"long":-83.8147},{"zip":"48143","city":"Lakeland","state":"MI","lat":42.4573,"long":-83.8366},{"zip":"48169","city":"Pinckney","state":"MI","lat":42.4596,"long":-83.9099},{"zip":"48353","city":"Hartland","state":"MI","lat":42.6356,"long":-83.7147},{"zip":"48816","city":"Cohoctah","state":"MI","lat":42.7598,"long":-83.9486},{"zip":"48836","city":"Fowlerville","state":"MI","lat":42.6614,"long":-84.0721},{"zip":"48843","city":"Howell","state":"MI","lat":42.6159,"long":-83.9248},{"zip":"48844","city":"Howell","state":"MI","lat":42.6035,"long":-83.9112},{"zip":"48855","city":"Howell","state":"MI","lat":42.6871,"long":-83.914},{"zip":"48005","city":"Armada","state":"MI","lat":42.8409,"long":-82.8899},{"zip":"48015","city":"Center Line","state":"MI","lat":42.4788,"long":-83.0248},{"zip":"48021","city":"Eastpointe","state":"MI","lat":42.4658,"long":-82.9459},{"zip":"48026","city":"Fraser","state":"MI","lat":42.5423,"long":-82.947},{"zip":"48035","city":"Clinton Township","state":"MI","lat":42.5512,"long":-82.9167},{"zip":"48036","city":"Clinton Township","state":"MI","lat":42.5938,"long":-82.9133},{"zip":"48038","city":"Clinton Township","state":"MI","lat":42.6206,"long":-82.9608},{"zip":"48042","city":"Macomb","state":"MI","lat":42.6735,"long":-82.9163},{"zip":"48043","city":"Mount Clemens","state":"MI","lat":42.5978,"long":-82.8823},{"zip":"48044","city":"Macomb","state":"MI","lat":42.6442,"long":-82.8985},{"zip":"48045","city":"Harrison Township","state":"MI","lat":42.5877,"long":-82.8215},{"zip":"48046","city":"Mount Clemens","state":"MI","lat":42.5973,"long":-82.878},{"zip":"48047","city":"New Baltimore","state":"MI","lat":42.673,"long":-82.7753},{"zip":"48048","city":"New Haven","state":"MI","lat":42.7443,"long":-82.8042},{"zip":"48050","city":"New Haven","state":"MI","lat":42.7859,"long":-82.7979},{"zip":"48051","city":"New Baltimore","state":"MI","lat":42.6938,"long":-82.8207},{"zip":"48062","city":"Richmond","state":"MI","lat":42.8389,"long":-82.7996},{"zip":"48065","city":"Romeo","state":"MI","lat":42.84,"long":-83.0388},{"zip":"48066","city":"Roseville","state":"MI","lat":42.5034,"long":-82.9387},{"zip":"48080","city":"Saint Clair Shores","state":"MI","lat":42.4706,"long":-82.9022},{"zip":"48081","city":"Saint Clair Shores","state":"MI","lat":42.4941,"long":-82.899},{"zip":"48082","city":"Saint Clair Shores","state":"MI","lat":42.5269,"long":-82.8841},{"zip":"48088","city":"Warren","state":"MI","lat":42.5164,"long":-82.9832},{"zip":"48089","city":"Warren","state":"MI","lat":42.4685,"long":-82.9974},{"zip":"48090","city":"Warren","state":"MI","lat":42.4775,"long":-83.0277},{"zip":"48091","city":"Warren","state":"MI","lat":42.4665,"long":-83.0593},{"zip":"48092","city":"Warren","state":"MI","lat":42.5125,"long":-83.0643},{"zip":"48093","city":"Warren","state":"MI","lat":42.5149,"long":-82.9968},{"zip":"48094","city":"Washington","state":"MI","lat":42.7262,"long":-83.0268},{"zip":"48095","city":"Washington","state":"MI","lat":42.7682,"long":-83.0395},{"zip":"48096","city":"Ray","state":"MI","lat":42.754,"long":-82.9163},{"zip":"48310","city":"Sterling Heights","state":"MI","lat":42.5648,"long":-83.0701},{"zip":"48311","city":"Sterling Heights","state":"MI","lat":42.5803,"long":-83.0302},{"zip":"48312","city":"Sterling Heights","state":"MI","lat":42.5592,"long":-83.0029},{"zip":"48313","city":"Sterling Heights","state":"MI","lat":42.6005,"long":-82.9998},{"zip":"48314","city":"Sterling Heights","state":"MI","lat":42.6124,"long":-83.0345},{"zip":"48315","city":"Utica","state":"MI","lat":42.671,"long":-82.9988},{"zip":"48316","city":"Utica","state":"MI","lat":42.6885,"long":-83.0548},{"zip":"48317","city":"Utica","state":"MI","lat":42.6413,"long":-83.0504},{"zip":"48318","city":"Utica","state":"MI","lat":42.6261,"long":-83.0335},{"zip":"48397","city":"Warren","state":"MI","lat":42.4917,"long":-83.0402},{"zip":"48618","city":"Coleman","state":"MI","lat":43.7494,"long":-84.5911},{"zip":"48620","city":"Edenville","state":"MI","lat":43.7774,"long":-84.3813},{"zip":"48628","city":"Hope","state":"MI","lat":43.7882,"long":-84.3296},{"zip":"48640","city":"Midland","state":"MI","lat":43.6376,"long":-84.268},{"zip":"48641","city":"Midland","state":"MI","lat":43.5383,"long":-84.3878},{"zip":"48642","city":"Midland","state":"MI","lat":43.6375,"long":-84.1979},{"zip":"48657","city":"Sanford","state":"MI","lat":43.7204,"long":-84.3954},{"zip":"48667","city":"Midland","state":"MI","lat":43.6473,"long":-84.3873},{"zip":"48670","city":"Midland","state":"MI","lat":43.6375,"long":-84.2568},{"zip":"48674","city":"Midland","state":"MI","lat":43.6129,"long":-84.1971},{"zip":"48686","city":"Midland","state":"MI","lat":43.6473,"long":-84.3873},{"zip":"48110","city":"Azalia","state":"MI","lat":42.0082,"long":-83.6643},{"zip":"48117","city":"Carleton","state":"MI","lat":42.0529,"long":-83.3755},{"zip":"48131","city":"Dundee","state":"MI","lat":41.9514,"long":-83.6522},{"zip":"48133","city":"Erie","state":"MI","lat":41.7829,"long":-83.4958},{"zip":"48140","city":"Ida","state":"MI","lat":41.8549,"long":-83.5916},{"zip":"48144","city":"Lambertville","state":"MI","lat":41.7531,"long":-83.6259},{"zip":"48145","city":"La Salle","state":"MI","lat":41.8585,"long":-83.4715},{"zip":"48157","city":"Luna Pier","state":"MI","lat":41.8146,"long":-83.4382},{"zip":"48159","city":"Maybee","state":"MI","lat":42.0288,"long":-83.5179},{"zip":"48160","city":"Milan","state":"MI","lat":42.0914,"long":-83.6776},{"zip":"48161","city":"Monroe","state":"MI","lat":41.908,"long":-83.4719},{"zip":"48162","city":"Monroe","state":"MI","lat":41.9293,"long":-83.4448},{"zip":"48166","city":"Newport","state":"MI","lat":41.9766,"long":-83.2804},{"zip":"48177","city":"Samaria","state":"MI","lat":41.8076,"long":-83.5793},{"zip":"48179","city":"South Rockwood","state":"MI","lat":42.0624,"long":-83.2663},{"zip":"48182","city":"Temperance","state":"MI","lat":41.7682,"long":-83.5797},{"zip":"48811","city":"Carson City","state":"MI","lat":43.1695,"long":-84.8653},{"zip":"48812","city":"Cedar Lake","state":"MI","lat":43.4138,"long":-84.9753},{"zip":"48818","city":"Crystal","state":"MI","lat":43.2624,"long":-84.8993},{"zip":"48829","city":"Edmore","state":"MI","lat":43.4116,"long":-85.028},{"zip":"48834","city":"Fenwick","state":"MI","lat":43.1497,"long":-85.0666},{"zip":"48838","city":"Greenville","state":"MI","lat":43.1793,"long":-85.2497},{"zip":"48850","city":"Lakeview","state":"MI","lat":43.4269,"long":-85.2924},{"zip":"48852","city":"Mcbrides","state":"MI","lat":43.3503,"long":-85.0517},{"zip":"48884","city":"Sheridan","state":"MI","lat":43.2126,"long":-85.0468},{"zip":"48885","city":"Sidney","state":"MI","lat":43.2358,"long":-85.1207},{"zip":"48886","city":"Six Lakes","state":"MI","lat":43.4337,"long":-85.1416},{"zip":"48888","city":"Stanton","state":"MI","lat":43.3058,"long":-85.0995},{"zip":"48891","city":"Vestaburg","state":"MI","lat":43.387,"long":-84.9082},{"zip":"48007","city":"Troy","state":"MI","lat":42.6061,"long":-83.2976},{"zip":"48009","city":"Birmingham","state":"MI","lat":42.5444,"long":-83.2133},{"zip":"48012","city":"Birmingham","state":"MI","lat":42.5467,"long":-83.2113},{"zip":"48017","city":"Clawson","state":"MI","lat":42.5365,"long":-83.1503},{"zip":"48025","city":"Franklin","state":"MI","lat":42.5219,"long":-83.2519},{"zip":"48030","city":"Hazel Park","state":"MI","lat":42.4608,"long":-83.0982},{"zip":"48033","city":"Southfield","state":"MI","lat":42.4723,"long":-83.294},{"zip":"48034","city":"Southfield","state":"MI","lat":42.4969,"long":-83.2911},{"zip":"48037","city":"Southfield","state":"MI","lat":42.5675,"long":-83.15},{"zip":"48067","city":"Royal Oak","state":"MI","lat":42.4906,"long":-83.1366},{"zip":"48068","city":"Royal Oak","state":"MI","lat":42.4895,"long":-83.1446},{"zip":"48069","city":"Pleasant Ridge","state":"MI","lat":42.471,"long":-83.1438},{"zip":"48070","city":"Huntington Woods","state":"MI","lat":42.4825,"long":-83.1749},{"zip":"48071","city":"Madison Heights","state":"MI","lat":42.5016,"long":-83.1027},{"zip":"48072","city":"Berkley","state":"MI","lat":42.5028,"long":-83.1887},{"zip":"48073","city":"Royal Oak","state":"MI","lat":42.519,"long":-83.157},{"zip":"48075","city":"Southfield","state":"MI","lat":42.4638,"long":-83.2255},{"zip":"48076","city":"Southfield","state":"MI","lat":42.4981,"long":-83.2058},{"zip":"48083","city":"Troy","state":"MI","lat":42.5597,"long":-83.1138},{"zip":"48084","city":"Troy","state":"MI","lat":42.5627,"long":-83.1799},{"zip":"48085","city":"Troy","state":"MI","lat":42.6006,"long":-83.1198},{"zip":"48086","city":"Southfield","state":"MI","lat":42.4734,"long":-83.2219},{"zip":"48098","city":"Troy","state":"MI","lat":42.5991,"long":-83.1789},{"zip":"48099","city":"Troy","state":"MI","lat":42.5876,"long":-83.1737},{"zip":"48165","city":"New Hudson","state":"MI","lat":42.5076,"long":-83.6342},{"zip":"48178","city":"South Lyon","state":"MI","lat":42.4567,"long":-83.659},{"zip":"48220","city":"Ferndale","state":"MI","lat":42.4586,"long":-83.1363},{"zip":"48237","city":"Oak Park","state":"MI","lat":42.4662,"long":-83.184},{"zip":"48301","city":"Bloomfield Hills","state":"MI","lat":42.5445,"long":-83.2792},{"zip":"48302","city":"Bloomfield Hills","state":"MI","lat":42.5848,"long":-83.2821},{"zip":"48303","city":"Bloomfield Hills","state":"MI","lat":42.5836,"long":-83.2455},{"zip":"48304","city":"Bloomfield Hills","state":"MI","lat":42.587,"long":-83.2359},{"zip":"48306","city":"Rochester","state":"MI","lat":42.7262,"long":-83.1566},{"zip":"48307","city":"Rochester","state":"MI","lat":42.6593,"long":-83.1225},{"zip":"48308","city":"Rochester","state":"MI","lat":42.6806,"long":-83.1338},{"zip":"48309","city":"Rochester","state":"MI","lat":42.6626,"long":-83.1837},{"zip":"48320","city":"Keego Harbor","state":"MI","lat":42.6114,"long":-83.3356},{"zip":"48321","city":"Auburn Hills","state":"MI","lat":42.6601,"long":-83.3863},{"zip":"48322","city":"West Bloomfield","state":"MI","lat":42.5424,"long":-83.3793},{"zip":"48323","city":"West Bloomfield","state":"MI","lat":42.5683,"long":-83.3805},{"zip":"48324","city":"West Bloomfield","state":"MI","lat":42.5961,"long":-83.3819},{"zip":"48325","city":"West Bloomfield","state":"MI","lat":42.6601,"long":-83.3863},{"zip":"48326","city":"Auburn Hills","state":"MI","lat":42.6583,"long":-83.2375},{"zip":"48327","city":"Waterford","state":"MI","lat":42.6438,"long":-83.4076},{"zip":"48328","city":"Waterford","state":"MI","lat":42.6429,"long":-83.3546},{"zip":"48329","city":"Waterford","state":"MI","lat":42.6877,"long":-83.3879},{"zip":"48330","city":"Drayton Plains","state":"MI","lat":42.6754,"long":-83.3637},{"zip":"48331","city":"Farmington","state":"MI","lat":42.5051,"long":-83.4072},{"zip":"48332","city":"Farmington","state":"MI","lat":42.4645,"long":-83.3763},{"zip":"48333","city":"Farmington","state":"MI","lat":42.4645,"long":-83.3763},{"zip":"48334","city":"Farmington","state":"MI","lat":42.5065,"long":-83.3484},{"zip":"48335","city":"Farmington","state":"MI","lat":42.4617,"long":-83.4053},{"zip":"48336","city":"Farmington","state":"MI","lat":42.4656,"long":-83.3638},{"zip":"48340","city":"Pontiac","state":"MI","lat":42.668,"long":-83.2893},{"zip":"48341","city":"Pontiac","state":"MI","lat":42.6294,"long":-83.3041},{"zip":"48342","city":"Pontiac","state":"MI","lat":42.6439,"long":-83.2792},{"zip":"48343","city":"Pontiac","state":"MI","lat":42.6389,"long":-83.291},{"zip":"48346","city":"Clarkston","state":"MI","lat":42.7239,"long":-83.4232},{"zip":"48347","city":"Clarkston","state":"MI","lat":42.6601,"long":-83.3863},{"zip":"48348","city":"Clarkston","state":"MI","lat":42.7605,"long":-83.404},{"zip":"48350","city":"Davisburg","state":"MI","lat":42.7496,"long":-83.5358},{"zip":"48356","city":"Highland","state":"MI","lat":42.6692,"long":-83.5895},{"zip":"48357","city":"Highland","state":"MI","lat":42.6595,"long":-83.637},{"zip":"48359","city":"Lake Orion","state":"MI","lat":42.7231,"long":-83.2769},{"zip":"48360","city":"Lake Orion","state":"MI","lat":42.7429,"long":-83.272},{"zip":"48361","city":"Lake Orion","state":"MI","lat":42.7845,"long":-83.2397},{"zip":"48362","city":"Lake Orion","state":"MI","lat":42.7763,"long":-83.2748},{"zip":"48363","city":"Oakland","state":"MI","lat":42.7732,"long":-83.1711},{"zip":"48366","city":"Lakeville","state":"MI","lat":42.8214,"long":-83.1502},{"zip":"48367","city":"Leonard","state":"MI","lat":42.8437,"long":-83.1406},{"zip":"48370","city":"Oxford","state":"MI","lat":42.8265,"long":-83.2005},{"zip":"48371","city":"Oxford","state":"MI","lat":42.8223,"long":-83.2829},{"zip":"48374","city":"Novi","state":"MI","lat":42.4735,"long":-83.5224},{"zip":"48375","city":"Novi","state":"MI","lat":42.4604,"long":-83.4577},{"zip":"48376","city":"Novi","state":"MI","lat":42.471,"long":-83.4748},{"zip":"48377","city":"Novi","state":"MI","lat":42.4992,"long":-83.4773},{"zip":"48380","city":"Milford","state":"MI","lat":42.602,"long":-83.6508},{"zip":"48381","city":"Milford","state":"MI","lat":42.5758,"long":-83.5924},{"zip":"48382","city":"Commerce Township","state":"MI","lat":42.5834,"long":-83.5009},{"zip":"48383","city":"White Lake","state":"MI","lat":42.658,"long":-83.5398},{"zip":"48386","city":"White Lake","state":"MI","lat":42.641,"long":-83.4738},{"zip":"48387","city":"Union Lake","state":"MI","lat":42.6148,"long":-83.4469},{"zip":"48390","city":"Walled Lake","state":"MI","lat":42.5582,"long":-83.4773},{"zip":"48391","city":"Walled Lake","state":"MI","lat":42.5378,"long":-83.481},{"zip":"48393","city":"Wixom","state":"MI","lat":42.534,"long":-83.5285},{"zip":"48442","city":"Holly","state":"MI","lat":42.7905,"long":-83.6127},{"zip":"48462","city":"Ortonville","state":"MI","lat":42.8409,"long":-83.4288},{"zip":"48610","city":"Alger","state":"MI","lat":44.1395,"long":-84.1872},{"zip":"48635","city":"Lupton","state":"MI","lat":44.3976,"long":-83.9905},{"zip":"48654","city":"Rose City","state":"MI","lat":44.4167,"long":-84.1256},{"zip":"48661","city":"West Branch","state":"MI","lat":44.279,"long":-84.2286},{"zip":"48756","city":"Prescott","state":"MI","lat":44.21,"long":-84.0212},{"zip":"48761","city":"South Branch","state":"MI","lat":44.5014,"long":-83.8686},{"zip":"48619","city":"Comins","state":"MI","lat":44.8264,"long":-84.0261},{"zip":"48621","city":"Fairview","state":"MI","lat":44.7205,"long":-84.0525},{"zip":"48636","city":"Luzerne","state":"MI","lat":44.6001,"long":-84.2931},{"zip":"48647","city":"Mio","state":"MI","lat":44.6665,"long":-84.1353},{"zip":"48627","city":"Higgins Lake","state":"MI","lat":44.3871,"long":-84.7013},{"zip":"48629","city":"Houghton Lake","state":"MI","lat":44.3147,"long":-84.7647},{"zip":"48630","city":"Houghton Lake Heights","state":"MI","lat":44.3322,"long":-84.7194},{"zip":"48651","city":"Prudenville","state":"MI","lat":44.2974,"long":-84.6627},{"zip":"48653","city":"Roscommon","state":"MI","lat":44.4839,"long":-84.6601},{"zip":"48656","city":"Saint Helen","state":"MI","lat":44.3665,"long":-84.4247},{"zip":"48415","city":"Birch Run","state":"MI","lat":43.2649,"long":-83.7903},{"zip":"48417","city":"Burt","state":"MI","lat":43.2404,"long":-83.9511},{"zip":"48601","city":"Saginaw","state":"MI","lat":43.4047,"long":-83.9156},{"zip":"48602","city":"Saginaw","state":"MI","lat":43.4248,"long":-83.9745},{"zip":"48603","city":"Saginaw","state":"MI","lat":43.4631,"long":-84.0297},{"zip":"48604","city":"Saginaw","state":"MI","lat":43.4732,"long":-83.9514},{"zip":"48605","city":"Saginaw","state":"MI","lat":43.4588,"long":-84.0518},{"zip":"48606","city":"Saginaw","state":"MI","lat":43.3485,"long":-84.0326},{"zip":"48607","city":"Saginaw","state":"MI","lat":43.4301,"long":-83.9319},{"zip":"48608","city":"Saginaw","state":"MI","lat":43.3485,"long":-84.0326},{"zip":"48609","city":"Saginaw","state":"MI","lat":43.3869,"long":-84.0926},{"zip":"48614","city":"Brant","state":"MI","lat":43.2548,"long":-84.2978},{"zip":"48616","city":"Chesaning","state":"MI","lat":43.1824,"long":-84.1122},{"zip":"48623","city":"Freeland","state":"MI","lat":43.5161,"long":-84.1822},{"zip":"48626","city":"Hemlock","state":"MI","lat":43.4099,"long":-84.2266},{"zip":"48637","city":"Merrill","state":"MI","lat":43.3939,"long":-84.3308},{"zip":"48649","city":"Oakley","state":"MI","lat":43.1505,"long":-84.2094},{"zip":"48655","city":"Saint Charles","state":"MI","lat":43.2863,"long":-84.1598},{"zip":"48663","city":"Saginaw","state":"MI","lat":43.4195,"long":-83.9508},{"zip":"48722","city":"Bridgeport","state":"MI","lat":43.3553,"long":-83.8549},{"zip":"48724","city":"Carrollton","state":"MI","lat":43.4586,"long":-83.9303},{"zip":"48734","city":"Frankenmuth","state":"MI","lat":43.341,"long":-83.7475},{"zip":"48787","city":"Frankenmuth","state":"MI","lat":43.335,"long":-83.7494},{"zip":"48001","city":"Algonac","state":"MI","lat":42.6367,"long":-82.5866},{"zip":"48002","city":"Allenton","state":"MI","lat":42.9388,"long":-82.9198},{"zip":"48004","city":"Anchorville","state":"MI","lat":42.8241,"long":-82.6652},{"zip":"48006","city":"Avoca","state":"MI","lat":43.0752,"long":-82.6955},{"zip":"48014","city":"Capac","state":"MI","lat":43.0263,"long":-82.9298},{"zip":"48022","city":"Emmett","state":"MI","lat":42.9872,"long":-82.7854},{"zip":"48023","city":"Fair Haven","state":"MI","lat":42.7023,"long":-82.6688},{"zip":"48027","city":"Goodells","state":"MI","lat":42.9443,"long":-82.6916},{"zip":"48028","city":"Harsens Island","state":"MI","lat":42.585,"long":-82.586},{"zip":"48032","city":"Jeddo","state":"MI","lat":43.1223,"long":-82.5998},{"zip":"48039","city":"Marine City","state":"MI","lat":42.6859,"long":-82.5499},{"zip":"48040","city":"Marysville","state":"MI","lat":42.9135,"long":-82.4813},{"zip":"48041","city":"Memphis","state":"MI","lat":42.941,"long":-82.8046},{"zip":"48049","city":"North Street","state":"MI","lat":43.0349,"long":-82.5748},{"zip":"48054","city":"East China","state":"MI","lat":42.7769,"long":-82.5437},{"zip":"48059","city":"Fort Gratiot","state":"MI","lat":43.0888,"long":-82.4905},{"zip":"48060","city":"Port Huron","state":"MI","lat":42.9958,"long":-82.4599},{"zip":"48061","city":"Port Huron","state":"MI","lat":42.9709,"long":-82.4249},{"zip":"48063","city":"Columbus","state":"MI","lat":42.8892,"long":-82.6675},{"zip":"48064","city":"Casco","state":"MI","lat":42.7674,"long":-82.6728},{"zip":"48074","city":"Smiths Creek","state":"MI","lat":42.9051,"long":-82.5679},{"zip":"48079","city":"Saint Clair","state":"MI","lat":42.8255,"long":-82.5133},{"zip":"48097","city":"Yale","state":"MI","lat":43.126,"long":-82.8295},{"zip":"48401","city":"Applegate","state":"MI","lat":43.3619,"long":-82.6479},{"zip":"48410","city":"Argyle","state":"MI","lat":43.5589,"long":-82.9455},{"zip":"48416","city":"Brown City","state":"MI","lat":43.2171,"long":-82.9978},{"zip":"48419","city":"Carsonville","state":"MI","lat":43.4258,"long":-82.6022},{"zip":"48422","city":"Croswell","state":"MI","lat":43.2622,"long":-82.6337},{"zip":"48426","city":"Decker","state":"MI","lat":43.4775,"long":-83.0638},{"zip":"48427","city":"Deckerville","state":"MI","lat":43.5151,"long":-82.7191},{"zip":"48434","city":"Forestville","state":"MI","lat":43.6632,"long":-82.6133},{"zip":"48450","city":"Lexington","state":"MI","lat":43.2435,"long":-82.5301},{"zip":"48453","city":"Marlette","state":"MI","lat":43.3399,"long":-83.0573},{"zip":"48454","city":"Melvin","state":"MI","lat":43.193,"long":-82.8393},{"zip":"48456","city":"Minden City","state":"MI","lat":43.6814,"long":-82.7299},{"zip":"48465","city":"Palms","state":"MI","lat":43.6257,"long":-82.7017},{"zip":"48466","city":"Peck","state":"MI","lat":43.2694,"long":-82.8193},{"zip":"48469","city":"Port Sanilac","state":"MI","lat":43.4329,"long":-82.5468},{"zip":"48471","city":"Sandusky","state":"MI","lat":43.4055,"long":-82.8409},{"zip":"48472","city":"Snover","state":"MI","lat":43.4886,"long":-82.9301},{"zip":"48414","city":"Bancroft","state":"MI","lat":42.882,"long":-84.1207},{"zip":"48418","city":"Byron","state":"MI","lat":42.8059,"long":-83.973},{"zip":"48429","city":"Durand","state":"MI","lat":42.9117,"long":-83.9877},{"zip":"48460","city":"New Lothrop","state":"MI","lat":43.1388,"long":-83.9851},{"zip":"48476","city":"Vernon","state":"MI","lat":42.9406,"long":-84.0328},{"zip":"48817","city":"Corunna","state":"MI","lat":43.0414,"long":-84.0276},{"zip":"48841","city":"Henderson","state":"MI","lat":43.1143,"long":-84.2369},{"zip":"48848","city":"Laingsburg","state":"MI","lat":42.8627,"long":-84.353},{"zip":"48857","city":"Morrice","state":"MI","lat":42.8385,"long":-84.1768},{"zip":"48867","city":"Owosso","state":"MI","lat":42.9934,"long":-84.1595},{"zip":"48872","city":"Perry","state":"MI","lat":42.82,"long":-84.2313},{"zip":"48882","city":"Shaftsburg","state":"MI","lat":42.804,"long":-84.2959},{"zip":"48435","city":"Fostoria","state":"MI","lat":43.2645,"long":-83.3796},{"zip":"48701","city":"Akron","state":"MI","lat":43.5844,"long":-83.5393},{"zip":"48723","city":"Caro","state":"MI","lat":43.4833,"long":-83.3835},{"zip":"48726","city":"Cass City","state":"MI","lat":43.5797,"long":-83.1733},{"zip":"48729","city":"Deford","state":"MI","lat":43.4735,"long":-83.1702},{"zip":"48733","city":"Fairgrove","state":"MI","lat":43.5126,"long":-83.5835},{"zip":"48735","city":"Gagetown","state":"MI","lat":43.6543,"long":-83.2628},{"zip":"48741","city":"Kingston","state":"MI","lat":43.3982,"long":-83.1847},{"zip":"48744","city":"Mayville","state":"MI","lat":43.3562,"long":-83.3725},{"zip":"48746","city":"Millington","state":"MI","lat":43.2718,"long":-83.5619},{"zip":"48757","city":"Reese","state":"MI","lat":43.4531,"long":-83.7015},{"zip":"48758","city":"Richville","state":"MI","lat":43.4073,"long":-83.6762},{"zip":"48767","city":"Unionville","state":"MI","lat":43.6473,"long":-83.4699},{"zip":"48768","city":"Vassar","state":"MI","lat":43.3691,"long":-83.5844},{"zip":"48103","city":"Ann Arbor","state":"MI","lat":42.2794,"long":-83.784},{"zip":"48104","city":"Ann Arbor","state":"MI","lat":42.2694,"long":-83.7282},{"zip":"48105","city":"Ann Arbor","state":"MI","lat":42.3042,"long":-83.7068},{"zip":"48106","city":"Ann Arbor","state":"MI","lat":42.2535,"long":-83.8366},{"zip":"48107","city":"Ann Arbor","state":"MI","lat":42.2535,"long":-83.8366},{"zip":"48108","city":"Ann Arbor","state":"MI","lat":42.2328,"long":-83.7015},{"zip":"48109","city":"Ann Arbor","state":"MI","lat":42.2776,"long":-83.7409},{"zip":"48113","city":"Ann Arbor","state":"MI","lat":42.2535,"long":-83.8366},{"zip":"48115","city":"Bridgewater","state":"MI","lat":42.1602,"long":-83.9117},{"zip":"48118","city":"Chelsea","state":"MI","lat":42.3207,"long":-84.0334},{"zip":"48130","city":"Dexter","state":"MI","lat":42.3583,"long":-83.9},{"zip":"48158","city":"Manchester","state":"MI","lat":42.1555,"long":-84.0332},{"zip":"48175","city":"Salem","state":"MI","lat":42.4056,"long":-83.5781},{"zip":"48176","city":"Saline","state":"MI","lat":42.1698,"long":-83.7849},{"zip":"48189","city":"Whitmore Lake","state":"MI","lat":42.4289,"long":-83.7828},{"zip":"48190","city":"Whittaker","state":"MI","lat":42.1244,"long":-83.5946},{"zip":"48191","city":"Willis","state":"MI","lat":42.1292,"long":-83.5687},{"zip":"48197","city":"Ypsilanti","state":"MI","lat":42.2325,"long":-83.6336},{"zip":"48198","city":"Ypsilanti","state":"MI","lat":42.2439,"long":-83.583},{"zip":"48101","city":"Allen Park","state":"MI","lat":42.2522,"long":-83.212},{"zip":"48111","city":"Belleville","state":"MI","lat":42.1949,"long":-83.4854},{"zip":"48112","city":"Belleville","state":"MI","lat":42.2048,"long":-83.4852},{"zip":"48120","city":"Dearborn","state":"MI","lat":42.3053,"long":-83.1605},{"zip":"48121","city":"Dearborn","state":"MI","lat":42.2399,"long":-83.1508},{"zip":"48122","city":"Melvindale","state":"MI","lat":42.2812,"long":-83.1826},{"zip":"48123","city":"Dearborn","state":"MI","lat":42.2399,"long":-83.1508},{"zip":"48124","city":"Dearborn","state":"MI","lat":42.2941,"long":-83.2536},{"zip":"48125","city":"Dearborn Heights","state":"MI","lat":42.2768,"long":-83.2606},{"zip":"48126","city":"Dearborn","state":"MI","lat":42.3349,"long":-83.1801},{"zip":"48127","city":"Dearborn Heights","state":"MI","lat":42.3353,"long":-83.2864},{"zip":"48128","city":"Dearborn","state":"MI","lat":42.32,"long":-83.2701},{"zip":"48134","city":"Flat Rock","state":"MI","lat":42.1055,"long":-83.2795},{"zip":"48135","city":"Garden City","state":"MI","lat":42.3242,"long":-83.3402},{"zip":"48136","city":"Garden City","state":"MI","lat":42.2399,"long":-83.1508},{"zip":"48138","city":"Grosse Ile","state":"MI","lat":42.1352,"long":-83.1561},{"zip":"48141","city":"Inkster","state":"MI","lat":42.294,"long":-83.3146},{"zip":"48146","city":"Lincoln Park","state":"MI","lat":42.2422,"long":-83.1807},{"zip":"48150","city":"Livonia","state":"MI","lat":42.3615,"long":-83.3649},{"zip":"48151","city":"Livonia","state":"MI","lat":42.3684,"long":-83.3527},{"zip":"48152","city":"Livonia","state":"MI","lat":42.4258,"long":-83.3636},{"zip":"48153","city":"Livonia","state":"MI","lat":42.3684,"long":-83.3527},{"zip":"48154","city":"Livonia","state":"MI","lat":42.3958,"long":-83.3772},{"zip":"48164","city":"New Boston","state":"MI","lat":42.1449,"long":-83.3589},{"zip":"48167","city":"Northville","state":"MI","lat":42.4262,"long":-83.4794},{"zip":"48168","city":"Northville","state":"MI","lat":42.4086,"long":-83.4978},{"zip":"48170","city":"Plymouth","state":"MI","lat":42.3688,"long":-83.4799},{"zip":"48173","city":"Rockwood","state":"MI","lat":42.0731,"long":-83.2127},{"zip":"48174","city":"Romulus","state":"MI","lat":42.2223,"long":-83.3966},{"zip":"48180","city":"Taylor","state":"MI","lat":42.2317,"long":-83.2673},{"zip":"48183","city":"Trenton","state":"MI","lat":42.1382,"long":-83.2179},{"zip":"48184","city":"Wayne","state":"MI","lat":42.2768,"long":-83.3758},{"zip":"48185","city":"Westland","state":"MI","lat":42.3358,"long":-83.3846},{"zip":"48186","city":"Westland","state":"MI","lat":42.289,"long":-83.3686},{"zip":"48187","city":"Canton","state":"MI","lat":42.332,"long":-83.4695},{"zip":"48188","city":"Canton","state":"MI","lat":42.291,"long":-83.465},{"zip":"48192","city":"Wyandotte","state":"MI","lat":42.2084,"long":-83.1616},{"zip":"48193","city":"Riverview","state":"MI","lat":42.1782,"long":-83.2461},{"zip":"48195","city":"Southgate","state":"MI","lat":42.2044,"long":-83.1999},{"zip":"48201","city":"Detroit","state":"MI","lat":42.3474,"long":-83.0604},{"zip":"48202","city":"Detroit","state":"MI","lat":42.377,"long":-83.0796},{"zip":"48203","city":"Highland Park","state":"MI","lat":42.4212,"long":-83.1009},{"zip":"48204","city":"Detroit","state":"MI","lat":42.3661,"long":-83.1422},{"zip":"48205","city":"Detroit","state":"MI","lat":42.4313,"long":-82.9813},{"zip":"48206","city":"Detroit","state":"MI","lat":42.3749,"long":-83.1087},{"zip":"48207","city":"Detroit","state":"MI","lat":42.3524,"long":-83.0271},{"zip":"48208","city":"Detroit","state":"MI","lat":42.3495,"long":-83.0927},{"zip":"48209","city":"Detroit","state":"MI","lat":42.3097,"long":-83.1155},{"zip":"48210","city":"Detroit","state":"MI","lat":42.3376,"long":-83.1303},{"zip":"48211","city":"Detroit","state":"MI","lat":42.3809,"long":-83.0409},{"zip":"48212","city":"Hamtramck","state":"MI","lat":42.4081,"long":-83.0583},{"zip":"48213","city":"Detroit","state":"MI","lat":42.3982,"long":-82.9925},{"zip":"48214","city":"Detroit","state":"MI","lat":42.3669,"long":-82.9938},{"zip":"48215","city":"Detroit","state":"MI","lat":42.3773,"long":-82.9513},{"zip":"48216","city":"Detroit","state":"MI","lat":42.3275,"long":-83.0827},{"zip":"48217","city":"Detroit","state":"MI","lat":42.2719,"long":-83.1545},{"zip":"48218","city":"River Rouge","state":"MI","lat":42.2692,"long":-83.1364},{"zip":"48219","city":"Detroit","state":"MI","lat":42.426,"long":-83.2495},{"zip":"48221","city":"Detroit","state":"MI","lat":42.426,"long":-83.15},{"zip":"48222","city":"Detroit","state":"MI","lat":42.2399,"long":-83.1508},{"zip":"48223","city":"Detroit","state":"MI","lat":42.3945,"long":-83.2454},{"zip":"48224","city":"Detroit","state":"MI","lat":42.4098,"long":-82.9441},{"zip":"48225","city":"Harper Woods","state":"MI","lat":42.4377,"long":-82.9289},{"zip":"48226","city":"Detroit","state":"MI","lat":42.3333,"long":-83.0484},{"zip":"48227","city":"Detroit","state":"MI","lat":42.3883,"long":-83.1937},{"zip":"48228","city":"Detroit","state":"MI","lat":42.3547,"long":-83.2168},{"zip":"48229","city":"Ecorse","state":"MI","lat":42.2519,"long":-83.1489},{"zip":"48230","city":"Grosse Pointe","state":"MI","lat":42.3847,"long":-82.9244},{"zip":"48231","city":"Detroit","state":"MI","lat":42.3314,"long":-83.0458},{"zip":"48232","city":"Detroit","state":"MI","lat":42.3314,"long":-83.0458},{"zip":"48233","city":"Detroit","state":"MI","lat":42.2399,"long":-83.1508},{"zip":"48234","city":"Detroit","state":"MI","lat":42.4337,"long":-83.0434},{"zip":"48235","city":"Detroit","state":"MI","lat":42.4261,"long":-83.1951},{"zip":"48236","city":"Grosse Pointe","state":"MI","lat":42.4274,"long":-82.9002},{"zip":"48238","city":"Detroit","state":"MI","lat":42.3959,"long":-83.1411},{"zip":"48239","city":"Redford","state":"MI","lat":42.3756,"long":-83.2889},{"zip":"48240","city":"Redford","state":"MI","lat":42.4264,"long":-83.3017},{"zip":"48242","city":"Detroit","state":"MI","lat":42.2166,"long":-83.3532},{"zip":"48243","city":"Detroit","state":"MI","lat":42.2399,"long":-83.1508},{"zip":"48244","city":"Detroit","state":"MI","lat":42.2399,"long":-83.1508},{"zip":"48255","city":"Detroit","state":"MI","lat":42.3314,"long":-83.0458},{"zip":"48260","city":"Detroit","state":"MI","lat":42.2399,"long":-83.1508},{"zip":"48264","city":"Detroit","state":"MI","lat":42.3314,"long":-83.0458},{"zip":"48265","city":"Detroit","state":"MI","lat":42.2399,"long":-83.1508},{"zip":"48266","city":"Detroit","state":"MI","lat":42.2399,"long":-83.1508},{"zip":"48267","city":"Detroit","state":"MI","lat":42.3314,"long":-83.0458},{"zip":"48268","city":"Detroit","state":"MI","lat":42.3314,"long":-83.0458},{"zip":"48269","city":"Detroit","state":"MI","lat":42.3314,"long":-83.0458},{"zip":"48272","city":"Detroit","state":"MI","lat":42.3314,"long":-83.0458},{"zip":"48275","city":"Detroit","state":"MI","lat":42.3314,"long":-83.0458},{"zip":"48277","city":"Detroit","state":"MI","lat":42.2399,"long":-83.1508},{"zip":"48278","city":"Detroit","state":"MI","lat":42.2399,"long":-83.1508},{"zip":"48279","city":"Detroit","state":"MI","lat":42.3314,"long":-83.0458},{"zip":"48288","city":"Detroit","state":"MI","lat":42.2399,"long":-83.1508}]
