[{"zip":"48220","city":"Ferndale","state":"MI","lat":42.4586,"long":-83.1363},{"zip":"48237","city":"Oak Park","state":"MI","lat":42.4662,"long":-83.184},{"zip":"48201","city":"Detroit","state":"MI","lat":42.3474,"long":-83.0604},{"zip":"48202","city":"Detroit","state":"MI","lat":42.377,"long":-83.0796},{"zip":"48203","city":"Highland Park","state":"MI","lat":42.4212,"long":-83.1009},{"zip":"48204","city":"Detroit","state":"MI","lat":42.3661,"long":-83.1422},{"zip":"48205","city":"Detroit","state":"MI","lat":42.4313,"long":-82.9813},{"zip":"48206","city":"Detroit","state":"MI","lat":42.3749,"long":-83.1087},{"zip":"48207","city":"Detroit","state":"MI","lat":42.3524,"long":-83.0271},{"zip":"48208","city":"Detroit","state":"MI","lat":42.3495,"long":-83.0927},{"zip":"48209","city":"Detroit","state":"MI","lat":42.3097,"long":-83.1155},{"zip":"48210","city":"Detroit","state":"MI","lat":42.3376,"long":-83.1303},{"zip":"48211","city":"Detroit","state":"MI","lat":42.3809,"long":-83.0409},{"zip":"48212","city":"Hamtramck","state":"MI","lat":42.4081,"long":-83.0583},{"zip":"48213","city":"Detroit","state":"MI","lat":42.3982,"long":-82.9925},{"zip":"48214","city":"Detroit","state":"MI","lat":42.3669,"long":-82.9938},{"zip":"48215","city":"Detroit","state":"MI","lat":42.3773,"long":-82.9513},{"zip":"48216","city":"Detroit","state":"MI","lat":42.3275,"long":-83.0827},{"zip":"48217","city":"Detroit","state":"MI","lat":42.2719,"long":-83.1545},{"zip":"48218","city":"River Rouge","state":"MI","lat":42.2692,"long":-83.1364},{"zip":"48219","city":"Detroit","state":"MI","lat":42.426,"long":-83.2495},{"zip":"48221","city":"Detroit","state":"MI","lat":42.426,"long":-83.15},{"zip":"48222","city":"Detroit","state":"MI","lat":42.2399,"long":-83.1508},{"zip":"48223","city":"Detroit","state":"MI","lat":42.3945,"long":-83.2454},{"zip":"48224","city":"Detroit","state":"MI","lat":42.4098,"long":-82.9441},{"zip":"48225","city":"Harper Woods","state":"MI","lat":42.4377,"long":-82.9289},{"zip":"48226","city":"Detroit","state":"MI","lat":42.3333,"long":-83.0484},{"zip":"48227","city":"Detroit","state":"MI","lat":42.3883,"long":-83.1937},{"zip":"48228","city":"Detroit","state":"MI","lat":42.3547,"long":-83.2168},{"zip":"48229","city":"Ecorse","state":"MI","lat":42.2519,"long":-83.1489},{"zip":"48230","city":"Grosse Pointe","state":"MI","lat":42.3847,"long":-82.9244},{"zip":"48231","city":"Detroit","state":"MI","lat":42.3314,"long":-83.0458},{"zip":"48232","city":"Detroit","state":"MI","lat":42.3314,"long":-83.0458},{"zip":"48233","city":"Detroit","state":"MI","lat":42.2399,"long":-83.1508},{"zip":"48234","city":"Detroit","state":"MI","lat":42.4337,"long":-83.0434},{"zip":"48235","city":"Detroit","state":"MI","lat":42.4261,"long":-83.1951},{"zip":"48236","city":"Grosse Pointe","state":"MI","lat":42.4274,"long":-82.9002},{"zip":"48238","city":"Detroit","state":"MI","lat":42.3959,"long":-83.1411},{"zip":"48239","city":"Redford","state":"MI","lat":42.3756,"long":-83.2889},{"zip":"48240","city":"Redford","state":"MI","lat":42.4264,"long":-83.3017},{"zip":"48242","city":"Detroit","state":"MI","lat":42.2166,"long":-83.3532},{"zip":"48243","city":"Detroit","state":"MI","lat":42.2399,"long":-83.1508},{"zip":"48244","city":"Detroit","state":"MI","lat":42.2399,"long":-83.1508},{"zip":"48255","city":"Detroit","state":"MI","lat":42.3314,"long":-83.0458},{"zip":"48260","city":"Detroit","state":"MI","lat":42.2399,"long":-83.1508},{"zip":"48264","city":"Detroit","state":"MI","lat":42.3314,"long":-83.0458},{"zip":"48265","city":"Detroit","state":"MI","lat":42.2399,"long":-83.1508},{"zip":"48266","city":"Detroit","state":"MI","lat":42.2399,"long":-83.1508},{"zip":"48267","city":"Detroit","state":"MI","lat":42.3314,"long":-83.0458},{"zip":"48268","city":"Detroit","state":"MI","lat":42.3314,"long":-83.0458},{"zip":"48269","city":"Detroit","state":"MI","lat":42.3314,"long":-83.0458},{"zip":"48272","city":"Detroit","state":"MI","lat":42.3314,"long":-83.0458},{"zip":"48275","city":"Detroit","state":"MI","lat":42.3314,"long":-83.0458},{"zip":"48277","city":"Detroit","state":"MI","lat":42.2399,"long":-83.1508},{"zip":"48278","city":"Detroit","state":"MI","lat":42.2399,"long":-83.1508},{"zip":"48279","city":"Detroit","state":"MI","lat":42.3314,"long":-83.0458},{"zip":"48288","city":"Detroit","state":"MI","lat":42.2399,"long":-83.1508}]
