[{"zip":"48353","city":"Hartland","state":"MI","lat":42.6356,"long":-83.7147},{"zip":"48310","city":"Sterling Heights","state":"MI","lat":42.5648,"long":-83.0701},{"zip":"48311","city":"Sterling Heights","state":"MI","lat":42.5803,"long":-83.0302},{"zip":"48312","city":"Sterling Heights","state":"MI","lat":42.5592,"long":-83.0029},{"zip":"48313","city":"Sterling Heights","state":"MI","lat":42.6005,"long":-82.9998},{"zip":"48314","city":"Sterling Heights","state":"MI","lat":42.6124,"long":-83.0345},{"zip":"48315","city":"Utica","state":"MI","lat":42.671,"long":-82.9988},{"zip":"48316","city":"Utica","state":"MI","lat":42.6885,"long":-83.0548},{"zip":"48317","city":"Utica","state":"MI","lat":42.6413,"long":-83.0504},{"zip":"48318","city":"Utica","state":"MI","lat":42.6261,"long":-83.0335},{"zip":"48397","city":"Warren","state":"MI","lat":42.4917,"long":-83.0402},{"zip":"48301","city":"Bloomfield Hills","state":"MI","lat":42.5445,"long":-83.2792},{"zip":"48302","city":"Bloomfield Hills","state":"MI","lat":42.5848,"long":-83.2821},{"zip":"48303","city":"Bloomfield Hills","state":"MI","lat":42.5836,"long":-83.2455},{"zip":"48304","city":"Bloomfield Hills","state":"MI","lat":42.587,"long":-83.2359},{"zip":"48306","city":"Rochester","state":"MI","lat":42.7262,"long":-83.1566},{"zip":"48307","city":"Rochester","state":"MI","lat":42.6593,"long":-83.1225},{"zip":"48308","city":"Rochester","state":"MI","lat":42.6806,"long":-83.1338},{"zip":"48309","city":"Rochester","state":"MI","lat":42.6626,"long":-83.1837},{"zip":"48320","city":"Keego Harbor","state":"MI","lat":42.6114,"long":-83.3356},{"zip":"48321","city":"Auburn Hills","state":"MI","lat":42.6601,"long":-83.3863},{"zip":"48322","city":"West Bloomfield","state":"MI","lat":42.5424,"long":-83.3793},{"zip":"48323","city":"West Bloomfield","state":"MI","lat":42.5683,"long":-83.3805},{"zip":"48324","city":"West Bloomfield","state":"MI","lat":42.5961,"long":-83.3819},{"zip":"48325","city":"West Bloomfield","state":"MI","lat":42.6601,"long":-83.3863},{"zip":"48326","city":"Auburn Hills","state":"MI","lat":42.6583,"long":-83.2375},{"zip":"48327","city":"Waterford","state":"MI","lat":42.6438,"long":-83.4076},{"zip":"48328","city":"Waterford","state":"MI","lat":42.6429,"long":-83.3546},{"zip":"48329","city":"Waterford","state":"MI","lat":42.6877,"long":-83.3879},{"zip":"48330","city":"Drayton Plains","state":"MI","lat":42.6754,"long":-83.3637},{"zip":"48331","city":"Farmington","state":"MI","lat":42.5051,"long":-83.4072},{"zip":"48332","city":"Farmington","state":"MI","lat":42.4645,"long":-83.3763},{"zip":"48333","city":"Farmington","state":"MI","lat":42.4645,"long":-83.3763},{"zip":"48334","city":"Farmington","state":"MI","lat":42.5065,"long":-83.3484},{"zip":"48335","city":"Farmington","state":"MI","lat":42.4617,"long":-83.4053},{"zip":"48336","city":"Farmington","state":"MI","lat":42.4656,"long":-83.3638},{"zip":"48340","city":"Pontiac","state":"MI","lat":42.668,"long":-83.2893},{"zip":"48341","city":"Pontiac","state":"MI","lat":42.6294,"long":-83.3041},{"zip":"48342","city":"Pontiac","state":"MI","lat":42.6439,"long":-83.2792},{"zip":"48343","city":"Pontiac","state":"MI","lat":42.6389,"long":-83.291},{"zip":"48346","city":"Clarkston","state":"MI","lat":42.7239,"long":-83.4232},{"zip":"48347","city":"Clarkston","state":"MI","lat":42.6601,"long":-83.3863},{"zip":"48348","city":"Clarkston","state":"MI","lat":42.7605,"long":-83.404},{"zip":"48350","city":"Davisburg","state":"MI","lat":42.7496,"long":-83.5358},{"zip":"48356","city":"Highland","state":"MI","lat":42.6692,"long":-83.5895},{"zip":"48357","city":"Highland","state":"MI","lat":42.6595,"long":-83.637},{"zip":"48359","city":"Lake Orion","state":"MI","lat":42.7231,"long":-83.2769},{"zip":"48360","city":"Lake Orion","state":"MI","lat":42.7429,"long":-83.272},{"zip":"48361","city":"Lake Orion","state":"MI","lat":42.7845,"long":-83.2397},{"zip":"48362","city":"Lake Orion","state":"MI","lat":42.7763,"long":-83.2748},{"zip":"48363","city":"Oakland","state":"MI","lat":42.7732,"long":-83.1711},{"zip":"48366","city":"Lakeville","state":"MI","lat":42.8214,"long":-83.1502},{"zip":"48367","city":"Leonard","state":"MI","lat":42.8437,"long":-83.1406},{"zip":"48370","city":"Oxford","state":"MI","lat":42.8265,"long":-83.2005},{"zip":"48371","city":"Oxford","state":"MI","lat":42.8223,"long":-83.2829},{"zip":"48374","city":"Novi","state":"MI","lat":42.4735,"long":-83.5224},{"zip":"48375","city":"Novi","state":"MI","lat":42.4604,"long":-83.4577},{"zip":"48376","city":"Novi","state":"MI","lat":42.471,"long":-83.4748},{"zip":"48377","city":"Novi","state":"MI","lat":42.4992,"long":-83.4773},{"zip":"48380","city":"Milford","state":"MI","lat":42.602,"long":-83.6508},{"zip":"48381","city":"Milford","state":"MI","lat":42.5758,"long":-83.5924},{"zip":"48382","city":"Commerce Township","state":"MI","lat":42.5834,"long":-83.5009},{"zip":"48383","city":"White Lake","state":"MI","lat":42.658,"long":-83.5398},{"zip":"48386","city":"White Lake","state":"MI","lat":42.641,"long":-83.4738},{"zip":"48387","city":"Union Lake","state":"MI","lat":42.6148,"long":-83.4469},{"zip":"48390","city":"Walled Lake","state":"MI","lat":42.5582,"long":-83.4773},{"zip":"48391","city":"Walled Lake","state":"MI","lat":42.5378,"long":-83.481},{"zip":"48393","city":"Wixom","state":"MI","lat":42.534,"long":-83.5285}]
