[{"zip":"48411","city":"Atlas","state":"MI","lat":42.94,"long":-83.5369},{"zip":"48420","city":"Clio","state":"MI","lat":43.1779,"long":-83.7249},{"zip":"48423","city":"Davison","state":"MI","lat":43.0348,"long":-83.5268},{"zip":"48430","city":"Fenton","state":"MI","lat":42.7851,"long":-83.7294},{"zip":"48433","city":"Flushing","state":"MI","lat":43.072,"long":-83.8424},{"zip":"48436","city":"Gaines","state":"MI","lat":42.8813,"long":-83.8855},{"zip":"48437","city":"Genesee","state":"MI","lat":43.1123,"long":-83.6154},{"zip":"48438","city":"Goodrich","state":"MI","lat":42.9147,"long":-83.4845},{"zip":"48439","city":"Grand Blanc","state":"MI","lat":42.9282,"long":-83.6264},{"zip":"48449","city":"Lennon","state":"MI","lat":42.9693,"long":-83.9279},{"zip":"48451","city":"Linden","state":"MI","lat":42.8104,"long":-83.7993},{"zip":"48457","city":"Montrose","state":"MI","lat":43.1754,"long":-83.8824},{"zip":"48458","city":"Mount Morris","state":"MI","lat":43.116,"long":-83.6895},{"zip":"48463","city":"Otisville","state":"MI","lat":43.1706,"long":-83.5172},{"zip":"48473","city":"Swartz Creek","state":"MI","lat":42.9468,"long":-83.817},{"zip":"48480","city":"Grand Blanc","state":"MI","lat":42.918,"long":-83.617},{"zip":"48413","city":"Bad Axe","state":"MI","lat":43.8067,"long":-83.0054},{"zip":"48432","city":"Filion","state":"MI","lat":43.9014,"long":-82.9825},{"zip":"48441","city":"Harbor Beach","state":"MI","lat":43.8312,"long":-82.6886},{"zip":"48445","city":"Kinde","state":"MI","lat":43.948,"long":-82.9755},{"zip":"48467","city":"Port Austin","state":"MI","lat":44.0223,"long":-82.9984},{"zip":"48468","city":"Port Hope","state":"MI","lat":43.928,"long":-82.7529},{"zip":"48470","city":"Ruth","state":"MI","lat":43.7404,"long":-82.7414},{"zip":"48475","city":"Ubly","state":"MI","lat":43.6896,"long":-82.964},{"zip":"48412","city":"Attica","state":"MI","lat":43.0547,"long":-83.1668},{"zip":"48421","city":"Columbiaville","state":"MI","lat":43.1503,"long":-83.3811},{"zip":"48428","city":"Dryden","state":"MI","lat":42.9378,"long":-83.1501},{"zip":"48440","city":"Hadley","state":"MI","lat":42.9306,"long":-83.36},{"zip":"48444","city":"Imlay City","state":"MI","lat":43.0425,"long":-83.0708},{"zip":"48446","city":"Lapeer","state":"MI","lat":43.0579,"long":-83.3332},{"zip":"48455","city":"Metamora","state":"MI","lat":42.9414,"long":-83.2891},{"zip":"48461","city":"North Branch","state":"MI","lat":43.2069,"long":-83.2267},{"zip":"48464","city":"Otter Lake","state":"MI","lat":43.2183,"long":-83.4242},{"zip":"48442","city":"Holly","state":"MI","lat":42.7905,"long":-83.6127},{"zip":"48462","city":"Ortonville","state":"MI","lat":42.8409,"long":-83.4288},{"zip":"48415","city":"Birch Run","state":"MI","lat":43.2649,"long":-83.7903},{"zip":"48417","city":"Burt","state":"MI","lat":43.2404,"long":-83.9511},{"zip":"48401","city":"Applegate","state":"MI","lat":43.3619,"long":-82.6479},{"zip":"48410","city":"Argyle","state":"MI","lat":43.5589,"long":-82.9455},{"zip":"48416","city":"Brown City","state":"MI","lat":43.2171,"long":-82.9978},{"zip":"48419","city":"Carsonville","state":"MI","lat":43.4258,"long":-82.6022},{"zip":"48422","city":"Croswell","state":"MI","lat":43.2622,"long":-82.6337},{"zip":"48426","city":"Decker","state":"MI","lat":43.4775,"long":-83.0638},{"zip":"48427","city":"Deckerville","state":"MI","lat":43.5151,"long":-82.7191},{"zip":"48434","city":"Forestville","state":"MI","lat":43.6632,"long":-82.6133},{"zip":"48450","city":"Lexington","state":"MI","lat":43.2435,"long":-82.5301},{"zip":"48453","city":"Marlette","state":"MI","lat":43.3399,"long":-83.0573},{"zip":"48454","city":"Melvin","state":"MI","lat":43.193,"long":-82.8393},{"zip":"48456","city":"Minden City","state":"MI","lat":43.6814,"long":-82.7299},{"zip":"48465","city":"Palms","state":"MI","lat":43.6257,"long":-82.7017},{"zip":"48466","city":"Peck","state":"MI","lat":43.2694,"long":-82.8193},{"zip":"48469","city":"Port Sanilac","state":"MI","lat":43.4329,"long":-82.5468},{"zip":"48471","city":"Sandusky","state":"MI","lat":43.4055,"long":-82.8409},{"zip":"48472","city":"Snover","state":"MI","lat":43.4886,"long":-82.9301},{"zip":"48414","city":"Bancroft","state":"MI","lat":42.882,"long":-84.1207},{"zip":"48418","city":"Byron","state":"MI","lat":42.8059,"long":-83.973},{"zip":"48429","city":"Durand","state":"MI","lat":42.9117,"long":-83.9877},{"zip":"48460","city":"New Lothrop","state":"MI","lat":43.1388,"long":-83.9851},{"zip":"48476","city":"Vernon","state":"MI","lat":42.9406,"long":-84.0328},{"zip":"48435","city":"Fostoria","state":"MI","lat":43.2645,"long":-83.3796}]
