[{"zip":"48501","city":"Flint","state":"MI","lat":42.9659,"long":-83.7808},{"zip":"48502","city":"Flint","state":"MI","lat":43.0151,"long":-83.6948},{"zip":"48503","city":"Flint","state":"MI","lat":43.0128,"long":-83.6914},{"zip":"48504","city":"Flint","state":"MI","lat":43.0573,"long":-83.7498},{"zip":"48505","city":"Flint","state":"MI","lat":43.0634,"long":-83.7001},{"zip":"48506","city":"Flint","state":"MI","lat":43.0653,"long":-83.631},{"zip":"48507","city":"Flint","state":"MI","lat":42.9821,"long":-83.734},{"zip":"48509","city":"Burton","state":"MI","lat":43.0259,"long":-83.6041},{"zip":"48519","city":"Burton","state":"MI","lat":42.9859,"long":-83.6135},{"zip":"48529","city":"Burton","state":"MI","lat":42.9744,"long":-83.6629},{"zip":"48531","city":"Flint","state":"MI","lat":43.002,"long":-83.6925},{"zip":"48532","city":"Flint","state":"MI","lat":43.0111,"long":-83.803},{"zip":"48550","city":"Flint","state":"MI","lat":43.0349,"long":-83.6887},{"zip":"48551","city":"Flint","state":"MI","lat":42.979,"long":-83.7131},{"zip":"48552","city":"Flint","state":"MI","lat":42.9779,"long":-83.7131},{"zip":"48553","city":"Flint","state":"MI","lat":42.9736,"long":-83.7203},{"zip":"48554","city":"Flint","state":"MI","lat":42.9722,"long":-83.7946},{"zip":"48555","city":"Flint","state":"MI","lat":43.0113,"long":-83.7108},{"zip":"48556","city":"Flint","state":"MI","lat":43.0327,"long":-83.6463},{"zip":"48557","city":"Flint","state":"MI","lat":43.0806,"long":-83.7837}]
