[{"zip":"48658","city":"Standish","state":"MI","lat":43.9733,"long":-83.9433},{"zip":"48659","city":"Sterling","state":"MI","lat":44.0669,"long":-84.0505},{"zip":"48611","city":"Auburn","state":"MI","lat":43.608,"long":-84.1027},{"zip":"48613","city":"Bentley","state":"MI","lat":43.9267,"long":-84.1053},{"zip":"48631","city":"Kawkawlin","state":"MI","lat":43.6794,"long":-83.9927},{"zip":"48634","city":"Linwood","state":"MI","lat":43.7714,"long":-84.0513},{"zip":"48650","city":"Pinconning","state":"MI","lat":43.8491,"long":-84.0082},{"zip":"48617","city":"Clare","state":"MI","lat":43.8223,"long":-84.7635},{"zip":"48622","city":"Farwell","state":"MI","lat":43.8342,"long":-84.8754},{"zip":"48625","city":"Harrison","state":"MI","lat":44.0285,"long":-84.7729},{"zip":"48632","city":"Lake","state":"MI","lat":43.8575,"long":-85.0219},{"zip":"48633","city":"Lake George","state":"MI","lat":43.9583,"long":-84.9193},{"zip":"48612","city":"Beaverton","state":"MI","lat":43.8866,"long":-84.4241},{"zip":"48624","city":"Gladwin","state":"MI","lat":44.0296,"long":-84.4968},{"zip":"48638","city":"Saginaw","state":"MI","lat":43.4343,"long":-84.0091},{"zip":"48652","city":"Rhodes","state":"MI","lat":43.8517,"long":-84.2134},{"zip":"48615","city":"Breckenridge","state":"MI","lat":43.3935,"long":-84.5023},{"zip":"48662","city":"Wheeler","state":"MI","lat":43.3962,"long":-84.4243},{"zip":"48618","city":"Coleman","state":"MI","lat":43.7494,"long":-84.5911},{"zip":"48620","city":"Edenville","state":"MI","lat":43.7774,"long":-84.3813},{"zip":"48628","city":"Hope","state":"MI","lat":43.7882,"long":-84.3296},{"zip":"48640","city":"Midland","state":"MI","lat":43.6376,"long":-84.268},{"zip":"48641","city":"Midland","state":"MI","lat":43.5383,"long":-84.3878},{"zip":"48642","city":"Midland","state":"MI","lat":43.6375,"long":-84.1979},{"zip":"48657","city":"Sanford","state":"MI","lat":43.7204,"long":-84.3954},{"zip":"48667","city":"Midland","state":"MI","lat":43.6473,"long":-84.3873},{"zip":"48670","city":"Midland","state":"MI","lat":43.6375,"long":-84.2568},{"zip":"48674","city":"Midland","state":"MI","lat":43.6129,"long":-84.1971},{"zip":"48686","city":"Midland","state":"MI","lat":43.6473,"long":-84.3873},{"zip":"48610","city":"Alger","state":"MI","lat":44.1395,"long":-84.1872},{"zip":"48635","city":"Lupton","state":"MI","lat":44.3976,"long":-83.9905},{"zip":"48654","city":"Rose City","state":"MI","lat":44.4167,"long":-84.1256},{"zip":"48661","city":"West Branch","state":"MI","lat":44.279,"long":-84.2286},{"zip":"48619","city":"Comins","state":"MI","lat":44.8264,"long":-84.0261},{"zip":"48621","city":"Fairview","state":"MI","lat":44.7205,"long":-84.0525},{"zip":"48636","city":"Luzerne","state":"MI","lat":44.6001,"long":-84.2931},{"zip":"48647","city":"Mio","state":"MI","lat":44.6665,"long":-84.1353},{"zip":"48627","city":"Higgins Lake","state":"MI","lat":44.3871,"long":-84.7013},{"zip":"48629","city":"Houghton Lake","state":"MI","lat":44.3147,"long":-84.7647},{"zip":"48630","city":"Houghton Lake Heights","state":"MI","lat":44.3322,"long":-84.7194},{"zip":"48651","city":"Prudenville","state":"MI","lat":44.2974,"long":-84.6627},{"zip":"48653","city":"Roscommon","state":"MI","lat":44.4839,"long":-84.6601},{"zip":"48656","city":"Saint Helen","state":"MI","lat":44.3665,"long":-84.4247},{"zip":"48601","city":"Saginaw","state":"MI","lat":43.4047,"long":-83.9156},{"zip":"48602","city":"Saginaw","state":"MI","lat":43.4248,"long":-83.9745},{"zip":"48603","city":"Saginaw","state":"MI","lat":43.4631,"long":-84.0297},{"zip":"48604","city":"Saginaw","state":"MI","lat":43.4732,"long":-83.9514},{"zip":"48605","city":"Saginaw","state":"MI","lat":43.4588,"long":-84.0518},{"zip":"48606","city":"Saginaw","state":"MI","lat":43.3485,"long":-84.0326},{"zip":"48607","city":"Saginaw","state":"MI","lat":43.4301,"long":-83.9319},{"zip":"48608","city":"Saginaw","state":"MI","lat":43.3485,"long":-84.0326},{"zip":"48609","city":"Saginaw","state":"MI","lat":43.3869,"long":-84.0926},{"zip":"48614","city":"Brant","state":"MI","lat":43.2548,"long":-84.2978},{"zip":"48616","city":"Chesaning","state":"MI","lat":43.1824,"long":-84.1122},{"zip":"48623","city":"Freeland","state":"MI","lat":43.5161,"long":-84.1822},{"zip":"48626","city":"Hemlock","state":"MI","lat":43.4099,"long":-84.2266},{"zip":"48637","city":"Merrill","state":"MI","lat":43.3939,"long":-84.3308},{"zip":"48649","city":"Oakley","state":"MI","lat":43.1505,"long":-84.2094},{"zip":"48655","city":"Saint Charles","state":"MI","lat":43.2863,"long":-84.1598},{"zip":"48663","city":"Saginaw","state":"MI","lat":43.4195,"long":-83.9508}]
