[{"zip":"48705","city":"Barton City","state":"MI","lat":44.702,"long":-83.5994},{"zip":"48721","city":"Black River","state":"MI","lat":44.8138,"long":-83.3407},{"zip":"48728","city":"Curran","state":"MI","lat":44.7336,"long":-83.832},{"zip":"48737","city":"Glennie","state":"MI","lat":44.5582,"long":-83.6899},{"zip":"48738","city":"Greenbush","state":"MI","lat":44.548,"long":-83.3269},{"zip":"48740","city":"Harrisville","state":"MI","lat":44.6546,"long":-83.3424},{"zip":"48742","city":"Lincoln","state":"MI","lat":44.7111,"long":-83.3947},{"zip":"48745","city":"Mikado","state":"MI","lat":44.5833,"long":-83.4355},{"zip":"48762","city":"Spruce","state":"MI","lat":44.8224,"long":-83.5044},{"zip":"48703","city":"Au Gres","state":"MI","lat":44.0338,"long":-83.702},{"zip":"48749","city":"Omer","state":"MI","lat":44.0499,"long":-83.843},{"zip":"48765","city":"Turner","state":"MI","lat":44.1105,"long":-83.7019},{"zip":"48766","city":"Twining","state":"MI","lat":44.1293,"long":-83.8491},{"zip":"48706","city":"Bay City","state":"MI","lat":43.6088,"long":-83.953},{"zip":"48707","city":"Bay City","state":"MI","lat":43.7378,"long":-83.9333},{"zip":"48708","city":"Bay City","state":"MI","lat":43.5821,"long":-83.8781},{"zip":"48710","city":"University Center","state":"MI","lat":43.5566,"long":-83.9943},{"zip":"48732","city":"Essexville","state":"MI","lat":43.6069,"long":-83.8217},{"zip":"48747","city":"Munger","state":"MI","lat":43.5286,"long":-83.7672},{"zip":"48720","city":"Bay Port","state":"MI","lat":43.8377,"long":-83.3525},{"zip":"48725","city":"Caseville","state":"MI","lat":43.9429,"long":-83.2659},{"zip":"48731","city":"Elkton","state":"MI","lat":43.8344,"long":-83.1786},{"zip":"48754","city":"Owendale","state":"MI","lat":43.7206,"long":-83.2307},{"zip":"48755","city":"Pigeon","state":"MI","lat":43.8179,"long":-83.2755},{"zip":"48759","city":"Sebewaing","state":"MI","lat":43.7289,"long":-83.4366},{"zip":"48730","city":"East Tawas","state":"MI","lat":44.3008,"long":-83.4776},{"zip":"48739","city":"Hale","state":"MI","lat":44.3819,"long":-83.8359},{"zip":"48743","city":"Long Lake","state":"MI","lat":44.4416,"long":-83.8516},{"zip":"48748","city":"National City","state":"MI","lat":44.3137,"long":-83.6839},{"zip":"48750","city":"Oscoda","state":"MI","lat":44.4465,"long":-83.3619},{"zip":"48763","city":"Tawas City","state":"MI","lat":44.2675,"long":-83.5449},{"zip":"48764","city":"Tawas City","state":"MI","lat":44.2665,"long":-83.5192},{"zip":"48770","city":"Whittemore","state":"MI","lat":44.2325,"long":-83.8068},{"zip":"48727","city":"Clifford","state":"MI","lat":43.31,"long":-83.1741},{"zip":"48760","city":"Silverwood","state":"MI","lat":43.3141,"long":-83.272},{"zip":"48756","city":"Prescott","state":"MI","lat":44.21,"long":-84.0212},{"zip":"48761","city":"South Branch","state":"MI","lat":44.5014,"long":-83.8686},{"zip":"48722","city":"Bridgeport","state":"MI","lat":43.3553,"long":-83.8549},{"zip":"48724","city":"Carrollton","state":"MI","lat":43.4586,"long":-83.9303},{"zip":"48734","city":"Frankenmuth","state":"MI","lat":43.341,"long":-83.7475},{"zip":"48787","city":"Frankenmuth","state":"MI","lat":43.335,"long":-83.7494},{"zip":"48701","city":"Akron","state":"MI","lat":43.5844,"long":-83.5393},{"zip":"48723","city":"Caro","state":"MI","lat":43.4833,"long":-83.3835},{"zip":"48726","city":"Cass City","state":"MI","lat":43.5797,"long":-83.1733},{"zip":"48729","city":"Deford","state":"MI","lat":43.4735,"long":-83.1702},{"zip":"48733","city":"Fairgrove","state":"MI","lat":43.5126,"long":-83.5835},{"zip":"48735","city":"Gagetown","state":"MI","lat":43.6543,"long":-83.2628},{"zip":"48741","city":"Kingston","state":"MI","lat":43.3982,"long":-83.1847},{"zip":"48744","city":"Mayville","state":"MI","lat":43.3562,"long":-83.3725},{"zip":"48746","city":"Millington","state":"MI","lat":43.2718,"long":-83.5619},{"zip":"48757","city":"Reese","state":"MI","lat":43.4531,"long":-83.7015},{"zip":"48758","city":"Richville","state":"MI","lat":43.4073,"long":-83.6762},{"zip":"48767","city":"Unionville","state":"MI","lat":43.6473,"long":-83.4699},{"zip":"48768","city":"Vassar","state":"MI","lat":43.3691,"long":-83.5844}]
