[{"zip":"48897","city":"Woodland","state":"MI","lat":42.7057,"long":-85.1326},{"zip":"48808","city":"Bath","state":"MI","lat":42.8206,"long":-84.4545},{"zip":"48820","city":"Dewitt","state":"MI","lat":42.8428,"long":-84.5797},{"zip":"48822","city":"Eagle","state":"MI","lat":42.8263,"long":-84.759},{"zip":"48831","city":"Elsie","state":"MI","lat":43.0886,"long":-84.3869},{"zip":"48833","city":"Eureka","state":"MI","lat":43.1036,"long":-84.5139},{"zip":"48835","city":"Fowler","state":"MI","lat":42.9941,"long":-84.76},{"zip":"48853","city":"Maple Rapids","state":"MI","lat":43.0992,"long":-84.6898},{"zip":"48866","city":"Ovid","state":"MI","lat":42.9969,"long":-84.3649},{"zip":"48879","city":"Saint Johns","state":"MI","lat":43.0059,"long":-84.5719},{"zip":"48894","city":"Westphalia","state":"MI","lat":42.9328,"long":-84.8083},{"zip":"48813","city":"Charlotte","state":"MI","lat":42.5702,"long":-84.8352},{"zip":"48821","city":"Dimondale","state":"MI","lat":42.6501,"long":-84.6486},{"zip":"48827","city":"Eaton Rapids","state":"MI","lat":42.5166,"long":-84.6565},{"zip":"48837","city":"Grand Ledge","state":"MI","lat":42.7529,"long":-84.7373},{"zip":"48861","city":"Mulliken","state":"MI","lat":42.7377,"long":-84.8979},{"zip":"48876","city":"Potterville","state":"MI","lat":42.6398,"long":-84.7346},{"zip":"48890","city":"Sunfield","state":"MI","lat":42.7693,"long":-84.9813},{"zip":"48801","city":"Alma","state":"MI","lat":43.3809,"long":-84.6635},{"zip":"48806","city":"Ashley","state":"MI","lat":43.1891,"long":-84.488},{"zip":"48807","city":"Bannister","state":"MI","lat":43.1615,"long":-84.3597},{"zip":"48830","city":"Elm Hall","state":"MI","lat":43.3639,"long":-84.8362},{"zip":"48832","city":"Elwell","state":"MI","lat":43.4106,"long":-84.7631},{"zip":"48847","city":"Ithaca","state":"MI","lat":43.2828,"long":-84.6088},{"zip":"48856","city":"Middleton","state":"MI","lat":43.1689,"long":-84.7552},{"zip":"48862","city":"North Star","state":"MI","lat":43.2484,"long":-84.5433},{"zip":"48871","city":"Perrinton","state":"MI","lat":43.1649,"long":-84.666},{"zip":"48874","city":"Pompeii","state":"MI","lat":43.1863,"long":-84.6017},{"zip":"48877","city":"Riverdale","state":"MI","lat":43.4017,"long":-84.8429},{"zip":"48880","city":"Saint Louis","state":"MI","lat":43.4278,"long":-84.5952},{"zip":"48889","city":"Sumner","state":"MI","lat":43.3091,"long":-84.7907},{"zip":"48805","city":"Okemos","state":"MI","lat":42.5992,"long":-84.372},{"zip":"48819","city":"Dansville","state":"MI","lat":42.5505,"long":-84.2939},{"zip":"48823","city":"East Lansing","state":"MI","lat":42.7388,"long":-84.4764},{"zip":"48824","city":"East Lansing","state":"MI","lat":42.7283,"long":-84.4882},{"zip":"48825","city":"East Lansing","state":"MI","lat":42.7238,"long":-84.4648},{"zip":"48826","city":"East Lansing","state":"MI","lat":42.737,"long":-84.4839},{"zip":"48840","city":"Haslett","state":"MI","lat":42.7531,"long":-84.3989},{"zip":"48842","city":"Holt","state":"MI","lat":42.6394,"long":-84.5242},{"zip":"48854","city":"Mason","state":"MI","lat":42.5796,"long":-84.4561},{"zip":"48864","city":"Okemos","state":"MI","lat":42.7053,"long":-84.4187},{"zip":"48892","city":"Webberville","state":"MI","lat":42.663,"long":-84.1701},{"zip":"48895","city":"Williamston","state":"MI","lat":42.6967,"long":-84.2926},{"zip":"48809","city":"Belding","state":"MI","lat":43.0885,"long":-85.2313},{"zip":"48815","city":"Clarksville","state":"MI","lat":42.8302,"long":-85.2494},{"zip":"48845","city":"Hubbardston","state":"MI","lat":43.0923,"long":-84.8422},{"zip":"48846","city":"Ionia","state":"MI","lat":42.9859,"long":-85.071},{"zip":"48849","city":"Lake Odessa","state":"MI","lat":42.7863,"long":-85.1357},{"zip":"48851","city":"Lyons","state":"MI","lat":42.9634,"long":-84.9209},{"zip":"48860","city":"Muir","state":"MI","lat":43.0439,"long":-84.9391},{"zip":"48865","city":"Orleans","state":"MI","lat":43.0895,"long":-85.1165},{"zip":"48870","city":"Palo","state":"MI","lat":43.1136,"long":-85.0077},{"zip":"48873","city":"Pewamo","state":"MI","lat":43.0007,"long":-84.8492},{"zip":"48875","city":"Portland","state":"MI","lat":42.8624,"long":-84.9139},{"zip":"48881","city":"Saranac","state":"MI","lat":42.9357,"long":-85.203},{"zip":"48887","city":"Smyrna","state":"MI","lat":43.0595,"long":-85.2628},{"zip":"48804","city":"Mount Pleasant","state":"MI","lat":43.6406,"long":-84.8474},{"zip":"48858","city":"Mount Pleasant","state":"MI","lat":43.6013,"long":-84.7736},{"zip":"48859","city":"Mount Pleasant","state":"MI","lat":43.5647,"long":-84.8473},{"zip":"48878","city":"Rosebush","state":"MI","lat":43.6843,"long":-84.7833},{"zip":"48883","city":"Shepherd","state":"MI","lat":43.5657,"long":-84.5873},{"zip":"48893","city":"Weidman","state":"MI","lat":43.6453,"long":-85.0046},{"zip":"48896","city":"Winn","state":"MI","lat":43.5234,"long":-84.9017},{"zip":"48816","city":"Cohoctah","state":"MI","lat":42.7598,"long":-83.9486},{"zip":"48836","city":"Fowlerville","state":"MI","lat":42.6614,"long":-84.0721},{"zip":"48843","city":"Howell","state":"MI","lat":42.6159,"long":-83.9248},{"zip":"48844","city":"Howell","state":"MI","lat":42.6035,"long":-83.9112},{"zip":"48855","city":"Howell","state":"MI","lat":42.6871,"long":-83.914},{"zip":"48811","city":"Carson City","state":"MI","lat":43.1695,"long":-84.8653},{"zip":"48812","city":"Cedar Lake","state":"MI","lat":43.4138,"long":-84.9753},{"zip":"48818","city":"Crystal","state":"MI","lat":43.2624,"long":-84.8993},{"zip":"48829","city":"Edmore","state":"MI","lat":43.4116,"long":-85.028},{"zip":"48834","city":"Fenwick","state":"MI","lat":43.1497,"long":-85.0666},{"zip":"48838","city":"Greenville","state":"MI","lat":43.1793,"long":-85.2497},{"zip":"48850","city":"Lakeview","state":"MI","lat":43.4269,"long":-85.2924},{"zip":"48852","city":"Mcbrides","state":"MI","lat":43.3503,"long":-85.0517},{"zip":"48884","city":"Sheridan","state":"MI","lat":43.2126,"long":-85.0468},{"zip":"48885","city":"Sidney","state":"MI","lat":43.2358,"long":-85.1207},{"zip":"48886","city":"Six Lakes","state":"MI","lat":43.4337,"long":-85.1416},{"zip":"48888","city":"Stanton","state":"MI","lat":43.3058,"long":-85.0995},{"zip":"48891","city":"Vestaburg","state":"MI","lat":43.387,"long":-84.9082},{"zip":"48817","city":"Corunna","state":"MI","lat":43.0414,"long":-84.0276},{"zip":"48841","city":"Henderson","state":"MI","lat":43.1143,"long":-84.2369},{"zip":"48848","city":"Laingsburg","state":"MI","lat":42.8627,"long":-84.353},{"zip":"48857","city":"Morrice","state":"MI","lat":42.8385,"long":-84.1768},{"zip":"48867","city":"Owosso","state":"MI","lat":42.9934,"long":-84.1595},{"zip":"48872","city":"Perry","state":"MI","lat":42.82,"long":-84.2313},{"zip":"48882","city":"Shaftsburg","state":"MI","lat":42.804,"long":-84.2959}]
