[{"zip":"48908","city":"Lansing","state":"MI","lat":42.5961,"long":-84.8382},{"zip":"48917","city":"Lansing","state":"MI","lat":42.7376,"long":-84.6244},{"zip":"48901","city":"Lansing","state":"MI","lat":42.7325,"long":-84.5555},{"zip":"48906","city":"Lansing","state":"MI","lat":42.7635,"long":-84.558},{"zip":"48909","city":"Lansing","state":"MI","lat":42.7325,"long":-84.5555},{"zip":"48910","city":"Lansing","state":"MI","lat":42.7008,"long":-84.549},{"zip":"48911","city":"Lansing","state":"MI","lat":42.6797,"long":-84.5772},{"zip":"48912","city":"Lansing","state":"MI","lat":42.7371,"long":-84.5244},{"zip":"48913","city":"Lansing","state":"MI","lat":42.7325,"long":-84.5555},{"zip":"48915","city":"Lansing","state":"MI","lat":42.7391,"long":-84.5704},{"zip":"48916","city":"Lansing","state":"MI","lat":42.7325,"long":-84.5555},{"zip":"48918","city":"Lansing","state":"MI","lat":42.7325,"long":-84.5555},{"zip":"48919","city":"Lansing","state":"MI","lat":42.7286,"long":-84.5517},{"zip":"48922","city":"Lansing","state":"MI","lat":42.7325,"long":-84.5587},{"zip":"48924","city":"Lansing","state":"MI","lat":42.7325,"long":-84.5555},{"zip":"48929","city":"Lansing","state":"MI","lat":42.7325,"long":-84.5587},{"zip":"48930","city":"Lansing","state":"MI","lat":42.7325,"long":-84.5587},{"zip":"48933","city":"Lansing","state":"MI","lat":42.7334,"long":-84.5571},{"zip":"48937","city":"Lansing","state":"MI","lat":42.7487,"long":-84.559},{"zip":"48951","city":"Lansing","state":"MI","lat":42.7035,"long":-84.5365},{"zip":"48956","city":"Lansing","state":"MI","lat":42.7325,"long":-84.5587},{"zip":"48980","city":"Lansing","state":"MI","lat":42.7325,"long":-84.5555}]
