[{"zip":"49806","city":"Au Train","state":"MI","lat":46.4446,"long":-86.9115},{"zip":"49816","city":"Chatham","state":"MI","lat":46.3477,"long":-86.929},{"zip":"49822","city":"Deerton","state":"MI","lat":46.427,"long":-87.0497},{"zip":"49825","city":"Eben Junction","state":"MI","lat":46.3549,"long":-86.9701},{"zip":"49826","city":"Rumely","state":"MI","lat":46.3483,"long":-87.0332},{"zip":"49839","city":"Grand Marais","state":"MI","lat":46.6529,"long":-85.9836},{"zip":"49862","city":"Munising","state":"MI","lat":46.3994,"long":-86.6983},{"zip":"49884","city":"Shingleton","state":"MI","lat":46.3512,"long":-86.4823},{"zip":"49891","city":"Trenary","state":"MI","lat":46.1947,"long":-86.9502},{"zip":"49895","city":"Wetmore","state":"MI","lat":46.3535,"long":-86.6345},{"zip":"49010","city":"Allegan","state":"MI","lat":42.5256,"long":-85.8661},{"zip":"49070","city":"Martin","state":"MI","lat":42.537,"long":-85.6417},{"zip":"49078","city":"Otsego","state":"MI","lat":42.4723,"long":-85.7035},{"zip":"49080","city":"Plainwell","state":"MI","lat":42.4544,"long":-85.5994},{"zip":"49311","city":"Bradley","state":"MI","lat":42.633,"long":-85.643},{"zip":"49314","city":"Burnips","state":"MI","lat":42.7312,"long":-85.8404},{"zip":"49323","city":"Dorr","state":"MI","lat":42.7231,"long":-85.7628},{"zip":"49328","city":"Hopkins","state":"MI","lat":42.6421,"long":-85.7322},{"zip":"49335","city":"Moline","state":"MI","lat":42.737,"long":-85.6635},{"zip":"49344","city":"Shelbyville","state":"MI","lat":42.5936,"long":-85.6282},{"zip":"49348","city":"Wayland","state":"MI","lat":42.6643,"long":-85.6191},{"zip":"49406","city":"Douglas","state":"MI","lat":42.6369,"long":-86.2022},{"zip":"49408","city":"Fennville","state":"MI","lat":42.5777,"long":-86.1249},{"zip":"49416","city":"Glenn","state":"MI","lat":42.5203,"long":-86.2275},{"zip":"49419","city":"Hamilton","state":"MI","lat":42.6881,"long":-85.9747},{"zip":"49450","city":"Pullman","state":"MI","lat":42.4651,"long":-86.0799},{"zip":"49453","city":"Saugatuck","state":"MI","lat":42.6456,"long":-86.1655},{"zip":"49707","city":"Alpena","state":"MI","lat":45.079,"long":-83.4602},{"zip":"49744","city":"Herron","state":"MI","lat":45.0124,"long":-83.6535},{"zip":"49747","city":"Hubbard Lake","state":"MI","lat":44.8947,"long":-83.6059},{"zip":"49753","city":"Lachine","state":"MI","lat":45.0429,"long":-83.7491},{"zip":"49766","city":"Ossineke","state":"MI","lat":44.9104,"long":-83.4592},{"zip":"49611","city":"Alba","state":"MI","lat":44.9737,"long":-84.9745},{"zip":"49612","city":"Alden","state":"MI","lat":44.8779,"long":-85.2241},{"zip":"49615","city":"Bellaire","state":"MI","lat":44.9765,"long":-85.2265},{"zip":"49622","city":"Central Lake","state":"MI","lat":45.0748,"long":-85.2673},{"zip":"49627","city":"Eastport","state":"MI","lat":45.1072,"long":-85.3501},{"zip":"49629","city":"Elk Rapids","state":"MI","lat":44.8955,"long":-85.4082},{"zip":"49648","city":"Kewadin","state":"MI","lat":45.0126,"long":-85.3539},{"zip":"49659","city":"Mancelona","state":"MI","lat":44.9116,"long":-85.0634},{"zip":"49729","city":"Ellsworth","state":"MI","lat":45.1599,"long":-85.2633},{"zip":"49908","city":"Baraga","state":"MI","lat":46.8048,"long":-88.5758},{"zip":"49919","city":"Covington","state":"MI","lat":46.5413,"long":-88.5371},{"zip":"49946","city":"Lanse","state":"MI","lat":46.7704,"long":-88.421},{"zip":"49962","city":"Skanee","state":"MI","lat":46.8747,"long":-88.1732},{"zip":"49970","city":"Watton","state":"MI","lat":46.5413,"long":-88.6049},{"zip":"49035","city":"Cloverdale","state":"MI","lat":42.5951,"long":-85.3086},{"zip":"49046","city":"Delton","state":"MI","lat":42.5141,"long":-85.4067},{"zip":"49050","city":"Dowling","state":"MI","lat":42.5015,"long":-85.2495},{"zip":"49058","city":"Hastings","state":"MI","lat":42.643,"long":-85.2937},{"zip":"49060","city":"Hickory Corners","state":"MI","lat":42.4237,"long":-85.3998},{"zip":"49073","city":"Nashville","state":"MI","lat":42.5937,"long":-85.122},{"zip":"49325","city":"Freeport","state":"MI","lat":42.7661,"long":-85.3133},{"zip":"49333","city":"Middleville","state":"MI","lat":42.6932,"long":-85.4759},{"zip":"49616","city":"Benzonia","state":"MI","lat":44.5955,"long":-86.0961},{"zip":"49617","city":"Beulah","state":"MI","lat":44.6306,"long":-86.0025},{"zip":"49628","city":"Elberta","state":"MI","lat":44.6194,"long":-86.2265},{"zip":"49635","city":"Frankfort","state":"MI","lat":44.6311,"long":-86.2212},{"zip":"49640","city":"Honor","state":"MI","lat":44.6954,"long":-86.0376},{"zip":"49650","city":"Lake Ann","state":"MI","lat":44.7317,"long":-85.8528},{"zip":"49683","city":"Thompsonville","state":"MI","lat":44.5198,"long":-85.946},{"zip":"49022","city":"Benton Harbor","state":"MI","lat":42.1086,"long":-86.4234},{"zip":"49023","city":"Benton Harbor","state":"MI","lat":42.1167,"long":-86.4542},{"zip":"49038","city":"Coloma","state":"MI","lat":42.203,"long":-86.3225},{"zip":"49039","city":"Hagar Shores","state":"MI","lat":42.2248,"long":-86.3723},{"zip":"49084","city":"Riverside","state":"MI","lat":42.1834,"long":-86.3828},{"zip":"49085","city":"Saint Joseph","state":"MI","lat":42.064,"long":-86.4783},{"zip":"49098","city":"Watervliet","state":"MI","lat":42.1938,"long":-86.2604},{"zip":"49101","city":"Baroda","state":"MI","lat":41.9488,"long":-86.4913},{"zip":"49102","city":"Berrien Center","state":"MI","lat":41.9484,"long":-86.285},{"zip":"49103","city":"Berrien Springs","state":"MI","lat":41.948,"long":-86.354},{"zip":"49104","city":"Berrien Springs","state":"MI","lat":41.9464,"long":-86.3389},{"zip":"49106","city":"Bridgman","state":"MI","lat":41.9362,"long":-86.5543},{"zip":"49107","city":"Buchanan","state":"MI","lat":41.8327,"long":-86.3708},{"zip":"49111","city":"Eau Claire","state":"MI","lat":42.0151,"long":-86.2972},{"zip":"49113","city":"Galien","state":"MI","lat":41.8198,"long":-86.5035},{"zip":"49115","city":"Harbert","state":"MI","lat":41.8771,"long":-86.6302},{"zip":"49116","city":"Lakeside","state":"MI","lat":41.8485,"long":-86.6694},{"zip":"49117","city":"New Buffalo","state":"MI","lat":41.7927,"long":-86.746},{"zip":"49119","city":"New Troy","state":"MI","lat":41.8744,"long":-86.549},{"zip":"49120","city":"Niles","state":"MI","lat":41.8202,"long":-86.2368},{"zip":"49125","city":"Sawyer","state":"MI","lat":41.8829,"long":-86.5885},{"zip":"49126","city":"Sodus","state":"MI","lat":42.0521,"long":-86.3921},{"zip":"49127","city":"Stevensville","state":"MI","lat":42.022,"long":-86.5119},{"zip":"49128","city":"Three Oaks","state":"MI","lat":41.815,"long":-86.6154},{"zip":"49129","city":"Union Pier","state":"MI","lat":41.8255,"long":-86.6911},{"zip":"49028","city":"Bronson","state":"MI","lat":41.8643,"long":-85.1838},{"zip":"49036","city":"Coldwater","state":"MI","lat":41.9255,"long":-85.0057},{"zip":"49082","city":"Quincy","state":"MI","lat":41.9442,"long":-84.8839},{"zip":"49089","city":"Sherwood","state":"MI","lat":42.0107,"long":-85.2408},{"zip":"49094","city":"Union City","state":"MI","lat":42.0551,"long":-85.1356},{"zip":"49255","city":"Montgomery","state":"MI","lat":41.7928,"long":-84.8496},{"zip":"49011","city":"Athens","state":"MI","lat":42.103,"long":-85.2317},{"zip":"49014","city":"Battle Creek","state":"MI","lat":42.303,"long":-85.1304},{"zip":"49015","city":"Battle Creek","state":"MI","lat":42.3028,"long":-85.2128},{"zip":"49016","city":"Battle Creek","state":"MI","lat":42.2464,"long":-85.0045},{"zip":"49017","city":"Battle Creek","state":"MI","lat":42.3322,"long":-85.1811},{"zip":"49018","city":"Battle Creek","state":"MI","lat":42.2464,"long":-85.0045},{"zip":"49020","city":"Bedford","state":"MI","lat":42.3953,"long":-85.2322},{"zip":"49029","city":"Burlington","state":"MI","lat":42.1239,"long":-85.105},{"zip":"49033","city":"Ceresco","state":"MI","lat":42.2127,"long":-85.1128},{"zip":"49037","city":"Battle Creek","state":"MI","lat":42.3453,"long":-85.2178},{"zip":"49051","city":"East Leroy","state":"MI","lat":42.1961,"long":-85.2311},{"zip":"49068","city":"Marshall","state":"MI","lat":42.272,"long":-84.9583},{"zip":"49092","city":"Tekonsha","state":"MI","lat":42.0863,"long":-84.9926},{"zip":"49224","city":"Albion","state":"MI","lat":42.2581,"long":-84.7561},{"zip":"49245","city":"Homer","state":"MI","lat":42.1416,"long":-84.8157},{"zip":"49031","city":"Cassopolis","state":"MI","lat":41.8968,"long":-85.9923},{"zip":"49047","city":"Dowagiac","state":"MI","lat":41.991,"long":-86.1168},{"zip":"49061","city":"Jones","state":"MI","lat":41.9129,"long":-85.8341},{"zip":"49067","city":"Marcellus","state":"MI","lat":42.0275,"long":-85.7988},{"zip":"49095","city":"Vandalia","state":"MI","lat":41.8955,"long":-85.8755},{"zip":"49112","city":"Edwardsburg","state":"MI","lat":41.7913,"long":-86.0263},{"zip":"49130","city":"Union","state":"MI","lat":41.7827,"long":-85.8529},{"zip":"49711","city":"Bay Shore","state":"MI","lat":45.3583,"long":-85.0973},{"zip":"49712","city":"Boyne City","state":"MI","lat":45.2052,"long":-85.0183},{"zip":"49713","city":"Boyne Falls","state":"MI","lat":45.2116,"long":-84.8916},{"zip":"49720","city":"Charlevoix","state":"MI","lat":45.2654,"long":-85.2297},{"zip":"49727","city":"East Jordan","state":"MI","lat":45.1539,"long":-85.1387},{"zip":"49782","city":"Beaver Island","state":"MI","lat":45.6684,"long":-85.5473},{"zip":"49796","city":"Walloon Lake","state":"MI","lat":45.2661,"long":-84.9337},{"zip":"49701","city":"Mackinaw City","state":"MI","lat":45.7777,"long":-84.7298},{"zip":"49705","city":"Afton","state":"MI","lat":45.3637,"long":-84.4695},{"zip":"49716","city":"Brutus","state":"MI","lat":45.5068,"long":-84.7467},{"zip":"49717","city":"Burt Lake","state":"MI","lat":45.4307,"long":-84.6912},{"zip":"49721","city":"Cheboygan","state":"MI","lat":45.608,"long":-84.4867},{"zip":"49749","city":"Indian River","state":"MI","lat":45.427,"long":-84.5956},{"zip":"49761","city":"Mullett Lake","state":"MI","lat":45.5595,"long":-84.5221},{"zip":"49791","city":"Topinabee","state":"MI","lat":45.4838,"long":-84.5936},{"zip":"49792","city":"Tower","state":"MI","lat":45.3588,"long":-84.2953},{"zip":"49799","city":"Wolverine","state":"MI","lat":45.2861,"long":-84.6065},{"zip":"49710","city":"Barbeau","state":"MI","lat":46.2848,"long":-84.2173},{"zip":"49715","city":"Brimley","state":"MI","lat":46.3891,"long":-84.6981},{"zip":"49724","city":"Dafter","state":"MI","lat":46.327,"long":-84.3878},{"zip":"49725","city":"De Tour Village","state":"MI","lat":45.9939,"long":-83.9396},{"zip":"49726","city":"Drummond Island","state":"MI","lat":46.0055,"long":-83.7367},{"zip":"49728","city":"Eckerman","state":"MI","lat":46.4088,"long":-85.0136},{"zip":"49736","city":"Goetzville","state":"MI","lat":46.079,"long":-84.145},{"zip":"49748","city":"Hulbert","state":"MI","lat":46.3908,"long":-85.1764},{"zip":"49752","city":"Kinross","state":"MI","lat":46.275,"long":-84.5148},{"zip":"49768","city":"Paradise","state":"MI","lat":46.5951,"long":-85.0973},{"zip":"49774","city":"Pickford","state":"MI","lat":46.1559,"long":-84.3663},{"zip":"49780","city":"Rudyard","state":"MI","lat":46.2585,"long":-84.8004},{"zip":"49783","city":"Sault Sainte Marie","state":"MI","lat":46.4151,"long":-84.2854},{"zip":"49784","city":"Kincheloe","state":"MI","lat":46.4108,"long":-84.3365},{"zip":"49785","city":"Kincheloe","state":"MI","lat":46.1815,"long":-84.4054},{"zip":"49786","city":"Kincheloe","state":"MI","lat":46.4108,"long":-84.3365},{"zip":"49788","city":"Kincheloe","state":"MI","lat":46.2627,"long":-84.4626},{"zip":"49793","city":"Trout Lake","state":"MI","lat":46.1936,"long":-85.019},{"zip":"49733","city":"Frederic","state":"MI","lat":44.8382,"long":-84.6824},{"zip":"49738","city":"Grayling","state":"MI","lat":44.671,"long":-84.6913},{"zip":"49739","city":"Grayling","state":"MI","lat":44.683,"long":-84.6104},{"zip":"49807","city":"Bark River","state":"MI","lat":45.6956,"long":-87.2073},{"zip":"49818","city":"Cornell","state":"MI","lat":45.9104,"long":-87.2237},{"zip":"49829","city":"Escanaba","state":"MI","lat":45.7659,"long":-87.089},{"zip":"49835","city":"Garden","state":"MI","lat":45.7549,"long":-86.5776},{"zip":"49837","city":"Gladstone","state":"MI","lat":45.8813,"long":-87.1152},{"zip":"49864","city":"Nahma","state":"MI","lat":45.8424,"long":-86.6558},{"zip":"49872","city":"Perkins","state":"MI","lat":45.9925,"long":-87.0792},{"zip":"49878","city":"Rapid River","state":"MI","lat":45.9107,"long":-86.8845},{"zip":"49880","city":"Rock","state":"MI","lat":46.0503,"long":-87.1331},{"zip":"49894","city":"Wells","state":"MI","lat":45.7849,"long":-87.0734},{"zip":"49801","city":"Iron Mountain","state":"MI","lat":45.8219,"long":-88.0683},{"zip":"49802","city":"Kingsford","state":"MI","lat":45.8006,"long":-88.0773},{"zip":"49815","city":"Channing","state":"MI","lat":46.1546,"long":-88.0772},{"zip":"49831","city":"Felch","state":"MI","lat":45.9972,"long":-87.8257},{"zip":"49834","city":"Foster City","state":"MI","lat":45.9438,"long":-87.7584},{"zip":"49852","city":"Loretto","state":"MI","lat":45.8275,"long":-87.7764},{"zip":"49870","city":"Norway","state":"MI","lat":45.7862,"long":-87.9047},{"zip":"49876","city":"Quinnesec","state":"MI","lat":45.7999,"long":-87.9922},{"zip":"49877","city":"Ralph","state":"MI","lat":46.1297,"long":-87.7367},{"zip":"49881","city":"Sagola","state":"MI","lat":46.0813,"long":-88.0676},{"zip":"49892","city":"Vulcan","state":"MI","lat":45.7623,"long":-87.8168},{"zip":"49021","city":"Bellevue","state":"MI","lat":42.4525,"long":-85.0489},{"zip":"49076","city":"Olivet","state":"MI","lat":42.4459,"long":-84.8973},{"zip":"49096","city":"Vermontville","state":"MI","lat":42.6392,"long":-85.011},{"zip":"49706","city":"Alanson","state":"MI","lat":45.4405,"long":-84.7924},{"zip":"49718","city":"Carp Lake","state":"MI","lat":45.7424,"long":-84.7735},{"zip":"49722","city":"Conway","state":"MI","lat":45.4167,"long":-84.867},{"zip":"49723","city":"Cross Village","state":"MI","lat":45.6254,"long":-85.0419},{"zip":"49737","city":"Good Hart","state":"MI","lat":45.5802,"long":-85.1137},{"zip":"49740","city":"Harbor Springs","state":"MI","lat":45.5251,"long":-85.0062},{"zip":"49755","city":"Levering","state":"MI","lat":45.6377,"long":-84.7986},{"zip":"49764","city":"Oden","state":"MI","lat":45.4236,"long":-84.8281},{"zip":"49769","city":"Pellston","state":"MI","lat":45.5703,"long":-84.8425},{"zip":"49770","city":"Petoskey","state":"MI","lat":45.3559,"long":-84.9133},{"zip":"49911","city":"Bessemer","state":"MI","lat":46.4802,"long":-90.0515},{"zip":"49938","city":"Ironwood","state":"MI","lat":46.4638,"long":-90.1588},{"zip":"49947","city":"Marenisco","state":"MI","lat":46.3551,"long":-89.6774},{"zip":"49959","city":"Ramsay","state":"MI","lat":46.4727,"long":-89.9976},{"zip":"49968","city":"Wakefield","state":"MI","lat":46.4752,"long":-89.9424},{"zip":"49969","city":"Watersmeet","state":"MI","lat":46.2542,"long":-89.2108},{"zip":"49610","city":"Acme","state":"MI","lat":44.7894,"long":-85.4884},{"zip":"49633","city":"Fife Lake","state":"MI","lat":44.5721,"long":-85.2531},{"zip":"49637","city":"Grawn","state":"MI","lat":44.6428,"long":-85.7113},{"zip":"49643","city":"Interlochen","state":"MI","lat":44.6518,"long":-85.8022},{"zip":"49649","city":"Kingsley","state":"MI","lat":44.5756,"long":-85.5262},{"zip":"49666","city":"Mayfield","state":"MI","lat":44.6261,"long":-85.5287},{"zip":"49673","city":"Old Mission","state":"MI","lat":44.9559,"long":-85.49},{"zip":"49684","city":"Traverse City","state":"MI","lat":44.694,"long":-85.6763},{"zip":"49685","city":"Traverse City","state":"MI","lat":44.8162,"long":-85.5751},{"zip":"49686","city":"Traverse City","state":"MI","lat":44.7849,"long":-85.4907},{"zip":"49690","city":"Williamsburg","state":"MI","lat":44.802,"long":-85.4347},{"zip":"49696","city":"Traverse City","state":"MI","lat":44.8162,"long":-85.5751},{"zip":"49227","city":"Allen","state":"MI","lat":41.957,"long":-84.7677},{"zip":"49232","city":"Camden","state":"MI","lat":41.7361,"long":-84.7245},{"zip":"49239","city":"Frontier","state":"MI","lat":41.7825,"long":-84.6047},{"zip":"49242","city":"Hillsdale","state":"MI","lat":41.924,"long":-84.6208},{"zip":"49249","city":"Jerome","state":"MI","lat":42.0484,"long":-84.4455},{"zip":"49250","city":"Jonesville","state":"MI","lat":41.9798,"long":-84.6451},{"zip":"49252","city":"Litchfield","state":"MI","lat":42.0369,"long":-84.7673},{"zip":"49257","city":"Moscow","state":"MI","lat":42.0548,"long":-84.5039},{"zip":"49258","city":"Mosherville","state":"MI","lat":42.0603,"long":-84.6594},{"zip":"49262","city":"North Adams","state":"MI","lat":41.9715,"long":-84.5208},{"zip":"49266","city":"Osseo","state":"MI","lat":41.8384,"long":-84.5974},{"zip":"49271","city":"Pittsford","state":"MI","lat":41.8963,"long":-84.444},{"zip":"49274","city":"Reading","state":"MI","lat":41.8442,"long":-84.7648},{"zip":"49281","city":"Somerset","state":"MI","lat":42.023,"long":-84.3794},{"zip":"49282","city":"Somerset Center","state":"MI","lat":42.0388,"long":-84.406},{"zip":"49288","city":"Waldron","state":"MI","lat":41.7386,"long":-84.4496},{"zip":"49905","city":"Atlantic Mine","state":"MI","lat":47.0937,"long":-88.6613},{"zip":"49913","city":"Calumet","state":"MI","lat":47.2439,"long":-88.4588},{"zip":"49916","city":"Chassell","state":"MI","lat":47.002,"long":-88.5546},{"zip":"49917","city":"Copper City","state":"MI","lat":47.2842,"long":-88.3875},{"zip":"49921","city":"Dodgeville","state":"MI","lat":47.0914,"long":-88.5809},{"zip":"49922","city":"Dollar Bay","state":"MI","lat":47.1203,"long":-88.4613},{"zip":"49930","city":"Hancock","state":"MI","lat":47.1367,"long":-88.5654},{"zip":"49931","city":"Houghton","state":"MI","lat":47.1158,"long":-88.558},{"zip":"49934","city":"Hubbell","state":"MI","lat":47.1671,"long":-88.4668},{"zip":"49942","city":"Kearsarge","state":"MI","lat":47.2694,"long":-88.4184},{"zip":"49945","city":"Lake Linden","state":"MI","lat":47.1784,"long":-88.2973},{"zip":"49952","city":"Nisula","state":"MI","lat":46.7748,"long":-88.8799},{"zip":"49955","city":"Painesdale","state":"MI","lat":47.0404,"long":-88.6704},{"zip":"49958","city":"Pelkie","state":"MI","lat":46.7949,"long":-88.6251},{"zip":"49961","city":"Sidnaw","state":"MI","lat":46.5047,"long":-88.7085},{"zip":"49963","city":"South Range","state":"MI","lat":47.0719,"long":-88.652},{"zip":"49965","city":"Toivola","state":"MI","lat":46.9109,"long":-88.8532},{"zip":"49251","city":"Leslie","state":"MI","lat":42.4603,"long":-84.4207},{"zip":"49264","city":"Onondaga","state":"MI","lat":42.4487,"long":-84.5535},{"zip":"49285","city":"Stockbridge","state":"MI","lat":42.4604,"long":-84.1752},{"zip":"49902","city":"Alpha","state":"MI","lat":46.0438,"long":-88.3771},{"zip":"49903","city":"Amasa","state":"MI","lat":46.2321,"long":-88.4508},{"zip":"49915","city":"Caspian","state":"MI","lat":46.0643,"long":-88.6329},{"zip":"49920","city":"Crystal Falls","state":"MI","lat":46.1093,"long":-88.3505},{"zip":"49927","city":"Gaastra","state":"MI","lat":46.0526,"long":-88.5917},{"zip":"49935","city":"Iron River","state":"MI","lat":46.093,"long":-88.646},{"zip":"49964","city":"Stambaugh","state":"MI","lat":46.0797,"long":-88.629},{"zip":"49310","city":"Blanchard","state":"MI","lat":43.5228,"long":-85.0589},{"zip":"49201","city":"Jackson","state":"MI","lat":42.2545,"long":-84.3875},{"zip":"49202","city":"Jackson","state":"MI","lat":42.2634,"long":-84.4083},{"zip":"49203","city":"Jackson","state":"MI","lat":42.229,"long":-84.4132},{"zip":"49204","city":"Jackson","state":"MI","lat":42.2459,"long":-84.4013},{"zip":"49230","city":"Brooklyn","state":"MI","lat":42.1044,"long":-84.2414},{"zip":"49234","city":"Clarklake","state":"MI","lat":42.1235,"long":-84.3521},{"zip":"49237","city":"Concord","state":"MI","lat":42.1875,"long":-84.6529},{"zip":"49240","city":"Grass Lake","state":"MI","lat":42.2711,"long":-84.194},{"zip":"49241","city":"Hanover","state":"MI","lat":42.1025,"long":-84.5848},{"zip":"49246","city":"Horton","state":"MI","lat":42.1191,"long":-84.4976},{"zip":"49254","city":"Michigan Center","state":"MI","lat":42.2271,"long":-84.3161},{"zip":"49259","city":"Munith","state":"MI","lat":42.3703,"long":-84.2485},{"zip":"49261","city":"Napoleon","state":"MI","lat":42.1643,"long":-84.2458},{"zip":"49263","city":"Norvell","state":"MI","lat":42.1582,"long":-84.1838},{"zip":"49269","city":"Parma","state":"MI","lat":42.2739,"long":-84.5999},{"zip":"49272","city":"Pleasant Lake","state":"MI","lat":42.3903,"long":-84.3428},{"zip":"49277","city":"Rives Junction","state":"MI","lat":42.3887,"long":-84.4589},{"zip":"49283","city":"Spring Arbor","state":"MI","lat":42.2069,"long":-84.5501},{"zip":"49284","city":"Springport","state":"MI","lat":42.3805,"long":-84.7039},{"zip":"49001","city":"Kalamazoo","state":"MI","lat":42.2736,"long":-85.5457},{"zip":"49002","city":"Portage","state":"MI","lat":42.1938,"long":-85.5639},{"zip":"49003","city":"Kalamazoo","state":"MI","lat":42.2454,"long":-85.5299},{"zip":"49004","city":"Kalamazoo","state":"MI","lat":42.3518,"long":-85.5621},{"zip":"49005","city":"Kalamazoo","state":"MI","lat":42.2917,"long":-85.5872},{"zip":"49006","city":"Kalamazoo","state":"MI","lat":42.2922,"long":-85.633},{"zip":"49007","city":"Kalamazoo","state":"MI","lat":42.3024,"long":-85.5882},{"zip":"49008","city":"Kalamazoo","state":"MI","lat":42.2624,"long":-85.6096},{"zip":"49009","city":"Kalamazoo","state":"MI","lat":42.2809,"long":-85.6863},{"zip":"49012","city":"Augusta","state":"MI","lat":42.3563,"long":-85.354},{"zip":"49019","city":"Kalamazoo","state":"MI","lat":42.2454,"long":-85.5299},{"zip":"49024","city":"Portage","state":"MI","lat":42.1974,"long":-85.6194},{"zip":"49034","city":"Climax","state":"MI","lat":42.234,"long":-85.3238},{"zip":"49041","city":"Comstock","state":"MI","lat":42.2867,"long":-85.5133},{"zip":"49048","city":"Kalamazoo","state":"MI","lat":42.3189,"long":-85.5152},{"zip":"49052","city":"Fulton","state":"MI","lat":42.1391,"long":-85.3227},{"zip":"49053","city":"Galesburg","state":"MI","lat":42.2948,"long":-85.4237},{"zip":"49074","city":"Nazareth","state":"MI","lat":42.2454,"long":-85.5299},{"zip":"49077","city":"Oshtemo","state":"MI","lat":42.2589,"long":-85.6775},{"zip":"49081","city":"Portage","state":"MI","lat":42.1718,"long":-85.6178},{"zip":"49083","city":"Richland","state":"MI","lat":42.3757,"long":-85.4447},{"zip":"49087","city":"Schoolcraft","state":"MI","lat":42.1329,"long":-85.6637},{"zip":"49088","city":"Scotts","state":"MI","lat":42.1819,"long":-85.4685},{"zip":"49097","city":"Vicksburg","state":"MI","lat":42.1209,"long":-85.5024},{"zip":"49646","city":"Kalkaska","state":"MI","lat":44.7355,"long":-85.1207},{"zip":"49676","city":"Rapid City","state":"MI","lat":44.8449,"long":-85.2943},{"zip":"49680","city":"South Boardman","state":"MI","lat":44.6401,"long":-85.2472},{"zip":"49301","city":"Ada","state":"MI","lat":42.9566,"long":-85.481},{"zip":"49302","city":"Alto","state":"MI","lat":42.8243,"long":-85.4256},{"zip":"49306","city":"Belmont","state":"MI","lat":43.075,"long":-85.5632},{"zip":"49315","city":"Byron Center","state":"MI","lat":42.8016,"long":-85.7136},{"zip":"49316","city":"Caledonia","state":"MI","lat":42.8187,"long":-85.5244},{"zip":"49317","city":"Cannonsburg","state":"MI","lat":43.0712,"long":-85.4809},{"zip":"49319","city":"Cedar Springs","state":"MI","lat":43.2215,"long":-85.5452},{"zip":"49321","city":"Comstock Park","state":"MI","lat":43.0578,"long":-85.6845},{"zip":"49330","city":"Kent City","state":"MI","lat":43.2362,"long":-85.7399},{"zip":"49331","city":"Lowell","state":"MI","lat":42.955,"long":-85.3653},{"zip":"49341","city":"Rockford","state":"MI","lat":43.1152,"long":-85.5136},{"zip":"49343","city":"Sand Lake","state":"MI","lat":43.2981,"long":-85.5367},{"zip":"49345","city":"Sparta","state":"MI","lat":43.1619,"long":-85.6877},{"zip":"49351","city":"Rockford","state":"MI","lat":43.12,"long":-85.56},{"zip":"49355","city":"Ada","state":"MI","lat":42.9542,"long":-85.4889},{"zip":"49356","city":"Ada","state":"MI","lat":42.9542,"long":-85.4889},{"zip":"49357","city":"Ada","state":"MI","lat":42.9542,"long":-85.4889},{"zip":"49418","city":"Grandville","state":"MI","lat":42.8939,"long":-85.7619},{"zip":"49468","city":"Grandville","state":"MI","lat":42.9097,"long":-85.7631},{"zip":"49501","city":"Grand Rapids","state":"MI","lat":42.9842,"long":-85.6291},{"zip":"49502","city":"Grand Rapids","state":"MI","lat":42.9634,"long":-85.6681},{"zip":"49503","city":"Grand Rapids","state":"MI","lat":42.9659,"long":-85.6527},{"zip":"49504","city":"Grand Rapids","state":"MI","lat":42.9737,"long":-85.7265},{"zip":"49505","city":"Grand Rapids","state":"MI","lat":43.012,"long":-85.6309},{"zip":"49506","city":"Grand Rapids","state":"MI","lat":42.944,"long":-85.6213},{"zip":"49507","city":"Grand Rapids","state":"MI","lat":42.9318,"long":-85.6542},{"zip":"49508","city":"Grand Rapids","state":"MI","lat":42.8894,"long":-85.6219},{"zip":"49509","city":"Wyoming","state":"MI","lat":42.9134,"long":-85.7053},{"zip":"49510","city":"Grand Rapids","state":"MI","lat":43.0314,"long":-85.5503},{"zip":"49512","city":"Grand Rapids","state":"MI","lat":42.8802,"long":-85.5352},{"zip":"49514","city":"Grand Rapids","state":"MI","lat":43.0314,"long":-85.5503},{"zip":"49515","city":"Grand Rapids","state":"MI","lat":43.0314,"long":-85.5503},{"zip":"49516","city":"Grand Rapids","state":"MI","lat":43.0314,"long":-85.5503},{"zip":"49518","city":"Grand Rapids","state":"MI","lat":43.0314,"long":-85.5503},{"zip":"49519","city":"Wyoming","state":"MI","lat":42.8977,"long":-85.7186},{"zip":"49523","city":"Grand Rapids","state":"MI","lat":42.9634,"long":-85.6681},{"zip":"49525","city":"Grand Rapids","state":"MI","lat":43.0135,"long":-85.6027},{"zip":"49528","city":"Grand Rapids","state":"MI","lat":42.8811,"long":-85.6239},{"zip":"49530","city":"Grand Rapids","state":"MI","lat":43.0314,"long":-85.5503},{"zip":"49544","city":"Grand Rapids","state":"MI","lat":43.0073,"long":-85.7255},{"zip":"49546","city":"Grand Rapids","state":"MI","lat":42.928,"long":-85.5483},{"zip":"49548","city":"Grand Rapids","state":"MI","lat":42.8697,"long":-85.6628},{"zip":"49555","city":"Grand Rapids","state":"MI","lat":42.9634,"long":-85.6681},{"zip":"49560","city":"Grand Rapids","state":"MI","lat":43.0314,"long":-85.5503},{"zip":"49588","city":"Grand Rapids","state":"MI","lat":43.0314,"long":-85.5503},{"zip":"49599","city":"Grand Rapids","state":"MI","lat":43.0314,"long":-85.5503},{"zip":"49805","city":"Allouez","state":"MI","lat":47.2879,"long":-88.4129},{"zip":"49901","city":"Ahmeek","state":"MI","lat":47.2933,"long":-88.3897},{"zip":"49918","city":"Copper Harbor","state":"MI","lat":47.4688,"long":-87.8884},{"zip":"49950","city":"Mohawk","state":"MI","lat":47.3526,"long":-88.2889},{"zip":"49304","city":"Baldwin","state":"MI","lat":43.8894,"long":-85.8819},{"zip":"49402","city":"Branch","state":"MI","lat":43.9333,"long":-86.0345},{"zip":"49623","city":"Chase","state":"MI","lat":43.8892,"long":-85.6356},{"zip":"49642","city":"Idlewild","state":"MI","lat":43.8872,"long":-85.7759},{"zip":"49644","city":"Irons","state":"MI","lat":44.0966,"long":-85.939},{"zip":"49656","city":"Luther","state":"MI","lat":44.0545,"long":-85.6826},{"zip":"49621","city":"Cedar","state":"MI","lat":44.8605,"long":-85.8138},{"zip":"49630","city":"Empire","state":"MI","lat":44.8144,"long":-85.9999},{"zip":"49636","city":"Glen Arbor","state":"MI","lat":44.8734,"long":-85.9887},{"zip":"49653","city":"Lake Leelanau","state":"MI","lat":44.9856,"long":-85.7329},{"zip":"49654","city":"Leland","state":"MI","lat":45.0793,"long":-85.9896},{"zip":"49664","city":"Maple City","state":"MI","lat":44.859,"long":-85.8814},{"zip":"49670","city":"Northport","state":"MI","lat":45.1157,"long":-85.6173},{"zip":"49674","city":"Omena","state":"MI","lat":45.0666,"long":-85.5974},{"zip":"49682","city":"Suttons Bay","state":"MI","lat":44.9656,"long":-85.6423},{"zip":"49220","city":"Addison","state":"MI","lat":42.0036,"long":-84.3122},{"zip":"49221","city":"Adrian","state":"MI","lat":41.9005,"long":-84.0446},{"zip":"49228","city":"Blissfield","state":"MI","lat":41.8276,"long":-83.8773},{"zip":"49229","city":"Britton","state":"MI","lat":41.9887,"long":-83.8377},{"zip":"49233","city":"Cement City","state":"MI","lat":42.0604,"long":-84.3254},{"zip":"49235","city":"Clayton","state":"MI","lat":41.8636,"long":-84.2147},{"zip":"49236","city":"Clinton","state":"MI","lat":42.0639,"long":-83.9442},{"zip":"49238","city":"Deerfield","state":"MI","lat":41.8909,"long":-83.7847},{"zip":"49247","city":"Hudson","state":"MI","lat":41.8581,"long":-84.338},{"zip":"49248","city":"Jasper","state":"MI","lat":41.7704,"long":-84.0011},{"zip":"49253","city":"Manitou Beach","state":"MI","lat":41.9671,"long":-84.2767},{"zip":"49256","city":"Morenci","state":"MI","lat":41.7386,"long":-84.2192},{"zip":"49265","city":"Onsted","state":"MI","lat":42.0295,"long":-84.1839},{"zip":"49268","city":"Palmyra","state":"MI","lat":41.8729,"long":-83.9263},{"zip":"49276","city":"Riga","state":"MI","lat":41.7953,"long":-83.8011},{"zip":"49279","city":"Sand Creek","state":"MI","lat":41.8259,"long":-84.1016},{"zip":"49286","city":"Tecumseh","state":"MI","lat":41.9953,"long":-83.9555},{"zip":"49287","city":"Tipton","state":"MI","lat":42.0369,"long":-84.0768},{"zip":"49289","city":"Weston","state":"MI","lat":41.7683,"long":-84.1076},{"zip":"49853","city":"Mc Millan","state":"MI","lat":46.297,"long":-85.7307},{"zip":"49868","city":"Newberry","state":"MI","lat":46.3438,"long":-85.515},{"zip":"49719","city":"Cedarville","state":"MI","lat":46.0024,"long":-84.3488},{"zip":"49745","city":"Hessel","state":"MI","lat":46.0217,"long":-84.4284},{"zip":"49757","city":"Mackinac Island","state":"MI","lat":45.8578,"long":-84.6245},{"zip":"49760","city":"Moran","state":"MI","lat":46.0441,"long":-85.0078},{"zip":"49762","city":"Naubinway","state":"MI","lat":46.126,"long":-85.4462},{"zip":"49775","city":"Pointe Aux Pins","state":"MI","lat":45.7549,"long":-84.447},{"zip":"49781","city":"Saint Ignace","state":"MI","lat":45.9985,"long":-84.6978},{"zip":"49820","city":"Curtis","state":"MI","lat":46.2048,"long":-85.7865},{"zip":"49827","city":"Engadine","state":"MI","lat":46.204,"long":-85.6005},{"zip":"49838","city":"Gould City","state":"MI","lat":46.0747,"long":-85.7338},{"zip":"49613","city":"Arcadia","state":"MI","lat":44.5232,"long":-86.2061},{"zip":"49614","city":"Bear Lake","state":"MI","lat":44.4311,"long":-86.1425},{"zip":"49619","city":"Brethren","state":"MI","lat":44.2966,"long":-85.9964},{"zip":"49625","city":"Copemish","state":"MI","lat":44.4503,"long":-85.8879},{"zip":"49626","city":"Eastlake","state":"MI","lat":44.2413,"long":-86.2913},{"zip":"49634","city":"Filer City","state":"MI","lat":44.2153,"long":-86.2873},{"zip":"49645","city":"Kaleva","state":"MI","lat":44.3692,"long":-86.0467},{"zip":"49660","city":"Manistee","state":"MI","lat":44.2635,"long":-86.1825},{"zip":"49675","city":"Onekama","state":"MI","lat":44.3646,"long":-86.21},{"zip":"49689","city":"Wellston","state":"MI","lat":44.2133,"long":-85.9555},{"zip":"49808","city":"Big Bay","state":"MI","lat":46.8158,"long":-87.7285},{"zip":"49814","city":"Champion","state":"MI","lat":46.4685,"long":-87.8306},{"zip":"49819","city":"Arnold","state":"MI","lat":46.0508,"long":-87.4921},{"zip":"49833","city":"Little Lake","state":"MI","lat":46.2888,"long":-87.3418},{"zip":"49841","city":"Gwinn","state":"MI","lat":46.3311,"long":-87.4397},{"zip":"49849","city":"Ishpeming","state":"MI","lat":46.4387,"long":-87.7091},{"zip":"49855","city":"Marquette","state":"MI","lat":46.5786,"long":-87.4545},{"zip":"49861","city":"Michigamme","state":"MI","lat":46.5308,"long":-88.0914},{"zip":"49865","city":"National Mine","state":"MI","lat":46.6041,"long":-87.6148},{"zip":"49866","city":"Negaunee","state":"MI","lat":46.5007,"long":-87.5829},{"zip":"49871","city":"Palmer","state":"MI","lat":46.4416,"long":-87.5764},{"zip":"49879","city":"Republic","state":"MI","lat":46.368,"long":-87.9938},{"zip":"49885","city":"Skandia","state":"MI","lat":46.349,"long":-87.2481},{"zip":"49405","city":"Custer","state":"MI","lat":43.9324,"long":-86.1777},{"zip":"49410","city":"Fountain","state":"MI","lat":44.0363,"long":-86.2169},{"zip":"49411","city":"Free Soil","state":"MI","lat":44.112,"long":-86.2652},{"zip":"49431","city":"Ludington","state":"MI","lat":43.9688,"long":-86.4403},{"zip":"49454","city":"Scottville","state":"MI","lat":43.9547,"long":-86.2801},{"zip":"49458","city":"Walhalla","state":"MI","lat":43.9494,"long":-86.1042},{"zip":"49305","city":"Barryton","state":"MI","lat":43.7507,"long":-85.1547},{"zip":"49307","city":"Big Rapids","state":"MI","lat":43.6897,"long":-85.4797},{"zip":"49320","city":"Chippewa Lake","state":"MI","lat":43.7553,"long":-85.2783},{"zip":"49332","city":"Mecosta","state":"MI","lat":43.6813,"long":-85.228},{"zip":"49336","city":"Morley","state":"MI","lat":43.506,"long":-85.4473},{"zip":"49338","city":"Paris","state":"MI","lat":43.7677,"long":-85.5213},{"zip":"49340","city":"Remus","state":"MI","lat":43.6032,"long":-85.1574},{"zip":"49342","city":"Rodney","state":"MI","lat":43.7379,"long":-85.3219},{"zip":"49346","city":"Stanwood","state":"MI","lat":43.6017,"long":-85.4446},{"zip":"49812","city":"Carney","state":"MI","lat":45.5917,"long":-87.5439},{"zip":"49821","city":"Daggett","state":"MI","lat":45.4887,"long":-87.6079},{"zip":"49845","city":"Harris","state":"MI","lat":45.6922,"long":-87.3513},{"zip":"49847","city":"Hermansville","state":"MI","lat":45.7149,"long":-87.6227},{"zip":"49848","city":"Ingalls","state":"MI","lat":45.3748,"long":-87.6206},{"zip":"49858","city":"Menominee","state":"MI","lat":45.1343,"long":-87.6215},{"zip":"49863","city":"Nadeau","state":"MI","lat":45.6089,"long":-87.5529},{"zip":"49873","city":"Perronville","state":"MI","lat":45.841,"long":-87.4816},{"zip":"49874","city":"Powers","state":"MI","lat":45.6792,"long":-87.5319},{"zip":"49886","city":"Spalding","state":"MI","lat":45.6958,"long":-87.511},{"zip":"49887","city":"Stephenson","state":"MI","lat":45.4166,"long":-87.6258},{"zip":"49893","city":"Wallace","state":"MI","lat":45.3017,"long":-87.5805},{"zip":"49896","city":"Wilson","state":"MI","lat":45.6649,"long":-87.3997},{"zip":"49632","city":"Falmouth","state":"MI","lat":44.2529,"long":-85.017},{"zip":"49651","city":"Lake City","state":"MI","lat":44.3767,"long":-85.0946},{"zip":"49657","city":"Mc Bain","state":"MI","lat":44.2172,"long":-85.2283},{"zip":"49667","city":"Merritt","state":"MI","lat":44.3433,"long":-84.9446},{"zip":"49267","city":"Ottawa Lake","state":"MI","lat":41.7683,"long":-83.6856},{"zip":"49270","city":"Petersburg","state":"MI","lat":41.8757,"long":-83.6877},{"zip":"49322","city":"Coral","state":"MI","lat":43.3645,"long":-85.3792},{"zip":"49326","city":"Gowen","state":"MI","lat":43.2239,"long":-85.3159},{"zip":"49329","city":"Howard City","state":"MI","lat":43.4083,"long":-85.4856},{"zip":"49339","city":"Pierson","state":"MI","lat":43.3355,"long":-85.5134},{"zip":"49347","city":"Trufant","state":"MI","lat":43.3156,"long":-85.3685},{"zip":"49709","city":"Atlanta","state":"MI","lat":44.9924,"long":-84.148},{"zip":"49746","city":"Hillman","state":"MI","lat":45.0691,"long":-83.9468},{"zip":"49756","city":"Lewiston","state":"MI","lat":44.8538,"long":-84.2973},{"zip":"49303","city":"Bailey","state":"MI","lat":43.2768,"long":-85.8313},{"zip":"49318","city":"Casnovia","state":"MI","lat":43.2381,"long":-85.8254},{"zip":"49415","city":"Fruitport","state":"MI","lat":43.1443,"long":-86.1388},{"zip":"49425","city":"Holton","state":"MI","lat":43.4415,"long":-86.1509},{"zip":"49437","city":"Montague","state":"MI","lat":43.4242,"long":-86.374},{"zip":"49440","city":"Muskegon","state":"MI","lat":43.2326,"long":-86.2492},{"zip":"49441","city":"Muskegon","state":"MI","lat":43.1962,"long":-86.2738},{"zip":"49442","city":"Muskegon","state":"MI","lat":43.2329,"long":-86.1885},{"zip":"49443","city":"Muskegon","state":"MI","lat":43.2342,"long":-86.2484},{"zip":"49444","city":"Muskegon","state":"MI","lat":43.1791,"long":-86.1989},{"zip":"49445","city":"Muskegon","state":"MI","lat":43.2952,"long":-86.279},{"zip":"49451","city":"Ravenna","state":"MI","lat":43.2091,"long":-85.9648},{"zip":"49457","city":"Twin Lake","state":"MI","lat":43.3414,"long":-86.1633},{"zip":"49461","city":"Whitehall","state":"MI","lat":43.3904,"long":-86.3315},{"zip":"49463","city":"Sylvan Beach","state":"MI","lat":43.372,"long":-86.4237},{"zip":"49309","city":"Bitely","state":"MI","lat":43.7321,"long":-85.8778},{"zip":"49312","city":"Brohman","state":"MI","lat":43.6853,"long":-85.8159},{"zip":"49327","city":"Grant","state":"MI","lat":43.3392,"long":-85.8368},{"zip":"49337","city":"Newaygo","state":"MI","lat":43.4198,"long":-85.7594},{"zip":"49349","city":"White Cloud","state":"MI","lat":43.5398,"long":-85.7586},{"zip":"49412","city":"Fremont","state":"MI","lat":43.4652,"long":-85.9626},{"zip":"49413","city":"Fremont","state":"MI","lat":43.5543,"long":-85.8009},{"zip":"49420","city":"Hart","state":"MI","lat":43.7068,"long":-86.3142},{"zip":"49421","city":"Hesperia","state":"MI","lat":43.5965,"long":-86.0607},{"zip":"49436","city":"Mears","state":"MI","lat":43.6825,"long":-86.4533},{"zip":"49446","city":"New Era","state":"MI","lat":43.5556,"long":-86.3448},{"zip":"49449","city":"Pentwater","state":"MI","lat":43.8237,"long":-86.3868},{"zip":"49452","city":"Rothbury","state":"MI","lat":43.5116,"long":-86.3446},{"zip":"49455","city":"Shelby","state":"MI","lat":43.6079,"long":-86.3615},{"zip":"49459","city":"Walkerville","state":"MI","lat":43.7626,"long":-86.083},{"zip":"49910","city":"Bergland","state":"MI","lat":46.5881,"long":-89.5973},{"zip":"49912","city":"Bruce Crossing","state":"MI","lat":46.528,"long":-89.168},{"zip":"49925","city":"Ewen","state":"MI","lat":46.5404,"long":-89.3145},{"zip":"49929","city":"Greenland","state":"MI","lat":46.7809,"long":-89.1146},{"zip":"49948","city":"Mass City","state":"MI","lat":46.7474,"long":-89.0649},{"zip":"49953","city":"Ontonagon","state":"MI","lat":46.8275,"long":-89.3485},{"zip":"49960","city":"Rockland","state":"MI","lat":46.7537,"long":-89.1958},{"zip":"49967","city":"Trout Creek","state":"MI","lat":46.4864,"long":-89.027},{"zip":"49971","city":"White Pine","state":"MI","lat":46.7538,"long":-89.584},{"zip":"49631","city":"Evart","state":"MI","lat":43.8888,"long":-85.2649},{"zip":"49639","city":"Hersey","state":"MI","lat":43.8481,"long":-85.4059},{"zip":"49655","city":"Leroy","state":"MI","lat":44.0457,"long":-85.43},{"zip":"49665","city":"Marion","state":"MI","lat":44.0463,"long":-85.155},{"zip":"49677","city":"Reed City","state":"MI","lat":43.8868,"long":-85.513},{"zip":"49679","city":"Sears","state":"MI","lat":43.8776,"long":-85.1465},{"zip":"49688","city":"Tustin","state":"MI","lat":44.1072,"long":-85.4901},{"zip":"49730","city":"Elmira","state":"MI","lat":45.0645,"long":-84.8562},{"zip":"49734","city":"Gaylord","state":"MI","lat":45.0275,"long":-84.6748},{"zip":"49735","city":"Gaylord","state":"MI","lat":45.0125,"long":-84.6723},{"zip":"49751","city":"Johannesburg","state":"MI","lat":45.0152,"long":-84.3857},{"zip":"49795","city":"Vanderbilt","state":"MI","lat":45.1532,"long":-84.6511},{"zip":"49797","city":"Waters","state":"MI","lat":44.8702,"long":-84.6598},{"zip":"49401","city":"Allendale","state":"MI","lat":42.9711,"long":-85.9249},{"zip":"49403","city":"Conklin","state":"MI","lat":43.1494,"long":-85.8538},{"zip":"49404","city":"Coopersville","state":"MI","lat":43.0601,"long":-85.9517},{"zip":"49409","city":"Ferrysburg","state":"MI","lat":43.0809,"long":-86.2154},{"zip":"49417","city":"Grand Haven","state":"MI","lat":43.0378,"long":-86.1912},{"zip":"49422","city":"Holland","state":"MI","lat":42.7875,"long":-86.1089},{"zip":"49423","city":"Holland","state":"MI","lat":42.7692,"long":-86.1164},{"zip":"49424","city":"Holland","state":"MI","lat":42.8135,"long":-86.1426},{"zip":"49426","city":"Hudsonville","state":"MI","lat":42.8748,"long":-85.8751},{"zip":"49427","city":"Jamestown","state":"MI","lat":42.8267,"long":-85.8444},{"zip":"49428","city":"Jenison","state":"MI","lat":42.9104,"long":-85.8276},{"zip":"49429","city":"Jenison","state":"MI","lat":42.9072,"long":-85.792},{"zip":"49430","city":"Lamont","state":"MI","lat":43.0103,"long":-85.8975},{"zip":"49434","city":"Macatawa","state":"MI","lat":42.7697,"long":-86.2055},{"zip":"49435","city":"Marne","state":"MI","lat":43.0532,"long":-85.842},{"zip":"49448","city":"Nunica","state":"MI","lat":43.0883,"long":-86.1028},{"zip":"49456","city":"Spring Lake","state":"MI","lat":43.0887,"long":-86.1915},{"zip":"49460","city":"West Olive","state":"MI","lat":42.9099,"long":-86.1317},{"zip":"49464","city":"Zeeland","state":"MI","lat":42.8256,"long":-86.0104},{"zip":"49534","city":"Grand Rapids","state":"MI","lat":43.0141,"long":-85.7543},{"zip":"49743","city":"Hawks","state":"MI","lat":45.2975,"long":-83.8542},{"zip":"49759","city":"Millersburg","state":"MI","lat":45.4309,"long":-84.0854},{"zip":"49765","city":"Onaway","state":"MI","lat":45.3365,"long":-84.2123},{"zip":"49776","city":"Posen","state":"MI","lat":45.2233,"long":-83.6393},{"zip":"49777","city":"Presque Isle","state":"MI","lat":45.2969,"long":-83.5023},{"zip":"49779","city":"Rogers City","state":"MI","lat":45.4123,"long":-83.8355},{"zip":"49030","city":"Burr Oak","state":"MI","lat":41.8459,"long":-85.3345},{"zip":"49032","city":"Centreville","state":"MI","lat":41.9217,"long":-85.4963},{"zip":"49040","city":"Colon","state":"MI","lat":41.9576,"long":-85.3306},{"zip":"49042","city":"Constantine","state":"MI","lat":41.846,"long":-85.6571},{"zip":"49066","city":"Leonidas","state":"MI","lat":42.0294,"long":-85.3497},{"zip":"49072","city":"Mendon","state":"MI","lat":42.0143,"long":-85.4727},{"zip":"49075","city":"Nottawa","state":"MI","lat":41.9189,"long":-85.4489},{"zip":"49091","city":"Sturgis","state":"MI","lat":41.8089,"long":-85.4264},{"zip":"49093","city":"Three Rivers","state":"MI","lat":41.9596,"long":-85.6371},{"zip":"49099","city":"White Pigeon","state":"MI","lat":41.7929,"long":-85.675},{"zip":"49817","city":"Cooks","state":"MI","lat":45.8997,"long":-86.5307},{"zip":"49836","city":"Germfask","state":"MI","lat":46.2363,"long":-85.9159},{"zip":"49840","city":"Gulliver","state":"MI","lat":46.0115,"long":-86.0214},{"zip":"49854","city":"Manistique","state":"MI","lat":46.0062,"long":-86.2555},{"zip":"49883","city":"Seney","state":"MI","lat":46.388,"long":-85.9708},{"zip":"49013","city":"Bangor","state":"MI","lat":42.3312,"long":-86.1311},{"zip":"49026","city":"Bloomingdale","state":"MI","lat":42.3842,"long":-85.9568},{"zip":"49027","city":"Breedsville","state":"MI","lat":42.3465,"long":-86.0725},{"zip":"49043","city":"Covert","state":"MI","lat":42.2911,"long":-86.2743},{"zip":"49045","city":"Decatur","state":"MI","lat":42.1012,"long":-86.0338},{"zip":"49055","city":"Gobles","state":"MI","lat":42.3702,"long":-85.8536},{"zip":"49056","city":"Grand Junction","state":"MI","lat":42.3761,"long":-86.0541},{"zip":"49057","city":"Hartford","state":"MI","lat":42.2088,"long":-86.1687},{"zip":"49062","city":"Kendall","state":"MI","lat":42.3618,"long":-85.8141},{"zip":"49063","city":"Lacota","state":"MI","lat":42.4136,"long":-86.1298},{"zip":"49064","city":"Lawrence","state":"MI","lat":42.2076,"long":-86.0525},{"zip":"49065","city":"Lawton","state":"MI","lat":42.1545,"long":-85.829},{"zip":"49071","city":"Mattawan","state":"MI","lat":42.2451,"long":-85.7943},{"zip":"49079","city":"Paw Paw","state":"MI","lat":42.2349,"long":-85.9005},{"zip":"49090","city":"South Haven","state":"MI","lat":42.4041,"long":-86.2542},{"zip":"49601","city":"Cadillac","state":"MI","lat":44.2504,"long":-85.43},{"zip":"49618","city":"Boon","state":"MI","lat":44.2916,"long":-85.6144},{"zip":"49620","city":"Buckley","state":"MI","lat":44.5199,"long":-85.6935},{"zip":"49638","city":"Harrietta","state":"MI","lat":44.2972,"long":-85.7396},{"zip":"49663","city":"Manton","state":"MI","lat":44.4152,"long":-85.4202},{"zip":"49668","city":"Mesick","state":"MI","lat":44.4075,"long":-85.7061}]
