[{"zip":"49010","city":"Allegan","state":"MI","lat":42.5256,"long":-85.8661},{"zip":"49070","city":"Martin","state":"MI","lat":42.537,"long":-85.6417},{"zip":"49078","city":"Otsego","state":"MI","lat":42.4723,"long":-85.7035},{"zip":"49080","city":"Plainwell","state":"MI","lat":42.4544,"long":-85.5994},{"zip":"49035","city":"Cloverdale","state":"MI","lat":42.5951,"long":-85.3086},{"zip":"49046","city":"Delton","state":"MI","lat":42.5141,"long":-85.4067},{"zip":"49050","city":"Dowling","state":"MI","lat":42.5015,"long":-85.2495},{"zip":"49058","city":"Hastings","state":"MI","lat":42.643,"long":-85.2937},{"zip":"49060","city":"Hickory Corners","state":"MI","lat":42.4237,"long":-85.3998},{"zip":"49073","city":"Nashville","state":"MI","lat":42.5937,"long":-85.122},{"zip":"49022","city":"Benton Harbor","state":"MI","lat":42.1086,"long":-86.4234},{"zip":"49023","city":"Benton Harbor","state":"MI","lat":42.1167,"long":-86.4542},{"zip":"49038","city":"Coloma","state":"MI","lat":42.203,"long":-86.3225},{"zip":"49039","city":"Hagar Shores","state":"MI","lat":42.2248,"long":-86.3723},{"zip":"49084","city":"Riverside","state":"MI","lat":42.1834,"long":-86.3828},{"zip":"49085","city":"Saint Joseph","state":"MI","lat":42.064,"long":-86.4783},{"zip":"49098","city":"Watervliet","state":"MI","lat":42.1938,"long":-86.2604},{"zip":"49028","city":"Bronson","state":"MI","lat":41.8643,"long":-85.1838},{"zip":"49036","city":"Coldwater","state":"MI","lat":41.9255,"long":-85.0057},{"zip":"49082","city":"Quincy","state":"MI","lat":41.9442,"long":-84.8839},{"zip":"49089","city":"Sherwood","state":"MI","lat":42.0107,"long":-85.2408},{"zip":"49094","city":"Union City","state":"MI","lat":42.0551,"long":-85.1356},{"zip":"49011","city":"Athens","state":"MI","lat":42.103,"long":-85.2317},{"zip":"49014","city":"Battle Creek","state":"MI","lat":42.303,"long":-85.1304},{"zip":"49015","city":"Battle Creek","state":"MI","lat":42.3028,"long":-85.2128},{"zip":"49016","city":"Battle Creek","state":"MI","lat":42.2464,"long":-85.0045},{"zip":"49017","city":"Battle Creek","state":"MI","lat":42.3322,"long":-85.1811},{"zip":"49018","city":"Battle Creek","state":"MI","lat":42.2464,"long":-85.0045},{"zip":"49020","city":"Bedford","state":"MI","lat":42.3953,"long":-85.2322},{"zip":"49029","city":"Burlington","state":"MI","lat":42.1239,"long":-85.105},{"zip":"49033","city":"Ceresco","state":"MI","lat":42.2127,"long":-85.1128},{"zip":"49037","city":"Battle Creek","state":"MI","lat":42.3453,"long":-85.2178},{"zip":"49051","city":"East Leroy","state":"MI","lat":42.1961,"long":-85.2311},{"zip":"49068","city":"Marshall","state":"MI","lat":42.272,"long":-84.9583},{"zip":"49092","city":"Tekonsha","state":"MI","lat":42.0863,"long":-84.9926},{"zip":"49031","city":"Cassopolis","state":"MI","lat":41.8968,"long":-85.9923},{"zip":"49047","city":"Dowagiac","state":"MI","lat":41.991,"long":-86.1168},{"zip":"49061","city":"Jones","state":"MI","lat":41.9129,"long":-85.8341},{"zip":"49067","city":"Marcellus","state":"MI","lat":42.0275,"long":-85.7988},{"zip":"49095","city":"Vandalia","state":"MI","lat":41.8955,"long":-85.8755},{"zip":"49021","city":"Bellevue","state":"MI","lat":42.4525,"long":-85.0489},{"zip":"49076","city":"Olivet","state":"MI","lat":42.4459,"long":-84.8973},{"zip":"49096","city":"Vermontville","state":"MI","lat":42.6392,"long":-85.011},{"zip":"49001","city":"Kalamazoo","state":"MI","lat":42.2736,"long":-85.5457},{"zip":"49002","city":"Portage","state":"MI","lat":42.1938,"long":-85.5639},{"zip":"49003","city":"Kalamazoo","state":"MI","lat":42.2454,"long":-85.5299},{"zip":"49004","city":"Kalamazoo","state":"MI","lat":42.3518,"long":-85.5621},{"zip":"49005","city":"Kalamazoo","state":"MI","lat":42.2917,"long":-85.5872},{"zip":"49006","city":"Kalamazoo","state":"MI","lat":42.2922,"long":-85.633},{"zip":"49007","city":"Kalamazoo","state":"MI","lat":42.3024,"long":-85.5882},{"zip":"49008","city":"Kalamazoo","state":"MI","lat":42.2624,"long":-85.6096},{"zip":"49009","city":"Kalamazoo","state":"MI","lat":42.2809,"long":-85.6863},{"zip":"49012","city":"Augusta","state":"MI","lat":42.3563,"long":-85.354},{"zip":"49019","city":"Kalamazoo","state":"MI","lat":42.2454,"long":-85.5299},{"zip":"49024","city":"Portage","state":"MI","lat":42.1974,"long":-85.6194},{"zip":"49034","city":"Climax","state":"MI","lat":42.234,"long":-85.3238},{"zip":"49041","city":"Comstock","state":"MI","lat":42.2867,"long":-85.5133},{"zip":"49048","city":"Kalamazoo","state":"MI","lat":42.3189,"long":-85.5152},{"zip":"49052","city":"Fulton","state":"MI","lat":42.1391,"long":-85.3227},{"zip":"49053","city":"Galesburg","state":"MI","lat":42.2948,"long":-85.4237},{"zip":"49074","city":"Nazareth","state":"MI","lat":42.2454,"long":-85.5299},{"zip":"49077","city":"Oshtemo","state":"MI","lat":42.2589,"long":-85.6775},{"zip":"49081","city":"Portage","state":"MI","lat":42.1718,"long":-85.6178},{"zip":"49083","city":"Richland","state":"MI","lat":42.3757,"long":-85.4447},{"zip":"49087","city":"Schoolcraft","state":"MI","lat":42.1329,"long":-85.6637},{"zip":"49088","city":"Scotts","state":"MI","lat":42.1819,"long":-85.4685},{"zip":"49097","city":"Vicksburg","state":"MI","lat":42.1209,"long":-85.5024},{"zip":"49030","city":"Burr Oak","state":"MI","lat":41.8459,"long":-85.3345},{"zip":"49032","city":"Centreville","state":"MI","lat":41.9217,"long":-85.4963},{"zip":"49040","city":"Colon","state":"MI","lat":41.9576,"long":-85.3306},{"zip":"49042","city":"Constantine","state":"MI","lat":41.846,"long":-85.6571},{"zip":"49066","city":"Leonidas","state":"MI","lat":42.0294,"long":-85.3497},{"zip":"49072","city":"Mendon","state":"MI","lat":42.0143,"long":-85.4727},{"zip":"49075","city":"Nottawa","state":"MI","lat":41.9189,"long":-85.4489},{"zip":"49091","city":"Sturgis","state":"MI","lat":41.8089,"long":-85.4264},{"zip":"49093","city":"Three Rivers","state":"MI","lat":41.9596,"long":-85.6371},{"zip":"49099","city":"White Pigeon","state":"MI","lat":41.7929,"long":-85.675},{"zip":"49013","city":"Bangor","state":"MI","lat":42.3312,"long":-86.1311},{"zip":"49026","city":"Bloomingdale","state":"MI","lat":42.3842,"long":-85.9568},{"zip":"49027","city":"Breedsville","state":"MI","lat":42.3465,"long":-86.0725},{"zip":"49043","city":"Covert","state":"MI","lat":42.2911,"long":-86.2743},{"zip":"49045","city":"Decatur","state":"MI","lat":42.1012,"long":-86.0338},{"zip":"49055","city":"Gobles","state":"MI","lat":42.3702,"long":-85.8536},{"zip":"49056","city":"Grand Junction","state":"MI","lat":42.3761,"long":-86.0541},{"zip":"49057","city":"Hartford","state":"MI","lat":42.2088,"long":-86.1687},{"zip":"49062","city":"Kendall","state":"MI","lat":42.3618,"long":-85.8141},{"zip":"49063","city":"Lacota","state":"MI","lat":42.4136,"long":-86.1298},{"zip":"49064","city":"Lawrence","state":"MI","lat":42.2076,"long":-86.0525},{"zip":"49065","city":"Lawton","state":"MI","lat":42.1545,"long":-85.829},{"zip":"49071","city":"Mattawan","state":"MI","lat":42.2451,"long":-85.7943},{"zip":"49079","city":"Paw Paw","state":"MI","lat":42.2349,"long":-85.9005},{"zip":"49090","city":"South Haven","state":"MI","lat":42.4041,"long":-86.2542}]
