[{"zip":"49101","city":"Baroda","state":"MI","lat":41.9488,"long":-86.4913},{"zip":"49102","city":"Berrien Center","state":"MI","lat":41.9484,"long":-86.285},{"zip":"49103","city":"Berrien Springs","state":"MI","lat":41.948,"long":-86.354},{"zip":"49104","city":"Berrien Springs","state":"MI","lat":41.9464,"long":-86.3389},{"zip":"49106","city":"Bridgman","state":"MI","lat":41.9362,"long":-86.5543},{"zip":"49107","city":"Buchanan","state":"MI","lat":41.8327,"long":-86.3708},{"zip":"49111","city":"Eau Claire","state":"MI","lat":42.0151,"long":-86.2972},{"zip":"49113","city":"Galien","state":"MI","lat":41.8198,"long":-86.5035},{"zip":"49115","city":"Harbert","state":"MI","lat":41.8771,"long":-86.6302},{"zip":"49116","city":"Lakeside","state":"MI","lat":41.8485,"long":-86.6694},{"zip":"49117","city":"New Buffalo","state":"MI","lat":41.7927,"long":-86.746},{"zip":"49119","city":"New Troy","state":"MI","lat":41.8744,"long":-86.549},{"zip":"49120","city":"Niles","state":"MI","lat":41.8202,"long":-86.2368},{"zip":"49125","city":"Sawyer","state":"MI","lat":41.8829,"long":-86.5885},{"zip":"49126","city":"Sodus","state":"MI","lat":42.0521,"long":-86.3921},{"zip":"49127","city":"Stevensville","state":"MI","lat":42.022,"long":-86.5119},{"zip":"49128","city":"Three Oaks","state":"MI","lat":41.815,"long":-86.6154},{"zip":"49129","city":"Union Pier","state":"MI","lat":41.8255,"long":-86.6911},{"zip":"49112","city":"Edwardsburg","state":"MI","lat":41.7913,"long":-86.0263},{"zip":"49130","city":"Union","state":"MI","lat":41.7827,"long":-85.8529}]
