[{"zip":"49311","city":"Bradley","state":"MI","lat":42.633,"long":-85.643},{"zip":"49314","city":"Burnips","state":"MI","lat":42.7312,"long":-85.8404},{"zip":"49323","city":"Dorr","state":"MI","lat":42.7231,"long":-85.7628},{"zip":"49328","city":"Hopkins","state":"MI","lat":42.6421,"long":-85.7322},{"zip":"49335","city":"Moline","state":"MI","lat":42.737,"long":-85.6635},{"zip":"49344","city":"Shelbyville","state":"MI","lat":42.5936,"long":-85.6282},{"zip":"49348","city":"Wayland","state":"MI","lat":42.6643,"long":-85.6191},{"zip":"49325","city":"Freeport","state":"MI","lat":42.7661,"long":-85.3133},{"zip":"49333","city":"Middleville","state":"MI","lat":42.6932,"long":-85.4759},{"zip":"49310","city":"Blanchard","state":"MI","lat":43.5228,"long":-85.0589},{"zip":"49301","city":"Ada","state":"MI","lat":42.9566,"long":-85.481},{"zip":"49302","city":"Alto","state":"MI","lat":42.8243,"long":-85.4256},{"zip":"49306","city":"Belmont","state":"MI","lat":43.075,"long":-85.5632},{"zip":"49315","city":"Byron Center","state":"MI","lat":42.8016,"long":-85.7136},{"zip":"49316","city":"Caledonia","state":"MI","lat":42.8187,"long":-85.5244},{"zip":"49317","city":"Cannonsburg","state":"MI","lat":43.0712,"long":-85.4809},{"zip":"49319","city":"Cedar Springs","state":"MI","lat":43.2215,"long":-85.5452},{"zip":"49321","city":"Comstock Park","state":"MI","lat":43.0578,"long":-85.6845},{"zip":"49330","city":"Kent City","state":"MI","lat":43.2362,"long":-85.7399},{"zip":"49331","city":"Lowell","state":"MI","lat":42.955,"long":-85.3653},{"zip":"49341","city":"Rockford","state":"MI","lat":43.1152,"long":-85.5136},{"zip":"49343","city":"Sand Lake","state":"MI","lat":43.2981,"long":-85.5367},{"zip":"49345","city":"Sparta","state":"MI","lat":43.1619,"long":-85.6877},{"zip":"49351","city":"Rockford","state":"MI","lat":43.12,"long":-85.56},{"zip":"49355","city":"Ada","state":"MI","lat":42.9542,"long":-85.4889},{"zip":"49356","city":"Ada","state":"MI","lat":42.9542,"long":-85.4889},{"zip":"49357","city":"Ada","state":"MI","lat":42.9542,"long":-85.4889},{"zip":"49304","city":"Baldwin","state":"MI","lat":43.8894,"long":-85.8819},{"zip":"49305","city":"Barryton","state":"MI","lat":43.7507,"long":-85.1547},{"zip":"49307","city":"Big Rapids","state":"MI","lat":43.6897,"long":-85.4797},{"zip":"49320","city":"Chippewa Lake","state":"MI","lat":43.7553,"long":-85.2783},{"zip":"49332","city":"Mecosta","state":"MI","lat":43.6813,"long":-85.228},{"zip":"49336","city":"Morley","state":"MI","lat":43.506,"long":-85.4473},{"zip":"49338","city":"Paris","state":"MI","lat":43.7677,"long":-85.5213},{"zip":"49340","city":"Remus","state":"MI","lat":43.6032,"long":-85.1574},{"zip":"49342","city":"Rodney","state":"MI","lat":43.7379,"long":-85.3219},{"zip":"49346","city":"Stanwood","state":"MI","lat":43.6017,"long":-85.4446},{"zip":"49322","city":"Coral","state":"MI","lat":43.3645,"long":-85.3792},{"zip":"49326","city":"Gowen","state":"MI","lat":43.2239,"long":-85.3159},{"zip":"49329","city":"Howard City","state":"MI","lat":43.4083,"long":-85.4856},{"zip":"49339","city":"Pierson","state":"MI","lat":43.3355,"long":-85.5134},{"zip":"49347","city":"Trufant","state":"MI","lat":43.3156,"long":-85.3685},{"zip":"49303","city":"Bailey","state":"MI","lat":43.2768,"long":-85.8313},{"zip":"49318","city":"Casnovia","state":"MI","lat":43.2381,"long":-85.8254},{"zip":"49309","city":"Bitely","state":"MI","lat":43.7321,"long":-85.8778},{"zip":"49312","city":"Brohman","state":"MI","lat":43.6853,"long":-85.8159},{"zip":"49327","city":"Grant","state":"MI","lat":43.3392,"long":-85.8368},{"zip":"49337","city":"Newaygo","state":"MI","lat":43.4198,"long":-85.7594},{"zip":"49349","city":"White Cloud","state":"MI","lat":43.5398,"long":-85.7586}]
