[{"zip":"49406","city":"Douglas","state":"MI","lat":42.6369,"long":-86.2022},{"zip":"49408","city":"Fennville","state":"MI","lat":42.5777,"long":-86.1249},{"zip":"49416","city":"Glenn","state":"MI","lat":42.5203,"long":-86.2275},{"zip":"49419","city":"Hamilton","state":"MI","lat":42.6881,"long":-85.9747},{"zip":"49450","city":"Pullman","state":"MI","lat":42.4651,"long":-86.0799},{"zip":"49453","city":"Saugatuck","state":"MI","lat":42.6456,"long":-86.1655},{"zip":"49418","city":"Grandville","state":"MI","lat":42.8939,"long":-85.7619},{"zip":"49468","city":"Grandville","state":"MI","lat":42.9097,"long":-85.7631},{"zip":"49402","city":"Branch","state":"MI","lat":43.9333,"long":-86.0345},{"zip":"49405","city":"Custer","state":"MI","lat":43.9324,"long":-86.1777},{"zip":"49410","city":"Fountain","state":"MI","lat":44.0363,"long":-86.2169},{"zip":"49411","city":"Free Soil","state":"MI","lat":44.112,"long":-86.2652},{"zip":"49431","city":"Ludington","state":"MI","lat":43.9688,"long":-86.4403},{"zip":"49454","city":"Scottville","state":"MI","lat":43.9547,"long":-86.2801},{"zip":"49458","city":"Walhalla","state":"MI","lat":43.9494,"long":-86.1042},{"zip":"49415","city":"Fruitport","state":"MI","lat":43.1443,"long":-86.1388},{"zip":"49425","city":"Holton","state":"MI","lat":43.4415,"long":-86.1509},{"zip":"49437","city":"Montague","state":"MI","lat":43.4242,"long":-86.374},{"zip":"49440","city":"Muskegon","state":"MI","lat":43.2326,"long":-86.2492},{"zip":"49441","city":"Muskegon","state":"MI","lat":43.1962,"long":-86.2738},{"zip":"49442","city":"Muskegon","state":"MI","lat":43.2329,"long":-86.1885},{"zip":"49443","city":"Muskegon","state":"MI","lat":43.2342,"long":-86.2484},{"zip":"49444","city":"Muskegon","state":"MI","lat":43.1791,"long":-86.1989},{"zip":"49445","city":"Muskegon","state":"MI","lat":43.2952,"long":-86.279},{"zip":"49451","city":"Ravenna","state":"MI","lat":43.2091,"long":-85.9648},{"zip":"49457","city":"Twin Lake","state":"MI","lat":43.3414,"long":-86.1633},{"zip":"49461","city":"Whitehall","state":"MI","lat":43.3904,"long":-86.3315},{"zip":"49463","city":"Sylvan Beach","state":"MI","lat":43.372,"long":-86.4237},{"zip":"49412","city":"Fremont","state":"MI","lat":43.4652,"long":-85.9626},{"zip":"49413","city":"Fremont","state":"MI","lat":43.5543,"long":-85.8009},{"zip":"49420","city":"Hart","state":"MI","lat":43.7068,"long":-86.3142},{"zip":"49421","city":"Hesperia","state":"MI","lat":43.5965,"long":-86.0607},{"zip":"49436","city":"Mears","state":"MI","lat":43.6825,"long":-86.4533},{"zip":"49446","city":"New Era","state":"MI","lat":43.5556,"long":-86.3448},{"zip":"49449","city":"Pentwater","state":"MI","lat":43.8237,"long":-86.3868},{"zip":"49452","city":"Rothbury","state":"MI","lat":43.5116,"long":-86.3446},{"zip":"49455","city":"Shelby","state":"MI","lat":43.6079,"long":-86.3615},{"zip":"49459","city":"Walkerville","state":"MI","lat":43.7626,"long":-86.083},{"zip":"49401","city":"Allendale","state":"MI","lat":42.9711,"long":-85.9249},{"zip":"49403","city":"Conklin","state":"MI","lat":43.1494,"long":-85.8538},{"zip":"49404","city":"Coopersville","state":"MI","lat":43.0601,"long":-85.9517},{"zip":"49409","city":"Ferrysburg","state":"MI","lat":43.0809,"long":-86.2154},{"zip":"49417","city":"Grand Haven","state":"MI","lat":43.0378,"long":-86.1912},{"zip":"49422","city":"Holland","state":"MI","lat":42.7875,"long":-86.1089},{"zip":"49423","city":"Holland","state":"MI","lat":42.7692,"long":-86.1164},{"zip":"49424","city":"Holland","state":"MI","lat":42.8135,"long":-86.1426},{"zip":"49426","city":"Hudsonville","state":"MI","lat":42.8748,"long":-85.8751},{"zip":"49427","city":"Jamestown","state":"MI","lat":42.8267,"long":-85.8444},{"zip":"49428","city":"Jenison","state":"MI","lat":42.9104,"long":-85.8276},{"zip":"49429","city":"Jenison","state":"MI","lat":42.9072,"long":-85.792},{"zip":"49430","city":"Lamont","state":"MI","lat":43.0103,"long":-85.8975},{"zip":"49434","city":"Macatawa","state":"MI","lat":42.7697,"long":-86.2055},{"zip":"49435","city":"Marne","state":"MI","lat":43.0532,"long":-85.842},{"zip":"49448","city":"Nunica","state":"MI","lat":43.0883,"long":-86.1028},{"zip":"49456","city":"Spring Lake","state":"MI","lat":43.0887,"long":-86.1915},{"zip":"49460","city":"West Olive","state":"MI","lat":42.9099,"long":-86.1317},{"zip":"49464","city":"Zeeland","state":"MI","lat":42.8256,"long":-86.0104}]
