[{"zip":"49707","city":"Alpena","state":"MI","lat":45.079,"long":-83.4602},{"zip":"49744","city":"Herron","state":"MI","lat":45.0124,"long":-83.6535},{"zip":"49747","city":"Hubbard Lake","state":"MI","lat":44.8947,"long":-83.6059},{"zip":"49753","city":"Lachine","state":"MI","lat":45.0429,"long":-83.7491},{"zip":"49766","city":"Ossineke","state":"MI","lat":44.9104,"long":-83.4592},{"zip":"49729","city":"Ellsworth","state":"MI","lat":45.1599,"long":-85.2633},{"zip":"49711","city":"Bay Shore","state":"MI","lat":45.3583,"long":-85.0973},{"zip":"49712","city":"Boyne City","state":"MI","lat":45.2052,"long":-85.0183},{"zip":"49713","city":"Boyne Falls","state":"MI","lat":45.2116,"long":-84.8916},{"zip":"49720","city":"Charlevoix","state":"MI","lat":45.2654,"long":-85.2297},{"zip":"49727","city":"East Jordan","state":"MI","lat":45.1539,"long":-85.1387},{"zip":"49782","city":"Beaver Island","state":"MI","lat":45.6684,"long":-85.5473},{"zip":"49796","city":"Walloon Lake","state":"MI","lat":45.2661,"long":-84.9337},{"zip":"49701","city":"Mackinaw City","state":"MI","lat":45.7777,"long":-84.7298},{"zip":"49705","city":"Afton","state":"MI","lat":45.3637,"long":-84.4695},{"zip":"49716","city":"Brutus","state":"MI","lat":45.5068,"long":-84.7467},{"zip":"49717","city":"Burt Lake","state":"MI","lat":45.4307,"long":-84.6912},{"zip":"49721","city":"Cheboygan","state":"MI","lat":45.608,"long":-84.4867},{"zip":"49749","city":"Indian River","state":"MI","lat":45.427,"long":-84.5956},{"zip":"49761","city":"Mullett Lake","state":"MI","lat":45.5595,"long":-84.5221},{"zip":"49791","city":"Topinabee","state":"MI","lat":45.4838,"long":-84.5936},{"zip":"49792","city":"Tower","state":"MI","lat":45.3588,"long":-84.2953},{"zip":"49799","city":"Wolverine","state":"MI","lat":45.2861,"long":-84.6065},{"zip":"49710","city":"Barbeau","state":"MI","lat":46.2848,"long":-84.2173},{"zip":"49715","city":"Brimley","state":"MI","lat":46.3891,"long":-84.6981},{"zip":"49724","city":"Dafter","state":"MI","lat":46.327,"long":-84.3878},{"zip":"49725","city":"De Tour Village","state":"MI","lat":45.9939,"long":-83.9396},{"zip":"49726","city":"Drummond Island","state":"MI","lat":46.0055,"long":-83.7367},{"zip":"49728","city":"Eckerman","state":"MI","lat":46.4088,"long":-85.0136},{"zip":"49736","city":"Goetzville","state":"MI","lat":46.079,"long":-84.145},{"zip":"49748","city":"Hulbert","state":"MI","lat":46.3908,"long":-85.1764},{"zip":"49752","city":"Kinross","state":"MI","lat":46.275,"long":-84.5148},{"zip":"49768","city":"Paradise","state":"MI","lat":46.5951,"long":-85.0973},{"zip":"49774","city":"Pickford","state":"MI","lat":46.1559,"long":-84.3663},{"zip":"49780","city":"Rudyard","state":"MI","lat":46.2585,"long":-84.8004},{"zip":"49783","city":"Sault Sainte Marie","state":"MI","lat":46.4151,"long":-84.2854},{"zip":"49784","city":"Kincheloe","state":"MI","lat":46.4108,"long":-84.3365},{"zip":"49785","city":"Kincheloe","state":"MI","lat":46.1815,"long":-84.4054},{"zip":"49786","city":"Kincheloe","state":"MI","lat":46.4108,"long":-84.3365},{"zip":"49788","city":"Kincheloe","state":"MI","lat":46.2627,"long":-84.4626},{"zip":"49793","city":"Trout Lake","state":"MI","lat":46.1936,"long":-85.019},{"zip":"49733","city":"Frederic","state":"MI","lat":44.8382,"long":-84.6824},{"zip":"49738","city":"Grayling","state":"MI","lat":44.671,"long":-84.6913},{"zip":"49739","city":"Grayling","state":"MI","lat":44.683,"long":-84.6104},{"zip":"49706","city":"Alanson","state":"MI","lat":45.4405,"long":-84.7924},{"zip":"49718","city":"Carp Lake","state":"MI","lat":45.7424,"long":-84.7735},{"zip":"49722","city":"Conway","state":"MI","lat":45.4167,"long":-84.867},{"zip":"49723","city":"Cross Village","state":"MI","lat":45.6254,"long":-85.0419},{"zip":"49737","city":"Good Hart","state":"MI","lat":45.5802,"long":-85.1137},{"zip":"49740","city":"Harbor Springs","state":"MI","lat":45.5251,"long":-85.0062},{"zip":"49755","city":"Levering","state":"MI","lat":45.6377,"long":-84.7986},{"zip":"49764","city":"Oden","state":"MI","lat":45.4236,"long":-84.8281},{"zip":"49769","city":"Pellston","state":"MI","lat":45.5703,"long":-84.8425},{"zip":"49770","city":"Petoskey","state":"MI","lat":45.3559,"long":-84.9133},{"zip":"49719","city":"Cedarville","state":"MI","lat":46.0024,"long":-84.3488},{"zip":"49745","city":"Hessel","state":"MI","lat":46.0217,"long":-84.4284},{"zip":"49757","city":"Mackinac Island","state":"MI","lat":45.8578,"long":-84.6245},{"zip":"49760","city":"Moran","state":"MI","lat":46.0441,"long":-85.0078},{"zip":"49762","city":"Naubinway","state":"MI","lat":46.126,"long":-85.4462},{"zip":"49775","city":"Pointe Aux Pins","state":"MI","lat":45.7549,"long":-84.447},{"zip":"49781","city":"Saint Ignace","state":"MI","lat":45.9985,"long":-84.6978},{"zip":"49709","city":"Atlanta","state":"MI","lat":44.9924,"long":-84.148},{"zip":"49746","city":"Hillman","state":"MI","lat":45.0691,"long":-83.9468},{"zip":"49756","city":"Lewiston","state":"MI","lat":44.8538,"long":-84.2973},{"zip":"49730","city":"Elmira","state":"MI","lat":45.0645,"long":-84.8562},{"zip":"49734","city":"Gaylord","state":"MI","lat":45.0275,"long":-84.6748},{"zip":"49735","city":"Gaylord","state":"MI","lat":45.0125,"long":-84.6723},{"zip":"49751","city":"Johannesburg","state":"MI","lat":45.0152,"long":-84.3857},{"zip":"49795","city":"Vanderbilt","state":"MI","lat":45.1532,"long":-84.6511},{"zip":"49797","city":"Waters","state":"MI","lat":44.8702,"long":-84.6598},{"zip":"49743","city":"Hawks","state":"MI","lat":45.2975,"long":-83.8542},{"zip":"49759","city":"Millersburg","state":"MI","lat":45.4309,"long":-84.0854},{"zip":"49765","city":"Onaway","state":"MI","lat":45.3365,"long":-84.2123},{"zip":"49776","city":"Posen","state":"MI","lat":45.2233,"long":-83.6393},{"zip":"49777","city":"Presque Isle","state":"MI","lat":45.2969,"long":-83.5023},{"zip":"49779","city":"Rogers City","state":"MI","lat":45.4123,"long":-83.8355}]
