[{"zip":"49806","city":"Au Train","state":"MI","lat":46.4446,"long":-86.9115},{"zip":"49816","city":"Chatham","state":"MI","lat":46.3477,"long":-86.929},{"zip":"49822","city":"Deerton","state":"MI","lat":46.427,"long":-87.0497},{"zip":"49825","city":"Eben Junction","state":"MI","lat":46.3549,"long":-86.9701},{"zip":"49826","city":"Rumely","state":"MI","lat":46.3483,"long":-87.0332},{"zip":"49839","city":"Grand Marais","state":"MI","lat":46.6529,"long":-85.9836},{"zip":"49862","city":"Munising","state":"MI","lat":46.3994,"long":-86.6983},{"zip":"49884","city":"Shingleton","state":"MI","lat":46.3512,"long":-86.4823},{"zip":"49891","city":"Trenary","state":"MI","lat":46.1947,"long":-86.9502},{"zip":"49895","city":"Wetmore","state":"MI","lat":46.3535,"long":-86.6345},{"zip":"49807","city":"Bark River","state":"MI","lat":45.6956,"long":-87.2073},{"zip":"49818","city":"Cornell","state":"MI","lat":45.9104,"long":-87.2237},{"zip":"49829","city":"Escanaba","state":"MI","lat":45.7659,"long":-87.089},{"zip":"49835","city":"Garden","state":"MI","lat":45.7549,"long":-86.5776},{"zip":"49837","city":"Gladstone","state":"MI","lat":45.8813,"long":-87.1152},{"zip":"49864","city":"Nahma","state":"MI","lat":45.8424,"long":-86.6558},{"zip":"49872","city":"Perkins","state":"MI","lat":45.9925,"long":-87.0792},{"zip":"49878","city":"Rapid River","state":"MI","lat":45.9107,"long":-86.8845},{"zip":"49880","city":"Rock","state":"MI","lat":46.0503,"long":-87.1331},{"zip":"49894","city":"Wells","state":"MI","lat":45.7849,"long":-87.0734},{"zip":"49801","city":"Iron Mountain","state":"MI","lat":45.8219,"long":-88.0683},{"zip":"49802","city":"Kingsford","state":"MI","lat":45.8006,"long":-88.0773},{"zip":"49815","city":"Channing","state":"MI","lat":46.1546,"long":-88.0772},{"zip":"49831","city":"Felch","state":"MI","lat":45.9972,"long":-87.8257},{"zip":"49834","city":"Foster City","state":"MI","lat":45.9438,"long":-87.7584},{"zip":"49852","city":"Loretto","state":"MI","lat":45.8275,"long":-87.7764},{"zip":"49870","city":"Norway","state":"MI","lat":45.7862,"long":-87.9047},{"zip":"49876","city":"Quinnesec","state":"MI","lat":45.7999,"long":-87.9922},{"zip":"49877","city":"Ralph","state":"MI","lat":46.1297,"long":-87.7367},{"zip":"49881","city":"Sagola","state":"MI","lat":46.0813,"long":-88.0676},{"zip":"49892","city":"Vulcan","state":"MI","lat":45.7623,"long":-87.8168},{"zip":"49805","city":"Allouez","state":"MI","lat":47.2879,"long":-88.4129},{"zip":"49853","city":"Mc Millan","state":"MI","lat":46.297,"long":-85.7307},{"zip":"49868","city":"Newberry","state":"MI","lat":46.3438,"long":-85.515},{"zip":"49820","city":"Curtis","state":"MI","lat":46.2048,"long":-85.7865},{"zip":"49827","city":"Engadine","state":"MI","lat":46.204,"long":-85.6005},{"zip":"49838","city":"Gould City","state":"MI","lat":46.0747,"long":-85.7338},{"zip":"49808","city":"Big Bay","state":"MI","lat":46.8158,"long":-87.7285},{"zip":"49814","city":"Champion","state":"MI","lat":46.4685,"long":-87.8306},{"zip":"49819","city":"Arnold","state":"MI","lat":46.0508,"long":-87.4921},{"zip":"49833","city":"Little Lake","state":"MI","lat":46.2888,"long":-87.3418},{"zip":"49841","city":"Gwinn","state":"MI","lat":46.3311,"long":-87.4397},{"zip":"49849","city":"Ishpeming","state":"MI","lat":46.4387,"long":-87.7091},{"zip":"49855","city":"Marquette","state":"MI","lat":46.5786,"long":-87.4545},{"zip":"49861","city":"Michigamme","state":"MI","lat":46.5308,"long":-88.0914},{"zip":"49865","city":"National Mine","state":"MI","lat":46.6041,"long":-87.6148},{"zip":"49866","city":"Negaunee","state":"MI","lat":46.5007,"long":-87.5829},{"zip":"49871","city":"Palmer","state":"MI","lat":46.4416,"long":-87.5764},{"zip":"49879","city":"Republic","state":"MI","lat":46.368,"long":-87.9938},{"zip":"49885","city":"Skandia","state":"MI","lat":46.349,"long":-87.2481},{"zip":"49812","city":"Carney","state":"MI","lat":45.5917,"long":-87.5439},{"zip":"49821","city":"Daggett","state":"MI","lat":45.4887,"long":-87.6079},{"zip":"49845","city":"Harris","state":"MI","lat":45.6922,"long":-87.3513},{"zip":"49847","city":"Hermansville","state":"MI","lat":45.7149,"long":-87.6227},{"zip":"49848","city":"Ingalls","state":"MI","lat":45.3748,"long":-87.6206},{"zip":"49858","city":"Menominee","state":"MI","lat":45.1343,"long":-87.6215},{"zip":"49863","city":"Nadeau","state":"MI","lat":45.6089,"long":-87.5529},{"zip":"49873","city":"Perronville","state":"MI","lat":45.841,"long":-87.4816},{"zip":"49874","city":"Powers","state":"MI","lat":45.6792,"long":-87.5319},{"zip":"49886","city":"Spalding","state":"MI","lat":45.6958,"long":-87.511},{"zip":"49887","city":"Stephenson","state":"MI","lat":45.4166,"long":-87.6258},{"zip":"49893","city":"Wallace","state":"MI","lat":45.3017,"long":-87.5805},{"zip":"49896","city":"Wilson","state":"MI","lat":45.6649,"long":-87.3997},{"zip":"49817","city":"Cooks","state":"MI","lat":45.8997,"long":-86.5307},{"zip":"49836","city":"Germfask","state":"MI","lat":46.2363,"long":-85.9159},{"zip":"49840","city":"Gulliver","state":"MI","lat":46.0115,"long":-86.0214},{"zip":"49854","city":"Manistique","state":"MI","lat":46.0062,"long":-86.2555},{"zip":"49883","city":"Seney","state":"MI","lat":46.388,"long":-85.9708}]
