[{"zip":"49908","city":"Baraga","state":"MI","lat":46.8048,"long":-88.5758},{"zip":"49919","city":"Covington","state":"MI","lat":46.5413,"long":-88.5371},{"zip":"49946","city":"Lanse","state":"MI","lat":46.7704,"long":-88.421},{"zip":"49962","city":"Skanee","state":"MI","lat":46.8747,"long":-88.1732},{"zip":"49970","city":"Watton","state":"MI","lat":46.5413,"long":-88.6049},{"zip":"49911","city":"Bessemer","state":"MI","lat":46.4802,"long":-90.0515},{"zip":"49938","city":"Ironwood","state":"MI","lat":46.4638,"long":-90.1588},{"zip":"49947","city":"Marenisco","state":"MI","lat":46.3551,"long":-89.6774},{"zip":"49959","city":"Ramsay","state":"MI","lat":46.4727,"long":-89.9976},{"zip":"49968","city":"Wakefield","state":"MI","lat":46.4752,"long":-89.9424},{"zip":"49969","city":"Watersmeet","state":"MI","lat":46.2542,"long":-89.2108},{"zip":"49905","city":"Atlantic Mine","state":"MI","lat":47.0937,"long":-88.6613},{"zip":"49913","city":"Calumet","state":"MI","lat":47.2439,"long":-88.4588},{"zip":"49916","city":"Chassell","state":"MI","lat":47.002,"long":-88.5546},{"zip":"49917","city":"Copper City","state":"MI","lat":47.2842,"long":-88.3875},{"zip":"49921","city":"Dodgeville","state":"MI","lat":47.0914,"long":-88.5809},{"zip":"49922","city":"Dollar Bay","state":"MI","lat":47.1203,"long":-88.4613},{"zip":"49930","city":"Hancock","state":"MI","lat":47.1367,"long":-88.5654},{"zip":"49931","city":"Houghton","state":"MI","lat":47.1158,"long":-88.558},{"zip":"49934","city":"Hubbell","state":"MI","lat":47.1671,"long":-88.4668},{"zip":"49942","city":"Kearsarge","state":"MI","lat":47.2694,"long":-88.4184},{"zip":"49945","city":"Lake Linden","state":"MI","lat":47.1784,"long":-88.2973},{"zip":"49952","city":"Nisula","state":"MI","lat":46.7748,"long":-88.8799},{"zip":"49955","city":"Painesdale","state":"MI","lat":47.0404,"long":-88.6704},{"zip":"49958","city":"Pelkie","state":"MI","lat":46.7949,"long":-88.6251},{"zip":"49961","city":"Sidnaw","state":"MI","lat":46.5047,"long":-88.7085},{"zip":"49963","city":"South Range","state":"MI","lat":47.0719,"long":-88.652},{"zip":"49965","city":"Toivola","state":"MI","lat":46.9109,"long":-88.8532},{"zip":"49902","city":"Alpha","state":"MI","lat":46.0438,"long":-88.3771},{"zip":"49903","city":"Amasa","state":"MI","lat":46.2321,"long":-88.4508},{"zip":"49915","city":"Caspian","state":"MI","lat":46.0643,"long":-88.6329},{"zip":"49920","city":"Crystal Falls","state":"MI","lat":46.1093,"long":-88.3505},{"zip":"49927","city":"Gaastra","state":"MI","lat":46.0526,"long":-88.5917},{"zip":"49935","city":"Iron River","state":"MI","lat":46.093,"long":-88.646},{"zip":"49964","city":"Stambaugh","state":"MI","lat":46.0797,"long":-88.629},{"zip":"49901","city":"Ahmeek","state":"MI","lat":47.2933,"long":-88.3897},{"zip":"49918","city":"Copper Harbor","state":"MI","lat":47.4688,"long":-87.8884},{"zip":"49950","city":"Mohawk","state":"MI","lat":47.3526,"long":-88.2889},{"zip":"49910","city":"Bergland","state":"MI","lat":46.5881,"long":-89.5973},{"zip":"49912","city":"Bruce Crossing","state":"MI","lat":46.528,"long":-89.168},{"zip":"49925","city":"Ewen","state":"MI","lat":46.5404,"long":-89.3145},{"zip":"49929","city":"Greenland","state":"MI","lat":46.7809,"long":-89.1146},{"zip":"49948","city":"Mass City","state":"MI","lat":46.7474,"long":-89.0649},{"zip":"49953","city":"Ontonagon","state":"MI","lat":46.8275,"long":-89.3485},{"zip":"49960","city":"Rockland","state":"MI","lat":46.7537,"long":-89.1958},{"zip":"49967","city":"Trout Creek","state":"MI","lat":46.4864,"long":-89.027},{"zip":"49971","city":"White Pine","state":"MI","lat":46.7538,"long":-89.584}]
