[{"zip":"50002","city":"Adair","state":"IA","lat":41.5137,"long":-94.6444},{"zip":"50837","city":"Bridgewater","state":"IA","lat":41.2589,"long":-94.6669},{"zip":"50846","city":"Fontanelle","state":"IA","lat":41.2896,"long":-94.5419},{"zip":"50849","city":"Greenfield","state":"IA","lat":41.3133,"long":-94.4408},{"zip":"50858","city":"Orient","state":"IA","lat":41.2192,"long":-94.3705},{"zip":"50839","city":"Carbon","state":"IA","lat":41.0487,"long":-94.8231},{"zip":"50841","city":"Corning","state":"IA","lat":40.9871,"long":-94.7358},{"zip":"50857","city":"Nodaway","state":"IA","lat":40.954,"long":-94.8731},{"zip":"50859","city":"Prescott","state":"IA","lat":41.0577,"long":-94.5942},{"zip":"50025","city":"Audubon","state":"IA","lat":41.73,"long":-94.9164},{"zip":"50042","city":"Brayton","state":"IA","lat":41.5524,"long":-94.974},{"zip":"50076","city":"Exira","state":"IA","lat":41.5768,"long":-94.8571},{"zip":"50110","city":"Gray","state":"IA","lat":41.8401,"long":-94.9812},{"zip":"50117","city":"Hamlin","state":"IA","lat":41.6506,"long":-94.9157},{"zip":"50613","city":"Cedar Falls","state":"IA","lat":42.5241,"long":-92.4497},{"zip":"50614","city":"Cedar Falls","state":"IA","lat":42.4698,"long":-92.3095},{"zip":"50623","city":"Dewar","state":"IA","lat":42.5253,"long":-92.2207},{"zip":"50626","city":"Dunkerton","state":"IA","lat":42.578,"long":-92.1588},{"zip":"50634","city":"Gilbertville","state":"IA","lat":42.4161,"long":-92.2149},{"zip":"50643","city":"Hudson","state":"IA","lat":42.3905,"long":-92.4549},{"zip":"50651","city":"La Porte City","state":"IA","lat":42.3416,"long":-92.1862},{"zip":"50667","city":"Raymond","state":"IA","lat":42.4672,"long":-92.2162},{"zip":"50701","city":"Waterloo","state":"IA","lat":42.4778,"long":-92.3661},{"zip":"50702","city":"Waterloo","state":"IA","lat":42.4731,"long":-92.3365},{"zip":"50703","city":"Waterloo","state":"IA","lat":42.5149,"long":-92.3269},{"zip":"50704","city":"Waterloo","state":"IA","lat":42.4698,"long":-92.3095},{"zip":"50707","city":"Evansdale","state":"IA","lat":42.4755,"long":-92.2812},{"zip":"50031","city":"Beaver","state":"IA","lat":42.0387,"long":-94.1436},{"zip":"50036","city":"Boone","state":"IA","lat":42.0694,"long":-93.8781},{"zip":"50037","city":"Boone","state":"IA","lat":42.0597,"long":-93.8802},{"zip":"50040","city":"Boxholm","state":"IA","lat":42.1706,"long":-94.1052},{"zip":"50099","city":"Boone","state":"IA","lat":42.0597,"long":-93.8802},{"zip":"50152","city":"Luther","state":"IA","lat":41.9387,"long":-93.8371},{"zip":"50156","city":"Madrid","state":"IA","lat":41.8841,"long":-93.8448},{"zip":"50212","city":"Ogden","state":"IA","lat":42.0351,"long":-94.0063},{"zip":"50223","city":"Pilot Mound","state":"IA","lat":42.1604,"long":-94.0102},{"zip":"50622","city":"Denver","state":"IA","lat":42.6731,"long":-92.3417},{"zip":"50631","city":"Frederika","state":"IA","lat":42.8827,"long":-92.3063},{"zip":"50647","city":"Janesville","state":"IA","lat":42.6465,"long":-92.4791},{"zip":"50666","city":"Plainfield","state":"IA","lat":42.8503,"long":-92.5116},{"zip":"50668","city":"Readlyn","state":"IA","lat":42.6929,"long":-92.2154},{"zip":"50674","city":"Sumner","state":"IA","lat":42.8419,"long":-92.1186},{"zip":"50676","city":"Tripoli","state":"IA","lat":42.8105,"long":-92.2659},{"zip":"50677","city":"Waverly","state":"IA","lat":42.7748,"long":-92.404},{"zip":"50607","city":"Aurora","state":"IA","lat":42.6203,"long":-91.7335},{"zip":"50629","city":"Fairbank","state":"IA","lat":42.6162,"long":-92.0326},{"zip":"50641","city":"Hazleton","state":"IA","lat":42.6076,"long":-91.9105},{"zip":"50644","city":"Independence","state":"IA","lat":42.4674,"long":-91.8803},{"zip":"50648","city":"Jesup","state":"IA","lat":42.4823,"long":-92.0456},{"zip":"50650","city":"Lamont","state":"IA","lat":42.5946,"long":-91.6701},{"zip":"50671","city":"Stanley","state":"IA","lat":42.6356,"long":-91.8127},{"zip":"50682","city":"Winthrop","state":"IA","lat":42.4912,"long":-91.7315},{"zip":"50510","city":"Albert City","state":"IA","lat":42.7784,"long":-94.9824},{"zip":"50565","city":"Marathon","state":"IA","lat":42.8612,"long":-94.9836},{"zip":"50568","city":"Newell","state":"IA","lat":42.6157,"long":-94.9946},{"zip":"50576","city":"Rembrandt","state":"IA","lat":42.826,"long":-95.1652},{"zip":"50585","city":"Sioux Rapids","state":"IA","lat":42.9065,"long":-95.1388},{"zip":"50588","city":"Storm Lake","state":"IA","lat":42.6474,"long":-95.1961},{"zip":"50592","city":"Truesdale","state":"IA","lat":42.7262,"long":-95.1853},{"zip":"50602","city":"Allison","state":"IA","lat":42.7615,"long":-92.783},{"zip":"50604","city":"Aplington","state":"IA","lat":42.587,"long":-92.8751},{"zip":"50605","city":"Aredale","state":"IA","lat":42.8318,"long":-93.021},{"zip":"50608","city":"Austinville","state":"IA","lat":42.5824,"long":-92.9599},{"zip":"50611","city":"Bristow","state":"IA","lat":42.7741,"long":-92.8864},{"zip":"50619","city":"Clarksville","state":"IA","lat":42.8041,"long":-92.6588},{"zip":"50625","city":"Dumont","state":"IA","lat":42.7368,"long":-92.9673},{"zip":"50636","city":"Greene","state":"IA","lat":42.8958,"long":-92.8024},{"zip":"50649","city":"Kesley","state":"IA","lat":42.6626,"long":-92.9112},{"zip":"50660","city":"New Hartford","state":"IA","lat":42.5831,"long":-92.6164},{"zip":"50665","city":"Parkersburg","state":"IA","lat":42.5714,"long":-92.7688},{"zip":"50670","city":"Shell Rock","state":"IA","lat":42.7061,"long":-92.5888},{"zip":"50538","city":"Farnhamville","state":"IA","lat":42.2692,"long":-94.4226},{"zip":"50551","city":"Jolley","state":"IA","lat":42.4871,"long":-94.757},{"zip":"50552","city":"Knierim","state":"IA","lat":42.4555,"long":-94.4569},{"zip":"50561","city":"Lytton","state":"IA","lat":42.423,"long":-94.8597},{"zip":"50563","city":"Manson","state":"IA","lat":42.5285,"long":-94.5304},{"zip":"50575","city":"Pomeroy","state":"IA","lat":42.5511,"long":-94.6839},{"zip":"50579","city":"Rockwell City","state":"IA","lat":42.3961,"long":-94.6292},{"zip":"50586","city":"Somers","state":"IA","lat":42.3561,"long":-94.4464},{"zip":"50058","city":"Coon Rapids","state":"IA","lat":41.894,"long":-94.68},{"zip":"50020","city":"Anita","state":"IA","lat":41.45,"long":-94.7794},{"zip":"50022","city":"Atlantic","state":"IA","lat":41.4003,"long":-95.0101},{"zip":"50274","city":"Wiota","state":"IA","lat":41.3846,"long":-94.8405},{"zip":"50843","city":"Cumberland","state":"IA","lat":41.2632,"long":-94.871},{"zip":"50853","city":"Massena","state":"IA","lat":41.2499,"long":-94.7649},{"zip":"50401","city":"Mason City","state":"IA","lat":43.1499,"long":-93.1954},{"zip":"50402","city":"Mason City","state":"IA","lat":43.1536,"long":-93.201},{"zip":"50428","city":"Clear Lake","state":"IA","lat":43.1406,"long":-93.385},{"zip":"50433","city":"Dougherty","state":"IA","lat":42.9222,"long":-93.0421},{"zip":"50457","city":"Meservey","state":"IA","lat":42.9137,"long":-93.4773},{"zip":"50464","city":"Plymouth","state":"IA","lat":43.246,"long":-93.1226},{"zip":"50467","city":"Rock Falls","state":"IA","lat":43.2066,"long":-93.0857},{"zip":"50469","city":"Rockwell","state":"IA","lat":43.0032,"long":-93.2167},{"zip":"50477","city":"Swaledale","state":"IA","lat":42.9622,"long":-93.3115},{"zip":"50479","city":"Thornton","state":"IA","lat":42.9684,"long":-93.4088},{"zip":"50482","city":"Ventura","state":"IA","lat":43.1262,"long":-93.4706},{"zip":"50603","city":"Alta Vista","state":"IA","lat":43.1482,"long":-92.4237},{"zip":"50630","city":"Fredericksburg","state":"IA","lat":42.9593,"long":-92.1983},{"zip":"50645","city":"Ionia","state":"IA","lat":43.0403,"long":-92.4865},{"zip":"50658","city":"Nashua","state":"IA","lat":42.9528,"long":-92.5298},{"zip":"50659","city":"New Hampton","state":"IA","lat":43.056,"long":-92.3131},{"zip":"50661","city":"North Washington","state":"IA","lat":43.1174,"long":-92.4144},{"zip":"50174","city":"Murray","state":"IA","lat":41.0376,"long":-93.953},{"zip":"50213","city":"Osceola","state":"IA","lat":41.0295,"long":-93.7712},{"zip":"50275","city":"Woodburn","state":"IA","lat":41,"long":-93.6083},{"zip":"50003","city":"Adel","state":"IA","lat":41.6221,"long":-94.038},{"zip":"50038","city":"Booneville","state":"IA","lat":41.5242,"long":-93.8838},{"zip":"50039","city":"Bouton","state":"IA","lat":41.8284,"long":-93.9963},{"zip":"50063","city":"Dallas Center","state":"IA","lat":41.6862,"long":-93.9707},{"zip":"50066","city":"Dawson","state":"IA","lat":41.8324,"long":-94.2171},{"zip":"50069","city":"De Soto","state":"IA","lat":41.5208,"long":-94.0303},{"zip":"50070","city":"Dexter","state":"IA","lat":41.5198,"long":-94.2145},{"zip":"50109","city":"Granger","state":"IA","lat":41.7611,"long":-93.8244},{"zip":"50146","city":"Linden","state":"IA","lat":41.6422,"long":-94.2406},{"zip":"50167","city":"Minburn","state":"IA","lat":41.7562,"long":-94.015},{"zip":"50220","city":"Perry","state":"IA","lat":41.8397,"long":-94.1022},{"zip":"50233","city":"Redfield","state":"IA","lat":41.5873,"long":-94.1897},{"zip":"50261","city":"Van Meter","state":"IA","lat":41.4699,"long":-93.9207},{"zip":"50263","city":"Waukee","state":"IA","lat":41.593,"long":-93.8592},{"zip":"50276","city":"Woodward","state":"IA","lat":41.8452,"long":-93.9056},{"zip":"50065","city":"Davis City","state":"IA","lat":40.6346,"long":-93.8105},{"zip":"50067","city":"Decatur","state":"IA","lat":40.743,"long":-93.8317},{"zip":"50103","city":"Garden Grove","state":"IA","lat":40.7711,"long":-93.6117},{"zip":"50108","city":"Grand River","state":"IA","lat":40.8137,"long":-93.9544},{"zip":"50140","city":"Lamoni","state":"IA","lat":40.6229,"long":-93.9349},{"zip":"50144","city":"Leon","state":"IA","lat":40.7373,"long":-93.7429},{"zip":"50262","city":"Van Wert","state":"IA","lat":40.8645,"long":-93.8073},{"zip":"50264","city":"Weldon","state":"IA","lat":40.8739,"long":-93.7387},{"zip":"50654","city":"Masonville","state":"IA","lat":42.4794,"long":-91.5913},{"zip":"50514","city":"Armstrong","state":"IA","lat":43.4024,"long":-94.4853},{"zip":"50531","city":"Dolliver","state":"IA","lat":43.4664,"long":-94.6242},{"zip":"50578","city":"Ringsted","state":"IA","lat":43.2977,"long":-94.5291},{"zip":"50606","city":"Arlington","state":"IA","lat":42.7338,"long":-91.6668},{"zip":"50655","city":"Maynard","state":"IA","lat":42.7752,"long":-91.8908},{"zip":"50662","city":"Oelwein","state":"IA","lat":42.6811,"long":-91.9131},{"zip":"50664","city":"Oran","state":"IA","lat":42.7012,"long":-92.0762},{"zip":"50681","city":"Westgate","state":"IA","lat":42.7812,"long":-92.0122},{"zip":"50435","city":"Floyd","state":"IA","lat":43.143,"long":-92.724},{"zip":"50458","city":"Nora Springs","state":"IA","lat":43.1479,"long":-93.0002},{"zip":"50468","city":"Rockford","state":"IA","lat":43.0573,"long":-92.952},{"zip":"50471","city":"Rudd","state":"IA","lat":43.142,"long":-92.8885},{"zip":"50616","city":"Charles City","state":"IA","lat":43.0683,"long":-92.6761},{"zip":"50620","city":"Colwell","state":"IA","lat":43.1584,"long":-92.5905},{"zip":"50653","city":"Marble Rock","state":"IA","lat":42.9645,"long":-92.8917},{"zip":"50041","city":"Bradford","state":"IA","lat":42.633,"long":-93.2449},{"zip":"50227","city":"Popejoy","state":"IA","lat":42.5974,"long":-93.4279},{"zip":"50420","city":"Alexander","state":"IA","lat":42.8114,"long":-93.445},{"zip":"50427","city":"Chapin","state":"IA","lat":42.8349,"long":-93.2226},{"zip":"50431","city":"Coulter","state":"IA","lat":42.7382,"long":-93.37},{"zip":"50441","city":"Hampton","state":"IA","lat":42.7405,"long":-93.211},{"zip":"50452","city":"Latimer","state":"IA","lat":42.7598,"long":-93.3518},{"zip":"50475","city":"Sheffield","state":"IA","lat":42.8779,"long":-93.2156},{"zip":"50633","city":"Geneva","state":"IA","lat":42.6755,"long":-93.1294},{"zip":"50050","city":"Churdan","state":"IA","lat":42.1614,"long":-94.4933},{"zip":"50059","city":"Cooper","state":"IA","lat":42.0363,"long":-94.397},{"zip":"50064","city":"Dana","state":"IA","lat":42.1075,"long":-94.2408},{"zip":"50107","city":"Grand Junction","state":"IA","lat":42.0296,"long":-94.2336},{"zip":"50129","city":"Jefferson","state":"IA","lat":42.0093,"long":-94.3888},{"zip":"50217","city":"Paton","state":"IA","lat":42.1658,"long":-94.273},{"zip":"50235","city":"Rippey","state":"IA","lat":41.9257,"long":-94.2132},{"zip":"50609","city":"Beaman","state":"IA","lat":42.2367,"long":-92.8162},{"zip":"50621","city":"Conrad","state":"IA","lat":42.2342,"long":-92.8865},{"zip":"50624","city":"Dike","state":"IA","lat":42.473,"long":-92.6122},{"zip":"50638","city":"Grundy Center","state":"IA","lat":42.3672,"long":-92.7773},{"zip":"50642","city":"Holland","state":"IA","lat":42.4011,"long":-92.7999},{"zip":"50657","city":"Morrison","state":"IA","lat":42.3433,"long":-92.6738},{"zip":"50669","city":"Reinbeck","state":"IA","lat":42.3131,"long":-92.5948},{"zip":"50673","city":"Stout","state":"IA","lat":42.5264,"long":-92.7119},{"zip":"50680","city":"Wellsburg","state":"IA","lat":42.4494,"long":-92.9398},{"zip":"50026","city":"Bagley","state":"IA","lat":41.8341,"long":-94.4415},{"zip":"50029","city":"Bayard","state":"IA","lat":41.8519,"long":-94.5583},{"zip":"50048","city":"Casey","state":"IA","lat":41.505,"long":-94.5194},{"zip":"50115","city":"Guthrie Center","state":"IA","lat":41.6837,"long":-94.4864},{"zip":"50128","city":"Jamaica","state":"IA","lat":41.8419,"long":-94.3204},{"zip":"50164","city":"Menlo","state":"IA","lat":41.5348,"long":-94.409},{"zip":"50216","city":"Panora","state":"IA","lat":41.6967,"long":-94.3606},{"zip":"50250","city":"Stuart","state":"IA","lat":41.5033,"long":-94.3186},{"zip":"50277","city":"Yale","state":"IA","lat":41.7753,"long":-94.3503},{"zip":"50034","city":"Blairsburg","state":"IA","lat":42.4937,"long":-93.6594},{"zip":"50075","city":"Ellsworth","state":"IA","lat":42.3009,"long":-93.549},{"zip":"50130","city":"Jewell","state":"IA","lat":42.3139,"long":-93.6428},{"zip":"50132","city":"Kamrar","state":"IA","lat":42.3945,"long":-93.7279},{"zip":"50231","city":"Randall","state":"IA","lat":42.2383,"long":-93.6008},{"zip":"50246","city":"Stanhope","state":"IA","lat":42.2904,"long":-93.7751},{"zip":"50249","city":"Stratford","state":"IA","lat":42.2847,"long":-93.9029},{"zip":"50271","city":"Williams","state":"IA","lat":42.4883,"long":-93.5449},{"zip":"50595","city":"Webster City","state":"IA","lat":42.4657,"long":-93.8262},{"zip":"50423","city":"Britt","state":"IA","lat":43.1006,"long":-93.7752},{"zip":"50430","city":"Corwith","state":"IA","lat":42.9927,"long":-93.9575},{"zip":"50432","city":"Crystal Lake","state":"IA","lat":43.2233,"long":-93.7924},{"zip":"50438","city":"Garner","state":"IA","lat":43.1144,"long":-93.5944},{"zip":"50439","city":"Goodell","state":"IA","lat":42.9383,"long":-93.5824},{"zip":"50447","city":"Kanawha","state":"IA","lat":42.9434,"long":-93.7728},{"zip":"50449","city":"Klemme","state":"IA","lat":43.0136,"long":-93.5879},{"zip":"50484","city":"Woden","state":"IA","lat":43.2226,"long":-93.9109},{"zip":"50006","city":"Alden","state":"IA","lat":42.5179,"long":-93.3841},{"zip":"50043","city":"Buckeye","state":"IA","lat":42.4179,"long":-93.3755},{"zip":"50102","city":"Garden City","state":"IA","lat":42.2455,"long":-93.3955},{"zip":"50122","city":"Hubbard","state":"IA","lat":42.3022,"long":-93.2939},{"zip":"50126","city":"Iowa Falls","state":"IA","lat":42.5138,"long":-93.2709},{"zip":"50206","city":"New Providence","state":"IA","lat":42.2693,"long":-93.1753},{"zip":"50230","city":"Radcliffe","state":"IA","lat":42.3241,"long":-93.4234},{"zip":"50258","city":"Union","state":"IA","lat":42.2521,"long":-93.0562},{"zip":"50259","city":"Gifford","state":"IA","lat":42.3831,"long":-93.2506},{"zip":"50269","city":"Whitten","state":"IA","lat":42.2718,"long":-93.0214},{"zip":"50601","city":"Ackley","state":"IA","lat":42.5527,"long":-93.0608},{"zip":"50627","city":"Eldora","state":"IA","lat":42.3572,"long":-93.1037},{"zip":"50672","city":"Steamboat Rock","state":"IA","lat":42.4178,"long":-93.0629},{"zip":"50466","city":"Riceville","state":"IA","lat":43.3719,"long":-92.5554},{"zip":"50628","city":"Elma","state":"IA","lat":43.2786,"long":-92.3981},{"zip":"50519","city":"Bode","state":"IA","lat":42.8661,"long":-94.2781},{"zip":"50520","city":"Bradgate","state":"IA","lat":42.7794,"long":-94.4002},{"zip":"50529","city":"Dakota City","state":"IA","lat":42.7214,"long":-94.1993},{"zip":"50541","city":"Gilmore City","state":"IA","lat":42.7067,"long":-94.4108},{"zip":"50545","city":"Hardy","state":"IA","lat":42.7975,"long":-94.0799},{"zip":"50548","city":"Humboldt","state":"IA","lat":42.7196,"long":-94.2132},{"zip":"50558","city":"Livermore","state":"IA","lat":42.8666,"long":-94.1747},{"zip":"50570","city":"Ottosen","state":"IA","lat":42.8764,"long":-94.3786},{"zip":"50577","city":"Renwick","state":"IA","lat":42.8491,"long":-94.0074},{"zip":"50582","city":"Rutland","state":"IA","lat":42.7635,"long":-94.2719},{"zip":"50591","city":"Thor","state":"IA","lat":42.6889,"long":-94.039},{"zip":"50028","city":"Baxter","state":"IA","lat":41.8204,"long":-93.1583},{"zip":"50054","city":"Colfax","state":"IA","lat":41.6788,"long":-93.2588},{"zip":"50127","city":"Ira","state":"IA","lat":41.7771,"long":-93.2058},{"zip":"50135","city":"Kellogg","state":"IA","lat":41.7184,"long":-92.9114},{"zip":"50137","city":"Killduff","state":"IA","lat":41.608,"long":-92.9046},{"zip":"50153","city":"Lynnville","state":"IA","lat":41.5698,"long":-92.7877},{"zip":"50168","city":"Mingo","state":"IA","lat":41.7898,"long":-93.288},{"zip":"50170","city":"Monroe","state":"IA","lat":41.5222,"long":-93.1019},{"zip":"50208","city":"Newton","state":"IA","lat":41.6992,"long":-93.0455},{"zip":"50228","city":"Prairie City","state":"IA","lat":41.5854,"long":-93.241},{"zip":"50232","city":"Reasnor","state":"IA","lat":41.5798,"long":-93.0198},{"zip":"50251","city":"Sully","state":"IA","lat":41.574,"long":-92.8451},{"zip":"50104","city":"Gibson","state":"IA","lat":41.4868,"long":-92.3867},{"zip":"50136","city":"Keswick","state":"IA","lat":41.4613,"long":-92.2395},{"zip":"50255","city":"Thornburg","state":"IA","lat":41.4547,"long":-92.3357},{"zip":"50268","city":"What Cheer","state":"IA","lat":41.3953,"long":-92.3548},{"zip":"50451","city":"Lakota","state":"IA","lat":43.3772,"long":-94.0938},{"zip":"50480","city":"Titonka","state":"IA","lat":43.2456,"long":-94.0367},{"zip":"50483","city":"Wesley","state":"IA","lat":43.0977,"long":-94.0038},{"zip":"50511","city":"Algona","state":"IA","lat":43.066,"long":-94.2306},{"zip":"50517","city":"Bancroft","state":"IA","lat":43.2935,"long":-94.2108},{"zip":"50522","city":"Burt","state":"IA","lat":43.2062,"long":-94.2122},{"zip":"50539","city":"Fenton","state":"IA","lat":43.242,"long":-94.4044},{"zip":"50556","city":"Ledyard","state":"IA","lat":43.4346,"long":-94.1503},{"zip":"50559","city":"Lone Rock","state":"IA","lat":43.1666,"long":-94.3586},{"zip":"50560","city":"Lu Verne","state":"IA","lat":42.9868,"long":-94.0959},{"zip":"50590","city":"Swea City","state":"IA","lat":43.4022,"long":-94.3193},{"zip":"50598","city":"Whittemore","state":"IA","lat":43.0619,"long":-94.4269},{"zip":"50049","city":"Chariton","state":"IA","lat":41.0226,"long":-93.3042},{"zip":"50068","city":"Derby","state":"IA","lat":40.9355,"long":-93.4796},{"zip":"50151","city":"Lucas","state":"IA","lat":41.0585,"long":-93.4836},{"zip":"50238","city":"Russell","state":"IA","lat":40.9456,"long":-93.1784},{"zip":"50272","city":"Williamson","state":"IA","lat":41.0959,"long":-93.2559},{"zip":"50033","city":"Bevington","state":"IA","lat":41.363,"long":-93.7928},{"zip":"50072","city":"Earlham","state":"IA","lat":41.4709,"long":-94.1294},{"zip":"50155","city":"Macksburg","state":"IA","lat":41.2104,"long":-94.1825},{"zip":"50218","city":"Patterson","state":"IA","lat":41.3499,"long":-93.8803},{"zip":"50222","city":"Peru","state":"IA","lat":41.2145,"long":-93.9437},{"zip":"50240","city":"Saint Charles","state":"IA","lat":41.2924,"long":-93.8242},{"zip":"50257","city":"Truro","state":"IA","lat":41.2076,"long":-93.841},{"zip":"50273","city":"Winterset","state":"IA","lat":41.3391,"long":-94.0088},{"zip":"50027","city":"Barnes City","state":"IA","lat":41.4883,"long":-92.4703},{"zip":"50143","city":"Leighton","state":"IA","lat":41.3647,"long":-92.8081},{"zip":"50207","city":"New Sharon","state":"IA","lat":41.464,"long":-92.6848},{"zip":"50044","city":"Bussey","state":"IA","lat":41.2094,"long":-92.8963},{"zip":"50057","city":"Columbia","state":"IA","lat":41.1838,"long":-93.1582},{"zip":"50062","city":"Melcher Dallas","state":"IA","lat":41.225,"long":-93.2413},{"zip":"50116","city":"Hamilton","state":"IA","lat":41.19,"long":-92.959},{"zip":"50119","city":"Harvey","state":"IA","lat":41.303,"long":-92.9318},{"zip":"50138","city":"Knoxville","state":"IA","lat":41.3164,"long":-93.0954},{"zip":"50163","city":"Melcher Dallas","state":"IA","lat":41.225,"long":-93.2413},{"zip":"50214","city":"Otley","state":"IA","lat":41.4518,"long":-93.0348},{"zip":"50219","city":"Pella","state":"IA","lat":41.4082,"long":-92.9172},{"zip":"50225","city":"Pleasantville","state":"IA","lat":41.3738,"long":-93.2712},{"zip":"50252","city":"Swan","state":"IA","lat":41.4636,"long":-93.301},{"zip":"50256","city":"Tracy","state":"IA","lat":41.2756,"long":-92.8753},{"zip":"50005","city":"Albion","state":"IA","lat":42.1143,"long":-92.9882},{"zip":"50051","city":"Clemons","state":"IA","lat":42.09,"long":-93.1688},{"zip":"50078","city":"Ferguson","state":"IA","lat":41.9374,"long":-92.865},{"zip":"50106","city":"Gilman","state":"IA","lat":41.9012,"long":-92.8101},{"zip":"50120","city":"Haverhill","state":"IA","lat":41.9337,"long":-92.9829},{"zip":"50141","city":"Laurel","state":"IA","lat":41.8829,"long":-92.9263},{"zip":"50142","city":"Le Grand","state":"IA","lat":42.0066,"long":-92.7756},{"zip":"50148","city":"Liscomb","state":"IA","lat":42.184,"long":-92.9833},{"zip":"50158","city":"Marshalltown","state":"IA","lat":42.0405,"long":-92.9127},{"zip":"50162","city":"Melbourne","state":"IA","lat":41.9323,"long":-93.0856},{"zip":"50234","city":"Rhodes","state":"IA","lat":41.9177,"long":-93.1796},{"zip":"50239","city":"Saint Anthony","state":"IA","lat":42.152,"long":-93.1824},{"zip":"50247","city":"State Center","state":"IA","lat":42.0109,"long":-93.1673},{"zip":"50426","city":"Carpenter","state":"IA","lat":43.415,"long":-93.0149},{"zip":"50454","city":"Little Cedar","state":"IA","lat":43.3919,"long":-92.7344},{"zip":"50455","city":"Mc Intire","state":"IA","lat":43.45,"long":-92.6048},{"zip":"50460","city":"Orchard","state":"IA","lat":43.2355,"long":-92.72},{"zip":"50461","city":"Osage","state":"IA","lat":43.2872,"long":-92.8144},{"zip":"50472","city":"Saint Ansgar","state":"IA","lat":43.4061,"long":-92.9235},{"zip":"50476","city":"Stacyville","state":"IA","lat":43.4457,"long":-92.761},{"zip":"50481","city":"Toeterville","state":"IA","lat":43.3564,"long":-92.789},{"zip":"50150","city":"Lovilia","state":"IA","lat":41.1272,"long":-92.9293},{"zip":"50847","city":"Grant","state":"IA","lat":41.1427,"long":-94.9842},{"zip":"50864","city":"Villisca","state":"IA","lat":40.9437,"long":-94.9796},{"zip":"50515","city":"Ayrshire","state":"IA","lat":43.037,"long":-94.8478},{"zip":"50527","city":"Curlew","state":"IA","lat":42.9633,"long":-94.7975},{"zip":"50528","city":"Cylinder","state":"IA","lat":43.1507,"long":-94.5107},{"zip":"50536","city":"Emmetsburg","state":"IA","lat":43.1082,"long":-94.6825},{"zip":"50562","city":"Mallard","state":"IA","lat":42.9417,"long":-94.6746},{"zip":"50597","city":"West Bend","state":"IA","lat":42.9574,"long":-94.4564},{"zip":"50540","city":"Fonda","state":"IA","lat":42.6051,"long":-94.8297},{"zip":"50546","city":"Havelock","state":"IA","lat":42.8411,"long":-94.7252},{"zip":"50554","city":"Laurens","state":"IA","lat":42.8409,"long":-94.8508},{"zip":"50571","city":"Palmer","state":"IA","lat":42.6419,"long":-94.5432},{"zip":"50573","city":"Plover","state":"IA","lat":42.8783,"long":-94.6205},{"zip":"50574","city":"Pocahontas","state":"IA","lat":42.7296,"long":-94.6737},{"zip":"50581","city":"Rolfe","state":"IA","lat":42.8082,"long":-94.5166},{"zip":"50593","city":"Varina","state":"IA","lat":42.6598,"long":-94.8979},{"zip":"50007","city":"Alleman","state":"IA","lat":41.8159,"long":-93.6063},{"zip":"50009","city":"Altoona","state":"IA","lat":41.6475,"long":-93.4724},{"zip":"50021","city":"Ankeny","state":"IA","lat":41.7212,"long":-93.5682},{"zip":"50023","city":"Ankeny","state":"IA","lat":41.7194,"long":-93.6266},{"zip":"50032","city":"Berwick","state":"IA","lat":41.6658,"long":-93.5432},{"zip":"50035","city":"Bondurant","state":"IA","lat":41.7017,"long":-93.4527},{"zip":"50073","city":"Elkhart","state":"IA","lat":41.7917,"long":-93.5222},{"zip":"50111","city":"Grimes","state":"IA","lat":41.7018,"long":-93.7821},{"zip":"50131","city":"Johnston","state":"IA","lat":41.673,"long":-93.7028},{"zip":"50169","city":"Mitchellville","state":"IA","lat":41.6609,"long":-93.37},{"zip":"50226","city":"Polk City","state":"IA","lat":41.7549,"long":-93.6893},{"zip":"50237","city":"Runnells","state":"IA","lat":41.5515,"long":-93.4202},{"zip":"50243","city":"Sheldahl","state":"IA","lat":41.8571,"long":-93.6973},{"zip":"50265","city":"West Des Moines","state":"IA","lat":41.5805,"long":-93.7447},{"zip":"50266","city":"West Des Moines","state":"IA","lat":41.5695,"long":-93.7994},{"zip":"50301","city":"Des Moines","state":"IA","lat":41.6727,"long":-93.5722},{"zip":"50302","city":"Des Moines","state":"IA","lat":41.6727,"long":-93.5722},{"zip":"50303","city":"Des Moines","state":"IA","lat":41.6727,"long":-93.5722},{"zip":"50304","city":"Des Moines","state":"IA","lat":41.6727,"long":-93.5722},{"zip":"50305","city":"Des Moines","state":"IA","lat":41.6727,"long":-93.5722},{"zip":"50306","city":"Des Moines","state":"IA","lat":41.6727,"long":-93.5722},{"zip":"50307","city":"Des Moines","state":"IA","lat":41.6005,"long":-93.6091},{"zip":"50308","city":"Des Moines","state":"IA","lat":41.6727,"long":-93.5722},{"zip":"50309","city":"Des Moines","state":"IA","lat":41.5887,"long":-93.6212},{"zip":"50310","city":"Des Moines","state":"IA","lat":41.6255,"long":-93.6736},{"zip":"50311","city":"Des Moines","state":"IA","lat":41.601,"long":-93.6729},{"zip":"50312","city":"Des Moines","state":"IA","lat":41.5855,"long":-93.6719},{"zip":"50313","city":"Des Moines","state":"IA","lat":41.6381,"long":-93.6203},{"zip":"50314","city":"Des Moines","state":"IA","lat":41.603,"long":-93.633},{"zip":"50315","city":"Des Moines","state":"IA","lat":41.5444,"long":-93.6192},{"zip":"50316","city":"Des Moines","state":"IA","lat":41.6092,"long":-93.6},{"zip":"50317","city":"Des Moines","state":"IA","lat":41.6122,"long":-93.5296},{"zip":"50318","city":"Des Moines","state":"IA","lat":41.6727,"long":-93.5722},{"zip":"50319","city":"Des Moines","state":"IA","lat":41.5921,"long":-93.604},{"zip":"50320","city":"Des Moines","state":"IA","lat":41.5487,"long":-93.5827},{"zip":"50321","city":"Des Moines","state":"IA","lat":41.5476,"long":-93.6618},{"zip":"50322","city":"Urbandale","state":"IA","lat":41.6295,"long":-93.723},{"zip":"50323","city":"Urbandale","state":"IA","lat":41.6294,"long":-93.7717},{"zip":"50324","city":"Windsor Heights","state":"IA","lat":41.6032,"long":-93.7152},{"zip":"50325","city":"Clive","state":"IA","lat":41.6067,"long":-93.7457},{"zip":"50327","city":"Pleasant Hill","state":"IA","lat":41.5839,"long":-93.5199},{"zip":"50328","city":"Des Moines","state":"IA","lat":41.6727,"long":-93.5722},{"zip":"50329","city":"Des Moines","state":"IA","lat":41.6727,"long":-93.5722},{"zip":"50330","city":"Des Moines","state":"IA","lat":41.6727,"long":-93.5722},{"zip":"50331","city":"Des Moines","state":"IA","lat":41.6727,"long":-93.5722},{"zip":"50332","city":"Des Moines","state":"IA","lat":41.6727,"long":-93.5722},{"zip":"50333","city":"Des Moines","state":"IA","lat":41.6727,"long":-93.5722},{"zip":"50334","city":"Des Moines","state":"IA","lat":41.6727,"long":-93.5722},{"zip":"50335","city":"Des Moines","state":"IA","lat":41.6727,"long":-93.5722},{"zip":"50336","city":"Des Moines","state":"IA","lat":41.6727,"long":-93.5722},{"zip":"50339","city":"Des Moines","state":"IA","lat":41.6727,"long":-93.5722},{"zip":"50340","city":"Des Moines","state":"IA","lat":41.6727,"long":-93.5722},{"zip":"50359","city":"Des Moines","state":"IA","lat":41.6727,"long":-93.5722},{"zip":"50360","city":"Des Moines","state":"IA","lat":41.6727,"long":-93.5722},{"zip":"50361","city":"Des Moines","state":"IA","lat":41.6727,"long":-93.5722},{"zip":"50362","city":"Des Moines","state":"IA","lat":41.6727,"long":-93.5722},{"zip":"50363","city":"Des Moines","state":"IA","lat":41.6727,"long":-93.5722},{"zip":"50364","city":"Des Moines","state":"IA","lat":41.6727,"long":-93.5722},{"zip":"50367","city":"Des Moines","state":"IA","lat":41.6727,"long":-93.5722},{"zip":"50368","city":"Des Moines","state":"IA","lat":41.6727,"long":-93.5722},{"zip":"50369","city":"Des Moines","state":"IA","lat":41.6727,"long":-93.5722},{"zip":"50380","city":"Des Moines","state":"IA","lat":41.6727,"long":-93.5722},{"zip":"50381","city":"Des Moines","state":"IA","lat":41.6727,"long":-93.5722},{"zip":"50391","city":"Des Moines","state":"IA","lat":41.6727,"long":-93.5722},{"zip":"50392","city":"Des Moines","state":"IA","lat":41.5878,"long":-93.6274},{"zip":"50393","city":"Des Moines","state":"IA","lat":41.6727,"long":-93.5722},{"zip":"50394","city":"Des Moines","state":"IA","lat":41.6727,"long":-93.5722},{"zip":"50395","city":"Des Moines","state":"IA","lat":41.6727,"long":-93.5722},{"zip":"50396","city":"Des Moines","state":"IA","lat":41.6727,"long":-93.5722},{"zip":"50398","city":"Urbandale","state":"IA","lat":41.6267,"long":-93.7122},{"zip":"50936","city":"Des Moines","state":"IA","lat":41.6727,"long":-93.5722},{"zip":"50940","city":"Des Moines","state":"IA","lat":41.6727,"long":-93.5722},{"zip":"50947","city":"Des Moines","state":"IA","lat":41.6727,"long":-93.5722},{"zip":"50950","city":"Des Moines","state":"IA","lat":41.6727,"long":-93.5722},{"zip":"50980","city":"Des Moines","state":"IA","lat":41.6727,"long":-93.5722},{"zip":"50981","city":"Des Moines","state":"IA","lat":41.6727,"long":-93.5722},{"zip":"50112","city":"Grinnell","state":"IA","lat":41.7421,"long":-92.7344},{"zip":"50157","city":"Malcom","state":"IA","lat":41.7695,"long":-92.5354},{"zip":"50171","city":"Montezuma","state":"IA","lat":41.5928,"long":-92.5276},{"zip":"50242","city":"Searsboro","state":"IA","lat":41.5656,"long":-92.6987},{"zip":"50074","city":"Ellston","state":"IA","lat":40.8505,"long":-94.0841},{"zip":"50133","city":"Kellerton","state":"IA","lat":40.6861,"long":-94.0607},{"zip":"50835","city":"Benton","state":"IA","lat":40.7082,"long":-94.3689},{"zip":"50845","city":"Diagonal","state":"IA","lat":40.8226,"long":-94.3552},{"zip":"50854","city":"Mount Ayr","state":"IA","lat":40.7142,"long":-94.2321},{"zip":"50860","city":"Redding","state":"IA","lat":40.6053,"long":-94.3595},{"zip":"50863","city":"Tingley","state":"IA","lat":40.8516,"long":-94.1908},{"zip":"50535","city":"Early","state":"IA","lat":42.4483,"long":-95.1726},{"zip":"50567","city":"Nemaha","state":"IA","lat":42.518,"long":-95.0939},{"zip":"50583","city":"Sac City","state":"IA","lat":42.4262,"long":-94.9796},{"zip":"50010","city":"Ames","state":"IA","lat":42.0379,"long":-93.6003},{"zip":"50011","city":"Ames","state":"IA","lat":42.036,"long":-93.4652},{"zip":"50012","city":"Ames","state":"IA","lat":42.0236,"long":-93.6485},{"zip":"50013","city":"Ames","state":"IA","lat":42.0235,"long":-93.6408},{"zip":"50014","city":"Ames","state":"IA","lat":42.0486,"long":-93.6945},{"zip":"50046","city":"Cambridge","state":"IA","lat":41.9025,"long":-93.5305},{"zip":"50055","city":"Collins","state":"IA","lat":41.9032,"long":-93.3008},{"zip":"50056","city":"Colo","state":"IA","lat":42.0131,"long":-93.3071},{"zip":"50105","city":"Gilbert","state":"IA","lat":42.1148,"long":-93.6399},{"zip":"50124","city":"Huxley","state":"IA","lat":41.8994,"long":-93.6024},{"zip":"50134","city":"Kelley","state":"IA","lat":41.9488,"long":-93.6644},{"zip":"50154","city":"Mc Callsburg","state":"IA","lat":42.1665,"long":-93.3978},{"zip":"50161","city":"Maxwell","state":"IA","lat":41.8967,"long":-93.4001},{"zip":"50201","city":"Nevada","state":"IA","lat":42.019,"long":-93.4462},{"zip":"50236","city":"Roland","state":"IA","lat":42.1646,"long":-93.5063},{"zip":"50244","city":"Slater","state":"IA","lat":41.8765,"long":-93.6812},{"zip":"50248","city":"Story City","state":"IA","lat":42.1835,"long":-93.5988},{"zip":"50278","city":"Zearing","state":"IA","lat":42.1535,"long":-93.2928},{"zip":"50173","city":"Montour","state":"IA","lat":41.9709,"long":-92.7006},{"zip":"50612","city":"Buckingham","state":"IA","lat":42.2552,"long":-92.4098},{"zip":"50632","city":"Garwin","state":"IA","lat":42.0872,"long":-92.6894},{"zip":"50635","city":"Gladbrook","state":"IA","lat":42.1774,"long":-92.7141},{"zip":"50652","city":"Lincoln","state":"IA","lat":42.2643,"long":-92.693},{"zip":"50675","city":"Traer","state":"IA","lat":42.1847,"long":-92.4827},{"zip":"50833","city":"Bedford","state":"IA","lat":40.6683,"long":-94.7324},{"zip":"50836","city":"Blockton","state":"IA","lat":40.6242,"long":-94.5049},{"zip":"50840","city":"Clearfield","state":"IA","lat":40.7935,"long":-94.4944},{"zip":"50848","city":"Gravity","state":"IA","lat":40.7909,"long":-94.7506},{"zip":"50851","city":"Lenox","state":"IA","lat":40.8841,"long":-94.5612},{"zip":"50862","city":"Sharpsburg","state":"IA","lat":40.795,"long":-94.6416},{"zip":"50149","city":"Lorimor","state":"IA","lat":41.1233,"long":-94.0639},{"zip":"50254","city":"Thayer","state":"IA","lat":41.0029,"long":-94.0686},{"zip":"50801","city":"Creston","state":"IA","lat":41.0499,"long":-94.3471},{"zip":"50830","city":"Afton","state":"IA","lat":41.0401,"long":-94.194},{"zip":"50831","city":"Arispe","state":"IA","lat":40.9314,"long":-94.2193},{"zip":"50842","city":"Cromwell","state":"IA","lat":41.0398,"long":-94.4616},{"zip":"50861","city":"Shannon City","state":"IA","lat":40.9017,"long":-94.2633},{"zip":"50001","city":"Ackworth","state":"IA","lat":41.3737,"long":-93.3767},{"zip":"50047","city":"Carlisle","state":"IA","lat":41.4814,"long":-93.4921},{"zip":"50061","city":"Cumming","state":"IA","lat":41.4849,"long":-93.7539},{"zip":"50118","city":"Hartford","state":"IA","lat":41.4596,"long":-93.4022},{"zip":"50125","city":"Indianola","state":"IA","lat":41.3143,"long":-93.588},{"zip":"50139","city":"Lacona","state":"IA","lat":41.1988,"long":-93.3838},{"zip":"50145","city":"Liberty Center","state":"IA","lat":41.2071,"long":-93.4993},{"zip":"50160","city":"Martensdale","state":"IA","lat":41.373,"long":-93.7358},{"zip":"50166","city":"Milo","state":"IA","lat":41.2904,"long":-93.4454},{"zip":"50210","city":"New Virginia","state":"IA","lat":41.1883,"long":-93.6976},{"zip":"50211","city":"Norwalk","state":"IA","lat":41.4861,"long":-93.6573},{"zip":"50229","city":"Prole","state":"IA","lat":41.383,"long":-93.7344},{"zip":"50241","city":"Saint Marys","state":"IA","lat":41.3084,"long":-93.7369},{"zip":"50008","city":"Allerton","state":"IA","lat":40.7023,"long":-93.3724},{"zip":"50052","city":"Clio","state":"IA","lat":40.6342,"long":-93.448},{"zip":"50060","city":"Corydon","state":"IA","lat":40.7771,"long":-93.3274},{"zip":"50123","city":"Humeston","state":"IA","lat":40.8469,"long":-93.5101},{"zip":"50147","city":"Lineville","state":"IA","lat":40.6004,"long":-93.4862},{"zip":"50165","city":"Millerton","state":"IA","lat":40.8494,"long":-93.3055},{"zip":"50501","city":"Fort Dodge","state":"IA","lat":42.5088,"long":-94.1807},{"zip":"50516","city":"Badger","state":"IA","lat":42.6144,"long":-94.1461},{"zip":"50518","city":"Barnum","state":"IA","lat":42.5159,"long":-94.3703},{"zip":"50521","city":"Burnside","state":"IA","lat":42.3413,"long":-94.1143},{"zip":"50523","city":"Callender","state":"IA","lat":42.3494,"long":-94.282},{"zip":"50524","city":"Clare","state":"IA","lat":42.5954,"long":-94.308},{"zip":"50530","city":"Dayton","state":"IA","lat":42.2594,"long":-94.061},{"zip":"50532","city":"Duncombe","state":"IA","lat":42.4493,"long":-94.0592},{"zip":"50543","city":"Gowrie","state":"IA","lat":42.2767,"long":-94.2987},{"zip":"50544","city":"Harcourt","state":"IA","lat":42.2531,"long":-94.1961},{"zip":"50557","city":"Lehigh","state":"IA","lat":42.3526,"long":-94.0342},{"zip":"50566","city":"Moorland","state":"IA","lat":42.434,"long":-94.3199},{"zip":"50569","city":"Otho","state":"IA","lat":42.4031,"long":-94.1388},{"zip":"50594","city":"Vincent","state":"IA","lat":42.5623,"long":-94.0335},{"zip":"50424","city":"Buffalo Center","state":"IA","lat":43.3732,"long":-93.9376},{"zip":"50436","city":"Forest City","state":"IA","lat":43.2692,"long":-93.6356},{"zip":"50450","city":"Lake Mills","state":"IA","lat":43.4167,"long":-93.5336},{"zip":"50453","city":"Leland","state":"IA","lat":43.3425,"long":-93.6895},{"zip":"50465","city":"Rake","state":"IA","lat":43.4767,"long":-93.9171},{"zip":"50473","city":"Scarville","state":"IA","lat":43.4673,"long":-93.6423},{"zip":"50478","city":"Thompson","state":"IA","lat":43.3875,"long":-93.7517},{"zip":"50434","city":"Fertile","state":"IA","lat":43.2644,"long":-93.4183},{"zip":"50440","city":"Grafton","state":"IA","lat":43.311,"long":-93.0797},{"zip":"50444","city":"Hanlontown","state":"IA","lat":43.2802,"long":-93.3788},{"zip":"50446","city":"Joice","state":"IA","lat":43.3761,"long":-93.4454},{"zip":"50448","city":"Kensett","state":"IA","lat":43.3536,"long":-93.2105},{"zip":"50456","city":"Manly","state":"IA","lat":43.2891,"long":-93.2018},{"zip":"50459","city":"Northwood","state":"IA","lat":43.4506,"long":-93.2419},{"zip":"50071","city":"Dows","state":"IA","lat":42.661,"long":-93.5058},{"zip":"50101","city":"Galt","state":"IA","lat":42.6912,"long":-93.6035},{"zip":"50421","city":"Belmond","state":"IA","lat":42.8511,"long":-93.62},{"zip":"50470","city":"Rowan","state":"IA","lat":42.7596,"long":-93.557},{"zip":"50525","city":"Clarion","state":"IA","lat":42.7271,"long":-93.7277},{"zip":"50526","city":"Clarion","state":"IA","lat":42.733,"long":-93.7352},{"zip":"50533","city":"Eagle Grove","state":"IA","lat":42.6609,"long":-93.9049},{"zip":"50542","city":"Goldfield","state":"IA","lat":42.7581,"long":-93.9194},{"zip":"50599","city":"Woolstock","state":"IA","lat":42.5844,"long":-93.8216}]
