[{"zip":"50002","city":"Adair","state":"IA","lat":41.5137,"long":-94.6444},{"zip":"50025","city":"Audubon","state":"IA","lat":41.73,"long":-94.9164},{"zip":"50042","city":"Brayton","state":"IA","lat":41.5524,"long":-94.974},{"zip":"50076","city":"Exira","state":"IA","lat":41.5768,"long":-94.8571},{"zip":"50031","city":"Beaver","state":"IA","lat":42.0387,"long":-94.1436},{"zip":"50036","city":"Boone","state":"IA","lat":42.0694,"long":-93.8781},{"zip":"50037","city":"Boone","state":"IA","lat":42.0597,"long":-93.8802},{"zip":"50040","city":"Boxholm","state":"IA","lat":42.1706,"long":-94.1052},{"zip":"50099","city":"Boone","state":"IA","lat":42.0597,"long":-93.8802},{"zip":"50058","city":"Coon Rapids","state":"IA","lat":41.894,"long":-94.68},{"zip":"50020","city":"Anita","state":"IA","lat":41.45,"long":-94.7794},{"zip":"50022","city":"Atlantic","state":"IA","lat":41.4003,"long":-95.0101},{"zip":"50003","city":"Adel","state":"IA","lat":41.6221,"long":-94.038},{"zip":"50038","city":"Booneville","state":"IA","lat":41.5242,"long":-93.8838},{"zip":"50039","city":"Bouton","state":"IA","lat":41.8284,"long":-93.9963},{"zip":"50063","city":"Dallas Center","state":"IA","lat":41.6862,"long":-93.9707},{"zip":"50066","city":"Dawson","state":"IA","lat":41.8324,"long":-94.2171},{"zip":"50069","city":"De Soto","state":"IA","lat":41.5208,"long":-94.0303},{"zip":"50070","city":"Dexter","state":"IA","lat":41.5198,"long":-94.2145},{"zip":"50065","city":"Davis City","state":"IA","lat":40.6346,"long":-93.8105},{"zip":"50067","city":"Decatur","state":"IA","lat":40.743,"long":-93.8317},{"zip":"50041","city":"Bradford","state":"IA","lat":42.633,"long":-93.2449},{"zip":"50050","city":"Churdan","state":"IA","lat":42.1614,"long":-94.4933},{"zip":"50059","city":"Cooper","state":"IA","lat":42.0363,"long":-94.397},{"zip":"50064","city":"Dana","state":"IA","lat":42.1075,"long":-94.2408},{"zip":"50026","city":"Bagley","state":"IA","lat":41.8341,"long":-94.4415},{"zip":"50029","city":"Bayard","state":"IA","lat":41.8519,"long":-94.5583},{"zip":"50048","city":"Casey","state":"IA","lat":41.505,"long":-94.5194},{"zip":"50034","city":"Blairsburg","state":"IA","lat":42.4937,"long":-93.6594},{"zip":"50075","city":"Ellsworth","state":"IA","lat":42.3009,"long":-93.549},{"zip":"50006","city":"Alden","state":"IA","lat":42.5179,"long":-93.3841},{"zip":"50043","city":"Buckeye","state":"IA","lat":42.4179,"long":-93.3755},{"zip":"50028","city":"Baxter","state":"IA","lat":41.8204,"long":-93.1583},{"zip":"50054","city":"Colfax","state":"IA","lat":41.6788,"long":-93.2588},{"zip":"50049","city":"Chariton","state":"IA","lat":41.0226,"long":-93.3042},{"zip":"50068","city":"Derby","state":"IA","lat":40.9355,"long":-93.4796},{"zip":"50033","city":"Bevington","state":"IA","lat":41.363,"long":-93.7928},{"zip":"50072","city":"Earlham","state":"IA","lat":41.4709,"long":-94.1294},{"zip":"50027","city":"Barnes City","state":"IA","lat":41.4883,"long":-92.4703},{"zip":"50044","city":"Bussey","state":"IA","lat":41.2094,"long":-92.8963},{"zip":"50057","city":"Columbia","state":"IA","lat":41.1838,"long":-93.1582},{"zip":"50062","city":"Melcher Dallas","state":"IA","lat":41.225,"long":-93.2413},{"zip":"50005","city":"Albion","state":"IA","lat":42.1143,"long":-92.9882},{"zip":"50051","city":"Clemons","state":"IA","lat":42.09,"long":-93.1688},{"zip":"50078","city":"Ferguson","state":"IA","lat":41.9374,"long":-92.865},{"zip":"50007","city":"Alleman","state":"IA","lat":41.8159,"long":-93.6063},{"zip":"50009","city":"Altoona","state":"IA","lat":41.6475,"long":-93.4724},{"zip":"50021","city":"Ankeny","state":"IA","lat":41.7212,"long":-93.5682},{"zip":"50023","city":"Ankeny","state":"IA","lat":41.7194,"long":-93.6266},{"zip":"50032","city":"Berwick","state":"IA","lat":41.6658,"long":-93.5432},{"zip":"50035","city":"Bondurant","state":"IA","lat":41.7017,"long":-93.4527},{"zip":"50073","city":"Elkhart","state":"IA","lat":41.7917,"long":-93.5222},{"zip":"50074","city":"Ellston","state":"IA","lat":40.8505,"long":-94.0841},{"zip":"50010","city":"Ames","state":"IA","lat":42.0379,"long":-93.6003},{"zip":"50011","city":"Ames","state":"IA","lat":42.036,"long":-93.4652},{"zip":"50012","city":"Ames","state":"IA","lat":42.0236,"long":-93.6485},{"zip":"50013","city":"Ames","state":"IA","lat":42.0235,"long":-93.6408},{"zip":"50014","city":"Ames","state":"IA","lat":42.0486,"long":-93.6945},{"zip":"50046","city":"Cambridge","state":"IA","lat":41.9025,"long":-93.5305},{"zip":"50055","city":"Collins","state":"IA","lat":41.9032,"long":-93.3008},{"zip":"50056","city":"Colo","state":"IA","lat":42.0131,"long":-93.3071},{"zip":"50001","city":"Ackworth","state":"IA","lat":41.3737,"long":-93.3767},{"zip":"50047","city":"Carlisle","state":"IA","lat":41.4814,"long":-93.4921},{"zip":"50061","city":"Cumming","state":"IA","lat":41.4849,"long":-93.7539},{"zip":"50008","city":"Allerton","state":"IA","lat":40.7023,"long":-93.3724},{"zip":"50052","city":"Clio","state":"IA","lat":40.6342,"long":-93.448},{"zip":"50060","city":"Corydon","state":"IA","lat":40.7771,"long":-93.3274},{"zip":"50071","city":"Dows","state":"IA","lat":42.661,"long":-93.5058}]
