[{"zip":"50110","city":"Gray","state":"IA","lat":41.8401,"long":-94.9812},{"zip":"50117","city":"Hamlin","state":"IA","lat":41.6506,"long":-94.9157},{"zip":"50152","city":"Luther","state":"IA","lat":41.9387,"long":-93.8371},{"zip":"50156","city":"Madrid","state":"IA","lat":41.8841,"long":-93.8448},{"zip":"50174","city":"Murray","state":"IA","lat":41.0376,"long":-93.953},{"zip":"50109","city":"Granger","state":"IA","lat":41.7611,"long":-93.8244},{"zip":"50146","city":"Linden","state":"IA","lat":41.6422,"long":-94.2406},{"zip":"50167","city":"Minburn","state":"IA","lat":41.7562,"long":-94.015},{"zip":"50103","city":"Garden Grove","state":"IA","lat":40.7711,"long":-93.6117},{"zip":"50108","city":"Grand River","state":"IA","lat":40.8137,"long":-93.9544},{"zip":"50140","city":"Lamoni","state":"IA","lat":40.6229,"long":-93.9349},{"zip":"50144","city":"Leon","state":"IA","lat":40.7373,"long":-93.7429},{"zip":"50107","city":"Grand Junction","state":"IA","lat":42.0296,"long":-94.2336},{"zip":"50129","city":"Jefferson","state":"IA","lat":42.0093,"long":-94.3888},{"zip":"50115","city":"Guthrie Center","state":"IA","lat":41.6837,"long":-94.4864},{"zip":"50128","city":"Jamaica","state":"IA","lat":41.8419,"long":-94.3204},{"zip":"50164","city":"Menlo","state":"IA","lat":41.5348,"long":-94.409},{"zip":"50130","city":"Jewell","state":"IA","lat":42.3139,"long":-93.6428},{"zip":"50132","city":"Kamrar","state":"IA","lat":42.3945,"long":-93.7279},{"zip":"50102","city":"Garden City","state":"IA","lat":42.2455,"long":-93.3955},{"zip":"50122","city":"Hubbard","state":"IA","lat":42.3022,"long":-93.2939},{"zip":"50126","city":"Iowa Falls","state":"IA","lat":42.5138,"long":-93.2709},{"zip":"50127","city":"Ira","state":"IA","lat":41.7771,"long":-93.2058},{"zip":"50135","city":"Kellogg","state":"IA","lat":41.7184,"long":-92.9114},{"zip":"50137","city":"Killduff","state":"IA","lat":41.608,"long":-92.9046},{"zip":"50153","city":"Lynnville","state":"IA","lat":41.5698,"long":-92.7877},{"zip":"50168","city":"Mingo","state":"IA","lat":41.7898,"long":-93.288},{"zip":"50170","city":"Monroe","state":"IA","lat":41.5222,"long":-93.1019},{"zip":"50104","city":"Gibson","state":"IA","lat":41.4868,"long":-92.3867},{"zip":"50136","city":"Keswick","state":"IA","lat":41.4613,"long":-92.2395},{"zip":"50151","city":"Lucas","state":"IA","lat":41.0585,"long":-93.4836},{"zip":"50155","city":"Macksburg","state":"IA","lat":41.2104,"long":-94.1825},{"zip":"50143","city":"Leighton","state":"IA","lat":41.3647,"long":-92.8081},{"zip":"50116","city":"Hamilton","state":"IA","lat":41.19,"long":-92.959},{"zip":"50119","city":"Harvey","state":"IA","lat":41.303,"long":-92.9318},{"zip":"50138","city":"Knoxville","state":"IA","lat":41.3164,"long":-93.0954},{"zip":"50163","city":"Melcher Dallas","state":"IA","lat":41.225,"long":-93.2413},{"zip":"50106","city":"Gilman","state":"IA","lat":41.9012,"long":-92.8101},{"zip":"50120","city":"Haverhill","state":"IA","lat":41.9337,"long":-92.9829},{"zip":"50141","city":"Laurel","state":"IA","lat":41.8829,"long":-92.9263},{"zip":"50142","city":"Le Grand","state":"IA","lat":42.0066,"long":-92.7756},{"zip":"50148","city":"Liscomb","state":"IA","lat":42.184,"long":-92.9833},{"zip":"50158","city":"Marshalltown","state":"IA","lat":42.0405,"long":-92.9127},{"zip":"50162","city":"Melbourne","state":"IA","lat":41.9323,"long":-93.0856},{"zip":"50150","city":"Lovilia","state":"IA","lat":41.1272,"long":-92.9293},{"zip":"50111","city":"Grimes","state":"IA","lat":41.7018,"long":-93.7821},{"zip":"50131","city":"Johnston","state":"IA","lat":41.673,"long":-93.7028},{"zip":"50169","city":"Mitchellville","state":"IA","lat":41.6609,"long":-93.37},{"zip":"50112","city":"Grinnell","state":"IA","lat":41.7421,"long":-92.7344},{"zip":"50157","city":"Malcom","state":"IA","lat":41.7695,"long":-92.5354},{"zip":"50171","city":"Montezuma","state":"IA","lat":41.5928,"long":-92.5276},{"zip":"50133","city":"Kellerton","state":"IA","lat":40.6861,"long":-94.0607},{"zip":"50105","city":"Gilbert","state":"IA","lat":42.1148,"long":-93.6399},{"zip":"50124","city":"Huxley","state":"IA","lat":41.8994,"long":-93.6024},{"zip":"50134","city":"Kelley","state":"IA","lat":41.9488,"long":-93.6644},{"zip":"50154","city":"Mc Callsburg","state":"IA","lat":42.1665,"long":-93.3978},{"zip":"50161","city":"Maxwell","state":"IA","lat":41.8967,"long":-93.4001},{"zip":"50173","city":"Montour","state":"IA","lat":41.9709,"long":-92.7006},{"zip":"50149","city":"Lorimor","state":"IA","lat":41.1233,"long":-94.0639},{"zip":"50118","city":"Hartford","state":"IA","lat":41.4596,"long":-93.4022},{"zip":"50125","city":"Indianola","state":"IA","lat":41.3143,"long":-93.588},{"zip":"50139","city":"Lacona","state":"IA","lat":41.1988,"long":-93.3838},{"zip":"50145","city":"Liberty Center","state":"IA","lat":41.2071,"long":-93.4993},{"zip":"50160","city":"Martensdale","state":"IA","lat":41.373,"long":-93.7358},{"zip":"50166","city":"Milo","state":"IA","lat":41.2904,"long":-93.4454},{"zip":"50123","city":"Humeston","state":"IA","lat":40.8469,"long":-93.5101},{"zip":"50147","city":"Lineville","state":"IA","lat":40.6004,"long":-93.4862},{"zip":"50165","city":"Millerton","state":"IA","lat":40.8494,"long":-93.3055},{"zip":"50101","city":"Galt","state":"IA","lat":42.6912,"long":-93.6035}]
