[{"zip":"50212","city":"Ogden","state":"IA","lat":42.0351,"long":-94.0063},{"zip":"50223","city":"Pilot Mound","state":"IA","lat":42.1604,"long":-94.0102},{"zip":"50274","city":"Wiota","state":"IA","lat":41.3846,"long":-94.8405},{"zip":"50213","city":"Osceola","state":"IA","lat":41.0295,"long":-93.7712},{"zip":"50275","city":"Woodburn","state":"IA","lat":41,"long":-93.6083},{"zip":"50220","city":"Perry","state":"IA","lat":41.8397,"long":-94.1022},{"zip":"50233","city":"Redfield","state":"IA","lat":41.5873,"long":-94.1897},{"zip":"50261","city":"Van Meter","state":"IA","lat":41.4699,"long":-93.9207},{"zip":"50263","city":"Waukee","state":"IA","lat":41.593,"long":-93.8592},{"zip":"50276","city":"Woodward","state":"IA","lat":41.8452,"long":-93.9056},{"zip":"50262","city":"Van Wert","state":"IA","lat":40.8645,"long":-93.8073},{"zip":"50264","city":"Weldon","state":"IA","lat":40.8739,"long":-93.7387},{"zip":"50227","city":"Popejoy","state":"IA","lat":42.5974,"long":-93.4279},{"zip":"50217","city":"Paton","state":"IA","lat":42.1658,"long":-94.273},{"zip":"50235","city":"Rippey","state":"IA","lat":41.9257,"long":-94.2132},{"zip":"50216","city":"Panora","state":"IA","lat":41.6967,"long":-94.3606},{"zip":"50250","city":"Stuart","state":"IA","lat":41.5033,"long":-94.3186},{"zip":"50277","city":"Yale","state":"IA","lat":41.7753,"long":-94.3503},{"zip":"50231","city":"Randall","state":"IA","lat":42.2383,"long":-93.6008},{"zip":"50246","city":"Stanhope","state":"IA","lat":42.2904,"long":-93.7751},{"zip":"50249","city":"Stratford","state":"IA","lat":42.2847,"long":-93.9029},{"zip":"50271","city":"Williams","state":"IA","lat":42.4883,"long":-93.5449},{"zip":"50206","city":"New Providence","state":"IA","lat":42.2693,"long":-93.1753},{"zip":"50230","city":"Radcliffe","state":"IA","lat":42.3241,"long":-93.4234},{"zip":"50258","city":"Union","state":"IA","lat":42.2521,"long":-93.0562},{"zip":"50259","city":"Gifford","state":"IA","lat":42.3831,"long":-93.2506},{"zip":"50269","city":"Whitten","state":"IA","lat":42.2718,"long":-93.0214},{"zip":"50208","city":"Newton","state":"IA","lat":41.6992,"long":-93.0455},{"zip":"50228","city":"Prairie City","state":"IA","lat":41.5854,"long":-93.241},{"zip":"50232","city":"Reasnor","state":"IA","lat":41.5798,"long":-93.0198},{"zip":"50251","city":"Sully","state":"IA","lat":41.574,"long":-92.8451},{"zip":"50255","city":"Thornburg","state":"IA","lat":41.4547,"long":-92.3357},{"zip":"50268","city":"What Cheer","state":"IA","lat":41.3953,"long":-92.3548},{"zip":"50238","city":"Russell","state":"IA","lat":40.9456,"long":-93.1784},{"zip":"50272","city":"Williamson","state":"IA","lat":41.0959,"long":-93.2559},{"zip":"50218","city":"Patterson","state":"IA","lat":41.3499,"long":-93.8803},{"zip":"50222","city":"Peru","state":"IA","lat":41.2145,"long":-93.9437},{"zip":"50240","city":"Saint Charles","state":"IA","lat":41.2924,"long":-93.8242},{"zip":"50257","city":"Truro","state":"IA","lat":41.2076,"long":-93.841},{"zip":"50273","city":"Winterset","state":"IA","lat":41.3391,"long":-94.0088},{"zip":"50207","city":"New Sharon","state":"IA","lat":41.464,"long":-92.6848},{"zip":"50214","city":"Otley","state":"IA","lat":41.4518,"long":-93.0348},{"zip":"50219","city":"Pella","state":"IA","lat":41.4082,"long":-92.9172},{"zip":"50225","city":"Pleasantville","state":"IA","lat":41.3738,"long":-93.2712},{"zip":"50252","city":"Swan","state":"IA","lat":41.4636,"long":-93.301},{"zip":"50256","city":"Tracy","state":"IA","lat":41.2756,"long":-92.8753},{"zip":"50234","city":"Rhodes","state":"IA","lat":41.9177,"long":-93.1796},{"zip":"50239","city":"Saint Anthony","state":"IA","lat":42.152,"long":-93.1824},{"zip":"50247","city":"State Center","state":"IA","lat":42.0109,"long":-93.1673},{"zip":"50226","city":"Polk City","state":"IA","lat":41.7549,"long":-93.6893},{"zip":"50237","city":"Runnells","state":"IA","lat":41.5515,"long":-93.4202},{"zip":"50243","city":"Sheldahl","state":"IA","lat":41.8571,"long":-93.6973},{"zip":"50265","city":"West Des Moines","state":"IA","lat":41.5805,"long":-93.7447},{"zip":"50266","city":"West Des Moines","state":"IA","lat":41.5695,"long":-93.7994},{"zip":"50242","city":"Searsboro","state":"IA","lat":41.5656,"long":-92.6987},{"zip":"50201","city":"Nevada","state":"IA","lat":42.019,"long":-93.4462},{"zip":"50236","city":"Roland","state":"IA","lat":42.1646,"long":-93.5063},{"zip":"50244","city":"Slater","state":"IA","lat":41.8765,"long":-93.6812},{"zip":"50248","city":"Story City","state":"IA","lat":42.1835,"long":-93.5988},{"zip":"50278","city":"Zearing","state":"IA","lat":42.1535,"long":-93.2928},{"zip":"50254","city":"Thayer","state":"IA","lat":41.0029,"long":-94.0686},{"zip":"50210","city":"New Virginia","state":"IA","lat":41.1883,"long":-93.6976},{"zip":"50211","city":"Norwalk","state":"IA","lat":41.4861,"long":-93.6573},{"zip":"50229","city":"Prole","state":"IA","lat":41.383,"long":-93.7344},{"zip":"50241","city":"Saint Marys","state":"IA","lat":41.3084,"long":-93.7369}]
