[{"zip":"50301","city":"Des Moines","state":"IA","lat":41.6727,"long":-93.5722},{"zip":"50302","city":"Des Moines","state":"IA","lat":41.6727,"long":-93.5722},{"zip":"50303","city":"Des Moines","state":"IA","lat":41.6727,"long":-93.5722},{"zip":"50304","city":"Des Moines","state":"IA","lat":41.6727,"long":-93.5722},{"zip":"50305","city":"Des Moines","state":"IA","lat":41.6727,"long":-93.5722},{"zip":"50306","city":"Des Moines","state":"IA","lat":41.6727,"long":-93.5722},{"zip":"50307","city":"Des Moines","state":"IA","lat":41.6005,"long":-93.6091},{"zip":"50308","city":"Des Moines","state":"IA","lat":41.6727,"long":-93.5722},{"zip":"50309","city":"Des Moines","state":"IA","lat":41.5887,"long":-93.6212},{"zip":"50310","city":"Des Moines","state":"IA","lat":41.6255,"long":-93.6736},{"zip":"50311","city":"Des Moines","state":"IA","lat":41.601,"long":-93.6729},{"zip":"50312","city":"Des Moines","state":"IA","lat":41.5855,"long":-93.6719},{"zip":"50313","city":"Des Moines","state":"IA","lat":41.6381,"long":-93.6203},{"zip":"50314","city":"Des Moines","state":"IA","lat":41.603,"long":-93.633},{"zip":"50315","city":"Des Moines","state":"IA","lat":41.5444,"long":-93.6192},{"zip":"50316","city":"Des Moines","state":"IA","lat":41.6092,"long":-93.6},{"zip":"50317","city":"Des Moines","state":"IA","lat":41.6122,"long":-93.5296},{"zip":"50318","city":"Des Moines","state":"IA","lat":41.6727,"long":-93.5722},{"zip":"50319","city":"Des Moines","state":"IA","lat":41.5921,"long":-93.604},{"zip":"50320","city":"Des Moines","state":"IA","lat":41.5487,"long":-93.5827},{"zip":"50321","city":"Des Moines","state":"IA","lat":41.5476,"long":-93.6618},{"zip":"50322","city":"Urbandale","state":"IA","lat":41.6295,"long":-93.723},{"zip":"50323","city":"Urbandale","state":"IA","lat":41.6294,"long":-93.7717},{"zip":"50324","city":"Windsor Heights","state":"IA","lat":41.6032,"long":-93.7152},{"zip":"50325","city":"Clive","state":"IA","lat":41.6067,"long":-93.7457},{"zip":"50327","city":"Pleasant Hill","state":"IA","lat":41.5839,"long":-93.5199},{"zip":"50328","city":"Des Moines","state":"IA","lat":41.6727,"long":-93.5722},{"zip":"50329","city":"Des Moines","state":"IA","lat":41.6727,"long":-93.5722},{"zip":"50330","city":"Des Moines","state":"IA","lat":41.6727,"long":-93.5722},{"zip":"50331","city":"Des Moines","state":"IA","lat":41.6727,"long":-93.5722},{"zip":"50332","city":"Des Moines","state":"IA","lat":41.6727,"long":-93.5722},{"zip":"50333","city":"Des Moines","state":"IA","lat":41.6727,"long":-93.5722},{"zip":"50334","city":"Des Moines","state":"IA","lat":41.6727,"long":-93.5722},{"zip":"50335","city":"Des Moines","state":"IA","lat":41.6727,"long":-93.5722},{"zip":"50336","city":"Des Moines","state":"IA","lat":41.6727,"long":-93.5722},{"zip":"50339","city":"Des Moines","state":"IA","lat":41.6727,"long":-93.5722},{"zip":"50340","city":"Des Moines","state":"IA","lat":41.6727,"long":-93.5722},{"zip":"50359","city":"Des Moines","state":"IA","lat":41.6727,"long":-93.5722},{"zip":"50360","city":"Des Moines","state":"IA","lat":41.6727,"long":-93.5722},{"zip":"50361","city":"Des Moines","state":"IA","lat":41.6727,"long":-93.5722},{"zip":"50362","city":"Des Moines","state":"IA","lat":41.6727,"long":-93.5722},{"zip":"50363","city":"Des Moines","state":"IA","lat":41.6727,"long":-93.5722},{"zip":"50364","city":"Des Moines","state":"IA","lat":41.6727,"long":-93.5722},{"zip":"50367","city":"Des Moines","state":"IA","lat":41.6727,"long":-93.5722},{"zip":"50368","city":"Des Moines","state":"IA","lat":41.6727,"long":-93.5722},{"zip":"50369","city":"Des Moines","state":"IA","lat":41.6727,"long":-93.5722},{"zip":"50380","city":"Des Moines","state":"IA","lat":41.6727,"long":-93.5722},{"zip":"50381","city":"Des Moines","state":"IA","lat":41.6727,"long":-93.5722},{"zip":"50391","city":"Des Moines","state":"IA","lat":41.6727,"long":-93.5722},{"zip":"50392","city":"Des Moines","state":"IA","lat":41.5878,"long":-93.6274},{"zip":"50393","city":"Des Moines","state":"IA","lat":41.6727,"long":-93.5722},{"zip":"50394","city":"Des Moines","state":"IA","lat":41.6727,"long":-93.5722},{"zip":"50395","city":"Des Moines","state":"IA","lat":41.6727,"long":-93.5722},{"zip":"50396","city":"Des Moines","state":"IA","lat":41.6727,"long":-93.5722},{"zip":"50398","city":"Urbandale","state":"IA","lat":41.6267,"long":-93.7122}]
