[{"zip":"50510","city":"Albert City","state":"IA","lat":42.7784,"long":-94.9824},{"zip":"50565","city":"Marathon","state":"IA","lat":42.8612,"long":-94.9836},{"zip":"50568","city":"Newell","state":"IA","lat":42.6157,"long":-94.9946},{"zip":"50576","city":"Rembrandt","state":"IA","lat":42.826,"long":-95.1652},{"zip":"50585","city":"Sioux Rapids","state":"IA","lat":42.9065,"long":-95.1388},{"zip":"50588","city":"Storm Lake","state":"IA","lat":42.6474,"long":-95.1961},{"zip":"50592","city":"Truesdale","state":"IA","lat":42.7262,"long":-95.1853},{"zip":"50538","city":"Farnhamville","state":"IA","lat":42.2692,"long":-94.4226},{"zip":"50551","city":"Jolley","state":"IA","lat":42.4871,"long":-94.757},{"zip":"50552","city":"Knierim","state":"IA","lat":42.4555,"long":-94.4569},{"zip":"50561","city":"Lytton","state":"IA","lat":42.423,"long":-94.8597},{"zip":"50563","city":"Manson","state":"IA","lat":42.5285,"long":-94.5304},{"zip":"50575","city":"Pomeroy","state":"IA","lat":42.5511,"long":-94.6839},{"zip":"50579","city":"Rockwell City","state":"IA","lat":42.3961,"long":-94.6292},{"zip":"50586","city":"Somers","state":"IA","lat":42.3561,"long":-94.4464},{"zip":"50514","city":"Armstrong","state":"IA","lat":43.4024,"long":-94.4853},{"zip":"50531","city":"Dolliver","state":"IA","lat":43.4664,"long":-94.6242},{"zip":"50578","city":"Ringsted","state":"IA","lat":43.2977,"long":-94.5291},{"zip":"50595","city":"Webster City","state":"IA","lat":42.4657,"long":-93.8262},{"zip":"50519","city":"Bode","state":"IA","lat":42.8661,"long":-94.2781},{"zip":"50520","city":"Bradgate","state":"IA","lat":42.7794,"long":-94.4002},{"zip":"50529","city":"Dakota City","state":"IA","lat":42.7214,"long":-94.1993},{"zip":"50541","city":"Gilmore City","state":"IA","lat":42.7067,"long":-94.4108},{"zip":"50545","city":"Hardy","state":"IA","lat":42.7975,"long":-94.0799},{"zip":"50548","city":"Humboldt","state":"IA","lat":42.7196,"long":-94.2132},{"zip":"50558","city":"Livermore","state":"IA","lat":42.8666,"long":-94.1747},{"zip":"50570","city":"Ottosen","state":"IA","lat":42.8764,"long":-94.3786},{"zip":"50577","city":"Renwick","state":"IA","lat":42.8491,"long":-94.0074},{"zip":"50582","city":"Rutland","state":"IA","lat":42.7635,"long":-94.2719},{"zip":"50591","city":"Thor","state":"IA","lat":42.6889,"long":-94.039},{"zip":"50511","city":"Algona","state":"IA","lat":43.066,"long":-94.2306},{"zip":"50517","city":"Bancroft","state":"IA","lat":43.2935,"long":-94.2108},{"zip":"50522","city":"Burt","state":"IA","lat":43.2062,"long":-94.2122},{"zip":"50539","city":"Fenton","state":"IA","lat":43.242,"long":-94.4044},{"zip":"50556","city":"Ledyard","state":"IA","lat":43.4346,"long":-94.1503},{"zip":"50559","city":"Lone Rock","state":"IA","lat":43.1666,"long":-94.3586},{"zip":"50560","city":"Lu Verne","state":"IA","lat":42.9868,"long":-94.0959},{"zip":"50590","city":"Swea City","state":"IA","lat":43.4022,"long":-94.3193},{"zip":"50598","city":"Whittemore","state":"IA","lat":43.0619,"long":-94.4269},{"zip":"50515","city":"Ayrshire","state":"IA","lat":43.037,"long":-94.8478},{"zip":"50527","city":"Curlew","state":"IA","lat":42.9633,"long":-94.7975},{"zip":"50528","city":"Cylinder","state":"IA","lat":43.1507,"long":-94.5107},{"zip":"50536","city":"Emmetsburg","state":"IA","lat":43.1082,"long":-94.6825},{"zip":"50562","city":"Mallard","state":"IA","lat":42.9417,"long":-94.6746},{"zip":"50597","city":"West Bend","state":"IA","lat":42.9574,"long":-94.4564},{"zip":"50540","city":"Fonda","state":"IA","lat":42.6051,"long":-94.8297},{"zip":"50546","city":"Havelock","state":"IA","lat":42.8411,"long":-94.7252},{"zip":"50554","city":"Laurens","state":"IA","lat":42.8409,"long":-94.8508},{"zip":"50571","city":"Palmer","state":"IA","lat":42.6419,"long":-94.5432},{"zip":"50573","city":"Plover","state":"IA","lat":42.8783,"long":-94.6205},{"zip":"50574","city":"Pocahontas","state":"IA","lat":42.7296,"long":-94.6737},{"zip":"50581","city":"Rolfe","state":"IA","lat":42.8082,"long":-94.5166},{"zip":"50593","city":"Varina","state":"IA","lat":42.6598,"long":-94.8979},{"zip":"50535","city":"Early","state":"IA","lat":42.4483,"long":-95.1726},{"zip":"50567","city":"Nemaha","state":"IA","lat":42.518,"long":-95.0939},{"zip":"50583","city":"Sac City","state":"IA","lat":42.4262,"long":-94.9796},{"zip":"50501","city":"Fort Dodge","state":"IA","lat":42.5088,"long":-94.1807},{"zip":"50516","city":"Badger","state":"IA","lat":42.6144,"long":-94.1461},{"zip":"50518","city":"Barnum","state":"IA","lat":42.5159,"long":-94.3703},{"zip":"50521","city":"Burnside","state":"IA","lat":42.3413,"long":-94.1143},{"zip":"50523","city":"Callender","state":"IA","lat":42.3494,"long":-94.282},{"zip":"50524","city":"Clare","state":"IA","lat":42.5954,"long":-94.308},{"zip":"50530","city":"Dayton","state":"IA","lat":42.2594,"long":-94.061},{"zip":"50532","city":"Duncombe","state":"IA","lat":42.4493,"long":-94.0592},{"zip":"50543","city":"Gowrie","state":"IA","lat":42.2767,"long":-94.2987},{"zip":"50544","city":"Harcourt","state":"IA","lat":42.2531,"long":-94.1961},{"zip":"50557","city":"Lehigh","state":"IA","lat":42.3526,"long":-94.0342},{"zip":"50566","city":"Moorland","state":"IA","lat":42.434,"long":-94.3199},{"zip":"50569","city":"Otho","state":"IA","lat":42.4031,"long":-94.1388},{"zip":"50594","city":"Vincent","state":"IA","lat":42.5623,"long":-94.0335},{"zip":"50525","city":"Clarion","state":"IA","lat":42.7271,"long":-93.7277},{"zip":"50526","city":"Clarion","state":"IA","lat":42.733,"long":-93.7352},{"zip":"50533","city":"Eagle Grove","state":"IA","lat":42.6609,"long":-93.9049},{"zip":"50542","city":"Goldfield","state":"IA","lat":42.7581,"long":-93.9194},{"zip":"50599","city":"Woolstock","state":"IA","lat":42.5844,"long":-93.8216}]
