[{"zip":"50613","city":"Cedar Falls","state":"IA","lat":42.5241,"long":-92.4497},{"zip":"50614","city":"Cedar Falls","state":"IA","lat":42.4698,"long":-92.3095},{"zip":"50623","city":"Dewar","state":"IA","lat":42.5253,"long":-92.2207},{"zip":"50626","city":"Dunkerton","state":"IA","lat":42.578,"long":-92.1588},{"zip":"50634","city":"Gilbertville","state":"IA","lat":42.4161,"long":-92.2149},{"zip":"50643","city":"Hudson","state":"IA","lat":42.3905,"long":-92.4549},{"zip":"50651","city":"La Porte City","state":"IA","lat":42.3416,"long":-92.1862},{"zip":"50667","city":"Raymond","state":"IA","lat":42.4672,"long":-92.2162},{"zip":"50622","city":"Denver","state":"IA","lat":42.6731,"long":-92.3417},{"zip":"50631","city":"Frederika","state":"IA","lat":42.8827,"long":-92.3063},{"zip":"50647","city":"Janesville","state":"IA","lat":42.6465,"long":-92.4791},{"zip":"50666","city":"Plainfield","state":"IA","lat":42.8503,"long":-92.5116},{"zip":"50668","city":"Readlyn","state":"IA","lat":42.6929,"long":-92.2154},{"zip":"50674","city":"Sumner","state":"IA","lat":42.8419,"long":-92.1186},{"zip":"50676","city":"Tripoli","state":"IA","lat":42.8105,"long":-92.2659},{"zip":"50677","city":"Waverly","state":"IA","lat":42.7748,"long":-92.404},{"zip":"50607","city":"Aurora","state":"IA","lat":42.6203,"long":-91.7335},{"zip":"50629","city":"Fairbank","state":"IA","lat":42.6162,"long":-92.0326},{"zip":"50641","city":"Hazleton","state":"IA","lat":42.6076,"long":-91.9105},{"zip":"50644","city":"Independence","state":"IA","lat":42.4674,"long":-91.8803},{"zip":"50648","city":"Jesup","state":"IA","lat":42.4823,"long":-92.0456},{"zip":"50650","city":"Lamont","state":"IA","lat":42.5946,"long":-91.6701},{"zip":"50671","city":"Stanley","state":"IA","lat":42.6356,"long":-91.8127},{"zip":"50682","city":"Winthrop","state":"IA","lat":42.4912,"long":-91.7315},{"zip":"50602","city":"Allison","state":"IA","lat":42.7615,"long":-92.783},{"zip":"50604","city":"Aplington","state":"IA","lat":42.587,"long":-92.8751},{"zip":"50605","city":"Aredale","state":"IA","lat":42.8318,"long":-93.021},{"zip":"50608","city":"Austinville","state":"IA","lat":42.5824,"long":-92.9599},{"zip":"50611","city":"Bristow","state":"IA","lat":42.7741,"long":-92.8864},{"zip":"50619","city":"Clarksville","state":"IA","lat":42.8041,"long":-92.6588},{"zip":"50625","city":"Dumont","state":"IA","lat":42.7368,"long":-92.9673},{"zip":"50636","city":"Greene","state":"IA","lat":42.8958,"long":-92.8024},{"zip":"50649","city":"Kesley","state":"IA","lat":42.6626,"long":-92.9112},{"zip":"50660","city":"New Hartford","state":"IA","lat":42.5831,"long":-92.6164},{"zip":"50665","city":"Parkersburg","state":"IA","lat":42.5714,"long":-92.7688},{"zip":"50670","city":"Shell Rock","state":"IA","lat":42.7061,"long":-92.5888},{"zip":"50603","city":"Alta Vista","state":"IA","lat":43.1482,"long":-92.4237},{"zip":"50630","city":"Fredericksburg","state":"IA","lat":42.9593,"long":-92.1983},{"zip":"50645","city":"Ionia","state":"IA","lat":43.0403,"long":-92.4865},{"zip":"50658","city":"Nashua","state":"IA","lat":42.9528,"long":-92.5298},{"zip":"50659","city":"New Hampton","state":"IA","lat":43.056,"long":-92.3131},{"zip":"50661","city":"North Washington","state":"IA","lat":43.1174,"long":-92.4144},{"zip":"50654","city":"Masonville","state":"IA","lat":42.4794,"long":-91.5913},{"zip":"50606","city":"Arlington","state":"IA","lat":42.7338,"long":-91.6668},{"zip":"50655","city":"Maynard","state":"IA","lat":42.7752,"long":-91.8908},{"zip":"50662","city":"Oelwein","state":"IA","lat":42.6811,"long":-91.9131},{"zip":"50664","city":"Oran","state":"IA","lat":42.7012,"long":-92.0762},{"zip":"50681","city":"Westgate","state":"IA","lat":42.7812,"long":-92.0122},{"zip":"50616","city":"Charles City","state":"IA","lat":43.0683,"long":-92.6761},{"zip":"50620","city":"Colwell","state":"IA","lat":43.1584,"long":-92.5905},{"zip":"50653","city":"Marble Rock","state":"IA","lat":42.9645,"long":-92.8917},{"zip":"50633","city":"Geneva","state":"IA","lat":42.6755,"long":-93.1294},{"zip":"50609","city":"Beaman","state":"IA","lat":42.2367,"long":-92.8162},{"zip":"50621","city":"Conrad","state":"IA","lat":42.2342,"long":-92.8865},{"zip":"50624","city":"Dike","state":"IA","lat":42.473,"long":-92.6122},{"zip":"50638","city":"Grundy Center","state":"IA","lat":42.3672,"long":-92.7773},{"zip":"50642","city":"Holland","state":"IA","lat":42.4011,"long":-92.7999},{"zip":"50657","city":"Morrison","state":"IA","lat":42.3433,"long":-92.6738},{"zip":"50669","city":"Reinbeck","state":"IA","lat":42.3131,"long":-92.5948},{"zip":"50673","city":"Stout","state":"IA","lat":42.5264,"long":-92.7119},{"zip":"50680","city":"Wellsburg","state":"IA","lat":42.4494,"long":-92.9398},{"zip":"50601","city":"Ackley","state":"IA","lat":42.5527,"long":-93.0608},{"zip":"50627","city":"Eldora","state":"IA","lat":42.3572,"long":-93.1037},{"zip":"50672","city":"Steamboat Rock","state":"IA","lat":42.4178,"long":-93.0629},{"zip":"50628","city":"Elma","state":"IA","lat":43.2786,"long":-92.3981},{"zip":"50612","city":"Buckingham","state":"IA","lat":42.2552,"long":-92.4098},{"zip":"50632","city":"Garwin","state":"IA","lat":42.0872,"long":-92.6894},{"zip":"50635","city":"Gladbrook","state":"IA","lat":42.1774,"long":-92.7141},{"zip":"50652","city":"Lincoln","state":"IA","lat":42.2643,"long":-92.693},{"zip":"50675","city":"Traer","state":"IA","lat":42.1847,"long":-92.4827}]
