[{"zip":"50837","city":"Bridgewater","state":"IA","lat":41.2589,"long":-94.6669},{"zip":"50846","city":"Fontanelle","state":"IA","lat":41.2896,"long":-94.5419},{"zip":"50849","city":"Greenfield","state":"IA","lat":41.3133,"long":-94.4408},{"zip":"50858","city":"Orient","state":"IA","lat":41.2192,"long":-94.3705},{"zip":"50839","city":"Carbon","state":"IA","lat":41.0487,"long":-94.8231},{"zip":"50841","city":"Corning","state":"IA","lat":40.9871,"long":-94.7358},{"zip":"50857","city":"Nodaway","state":"IA","lat":40.954,"long":-94.8731},{"zip":"50859","city":"Prescott","state":"IA","lat":41.0577,"long":-94.5942},{"zip":"50843","city":"Cumberland","state":"IA","lat":41.2632,"long":-94.871},{"zip":"50853","city":"Massena","state":"IA","lat":41.2499,"long":-94.7649},{"zip":"50847","city":"Grant","state":"IA","lat":41.1427,"long":-94.9842},{"zip":"50864","city":"Villisca","state":"IA","lat":40.9437,"long":-94.9796},{"zip":"50835","city":"Benton","state":"IA","lat":40.7082,"long":-94.3689},{"zip":"50845","city":"Diagonal","state":"IA","lat":40.8226,"long":-94.3552},{"zip":"50854","city":"Mount Ayr","state":"IA","lat":40.7142,"long":-94.2321},{"zip":"50860","city":"Redding","state":"IA","lat":40.6053,"long":-94.3595},{"zip":"50863","city":"Tingley","state":"IA","lat":40.8516,"long":-94.1908},{"zip":"50833","city":"Bedford","state":"IA","lat":40.6683,"long":-94.7324},{"zip":"50836","city":"Blockton","state":"IA","lat":40.6242,"long":-94.5049},{"zip":"50840","city":"Clearfield","state":"IA","lat":40.7935,"long":-94.4944},{"zip":"50848","city":"Gravity","state":"IA","lat":40.7909,"long":-94.7506},{"zip":"50851","city":"Lenox","state":"IA","lat":40.8841,"long":-94.5612},{"zip":"50862","city":"Sharpsburg","state":"IA","lat":40.795,"long":-94.6416},{"zip":"50801","city":"Creston","state":"IA","lat":41.0499,"long":-94.3471},{"zip":"50830","city":"Afton","state":"IA","lat":41.0401,"long":-94.194},{"zip":"50831","city":"Arispe","state":"IA","lat":40.9314,"long":-94.2193},{"zip":"50842","city":"Cromwell","state":"IA","lat":41.0398,"long":-94.4616},{"zip":"50861","city":"Shannon City","state":"IA","lat":40.9017,"long":-94.2633}]
