[{"zip":"51543","city":"Kimballton","state":"IA","lat":41.6352,"long":-95.0553},{"zip":"51002","city":"Alta","state":"IA","lat":42.6771,"long":-95.3129},{"zip":"51033","city":"Linn Grove","state":"IA","lat":42.8742,"long":-95.2512},{"zip":"51449","city":"Lake City","state":"IA","lat":42.2705,"long":-94.7458},{"zip":"51453","city":"Lohrville","state":"IA","lat":42.2619,"long":-94.5566},{"zip":"51401","city":"Carroll","state":"IA","lat":42.072,"long":-94.8667},{"zip":"51430","city":"Arcadia","state":"IA","lat":42.0573,"long":-95.0371},{"zip":"51436","city":"Breda","state":"IA","lat":42.1758,"long":-95.0007},{"zip":"51440","city":"Dedham","state":"IA","lat":41.9055,"long":-94.8149},{"zip":"51443","city":"Glidden","state":"IA","lat":42.0618,"long":-94.7148},{"zip":"51444","city":"Halbur","state":"IA","lat":42.0048,"long":-94.9731},{"zip":"51451","city":"Lanesboro","state":"IA","lat":42.1845,"long":-94.6917},{"zip":"51452","city":"Lidderdale","state":"IA","lat":42.1254,"long":-94.7754},{"zip":"51455","city":"Manning","state":"IA","lat":41.9072,"long":-95.0556},{"zip":"51459","city":"Ralston","state":"IA","lat":42.0414,"long":-94.6321},{"zip":"51463","city":"Templeton","state":"IA","lat":41.9121,"long":-94.932},{"zip":"51535","city":"Griswold","state":"IA","lat":41.235,"long":-95.1375},{"zip":"51544","city":"Lewis","state":"IA","lat":41.2963,"long":-95.062},{"zip":"51552","city":"Marne","state":"IA","lat":41.4547,"long":-95.0973},{"zip":"51005","city":"Aurelia","state":"IA","lat":42.6912,"long":-95.4381},{"zip":"51012","city":"Cherokee","state":"IA","lat":42.7482,"long":-95.5568},{"zip":"51014","city":"Cleghorn","state":"IA","lat":42.8086,"long":-95.7124},{"zip":"51029","city":"Larrabee","state":"IA","lat":42.8608,"long":-95.5453},{"zip":"51035","city":"Marcus","state":"IA","lat":42.82,"long":-95.8034},{"zip":"51037","city":"Meriden","state":"IA","lat":42.7874,"long":-95.6408},{"zip":"51049","city":"Quimby","state":"IA","lat":42.6303,"long":-95.642},{"zip":"51061","city":"Washta","state":"IA","lat":42.5781,"long":-95.7295},{"zip":"51047","city":"Peterson","state":"IA","lat":42.9328,"long":-95.3377},{"zip":"51301","city":"Spencer","state":"IA","lat":43.1451,"long":-95.1457},{"zip":"51333","city":"Dickens","state":"IA","lat":43.1548,"long":-94.9854},{"zip":"51338","city":"Everly","state":"IA","lat":43.1609,"long":-95.3228},{"zip":"51340","city":"Fostoria","state":"IA","lat":43.0824,"long":-95.1511},{"zip":"51341","city":"Gillett Grove","state":"IA","lat":43.0157,"long":-95.0431},{"zip":"51343","city":"Greenville","state":"IA","lat":43.0333,"long":-95.0582},{"zip":"51357","city":"Royal","state":"IA","lat":43.0488,"long":-95.2679},{"zip":"51366","city":"Webb","state":"IA","lat":42.9502,"long":-94.9951},{"zip":"51432","city":"Aspinwall","state":"IA","lat":41.9119,"long":-95.1356},{"zip":"51439","city":"Charter Oak","state":"IA","lat":42.0707,"long":-95.5992},{"zip":"51441","city":"Deloit","state":"IA","lat":42.1238,"long":-95.3045},{"zip":"51442","city":"Denison","state":"IA","lat":42.0196,"long":-95.3636},{"zip":"51448","city":"Kiron","state":"IA","lat":42.1794,"long":-95.3115},{"zip":"51454","city":"Manilla","state":"IA","lat":41.8922,"long":-95.2391},{"zip":"51460","city":"Ricketts","state":"IA","lat":42.1304,"long":-95.5746},{"zip":"51461","city":"Schleswig","state":"IA","lat":42.1646,"long":-95.4443},{"zip":"51465","city":"Vail","state":"IA","lat":42.0338,"long":-95.1778},{"zip":"51467","city":"Westside","state":"IA","lat":42.1084,"long":-95.1273},{"zip":"51520","city":"Arion","state":"IA","lat":41.9504,"long":-95.4623},{"zip":"51528","city":"Dow City","state":"IA","lat":41.9134,"long":-95.4862},{"zip":"51331","city":"Arnolds Park","state":"IA","lat":43.3637,"long":-95.1282},{"zip":"51347","city":"Lake Park","state":"IA","lat":43.4452,"long":-95.3216},{"zip":"51351","city":"Milford","state":"IA","lat":43.3196,"long":-95.1615},{"zip":"51355","city":"Okoboji","state":"IA","lat":43.3889,"long":-95.1369},{"zip":"51360","city":"Spirit Lake","state":"IA","lat":43.4262,"long":-95.1123},{"zip":"51363","city":"Superior","state":"IA","lat":43.4318,"long":-94.9469},{"zip":"51364","city":"Terril","state":"IA","lat":43.3241,"long":-94.9737},{"zip":"51334","city":"Estherville","state":"IA","lat":43.4017,"long":-94.818},{"zip":"51365","city":"Wallingford","state":"IA","lat":43.3189,"long":-94.7964},{"zip":"51639","city":"Farragut","state":"IA","lat":40.7215,"long":-95.4776},{"zip":"51640","city":"Hamburg","state":"IA","lat":40.6149,"long":-95.6258},{"zip":"51645","city":"Imogene","state":"IA","lat":40.8631,"long":-95.4358},{"zip":"51648","city":"Percival","state":"IA","lat":40.7401,"long":-95.8093},{"zip":"51649","city":"Randolph","state":"IA","lat":40.8704,"long":-95.5624},{"zip":"51650","city":"Riverton","state":"IA","lat":40.6629,"long":-95.5773},{"zip":"51652","city":"Sidney","state":"IA","lat":40.7507,"long":-95.6403},{"zip":"51653","city":"Tabor","state":"IA","lat":40.9004,"long":-95.6729},{"zip":"51654","city":"Thurman","state":"IA","lat":40.8424,"long":-95.7605},{"zip":"51462","city":"Scranton","state":"IA","lat":42.0124,"long":-94.5518},{"zip":"51529","city":"Dunlap","state":"IA","lat":41.8603,"long":-95.6257},{"zip":"51545","city":"Little Sioux","state":"IA","lat":41.8083,"long":-96.0314},{"zip":"51546","city":"Logan","state":"IA","lat":41.643,"long":-95.7889},{"zip":"51550","city":"Magnolia","state":"IA","lat":41.6921,"long":-95.8742},{"zip":"51555","city":"Missouri Valley","state":"IA","lat":41.5644,"long":-95.8913},{"zip":"51556","city":"Modale","state":"IA","lat":41.6371,"long":-95.9852},{"zip":"51557","city":"Mondamin","state":"IA","lat":41.7089,"long":-96.0072},{"zip":"51563","city":"Persia","state":"IA","lat":41.5647,"long":-95.5658},{"zip":"51564","city":"Pisgah","state":"IA","lat":41.8214,"long":-95.9192},{"zip":"51579","city":"Woodbine","state":"IA","lat":41.7373,"long":-95.7008},{"zip":"51006","city":"Battle Creek","state":"IA","lat":42.3327,"long":-95.6045},{"zip":"51020","city":"Galva","state":"IA","lat":42.5105,"long":-95.4298},{"zip":"51025","city":"Holstein","state":"IA","lat":42.4948,"long":-95.565},{"zip":"51431","city":"Arthur","state":"IA","lat":42.3363,"long":-95.3675},{"zip":"51445","city":"Ida Grove","state":"IA","lat":42.34,"long":-95.4645},{"zip":"51230","city":"Alvord","state":"IA","lat":43.3201,"long":-96.291},{"zip":"51235","city":"Doon","state":"IA","lat":43.2872,"long":-96.202},{"zip":"51237","city":"George","state":"IA","lat":43.3439,"long":-95.9894},{"zip":"51240","city":"Inwood","state":"IA","lat":43.3047,"long":-96.4363},{"zip":"51241","city":"Larchwood","state":"IA","lat":43.4387,"long":-96.4252},{"zip":"51242","city":"Lester","state":"IA","lat":43.4443,"long":-96.3361},{"zip":"51243","city":"Little Rock","state":"IA","lat":43.4496,"long":-95.8926},{"zip":"51246","city":"Rock Rapids","state":"IA","lat":43.4272,"long":-96.1781},{"zip":"51533","city":"Emerson","state":"IA","lat":41.0284,"long":-95.4106},{"zip":"51534","city":"Glenwood","state":"IA","lat":41.047,"long":-95.7389},{"zip":"51540","city":"Hastings","state":"IA","lat":41.0132,"long":-95.5008},{"zip":"51541","city":"Henderson","state":"IA","lat":41.1254,"long":-95.4586},{"zip":"51551","city":"Malvern","state":"IA","lat":41.0074,"long":-95.584},{"zip":"51554","city":"Mineola","state":"IA","lat":41.1414,"long":-95.7005},{"zip":"51561","city":"Pacific Junction","state":"IA","lat":41.0271,"long":-95.8046},{"zip":"51571","city":"Silver City","state":"IA","lat":41.113,"long":-95.6269},{"zip":"51010","city":"Castana","state":"IA","lat":42.0744,"long":-95.9086},{"zip":"51034","city":"Mapleton","state":"IA","lat":42.1585,"long":-95.7909},{"zip":"51040","city":"Onawa","state":"IA","lat":42.037,"long":-96.1072},{"zip":"51051","city":"Rodney","state":"IA","lat":42.198,"long":-95.9769},{"zip":"51060","city":"Ute","state":"IA","lat":42.0581,"long":-95.7125},{"zip":"51063","city":"Whiting","state":"IA","lat":42.1522,"long":-96.1822},{"zip":"51523","city":"Blencoe","state":"IA","lat":41.9237,"long":-96.0827},{"zip":"51558","city":"Moorhead","state":"IA","lat":41.9186,"long":-95.829},{"zip":"51572","city":"Soldier","state":"IA","lat":41.9942,"long":-95.7825},{"zip":"51532","city":"Elliott","state":"IA","lat":41.1306,"long":-95.1602},{"zip":"51566","city":"Red Oak","state":"IA","lat":41.0079,"long":-95.2269},{"zip":"51573","city":"Stanton","state":"IA","lat":40.9859,"long":-95.0988},{"zip":"51591","city":"Red Oak","state":"IA","lat":41.0303,"long":-95.1562},{"zip":"51009","city":"Calumet","state":"IA","lat":42.9444,"long":-95.5515},{"zip":"51046","city":"Paullina","state":"IA","lat":42.9703,"long":-95.7083},{"zip":"51058","city":"Sutherland","state":"IA","lat":42.9826,"long":-95.4807},{"zip":"51201","city":"Sheldon","state":"IA","lat":43.1808,"long":-95.8401},{"zip":"51231","city":"Archer","state":"IA","lat":43.1179,"long":-95.7417},{"zip":"51245","city":"Primghar","state":"IA","lat":43.0759,"long":-95.6533},{"zip":"51248","city":"Sanborn","state":"IA","lat":43.189,"long":-95.6622},{"zip":"51346","city":"Hartley","state":"IA","lat":43.18,"long":-95.4817},{"zip":"51232","city":"Ashton","state":"IA","lat":43.3053,"long":-95.7655},{"zip":"51249","city":"Sibley","state":"IA","lat":43.4069,"long":-95.7424},{"zip":"51345","city":"Harris","state":"IA","lat":43.4568,"long":-95.4426},{"zip":"51350","city":"Melvin","state":"IA","lat":43.2845,"long":-95.593},{"zip":"51354","city":"Ocheyedan","state":"IA","lat":43.391,"long":-95.5204},{"zip":"51601","city":"Shenandoah","state":"IA","lat":40.7581,"long":-95.3648},{"zip":"51603","city":"Shenandoah","state":"IA","lat":40.7656,"long":-95.3722},{"zip":"51630","city":"Blanchard","state":"IA","lat":40.6122,"long":-95.2054},{"zip":"51631","city":"Braddyville","state":"IA","lat":40.5991,"long":-94.9956},{"zip":"51632","city":"Clarinda","state":"IA","lat":40.7491,"long":-95.038},{"zip":"51636","city":"Coin","state":"IA","lat":40.6686,"long":-95.2217},{"zip":"51637","city":"College Springs","state":"IA","lat":40.6249,"long":-95.1157},{"zip":"51638","city":"Essex","state":"IA","lat":40.8404,"long":-95.2888},{"zip":"51647","city":"Northboro","state":"IA","lat":40.6127,"long":-95.3096},{"zip":"51651","city":"Shambaugh","state":"IA","lat":40.6575,"long":-95.025},{"zip":"51656","city":"Yorktown","state":"IA","lat":40.7374,"long":-95.1562},{"zip":"51342","city":"Graettinger","state":"IA","lat":43.2277,"long":-94.7334},{"zip":"51358","city":"Ruthven","state":"IA","lat":43.1448,"long":-94.8842},{"zip":"51001","city":"Akron","state":"IA","lat":42.8354,"long":-96.5225},{"zip":"51008","city":"Brunsville","state":"IA","lat":42.8093,"long":-96.2626},{"zip":"51024","city":"Hinton","state":"IA","lat":42.604,"long":-96.305},{"zip":"51028","city":"Kingsley","state":"IA","lat":42.6191,"long":-95.9762},{"zip":"51031","city":"Le Mars","state":"IA","lat":42.7962,"long":-96.1704},{"zip":"51038","city":"Merrill","state":"IA","lat":42.7047,"long":-96.2283},{"zip":"51045","city":"Oyens","state":"IA","lat":42.8199,"long":-96.0566},{"zip":"51050","city":"Remsen","state":"IA","lat":42.8149,"long":-95.9544},{"zip":"51062","city":"Westfield","state":"IA","lat":42.6953,"long":-96.492},{"zip":"51501","city":"Council Bluffs","state":"IA","lat":41.2324,"long":-95.8751},{"zip":"51502","city":"Council Bluffs","state":"IA","lat":41.2619,"long":-95.8608},{"zip":"51503","city":"Council Bluffs","state":"IA","lat":41.2616,"long":-95.8251},{"zip":"51510","city":"Carter Lake","state":"IA","lat":41.2925,"long":-95.9141},{"zip":"51521","city":"Avoca","state":"IA","lat":41.4768,"long":-95.3509},{"zip":"51525","city":"Carson","state":"IA","lat":41.2367,"long":-95.4181},{"zip":"51526","city":"Crescent","state":"IA","lat":41.3644,"long":-95.8276},{"zip":"51536","city":"Hancock","state":"IA","lat":41.3832,"long":-95.3445},{"zip":"51542","city":"Honey Creek","state":"IA","lat":41.463,"long":-95.8802},{"zip":"51548","city":"Mc Clelland","state":"IA","lat":41.2932,"long":-95.6813},{"zip":"51549","city":"Macedonia","state":"IA","lat":41.1916,"long":-95.4314},{"zip":"51553","city":"Minden","state":"IA","lat":41.4654,"long":-95.5519},{"zip":"51559","city":"Neola","state":"IA","lat":41.4564,"long":-95.6794},{"zip":"51560","city":"Oakland","state":"IA","lat":41.312,"long":-95.379},{"zip":"51570","city":"Shelby","state":"IA","lat":41.5339,"long":-95.4469},{"zip":"51575","city":"Treynor","state":"IA","lat":41.2307,"long":-95.6086},{"zip":"51576","city":"Underwood","state":"IA","lat":41.3603,"long":-95.627},{"zip":"51577","city":"Walnut","state":"IA","lat":41.4623,"long":-95.218},{"zip":"51593","city":"Harlan","state":"IA","lat":41.498,"long":-95.3636},{"zip":"51053","city":"Schaller","state":"IA","lat":42.5055,"long":-95.2846},{"zip":"51433","city":"Auburn","state":"IA","lat":42.2763,"long":-94.8711},{"zip":"51450","city":"Lake View","state":"IA","lat":42.3154,"long":-95.0486},{"zip":"51458","city":"Odebolt","state":"IA","lat":42.3095,"long":-95.2501},{"zip":"51466","city":"Wall Lake","state":"IA","lat":42.2653,"long":-95.0852},{"zip":"51446","city":"Irwin","state":"IA","lat":41.7751,"long":-95.1919},{"zip":"51447","city":"Kirkman","state":"IA","lat":41.7308,"long":-95.2671},{"zip":"51527","city":"Defiance","state":"IA","lat":41.8053,"long":-95.3537},{"zip":"51530","city":"Earling","state":"IA","lat":41.7925,"long":-95.421},{"zip":"51531","city":"Elk Horn","state":"IA","lat":41.5829,"long":-95.07},{"zip":"51537","city":"Harlan","state":"IA","lat":41.6437,"long":-95.3111},{"zip":"51562","city":"Panama","state":"IA","lat":41.7288,"long":-95.487},{"zip":"51565","city":"Portsmouth","state":"IA","lat":41.6484,"long":-95.5108},{"zip":"51578","city":"Westphalia","state":"IA","lat":41.7199,"long":-95.3952},{"zip":"51003","city":"Alton","state":"IA","lat":42.9782,"long":-96.0173},{"zip":"51011","city":"Chatsworth","state":"IA","lat":42.9163,"long":-96.5145},{"zip":"51022","city":"Granville","state":"IA","lat":42.9693,"long":-95.8972},{"zip":"51023","city":"Hawarden","state":"IA","lat":43.0013,"long":-96.473},{"zip":"51027","city":"Ireton","state":"IA","lat":42.9666,"long":-96.3232},{"zip":"51036","city":"Maurice","state":"IA","lat":42.9626,"long":-96.1655},{"zip":"51041","city":"Orange City","state":"IA","lat":43.0185,"long":-96.0565},{"zip":"51234","city":"Boyden","state":"IA","lat":43.2034,"long":-95.9823},{"zip":"51238","city":"Hospers","state":"IA","lat":43.0793,"long":-95.9142},{"zip":"51239","city":"Hull","state":"IA","lat":43.1952,"long":-96.1392},{"zip":"51244","city":"Matlock","state":"IA","lat":43.2439,"long":-95.9353},{"zip":"51247","city":"Rock Valley","state":"IA","lat":43.2014,"long":-96.3103},{"zip":"51250","city":"Sioux Center","state":"IA","lat":43.0814,"long":-96.18},{"zip":"51646","city":"New Market","state":"IA","lat":40.7422,"long":-94.8917},{"zip":"51004","city":"Anthon","state":"IA","lat":42.387,"long":-95.8948},{"zip":"51007","city":"Bronson","state":"IA","lat":42.4292,"long":-96.1986},{"zip":"51015","city":"Climbing Hill","state":"IA","lat":42.345,"long":-96.0875},{"zip":"51016","city":"Correctionville","state":"IA","lat":42.4743,"long":-95.7804},{"zip":"51018","city":"Cushing","state":"IA","lat":42.4642,"long":-95.6775},{"zip":"51019","city":"Danbury","state":"IA","lat":42.2693,"long":-95.7263},{"zip":"51026","city":"Hornick","state":"IA","lat":42.2897,"long":-96.0796},{"zip":"51030","city":"Lawton","state":"IA","lat":42.5047,"long":-96.2189},{"zip":"51039","city":"Moville","state":"IA","lat":42.4819,"long":-96.0656},{"zip":"51044","city":"Oto","state":"IA","lat":42.2646,"long":-95.8616},{"zip":"51048","city":"Pierson","state":"IA","lat":42.5335,"long":-95.8922},{"zip":"51052","city":"Salix","state":"IA","lat":42.3306,"long":-96.2879},{"zip":"51054","city":"Sergeant Bluff","state":"IA","lat":42.4019,"long":-96.3534},{"zip":"51055","city":"Sloan","state":"IA","lat":42.2427,"long":-96.2306},{"zip":"51056","city":"Smithland","state":"IA","lat":42.2408,"long":-95.9486},{"zip":"51101","city":"Sioux City","state":"IA","lat":42.4972,"long":-96.4029},{"zip":"51102","city":"Sioux City","state":"IA","lat":42.3684,"long":-96.318},{"zip":"51103","city":"Sioux City","state":"IA","lat":42.5068,"long":-96.4295},{"zip":"51104","city":"Sioux City","state":"IA","lat":42.5254,"long":-96.4005},{"zip":"51105","city":"Sioux City","state":"IA","lat":42.5032,"long":-96.3829},{"zip":"51106","city":"Sioux City","state":"IA","lat":42.4671,"long":-96.3528},{"zip":"51108","city":"Sioux City","state":"IA","lat":42.5469,"long":-96.3617},{"zip":"51109","city":"Sioux City","state":"IA","lat":42.5173,"long":-96.4803},{"zip":"51111","city":"Sioux City","state":"IA","lat":42.4089,"long":-96.3713}]
