[{"zip":"51002","city":"Alta","state":"IA","lat":42.6771,"long":-95.3129},{"zip":"51033","city":"Linn Grove","state":"IA","lat":42.8742,"long":-95.2512},{"zip":"51005","city":"Aurelia","state":"IA","lat":42.6912,"long":-95.4381},{"zip":"51012","city":"Cherokee","state":"IA","lat":42.7482,"long":-95.5568},{"zip":"51014","city":"Cleghorn","state":"IA","lat":42.8086,"long":-95.7124},{"zip":"51029","city":"Larrabee","state":"IA","lat":42.8608,"long":-95.5453},{"zip":"51035","city":"Marcus","state":"IA","lat":42.82,"long":-95.8034},{"zip":"51037","city":"Meriden","state":"IA","lat":42.7874,"long":-95.6408},{"zip":"51049","city":"Quimby","state":"IA","lat":42.6303,"long":-95.642},{"zip":"51061","city":"Washta","state":"IA","lat":42.5781,"long":-95.7295},{"zip":"51047","city":"Peterson","state":"IA","lat":42.9328,"long":-95.3377},{"zip":"51006","city":"Battle Creek","state":"IA","lat":42.3327,"long":-95.6045},{"zip":"51020","city":"Galva","state":"IA","lat":42.5105,"long":-95.4298},{"zip":"51025","city":"Holstein","state":"IA","lat":42.4948,"long":-95.565},{"zip":"51010","city":"Castana","state":"IA","lat":42.0744,"long":-95.9086},{"zip":"51034","city":"Mapleton","state":"IA","lat":42.1585,"long":-95.7909},{"zip":"51040","city":"Onawa","state":"IA","lat":42.037,"long":-96.1072},{"zip":"51051","city":"Rodney","state":"IA","lat":42.198,"long":-95.9769},{"zip":"51060","city":"Ute","state":"IA","lat":42.0581,"long":-95.7125},{"zip":"51063","city":"Whiting","state":"IA","lat":42.1522,"long":-96.1822},{"zip":"51009","city":"Calumet","state":"IA","lat":42.9444,"long":-95.5515},{"zip":"51046","city":"Paullina","state":"IA","lat":42.9703,"long":-95.7083},{"zip":"51058","city":"Sutherland","state":"IA","lat":42.9826,"long":-95.4807},{"zip":"51001","city":"Akron","state":"IA","lat":42.8354,"long":-96.5225},{"zip":"51008","city":"Brunsville","state":"IA","lat":42.8093,"long":-96.2626},{"zip":"51024","city":"Hinton","state":"IA","lat":42.604,"long":-96.305},{"zip":"51028","city":"Kingsley","state":"IA","lat":42.6191,"long":-95.9762},{"zip":"51031","city":"Le Mars","state":"IA","lat":42.7962,"long":-96.1704},{"zip":"51038","city":"Merrill","state":"IA","lat":42.7047,"long":-96.2283},{"zip":"51045","city":"Oyens","state":"IA","lat":42.8199,"long":-96.0566},{"zip":"51050","city":"Remsen","state":"IA","lat":42.8149,"long":-95.9544},{"zip":"51062","city":"Westfield","state":"IA","lat":42.6953,"long":-96.492},{"zip":"51053","city":"Schaller","state":"IA","lat":42.5055,"long":-95.2846},{"zip":"51003","city":"Alton","state":"IA","lat":42.9782,"long":-96.0173},{"zip":"51011","city":"Chatsworth","state":"IA","lat":42.9163,"long":-96.5145},{"zip":"51022","city":"Granville","state":"IA","lat":42.9693,"long":-95.8972},{"zip":"51023","city":"Hawarden","state":"IA","lat":43.0013,"long":-96.473},{"zip":"51027","city":"Ireton","state":"IA","lat":42.9666,"long":-96.3232},{"zip":"51036","city":"Maurice","state":"IA","lat":42.9626,"long":-96.1655},{"zip":"51041","city":"Orange City","state":"IA","lat":43.0185,"long":-96.0565},{"zip":"51004","city":"Anthon","state":"IA","lat":42.387,"long":-95.8948},{"zip":"51007","city":"Bronson","state":"IA","lat":42.4292,"long":-96.1986},{"zip":"51015","city":"Climbing Hill","state":"IA","lat":42.345,"long":-96.0875},{"zip":"51016","city":"Correctionville","state":"IA","lat":42.4743,"long":-95.7804},{"zip":"51018","city":"Cushing","state":"IA","lat":42.4642,"long":-95.6775},{"zip":"51019","city":"Danbury","state":"IA","lat":42.2693,"long":-95.7263},{"zip":"51026","city":"Hornick","state":"IA","lat":42.2897,"long":-96.0796},{"zip":"51030","city":"Lawton","state":"IA","lat":42.5047,"long":-96.2189},{"zip":"51039","city":"Moville","state":"IA","lat":42.4819,"long":-96.0656},{"zip":"51044","city":"Oto","state":"IA","lat":42.2646,"long":-95.8616},{"zip":"51048","city":"Pierson","state":"IA","lat":42.5335,"long":-95.8922},{"zip":"51052","city":"Salix","state":"IA","lat":42.3306,"long":-96.2879},{"zip":"51054","city":"Sergeant Bluff","state":"IA","lat":42.4019,"long":-96.3534},{"zip":"51055","city":"Sloan","state":"IA","lat":42.2427,"long":-96.2306},{"zip":"51056","city":"Smithland","state":"IA","lat":42.2408,"long":-95.9486}]
