[{"zip":"51230","city":"Alvord","state":"IA","lat":43.3201,"long":-96.291},{"zip":"51235","city":"Doon","state":"IA","lat":43.2872,"long":-96.202},{"zip":"51237","city":"George","state":"IA","lat":43.3439,"long":-95.9894},{"zip":"51240","city":"Inwood","state":"IA","lat":43.3047,"long":-96.4363},{"zip":"51241","city":"Larchwood","state":"IA","lat":43.4387,"long":-96.4252},{"zip":"51242","city":"Lester","state":"IA","lat":43.4443,"long":-96.3361},{"zip":"51243","city":"Little Rock","state":"IA","lat":43.4496,"long":-95.8926},{"zip":"51246","city":"Rock Rapids","state":"IA","lat":43.4272,"long":-96.1781},{"zip":"51201","city":"Sheldon","state":"IA","lat":43.1808,"long":-95.8401},{"zip":"51231","city":"Archer","state":"IA","lat":43.1179,"long":-95.7417},{"zip":"51245","city":"Primghar","state":"IA","lat":43.0759,"long":-95.6533},{"zip":"51248","city":"Sanborn","state":"IA","lat":43.189,"long":-95.6622},{"zip":"51232","city":"Ashton","state":"IA","lat":43.3053,"long":-95.7655},{"zip":"51249","city":"Sibley","state":"IA","lat":43.4069,"long":-95.7424},{"zip":"51234","city":"Boyden","state":"IA","lat":43.2034,"long":-95.9823},{"zip":"51238","city":"Hospers","state":"IA","lat":43.0793,"long":-95.9142},{"zip":"51239","city":"Hull","state":"IA","lat":43.1952,"long":-96.1392},{"zip":"51244","city":"Matlock","state":"IA","lat":43.2439,"long":-95.9353},{"zip":"51247","city":"Rock Valley","state":"IA","lat":43.2014,"long":-96.3103},{"zip":"51250","city":"Sioux Center","state":"IA","lat":43.0814,"long":-96.18}]
