[{"zip":"51301","city":"Spencer","state":"IA","lat":43.1451,"long":-95.1457},{"zip":"51333","city":"Dickens","state":"IA","lat":43.1548,"long":-94.9854},{"zip":"51338","city":"Everly","state":"IA","lat":43.1609,"long":-95.3228},{"zip":"51340","city":"Fostoria","state":"IA","lat":43.0824,"long":-95.1511},{"zip":"51341","city":"Gillett Grove","state":"IA","lat":43.0157,"long":-95.0431},{"zip":"51343","city":"Greenville","state":"IA","lat":43.0333,"long":-95.0582},{"zip":"51357","city":"Royal","state":"IA","lat":43.0488,"long":-95.2679},{"zip":"51366","city":"Webb","state":"IA","lat":42.9502,"long":-94.9951},{"zip":"51331","city":"Arnolds Park","state":"IA","lat":43.3637,"long":-95.1282},{"zip":"51347","city":"Lake Park","state":"IA","lat":43.4452,"long":-95.3216},{"zip":"51351","city":"Milford","state":"IA","lat":43.3196,"long":-95.1615},{"zip":"51355","city":"Okoboji","state":"IA","lat":43.3889,"long":-95.1369},{"zip":"51360","city":"Spirit Lake","state":"IA","lat":43.4262,"long":-95.1123},{"zip":"51363","city":"Superior","state":"IA","lat":43.4318,"long":-94.9469},{"zip":"51364","city":"Terril","state":"IA","lat":43.3241,"long":-94.9737},{"zip":"51334","city":"Estherville","state":"IA","lat":43.4017,"long":-94.818},{"zip":"51365","city":"Wallingford","state":"IA","lat":43.3189,"long":-94.7964},{"zip":"51346","city":"Hartley","state":"IA","lat":43.18,"long":-95.4817},{"zip":"51345","city":"Harris","state":"IA","lat":43.4568,"long":-95.4426},{"zip":"51350","city":"Melvin","state":"IA","lat":43.2845,"long":-95.593},{"zip":"51354","city":"Ocheyedan","state":"IA","lat":43.391,"long":-95.5204},{"zip":"51342","city":"Graettinger","state":"IA","lat":43.2277,"long":-94.7334},{"zip":"51358","city":"Ruthven","state":"IA","lat":43.1448,"long":-94.8842}]
