[{"zip":"51449","city":"Lake City","state":"IA","lat":42.2705,"long":-94.7458},{"zip":"51453","city":"Lohrville","state":"IA","lat":42.2619,"long":-94.5566},{"zip":"51401","city":"Carroll","state":"IA","lat":42.072,"long":-94.8667},{"zip":"51430","city":"Arcadia","state":"IA","lat":42.0573,"long":-95.0371},{"zip":"51436","city":"Breda","state":"IA","lat":42.1758,"long":-95.0007},{"zip":"51440","city":"Dedham","state":"IA","lat":41.9055,"long":-94.8149},{"zip":"51443","city":"Glidden","state":"IA","lat":42.0618,"long":-94.7148},{"zip":"51444","city":"Halbur","state":"IA","lat":42.0048,"long":-94.9731},{"zip":"51451","city":"Lanesboro","state":"IA","lat":42.1845,"long":-94.6917},{"zip":"51452","city":"Lidderdale","state":"IA","lat":42.1254,"long":-94.7754},{"zip":"51455","city":"Manning","state":"IA","lat":41.9072,"long":-95.0556},{"zip":"51459","city":"Ralston","state":"IA","lat":42.0414,"long":-94.6321},{"zip":"51463","city":"Templeton","state":"IA","lat":41.9121,"long":-94.932},{"zip":"51432","city":"Aspinwall","state":"IA","lat":41.9119,"long":-95.1356},{"zip":"51439","city":"Charter Oak","state":"IA","lat":42.0707,"long":-95.5992},{"zip":"51441","city":"Deloit","state":"IA","lat":42.1238,"long":-95.3045},{"zip":"51442","city":"Denison","state":"IA","lat":42.0196,"long":-95.3636},{"zip":"51448","city":"Kiron","state":"IA","lat":42.1794,"long":-95.3115},{"zip":"51454","city":"Manilla","state":"IA","lat":41.8922,"long":-95.2391},{"zip":"51460","city":"Ricketts","state":"IA","lat":42.1304,"long":-95.5746},{"zip":"51461","city":"Schleswig","state":"IA","lat":42.1646,"long":-95.4443},{"zip":"51465","city":"Vail","state":"IA","lat":42.0338,"long":-95.1778},{"zip":"51467","city":"Westside","state":"IA","lat":42.1084,"long":-95.1273},{"zip":"51462","city":"Scranton","state":"IA","lat":42.0124,"long":-94.5518},{"zip":"51431","city":"Arthur","state":"IA","lat":42.3363,"long":-95.3675},{"zip":"51445","city":"Ida Grove","state":"IA","lat":42.34,"long":-95.4645},{"zip":"51433","city":"Auburn","state":"IA","lat":42.2763,"long":-94.8711},{"zip":"51450","city":"Lake View","state":"IA","lat":42.3154,"long":-95.0486},{"zip":"51458","city":"Odebolt","state":"IA","lat":42.3095,"long":-95.2501},{"zip":"51466","city":"Wall Lake","state":"IA","lat":42.2653,"long":-95.0852},{"zip":"51446","city":"Irwin","state":"IA","lat":41.7751,"long":-95.1919},{"zip":"51447","city":"Kirkman","state":"IA","lat":41.7308,"long":-95.2671}]
