[{"zip":"51543","city":"Kimballton","state":"IA","lat":41.6352,"long":-95.0553},{"zip":"51535","city":"Griswold","state":"IA","lat":41.235,"long":-95.1375},{"zip":"51544","city":"Lewis","state":"IA","lat":41.2963,"long":-95.062},{"zip":"51552","city":"Marne","state":"IA","lat":41.4547,"long":-95.0973},{"zip":"51520","city":"Arion","state":"IA","lat":41.9504,"long":-95.4623},{"zip":"51528","city":"Dow City","state":"IA","lat":41.9134,"long":-95.4862},{"zip":"51529","city":"Dunlap","state":"IA","lat":41.8603,"long":-95.6257},{"zip":"51545","city":"Little Sioux","state":"IA","lat":41.8083,"long":-96.0314},{"zip":"51546","city":"Logan","state":"IA","lat":41.643,"long":-95.7889},{"zip":"51550","city":"Magnolia","state":"IA","lat":41.6921,"long":-95.8742},{"zip":"51555","city":"Missouri Valley","state":"IA","lat":41.5644,"long":-95.8913},{"zip":"51556","city":"Modale","state":"IA","lat":41.6371,"long":-95.9852},{"zip":"51557","city":"Mondamin","state":"IA","lat":41.7089,"long":-96.0072},{"zip":"51563","city":"Persia","state":"IA","lat":41.5647,"long":-95.5658},{"zip":"51564","city":"Pisgah","state":"IA","lat":41.8214,"long":-95.9192},{"zip":"51579","city":"Woodbine","state":"IA","lat":41.7373,"long":-95.7008},{"zip":"51533","city":"Emerson","state":"IA","lat":41.0284,"long":-95.4106},{"zip":"51534","city":"Glenwood","state":"IA","lat":41.047,"long":-95.7389},{"zip":"51540","city":"Hastings","state":"IA","lat":41.0132,"long":-95.5008},{"zip":"51541","city":"Henderson","state":"IA","lat":41.1254,"long":-95.4586},{"zip":"51551","city":"Malvern","state":"IA","lat":41.0074,"long":-95.584},{"zip":"51554","city":"Mineola","state":"IA","lat":41.1414,"long":-95.7005},{"zip":"51561","city":"Pacific Junction","state":"IA","lat":41.0271,"long":-95.8046},{"zip":"51571","city":"Silver City","state":"IA","lat":41.113,"long":-95.6269},{"zip":"51523","city":"Blencoe","state":"IA","lat":41.9237,"long":-96.0827},{"zip":"51558","city":"Moorhead","state":"IA","lat":41.9186,"long":-95.829},{"zip":"51572","city":"Soldier","state":"IA","lat":41.9942,"long":-95.7825},{"zip":"51532","city":"Elliott","state":"IA","lat":41.1306,"long":-95.1602},{"zip":"51566","city":"Red Oak","state":"IA","lat":41.0079,"long":-95.2269},{"zip":"51573","city":"Stanton","state":"IA","lat":40.9859,"long":-95.0988},{"zip":"51591","city":"Red Oak","state":"IA","lat":41.0303,"long":-95.1562},{"zip":"51501","city":"Council Bluffs","state":"IA","lat":41.2324,"long":-95.8751},{"zip":"51502","city":"Council Bluffs","state":"IA","lat":41.2619,"long":-95.8608},{"zip":"51503","city":"Council Bluffs","state":"IA","lat":41.2616,"long":-95.8251},{"zip":"51510","city":"Carter Lake","state":"IA","lat":41.2925,"long":-95.9141},{"zip":"51521","city":"Avoca","state":"IA","lat":41.4768,"long":-95.3509},{"zip":"51525","city":"Carson","state":"IA","lat":41.2367,"long":-95.4181},{"zip":"51526","city":"Crescent","state":"IA","lat":41.3644,"long":-95.8276},{"zip":"51536","city":"Hancock","state":"IA","lat":41.3832,"long":-95.3445},{"zip":"51542","city":"Honey Creek","state":"IA","lat":41.463,"long":-95.8802},{"zip":"51548","city":"Mc Clelland","state":"IA","lat":41.2932,"long":-95.6813},{"zip":"51549","city":"Macedonia","state":"IA","lat":41.1916,"long":-95.4314},{"zip":"51553","city":"Minden","state":"IA","lat":41.4654,"long":-95.5519},{"zip":"51559","city":"Neola","state":"IA","lat":41.4564,"long":-95.6794},{"zip":"51560","city":"Oakland","state":"IA","lat":41.312,"long":-95.379},{"zip":"51570","city":"Shelby","state":"IA","lat":41.5339,"long":-95.4469},{"zip":"51575","city":"Treynor","state":"IA","lat":41.2307,"long":-95.6086},{"zip":"51576","city":"Underwood","state":"IA","lat":41.3603,"long":-95.627},{"zip":"51577","city":"Walnut","state":"IA","lat":41.4623,"long":-95.218},{"zip":"51593","city":"Harlan","state":"IA","lat":41.498,"long":-95.3636},{"zip":"51527","city":"Defiance","state":"IA","lat":41.8053,"long":-95.3537},{"zip":"51530","city":"Earling","state":"IA","lat":41.7925,"long":-95.421},{"zip":"51531","city":"Elk Horn","state":"IA","lat":41.5829,"long":-95.07},{"zip":"51537","city":"Harlan","state":"IA","lat":41.6437,"long":-95.3111},{"zip":"51562","city":"Panama","state":"IA","lat":41.7288,"long":-95.487},{"zip":"51565","city":"Portsmouth","state":"IA","lat":41.6484,"long":-95.5108},{"zip":"51578","city":"Westphalia","state":"IA","lat":41.7199,"long":-95.3952}]
