[{"zip":"51639","city":"Farragut","state":"IA","lat":40.7215,"long":-95.4776},{"zip":"51640","city":"Hamburg","state":"IA","lat":40.6149,"long":-95.6258},{"zip":"51645","city":"Imogene","state":"IA","lat":40.8631,"long":-95.4358},{"zip":"51648","city":"Percival","state":"IA","lat":40.7401,"long":-95.8093},{"zip":"51649","city":"Randolph","state":"IA","lat":40.8704,"long":-95.5624},{"zip":"51650","city":"Riverton","state":"IA","lat":40.6629,"long":-95.5773},{"zip":"51652","city":"Sidney","state":"IA","lat":40.7507,"long":-95.6403},{"zip":"51653","city":"Tabor","state":"IA","lat":40.9004,"long":-95.6729},{"zip":"51654","city":"Thurman","state":"IA","lat":40.8424,"long":-95.7605},{"zip":"51601","city":"Shenandoah","state":"IA","lat":40.7581,"long":-95.3648},{"zip":"51603","city":"Shenandoah","state":"IA","lat":40.7656,"long":-95.3722},{"zip":"51630","city":"Blanchard","state":"IA","lat":40.6122,"long":-95.2054},{"zip":"51631","city":"Braddyville","state":"IA","lat":40.5991,"long":-94.9956},{"zip":"51632","city":"Clarinda","state":"IA","lat":40.7491,"long":-95.038},{"zip":"51636","city":"Coin","state":"IA","lat":40.6686,"long":-95.2217},{"zip":"51637","city":"College Springs","state":"IA","lat":40.6249,"long":-95.1157},{"zip":"51638","city":"Essex","state":"IA","lat":40.8404,"long":-95.2888},{"zip":"51647","city":"Northboro","state":"IA","lat":40.6127,"long":-95.3096},{"zip":"51651","city":"Shambaugh","state":"IA","lat":40.6575,"long":-95.025},{"zip":"51656","city":"Yorktown","state":"IA","lat":40.7374,"long":-95.1562},{"zip":"51646","city":"New Market","state":"IA","lat":40.7422,"long":-94.8917}]
