[{"zip":"52140","city":"Dorchester","state":"IA","lat":43.4421,"long":-91.5076},{"zip":"52146","city":"Harpers Ferry","state":"IA","lat":43.1698,"long":-91.2188},{"zip":"52151","city":"Lansing","state":"IA","lat":43.3661,"long":-91.266},{"zip":"52160","city":"New Albin","state":"IA","lat":43.4899,"long":-91.2942},{"zip":"52162","city":"Postville","state":"IA","lat":43.0036,"long":-91.5478},{"zip":"52170","city":"Waterville","state":"IA","lat":43.2078,"long":-91.2976},{"zip":"52172","city":"Waukon","state":"IA","lat":43.264,"long":-91.48},{"zip":"52544","city":"Centerville","state":"IA","lat":40.7326,"long":-92.8728},{"zip":"52549","city":"Cincinnati","state":"IA","lat":40.6344,"long":-92.9219},{"zip":"52555","city":"Exline","state":"IA","lat":40.6414,"long":-92.827},{"zip":"52571","city":"Moravia","state":"IA","lat":40.8825,"long":-92.8534},{"zip":"52572","city":"Moulton","state":"IA","lat":40.6866,"long":-92.6833},{"zip":"52574","city":"Mystic","state":"IA","lat":40.7883,"long":-92.9284},{"zip":"52581","city":"Plano","state":"IA","lat":40.7751,"long":-93.0386},{"zip":"52593","city":"Udell","state":"IA","lat":40.7808,"long":-92.7421},{"zip":"52594","city":"Unionville","state":"IA","lat":40.8416,"long":-92.6935},{"zip":"52206","city":"Atkins","state":"IA","lat":41.9881,"long":-91.876},{"zip":"52208","city":"Belle Plaine","state":"IA","lat":41.8992,"long":-92.2574},{"zip":"52209","city":"Blairstown","state":"IA","lat":41.9063,"long":-92.0829},{"zip":"52229","city":"Garrison","state":"IA","lat":42.1588,"long":-92.1644},{"zip":"52249","city":"Keystone","state":"IA","lat":42.0156,"long":-92.2179},{"zip":"52257","city":"Luzerne","state":"IA","lat":41.9061,"long":-92.1793},{"zip":"52313","city":"Mount Auburn","state":"IA","lat":42.255,"long":-92.0927},{"zip":"52315","city":"Newhall","state":"IA","lat":41.9927,"long":-91.9779},{"zip":"52318","city":"Norway","state":"IA","lat":41.8992,"long":-91.892},{"zip":"52332","city":"Shellsburg","state":"IA","lat":42.0848,"long":-91.8746},{"zip":"52345","city":"Urbana","state":"IA","lat":42.2365,"long":-91.8881},{"zip":"52346","city":"Van Horne","state":"IA","lat":42.0194,"long":-92.1046},{"zip":"52349","city":"Vinton","state":"IA","lat":42.1743,"long":-91.9892},{"zip":"52351","city":"Walford","state":"IA","lat":41.877,"long":-91.8369},{"zip":"52354","city":"Watkins","state":"IA","lat":41.904,"long":-91.9965},{"zip":"52210","city":"Brandon","state":"IA","lat":42.3309,"long":-92.0059},{"zip":"52326","city":"Quasqueton","state":"IA","lat":42.3956,"long":-91.7679},{"zip":"52329","city":"Rowley","state":"IA","lat":42.37,"long":-91.8441},{"zip":"52216","city":"Clarence","state":"IA","lat":41.8896,"long":-91.0605},{"zip":"52255","city":"Lowden","state":"IA","lat":41.8594,"long":-90.9382},{"zip":"52306","city":"Mechanicsville","state":"IA","lat":41.9039,"long":-91.2764},{"zip":"52337","city":"Stanwood","state":"IA","lat":41.8963,"long":-91.1662},{"zip":"52358","city":"West Branch","state":"IA","lat":41.6726,"long":-91.3141},{"zip":"52721","city":"Bennett","state":"IA","lat":41.7353,"long":-90.9656},{"zip":"52747","city":"Durant","state":"IA","lat":41.6145,"long":-90.91},{"zip":"52772","city":"Tipton","state":"IA","lat":41.7563,"long":-91.1362},{"zip":"52154","city":"Lawler","state":"IA","lat":43.0932,"long":-92.144},{"zip":"52042","city":"Edgewood","state":"IA","lat":42.6541,"long":-91.395},{"zip":"52043","city":"Elkader","state":"IA","lat":42.8496,"long":-91.4143},{"zip":"52044","city":"Elkport","state":"IA","lat":42.7624,"long":-91.3203},{"zip":"52047","city":"Farmersburg","state":"IA","lat":42.9522,"long":-91.339},{"zip":"52048","city":"Garber","state":"IA","lat":42.7453,"long":-91.2593},{"zip":"52049","city":"Garnavillo","state":"IA","lat":42.8762,"long":-91.2156},{"zip":"52052","city":"Guttenberg","state":"IA","lat":42.7594,"long":-91.119},{"zip":"52066","city":"North Buena Vista","state":"IA","lat":42.6783,"long":-90.9518},{"zip":"52072","city":"Saint Olaf","state":"IA","lat":42.922,"long":-91.3778},{"zip":"52076","city":"Strawberry Point","state":"IA","lat":42.6832,"long":-91.5409},{"zip":"52077","city":"Volga","state":"IA","lat":42.7904,"long":-91.5429},{"zip":"52156","city":"Luana","state":"IA","lat":43.0493,"long":-91.4583},{"zip":"52157","city":"Mc Gregor","state":"IA","lat":43.0237,"long":-91.1887},{"zip":"52158","city":"Marquette","state":"IA","lat":43.036,"long":-91.1931},{"zip":"52159","city":"Monona","state":"IA","lat":43.034,"long":-91.3934},{"zip":"52037","city":"Delmar","state":"IA","lat":41.9961,"long":-90.6087},{"zip":"52254","city":"Lost Nation","state":"IA","lat":41.9745,"long":-90.8265},{"zip":"52701","city":"Andover","state":"IA","lat":41.9792,"long":-90.2518},{"zip":"52727","city":"Bryant","state":"IA","lat":41.9629,"long":-90.3388},{"zip":"52729","city":"Calamus","state":"IA","lat":41.8111,"long":-90.7416},{"zip":"52730","city":"Camanche","state":"IA","lat":41.7886,"long":-90.2709},{"zip":"52731","city":"Charlotte","state":"IA","lat":41.9779,"long":-90.4782},{"zip":"52732","city":"Clinton","state":"IA","lat":41.8517,"long":-90.2078},{"zip":"52733","city":"Clinton","state":"IA","lat":41.8445,"long":-90.1887},{"zip":"52734","city":"Clinton","state":"IA","lat":41.8444,"long":-90.1885},{"zip":"52736","city":"Clinton","state":"IA","lat":41.8445,"long":-90.1887},{"zip":"52742","city":"De Witt","state":"IA","lat":41.8267,"long":-90.5237},{"zip":"52750","city":"Goose Lake","state":"IA","lat":41.9799,"long":-90.3819},{"zip":"52751","city":"Grand Mound","state":"IA","lat":41.8501,"long":-90.6695},{"zip":"52757","city":"Low Moor","state":"IA","lat":41.8017,"long":-90.3549},{"zip":"52771","city":"Teeds Grove","state":"IA","lat":41.9991,"long":-90.2187},{"zip":"52774","city":"Welton","state":"IA","lat":41.9081,"long":-90.5954},{"zip":"52777","city":"Wheatland","state":"IA","lat":41.8259,"long":-90.8402},{"zip":"52537","city":"Bloomfield","state":"IA","lat":40.7324,"long":-92.3987},{"zip":"52552","city":"Drakesville","state":"IA","lat":40.8253,"long":-92.5051},{"zip":"52560","city":"Floris","state":"IA","lat":40.8591,"long":-92.3247},{"zip":"52584","city":"Pulaski","state":"IA","lat":40.6941,"long":-92.258},{"zip":"52035","city":"Colesburg","state":"IA","lat":42.6383,"long":-91.1963},{"zip":"52036","city":"Delaware","state":"IA","lat":42.4766,"long":-91.3112},{"zip":"52038","city":"Dundee","state":"IA","lat":42.594,"long":-91.5477},{"zip":"52041","city":"Earlville","state":"IA","lat":42.5001,"long":-91.2597},{"zip":"52050","city":"Greeley","state":"IA","lat":42.5939,"long":-91.3233},{"zip":"52057","city":"Manchester","state":"IA","lat":42.4834,"long":-91.449},{"zip":"52223","city":"Delhi","state":"IA","lat":42.4297,"long":-91.331},{"zip":"52237","city":"Hopkinton","state":"IA","lat":42.3422,"long":-91.2461},{"zip":"52330","city":"Ryan","state":"IA","lat":42.3436,"long":-91.4848},{"zip":"52601","city":"Burlington","state":"IA","lat":40.8087,"long":-91.117},{"zip":"52623","city":"Danville","state":"IA","lat":40.854,"long":-91.314},{"zip":"52637","city":"Mediapolis","state":"IA","lat":41.0059,"long":-91.1321},{"zip":"52638","city":"Middletown","state":"IA","lat":40.8296,"long":-91.2631},{"zip":"52650","city":"Sperry","state":"IA","lat":40.9419,"long":-91.185},{"zip":"52655","city":"West Burlington","state":"IA","lat":40.8321,"long":-91.1799},{"zip":"52660","city":"Yarmouth","state":"IA","lat":40.9835,"long":-91.3026},{"zip":"52001","city":"Dubuque","state":"IA","lat":42.515,"long":-90.6819},{"zip":"52002","city":"Dubuque","state":"IA","lat":42.5122,"long":-90.7384},{"zip":"52003","city":"Dubuque","state":"IA","lat":42.4649,"long":-90.6829},{"zip":"52004","city":"Dubuque","state":"IA","lat":42.5006,"long":-90.6646},{"zip":"52032","city":"Bernard","state":"IA","lat":42.3321,"long":-90.863},{"zip":"52033","city":"Cascade","state":"IA","lat":42.287,"long":-91.0144},{"zip":"52039","city":"Durango","state":"IA","lat":42.5526,"long":-90.8608},{"zip":"52040","city":"Dyersville","state":"IA","lat":42.4833,"long":-91.1183},{"zip":"52045","city":"Epworth","state":"IA","lat":42.4439,"long":-90.9313},{"zip":"52046","city":"Farley","state":"IA","lat":42.4451,"long":-91.0083},{"zip":"52053","city":"Holy Cross","state":"IA","lat":42.5808,"long":-90.973},{"zip":"52056","city":"Luxemburg","state":"IA","lat":42.5783,"long":-91.0621},{"zip":"52065","city":"New Vienna","state":"IA","lat":42.5678,"long":-91.0976},{"zip":"52068","city":"Peosta","state":"IA","lat":42.4435,"long":-90.8094},{"zip":"52073","city":"Sherrill","state":"IA","lat":42.6171,"long":-90.8115},{"zip":"52078","city":"Worthington","state":"IA","lat":42.393,"long":-91.1069},{"zip":"52079","city":"Zwingle","state":"IA","lat":42.2775,"long":-90.7507},{"zip":"52099","city":"Dubuque","state":"IA","lat":42.5006,"long":-90.6646},{"zip":"52135","city":"Clermont","state":"IA","lat":43.013,"long":-91.6552},{"zip":"52141","city":"Elgin","state":"IA","lat":42.9548,"long":-91.6454},{"zip":"52142","city":"Fayette","state":"IA","lat":42.8494,"long":-91.8139},{"zip":"52147","city":"Hawkeye","state":"IA","lat":42.9487,"long":-91.9578},{"zip":"52164","city":"Randalia","state":"IA","lat":42.8626,"long":-91.8846},{"zip":"52166","city":"Saint Lucas","state":"IA","lat":43.0664,"long":-91.9335},{"zip":"52169","city":"Wadena","state":"IA","lat":42.855,"long":-91.6639},{"zip":"52171","city":"Waucoma","state":"IA","lat":43.0433,"long":-92.0302},{"zip":"52175","city":"West Union","state":"IA","lat":42.9438,"long":-91.8334},{"zip":"52630","city":"Hillsboro","state":"IA","lat":40.8372,"long":-91.7119},{"zip":"52641","city":"Mount Pleasant","state":"IA","lat":40.9646,"long":-91.5614},{"zip":"52642","city":"Rome","state":"IA","lat":40.9774,"long":-91.6923},{"zip":"52644","city":"Mount Union","state":"IA","lat":41.0374,"long":-91.4138},{"zip":"52645","city":"New London","state":"IA","lat":40.9161,"long":-91.3986},{"zip":"52647","city":"Olds","state":"IA","lat":41.1342,"long":-91.5449},{"zip":"52649","city":"Salem","state":"IA","lat":40.8568,"long":-91.6336},{"zip":"52652","city":"Swedesburg","state":"IA","lat":41.1043,"long":-91.547},{"zip":"52654","city":"Wayland","state":"IA","lat":41.1449,"long":-91.6589},{"zip":"52659","city":"Winfield","state":"IA","lat":41.1257,"long":-91.4379},{"zip":"52134","city":"Chester","state":"IA","lat":43.473,"long":-92.4155},{"zip":"52136","city":"Cresco","state":"IA","lat":43.363,"long":-92.126},{"zip":"52155","city":"Lime Springs","state":"IA","lat":43.4556,"long":-92.2733},{"zip":"52163","city":"Protivin","state":"IA","lat":43.217,"long":-92.0927},{"zip":"52203","city":"Amana","state":"IA","lat":41.8313,"long":-91.8855},{"zip":"52204","city":"Amana","state":"IA","lat":41.8,"long":-91.8707},{"zip":"52220","city":"Conroy","state":"IA","lat":41.7292,"long":-91.9977},{"zip":"52236","city":"Homestead","state":"IA","lat":41.7339,"long":-91.8795},{"zip":"52251","city":"Ladora","state":"IA","lat":41.7564,"long":-92.1873},{"zip":"52301","city":"Marengo","state":"IA","lat":41.7863,"long":-92.072},{"zip":"52307","city":"Middle Amana","state":"IA","lat":41.7954,"long":-91.9018},{"zip":"52308","city":"Millersburg","state":"IA","lat":41.5733,"long":-92.1599},{"zip":"52316","city":"North English","state":"IA","lat":41.5241,"long":-92.0893},{"zip":"52325","city":"Parnell","state":"IA","lat":41.5702,"long":-92.0052},{"zip":"52334","city":"South Amana","state":"IA","lat":41.7576,"long":-91.9263},{"zip":"52347","city":"Victor","state":"IA","lat":41.729,"long":-92.2842},{"zip":"52361","city":"Williamsburg","state":"IA","lat":41.6393,"long":-92.024},{"zip":"52030","city":"Andrew","state":"IA","lat":42.1536,"long":-90.5924},{"zip":"52031","city":"Bellevue","state":"IA","lat":42.2582,"long":-90.4356},{"zip":"52054","city":"La Motte","state":"IA","lat":42.3044,"long":-90.6177},{"zip":"52060","city":"Maquoketa","state":"IA","lat":42.0778,"long":-90.6771},{"zip":"52064","city":"Miles","state":"IA","lat":42.1006,"long":-90.3367},{"zip":"52069","city":"Preston","state":"IA","lat":42.0539,"long":-90.3954},{"zip":"52070","city":"Sabula","state":"IA","lat":42.0737,"long":-90.1955},{"zip":"52071","city":"Saint Donatus","state":"IA","lat":42.3196,"long":-90.4903},{"zip":"52074","city":"Spragueville","state":"IA","lat":42.0727,"long":-90.473},{"zip":"52075","city":"Springbrook","state":"IA","lat":42.1674,"long":-90.4846},{"zip":"52207","city":"Baldwin","state":"IA","lat":42.0732,"long":-90.82},{"zip":"52309","city":"Monmouth","state":"IA","lat":42.0772,"long":-90.8786},{"zip":"52533","city":"Batavia","state":"IA","lat":40.9905,"long":-92.1431},{"zip":"52556","city":"Fairfield","state":"IA","lat":41.0039,"long":-91.9576},{"zip":"52557","city":"Fairfield","state":"IA","lat":41.0166,"long":-91.9682},{"zip":"52567","city":"Libertyville","state":"IA","lat":40.9499,"long":-92.025},{"zip":"52580","city":"Packwood","state":"IA","lat":41.1228,"long":-92.0664},{"zip":"52635","city":"Lockridge","state":"IA","lat":41.0119,"long":-91.7645},{"zip":"52235","city":"Hills","state":"IA","lat":41.5557,"long":-91.5308},{"zip":"52240","city":"Iowa City","state":"IA","lat":41.6355,"long":-91.5016},{"zip":"52241","city":"Coralville","state":"IA","lat":41.6937,"long":-91.5906},{"zip":"52242","city":"Iowa City","state":"IA","lat":41.6627,"long":-91.5477},{"zip":"52243","city":"Iowa City","state":"IA","lat":41.6611,"long":-91.5302},{"zip":"52244","city":"Iowa City","state":"IA","lat":41.5727,"long":-91.6619},{"zip":"52245","city":"Iowa City","state":"IA","lat":41.6649,"long":-91.5151},{"zip":"52246","city":"Iowa City","state":"IA","lat":41.6438,"long":-91.5669},{"zip":"52317","city":"North Liberty","state":"IA","lat":41.7443,"long":-91.6061},{"zip":"52322","city":"Oxford","state":"IA","lat":41.6507,"long":-91.7724},{"zip":"52333","city":"Solon","state":"IA","lat":41.8099,"long":-91.5086},{"zip":"52338","city":"Swisher","state":"IA","lat":41.8268,"long":-91.6739},{"zip":"52340","city":"Tiffin","state":"IA","lat":41.7018,"long":-91.6773},{"zip":"52755","city":"Lone Tree","state":"IA","lat":41.4988,"long":-91.4363},{"zip":"52205","city":"Anamosa","state":"IA","lat":42.1078,"long":-91.2851},{"zip":"52212","city":"Center Junction","state":"IA","lat":42.1161,"long":-91.0871},{"zip":"52252","city":"Langworthy","state":"IA","lat":42.192,"long":-91.2258},{"zip":"52305","city":"Martelle","state":"IA","lat":42.0035,"long":-91.3217},{"zip":"52310","city":"Monticello","state":"IA","lat":42.2326,"long":-91.1989},{"zip":"52312","city":"Morley","state":"IA","lat":42.006,"long":-91.2459},{"zip":"52320","city":"Olin","state":"IA","lat":41.9954,"long":-91.1409},{"zip":"52321","city":"Onslow","state":"IA","lat":42.107,"long":-91.0151},{"zip":"52323","city":"Oxford Junction","state":"IA","lat":41.9854,"long":-90.9543},{"zip":"52362","city":"Wyoming","state":"IA","lat":42.0604,"long":-90.994},{"zip":"52231","city":"Harper","state":"IA","lat":41.3728,"long":-92.0388},{"zip":"52248","city":"Keota","state":"IA","lat":41.3504,"long":-91.9641},{"zip":"52335","city":"South English","state":"IA","lat":41.4529,"long":-92.068},{"zip":"52355","city":"Webster","state":"IA","lat":41.4364,"long":-92.1765},{"zip":"52550","city":"Delta","state":"IA","lat":41.3167,"long":-92.3359},{"zip":"52562","city":"Hayesville","state":"IA","lat":41.3363,"long":-92.1784},{"zip":"52563","city":"Hedrick","state":"IA","lat":41.1826,"long":-92.3097},{"zip":"52568","city":"Martinsburg","state":"IA","lat":41.1948,"long":-92.2715},{"zip":"52576","city":"Ollie","state":"IA","lat":41.2001,"long":-92.1354},{"zip":"52585","city":"Richland","state":"IA","lat":41.1939,"long":-91.9739},{"zip":"52591","city":"Sigourney","state":"IA","lat":41.3301,"long":-92.2019},{"zip":"52619","city":"Argyle","state":"IA","lat":40.5317,"long":-91.5663},{"zip":"52624","city":"Denmark","state":"IA","lat":40.7417,"long":-91.3374},{"zip":"52625","city":"Donnellson","state":"IA","lat":40.6612,"long":-91.5745},{"zip":"52627","city":"Fort Madison","state":"IA","lat":40.633,"long":-91.3398},{"zip":"52631","city":"Houghton","state":"IA","lat":40.77,"long":-91.6138},{"zip":"52632","city":"Keokuk","state":"IA","lat":40.4094,"long":-91.3982},{"zip":"52639","city":"Montrose","state":"IA","lat":40.5139,"long":-91.424},{"zip":"52648","city":"Pilot Grove","state":"IA","lat":40.7628,"long":-91.5368},{"zip":"52656","city":"West Point","state":"IA","lat":40.715,"long":-91.4397},{"zip":"52657","city":"Saint Paul","state":"IA","lat":40.7695,"long":-91.5171},{"zip":"52658","city":"Wever","state":"IA","lat":40.7067,"long":-91.2268},{"zip":"52202","city":"Alburnett","state":"IA","lat":42.1583,"long":-91.6392},{"zip":"52213","city":"Center Point","state":"IA","lat":42.1898,"long":-91.7758},{"zip":"52214","city":"Central City","state":"IA","lat":42.1982,"long":-91.4914},{"zip":"52218","city":"Coggon","state":"IA","lat":42.2792,"long":-91.5413},{"zip":"52219","city":"Prairieburg","state":"IA","lat":42.2383,"long":-91.4224},{"zip":"52227","city":"Ely","state":"IA","lat":41.8943,"long":-91.5738},{"zip":"52228","city":"Fairfax","state":"IA","lat":41.9153,"long":-91.7801},{"zip":"52233","city":"Hiawatha","state":"IA","lat":42.0425,"long":-91.677},{"zip":"52253","city":"Lisbon","state":"IA","lat":41.9212,"long":-91.3861},{"zip":"52302","city":"Marion","state":"IA","lat":42.0411,"long":-91.5941},{"zip":"52314","city":"Mount Vernon","state":"IA","lat":41.9287,"long":-91.4274},{"zip":"52324","city":"Palo","state":"IA","lat":42.0365,"long":-91.7877},{"zip":"52328","city":"Robins","state":"IA","lat":42.0731,"long":-91.6648},{"zip":"52336","city":"Springville","state":"IA","lat":42.0607,"long":-91.4394},{"zip":"52341","city":"Toddville","state":"IA","lat":42.1039,"long":-91.729},{"zip":"52344","city":"Troy Mills","state":"IA","lat":42.29,"long":-91.6824},{"zip":"52352","city":"Walker","state":"IA","lat":42.2867,"long":-91.7807},{"zip":"52401","city":"Cedar Rapids","state":"IA","lat":41.9743,"long":-91.6554},{"zip":"52402","city":"Cedar Rapids","state":"IA","lat":42.0188,"long":-91.6612},{"zip":"52403","city":"Cedar Rapids","state":"IA","lat":41.9843,"long":-91.6259},{"zip":"52404","city":"Cedar Rapids","state":"IA","lat":41.9521,"long":-91.6853},{"zip":"52405","city":"Cedar Rapids","state":"IA","lat":41.9804,"long":-91.7098},{"zip":"52406","city":"Cedar Rapids","state":"IA","lat":42.0083,"long":-91.6441},{"zip":"52407","city":"Cedar Rapids","state":"IA","lat":42.0794,"long":-91.5992},{"zip":"52408","city":"Cedar Rapids","state":"IA","lat":42.0794,"long":-91.5992},{"zip":"52409","city":"Cedar Rapids","state":"IA","lat":42.0794,"long":-91.5992},{"zip":"52410","city":"Cedar Rapids","state":"IA","lat":42.0794,"long":-91.5992},{"zip":"52411","city":"Cedar Rapids","state":"IA","lat":42.0493,"long":-91.7263},{"zip":"52497","city":"Cedar Rapids","state":"IA","lat":42.0794,"long":-91.5992},{"zip":"52498","city":"Cedar Rapids","state":"IA","lat":42.0794,"long":-91.5992},{"zip":"52499","city":"Cedar Rapids","state":"IA","lat":42.0794,"long":-91.5992},{"zip":"52640","city":"Morning Sun","state":"IA","lat":41.0984,"long":-91.2581},{"zip":"52646","city":"Oakville","state":"IA","lat":41.1003,"long":-91.0439},{"zip":"52653","city":"Wapello","state":"IA","lat":41.207,"long":-91.1719},{"zip":"52737","city":"Columbus City","state":"IA","lat":41.2593,"long":-91.3747},{"zip":"52738","city":"Columbus Junction","state":"IA","lat":41.2926,"long":-91.3006},{"zip":"52752","city":"Grandview","state":"IA","lat":41.2759,"long":-91.1885},{"zip":"52754","city":"Letts","state":"IA","lat":41.293,"long":-91.204},{"zip":"52534","city":"Beacon","state":"IA","lat":41.272,"long":-92.6819},{"zip":"52543","city":"Cedar","state":"IA","lat":41.2121,"long":-92.509},{"zip":"52561","city":"Fremont","state":"IA","lat":41.2117,"long":-92.4362},{"zip":"52577","city":"Oskaloosa","state":"IA","lat":41.2942,"long":-92.6439},{"zip":"52586","city":"Rose Hill","state":"IA","lat":41.3309,"long":-92.472},{"zip":"52595","city":"University Park","state":"IA","lat":41.2864,"long":-92.6184},{"zip":"52531","city":"Albia","state":"IA","lat":41.0287,"long":-92.7946},{"zip":"52569","city":"Melrose","state":"IA","lat":40.9665,"long":-93.0145},{"zip":"52720","city":"Atalissa","state":"IA","lat":41.5614,"long":-91.1748},{"zip":"52739","city":"Conesville","state":"IA","lat":41.3805,"long":-91.3465},{"zip":"52749","city":"Fruitland","state":"IA","lat":41.3486,"long":-91.1237},{"zip":"52759","city":"Montpelier","state":"IA","lat":41.4625,"long":-90.8088},{"zip":"52760","city":"Moscow","state":"IA","lat":41.5646,"long":-91.0859},{"zip":"52761","city":"Muscatine","state":"IA","lat":41.4304,"long":-91.0509},{"zip":"52766","city":"Nichols","state":"IA","lat":41.4766,"long":-91.2931},{"zip":"52769","city":"Stockton","state":"IA","lat":41.5914,"long":-90.8588},{"zip":"52776","city":"West Liberty","state":"IA","lat":41.5701,"long":-91.2668},{"zip":"52778","city":"Wilton","state":"IA","lat":41.5858,"long":-91.01},{"zip":"52211","city":"Brooklyn","state":"IA","lat":41.7321,"long":-92.4285},{"zip":"52221","city":"Guernsey","state":"IA","lat":41.6378,"long":-92.3479},{"zip":"52222","city":"Deep River","state":"IA","lat":41.5717,"long":-92.3645},{"zip":"52232","city":"Hartwick","state":"IA","lat":41.808,"long":-92.3538},{"zip":"52722","city":"Bettendorf","state":"IA","lat":41.5509,"long":-90.4942},{"zip":"52726","city":"Blue Grass","state":"IA","lat":41.5112,"long":-90.738},{"zip":"52728","city":"Buffalo","state":"IA","lat":41.4564,"long":-90.7235},{"zip":"52745","city":"Dixon","state":"IA","lat":41.7113,"long":-90.7553},{"zip":"52746","city":"Donahue","state":"IA","lat":41.7093,"long":-90.6829},{"zip":"52748","city":"Eldridge","state":"IA","lat":41.6635,"long":-90.5634},{"zip":"52753","city":"Le Claire","state":"IA","lat":41.6082,"long":-90.3628},{"zip":"52756","city":"Long Grove","state":"IA","lat":41.7213,"long":-90.5534},{"zip":"52758","city":"Mc Causland","state":"IA","lat":41.743,"long":-90.4539},{"zip":"52765","city":"New Liberty","state":"IA","lat":41.7132,"long":-90.8599},{"zip":"52767","city":"Pleasant Valley","state":"IA","lat":41.5746,"long":-90.4213},{"zip":"52768","city":"Princeton","state":"IA","lat":41.6858,"long":-90.3706},{"zip":"52773","city":"Walcott","state":"IA","lat":41.6453,"long":-90.7256},{"zip":"52801","city":"Davenport","state":"IA","lat":41.5208,"long":-90.5745},{"zip":"52802","city":"Davenport","state":"IA","lat":41.5164,"long":-90.6141},{"zip":"52803","city":"Davenport","state":"IA","lat":41.5385,"long":-90.5613},{"zip":"52804","city":"Davenport","state":"IA","lat":41.5386,"long":-90.6115},{"zip":"52805","city":"Davenport","state":"IA","lat":41.613,"long":-90.6063},{"zip":"52806","city":"Davenport","state":"IA","lat":41.5733,"long":-90.6038},{"zip":"52807","city":"Davenport","state":"IA","lat":41.5618,"long":-90.5403},{"zip":"52808","city":"Davenport","state":"IA","lat":41.613,"long":-90.6063},{"zip":"52809","city":"Davenport","state":"IA","lat":41.613,"long":-90.6063},{"zip":"52215","city":"Chelsea","state":"IA","lat":41.9131,"long":-92.4078},{"zip":"52217","city":"Clutier","state":"IA","lat":42.0789,"long":-92.3763},{"zip":"52224","city":"Dysart","state":"IA","lat":42.169,"long":-92.3187},{"zip":"52225","city":"Elberon","state":"IA","lat":42.0088,"long":-92.3314},{"zip":"52339","city":"Tama","state":"IA","lat":41.9616,"long":-92.58},{"zip":"52342","city":"Toledo","state":"IA","lat":42.0077,"long":-92.5662},{"zip":"52348","city":"Vining","state":"IA","lat":41.99,"long":-92.3799},{"zip":"52535","city":"Birmingham","state":"IA","lat":40.8626,"long":-91.9534},{"zip":"52542","city":"Cantril","state":"IA","lat":40.6546,"long":-92.0465},{"zip":"52551","city":"Douds","state":"IA","lat":40.8378,"long":-92.0859},{"zip":"52565","city":"Keosauqua","state":"IA","lat":40.7424,"long":-91.9704},{"zip":"52570","city":"Milton","state":"IA","lat":40.6721,"long":-92.1438},{"zip":"52573","city":"Mount Sterling","state":"IA","lat":40.6458,"long":-91.9027},{"zip":"52588","city":"Selma","state":"IA","lat":40.864,"long":-92.1736},{"zip":"52620","city":"Bonaparte","state":"IA","lat":40.7148,"long":-91.7897},{"zip":"52626","city":"Farmington","state":"IA","lat":40.6397,"long":-91.7447},{"zip":"52651","city":"Stockport","state":"IA","lat":40.8584,"long":-91.8141},{"zip":"52501","city":"Ottumwa","state":"IA","lat":41.0309,"long":-92.4098},{"zip":"52530","city":"Agency","state":"IA","lat":40.9957,"long":-92.3162},{"zip":"52536","city":"Blakesburg","state":"IA","lat":40.9555,"long":-92.6195},{"zip":"52548","city":"Chillicothe","state":"IA","lat":41.086,"long":-92.5303},{"zip":"52553","city":"Eddyville","state":"IA","lat":41.1533,"long":-92.6221},{"zip":"52554","city":"Eldon","state":"IA","lat":40.9261,"long":-92.2268},{"zip":"52566","city":"Kirkville","state":"IA","lat":41.1438,"long":-92.5006},{"zip":"52201","city":"Ainsworth","state":"IA","lat":41.3202,"long":-91.5472},{"zip":"52247","city":"Kalona","state":"IA","lat":41.4823,"long":-91.7057},{"zip":"52327","city":"Riverside","state":"IA","lat":41.4758,"long":-91.5741},{"zip":"52353","city":"Washington","state":"IA","lat":41.3015,"long":-91.6987},{"zip":"52356","city":"Wellman","state":"IA","lat":41.47,"long":-91.84},{"zip":"52359","city":"West Chester","state":"IA","lat":41.3585,"long":-91.8075},{"zip":"52540","city":"Brighton","state":"IA","lat":41.1543,"long":-91.8284},{"zip":"52621","city":"Crawfordsville","state":"IA","lat":41.2093,"long":-91.5414},{"zip":"52583","city":"Promise City","state":"IA","lat":40.7585,"long":-93.1527},{"zip":"52590","city":"Seymour","state":"IA","lat":40.6724,"long":-93.1368},{"zip":"52101","city":"Decorah","state":"IA","lat":43.3227,"long":-91.7939},{"zip":"52132","city":"Calmar","state":"IA","lat":43.1974,"long":-91.9126},{"zip":"52133","city":"Castalia","state":"IA","lat":43.1361,"long":-91.6643},{"zip":"52144","city":"Fort Atkinson","state":"IA","lat":43.1339,"long":-91.9134},{"zip":"52149","city":"Highlandville","state":"IA","lat":43.4638,"long":-91.6899},{"zip":"52161","city":"Ossian","state":"IA","lat":43.1379,"long":-91.7734},{"zip":"52165","city":"Ridgeway","state":"IA","lat":43.2979,"long":-92.0034},{"zip":"52168","city":"Spillville","state":"IA","lat":43.2032,"long":-91.9441}]
