[{"zip":"52042","city":"Edgewood","state":"IA","lat":42.6541,"long":-91.395},{"zip":"52043","city":"Elkader","state":"IA","lat":42.8496,"long":-91.4143},{"zip":"52044","city":"Elkport","state":"IA","lat":42.7624,"long":-91.3203},{"zip":"52047","city":"Farmersburg","state":"IA","lat":42.9522,"long":-91.339},{"zip":"52048","city":"Garber","state":"IA","lat":42.7453,"long":-91.2593},{"zip":"52049","city":"Garnavillo","state":"IA","lat":42.8762,"long":-91.2156},{"zip":"52052","city":"Guttenberg","state":"IA","lat":42.7594,"long":-91.119},{"zip":"52066","city":"North Buena Vista","state":"IA","lat":42.6783,"long":-90.9518},{"zip":"52072","city":"Saint Olaf","state":"IA","lat":42.922,"long":-91.3778},{"zip":"52076","city":"Strawberry Point","state":"IA","lat":42.6832,"long":-91.5409},{"zip":"52077","city":"Volga","state":"IA","lat":42.7904,"long":-91.5429},{"zip":"52037","city":"Delmar","state":"IA","lat":41.9961,"long":-90.6087},{"zip":"52035","city":"Colesburg","state":"IA","lat":42.6383,"long":-91.1963},{"zip":"52036","city":"Delaware","state":"IA","lat":42.4766,"long":-91.3112},{"zip":"52038","city":"Dundee","state":"IA","lat":42.594,"long":-91.5477},{"zip":"52041","city":"Earlville","state":"IA","lat":42.5001,"long":-91.2597},{"zip":"52050","city":"Greeley","state":"IA","lat":42.5939,"long":-91.3233},{"zip":"52057","city":"Manchester","state":"IA","lat":42.4834,"long":-91.449},{"zip":"52001","city":"Dubuque","state":"IA","lat":42.515,"long":-90.6819},{"zip":"52002","city":"Dubuque","state":"IA","lat":42.5122,"long":-90.7384},{"zip":"52003","city":"Dubuque","state":"IA","lat":42.4649,"long":-90.6829},{"zip":"52004","city":"Dubuque","state":"IA","lat":42.5006,"long":-90.6646},{"zip":"52032","city":"Bernard","state":"IA","lat":42.3321,"long":-90.863},{"zip":"52033","city":"Cascade","state":"IA","lat":42.287,"long":-91.0144},{"zip":"52039","city":"Durango","state":"IA","lat":42.5526,"long":-90.8608},{"zip":"52040","city":"Dyersville","state":"IA","lat":42.4833,"long":-91.1183},{"zip":"52045","city":"Epworth","state":"IA","lat":42.4439,"long":-90.9313},{"zip":"52046","city":"Farley","state":"IA","lat":42.4451,"long":-91.0083},{"zip":"52053","city":"Holy Cross","state":"IA","lat":42.5808,"long":-90.973},{"zip":"52056","city":"Luxemburg","state":"IA","lat":42.5783,"long":-91.0621},{"zip":"52065","city":"New Vienna","state":"IA","lat":42.5678,"long":-91.0976},{"zip":"52068","city":"Peosta","state":"IA","lat":42.4435,"long":-90.8094},{"zip":"52073","city":"Sherrill","state":"IA","lat":42.6171,"long":-90.8115},{"zip":"52078","city":"Worthington","state":"IA","lat":42.393,"long":-91.1069},{"zip":"52079","city":"Zwingle","state":"IA","lat":42.2775,"long":-90.7507},{"zip":"52099","city":"Dubuque","state":"IA","lat":42.5006,"long":-90.6646},{"zip":"52030","city":"Andrew","state":"IA","lat":42.1536,"long":-90.5924},{"zip":"52031","city":"Bellevue","state":"IA","lat":42.2582,"long":-90.4356},{"zip":"52054","city":"La Motte","state":"IA","lat":42.3044,"long":-90.6177},{"zip":"52060","city":"Maquoketa","state":"IA","lat":42.0778,"long":-90.6771},{"zip":"52064","city":"Miles","state":"IA","lat":42.1006,"long":-90.3367},{"zip":"52069","city":"Preston","state":"IA","lat":42.0539,"long":-90.3954},{"zip":"52070","city":"Sabula","state":"IA","lat":42.0737,"long":-90.1955},{"zip":"52071","city":"Saint Donatus","state":"IA","lat":42.3196,"long":-90.4903},{"zip":"52074","city":"Spragueville","state":"IA","lat":42.0727,"long":-90.473},{"zip":"52075","city":"Springbrook","state":"IA","lat":42.1674,"long":-90.4846}]
