[{"zip":"52206","city":"Atkins","state":"IA","lat":41.9881,"long":-91.876},{"zip":"52208","city":"Belle Plaine","state":"IA","lat":41.8992,"long":-92.2574},{"zip":"52209","city":"Blairstown","state":"IA","lat":41.9063,"long":-92.0829},{"zip":"52229","city":"Garrison","state":"IA","lat":42.1588,"long":-92.1644},{"zip":"52249","city":"Keystone","state":"IA","lat":42.0156,"long":-92.2179},{"zip":"52257","city":"Luzerne","state":"IA","lat":41.9061,"long":-92.1793},{"zip":"52210","city":"Brandon","state":"IA","lat":42.3309,"long":-92.0059},{"zip":"52216","city":"Clarence","state":"IA","lat":41.8896,"long":-91.0605},{"zip":"52255","city":"Lowden","state":"IA","lat":41.8594,"long":-90.9382},{"zip":"52254","city":"Lost Nation","state":"IA","lat":41.9745,"long":-90.8265},{"zip":"52223","city":"Delhi","state":"IA","lat":42.4297,"long":-91.331},{"zip":"52237","city":"Hopkinton","state":"IA","lat":42.3422,"long":-91.2461},{"zip":"52203","city":"Amana","state":"IA","lat":41.8313,"long":-91.8855},{"zip":"52204","city":"Amana","state":"IA","lat":41.8,"long":-91.8707},{"zip":"52220","city":"Conroy","state":"IA","lat":41.7292,"long":-91.9977},{"zip":"52236","city":"Homestead","state":"IA","lat":41.7339,"long":-91.8795},{"zip":"52251","city":"Ladora","state":"IA","lat":41.7564,"long":-92.1873},{"zip":"52207","city":"Baldwin","state":"IA","lat":42.0732,"long":-90.82},{"zip":"52235","city":"Hills","state":"IA","lat":41.5557,"long":-91.5308},{"zip":"52240","city":"Iowa City","state":"IA","lat":41.6355,"long":-91.5016},{"zip":"52241","city":"Coralville","state":"IA","lat":41.6937,"long":-91.5906},{"zip":"52242","city":"Iowa City","state":"IA","lat":41.6627,"long":-91.5477},{"zip":"52243","city":"Iowa City","state":"IA","lat":41.6611,"long":-91.5302},{"zip":"52244","city":"Iowa City","state":"IA","lat":41.5727,"long":-91.6619},{"zip":"52245","city":"Iowa City","state":"IA","lat":41.6649,"long":-91.5151},{"zip":"52246","city":"Iowa City","state":"IA","lat":41.6438,"long":-91.5669},{"zip":"52205","city":"Anamosa","state":"IA","lat":42.1078,"long":-91.2851},{"zip":"52212","city":"Center Junction","state":"IA","lat":42.1161,"long":-91.0871},{"zip":"52252","city":"Langworthy","state":"IA","lat":42.192,"long":-91.2258},{"zip":"52231","city":"Harper","state":"IA","lat":41.3728,"long":-92.0388},{"zip":"52248","city":"Keota","state":"IA","lat":41.3504,"long":-91.9641},{"zip":"52202","city":"Alburnett","state":"IA","lat":42.1583,"long":-91.6392},{"zip":"52213","city":"Center Point","state":"IA","lat":42.1898,"long":-91.7758},{"zip":"52214","city":"Central City","state":"IA","lat":42.1982,"long":-91.4914},{"zip":"52218","city":"Coggon","state":"IA","lat":42.2792,"long":-91.5413},{"zip":"52219","city":"Prairieburg","state":"IA","lat":42.2383,"long":-91.4224},{"zip":"52227","city":"Ely","state":"IA","lat":41.8943,"long":-91.5738},{"zip":"52228","city":"Fairfax","state":"IA","lat":41.9153,"long":-91.7801},{"zip":"52233","city":"Hiawatha","state":"IA","lat":42.0425,"long":-91.677},{"zip":"52253","city":"Lisbon","state":"IA","lat":41.9212,"long":-91.3861},{"zip":"52211","city":"Brooklyn","state":"IA","lat":41.7321,"long":-92.4285},{"zip":"52221","city":"Guernsey","state":"IA","lat":41.6378,"long":-92.3479},{"zip":"52222","city":"Deep River","state":"IA","lat":41.5717,"long":-92.3645},{"zip":"52232","city":"Hartwick","state":"IA","lat":41.808,"long":-92.3538},{"zip":"52215","city":"Chelsea","state":"IA","lat":41.9131,"long":-92.4078},{"zip":"52217","city":"Clutier","state":"IA","lat":42.0789,"long":-92.3763},{"zip":"52224","city":"Dysart","state":"IA","lat":42.169,"long":-92.3187},{"zip":"52225","city":"Elberon","state":"IA","lat":42.0088,"long":-92.3314},{"zip":"52201","city":"Ainsworth","state":"IA","lat":41.3202,"long":-91.5472},{"zip":"52247","city":"Kalona","state":"IA","lat":41.4823,"long":-91.7057}]
