[{"zip":"52313","city":"Mount Auburn","state":"IA","lat":42.255,"long":-92.0927},{"zip":"52315","city":"Newhall","state":"IA","lat":41.9927,"long":-91.9779},{"zip":"52318","city":"Norway","state":"IA","lat":41.8992,"long":-91.892},{"zip":"52332","city":"Shellsburg","state":"IA","lat":42.0848,"long":-91.8746},{"zip":"52345","city":"Urbana","state":"IA","lat":42.2365,"long":-91.8881},{"zip":"52346","city":"Van Horne","state":"IA","lat":42.0194,"long":-92.1046},{"zip":"52349","city":"Vinton","state":"IA","lat":42.1743,"long":-91.9892},{"zip":"52351","city":"Walford","state":"IA","lat":41.877,"long":-91.8369},{"zip":"52354","city":"Watkins","state":"IA","lat":41.904,"long":-91.9965},{"zip":"52326","city":"Quasqueton","state":"IA","lat":42.3956,"long":-91.7679},{"zip":"52329","city":"Rowley","state":"IA","lat":42.37,"long":-91.8441},{"zip":"52306","city":"Mechanicsville","state":"IA","lat":41.9039,"long":-91.2764},{"zip":"52337","city":"Stanwood","state":"IA","lat":41.8963,"long":-91.1662},{"zip":"52358","city":"West Branch","state":"IA","lat":41.6726,"long":-91.3141},{"zip":"52330","city":"Ryan","state":"IA","lat":42.3436,"long":-91.4848},{"zip":"52301","city":"Marengo","state":"IA","lat":41.7863,"long":-92.072},{"zip":"52307","city":"Middle Amana","state":"IA","lat":41.7954,"long":-91.9018},{"zip":"52308","city":"Millersburg","state":"IA","lat":41.5733,"long":-92.1599},{"zip":"52316","city":"North English","state":"IA","lat":41.5241,"long":-92.0893},{"zip":"52325","city":"Parnell","state":"IA","lat":41.5702,"long":-92.0052},{"zip":"52334","city":"South Amana","state":"IA","lat":41.7576,"long":-91.9263},{"zip":"52347","city":"Victor","state":"IA","lat":41.729,"long":-92.2842},{"zip":"52361","city":"Williamsburg","state":"IA","lat":41.6393,"long":-92.024},{"zip":"52309","city":"Monmouth","state":"IA","lat":42.0772,"long":-90.8786},{"zip":"52317","city":"North Liberty","state":"IA","lat":41.7443,"long":-91.6061},{"zip":"52322","city":"Oxford","state":"IA","lat":41.6507,"long":-91.7724},{"zip":"52333","city":"Solon","state":"IA","lat":41.8099,"long":-91.5086},{"zip":"52338","city":"Swisher","state":"IA","lat":41.8268,"long":-91.6739},{"zip":"52340","city":"Tiffin","state":"IA","lat":41.7018,"long":-91.6773},{"zip":"52305","city":"Martelle","state":"IA","lat":42.0035,"long":-91.3217},{"zip":"52310","city":"Monticello","state":"IA","lat":42.2326,"long":-91.1989},{"zip":"52312","city":"Morley","state":"IA","lat":42.006,"long":-91.2459},{"zip":"52320","city":"Olin","state":"IA","lat":41.9954,"long":-91.1409},{"zip":"52321","city":"Onslow","state":"IA","lat":42.107,"long":-91.0151},{"zip":"52323","city":"Oxford Junction","state":"IA","lat":41.9854,"long":-90.9543},{"zip":"52362","city":"Wyoming","state":"IA","lat":42.0604,"long":-90.994},{"zip":"52335","city":"South English","state":"IA","lat":41.4529,"long":-92.068},{"zip":"52355","city":"Webster","state":"IA","lat":41.4364,"long":-92.1765},{"zip":"52302","city":"Marion","state":"IA","lat":42.0411,"long":-91.5941},{"zip":"52314","city":"Mount Vernon","state":"IA","lat":41.9287,"long":-91.4274},{"zip":"52324","city":"Palo","state":"IA","lat":42.0365,"long":-91.7877},{"zip":"52328","city":"Robins","state":"IA","lat":42.0731,"long":-91.6648},{"zip":"52336","city":"Springville","state":"IA","lat":42.0607,"long":-91.4394},{"zip":"52341","city":"Toddville","state":"IA","lat":42.1039,"long":-91.729},{"zip":"52344","city":"Troy Mills","state":"IA","lat":42.29,"long":-91.6824},{"zip":"52352","city":"Walker","state":"IA","lat":42.2867,"long":-91.7807},{"zip":"52339","city":"Tama","state":"IA","lat":41.9616,"long":-92.58},{"zip":"52342","city":"Toledo","state":"IA","lat":42.0077,"long":-92.5662},{"zip":"52348","city":"Vining","state":"IA","lat":41.99,"long":-92.3799},{"zip":"52327","city":"Riverside","state":"IA","lat":41.4758,"long":-91.5741},{"zip":"52353","city":"Washington","state":"IA","lat":41.3015,"long":-91.6987},{"zip":"52356","city":"Wellman","state":"IA","lat":41.47,"long":-91.84},{"zip":"52359","city":"West Chester","state":"IA","lat":41.3585,"long":-91.8075}]
