[{"zip":"52401","city":"Cedar Rapids","state":"IA","lat":41.9743,"long":-91.6554},{"zip":"52402","city":"Cedar Rapids","state":"IA","lat":42.0188,"long":-91.6612},{"zip":"52403","city":"Cedar Rapids","state":"IA","lat":41.9843,"long":-91.6259},{"zip":"52404","city":"Cedar Rapids","state":"IA","lat":41.9521,"long":-91.6853},{"zip":"52405","city":"Cedar Rapids","state":"IA","lat":41.9804,"long":-91.7098},{"zip":"52406","city":"Cedar Rapids","state":"IA","lat":42.0083,"long":-91.6441},{"zip":"52407","city":"Cedar Rapids","state":"IA","lat":42.0794,"long":-91.5992},{"zip":"52408","city":"Cedar Rapids","state":"IA","lat":42.0794,"long":-91.5992},{"zip":"52409","city":"Cedar Rapids","state":"IA","lat":42.0794,"long":-91.5992},{"zip":"52410","city":"Cedar Rapids","state":"IA","lat":42.0794,"long":-91.5992},{"zip":"52411","city":"Cedar Rapids","state":"IA","lat":42.0493,"long":-91.7263},{"zip":"52497","city":"Cedar Rapids","state":"IA","lat":42.0794,"long":-91.5992},{"zip":"52498","city":"Cedar Rapids","state":"IA","lat":42.0794,"long":-91.5992},{"zip":"52499","city":"Cedar Rapids","state":"IA","lat":42.0794,"long":-91.5992}]
