[{"zip":"52544","city":"Centerville","state":"IA","lat":40.7326,"long":-92.8728},{"zip":"52549","city":"Cincinnati","state":"IA","lat":40.6344,"long":-92.9219},{"zip":"52555","city":"Exline","state":"IA","lat":40.6414,"long":-92.827},{"zip":"52571","city":"Moravia","state":"IA","lat":40.8825,"long":-92.8534},{"zip":"52572","city":"Moulton","state":"IA","lat":40.6866,"long":-92.6833},{"zip":"52574","city":"Mystic","state":"IA","lat":40.7883,"long":-92.9284},{"zip":"52581","city":"Plano","state":"IA","lat":40.7751,"long":-93.0386},{"zip":"52593","city":"Udell","state":"IA","lat":40.7808,"long":-92.7421},{"zip":"52594","city":"Unionville","state":"IA","lat":40.8416,"long":-92.6935},{"zip":"52537","city":"Bloomfield","state":"IA","lat":40.7324,"long":-92.3987},{"zip":"52552","city":"Drakesville","state":"IA","lat":40.8253,"long":-92.5051},{"zip":"52560","city":"Floris","state":"IA","lat":40.8591,"long":-92.3247},{"zip":"52584","city":"Pulaski","state":"IA","lat":40.6941,"long":-92.258},{"zip":"52533","city":"Batavia","state":"IA","lat":40.9905,"long":-92.1431},{"zip":"52556","city":"Fairfield","state":"IA","lat":41.0039,"long":-91.9576},{"zip":"52557","city":"Fairfield","state":"IA","lat":41.0166,"long":-91.9682},{"zip":"52567","city":"Libertyville","state":"IA","lat":40.9499,"long":-92.025},{"zip":"52580","city":"Packwood","state":"IA","lat":41.1228,"long":-92.0664},{"zip":"52550","city":"Delta","state":"IA","lat":41.3167,"long":-92.3359},{"zip":"52562","city":"Hayesville","state":"IA","lat":41.3363,"long":-92.1784},{"zip":"52563","city":"Hedrick","state":"IA","lat":41.1826,"long":-92.3097},{"zip":"52568","city":"Martinsburg","state":"IA","lat":41.1948,"long":-92.2715},{"zip":"52576","city":"Ollie","state":"IA","lat":41.2001,"long":-92.1354},{"zip":"52585","city":"Richland","state":"IA","lat":41.1939,"long":-91.9739},{"zip":"52591","city":"Sigourney","state":"IA","lat":41.3301,"long":-92.2019},{"zip":"52534","city":"Beacon","state":"IA","lat":41.272,"long":-92.6819},{"zip":"52543","city":"Cedar","state":"IA","lat":41.2121,"long":-92.509},{"zip":"52561","city":"Fremont","state":"IA","lat":41.2117,"long":-92.4362},{"zip":"52577","city":"Oskaloosa","state":"IA","lat":41.2942,"long":-92.6439},{"zip":"52586","city":"Rose Hill","state":"IA","lat":41.3309,"long":-92.472},{"zip":"52595","city":"University Park","state":"IA","lat":41.2864,"long":-92.6184},{"zip":"52531","city":"Albia","state":"IA","lat":41.0287,"long":-92.7946},{"zip":"52569","city":"Melrose","state":"IA","lat":40.9665,"long":-93.0145},{"zip":"52535","city":"Birmingham","state":"IA","lat":40.8626,"long":-91.9534},{"zip":"52542","city":"Cantril","state":"IA","lat":40.6546,"long":-92.0465},{"zip":"52551","city":"Douds","state":"IA","lat":40.8378,"long":-92.0859},{"zip":"52565","city":"Keosauqua","state":"IA","lat":40.7424,"long":-91.9704},{"zip":"52570","city":"Milton","state":"IA","lat":40.6721,"long":-92.1438},{"zip":"52573","city":"Mount Sterling","state":"IA","lat":40.6458,"long":-91.9027},{"zip":"52588","city":"Selma","state":"IA","lat":40.864,"long":-92.1736},{"zip":"52501","city":"Ottumwa","state":"IA","lat":41.0309,"long":-92.4098},{"zip":"52530","city":"Agency","state":"IA","lat":40.9957,"long":-92.3162},{"zip":"52536","city":"Blakesburg","state":"IA","lat":40.9555,"long":-92.6195},{"zip":"52548","city":"Chillicothe","state":"IA","lat":41.086,"long":-92.5303},{"zip":"52553","city":"Eddyville","state":"IA","lat":41.1533,"long":-92.6221},{"zip":"52554","city":"Eldon","state":"IA","lat":40.9261,"long":-92.2268},{"zip":"52566","city":"Kirkville","state":"IA","lat":41.1438,"long":-92.5006},{"zip":"52540","city":"Brighton","state":"IA","lat":41.1543,"long":-91.8284},{"zip":"52583","city":"Promise City","state":"IA","lat":40.7585,"long":-93.1527},{"zip":"52590","city":"Seymour","state":"IA","lat":40.6724,"long":-93.1368}]
