[{"zip":"52601","city":"Burlington","state":"IA","lat":40.8087,"long":-91.117},{"zip":"52623","city":"Danville","state":"IA","lat":40.854,"long":-91.314},{"zip":"52637","city":"Mediapolis","state":"IA","lat":41.0059,"long":-91.1321},{"zip":"52638","city":"Middletown","state":"IA","lat":40.8296,"long":-91.2631},{"zip":"52650","city":"Sperry","state":"IA","lat":40.9419,"long":-91.185},{"zip":"52655","city":"West Burlington","state":"IA","lat":40.8321,"long":-91.1799},{"zip":"52660","city":"Yarmouth","state":"IA","lat":40.9835,"long":-91.3026},{"zip":"52630","city":"Hillsboro","state":"IA","lat":40.8372,"long":-91.7119},{"zip":"52641","city":"Mount Pleasant","state":"IA","lat":40.9646,"long":-91.5614},{"zip":"52642","city":"Rome","state":"IA","lat":40.9774,"long":-91.6923},{"zip":"52644","city":"Mount Union","state":"IA","lat":41.0374,"long":-91.4138},{"zip":"52645","city":"New London","state":"IA","lat":40.9161,"long":-91.3986},{"zip":"52647","city":"Olds","state":"IA","lat":41.1342,"long":-91.5449},{"zip":"52649","city":"Salem","state":"IA","lat":40.8568,"long":-91.6336},{"zip":"52652","city":"Swedesburg","state":"IA","lat":41.1043,"long":-91.547},{"zip":"52654","city":"Wayland","state":"IA","lat":41.1449,"long":-91.6589},{"zip":"52659","city":"Winfield","state":"IA","lat":41.1257,"long":-91.4379},{"zip":"52635","city":"Lockridge","state":"IA","lat":41.0119,"long":-91.7645},{"zip":"52619","city":"Argyle","state":"IA","lat":40.5317,"long":-91.5663},{"zip":"52624","city":"Denmark","state":"IA","lat":40.7417,"long":-91.3374},{"zip":"52625","city":"Donnellson","state":"IA","lat":40.6612,"long":-91.5745},{"zip":"52627","city":"Fort Madison","state":"IA","lat":40.633,"long":-91.3398},{"zip":"52631","city":"Houghton","state":"IA","lat":40.77,"long":-91.6138},{"zip":"52632","city":"Keokuk","state":"IA","lat":40.4094,"long":-91.3982},{"zip":"52639","city":"Montrose","state":"IA","lat":40.5139,"long":-91.424},{"zip":"52648","city":"Pilot Grove","state":"IA","lat":40.7628,"long":-91.5368},{"zip":"52656","city":"West Point","state":"IA","lat":40.715,"long":-91.4397},{"zip":"52657","city":"Saint Paul","state":"IA","lat":40.7695,"long":-91.5171},{"zip":"52658","city":"Wever","state":"IA","lat":40.7067,"long":-91.2268},{"zip":"52640","city":"Morning Sun","state":"IA","lat":41.0984,"long":-91.2581},{"zip":"52646","city":"Oakville","state":"IA","lat":41.1003,"long":-91.0439},{"zip":"52653","city":"Wapello","state":"IA","lat":41.207,"long":-91.1719},{"zip":"52620","city":"Bonaparte","state":"IA","lat":40.7148,"long":-91.7897},{"zip":"52626","city":"Farmington","state":"IA","lat":40.6397,"long":-91.7447},{"zip":"52651","city":"Stockport","state":"IA","lat":40.8584,"long":-91.8141},{"zip":"52621","city":"Crawfordsville","state":"IA","lat":41.2093,"long":-91.5414}]
