[{"zip":"53910","city":"Adams","state":"WI","lat":43.8967,"long":-89.8219},{"zip":"53927","city":"Dellwood","state":"WI","lat":43.9555,"long":-89.9418},{"zip":"53934","city":"Friendship","state":"WI","lat":43.9896,"long":-89.8149},{"zip":"53936","city":"Grand Marsh","state":"WI","lat":43.8869,"long":-89.7062},{"zip":"53014","city":"Chilton","state":"WI","lat":44.0242,"long":-88.1827},{"zip":"53061","city":"New Holstein","state":"WI","lat":43.9446,"long":-88.0911},{"zip":"53062","city":"New Holstein","state":"WI","lat":44.0679,"long":-88.2231},{"zip":"53088","city":"Stockbridge","state":"WI","lat":44.0717,"long":-88.299},{"zip":"53555","city":"Lodi","state":"WI","lat":43.327,"long":-89.5554},{"zip":"53901","city":"Portage","state":"WI","lat":43.5501,"long":-89.4714},{"zip":"53911","city":"Arlington","state":"WI","lat":43.3269,"long":-89.3631},{"zip":"53923","city":"Cambria","state":"WI","lat":43.5724,"long":-89.1156},{"zip":"53925","city":"Columbus","state":"WI","lat":43.3315,"long":-89.0271},{"zip":"53928","city":"Doylestown","state":"WI","lat":43.4266,"long":-89.1491},{"zip":"53932","city":"Fall River","state":"WI","lat":43.4008,"long":-89.0625},{"zip":"53935","city":"Friesland","state":"WI","lat":43.5901,"long":-89.0593},{"zip":"53954","city":"Pardeeville","state":"WI","lat":43.534,"long":-89.3265},{"zip":"53955","city":"Poynette","state":"WI","lat":43.4013,"long":-89.4189},{"zip":"53957","city":"Randolph","state":"WI","lat":43.5352,"long":-89.0068},{"zip":"53960","city":"Rio","state":"WI","lat":43.4231,"long":-89.2354},{"zip":"53965","city":"Wisconsin Dells","state":"WI","lat":43.6508,"long":-89.7665},{"zip":"53969","city":"Wyocena","state":"WI","lat":43.4989,"long":-89.305},{"zip":"53821","city":"Prairie Du Chien","state":"WI","lat":43.0426,"long":-91.1193},{"zip":"53826","city":"Wauzeka","state":"WI","lat":43.1143,"long":-90.9239},{"zip":"53508","city":"Belleville","state":"WI","lat":42.8669,"long":-89.5377},{"zip":"53515","city":"Black Earth","state":"WI","lat":43.1322,"long":-89.739},{"zip":"53517","city":"Blue Mounds","state":"WI","lat":43.005,"long":-89.8345},{"zip":"53523","city":"Cambridge","state":"WI","lat":42.9918,"long":-89.0209},{"zip":"53527","city":"Cottage Grove","state":"WI","lat":43.0784,"long":-89.2017},{"zip":"53528","city":"Cross Plains","state":"WI","lat":43.1132,"long":-89.6397},{"zip":"53529","city":"Dane","state":"WI","lat":43.2424,"long":-89.5117},{"zip":"53531","city":"Deerfield","state":"WI","lat":43.0571,"long":-89.0862},{"zip":"53532","city":"Deforest","state":"WI","lat":42.8598,"long":-89.5001},{"zip":"53558","city":"Mc Farland","state":"WI","lat":43.0107,"long":-89.2948},{"zip":"53559","city":"Marshall","state":"WI","lat":43.1636,"long":-89.0753},{"zip":"53560","city":"Mazomanie","state":"WI","lat":43.1847,"long":-89.7636},{"zip":"53562","city":"Middleton","state":"WI","lat":43.1052,"long":-89.5073},{"zip":"53571","city":"Morrisonville","state":"WI","lat":43.2773,"long":-89.3564},{"zip":"53572","city":"Mount Horeb","state":"WI","lat":43.002,"long":-89.7414},{"zip":"53575","city":"Oregon","state":"WI","lat":42.9295,"long":-89.387},{"zip":"53589","city":"Stoughton","state":"WI","lat":42.929,"long":-89.224},{"zip":"53590","city":"Sun Prairie","state":"WI","lat":43.1869,"long":-89.2227},{"zip":"53593","city":"Verona","state":"WI","lat":42.9999,"long":-89.5522},{"zip":"53596","city":"Sun Prairie","state":"WI","lat":43.1924,"long":-89.2629},{"zip":"53597","city":"Waunakee","state":"WI","lat":43.1818,"long":-89.4532},{"zip":"53598","city":"Windsor","state":"WI","lat":43.2078,"long":-89.3418},{"zip":"53701","city":"Madison","state":"WI","lat":43.0696,"long":-89.4239},{"zip":"53702","city":"Madison","state":"WI","lat":43.0696,"long":-89.4239},{"zip":"53703","city":"Madison","state":"WI","lat":43.0775,"long":-89.3831},{"zip":"53704","city":"Madison","state":"WI","lat":43.1205,"long":-89.3523},{"zip":"53705","city":"Madison","state":"WI","lat":43.073,"long":-89.4528},{"zip":"53706","city":"Madison","state":"WI","lat":43.0769,"long":-89.4094},{"zip":"53707","city":"Madison","state":"WI","lat":43.0696,"long":-89.4239},{"zip":"53708","city":"Madison","state":"WI","lat":43.0696,"long":-89.4239},{"zip":"53711","city":"Madison","state":"WI","lat":43.0356,"long":-89.4526},{"zip":"53713","city":"Madison","state":"WI","lat":43.0372,"long":-89.3971},{"zip":"53714","city":"Madison","state":"WI","lat":43.0977,"long":-89.3118},{"zip":"53715","city":"Madison","state":"WI","lat":43.0653,"long":-89.4},{"zip":"53716","city":"Madison","state":"WI","lat":43.0631,"long":-89.3133},{"zip":"53717","city":"Madison","state":"WI","lat":43.0736,"long":-89.508},{"zip":"53718","city":"Madison","state":"WI","lat":43.0984,"long":-89.2734},{"zip":"53719","city":"Madison","state":"WI","lat":43.0321,"long":-89.4993},{"zip":"53725","city":"Madison","state":"WI","lat":43.0696,"long":-89.4239},{"zip":"53726","city":"Madison","state":"WI","lat":43.0696,"long":-89.4239},{"zip":"53744","city":"Madison","state":"WI","lat":43.0696,"long":-89.4239},{"zip":"53774","city":"Madison","state":"WI","lat":43.0469,"long":-89.374},{"zip":"53777","city":"Madison","state":"WI","lat":43.0696,"long":-89.4239},{"zip":"53778","city":"Madison","state":"WI","lat":43.0696,"long":-89.4239},{"zip":"53779","city":"Madison","state":"WI","lat":43.0982,"long":-89.3242},{"zip":"53782","city":"Madison","state":"WI","lat":43.0696,"long":-89.4239},{"zip":"53783","city":"Madison","state":"WI","lat":43.1596,"long":-89.2852},{"zip":"53784","city":"Madison","state":"WI","lat":43.0489,"long":-89.3384},{"zip":"53785","city":"Madison","state":"WI","lat":43.0696,"long":-89.4239},{"zip":"53786","city":"Madison","state":"WI","lat":43.0696,"long":-89.4239},{"zip":"53788","city":"Madison","state":"WI","lat":43.0767,"long":-89.3763},{"zip":"53789","city":"Madison","state":"WI","lat":43.0696,"long":-89.4239},{"zip":"53790","city":"Madison","state":"WI","lat":43.0696,"long":-89.4239},{"zip":"53791","city":"Madison","state":"WI","lat":43.0696,"long":-89.4239},{"zip":"53792","city":"Madison","state":"WI","lat":43.0696,"long":-89.4239},{"zip":"53793","city":"Madison","state":"WI","lat":43.0696,"long":-89.4239},{"zip":"53794","city":"Madison","state":"WI","lat":43.0696,"long":-89.4239},{"zip":"53003","city":"Ashippun","state":"WI","lat":43.2119,"long":-88.5162},{"zip":"53006","city":"Brownsville","state":"WI","lat":43.6028,"long":-88.523},{"zip":"53016","city":"Clyman","state":"WI","lat":43.3107,"long":-88.7144},{"zip":"53032","city":"Horicon","state":"WI","lat":43.4469,"long":-88.631},{"zip":"53034","city":"Hustisford","state":"WI","lat":43.3305,"long":-88.603},{"zip":"53035","city":"Iron Ridge","state":"WI","lat":43.3934,"long":-88.5441},{"zip":"53039","city":"Juneau","state":"WI","lat":43.3792,"long":-88.6845},{"zip":"53047","city":"Lebanon","state":"WI","lat":43.2568,"long":-88.6281},{"zip":"53048","city":"Lomira","state":"WI","lat":43.5795,"long":-88.4513},{"zip":"53050","city":"Mayville","state":"WI","lat":43.5045,"long":-88.5451},{"zip":"53059","city":"Neosho","state":"WI","lat":43.2978,"long":-88.5205},{"zip":"53078","city":"Rubicon","state":"WI","lat":43.3121,"long":-88.4528},{"zip":"53091","city":"Theresa","state":"WI","lat":43.5045,"long":-88.4478},{"zip":"53098","city":"Watertown","state":"WI","lat":43.2764,"long":-88.7154},{"zip":"53099","city":"Woodland","state":"WI","lat":43.3703,"long":-88.5187},{"zip":"53557","city":"Lowell","state":"WI","lat":43.342,"long":-88.7873},{"zip":"53579","city":"Reeseville","state":"WI","lat":43.3013,"long":-88.8571},{"zip":"53916","city":"Beaver Dam","state":"WI","lat":43.4616,"long":-88.8407},{"zip":"53922","city":"Burnett","state":"WI","lat":43.5116,"long":-88.7176},{"zip":"53933","city":"Fox Lake","state":"WI","lat":43.5815,"long":-88.9041},{"zip":"53956","city":"Randolph","state":"WI","lat":43.5397,"long":-89.003},{"zip":"53963","city":"Waupun","state":"WI","lat":43.6324,"long":-88.7373},{"zip":"53010","city":"Campbellsport","state":"WI","lat":43.6042,"long":-88.2729},{"zip":"53019","city":"Eden","state":"WI","lat":43.6959,"long":-88.3266},{"zip":"53049","city":"Malone","state":"WI","lat":43.8753,"long":-88.2871},{"zip":"53057","city":"Mount Calvary","state":"WI","lat":43.8142,"long":-88.2399},{"zip":"53065","city":"Oakfield","state":"WI","lat":43.6864,"long":-88.5569},{"zip":"53079","city":"Saint Cloud","state":"WI","lat":43.8074,"long":-88.1845},{"zip":"53919","city":"Brandon","state":"WI","lat":43.7258,"long":-88.7841},{"zip":"53931","city":"Fairwater","state":"WI","lat":43.7475,"long":-88.8665},{"zip":"53518","city":"Blue River","state":"WI","lat":43.2366,"long":-90.5873},{"zip":"53554","city":"Livingston","state":"WI","lat":42.9044,"long":-90.442},{"zip":"53569","city":"Montfort","state":"WI","lat":42.9757,"long":-90.4447},{"zip":"53573","city":"Muscoda","state":"WI","lat":43.2074,"long":-90.457},{"zip":"53801","city":"Bagley","state":"WI","lat":42.9207,"long":-91.0685},{"zip":"53802","city":"Beetown","state":"WI","lat":42.795,"long":-90.8854},{"zip":"53804","city":"Bloomington","state":"WI","lat":42.8726,"long":-90.9099},{"zip":"53805","city":"Boscobel","state":"WI","lat":43.1393,"long":-90.7061},{"zip":"53806","city":"Cassville","state":"WI","lat":42.7288,"long":-90.9608},{"zip":"53807","city":"Cuba City","state":"WI","lat":42.5991,"long":-90.4749},{"zip":"53808","city":"Dickeyville","state":"WI","lat":42.6263,"long":-90.5931},{"zip":"53809","city":"Fennimore","state":"WI","lat":42.9886,"long":-90.655},{"zip":"53810","city":"Glen Haven","state":"WI","lat":42.8204,"long":-91.0005},{"zip":"53811","city":"Hazel Green","state":"WI","lat":42.5359,"long":-90.5118},{"zip":"53812","city":"Kieler","state":"WI","lat":42.5814,"long":-90.6026},{"zip":"53813","city":"Lancaster","state":"WI","lat":42.8445,"long":-90.7109},{"zip":"53816","city":"Mount Hope","state":"WI","lat":42.9689,"long":-90.8665},{"zip":"53817","city":"Patch Grove","state":"WI","lat":42.9422,"long":-90.9646},{"zip":"53818","city":"Platteville","state":"WI","lat":42.7393,"long":-90.4854},{"zip":"53820","city":"Potosi","state":"WI","lat":42.6884,"long":-90.7002},{"zip":"53824","city":"Sinsinawa","state":"WI","lat":42.5236,"long":-90.5393},{"zip":"53825","city":"Stitzer","state":"WI","lat":42.9214,"long":-90.6079},{"zip":"53827","city":"Woodman","state":"WI","lat":43.0577,"long":-90.8245},{"zip":"53502","city":"Albany","state":"WI","lat":42.7155,"long":-89.4357},{"zip":"53520","city":"Brodhead","state":"WI","lat":42.6111,"long":-89.3714},{"zip":"53521","city":"Brooklyn","state":"WI","lat":42.8423,"long":-89.3818},{"zip":"53522","city":"Browntown","state":"WI","lat":42.5579,"long":-89.7816},{"zip":"53550","city":"Juda","state":"WI","lat":42.5679,"long":-89.5026},{"zip":"53566","city":"Monroe","state":"WI","lat":42.5991,"long":-89.6403},{"zip":"53570","city":"Monticello","state":"WI","lat":42.7415,"long":-89.6081},{"zip":"53574","city":"New Glarus","state":"WI","lat":42.8143,"long":-89.6437},{"zip":"53926","city":"Dalton","state":"WI","lat":43.6718,"long":-89.1918},{"zip":"53939","city":"Kingston","state":"WI","lat":43.6911,"long":-89.1302},{"zip":"53946","city":"Markesan","state":"WI","lat":43.714,"long":-89.007},{"zip":"53947","city":"Marquette","state":"WI","lat":43.7459,"long":-89.1397},{"zip":"53503","city":"Arena","state":"WI","lat":43.1521,"long":-89.9386},{"zip":"53506","city":"Avoca","state":"WI","lat":43.1571,"long":-90.2889},{"zip":"53507","city":"Barneveld","state":"WI","lat":43.0158,"long":-89.9042},{"zip":"53526","city":"Cobb","state":"WI","lat":42.966,"long":-90.3324},{"zip":"53533","city":"Dodgeville","state":"WI","lat":42.9698,"long":-90.1404},{"zip":"53535","city":"Edmund","state":"WI","lat":42.9675,"long":-90.2646},{"zip":"53543","city":"Highland","state":"WI","lat":43.0524,"long":-90.365},{"zip":"53544","city":"Hollandale","state":"WI","lat":42.8773,"long":-89.913},{"zip":"53553","city":"Linden","state":"WI","lat":42.9184,"long":-90.2797},{"zip":"53565","city":"Mineral Point","state":"WI","lat":42.8547,"long":-90.1646},{"zip":"53580","city":"Rewey","state":"WI","lat":42.8594,"long":-90.3804},{"zip":"53582","city":"Ridgeway","state":"WI","lat":43.0077,"long":-89.9889},{"zip":"53595","city":"Dodgeville","state":"WI","lat":42.9761,"long":-90.1413},{"zip":"53036","city":"Ixonia","state":"WI","lat":43.1477,"long":-88.5886},{"zip":"53038","city":"Johnson Creek","state":"WI","lat":43.0751,"long":-88.7836},{"zip":"53094","city":"Watertown","state":"WI","lat":43.193,"long":-88.7185},{"zip":"53137","city":"Helenville","state":"WI","lat":43.009,"long":-88.6726},{"zip":"53156","city":"Palmyra","state":"WI","lat":42.8793,"long":-88.5903},{"zip":"53178","city":"Sullivan","state":"WI","lat":42.9982,"long":-88.6026},{"zip":"53538","city":"Fort Atkinson","state":"WI","lat":42.9229,"long":-88.8467},{"zip":"53549","city":"Jefferson","state":"WI","lat":43.0006,"long":-88.8078},{"zip":"53551","city":"Lake Mills","state":"WI","lat":43.0816,"long":-88.9133},{"zip":"53594","city":"Waterloo","state":"WI","lat":43.1832,"long":-88.9838},{"zip":"53929","city":"Elroy","state":"WI","lat":43.7516,"long":-90.2889},{"zip":"53944","city":"Lyndon Station","state":"WI","lat":43.6899,"long":-89.8915},{"zip":"53948","city":"Mauston","state":"WI","lat":43.7934,"long":-90.0641},{"zip":"53950","city":"New Lisbon","state":"WI","lat":43.8877,"long":-90.1524},{"zip":"53962","city":"Union Center","state":"WI","lat":43.6853,"long":-90.2668},{"zip":"53968","city":"Wonewoc","state":"WI","lat":43.6285,"long":-90.2394},{"zip":"53101","city":"Bassett","state":"WI","lat":42.5406,"long":-88.2279},{"zip":"53102","city":"Benet Lake","state":"WI","lat":42.5001,"long":-88.08},{"zip":"53104","city":"Bristol","state":"WI","lat":42.5325,"long":-88.0478},{"zip":"53109","city":"Camp Lake","state":"WI","lat":42.536,"long":-88.1444},{"zip":"53140","city":"Kenosha","state":"WI","lat":42.6052,"long":-87.8299},{"zip":"53141","city":"Kenosha","state":"WI","lat":42.5847,"long":-87.8212},{"zip":"53142","city":"Kenosha","state":"WI","lat":42.556,"long":-87.8705},{"zip":"53143","city":"Kenosha","state":"WI","lat":42.5617,"long":-87.8301},{"zip":"53144","city":"Kenosha","state":"WI","lat":42.6058,"long":-87.8762},{"zip":"53152","city":"New Munster","state":"WI","lat":42.5746,"long":-88.2326},{"zip":"53158","city":"Pleasant Prairie","state":"WI","lat":42.5293,"long":-87.8855},{"zip":"53159","city":"Powers Lake","state":"WI","lat":42.5557,"long":-88.2969},{"zip":"53168","city":"Salem","state":"WI","lat":42.5709,"long":-88.1287},{"zip":"53170","city":"Silver Lake","state":"WI","lat":42.552,"long":-88.1608},{"zip":"53171","city":"Somers","state":"WI","lat":42.6423,"long":-87.9032},{"zip":"53179","city":"Trevor","state":"WI","lat":42.5201,"long":-88.1387},{"zip":"53181","city":"Twin Lakes","state":"WI","lat":42.5232,"long":-88.2573},{"zip":"53192","city":"Wilmot","state":"WI","lat":42.5128,"long":-88.182},{"zip":"53194","city":"Woodworth","state":"WI","lat":42.5581,"long":-88.0012},{"zip":"53504","city":"Argyle","state":"WI","lat":42.6955,"long":-89.8598},{"zip":"53510","city":"Belmont","state":"WI","lat":42.7308,"long":-90.3359},{"zip":"53516","city":"Blanchardville","state":"WI","lat":42.8062,"long":-89.8555},{"zip":"53530","city":"Darlington","state":"WI","lat":42.6878,"long":-90.1106},{"zip":"53541","city":"Gratiot","state":"WI","lat":42.5759,"long":-90.0243},{"zip":"53586","city":"Shullsburg","state":"WI","lat":42.5786,"long":-90.2266},{"zip":"53587","city":"South Wayne","state":"WI","lat":42.5822,"long":-89.8888},{"zip":"53599","city":"Woodford","state":"WI","lat":42.6493,"long":-89.8622},{"zip":"53803","city":"Benton","state":"WI","lat":42.5545,"long":-90.3508},{"zip":"53015","city":"Cleveland","state":"WI","lat":43.9217,"long":-87.7673},{"zip":"53042","city":"Kiel","state":"WI","lat":43.9341,"long":-87.9956},{"zip":"53063","city":"Newton","state":"WI","lat":43.9836,"long":-87.7848},{"zip":"53920","city":"Briggsville","state":"WI","lat":43.6759,"long":-89.5803},{"zip":"53930","city":"Endeavor","state":"WI","lat":43.6963,"long":-89.4617},{"zip":"53949","city":"Montello","state":"WI","lat":43.769,"long":-89.3586},{"zip":"53952","city":"Oxford","state":"WI","lat":43.7799,"long":-89.5632},{"zip":"53953","city":"Packwaukee","state":"WI","lat":43.7644,"long":-89.4576},{"zip":"53964","city":"Westfield","state":"WI","lat":43.8968,"long":-89.502},{"zip":"53110","city":"Cudahy","state":"WI","lat":42.949,"long":-87.862},{"zip":"53129","city":"Greendale","state":"WI","lat":42.9373,"long":-87.9943},{"zip":"53130","city":"Hales Corners","state":"WI","lat":42.941,"long":-88.0503},{"zip":"53132","city":"Franklin","state":"WI","lat":42.9017,"long":-88.0086},{"zip":"53154","city":"Oak Creek","state":"WI","lat":42.8892,"long":-87.9027},{"zip":"53172","city":"South Milwaukee","state":"WI","lat":42.9105,"long":-87.8646},{"zip":"53201","city":"Milwaukee","state":"WI","lat":43.0389,"long":-87.9065},{"zip":"53202","city":"Milwaukee","state":"WI","lat":43.0506,"long":-87.8968},{"zip":"53203","city":"Milwaukee","state":"WI","lat":43.0403,"long":-87.9154},{"zip":"53204","city":"Milwaukee","state":"WI","lat":43.0158,"long":-87.9317},{"zip":"53205","city":"Milwaukee","state":"WI","lat":43.0528,"long":-87.9353},{"zip":"53206","city":"Milwaukee","state":"WI","lat":43.0753,"long":-87.9347},{"zip":"53207","city":"Milwaukee","state":"WI","lat":42.9751,"long":-87.8947},{"zip":"53208","city":"Milwaukee","state":"WI","lat":43.0488,"long":-87.9625},{"zip":"53209","city":"Milwaukee","state":"WI","lat":43.1188,"long":-87.9478},{"zip":"53210","city":"Milwaukee","state":"WI","lat":43.0685,"long":-87.9715},{"zip":"53211","city":"Milwaukee","state":"WI","lat":43.082,"long":-87.8895},{"zip":"53212","city":"Milwaukee","state":"WI","lat":43.0712,"long":-87.9084},{"zip":"53213","city":"Milwaukee","state":"WI","lat":43.0488,"long":-88.0015},{"zip":"53214","city":"Milwaukee","state":"WI","lat":43.0215,"long":-88.0176},{"zip":"53215","city":"Milwaukee","state":"WI","lat":43.006,"long":-87.9429},{"zip":"53216","city":"Milwaukee","state":"WI","lat":43.0859,"long":-87.9742},{"zip":"53217","city":"Milwaukee","state":"WI","lat":43.1409,"long":-87.9073},{"zip":"53218","city":"Milwaukee","state":"WI","lat":43.1122,"long":-87.9932},{"zip":"53219","city":"Milwaukee","state":"WI","lat":42.9959,"long":-87.9944},{"zip":"53220","city":"Milwaukee","state":"WI","lat":42.9559,"long":-87.9933},{"zip":"53221","city":"Milwaukee","state":"WI","lat":42.9549,"long":-87.9447},{"zip":"53222","city":"Milwaukee","state":"WI","lat":43.0828,"long":-88.0269},{"zip":"53223","city":"Milwaukee","state":"WI","lat":43.1624,"long":-87.9898},{"zip":"53224","city":"Milwaukee","state":"WI","lat":43.1594,"long":-88.0327},{"zip":"53225","city":"Milwaukee","state":"WI","lat":43.1154,"long":-88.0346},{"zip":"53226","city":"Milwaukee","state":"WI","lat":43.0493,"long":-88.0414},{"zip":"53227","city":"Milwaukee","state":"WI","lat":42.9949,"long":-88.0364},{"zip":"53228","city":"Milwaukee","state":"WI","lat":42.9676,"long":-88.0434},{"zip":"53233","city":"Milwaukee","state":"WI","lat":43.0407,"long":-87.9357},{"zip":"53234","city":"Milwaukee","state":"WI","lat":43.0389,"long":-87.9065},{"zip":"53235","city":"Saint Francis","state":"WI","lat":42.9731,"long":-87.8687},{"zip":"53237","city":"Milwaukee","state":"WI","lat":43.0389,"long":-87.9065},{"zip":"53259","city":"Milwaukee","state":"WI","lat":43.0387,"long":-87.9139},{"zip":"53263","city":"Milwaukee","state":"WI","lat":43.0746,"long":-88.0604},{"zip":"53267","city":"Milwaukee","state":"WI","lat":43.044,"long":-87.9098},{"zip":"53268","city":"Milwaukee","state":"WI","lat":43.0385,"long":-87.9096},{"zip":"53274","city":"Milwaukee","state":"WI","lat":43.0389,"long":-87.9065},{"zip":"53278","city":"Milwaukee","state":"WI","lat":43.0389,"long":-87.9024},{"zip":"53288","city":"Milwaukee","state":"WI","lat":43.0406,"long":-87.9098},{"zip":"53290","city":"Milwaukee","state":"WI","lat":43.0373,"long":-87.914},{"zip":"53293","city":"Milwaukee","state":"WI","lat":43.0408,"long":-87.9191},{"zip":"53295","city":"Milwaukee","state":"WI","lat":43.0389,"long":-87.9065},{"zip":"53004","city":"Belgium","state":"WI","lat":43.4995,"long":-87.8509},{"zip":"53012","city":"Cedarburg","state":"WI","lat":43.3034,"long":-88.0029},{"zip":"53021","city":"Fredonia","state":"WI","lat":43.477,"long":-87.9612},{"zip":"53024","city":"Grafton","state":"WI","lat":43.3231,"long":-87.9521},{"zip":"53074","city":"Port Washington","state":"WI","lat":43.3955,"long":-87.8797},{"zip":"53080","city":"Saukville","state":"WI","lat":43.3913,"long":-87.9568},{"zip":"53092","city":"Mequon","state":"WI","lat":43.2364,"long":-87.9845},{"zip":"53097","city":"Mequon","state":"WI","lat":43.2461,"long":-88.0046},{"zip":"53105","city":"Burlington","state":"WI","lat":42.666,"long":-88.2749},{"zip":"53108","city":"Caledonia","state":"WI","lat":42.8295,"long":-87.9228},{"zip":"53126","city":"Franksville","state":"WI","lat":42.7859,"long":-87.9873},{"zip":"53139","city":"Kansasville","state":"WI","lat":42.7012,"long":-88.118},{"zip":"53167","city":"Rochester","state":"WI","lat":42.7414,"long":-88.2243},{"zip":"53177","city":"Sturtevant","state":"WI","lat":42.6967,"long":-87.9031},{"zip":"53182","city":"Union Grove","state":"WI","lat":42.6896,"long":-88.039},{"zip":"53185","city":"Waterford","state":"WI","lat":42.7632,"long":-88.1974},{"zip":"53401","city":"Racine","state":"WI","lat":42.7272,"long":-87.676},{"zip":"53402","city":"Racine","state":"WI","lat":42.7726,"long":-87.796},{"zip":"53403","city":"Racine","state":"WI","lat":42.706,"long":-87.8014},{"zip":"53404","city":"Racine","state":"WI","lat":42.7433,"long":-87.8053},{"zip":"53405","city":"Racine","state":"WI","lat":42.7161,"long":-87.8233},{"zip":"53406","city":"Racine","state":"WI","lat":42.7242,"long":-87.8551},{"zip":"53407","city":"Racine","state":"WI","lat":42.7312,"long":-87.7828},{"zip":"53408","city":"Racine","state":"WI","lat":42.7272,"long":-87.676},{"zip":"53540","city":"Gotham","state":"WI","lat":43.2233,"long":-90.2915},{"zip":"53556","city":"Lone Rock","state":"WI","lat":43.2208,"long":-90.2352},{"zip":"53581","city":"Richland Center","state":"WI","lat":43.3661,"long":-90.4302},{"zip":"53584","city":"Sextonville","state":"WI","lat":43.2794,"long":-90.2876},{"zip":"53924","city":"Cazenovia","state":"WI","lat":43.4987,"long":-90.2796},{"zip":"53501","city":"Afton","state":"WI","lat":42.6055,"long":-89.0704},{"zip":"53505","city":"Avalon","state":"WI","lat":42.6593,"long":-88.8307},{"zip":"53511","city":"Beloit","state":"WI","lat":42.562,"long":-89.086},{"zip":"53512","city":"Beloit","state":"WI","lat":42.5083,"long":-89.0318},{"zip":"53525","city":"Clinton","state":"WI","lat":42.5535,"long":-88.8705},{"zip":"53534","city":"Edgerton","state":"WI","lat":42.8386,"long":-89.0642},{"zip":"53536","city":"Evansville","state":"WI","lat":42.7732,"long":-89.2877},{"zip":"53537","city":"Footville","state":"WI","lat":42.6726,"long":-89.2112},{"zip":"53542","city":"Hanover","state":"WI","lat":42.6323,"long":-89.1594},{"zip":"53545","city":"Janesville","state":"WI","lat":42.7355,"long":-89.0405},{"zip":"53546","city":"Janesville","state":"WI","lat":42.6683,"long":-89.0025},{"zip":"53547","city":"Janesville","state":"WI","lat":42.7294,"long":-89.0301},{"zip":"53548","city":"Janesville","state":"WI","lat":42.6854,"long":-89.1287},{"zip":"53563","city":"Milton","state":"WI","lat":42.7791,"long":-88.9531},{"zip":"53576","city":"Orfordville","state":"WI","lat":42.6278,"long":-89.2533},{"zip":"53561","city":"Merrimac","state":"WI","lat":43.3855,"long":-89.6323},{"zip":"53577","city":"Plain","state":"WI","lat":43.2927,"long":-90.0558},{"zip":"53578","city":"Prairie Du Sac","state":"WI","lat":43.2956,"long":-89.7452},{"zip":"53583","city":"Sauk City","state":"WI","lat":43.2686,"long":-89.7418},{"zip":"53588","city":"Spring Green","state":"WI","lat":43.1883,"long":-90.0676},{"zip":"53913","city":"Baraboo","state":"WI","lat":43.4825,"long":-89.7462},{"zip":"53937","city":"Hillpoint","state":"WI","lat":43.3951,"long":-90.1588},{"zip":"53940","city":"Lake Delton","state":"WI","lat":43.5939,"long":-89.7912},{"zip":"53941","city":"La Valle","state":"WI","lat":43.5699,"long":-90.128},{"zip":"53942","city":"Lime Ridge","state":"WI","lat":43.4682,"long":-90.1615},{"zip":"53943","city":"Loganville","state":"WI","lat":43.405,"long":-90.0337},{"zip":"53951","city":"North Freedom","state":"WI","lat":43.4106,"long":-89.849},{"zip":"53958","city":"Reedsburg","state":"WI","lat":43.3938,"long":-89.9559},{"zip":"53959","city":"Reedsburg","state":"WI","lat":43.5316,"long":-89.9959},{"zip":"53961","city":"Rock Springs","state":"WI","lat":43.4681,"long":-89.9218},{"zip":"53001","city":"Adell","state":"WI","lat":43.6151,"long":-88.0254},{"zip":"53011","city":"Cascade","state":"WI","lat":43.6591,"long":-88.0947},{"zip":"53013","city":"Cedar Grove","state":"WI","lat":43.5751,"long":-87.8401},{"zip":"53020","city":"Elkhart Lake","state":"WI","lat":43.8436,"long":-87.9767},{"zip":"53023","city":"Glenbeulah","state":"WI","lat":43.7666,"long":-88.1049},{"zip":"53026","city":"Greenbush","state":"WI","lat":43.7767,"long":-88.084},{"zip":"53031","city":"Hingham","state":"WI","lat":43.6394,"long":-87.9157},{"zip":"53044","city":"Kohler","state":"WI","lat":43.7381,"long":-87.7867},{"zip":"53070","city":"Oostburg","state":"WI","lat":43.6229,"long":-87.797},{"zip":"53073","city":"Plymouth","state":"WI","lat":43.7526,"long":-87.9779},{"zip":"53075","city":"Random Lake","state":"WI","lat":43.5672,"long":-87.9816},{"zip":"53081","city":"Sheboygan","state":"WI","lat":43.741,"long":-87.7247},{"zip":"53082","city":"Sheboygan","state":"WI","lat":43.7183,"long":-87.6187},{"zip":"53083","city":"Sheboygan","state":"WI","lat":43.8176,"long":-87.766},{"zip":"53085","city":"Sheboygan Falls","state":"WI","lat":43.7266,"long":-87.8242},{"zip":"53093","city":"Waldo","state":"WI","lat":43.6571,"long":-87.9722},{"zip":"53114","city":"Darien","state":"WI","lat":42.5973,"long":-88.7508},{"zip":"53115","city":"Delavan","state":"WI","lat":42.6227,"long":-88.6277},{"zip":"53120","city":"East Troy","state":"WI","lat":42.8035,"long":-88.4092},{"zip":"53121","city":"Elkhorn","state":"WI","lat":42.7009,"long":-88.5462},{"zip":"53125","city":"Fontana","state":"WI","lat":42.5429,"long":-88.5684},{"zip":"53128","city":"Genoa City","state":"WI","lat":42.5323,"long":-88.3485},{"zip":"53138","city":"Honey Creek","state":"WI","lat":42.7483,"long":-88.3079},{"zip":"53147","city":"Lake Geneva","state":"WI","lat":42.5881,"long":-88.4554},{"zip":"53148","city":"Lyons","state":"WI","lat":42.6487,"long":-88.359},{"zip":"53157","city":"Pell Lake","state":"WI","lat":42.54,"long":-88.3582},{"zip":"53176","city":"Springfield","state":"WI","lat":42.636,"long":-88.416},{"zip":"53184","city":"Walworth","state":"WI","lat":42.535,"long":-88.6027},{"zip":"53190","city":"Whitewater","state":"WI","lat":42.8272,"long":-88.7429},{"zip":"53191","city":"Williams Bay","state":"WI","lat":42.5767,"long":-88.5431},{"zip":"53195","city":"Zenda","state":"WI","lat":42.5136,"long":-88.4843},{"zip":"53585","city":"Sharon","state":"WI","lat":42.5194,"long":-88.7265},{"zip":"53002","city":"Allenton","state":"WI","lat":43.4681,"long":-88.3539},{"zip":"53017","city":"Colgate","state":"WI","lat":43.1998,"long":-88.2406},{"zip":"53022","city":"Germantown","state":"WI","lat":43.2189,"long":-88.1165},{"zip":"53027","city":"Hartford","state":"WI","lat":43.3157,"long":-88.3707},{"zip":"53033","city":"Hubertus","state":"WI","lat":43.2343,"long":-88.2311},{"zip":"53037","city":"Jackson","state":"WI","lat":43.3252,"long":-88.1626},{"zip":"53040","city":"Kewaskum","state":"WI","lat":43.5214,"long":-88.1925},{"zip":"53060","city":"Newburg","state":"WI","lat":43.4338,"long":-88.0623},{"zip":"53076","city":"Richfield","state":"WI","lat":43.2739,"long":-88.2155},{"zip":"53086","city":"Slinger","state":"WI","lat":43.3322,"long":-88.2824},{"zip":"53090","city":"West Bend","state":"WI","lat":43.4438,"long":-88.1963},{"zip":"53095","city":"West Bend","state":"WI","lat":43.4224,"long":-88.1845},{"zip":"53005","city":"Brookfield","state":"WI","lat":43.0622,"long":-88.098},{"zip":"53007","city":"Butler","state":"WI","lat":43.1054,"long":-88.071},{"zip":"53008","city":"Brookfield","state":"WI","lat":43.0606,"long":-88.1065},{"zip":"53018","city":"Delafield","state":"WI","lat":43.05,"long":-88.3972},{"zip":"53029","city":"Hartland","state":"WI","lat":43.1172,"long":-88.3446},{"zip":"53045","city":"Brookfield","state":"WI","lat":43.0668,"long":-88.1469},{"zip":"53046","city":"Lannon","state":"WI","lat":43.1497,"long":-88.1639},{"zip":"53051","city":"Menomonee Falls","state":"WI","lat":43.1602,"long":-88.1128},{"zip":"53052","city":"Menomonee Falls","state":"WI","lat":43.1789,"long":-88.1173},{"zip":"53056","city":"Merton","state":"WI","lat":43.146,"long":-88.3097},{"zip":"53058","city":"Nashotah","state":"WI","lat":43.1118,"long":-88.4089},{"zip":"53064","city":"North Lake","state":"WI","lat":43.1561,"long":-88.3707},{"zip":"53066","city":"Oconomowoc","state":"WI","lat":43.1095,"long":-88.4862},{"zip":"53069","city":"Okauchee","state":"WI","lat":43.113,"long":-88.4323},{"zip":"53072","city":"Pewaukee","state":"WI","lat":43.0788,"long":-88.2729},{"zip":"53089","city":"Sussex","state":"WI","lat":43.1441,"long":-88.2271},{"zip":"53103","city":"Big Bend","state":"WI","lat":42.8885,"long":-88.2122},{"zip":"53118","city":"Dousman","state":"WI","lat":43.0142,"long":-88.4726},{"zip":"53119","city":"Eagle","state":"WI","lat":42.8809,"long":-88.4674},{"zip":"53122","city":"Elm Grove","state":"WI","lat":43.0479,"long":-88.0854},{"zip":"53127","city":"Genesee Depot","state":"WI","lat":42.9601,"long":-88.3745},{"zip":"53146","city":"New Berlin","state":"WI","lat":42.974,"long":-88.1553},{"zip":"53149","city":"Mukwonago","state":"WI","lat":42.8821,"long":-88.3451},{"zip":"53150","city":"Muskego","state":"WI","lat":42.9047,"long":-88.1214},{"zip":"53151","city":"New Berlin","state":"WI","lat":42.9822,"long":-88.0946},{"zip":"53153","city":"North Prairie","state":"WI","lat":42.9385,"long":-88.395},{"zip":"53183","city":"Wales","state":"WI","lat":43.0088,"long":-88.3787},{"zip":"53186","city":"Waukesha","state":"WI","lat":42.9993,"long":-88.2196},{"zip":"53187","city":"Waukesha","state":"WI","lat":43.0117,"long":-88.2315},{"zip":"53188","city":"Waukesha","state":"WI","lat":43.0128,"long":-88.2705},{"zip":"53189","city":"Waukesha","state":"WI","lat":42.9516,"long":-88.2963}]
