[{"zip":"53201","city":"Milwaukee","state":"WI","lat":43.0389,"long":-87.9065},{"zip":"53202","city":"Milwaukee","state":"WI","lat":43.0506,"long":-87.8968},{"zip":"53203","city":"Milwaukee","state":"WI","lat":43.0403,"long":-87.9154},{"zip":"53204","city":"Milwaukee","state":"WI","lat":43.0158,"long":-87.9317},{"zip":"53205","city":"Milwaukee","state":"WI","lat":43.0528,"long":-87.9353},{"zip":"53206","city":"Milwaukee","state":"WI","lat":43.0753,"long":-87.9347},{"zip":"53207","city":"Milwaukee","state":"WI","lat":42.9751,"long":-87.8947},{"zip":"53208","city":"Milwaukee","state":"WI","lat":43.0488,"long":-87.9625},{"zip":"53209","city":"Milwaukee","state":"WI","lat":43.1188,"long":-87.9478},{"zip":"53210","city":"Milwaukee","state":"WI","lat":43.0685,"long":-87.9715},{"zip":"53211","city":"Milwaukee","state":"WI","lat":43.082,"long":-87.8895},{"zip":"53212","city":"Milwaukee","state":"WI","lat":43.0712,"long":-87.9084},{"zip":"53213","city":"Milwaukee","state":"WI","lat":43.0488,"long":-88.0015},{"zip":"53214","city":"Milwaukee","state":"WI","lat":43.0215,"long":-88.0176},{"zip":"53215","city":"Milwaukee","state":"WI","lat":43.006,"long":-87.9429},{"zip":"53216","city":"Milwaukee","state":"WI","lat":43.0859,"long":-87.9742},{"zip":"53217","city":"Milwaukee","state":"WI","lat":43.1409,"long":-87.9073},{"zip":"53218","city":"Milwaukee","state":"WI","lat":43.1122,"long":-87.9932},{"zip":"53219","city":"Milwaukee","state":"WI","lat":42.9959,"long":-87.9944},{"zip":"53220","city":"Milwaukee","state":"WI","lat":42.9559,"long":-87.9933},{"zip":"53221","city":"Milwaukee","state":"WI","lat":42.9549,"long":-87.9447},{"zip":"53222","city":"Milwaukee","state":"WI","lat":43.0828,"long":-88.0269},{"zip":"53223","city":"Milwaukee","state":"WI","lat":43.1624,"long":-87.9898},{"zip":"53224","city":"Milwaukee","state":"WI","lat":43.1594,"long":-88.0327},{"zip":"53225","city":"Milwaukee","state":"WI","lat":43.1154,"long":-88.0346},{"zip":"53226","city":"Milwaukee","state":"WI","lat":43.0493,"long":-88.0414},{"zip":"53227","city":"Milwaukee","state":"WI","lat":42.9949,"long":-88.0364},{"zip":"53228","city":"Milwaukee","state":"WI","lat":42.9676,"long":-88.0434},{"zip":"53233","city":"Milwaukee","state":"WI","lat":43.0407,"long":-87.9357},{"zip":"53234","city":"Milwaukee","state":"WI","lat":43.0389,"long":-87.9065},{"zip":"53235","city":"Saint Francis","state":"WI","lat":42.9731,"long":-87.8687},{"zip":"53237","city":"Milwaukee","state":"WI","lat":43.0389,"long":-87.9065},{"zip":"53259","city":"Milwaukee","state":"WI","lat":43.0387,"long":-87.9139},{"zip":"53263","city":"Milwaukee","state":"WI","lat":43.0746,"long":-88.0604},{"zip":"53267","city":"Milwaukee","state":"WI","lat":43.044,"long":-87.9098},{"zip":"53268","city":"Milwaukee","state":"WI","lat":43.0385,"long":-87.9096},{"zip":"53274","city":"Milwaukee","state":"WI","lat":43.0389,"long":-87.9065},{"zip":"53278","city":"Milwaukee","state":"WI","lat":43.0389,"long":-87.9024},{"zip":"53288","city":"Milwaukee","state":"WI","lat":43.0406,"long":-87.9098},{"zip":"53290","city":"Milwaukee","state":"WI","lat":43.0373,"long":-87.914},{"zip":"53293","city":"Milwaukee","state":"WI","lat":43.0408,"long":-87.9191},{"zip":"53295","city":"Milwaukee","state":"WI","lat":43.0389,"long":-87.9065}]
