[{"zip":"53821","city":"Prairie Du Chien","state":"WI","lat":43.0426,"long":-91.1193},{"zip":"53826","city":"Wauzeka","state":"WI","lat":43.1143,"long":-90.9239},{"zip":"53801","city":"Bagley","state":"WI","lat":42.9207,"long":-91.0685},{"zip":"53802","city":"Beetown","state":"WI","lat":42.795,"long":-90.8854},{"zip":"53804","city":"Bloomington","state":"WI","lat":42.8726,"long":-90.9099},{"zip":"53805","city":"Boscobel","state":"WI","lat":43.1393,"long":-90.7061},{"zip":"53806","city":"Cassville","state":"WI","lat":42.7288,"long":-90.9608},{"zip":"53807","city":"Cuba City","state":"WI","lat":42.5991,"long":-90.4749},{"zip":"53808","city":"Dickeyville","state":"WI","lat":42.6263,"long":-90.5931},{"zip":"53809","city":"Fennimore","state":"WI","lat":42.9886,"long":-90.655},{"zip":"53810","city":"Glen Haven","state":"WI","lat":42.8204,"long":-91.0005},{"zip":"53811","city":"Hazel Green","state":"WI","lat":42.5359,"long":-90.5118},{"zip":"53812","city":"Kieler","state":"WI","lat":42.5814,"long":-90.6026},{"zip":"53813","city":"Lancaster","state":"WI","lat":42.8445,"long":-90.7109},{"zip":"53816","city":"Mount Hope","state":"WI","lat":42.9689,"long":-90.8665},{"zip":"53817","city":"Patch Grove","state":"WI","lat":42.9422,"long":-90.9646},{"zip":"53818","city":"Platteville","state":"WI","lat":42.7393,"long":-90.4854},{"zip":"53820","city":"Potosi","state":"WI","lat":42.6884,"long":-90.7002},{"zip":"53824","city":"Sinsinawa","state":"WI","lat":42.5236,"long":-90.5393},{"zip":"53825","city":"Stitzer","state":"WI","lat":42.9214,"long":-90.6079},{"zip":"53827","city":"Woodman","state":"WI","lat":43.0577,"long":-90.8245},{"zip":"53803","city":"Benton","state":"WI","lat":42.5545,"long":-90.3508}]
