[{"zip":"53910","city":"Adams","state":"WI","lat":43.8967,"long":-89.8219},{"zip":"53927","city":"Dellwood","state":"WI","lat":43.9555,"long":-89.9418},{"zip":"53934","city":"Friendship","state":"WI","lat":43.9896,"long":-89.8149},{"zip":"53936","city":"Grand Marsh","state":"WI","lat":43.8869,"long":-89.7062},{"zip":"53901","city":"Portage","state":"WI","lat":43.5501,"long":-89.4714},{"zip":"53911","city":"Arlington","state":"WI","lat":43.3269,"long":-89.3631},{"zip":"53923","city":"Cambria","state":"WI","lat":43.5724,"long":-89.1156},{"zip":"53925","city":"Columbus","state":"WI","lat":43.3315,"long":-89.0271},{"zip":"53928","city":"Doylestown","state":"WI","lat":43.4266,"long":-89.1491},{"zip":"53932","city":"Fall River","state":"WI","lat":43.4008,"long":-89.0625},{"zip":"53935","city":"Friesland","state":"WI","lat":43.5901,"long":-89.0593},{"zip":"53954","city":"Pardeeville","state":"WI","lat":43.534,"long":-89.3265},{"zip":"53955","city":"Poynette","state":"WI","lat":43.4013,"long":-89.4189},{"zip":"53957","city":"Randolph","state":"WI","lat":43.5352,"long":-89.0068},{"zip":"53960","city":"Rio","state":"WI","lat":43.4231,"long":-89.2354},{"zip":"53965","city":"Wisconsin Dells","state":"WI","lat":43.6508,"long":-89.7665},{"zip":"53969","city":"Wyocena","state":"WI","lat":43.4989,"long":-89.305},{"zip":"53916","city":"Beaver Dam","state":"WI","lat":43.4616,"long":-88.8407},{"zip":"53922","city":"Burnett","state":"WI","lat":43.5116,"long":-88.7176},{"zip":"53933","city":"Fox Lake","state":"WI","lat":43.5815,"long":-88.9041},{"zip":"53956","city":"Randolph","state":"WI","lat":43.5397,"long":-89.003},{"zip":"53963","city":"Waupun","state":"WI","lat":43.6324,"long":-88.7373},{"zip":"53919","city":"Brandon","state":"WI","lat":43.7258,"long":-88.7841},{"zip":"53931","city":"Fairwater","state":"WI","lat":43.7475,"long":-88.8665},{"zip":"53926","city":"Dalton","state":"WI","lat":43.6718,"long":-89.1918},{"zip":"53939","city":"Kingston","state":"WI","lat":43.6911,"long":-89.1302},{"zip":"53946","city":"Markesan","state":"WI","lat":43.714,"long":-89.007},{"zip":"53947","city":"Marquette","state":"WI","lat":43.7459,"long":-89.1397},{"zip":"53929","city":"Elroy","state":"WI","lat":43.7516,"long":-90.2889},{"zip":"53944","city":"Lyndon Station","state":"WI","lat":43.6899,"long":-89.8915},{"zip":"53948","city":"Mauston","state":"WI","lat":43.7934,"long":-90.0641},{"zip":"53950","city":"New Lisbon","state":"WI","lat":43.8877,"long":-90.1524},{"zip":"53962","city":"Union Center","state":"WI","lat":43.6853,"long":-90.2668},{"zip":"53968","city":"Wonewoc","state":"WI","lat":43.6285,"long":-90.2394},{"zip":"53920","city":"Briggsville","state":"WI","lat":43.6759,"long":-89.5803},{"zip":"53930","city":"Endeavor","state":"WI","lat":43.6963,"long":-89.4617},{"zip":"53949","city":"Montello","state":"WI","lat":43.769,"long":-89.3586},{"zip":"53952","city":"Oxford","state":"WI","lat":43.7799,"long":-89.5632},{"zip":"53953","city":"Packwaukee","state":"WI","lat":43.7644,"long":-89.4576},{"zip":"53964","city":"Westfield","state":"WI","lat":43.8968,"long":-89.502},{"zip":"53924","city":"Cazenovia","state":"WI","lat":43.4987,"long":-90.2796},{"zip":"53913","city":"Baraboo","state":"WI","lat":43.4825,"long":-89.7462},{"zip":"53937","city":"Hillpoint","state":"WI","lat":43.3951,"long":-90.1588},{"zip":"53940","city":"Lake Delton","state":"WI","lat":43.5939,"long":-89.7912},{"zip":"53941","city":"La Valle","state":"WI","lat":43.5699,"long":-90.128},{"zip":"53942","city":"Lime Ridge","state":"WI","lat":43.4682,"long":-90.1615},{"zip":"53943","city":"Loganville","state":"WI","lat":43.405,"long":-90.0337},{"zip":"53951","city":"North Freedom","state":"WI","lat":43.4106,"long":-89.849},{"zip":"53958","city":"Reedsburg","state":"WI","lat":43.3938,"long":-89.9559},{"zip":"53959","city":"Reedsburg","state":"WI","lat":43.5316,"long":-89.9959},{"zip":"53961","city":"Rock Springs","state":"WI","lat":43.4681,"long":-89.9218}]
