[{"zip":"54613","city":"Arkdale","state":"WI","lat":44.0529,"long":-89.8962},{"zip":"54514","city":"Butternut","state":"WI","lat":46.0184,"long":-90.4821},{"zip":"54517","city":"Clam Lake","state":"WI","lat":46.1638,"long":-90.9024},{"zip":"54527","city":"Glidden","state":"WI","lat":46.1337,"long":-90.5889},{"zip":"54546","city":"Mellen","state":"WI","lat":46.3007,"long":-90.6552},{"zip":"54806","city":"Ashland","state":"WI","lat":46.5586,"long":-90.7388},{"zip":"54846","city":"High Bridge","state":"WI","lat":46.3796,"long":-90.7383},{"zip":"54850","city":"La Pointe","state":"WI","lat":46.8467,"long":-90.6036},{"zip":"54855","city":"Marengo","state":"WI","lat":46.4071,"long":-90.84},{"zip":"54861","city":"Odanah","state":"WI","lat":46.5608,"long":-90.6197},{"zip":"54728","city":"Chetek","state":"WI","lat":45.317,"long":-91.6542},{"zip":"54733","city":"Dallas","state":"WI","lat":45.2549,"long":-91.8368},{"zip":"54762","city":"Prairie Farm","state":"WI","lat":45.2462,"long":-91.9742},{"zip":"54805","city":"Almena","state":"WI","lat":45.4195,"long":-92.0027},{"zip":"54812","city":"Barron","state":"WI","lat":45.4005,"long":-91.85},{"zip":"54813","city":"Barronett","state":"WI","lat":45.619,"long":-92.0196},{"zip":"54818","city":"Brill","state":"WI","lat":45.6027,"long":-91.6721},{"zip":"54822","city":"Cameron","state":"WI","lat":45.4038,"long":-91.731},{"zip":"54826","city":"Comstock","state":"WI","lat":45.4911,"long":-92.086},{"zip":"54829","city":"Cumberland","state":"WI","lat":45.5403,"long":-92.0297},{"zip":"54841","city":"Haugen","state":"WI","lat":45.6067,"long":-91.7786},{"zip":"54857","city":"Mikana","state":"WI","lat":45.6096,"long":-91.6196},{"zip":"54868","city":"Rice Lake","state":"WI","lat":45.5061,"long":-91.7382},{"zip":"54889","city":"Turtle Lake","state":"WI","lat":45.4213,"long":-92.1781},{"zip":"54814","city":"Bayfield","state":"WI","lat":46.8354,"long":-90.8217},{"zip":"54816","city":"Benoit","state":"WI","lat":46.5019,"long":-91.0769},{"zip":"54821","city":"Cable","state":"WI","lat":46.2172,"long":-91.2244},{"zip":"54827","city":"Cornucopia","state":"WI","lat":46.8372,"long":-91.0974},{"zip":"54832","city":"Drummond","state":"WI","lat":46.3119,"long":-91.2856},{"zip":"54839","city":"Grand View","state":"WI","lat":46.3577,"long":-91.1075},{"zip":"54844","city":"Herbster","state":"WI","lat":46.8213,"long":-91.2332},{"zip":"54847","city":"Iron River","state":"WI","lat":46.579,"long":-91.4211},{"zip":"54856","city":"Mason","state":"WI","lat":46.4399,"long":-91.1318},{"zip":"54865","city":"Port Wing","state":"WI","lat":46.762,"long":-91.392},{"zip":"54891","city":"Washburn","state":"WI","lat":46.6806,"long":-90.9095},{"zip":"54115","city":"De Pere","state":"WI","lat":44.4388,"long":-88.0806},{"zip":"54126","city":"Greenleaf","state":"WI","lat":44.2937,"long":-88.0275},{"zip":"54162","city":"Pulaski","state":"WI","lat":44.6611,"long":-88.2634},{"zip":"54173","city":"Suamico","state":"WI","lat":44.6435,"long":-88.0317},{"zip":"54180","city":"Wrightstown","state":"WI","lat":44.3264,"long":-88.1749},{"zip":"54208","city":"Denmark","state":"WI","lat":44.3594,"long":-87.827},{"zip":"54229","city":"New Franken","state":"WI","lat":44.5592,"long":-87.8235},{"zip":"54301","city":"Green Bay","state":"WI","lat":44.482,"long":-88.0205},{"zip":"54302","city":"Green Bay","state":"WI","lat":44.5025,"long":-87.9771},{"zip":"54303","city":"Green Bay","state":"WI","lat":44.5522,"long":-88.0788},{"zip":"54304","city":"Green Bay","state":"WI","lat":44.4975,"long":-88.0324},{"zip":"54305","city":"Green Bay","state":"WI","lat":44.4601,"long":-88.0074},{"zip":"54306","city":"Green Bay","state":"WI","lat":44.5192,"long":-88.0198},{"zip":"54307","city":"Green Bay","state":"WI","lat":44.4601,"long":-88.0074},{"zip":"54308","city":"Green Bay","state":"WI","lat":44.5192,"long":-88.0198},{"zip":"54311","city":"Green Bay","state":"WI","lat":44.4914,"long":-87.9267},{"zip":"54313","city":"Green Bay","state":"WI","lat":44.5463,"long":-88.1021},{"zip":"54324","city":"Green Bay","state":"WI","lat":44.4601,"long":-88.0074},{"zip":"54344","city":"Green Bay","state":"WI","lat":44.425,"long":-88.1113},{"zip":"54610","city":"Alma","state":"WI","lat":44.4294,"long":-91.8079},{"zip":"54622","city":"Cochrane","state":"WI","lat":44.2672,"long":-91.7715},{"zip":"54629","city":"Fountain City","state":"WI","lat":44.1364,"long":-91.6779},{"zip":"54743","city":"Gilmanton","state":"WI","lat":44.4708,"long":-91.676},{"zip":"54755","city":"Mondovi","state":"WI","lat":44.4877,"long":-91.6807},{"zip":"54756","city":"Nelson","state":"WI","lat":44.4295,"long":-92.0007},{"zip":"54830","city":"Danbury","state":"WI","lat":45.9726,"long":-92.293},{"zip":"54840","city":"Grantsburg","state":"WI","lat":45.7953,"long":-92.6935},{"zip":"54845","city":"Hertel","state":"WI","lat":45.8076,"long":-92.1404},{"zip":"54872","city":"Siren","state":"WI","lat":45.7821,"long":-92.3892},{"zip":"54893","city":"Webster","state":"WI","lat":45.874,"long":-92.3227},{"zip":"54110","city":"Brillion","state":"WI","lat":44.1779,"long":-88.0833},{"zip":"54123","city":"Forest Junction","state":"WI","lat":44.2125,"long":-88.1443},{"zip":"54129","city":"Hilbert","state":"WI","lat":44.1271,"long":-88.207},{"zip":"54160","city":"Potter","state":"WI","lat":44.1199,"long":-88.0965},{"zip":"54169","city":"Sherwood","state":"WI","lat":44.1764,"long":-88.2779},{"zip":"54724","city":"Bloomer","state":"WI","lat":45.1025,"long":-91.49},{"zip":"54726","city":"Boyd","state":"WI","lat":44.9437,"long":-91.0294},{"zip":"54727","city":"Cadott","state":"WI","lat":44.963,"long":-91.1699},{"zip":"54729","city":"Chippewa Falls","state":"WI","lat":44.9369,"long":-91.3929},{"zip":"54732","city":"Cornell","state":"WI","lat":45.1619,"long":-91.1733},{"zip":"54745","city":"Holcombe","state":"WI","lat":45.2513,"long":-91.133},{"zip":"54748","city":"Jim Falls","state":"WI","lat":45.0889,"long":-91.2568},{"zip":"54757","city":"New Auburn","state":"WI","lat":45.2356,"long":-91.5197},{"zip":"54768","city":"Stanley","state":"WI","lat":44.9689,"long":-90.9389},{"zip":"54774","city":"Chippewa Falls","state":"WI","lat":44.9369,"long":-91.3929},{"zip":"54405","city":"Abbotsford","state":"WI","lat":44.9641,"long":-90.2994},{"zip":"54420","city":"Chili","state":"WI","lat":44.6301,"long":-90.36},{"zip":"54421","city":"Colby","state":"WI","lat":44.9117,"long":-90.3144},{"zip":"54422","city":"Curtiss","state":"WI","lat":44.9602,"long":-90.4592},{"zip":"54425","city":"Dorchester","state":"WI","lat":45.0042,"long":-90.3596},{"zip":"54436","city":"Granton","state":"WI","lat":44.5606,"long":-90.4484},{"zip":"54437","city":"Greenwood","state":"WI","lat":44.7404,"long":-90.6229},{"zip":"54446","city":"Loyal","state":"WI","lat":44.7272,"long":-90.4922},{"zip":"54456","city":"Neillsville","state":"WI","lat":44.5494,"long":-90.6112},{"zip":"54460","city":"Owen","state":"WI","lat":44.9578,"long":-90.5469},{"zip":"54493","city":"Willard","state":"WI","lat":44.7274,"long":-90.7499},{"zip":"54498","city":"Withee","state":"WI","lat":44.9757,"long":-90.6049},{"zip":"54746","city":"Humbird","state":"WI","lat":44.5367,"long":-90.8883},{"zip":"54771","city":"Thorp","state":"WI","lat":44.9573,"long":-90.8029},{"zip":"54626","city":"Eastman","state":"WI","lat":43.1959,"long":-91.0193},{"zip":"54628","city":"Ferryville","state":"WI","lat":43.3959,"long":-91.0446},{"zip":"54631","city":"Gays Mills","state":"WI","lat":43.2936,"long":-90.8676},{"zip":"54640","city":"Lynxville","state":"WI","lat":43.2464,"long":-91.0562},{"zip":"54645","city":"Mount Sterling","state":"WI","lat":43.3153,"long":-90.9287},{"zip":"54654","city":"Seneca","state":"WI","lat":43.265,"long":-90.9585},{"zip":"54655","city":"Soldiers Grove","state":"WI","lat":43.3919,"long":-90.7663},{"zip":"54657","city":"Steuben","state":"WI","lat":43.1955,"long":-90.8609},{"zip":"54202","city":"Baileys Harbor","state":"WI","lat":45.0565,"long":-87.1676},{"zip":"54204","city":"Brussels","state":"WI","lat":44.7476,"long":-87.6225},{"zip":"54209","city":"Egg Harbor","state":"WI","lat":45.01,"long":-87.2805},{"zip":"54210","city":"Ellison Bay","state":"WI","lat":45.2572,"long":-87.0512},{"zip":"54211","city":"Ephraim","state":"WI","lat":45.1592,"long":-87.171},{"zip":"54212","city":"Fish Creek","state":"WI","lat":45.1155,"long":-87.2064},{"zip":"54213","city":"Forestville","state":"WI","lat":44.6996,"long":-87.5215},{"zip":"54226","city":"Maplewood","state":"WI","lat":44.7475,"long":-87.4793},{"zip":"54234","city":"Sister Bay","state":"WI","lat":45.1875,"long":-87.1139},{"zip":"54235","city":"Sturgeon Bay","state":"WI","lat":44.8438,"long":-87.3753},{"zip":"54246","city":"Washington Island","state":"WI","lat":45.3738,"long":-86.8975},{"zip":"54820","city":"Brule","state":"WI","lat":46.5763,"long":-91.5539},{"zip":"54836","city":"Foxboro","state":"WI","lat":46.4875,"long":-92.1493},{"zip":"54838","city":"Gordon","state":"WI","lat":46.2336,"long":-91.8033},{"zip":"54842","city":"Hawthorne","state":"WI","lat":46.503,"long":-91.8607},{"zip":"54849","city":"Lake Nebagamon","state":"WI","lat":46.5023,"long":-91.7402},{"zip":"54854","city":"Maple","state":"WI","lat":46.6206,"long":-91.702},{"zip":"54864","city":"Poplar","state":"WI","lat":46.5771,"long":-91.8253},{"zip":"54873","city":"Solon Springs","state":"WI","lat":46.4173,"long":-91.811},{"zip":"54874","city":"South Range","state":"WI","lat":46.5688,"long":-91.9352},{"zip":"54880","city":"Superior","state":"WI","lat":46.7016,"long":-92.0912},{"zip":"54890","city":"Wascott","state":"WI","lat":46.1724,"long":-91.7982},{"zip":"54725","city":"Boyceville","state":"WI","lat":45.0642,"long":-92.0248},{"zip":"54730","city":"Colfax","state":"WI","lat":44.9993,"long":-91.7357},{"zip":"54734","city":"Downing","state":"WI","lat":45.103,"long":-92.1134},{"zip":"54735","city":"Downsville","state":"WI","lat":44.7747,"long":-91.9321},{"zip":"54737","city":"Eau Galle","state":"WI","lat":44.7152,"long":-91.9822},{"zip":"54739","city":"Elk Mound","state":"WI","lat":44.867,"long":-91.6752},{"zip":"54749","city":"Knapp","state":"WI","lat":44.9545,"long":-92.0752},{"zip":"54751","city":"Menomonie","state":"WI","lat":44.8718,"long":-91.9265},{"zip":"54763","city":"Ridgeland","state":"WI","lat":45.1868,"long":-91.879},{"zip":"54764","city":"Rock Falls","state":"WI","lat":44.7186,"long":-91.6899},{"zip":"54765","city":"Sand Creek","state":"WI","lat":45.1429,"long":-91.6998},{"zip":"54772","city":"Wheeler","state":"WI","lat":45.0719,"long":-91.8871},{"zip":"54701","city":"Eau Claire","state":"WI","lat":44.784,"long":-91.4877},{"zip":"54702","city":"Eau Claire","state":"WI","lat":44.8113,"long":-91.4985},{"zip":"54703","city":"Eau Claire","state":"WI","lat":44.8346,"long":-91.5159},{"zip":"54720","city":"Altoona","state":"WI","lat":44.8021,"long":-91.4382},{"zip":"54722","city":"Augusta","state":"WI","lat":44.6947,"long":-91.1232},{"zip":"54741","city":"Fairchild","state":"WI","lat":44.5963,"long":-90.9906},{"zip":"54742","city":"Fall Creek","state":"WI","lat":44.7684,"long":-91.2856},{"zip":"54120","city":"Fence","state":"WI","lat":45.7444,"long":-88.4243},{"zip":"54121","city":"Florence","state":"WI","lat":45.9027,"long":-88.2289},{"zip":"54542","city":"Long Lake","state":"WI","lat":45.9138,"long":-88.6235},{"zip":"54932","city":"Eldorado","state":"WI","lat":43.8415,"long":-88.6388},{"zip":"54935","city":"Fond Du Lac","state":"WI","lat":43.7742,"long":-88.4352},{"zip":"54936","city":"Fond Du Lac","state":"WI","lat":43.775,"long":-88.4388},{"zip":"54937","city":"Fond Du Lac","state":"WI","lat":43.765,"long":-88.6057},{"zip":"54971","city":"Ripon","state":"WI","lat":43.8454,"long":-88.8424},{"zip":"54974","city":"Rosendale","state":"WI","lat":43.7889,"long":-88.6417},{"zip":"54979","city":"Van Dyne","state":"WI","lat":43.8734,"long":-88.51},{"zip":"54103","city":"Armstrong Creek","state":"WI","lat":45.6726,"long":-88.4908},{"zip":"54511","city":"Argonne","state":"WI","lat":45.7118,"long":-88.8104},{"zip":"54520","city":"Crandon","state":"WI","lat":45.5416,"long":-88.9116},{"zip":"54541","city":"Laona","state":"WI","lat":45.5534,"long":-88.6715},{"zip":"54566","city":"Wabeno","state":"WI","lat":45.4332,"long":-88.6625},{"zip":"54923","city":"Berlin","state":"WI","lat":43.9769,"long":-88.949},{"zip":"54941","city":"Green Lake","state":"WI","lat":43.8444,"long":-88.9685},{"zip":"54968","city":"Princeton","state":"WI","lat":43.8438,"long":-89.1249},{"zip":"54525","city":"Gile","state":"WI","lat":46.4283,"long":-90.2252},{"zip":"54534","city":"Hurley","state":"WI","lat":46.4448,"long":-90.1975},{"zip":"54536","city":"Iron Belt","state":"WI","lat":46.3955,"long":-90.3245},{"zip":"54547","city":"Mercer","state":"WI","lat":46.1696,"long":-90.0679},{"zip":"54550","city":"Montreal","state":"WI","lat":46.428,"long":-90.246},{"zip":"54559","city":"Saxon","state":"WI","lat":46.4959,"long":-90.4383},{"zip":"54565","city":"Upson","state":"WI","lat":46.3761,"long":-90.4051},{"zip":"54611","city":"Alma Center","state":"WI","lat":44.4452,"long":-90.9356},{"zip":"54615","city":"Black River Falls","state":"WI","lat":44.2954,"long":-90.8313},{"zip":"54635","city":"Hixton","state":"WI","lat":44.4038,"long":-91.0442},{"zip":"54642","city":"Melrose","state":"WI","lat":44.1382,"long":-91.0445},{"zip":"54643","city":"Millston","state":"WI","lat":44.1869,"long":-90.6358},{"zip":"54659","city":"Taylor","state":"WI","lat":44.2899,"long":-91.1128},{"zip":"54754","city":"Merrillan","state":"WI","lat":44.4369,"long":-90.8105},{"zip":"54618","city":"Camp Douglas","state":"WI","lat":43.9885,"long":-90.2393},{"zip":"54637","city":"Hustler","state":"WI","lat":43.8801,"long":-90.2729},{"zip":"54641","city":"Mather","state":"WI","lat":44.1427,"long":-90.3087},{"zip":"54646","city":"Necedah","state":"WI","lat":44.0345,"long":-90.06},{"zip":"54201","city":"Algoma","state":"WI","lat":44.6101,"long":-87.4578},{"zip":"54205","city":"Casco","state":"WI","lat":44.5833,"long":-87.6231},{"zip":"54216","city":"Kewaunee","state":"WI","lat":44.4401,"long":-87.5594},{"zip":"54217","city":"Luxemburg","state":"WI","lat":44.5506,"long":-87.7156},{"zip":"54601","city":"La Crosse","state":"WI","lat":43.7989,"long":-91.2175},{"zip":"54602","city":"La Crosse","state":"WI","lat":43.9077,"long":-91.1676},{"zip":"54603","city":"La Crosse","state":"WI","lat":43.8487,"long":-91.2484},{"zip":"54614","city":"Bangor","state":"WI","lat":43.8687,"long":-90.9809},{"zip":"54636","city":"Holmen","state":"WI","lat":43.9761,"long":-91.2497},{"zip":"54644","city":"Mindoro","state":"WI","lat":44.0287,"long":-91.0642},{"zip":"54650","city":"Onalaska","state":"WI","lat":43.8974,"long":-91.2314},{"zip":"54653","city":"Rockland","state":"WI","lat":43.9064,"long":-90.9193},{"zip":"54669","city":"West Salem","state":"WI","lat":43.9063,"long":-91.0893},{"zip":"54409","city":"Antigo","state":"WI","lat":45.1314,"long":-89.1419},{"zip":"54418","city":"Bryant","state":"WI","lat":45.203,"long":-88.9983},{"zip":"54424","city":"Deerbrook","state":"WI","lat":45.2368,"long":-89.1873},{"zip":"54428","city":"Elcho","state":"WI","lat":45.4409,"long":-89.1516},{"zip":"54430","city":"Elton","state":"WI","lat":45.1562,"long":-88.8837},{"zip":"54462","city":"Pearson","state":"WI","lat":45.3641,"long":-89.0165},{"zip":"54464","city":"Phlox","state":"WI","lat":45.0511,"long":-89.0143},{"zip":"54465","city":"Pickerel","state":"WI","lat":45.3567,"long":-88.9137},{"zip":"54485","city":"Summit Lake","state":"WI","lat":45.3965,"long":-89.2179},{"zip":"54491","city":"White Lake","state":"WI","lat":45.1715,"long":-88.7555},{"zip":"54435","city":"Gleason","state":"WI","lat":45.3384,"long":-89.4753},{"zip":"54442","city":"Irma","state":"WI","lat":45.3485,"long":-89.6611},{"zip":"54452","city":"Merrill","state":"WI","lat":45.1809,"long":-89.6907},{"zip":"54487","city":"Tomahawk","state":"WI","lat":45.4963,"long":-89.7273},{"zip":"54532","city":"Heafford Junction","state":"WI","lat":45.5472,"long":-89.7154},{"zip":"54207","city":"Collins","state":"WI","lat":44.091,"long":-87.9902},{"zip":"54214","city":"Francis Creek","state":"WI","lat":44.2,"long":-87.72},{"zip":"54215","city":"Kellnersville","state":"WI","lat":44.2226,"long":-87.8017},{"zip":"54220","city":"Manitowoc","state":"WI","lat":44.0971,"long":-87.6823},{"zip":"54221","city":"Manitowoc","state":"WI","lat":44.1323,"long":-87.599},{"zip":"54227","city":"Maribel","state":"WI","lat":44.2852,"long":-87.8055},{"zip":"54228","city":"Mishicot","state":"WI","lat":44.2609,"long":-87.6447},{"zip":"54230","city":"Reedsville","state":"WI","lat":44.1576,"long":-87.966},{"zip":"54232","city":"Saint Nazianz","state":"WI","lat":44.0064,"long":-87.9229},{"zip":"54240","city":"Tisch Mills","state":"WI","lat":44.3272,"long":-87.6237},{"zip":"54241","city":"Two Rivers","state":"WI","lat":44.166,"long":-87.5855},{"zip":"54245","city":"Valders","state":"WI","lat":44.042,"long":-87.8812},{"zip":"54247","city":"Whitelaw","state":"WI","lat":44.1573,"long":-87.8267},{"zip":"54401","city":"Wausau","state":"WI","lat":44.9654,"long":-89.7066},{"zip":"54402","city":"Wausau","state":"WI","lat":44.9009,"long":-89.7701},{"zip":"54403","city":"Wausau","state":"WI","lat":44.9529,"long":-89.5318},{"zip":"54408","city":"Aniwa","state":"WI","lat":45.0088,"long":-89.3578},{"zip":"54411","city":"Athens","state":"WI","lat":44.9823,"long":-90.0078},{"zip":"54417","city":"Brokaw","state":"WI","lat":45.0273,"long":-89.6541},{"zip":"54426","city":"Edgar","state":"WI","lat":44.9046,"long":-90.0125},{"zip":"54427","city":"Eland","state":"WI","lat":44.8309,"long":-89.2461},{"zip":"54429","city":"Elderon","state":"WI","lat":44.7802,"long":-89.2478},{"zip":"54432","city":"Galloway","state":"WI","lat":44.7128,"long":-89.2643},{"zip":"54440","city":"Hatley","state":"WI","lat":44.8256,"long":-89.3777},{"zip":"54448","city":"Marathon","state":"WI","lat":44.9291,"long":-89.8404},{"zip":"54455","city":"Mosinee","state":"WI","lat":44.7997,"long":-89.6845},{"zip":"54471","city":"Ringle","state":"WI","lat":44.9238,"long":-89.4328},{"zip":"54474","city":"Rothschild","state":"WI","lat":44.8843,"long":-89.6193},{"zip":"54476","city":"Schofield","state":"WI","lat":44.9064,"long":-89.5818},{"zip":"54479","city":"Spencer","state":"WI","lat":44.7391,"long":-90.3114},{"zip":"54484","city":"Stratford","state":"WI","lat":44.7899,"long":-90.0583},{"zip":"54488","city":"Unity","state":"WI","lat":44.8227,"long":-90.3221},{"zip":"54102","city":"Amberg","state":"WI","lat":45.4989,"long":-87.9643},{"zip":"54104","city":"Athelstane","state":"WI","lat":45.4228,"long":-88.1753},{"zip":"54112","city":"Coleman","state":"WI","lat":45.0722,"long":-88.0587},{"zip":"54114","city":"Crivitz","state":"WI","lat":45.2617,"long":-88.078},{"zip":"54119","city":"Dunbar","state":"WI","lat":45.6009,"long":-88.1067},{"zip":"54125","city":"Goodman","state":"WI","lat":45.6469,"long":-88.3629},{"zip":"54143","city":"Marinette","state":"WI","lat":45.0874,"long":-87.6697},{"zip":"54151","city":"Niagara","state":"WI","lat":45.7653,"long":-88.0309},{"zip":"54156","city":"Pembine","state":"WI","lat":45.6074,"long":-87.9704},{"zip":"54157","city":"Peshtigo","state":"WI","lat":45.048,"long":-87.8103},{"zip":"54159","city":"Porterfield","state":"WI","lat":45.1934,"long":-87.8062},{"zip":"54161","city":"Pound","state":"WI","lat":45.1273,"long":-88.1396},{"zip":"54177","city":"Wausaukee","state":"WI","lat":45.3495,"long":-87.9099},{"zip":"54960","city":"Neshkoro","state":"WI","lat":43.8989,"long":-89.2336},{"zip":"54135","city":"Keshena","state":"WI","lat":44.9146,"long":-88.6357},{"zip":"54150","city":"Neopit","state":"WI","lat":44.9808,"long":-88.8309},{"zip":"54619","city":"Cashton","state":"WI","lat":43.7456,"long":-90.7612},{"zip":"54620","city":"Cataract","state":"WI","lat":44.0876,"long":-90.8423},{"zip":"54638","city":"Kendall","state":"WI","lat":43.7922,"long":-90.3685},{"zip":"54648","city":"Norwalk","state":"WI","lat":43.8128,"long":-90.6801},{"zip":"54649","city":"Oakdale","state":"WI","lat":43.9715,"long":-90.3612},{"zip":"54656","city":"Sparta","state":"WI","lat":43.954,"long":-90.8146},{"zip":"54660","city":"Tomah","state":"WI","lat":43.9838,"long":-90.4733},{"zip":"54662","city":"Tunnel City","state":"WI","lat":44.0031,"long":-90.562},{"zip":"54666","city":"Warrens","state":"WI","lat":44.157,"long":-90.4967},{"zip":"54670","city":"Wilton","state":"WI","lat":43.8322,"long":-90.5162},{"zip":"54101","city":"Abrams","state":"WI","lat":44.7869,"long":-88.0571},{"zip":"54124","city":"Gillett","state":"WI","lat":44.9018,"long":-88.3242},{"zip":"54138","city":"Lakewood","state":"WI","lat":45.3163,"long":-88.5032},{"zip":"54139","city":"Lena","state":"WI","lat":44.956,"long":-88.075},{"zip":"54141","city":"Little Suamico","state":"WI","lat":44.7175,"long":-88.0093},{"zip":"54149","city":"Mountain","state":"WI","lat":45.1991,"long":-88.4583},{"zip":"54153","city":"Oconto","state":"WI","lat":44.8914,"long":-87.8917},{"zip":"54154","city":"Oconto Falls","state":"WI","lat":44.8755,"long":-88.1555},{"zip":"54171","city":"Sobieski","state":"WI","lat":44.7105,"long":-88.1076},{"zip":"54174","city":"Suring","state":"WI","lat":45.0186,"long":-88.3628},{"zip":"54175","city":"Townsend","state":"WI","lat":45.3148,"long":-88.6107},{"zip":"54463","city":"Pelican Lake","state":"WI","lat":45.5049,"long":-89.1817},{"zip":"54501","city":"Rhinelander","state":"WI","lat":45.7045,"long":-89.3866},{"zip":"54529","city":"Harshaw","state":"WI","lat":45.6762,"long":-89.6503},{"zip":"54531","city":"Hazelhurst","state":"WI","lat":45.7745,"long":-89.7478},{"zip":"54539","city":"Lake Tomahawk","state":"WI","lat":45.8035,"long":-89.5856},{"zip":"54543","city":"Mc Naughton","state":"WI","lat":45.7229,"long":-89.5573},{"zip":"54548","city":"Minocqua","state":"WI","lat":45.8719,"long":-89.758},{"zip":"54562","city":"Three Lakes","state":"WI","lat":45.8046,"long":-89.1328},{"zip":"54564","city":"Tripoli","state":"WI","lat":45.5814,"long":-89.9852},{"zip":"54568","city":"Woodruff","state":"WI","lat":45.9186,"long":-89.6954},{"zip":"54106","city":"Black Creek","state":"WI","lat":44.4702,"long":-88.4547},{"zip":"54113","city":"Combined Locks","state":"WI","lat":44.2666,"long":-88.3133},{"zip":"54130","city":"Kaukauna","state":"WI","lat":44.2956,"long":-88.2717},{"zip":"54131","city":"Freedom","state":"WI","lat":44.4163,"long":-88.4649},{"zip":"54136","city":"Kimberly","state":"WI","lat":44.2701,"long":-88.3384},{"zip":"54140","city":"Little Chute","state":"WI","lat":44.2842,"long":-88.312},{"zip":"54152","city":"Nichols","state":"WI","lat":44.5668,"long":-88.4582},{"zip":"54155","city":"Oneida","state":"WI","lat":44.5166,"long":-88.1859},{"zip":"54165","city":"Seymour","state":"WI","lat":44.5091,"long":-88.3172},{"zip":"54170","city":"Shiocton","state":"WI","lat":44.4972,"long":-88.5562},{"zip":"54911","city":"Appleton","state":"WI","lat":44.2773,"long":-88.3976},{"zip":"54912","city":"Appleton","state":"WI","lat":44.4163,"long":-88.4649},{"zip":"54913","city":"Appleton","state":"WI","lat":44.3456,"long":-88.4343},{"zip":"54914","city":"Appleton","state":"WI","lat":44.271,"long":-88.4326},{"zip":"54915","city":"Appleton","state":"WI","lat":44.2425,"long":-88.3564},{"zip":"54919","city":"Appleton","state":"WI","lat":44.4163,"long":-88.4649},{"zip":"54922","city":"Bear Creek","state":"WI","lat":44.5348,"long":-88.7404},{"zip":"54931","city":"Dale","state":"WI","lat":44.273,"long":-88.6784},{"zip":"54942","city":"Greenville","state":"WI","lat":44.3003,"long":-88.5365},{"zip":"54944","city":"Hortonville","state":"WI","lat":44.3273,"long":-88.6281},{"zip":"54721","city":"Arkansaw","state":"WI","lat":44.6267,"long":-92.0566},{"zip":"54736","city":"Durand","state":"WI","lat":44.63,"long":-91.9295},{"zip":"54759","city":"Pepin","state":"WI","lat":44.4587,"long":-92.1394},{"zip":"54769","city":"Stockholm","state":"WI","lat":44.5084,"long":-92.2326},{"zip":"54003","city":"Beldenville","state":"WI","lat":44.7721,"long":-92.4372},{"zip":"54010","city":"East Ellsworth","state":"WI","lat":44.7348,"long":-92.4655},{"zip":"54011","city":"Ellsworth","state":"WI","lat":44.7302,"long":-92.489},{"zip":"54014","city":"Hager City","state":"WI","lat":44.627,"long":-92.5501},{"zip":"54021","city":"Prescott","state":"WI","lat":44.7476,"long":-92.7535},{"zip":"54022","city":"River Falls","state":"WI","lat":44.855,"long":-92.6313},{"zip":"54723","city":"Bay City","state":"WI","lat":44.6166,"long":-92.4469},{"zip":"54740","city":"Elmwood","state":"WI","lat":44.7561,"long":-92.2022},{"zip":"54750","city":"Maiden Rock","state":"WI","lat":44.6086,"long":-92.2782},{"zip":"54761","city":"Plum City","state":"WI","lat":44.636,"long":-92.1837},{"zip":"54767","city":"Spring Valley","state":"WI","lat":44.8356,"long":-92.2906},{"zip":"54001","city":"Amery","state":"WI","lat":45.3486,"long":-92.4014},{"zip":"54004","city":"Clayton","state":"WI","lat":45.3063,"long":-92.1395},{"zip":"54005","city":"Clear Lake","state":"WI","lat":45.2365,"long":-92.2749},{"zip":"54006","city":"Cushing","state":"WI","lat":45.5604,"long":-92.6241},{"zip":"54009","city":"Dresser","state":"WI","lat":45.3546,"long":-92.5623},{"zip":"54020","city":"Osceola","state":"WI","lat":45.3218,"long":-92.6971},{"zip":"54024","city":"Saint Croix Falls","state":"WI","lat":45.5097,"long":-92.6117},{"zip":"54026","city":"Star Prairie","state":"WI","lat":45.2013,"long":-92.5514},{"zip":"54810","city":"Balsam Lake","state":"WI","lat":45.4588,"long":-92.415},{"zip":"54824","city":"Centuria","state":"WI","lat":45.4484,"long":-92.5477},{"zip":"54837","city":"Frederic","state":"WI","lat":45.6729,"long":-92.3545},{"zip":"54853","city":"Luck","state":"WI","lat":45.5568,"long":-92.4164},{"zip":"54858","city":"Milltown","state":"WI","lat":45.5271,"long":-92.5017},{"zip":"54406","city":"Amherst","state":"WI","lat":44.4231,"long":-89.3035},{"zip":"54407","city":"Amherst Junction","state":"WI","lat":44.5065,"long":-89.3038},{"zip":"54423","city":"Custer","state":"WI","lat":44.5662,"long":-89.4153},{"zip":"54443","city":"Junction City","state":"WI","lat":44.5963,"long":-89.7438},{"zip":"54458","city":"Nelsonville","state":"WI","lat":44.495,"long":-89.3098},{"zip":"54467","city":"Plover","state":"WI","lat":44.4507,"long":-89.5428},{"zip":"54473","city":"Rosholt","state":"WI","lat":44.6622,"long":-89.3356},{"zip":"54481","city":"Stevens Point","state":"WI","lat":44.5212,"long":-89.5588},{"zip":"54482","city":"Stevens Point","state":"WI","lat":44.5563,"long":-89.5182},{"zip":"54492","city":"Stevens Point","state":"WI","lat":44.5094,"long":-89.5286},{"zip":"54909","city":"Almond","state":"WI","lat":44.2898,"long":-89.3584},{"zip":"54921","city":"Bancroft","state":"WI","lat":44.3065,"long":-89.5304},{"zip":"54459","city":"Ogema","state":"WI","lat":45.4392,"long":-90.2565},{"zip":"54513","city":"Brantwood","state":"WI","lat":45.5514,"long":-90.116},{"zip":"54515","city":"Catawba","state":"WI","lat":45.5081,"long":-90.5146},{"zip":"54524","city":"Fifield","state":"WI","lat":45.8143,"long":-90.453},{"zip":"54537","city":"Kennan","state":"WI","lat":45.535,"long":-90.591},{"zip":"54552","city":"Park Falls","state":"WI","lat":45.9363,"long":-90.4246},{"zip":"54555","city":"Phillips","state":"WI","lat":45.6975,"long":-90.4041},{"zip":"54556","city":"Prentice","state":"WI","lat":45.5482,"long":-90.2942},{"zip":"54526","city":"Glen Flora","state":"WI","lat":45.4862,"long":-90.8479},{"zip":"54530","city":"Hawkins","state":"WI","lat":45.5241,"long":-90.7114},{"zip":"54563","city":"Tony","state":"WI","lat":45.4741,"long":-90.9869},{"zip":"54731","city":"Conrath","state":"WI","lat":45.3533,"long":-91.0621},{"zip":"54766","city":"Sheldon","state":"WI","lat":45.3182,"long":-90.9141},{"zip":"54819","city":"Bruce","state":"WI","lat":45.4479,"long":-91.2906},{"zip":"54848","city":"Ladysmith","state":"WI","lat":45.4719,"long":-91.1088},{"zip":"54895","city":"Weyerhaeuser","state":"WI","lat":45.4263,"long":-91.4289},{"zip":"54002","city":"Baldwin","state":"WI","lat":44.9657,"long":-92.3655},{"zip":"54007","city":"Deer Park","state":"WI","lat":45.169,"long":-92.3585},{"zip":"54013","city":"Glenwood City","state":"WI","lat":45.0623,"long":-92.1816},{"zip":"54015","city":"Hammond","state":"WI","lat":44.967,"long":-92.4472},{"zip":"54016","city":"Hudson","state":"WI","lat":44.9842,"long":-92.7271},{"zip":"54017","city":"New Richmond","state":"WI","lat":45.123,"long":-92.5366},{"zip":"54023","city":"Roberts","state":"WI","lat":44.9874,"long":-92.5598},{"zip":"54025","city":"Somerset","state":"WI","lat":45.1331,"long":-92.6865},{"zip":"54027","city":"Wilson","state":"WI","lat":44.9466,"long":-92.1965},{"zip":"54028","city":"Woodville","state":"WI","lat":44.9408,"long":-92.2848},{"zip":"54082","city":"Houlton","state":"WI","lat":45.0655,"long":-92.7572},{"zip":"54828","city":"Couderay","state":"WI","lat":45.838,"long":-91.2918},{"zip":"54834","city":"Edgewater","state":"WI","lat":45.7424,"long":-91.4765},{"zip":"54835","city":"Exeland","state":"WI","lat":45.6753,"long":-91.2238},{"zip":"54843","city":"Hayward","state":"WI","lat":45.9552,"long":-91.2783},{"zip":"54862","city":"Ojibwa","state":"WI","lat":45.7854,"long":-91.1109},{"zip":"54867","city":"Radisson","state":"WI","lat":45.7734,"long":-91.2262},{"zip":"54876","city":"Stone Lake","state":"WI","lat":45.8337,"long":-91.5093},{"zip":"54896","city":"Winter","state":"WI","lat":45.8327,"long":-91.0144},{"zip":"54107","city":"Bonduel","state":"WI","lat":44.6992,"long":-88.4543},{"zip":"54111","city":"Cecil","state":"WI","lat":44.811,"long":-88.4183},{"zip":"54127","city":"Green Valley","state":"WI","lat":44.7964,"long":-88.2696},{"zip":"54128","city":"Gresham","state":"WI","lat":44.853,"long":-88.7887},{"zip":"54137","city":"Krakow","state":"WI","lat":44.7635,"long":-88.2593},{"zip":"54166","city":"Shawano","state":"WI","lat":44.7851,"long":-88.6036},{"zip":"54182","city":"Zachow","state":"WI","lat":44.7315,"long":-88.3698},{"zip":"54414","city":"Birnamwood","state":"WI","lat":44.9269,"long":-89.2124},{"zip":"54416","city":"Bowler","state":"WI","lat":44.9337,"long":-88.9761},{"zip":"54450","city":"Mattoon","state":"WI","lat":45.0062,"long":-89.0474},{"zip":"54486","city":"Tigerton","state":"WI","lat":44.7299,"long":-89.0569},{"zip":"54499","city":"Wittenberg","state":"WI","lat":44.8232,"long":-89.1665},{"zip":"54928","city":"Caroline","state":"WI","lat":44.7276,"long":-88.8887},{"zip":"54948","city":"Leopolis","state":"WI","lat":44.7812,"long":-88.8722},{"zip":"54978","city":"Tilleda","state":"WI","lat":44.796,"long":-88.8984},{"zip":"54433","city":"Gilman","state":"WI","lat":45.1891,"long":-90.8257},{"zip":"54434","city":"Jump River","state":"WI","lat":45.353,"long":-90.8012},{"zip":"54439","city":"Hannibal","state":"WI","lat":45.2525,"long":-90.789},{"zip":"54447","city":"Lublin","state":"WI","lat":45.0739,"long":-90.7337},{"zip":"54451","city":"Medford","state":"WI","lat":45.1512,"long":-90.3503},{"zip":"54470","city":"Rib Lake","state":"WI","lat":45.2984,"long":-90.1763},{"zip":"54480","city":"Stetsonville","state":"WI","lat":45.0792,"long":-90.2829},{"zip":"54490","city":"Westboro","state":"WI","lat":45.3445,"long":-90.3072},{"zip":"54612","city":"Arcadia","state":"WI","lat":44.2539,"long":-91.4805},{"zip":"54616","city":"Blair","state":"WI","lat":44.2968,"long":-91.2235},{"zip":"54625","city":"Dodge","state":"WI","lat":44.1431,"long":-91.5204},{"zip":"54627","city":"Ettrick","state":"WI","lat":44.1724,"long":-91.2635},{"zip":"54630","city":"Galesville","state":"WI","lat":44.0888,"long":-91.3588},{"zip":"54661","city":"Trempealeau","state":"WI","lat":44.0218,"long":-91.4282},{"zip":"54738","city":"Eleva","state":"WI","lat":44.5985,"long":-91.4804},{"zip":"54747","city":"Independence","state":"WI","lat":44.3959,"long":-91.4535},{"zip":"54758","city":"Osseo","state":"WI","lat":44.5599,"long":-91.2191},{"zip":"54760","city":"Pigeon Falls","state":"WI","lat":44.4249,"long":-91.2074},{"zip":"54770","city":"Strum","state":"WI","lat":44.5674,"long":-91.3833},{"zip":"54773","city":"Whitehall","state":"WI","lat":44.3827,"long":-91.303},{"zip":"54621","city":"Chaseburg","state":"WI","lat":43.6794,"long":-91.0799},{"zip":"54623","city":"Coon Valley","state":"WI","lat":43.7218,"long":-91.0143},{"zip":"54624","city":"De Soto","state":"WI","lat":43.4807,"long":-91.1333},{"zip":"54632","city":"Genoa","state":"WI","lat":43.5641,"long":-91.1461},{"zip":"54634","city":"Hillsboro","state":"WI","lat":43.5966,"long":-90.4266},{"zip":"54639","city":"La Farge","state":"WI","lat":43.6,"long":-90.6365},{"zip":"54651","city":"Ontario","state":"WI","lat":43.7172,"long":-90.6205},{"zip":"54652","city":"Readstown","state":"WI","lat":43.4508,"long":-90.7579},{"zip":"54658","city":"Stoddard","state":"WI","lat":43.6912,"long":-91.1919},{"zip":"54664","city":"Viola","state":"WI","lat":43.5048,"long":-90.6554},{"zip":"54665","city":"Viroqua","state":"WI","lat":43.5442,"long":-90.8939},{"zip":"54667","city":"Westby","state":"WI","lat":43.6631,"long":-90.874},{"zip":"54512","city":"Boulder Junction","state":"WI","lat":46.1112,"long":-89.6325},{"zip":"54519","city":"Conover","state":"WI","lat":46.044,"long":-89.2389},{"zip":"54521","city":"Eagle River","state":"WI","lat":45.9161,"long":-89.2531},{"zip":"54538","city":"Lac Du Flambeau","state":"WI","lat":45.9718,"long":-89.8901},{"zip":"54540","city":"Land O Lakes","state":"WI","lat":46.1563,"long":-89.3218},{"zip":"54545","city":"Manitowish Waters","state":"WI","lat":46.1551,"long":-89.8455},{"zip":"54554","city":"Phelps","state":"WI","lat":46.0645,"long":-89.0815},{"zip":"54557","city":"Presque Isle","state":"WI","lat":46.2,"long":-89.7387},{"zip":"54558","city":"Saint Germain","state":"WI","lat":45.9183,"long":-89.4866},{"zip":"54560","city":"Sayner","state":"WI","lat":45.9867,"long":-89.5194},{"zip":"54561","city":"Star Lake","state":"WI","lat":46.0613,"long":-89.4858},{"zip":"54801","city":"Spooner","state":"WI","lat":45.8505,"long":-91.9155},{"zip":"54817","city":"Birchwood","state":"WI","lat":45.6403,"long":-91.5776},{"zip":"54859","city":"Minong","state":"WI","lat":46.1044,"long":-91.8506},{"zip":"54870","city":"Sarona","state":"WI","lat":45.7085,"long":-91.7621},{"zip":"54871","city":"Shell Lake","state":"WI","lat":45.7536,"long":-91.9606},{"zip":"54875","city":"Springbrook","state":"WI","lat":45.9452,"long":-91.6754},{"zip":"54888","city":"Trego","state":"WI","lat":45.9516,"long":-91.8581},{"zip":"54926","city":"Big Falls","state":"WI","lat":44.6178,"long":-89.0166},{"zip":"54929","city":"Clintonville","state":"WI","lat":44.6364,"long":-88.743},{"zip":"54933","city":"Embarrass","state":"WI","lat":44.6686,"long":-88.7043},{"zip":"54940","city":"Fremont","state":"WI","lat":44.2379,"long":-88.8449},{"zip":"54945","city":"Iola","state":"WI","lat":44.5322,"long":-89.1373},{"zip":"54946","city":"King","state":"WI","lat":44.3365,"long":-89.1463},{"zip":"54949","city":"Manawa","state":"WI","lat":44.4701,"long":-88.9164},{"zip":"54950","city":"Marion","state":"WI","lat":44.6794,"long":-88.8767},{"zip":"54961","city":"New London","state":"WI","lat":44.3928,"long":-88.7554},{"zip":"54962","city":"Ogdensburg","state":"WI","lat":44.4268,"long":-88.9932},{"zip":"54969","city":"Readfield","state":"WI","lat":44.27,"long":-88.7755},{"zip":"54977","city":"Scandinavia","state":"WI","lat":44.4604,"long":-89.165},{"zip":"54981","city":"Waupaca","state":"WI","lat":44.3481,"long":-89.1101},{"zip":"54983","city":"Weyauwega","state":"WI","lat":44.321,"long":-88.941},{"zip":"54990","city":"Iola","state":"WI","lat":44.508,"long":-89.1307},{"zip":"54930","city":"Coloma","state":"WI","lat":44.0275,"long":-89.4943},{"zip":"54943","city":"Hancock","state":"WI","lat":44.1297,"long":-89.5344},{"zip":"54965","city":"Pine River","state":"WI","lat":44.1604,"long":-89.0404},{"zip":"54966","city":"Plainfield","state":"WI","lat":44.2091,"long":-89.4559},{"zip":"54967","city":"Poy Sippi","state":"WI","lat":44.131,"long":-88.9836},{"zip":"54970","city":"Redgranite","state":"WI","lat":44.0438,"long":-89.0981},{"zip":"54976","city":"Saxeville","state":"WI","lat":44.1761,"long":-89.1146},{"zip":"54982","city":"Wautoma","state":"WI","lat":44.0656,"long":-89.2666},{"zip":"54984","city":"Wild Rose","state":"WI","lat":44.1834,"long":-89.1953},{"zip":"54901","city":"Oshkosh","state":"WI","lat":44.022,"long":-88.5436},{"zip":"54902","city":"Oshkosh","state":"WI","lat":43.9946,"long":-88.526},{"zip":"54903","city":"Oshkosh","state":"WI","lat":44.0686,"long":-88.6449},{"zip":"54904","city":"Oshkosh","state":"WI","lat":44.0304,"long":-88.607},{"zip":"54906","city":"Oshkosh","state":"WI","lat":44.0686,"long":-88.6449},{"zip":"54927","city":"Butte Des Morts","state":"WI","lat":44.1031,"long":-88.6539},{"zip":"54934","city":"Eureka","state":"WI","lat":44.0032,"long":-88.8397},{"zip":"54947","city":"Larsen","state":"WI","lat":44.1984,"long":-88.6963},{"zip":"54952","city":"Menasha","state":"WI","lat":44.2112,"long":-88.4175},{"zip":"54956","city":"Neenah","state":"WI","lat":44.1811,"long":-88.4792},{"zip":"54957","city":"Neenah","state":"WI","lat":44.1858,"long":-88.4626},{"zip":"54963","city":"Omro","state":"WI","lat":44.0357,"long":-88.7519},{"zip":"54964","city":"Pickett","state":"WI","lat":43.9009,"long":-88.7135},{"zip":"54980","city":"Waukau","state":"WI","lat":43.9886,"long":-88.7712},{"zip":"54985","city":"Winnebago","state":"WI","lat":44.0706,"long":-88.5178},{"zip":"54986","city":"Winneconne","state":"WI","lat":44.1187,"long":-88.7214},{"zip":"54404","city":"Marshfield","state":"WI","lat":44.6689,"long":-90.1718},{"zip":"54410","city":"Arpin","state":"WI","lat":44.5419,"long":-90.037},{"zip":"54412","city":"Auburndale","state":"WI","lat":44.6378,"long":-90.0136},{"zip":"54413","city":"Babcock","state":"WI","lat":44.3031,"long":-90.0986},{"zip":"54415","city":"Blenker","state":"WI","lat":44.6191,"long":-89.9186},{"zip":"54441","city":"Hewitt","state":"WI","lat":44.6437,"long":-90.1031},{"zip":"54449","city":"Marshfield","state":"WI","lat":44.6615,"long":-90.1784},{"zip":"54454","city":"Milladore","state":"WI","lat":44.6044,"long":-89.8875},{"zip":"54457","city":"Nekoosa","state":"WI","lat":44.282,"long":-89.8814},{"zip":"54466","city":"Pittsville","state":"WI","lat":44.4375,"long":-90.1892},{"zip":"54469","city":"Port Edwards","state":"WI","lat":44.3497,"long":-89.8652},{"zip":"54472","city":"Marshfield","state":"WI","lat":44.6689,"long":-90.1718},{"zip":"54475","city":"Rudolph","state":"WI","lat":44.4741,"long":-89.8003},{"zip":"54489","city":"Vesper","state":"WI","lat":44.4677,"long":-89.9826},{"zip":"54494","city":"Wisconsin Rapids","state":"WI","lat":44.3758,"long":-89.8062},{"zip":"54495","city":"Wisconsin Rapids","state":"WI","lat":44.3881,"long":-89.9228}]
