[{"zip":"54115","city":"De Pere","state":"WI","lat":44.4388,"long":-88.0806},{"zip":"54126","city":"Greenleaf","state":"WI","lat":44.2937,"long":-88.0275},{"zip":"54162","city":"Pulaski","state":"WI","lat":44.6611,"long":-88.2634},{"zip":"54173","city":"Suamico","state":"WI","lat":44.6435,"long":-88.0317},{"zip":"54180","city":"Wrightstown","state":"WI","lat":44.3264,"long":-88.1749},{"zip":"54110","city":"Brillion","state":"WI","lat":44.1779,"long":-88.0833},{"zip":"54123","city":"Forest Junction","state":"WI","lat":44.2125,"long":-88.1443},{"zip":"54129","city":"Hilbert","state":"WI","lat":44.1271,"long":-88.207},{"zip":"54160","city":"Potter","state":"WI","lat":44.1199,"long":-88.0965},{"zip":"54169","city":"Sherwood","state":"WI","lat":44.1764,"long":-88.2779},{"zip":"54120","city":"Fence","state":"WI","lat":45.7444,"long":-88.4243},{"zip":"54121","city":"Florence","state":"WI","lat":45.9027,"long":-88.2289},{"zip":"54103","city":"Armstrong Creek","state":"WI","lat":45.6726,"long":-88.4908},{"zip":"54102","city":"Amberg","state":"WI","lat":45.4989,"long":-87.9643},{"zip":"54104","city":"Athelstane","state":"WI","lat":45.4228,"long":-88.1753},{"zip":"54112","city":"Coleman","state":"WI","lat":45.0722,"long":-88.0587},{"zip":"54114","city":"Crivitz","state":"WI","lat":45.2617,"long":-88.078},{"zip":"54119","city":"Dunbar","state":"WI","lat":45.6009,"long":-88.1067},{"zip":"54125","city":"Goodman","state":"WI","lat":45.6469,"long":-88.3629},{"zip":"54143","city":"Marinette","state":"WI","lat":45.0874,"long":-87.6697},{"zip":"54151","city":"Niagara","state":"WI","lat":45.7653,"long":-88.0309},{"zip":"54156","city":"Pembine","state":"WI","lat":45.6074,"long":-87.9704},{"zip":"54157","city":"Peshtigo","state":"WI","lat":45.048,"long":-87.8103},{"zip":"54159","city":"Porterfield","state":"WI","lat":45.1934,"long":-87.8062},{"zip":"54161","city":"Pound","state":"WI","lat":45.1273,"long":-88.1396},{"zip":"54177","city":"Wausaukee","state":"WI","lat":45.3495,"long":-87.9099},{"zip":"54135","city":"Keshena","state":"WI","lat":44.9146,"long":-88.6357},{"zip":"54150","city":"Neopit","state":"WI","lat":44.9808,"long":-88.8309},{"zip":"54101","city":"Abrams","state":"WI","lat":44.7869,"long":-88.0571},{"zip":"54124","city":"Gillett","state":"WI","lat":44.9018,"long":-88.3242},{"zip":"54138","city":"Lakewood","state":"WI","lat":45.3163,"long":-88.5032},{"zip":"54139","city":"Lena","state":"WI","lat":44.956,"long":-88.075},{"zip":"54141","city":"Little Suamico","state":"WI","lat":44.7175,"long":-88.0093},{"zip":"54149","city":"Mountain","state":"WI","lat":45.1991,"long":-88.4583},{"zip":"54153","city":"Oconto","state":"WI","lat":44.8914,"long":-87.8917},{"zip":"54154","city":"Oconto Falls","state":"WI","lat":44.8755,"long":-88.1555},{"zip":"54171","city":"Sobieski","state":"WI","lat":44.7105,"long":-88.1076},{"zip":"54174","city":"Suring","state":"WI","lat":45.0186,"long":-88.3628},{"zip":"54175","city":"Townsend","state":"WI","lat":45.3148,"long":-88.6107},{"zip":"54106","city":"Black Creek","state":"WI","lat":44.4702,"long":-88.4547},{"zip":"54113","city":"Combined Locks","state":"WI","lat":44.2666,"long":-88.3133},{"zip":"54130","city":"Kaukauna","state":"WI","lat":44.2956,"long":-88.2717},{"zip":"54131","city":"Freedom","state":"WI","lat":44.4163,"long":-88.4649},{"zip":"54136","city":"Kimberly","state":"WI","lat":44.2701,"long":-88.3384},{"zip":"54140","city":"Little Chute","state":"WI","lat":44.2842,"long":-88.312},{"zip":"54152","city":"Nichols","state":"WI","lat":44.5668,"long":-88.4582},{"zip":"54155","city":"Oneida","state":"WI","lat":44.5166,"long":-88.1859},{"zip":"54165","city":"Seymour","state":"WI","lat":44.5091,"long":-88.3172},{"zip":"54170","city":"Shiocton","state":"WI","lat":44.4972,"long":-88.5562},{"zip":"54107","city":"Bonduel","state":"WI","lat":44.6992,"long":-88.4543},{"zip":"54111","city":"Cecil","state":"WI","lat":44.811,"long":-88.4183},{"zip":"54127","city":"Green Valley","state":"WI","lat":44.7964,"long":-88.2696},{"zip":"54128","city":"Gresham","state":"WI","lat":44.853,"long":-88.7887},{"zip":"54137","city":"Krakow","state":"WI","lat":44.7635,"long":-88.2593},{"zip":"54166","city":"Shawano","state":"WI","lat":44.7851,"long":-88.6036},{"zip":"54182","city":"Zachow","state":"WI","lat":44.7315,"long":-88.3698}]
