[{"zip":"54208","city":"Denmark","state":"WI","lat":44.3594,"long":-87.827},{"zip":"54229","city":"New Franken","state":"WI","lat":44.5592,"long":-87.8235},{"zip":"54202","city":"Baileys Harbor","state":"WI","lat":45.0565,"long":-87.1676},{"zip":"54204","city":"Brussels","state":"WI","lat":44.7476,"long":-87.6225},{"zip":"54209","city":"Egg Harbor","state":"WI","lat":45.01,"long":-87.2805},{"zip":"54210","city":"Ellison Bay","state":"WI","lat":45.2572,"long":-87.0512},{"zip":"54211","city":"Ephraim","state":"WI","lat":45.1592,"long":-87.171},{"zip":"54212","city":"Fish Creek","state":"WI","lat":45.1155,"long":-87.2064},{"zip":"54213","city":"Forestville","state":"WI","lat":44.6996,"long":-87.5215},{"zip":"54226","city":"Maplewood","state":"WI","lat":44.7475,"long":-87.4793},{"zip":"54234","city":"Sister Bay","state":"WI","lat":45.1875,"long":-87.1139},{"zip":"54235","city":"Sturgeon Bay","state":"WI","lat":44.8438,"long":-87.3753},{"zip":"54246","city":"Washington Island","state":"WI","lat":45.3738,"long":-86.8975},{"zip":"54201","city":"Algoma","state":"WI","lat":44.6101,"long":-87.4578},{"zip":"54205","city":"Casco","state":"WI","lat":44.5833,"long":-87.6231},{"zip":"54216","city":"Kewaunee","state":"WI","lat":44.4401,"long":-87.5594},{"zip":"54217","city":"Luxemburg","state":"WI","lat":44.5506,"long":-87.7156},{"zip":"54207","city":"Collins","state":"WI","lat":44.091,"long":-87.9902},{"zip":"54214","city":"Francis Creek","state":"WI","lat":44.2,"long":-87.72},{"zip":"54215","city":"Kellnersville","state":"WI","lat":44.2226,"long":-87.8017},{"zip":"54220","city":"Manitowoc","state":"WI","lat":44.0971,"long":-87.6823},{"zip":"54221","city":"Manitowoc","state":"WI","lat":44.1323,"long":-87.599},{"zip":"54227","city":"Maribel","state":"WI","lat":44.2852,"long":-87.8055},{"zip":"54228","city":"Mishicot","state":"WI","lat":44.2609,"long":-87.6447},{"zip":"54230","city":"Reedsville","state":"WI","lat":44.1576,"long":-87.966},{"zip":"54232","city":"Saint Nazianz","state":"WI","lat":44.0064,"long":-87.9229},{"zip":"54240","city":"Tisch Mills","state":"WI","lat":44.3272,"long":-87.6237},{"zip":"54241","city":"Two Rivers","state":"WI","lat":44.166,"long":-87.5855},{"zip":"54245","city":"Valders","state":"WI","lat":44.042,"long":-87.8812},{"zip":"54247","city":"Whitelaw","state":"WI","lat":44.1573,"long":-87.8267}]
