[{"zip":"54514","city":"Butternut","state":"WI","lat":46.0184,"long":-90.4821},{"zip":"54517","city":"Clam Lake","state":"WI","lat":46.1638,"long":-90.9024},{"zip":"54527","city":"Glidden","state":"WI","lat":46.1337,"long":-90.5889},{"zip":"54546","city":"Mellen","state":"WI","lat":46.3007,"long":-90.6552},{"zip":"54542","city":"Long Lake","state":"WI","lat":45.9138,"long":-88.6235},{"zip":"54511","city":"Argonne","state":"WI","lat":45.7118,"long":-88.8104},{"zip":"54520","city":"Crandon","state":"WI","lat":45.5416,"long":-88.9116},{"zip":"54541","city":"Laona","state":"WI","lat":45.5534,"long":-88.6715},{"zip":"54566","city":"Wabeno","state":"WI","lat":45.4332,"long":-88.6625},{"zip":"54525","city":"Gile","state":"WI","lat":46.4283,"long":-90.2252},{"zip":"54534","city":"Hurley","state":"WI","lat":46.4448,"long":-90.1975},{"zip":"54536","city":"Iron Belt","state":"WI","lat":46.3955,"long":-90.3245},{"zip":"54547","city":"Mercer","state":"WI","lat":46.1696,"long":-90.0679},{"zip":"54550","city":"Montreal","state":"WI","lat":46.428,"long":-90.246},{"zip":"54559","city":"Saxon","state":"WI","lat":46.4959,"long":-90.4383},{"zip":"54565","city":"Upson","state":"WI","lat":46.3761,"long":-90.4051},{"zip":"54532","city":"Heafford Junction","state":"WI","lat":45.5472,"long":-89.7154},{"zip":"54501","city":"Rhinelander","state":"WI","lat":45.7045,"long":-89.3866},{"zip":"54529","city":"Harshaw","state":"WI","lat":45.6762,"long":-89.6503},{"zip":"54531","city":"Hazelhurst","state":"WI","lat":45.7745,"long":-89.7478},{"zip":"54539","city":"Lake Tomahawk","state":"WI","lat":45.8035,"long":-89.5856},{"zip":"54543","city":"Mc Naughton","state":"WI","lat":45.7229,"long":-89.5573},{"zip":"54548","city":"Minocqua","state":"WI","lat":45.8719,"long":-89.758},{"zip":"54562","city":"Three Lakes","state":"WI","lat":45.8046,"long":-89.1328},{"zip":"54564","city":"Tripoli","state":"WI","lat":45.5814,"long":-89.9852},{"zip":"54568","city":"Woodruff","state":"WI","lat":45.9186,"long":-89.6954},{"zip":"54513","city":"Brantwood","state":"WI","lat":45.5514,"long":-90.116},{"zip":"54515","city":"Catawba","state":"WI","lat":45.5081,"long":-90.5146},{"zip":"54524","city":"Fifield","state":"WI","lat":45.8143,"long":-90.453},{"zip":"54537","city":"Kennan","state":"WI","lat":45.535,"long":-90.591},{"zip":"54552","city":"Park Falls","state":"WI","lat":45.9363,"long":-90.4246},{"zip":"54555","city":"Phillips","state":"WI","lat":45.6975,"long":-90.4041},{"zip":"54556","city":"Prentice","state":"WI","lat":45.5482,"long":-90.2942},{"zip":"54526","city":"Glen Flora","state":"WI","lat":45.4862,"long":-90.8479},{"zip":"54530","city":"Hawkins","state":"WI","lat":45.5241,"long":-90.7114},{"zip":"54563","city":"Tony","state":"WI","lat":45.4741,"long":-90.9869},{"zip":"54512","city":"Boulder Junction","state":"WI","lat":46.1112,"long":-89.6325},{"zip":"54519","city":"Conover","state":"WI","lat":46.044,"long":-89.2389},{"zip":"54521","city":"Eagle River","state":"WI","lat":45.9161,"long":-89.2531},{"zip":"54538","city":"Lac Du Flambeau","state":"WI","lat":45.9718,"long":-89.8901},{"zip":"54540","city":"Land O Lakes","state":"WI","lat":46.1563,"long":-89.3218},{"zip":"54545","city":"Manitowish Waters","state":"WI","lat":46.1551,"long":-89.8455},{"zip":"54554","city":"Phelps","state":"WI","lat":46.0645,"long":-89.0815},{"zip":"54557","city":"Presque Isle","state":"WI","lat":46.2,"long":-89.7387},{"zip":"54558","city":"Saint Germain","state":"WI","lat":45.9183,"long":-89.4866},{"zip":"54560","city":"Sayner","state":"WI","lat":45.9867,"long":-89.5194},{"zip":"54561","city":"Star Lake","state":"WI","lat":46.0613,"long":-89.4858}]
