[{"zip":"54613","city":"Arkdale","state":"WI","lat":44.0529,"long":-89.8962},{"zip":"54610","city":"Alma","state":"WI","lat":44.4294,"long":-91.8079},{"zip":"54622","city":"Cochrane","state":"WI","lat":44.2672,"long":-91.7715},{"zip":"54629","city":"Fountain City","state":"WI","lat":44.1364,"long":-91.6779},{"zip":"54626","city":"Eastman","state":"WI","lat":43.1959,"long":-91.0193},{"zip":"54628","city":"Ferryville","state":"WI","lat":43.3959,"long":-91.0446},{"zip":"54631","city":"Gays Mills","state":"WI","lat":43.2936,"long":-90.8676},{"zip":"54640","city":"Lynxville","state":"WI","lat":43.2464,"long":-91.0562},{"zip":"54645","city":"Mount Sterling","state":"WI","lat":43.3153,"long":-90.9287},{"zip":"54654","city":"Seneca","state":"WI","lat":43.265,"long":-90.9585},{"zip":"54655","city":"Soldiers Grove","state":"WI","lat":43.3919,"long":-90.7663},{"zip":"54657","city":"Steuben","state":"WI","lat":43.1955,"long":-90.8609},{"zip":"54611","city":"Alma Center","state":"WI","lat":44.4452,"long":-90.9356},{"zip":"54615","city":"Black River Falls","state":"WI","lat":44.2954,"long":-90.8313},{"zip":"54635","city":"Hixton","state":"WI","lat":44.4038,"long":-91.0442},{"zip":"54642","city":"Melrose","state":"WI","lat":44.1382,"long":-91.0445},{"zip":"54643","city":"Millston","state":"WI","lat":44.1869,"long":-90.6358},{"zip":"54659","city":"Taylor","state":"WI","lat":44.2899,"long":-91.1128},{"zip":"54618","city":"Camp Douglas","state":"WI","lat":43.9885,"long":-90.2393},{"zip":"54637","city":"Hustler","state":"WI","lat":43.8801,"long":-90.2729},{"zip":"54641","city":"Mather","state":"WI","lat":44.1427,"long":-90.3087},{"zip":"54646","city":"Necedah","state":"WI","lat":44.0345,"long":-90.06},{"zip":"54601","city":"La Crosse","state":"WI","lat":43.7989,"long":-91.2175},{"zip":"54602","city":"La Crosse","state":"WI","lat":43.9077,"long":-91.1676},{"zip":"54603","city":"La Crosse","state":"WI","lat":43.8487,"long":-91.2484},{"zip":"54614","city":"Bangor","state":"WI","lat":43.8687,"long":-90.9809},{"zip":"54636","city":"Holmen","state":"WI","lat":43.9761,"long":-91.2497},{"zip":"54644","city":"Mindoro","state":"WI","lat":44.0287,"long":-91.0642},{"zip":"54650","city":"Onalaska","state":"WI","lat":43.8974,"long":-91.2314},{"zip":"54653","city":"Rockland","state":"WI","lat":43.9064,"long":-90.9193},{"zip":"54669","city":"West Salem","state":"WI","lat":43.9063,"long":-91.0893},{"zip":"54619","city":"Cashton","state":"WI","lat":43.7456,"long":-90.7612},{"zip":"54620","city":"Cataract","state":"WI","lat":44.0876,"long":-90.8423},{"zip":"54638","city":"Kendall","state":"WI","lat":43.7922,"long":-90.3685},{"zip":"54648","city":"Norwalk","state":"WI","lat":43.8128,"long":-90.6801},{"zip":"54649","city":"Oakdale","state":"WI","lat":43.9715,"long":-90.3612},{"zip":"54656","city":"Sparta","state":"WI","lat":43.954,"long":-90.8146},{"zip":"54660","city":"Tomah","state":"WI","lat":43.9838,"long":-90.4733},{"zip":"54662","city":"Tunnel City","state":"WI","lat":44.0031,"long":-90.562},{"zip":"54666","city":"Warrens","state":"WI","lat":44.157,"long":-90.4967},{"zip":"54670","city":"Wilton","state":"WI","lat":43.8322,"long":-90.5162},{"zip":"54612","city":"Arcadia","state":"WI","lat":44.2539,"long":-91.4805},{"zip":"54616","city":"Blair","state":"WI","lat":44.2968,"long":-91.2235},{"zip":"54625","city":"Dodge","state":"WI","lat":44.1431,"long":-91.5204},{"zip":"54627","city":"Ettrick","state":"WI","lat":44.1724,"long":-91.2635},{"zip":"54630","city":"Galesville","state":"WI","lat":44.0888,"long":-91.3588},{"zip":"54661","city":"Trempealeau","state":"WI","lat":44.0218,"long":-91.4282},{"zip":"54621","city":"Chaseburg","state":"WI","lat":43.6794,"long":-91.0799},{"zip":"54623","city":"Coon Valley","state":"WI","lat":43.7218,"long":-91.0143},{"zip":"54624","city":"De Soto","state":"WI","lat":43.4807,"long":-91.1333},{"zip":"54632","city":"Genoa","state":"WI","lat":43.5641,"long":-91.1461},{"zip":"54634","city":"Hillsboro","state":"WI","lat":43.5966,"long":-90.4266},{"zip":"54639","city":"La Farge","state":"WI","lat":43.6,"long":-90.6365},{"zip":"54651","city":"Ontario","state":"WI","lat":43.7172,"long":-90.6205},{"zip":"54652","city":"Readstown","state":"WI","lat":43.4508,"long":-90.7579},{"zip":"54658","city":"Stoddard","state":"WI","lat":43.6912,"long":-91.1919},{"zip":"54664","city":"Viola","state":"WI","lat":43.5048,"long":-90.6554},{"zip":"54665","city":"Viroqua","state":"WI","lat":43.5442,"long":-90.8939},{"zip":"54667","city":"Westby","state":"WI","lat":43.6631,"long":-90.874}]
