[{"zip":"54806","city":"Ashland","state":"WI","lat":46.5586,"long":-90.7388},{"zip":"54846","city":"High Bridge","state":"WI","lat":46.3796,"long":-90.7383},{"zip":"54850","city":"La Pointe","state":"WI","lat":46.8467,"long":-90.6036},{"zip":"54855","city":"Marengo","state":"WI","lat":46.4071,"long":-90.84},{"zip":"54861","city":"Odanah","state":"WI","lat":46.5608,"long":-90.6197},{"zip":"54805","city":"Almena","state":"WI","lat":45.4195,"long":-92.0027},{"zip":"54812","city":"Barron","state":"WI","lat":45.4005,"long":-91.85},{"zip":"54813","city":"Barronett","state":"WI","lat":45.619,"long":-92.0196},{"zip":"54818","city":"Brill","state":"WI","lat":45.6027,"long":-91.6721},{"zip":"54822","city":"Cameron","state":"WI","lat":45.4038,"long":-91.731},{"zip":"54826","city":"Comstock","state":"WI","lat":45.4911,"long":-92.086},{"zip":"54829","city":"Cumberland","state":"WI","lat":45.5403,"long":-92.0297},{"zip":"54841","city":"Haugen","state":"WI","lat":45.6067,"long":-91.7786},{"zip":"54857","city":"Mikana","state":"WI","lat":45.6096,"long":-91.6196},{"zip":"54868","city":"Rice Lake","state":"WI","lat":45.5061,"long":-91.7382},{"zip":"54889","city":"Turtle Lake","state":"WI","lat":45.4213,"long":-92.1781},{"zip":"54814","city":"Bayfield","state":"WI","lat":46.8354,"long":-90.8217},{"zip":"54816","city":"Benoit","state":"WI","lat":46.5019,"long":-91.0769},{"zip":"54821","city":"Cable","state":"WI","lat":46.2172,"long":-91.2244},{"zip":"54827","city":"Cornucopia","state":"WI","lat":46.8372,"long":-91.0974},{"zip":"54832","city":"Drummond","state":"WI","lat":46.3119,"long":-91.2856},{"zip":"54839","city":"Grand View","state":"WI","lat":46.3577,"long":-91.1075},{"zip":"54844","city":"Herbster","state":"WI","lat":46.8213,"long":-91.2332},{"zip":"54847","city":"Iron River","state":"WI","lat":46.579,"long":-91.4211},{"zip":"54856","city":"Mason","state":"WI","lat":46.4399,"long":-91.1318},{"zip":"54865","city":"Port Wing","state":"WI","lat":46.762,"long":-91.392},{"zip":"54891","city":"Washburn","state":"WI","lat":46.6806,"long":-90.9095},{"zip":"54830","city":"Danbury","state":"WI","lat":45.9726,"long":-92.293},{"zip":"54840","city":"Grantsburg","state":"WI","lat":45.7953,"long":-92.6935},{"zip":"54845","city":"Hertel","state":"WI","lat":45.8076,"long":-92.1404},{"zip":"54872","city":"Siren","state":"WI","lat":45.7821,"long":-92.3892},{"zip":"54893","city":"Webster","state":"WI","lat":45.874,"long":-92.3227},{"zip":"54820","city":"Brule","state":"WI","lat":46.5763,"long":-91.5539},{"zip":"54836","city":"Foxboro","state":"WI","lat":46.4875,"long":-92.1493},{"zip":"54838","city":"Gordon","state":"WI","lat":46.2336,"long":-91.8033},{"zip":"54842","city":"Hawthorne","state":"WI","lat":46.503,"long":-91.8607},{"zip":"54849","city":"Lake Nebagamon","state":"WI","lat":46.5023,"long":-91.7402},{"zip":"54854","city":"Maple","state":"WI","lat":46.6206,"long":-91.702},{"zip":"54864","city":"Poplar","state":"WI","lat":46.5771,"long":-91.8253},{"zip":"54873","city":"Solon Springs","state":"WI","lat":46.4173,"long":-91.811},{"zip":"54874","city":"South Range","state":"WI","lat":46.5688,"long":-91.9352},{"zip":"54880","city":"Superior","state":"WI","lat":46.7016,"long":-92.0912},{"zip":"54890","city":"Wascott","state":"WI","lat":46.1724,"long":-91.7982},{"zip":"54810","city":"Balsam Lake","state":"WI","lat":45.4588,"long":-92.415},{"zip":"54824","city":"Centuria","state":"WI","lat":45.4484,"long":-92.5477},{"zip":"54837","city":"Frederic","state":"WI","lat":45.6729,"long":-92.3545},{"zip":"54853","city":"Luck","state":"WI","lat":45.5568,"long":-92.4164},{"zip":"54858","city":"Milltown","state":"WI","lat":45.5271,"long":-92.5017},{"zip":"54819","city":"Bruce","state":"WI","lat":45.4479,"long":-91.2906},{"zip":"54848","city":"Ladysmith","state":"WI","lat":45.4719,"long":-91.1088},{"zip":"54895","city":"Weyerhaeuser","state":"WI","lat":45.4263,"long":-91.4289},{"zip":"54828","city":"Couderay","state":"WI","lat":45.838,"long":-91.2918},{"zip":"54834","city":"Edgewater","state":"WI","lat":45.7424,"long":-91.4765},{"zip":"54835","city":"Exeland","state":"WI","lat":45.6753,"long":-91.2238},{"zip":"54843","city":"Hayward","state":"WI","lat":45.9552,"long":-91.2783},{"zip":"54862","city":"Ojibwa","state":"WI","lat":45.7854,"long":-91.1109},{"zip":"54867","city":"Radisson","state":"WI","lat":45.7734,"long":-91.2262},{"zip":"54876","city":"Stone Lake","state":"WI","lat":45.8337,"long":-91.5093},{"zip":"54896","city":"Winter","state":"WI","lat":45.8327,"long":-91.0144},{"zip":"54801","city":"Spooner","state":"WI","lat":45.8505,"long":-91.9155},{"zip":"54817","city":"Birchwood","state":"WI","lat":45.6403,"long":-91.5776},{"zip":"54859","city":"Minong","state":"WI","lat":46.1044,"long":-91.8506},{"zip":"54870","city":"Sarona","state":"WI","lat":45.7085,"long":-91.7621},{"zip":"54871","city":"Shell Lake","state":"WI","lat":45.7536,"long":-91.9606},{"zip":"54875","city":"Springbrook","state":"WI","lat":45.9452,"long":-91.6754},{"zip":"54888","city":"Trego","state":"WI","lat":45.9516,"long":-91.8581}]
