[{"zip":"54932","city":"Eldorado","state":"WI","lat":43.8415,"long":-88.6388},{"zip":"54935","city":"Fond Du Lac","state":"WI","lat":43.7742,"long":-88.4352},{"zip":"54936","city":"Fond Du Lac","state":"WI","lat":43.775,"long":-88.4388},{"zip":"54937","city":"Fond Du Lac","state":"WI","lat":43.765,"long":-88.6057},{"zip":"54971","city":"Ripon","state":"WI","lat":43.8454,"long":-88.8424},{"zip":"54974","city":"Rosendale","state":"WI","lat":43.7889,"long":-88.6417},{"zip":"54979","city":"Van Dyne","state":"WI","lat":43.8734,"long":-88.51},{"zip":"54923","city":"Berlin","state":"WI","lat":43.9769,"long":-88.949},{"zip":"54941","city":"Green Lake","state":"WI","lat":43.8444,"long":-88.9685},{"zip":"54968","city":"Princeton","state":"WI","lat":43.8438,"long":-89.1249},{"zip":"54960","city":"Neshkoro","state":"WI","lat":43.8989,"long":-89.2336},{"zip":"54911","city":"Appleton","state":"WI","lat":44.2773,"long":-88.3976},{"zip":"54912","city":"Appleton","state":"WI","lat":44.4163,"long":-88.4649},{"zip":"54913","city":"Appleton","state":"WI","lat":44.3456,"long":-88.4343},{"zip":"54914","city":"Appleton","state":"WI","lat":44.271,"long":-88.4326},{"zip":"54915","city":"Appleton","state":"WI","lat":44.2425,"long":-88.3564},{"zip":"54919","city":"Appleton","state":"WI","lat":44.4163,"long":-88.4649},{"zip":"54922","city":"Bear Creek","state":"WI","lat":44.5348,"long":-88.7404},{"zip":"54931","city":"Dale","state":"WI","lat":44.273,"long":-88.6784},{"zip":"54942","city":"Greenville","state":"WI","lat":44.3003,"long":-88.5365},{"zip":"54944","city":"Hortonville","state":"WI","lat":44.3273,"long":-88.6281},{"zip":"54909","city":"Almond","state":"WI","lat":44.2898,"long":-89.3584},{"zip":"54921","city":"Bancroft","state":"WI","lat":44.3065,"long":-89.5304},{"zip":"54928","city":"Caroline","state":"WI","lat":44.7276,"long":-88.8887},{"zip":"54948","city":"Leopolis","state":"WI","lat":44.7812,"long":-88.8722},{"zip":"54978","city":"Tilleda","state":"WI","lat":44.796,"long":-88.8984},{"zip":"54926","city":"Big Falls","state":"WI","lat":44.6178,"long":-89.0166},{"zip":"54929","city":"Clintonville","state":"WI","lat":44.6364,"long":-88.743},{"zip":"54933","city":"Embarrass","state":"WI","lat":44.6686,"long":-88.7043},{"zip":"54940","city":"Fremont","state":"WI","lat":44.2379,"long":-88.8449},{"zip":"54945","city":"Iola","state":"WI","lat":44.5322,"long":-89.1373},{"zip":"54946","city":"King","state":"WI","lat":44.3365,"long":-89.1463},{"zip":"54949","city":"Manawa","state":"WI","lat":44.4701,"long":-88.9164},{"zip":"54950","city":"Marion","state":"WI","lat":44.6794,"long":-88.8767},{"zip":"54961","city":"New London","state":"WI","lat":44.3928,"long":-88.7554},{"zip":"54962","city":"Ogdensburg","state":"WI","lat":44.4268,"long":-88.9932},{"zip":"54969","city":"Readfield","state":"WI","lat":44.27,"long":-88.7755},{"zip":"54977","city":"Scandinavia","state":"WI","lat":44.4604,"long":-89.165},{"zip":"54981","city":"Waupaca","state":"WI","lat":44.3481,"long":-89.1101},{"zip":"54983","city":"Weyauwega","state":"WI","lat":44.321,"long":-88.941},{"zip":"54990","city":"Iola","state":"WI","lat":44.508,"long":-89.1307},{"zip":"54930","city":"Coloma","state":"WI","lat":44.0275,"long":-89.4943},{"zip":"54943","city":"Hancock","state":"WI","lat":44.1297,"long":-89.5344},{"zip":"54965","city":"Pine River","state":"WI","lat":44.1604,"long":-89.0404},{"zip":"54966","city":"Plainfield","state":"WI","lat":44.2091,"long":-89.4559},{"zip":"54967","city":"Poy Sippi","state":"WI","lat":44.131,"long":-88.9836},{"zip":"54970","city":"Redgranite","state":"WI","lat":44.0438,"long":-89.0981},{"zip":"54976","city":"Saxeville","state":"WI","lat":44.1761,"long":-89.1146},{"zip":"54982","city":"Wautoma","state":"WI","lat":44.0656,"long":-89.2666},{"zip":"54984","city":"Wild Rose","state":"WI","lat":44.1834,"long":-89.1953},{"zip":"54901","city":"Oshkosh","state":"WI","lat":44.022,"long":-88.5436},{"zip":"54902","city":"Oshkosh","state":"WI","lat":43.9946,"long":-88.526},{"zip":"54903","city":"Oshkosh","state":"WI","lat":44.0686,"long":-88.6449},{"zip":"54904","city":"Oshkosh","state":"WI","lat":44.0304,"long":-88.607},{"zip":"54906","city":"Oshkosh","state":"WI","lat":44.0686,"long":-88.6449},{"zip":"54927","city":"Butte Des Morts","state":"WI","lat":44.1031,"long":-88.6539},{"zip":"54934","city":"Eureka","state":"WI","lat":44.0032,"long":-88.8397},{"zip":"54947","city":"Larsen","state":"WI","lat":44.1984,"long":-88.6963},{"zip":"54952","city":"Menasha","state":"WI","lat":44.2112,"long":-88.4175},{"zip":"54956","city":"Neenah","state":"WI","lat":44.1811,"long":-88.4792},{"zip":"54957","city":"Neenah","state":"WI","lat":44.1858,"long":-88.4626},{"zip":"54963","city":"Omro","state":"WI","lat":44.0357,"long":-88.7519},{"zip":"54964","city":"Pickett","state":"WI","lat":43.9009,"long":-88.7135},{"zip":"54980","city":"Waukau","state":"WI","lat":43.9886,"long":-88.7712},{"zip":"54985","city":"Winnebago","state":"WI","lat":44.0706,"long":-88.5178},{"zip":"54986","city":"Winneconne","state":"WI","lat":44.1187,"long":-88.7214}]
