[{"zip":"55748","city":"Hill City","state":"MN","lat":46.9968,"long":-93.5994},{"zip":"55752","city":"Jacobson","state":"MN","lat":46.9772,"long":-93.3064},{"zip":"55760","city":"Mcgregor","state":"MN","lat":46.6072,"long":-93.3076},{"zip":"55785","city":"Swatara","state":"MN","lat":46.9232,"long":-93.7464},{"zip":"55787","city":"Tamarack","state":"MN","lat":46.6444,"long":-93.1272},{"zip":"55005","city":"Bethel","state":"MN","lat":45.3887,"long":-93.2315},{"zip":"55011","city":"Cedar","state":"MN","lat":45.3414,"long":-93.235},{"zip":"55014","city":"Circle Pines","state":"MN","lat":45.1528,"long":-93.144},{"zip":"55070","city":"Saint Francis","state":"MN","lat":45.3903,"long":-93.3598},{"zip":"55303","city":"Anoka","state":"MN","lat":45.2825,"long":-93.4186},{"zip":"55304","city":"Andover","state":"MN","lat":45.2377,"long":-93.2724},{"zip":"55421","city":"Minneapolis","state":"MN","lat":45.0523,"long":-93.2541},{"zip":"55432","city":"Minneapolis","state":"MN","lat":45.095,"long":-93.2396},{"zip":"55433","city":"Minneapolis","state":"MN","lat":45.1643,"long":-93.3193},{"zip":"55434","city":"Minneapolis","state":"MN","lat":45.1681,"long":-93.2504},{"zip":"55448","city":"Minneapolis","state":"MN","lat":45.1907,"long":-93.3021},{"zip":"55449","city":"Minneapolis","state":"MN","lat":45.1697,"long":-93.1889},{"zip":"55707","city":"Barnum","state":"MN","lat":46.5196,"long":-92.6292},{"zip":"55718","city":"Carlton","state":"MN","lat":46.6484,"long":-92.471},{"zip":"55720","city":"Cloquet","state":"MN","lat":46.7546,"long":-92.5408},{"zip":"55726","city":"Cromwell","state":"MN","lat":46.6718,"long":-92.8739},{"zip":"55733","city":"Esko","state":"MN","lat":46.7126,"long":-92.3569},{"zip":"55749","city":"Holyoke","state":"MN","lat":46.4664,"long":-92.375},{"zip":"55757","city":"Kettle River","state":"MN","lat":46.5029,"long":-92.9047},{"zip":"55767","city":"Moose Lake","state":"MN","lat":46.4472,"long":-92.7466},{"zip":"55780","city":"Sawyer","state":"MN","lat":46.6831,"long":-92.6927},{"zip":"55797","city":"Wrenshall","state":"MN","lat":46.5921,"long":-92.3718},{"zip":"55798","city":"Wright","state":"MN","lat":46.6691,"long":-93.0069},{"zip":"55315","city":"Carver","state":"MN","lat":44.7169,"long":-93.6879},{"zip":"55317","city":"Chanhassen","state":"MN","lat":44.8679,"long":-93.5359},{"zip":"55318","city":"Chaska","state":"MN","lat":44.8061,"long":-93.6083},{"zip":"55322","city":"Cologne","state":"MN","lat":44.7646,"long":-93.7982},{"zip":"55339","city":"Hamburg","state":"MN","lat":44.7315,"long":-93.9643},{"zip":"55360","city":"Mayer","state":"MN","lat":44.9022,"long":-93.8859},{"zip":"55367","city":"New Germany","state":"MN","lat":44.8994,"long":-93.9701},{"zip":"55368","city":"Norwood Young America","state":"MN","lat":44.7736,"long":-93.9216},{"zip":"55383","city":"Norwood","state":"MN","lat":44.768,"long":-93.9275},{"zip":"55386","city":"Victoria","state":"MN","lat":44.8582,"long":-93.6561},{"zip":"55387","city":"Waconia","state":"MN","lat":44.851,"long":-93.7784},{"zip":"55388","city":"Watertown","state":"MN","lat":44.9595,"long":-93.8482},{"zip":"55397","city":"Young America","state":"MN","lat":44.7929,"long":-93.918},{"zip":"55473","city":"Minneapolis","state":"MN","lat":44.98,"long":-93.2638},{"zip":"55550","city":"Young America","state":"MN","lat":44.8055,"long":-93.7665},{"zip":"55551","city":"Young America","state":"MN","lat":44.8055,"long":-93.7665},{"zip":"55553","city":"Young America","state":"MN","lat":44.8055,"long":-93.7665},{"zip":"55554","city":"Norwood","state":"MN","lat":44.8055,"long":-93.7665},{"zip":"55558","city":"Young America","state":"MN","lat":44.8055,"long":-93.7665},{"zip":"55568","city":"Young America","state":"MN","lat":44.8055,"long":-93.7665},{"zip":"55583","city":"Norwood","state":"MN","lat":44.8055,"long":-93.7665},{"zip":"55594","city":"Young America","state":"MN","lat":44.8055,"long":-93.7665},{"zip":"55002","city":"Almelund","state":"MN","lat":45.5134,"long":-92.8942},{"zip":"55012","city":"Center City","state":"MN","lat":45.4482,"long":-92.7894},{"zip":"55013","city":"Chisago City","state":"MN","lat":45.3611,"long":-92.8921},{"zip":"55032","city":"Harris","state":"MN","lat":45.5962,"long":-93.0395},{"zip":"55045","city":"Lindstrom","state":"MN","lat":45.3873,"long":-92.8421},{"zip":"55056","city":"North Branch","state":"MN","lat":45.5114,"long":-92.9802},{"zip":"55069","city":"Rush City","state":"MN","lat":45.6855,"long":-92.9655},{"zip":"55074","city":"Shafer","state":"MN","lat":45.3576,"long":-92.7609},{"zip":"55078","city":"Stacy","state":"MN","lat":45.398,"long":-92.9874},{"zip":"55079","city":"Stacy","state":"MN","lat":45.3975,"long":-93.0177},{"zip":"55084","city":"Taylors Falls","state":"MN","lat":45.4576,"long":-92.733},{"zip":"55092","city":"Wyoming","state":"MN","lat":45.3364,"long":-92.9675},{"zip":"55604","city":"Grand Marais","state":"MN","lat":47.7758,"long":-90.3391},{"zip":"55605","city":"Grand Portage","state":"MN","lat":47.9591,"long":-89.6989},{"zip":"55606","city":"Hovland","state":"MN","lat":47.8342,"long":-90.0476},{"zip":"55612","city":"Lutsen","state":"MN","lat":47.6831,"long":-90.6381},{"zip":"55613","city":"Schroeder","state":"MN","lat":47.5422,"long":-90.9338},{"zip":"55615","city":"Tofte","state":"MN","lat":47.5738,"long":-90.8363},{"zip":"55010","city":"Castle Rock","state":"MN","lat":44.5472,"long":-93.1531},{"zip":"55024","city":"Farmington","state":"MN","lat":44.6628,"long":-93.1539},{"zip":"55031","city":"Hampton","state":"MN","lat":44.6028,"long":-92.9467},{"zip":"55033","city":"Hastings","state":"MN","lat":44.7129,"long":-92.8637},{"zip":"55044","city":"Lakeville","state":"MN","lat":44.6749,"long":-93.2578},{"zip":"55065","city":"Randolph","state":"MN","lat":44.5274,"long":-93.0196},{"zip":"55068","city":"Rosemount","state":"MN","lat":44.7394,"long":-93.1258},{"zip":"55075","city":"South Saint Paul","state":"MN","lat":44.8881,"long":-93.046},{"zip":"55076","city":"Inver Grove Heights","state":"MN","lat":44.8288,"long":-93.0391},{"zip":"55077","city":"Inver Grove Heights","state":"MN","lat":44.8283,"long":-93.094},{"zip":"55085","city":"Vermillion","state":"MN","lat":44.6748,"long":-92.9683},{"zip":"55118","city":"Saint Paul","state":"MN","lat":44.8965,"long":-93.1034},{"zip":"55120","city":"Saint Paul","state":"MN","lat":44.8704,"long":-93.1434},{"zip":"55121","city":"Saint Paul","state":"MN","lat":44.8471,"long":-93.1543},{"zip":"55122","city":"Saint Paul","state":"MN","lat":44.786,"long":-93.2202},{"zip":"55123","city":"Saint Paul","state":"MN","lat":44.806,"long":-93.1409},{"zip":"55124","city":"Saint Paul","state":"MN","lat":44.7497,"long":-93.2029},{"zip":"55150","city":"Mendota","state":"MN","lat":44.8858,"long":-93.1612},{"zip":"55306","city":"Burnsville","state":"MN","lat":44.7307,"long":-93.2921},{"zip":"55337","city":"Burnsville","state":"MN","lat":44.7609,"long":-93.2753},{"zip":"55924","city":"Claremont","state":"MN","lat":44.0522,"long":-92.9888},{"zip":"55927","city":"Dodge Center","state":"MN","lat":44.0325,"long":-92.8554},{"zip":"55940","city":"Hayfield","state":"MN","lat":43.8923,"long":-92.8175},{"zip":"55944","city":"Kasson","state":"MN","lat":44.024,"long":-92.7464},{"zip":"55955","city":"Mantorville","state":"MN","lat":44.0657,"long":-92.76},{"zip":"55985","city":"West Concord","state":"MN","lat":44.152,"long":-92.8825},{"zip":"55922","city":"Canton","state":"MN","lat":43.5667,"long":-91.913},{"zip":"55923","city":"Chatfield","state":"MN","lat":43.8362,"long":-92.1574},{"zip":"55935","city":"Fountain","state":"MN","lat":43.7284,"long":-92.1423},{"zip":"55939","city":"Harmony","state":"MN","lat":43.5663,"long":-92.0145},{"zip":"55949","city":"Lanesboro","state":"MN","lat":43.7174,"long":-91.9877},{"zip":"55954","city":"Mabel","state":"MN","lat":43.5446,"long":-91.7806},{"zip":"55961","city":"Ostrander","state":"MN","lat":43.5972,"long":-92.4157},{"zip":"55962","city":"Peterson","state":"MN","lat":43.7769,"long":-91.8443},{"zip":"55965","city":"Preston","state":"MN","lat":43.6641,"long":-92.096},{"zip":"55971","city":"Rushford","state":"MN","lat":43.8216,"long":-91.7536},{"zip":"55975","city":"Spring Valley","state":"MN","lat":43.6823,"long":-92.368},{"zip":"55990","city":"Wykoff","state":"MN","lat":43.7146,"long":-92.2679},{"zip":"55009","city":"Cannon Falls","state":"MN","lat":44.496,"long":-92.864},{"zip":"55018","city":"Dennison","state":"MN","lat":44.4265,"long":-92.9554},{"zip":"55026","city":"Frontenac","state":"MN","lat":44.52,"long":-92.3582},{"zip":"55027","city":"Goodhue","state":"MN","lat":44.4022,"long":-92.5717},{"zip":"55066","city":"Red Wing","state":"MN","lat":44.5528,"long":-92.5486},{"zip":"55089","city":"Welch","state":"MN","lat":44.603,"long":-92.7263},{"zip":"55946","city":"Kenyon","state":"MN","lat":44.2552,"long":-93.0197},{"zip":"55963","city":"Pine Island","state":"MN","lat":44.211,"long":-92.6613},{"zip":"55983","city":"Wanamingo","state":"MN","lat":44.3121,"long":-92.8103},{"zip":"55992","city":"Zumbrota","state":"MN","lat":44.3032,"long":-92.6719},{"zip":"55111","city":"Saint Paul","state":"MN","lat":44.8828,"long":-93.2007},{"zip":"55305","city":"Hopkins","state":"MN","lat":44.9528,"long":-93.4372},{"zip":"55311","city":"Maple Grove","state":"MN","lat":45.0725,"long":-93.4558},{"zip":"55316","city":"Champlin","state":"MN","lat":45.17,"long":-93.3819},{"zip":"55323","city":"Crystal Bay","state":"MN","lat":44.953,"long":-93.5763},{"zip":"55327","city":"Dayton","state":"MN","lat":45.1982,"long":-93.4668},{"zip":"55331","city":"Excelsior","state":"MN","lat":44.9007,"long":-93.5791},{"zip":"55340","city":"Hamel","state":"MN","lat":45.08,"long":-93.576},{"zip":"55343","city":"Hopkins","state":"MN","lat":44.914,"long":-93.4481},{"zip":"55344","city":"Eden Prairie","state":"MN","lat":44.8574,"long":-93.4376},{"zip":"55345","city":"Minnetonka","state":"MN","lat":44.9138,"long":-93.485},{"zip":"55346","city":"Eden Prairie","state":"MN","lat":44.8771,"long":-93.483},{"zip":"55347","city":"Eden Prairie","state":"MN","lat":44.8342,"long":-93.4389},{"zip":"55348","city":"Maple Plain","state":"MN","lat":45.0072,"long":-93.6558},{"zip":"55356","city":"Long Lake","state":"MN","lat":44.9912,"long":-93.5818},{"zip":"55357","city":"Loretto","state":"MN","lat":45.1061,"long":-93.6692},{"zip":"55359","city":"Maple Plain","state":"MN","lat":44.9787,"long":-93.7002},{"zip":"55361","city":"Minnetonka Beach","state":"MN","lat":44.9402,"long":-93.5927},{"zip":"55364","city":"Mound","state":"MN","lat":44.9382,"long":-93.6561},{"zip":"55369","city":"Osseo","state":"MN","lat":45.1284,"long":-93.4589},{"zip":"55374","city":"Rogers","state":"MN","lat":45.1715,"long":-93.5814},{"zip":"55375","city":"Saint Bonifacius","state":"MN","lat":44.9041,"long":-93.749},{"zip":"55384","city":"Spring Park","state":"MN","lat":44.9356,"long":-93.6341},{"zip":"55391","city":"Wayzata","state":"MN","lat":44.9847,"long":-93.5422},{"zip":"55392","city":"Navarre","state":"MN","lat":45.0159,"long":-93.4719},{"zip":"55401","city":"Minneapolis","state":"MN","lat":44.9835,"long":-93.2683},{"zip":"55402","city":"Minneapolis","state":"MN","lat":44.9762,"long":-93.2759},{"zip":"55403","city":"Minneapolis","state":"MN","lat":44.9673,"long":-93.2828},{"zip":"55404","city":"Minneapolis","state":"MN","lat":44.9609,"long":-93.2642},{"zip":"55405","city":"Minneapolis","state":"MN","lat":44.9702,"long":-93.3047},{"zip":"55406","city":"Minneapolis","state":"MN","lat":44.9384,"long":-93.2214},{"zip":"55407","city":"Minneapolis","state":"MN","lat":44.9378,"long":-93.2545},{"zip":"55408","city":"Minneapolis","state":"MN","lat":44.9466,"long":-93.2862},{"zip":"55409","city":"Minneapolis","state":"MN","lat":44.9264,"long":-93.2818},{"zip":"55410","city":"Minneapolis","state":"MN","lat":44.9124,"long":-93.3188},{"zip":"55411","city":"Minneapolis","state":"MN","lat":44.9996,"long":-93.3005},{"zip":"55412","city":"Minneapolis","state":"MN","lat":45.0242,"long":-93.302},{"zip":"55413","city":"Minneapolis","state":"MN","lat":44.998,"long":-93.2552},{"zip":"55414","city":"Minneapolis","state":"MN","lat":44.9779,"long":-93.2199},{"zip":"55415","city":"Minneapolis","state":"MN","lat":44.9742,"long":-93.2585},{"zip":"55416","city":"Minneapolis","state":"MN","lat":44.9497,"long":-93.3373},{"zip":"55417","city":"Minneapolis","state":"MN","lat":44.9054,"long":-93.2361},{"zip":"55418","city":"Minneapolis","state":"MN","lat":45.0192,"long":-93.2401},{"zip":"55419","city":"Minneapolis","state":"MN","lat":44.9026,"long":-93.2886},{"zip":"55420","city":"Minneapolis","state":"MN","lat":44.8358,"long":-93.2778},{"zip":"55422","city":"Minneapolis","state":"MN","lat":45.0096,"long":-93.3424},{"zip":"55423","city":"Minneapolis","state":"MN","lat":44.8756,"long":-93.2553},{"zip":"55424","city":"Minneapolis","state":"MN","lat":44.9052,"long":-93.3403},{"zip":"55425","city":"Minneapolis","state":"MN","lat":44.8427,"long":-93.2363},{"zip":"55426","city":"Minneapolis","state":"MN","lat":44.955,"long":-93.3829},{"zip":"55427","city":"Minneapolis","state":"MN","lat":45,"long":-93.391},{"zip":"55428","city":"Minneapolis","state":"MN","lat":45.0632,"long":-93.3811},{"zip":"55429","city":"Minneapolis","state":"MN","lat":45.0645,"long":-93.3413},{"zip":"55430","city":"Minneapolis","state":"MN","lat":45.0639,"long":-93.3022},{"zip":"55431","city":"Minneapolis","state":"MN","lat":44.8288,"long":-93.3118},{"zip":"55435","city":"Minneapolis","state":"MN","lat":44.8735,"long":-93.3346},{"zip":"55436","city":"Minneapolis","state":"MN","lat":44.9034,"long":-93.374},{"zip":"55437","city":"Minneapolis","state":"MN","lat":44.8261,"long":-93.3538},{"zip":"55438","city":"Minneapolis","state":"MN","lat":44.8266,"long":-93.375},{"zip":"55439","city":"Minneapolis","state":"MN","lat":44.8744,"long":-93.3753},{"zip":"55440","city":"Minneapolis","state":"MN","lat":44.98,"long":-93.2638},{"zip":"55441","city":"Minneapolis","state":"MN","lat":45.0058,"long":-93.4193},{"zip":"55442","city":"Minneapolis","state":"MN","lat":45.0467,"long":-93.431},{"zip":"55443","city":"Minneapolis","state":"MN","lat":45.1194,"long":-93.3431},{"zip":"55444","city":"Minneapolis","state":"MN","lat":45.1178,"long":-93.3054},{"zip":"55445","city":"Minneapolis","state":"MN","lat":45.1232,"long":-93.3797},{"zip":"55446","city":"Minneapolis","state":"MN","lat":45.04,"long":-93.4865},{"zip":"55447","city":"Minneapolis","state":"MN","lat":45.0033,"long":-93.4875},{"zip":"55450","city":"Minneapolis","state":"MN","lat":44.8811,"long":-93.2207},{"zip":"55454","city":"Minneapolis","state":"MN","lat":44.9682,"long":-93.2429},{"zip":"55455","city":"Minneapolis","state":"MN","lat":44.9735,"long":-93.2331},{"zip":"55458","city":"Minneapolis","state":"MN","lat":44.98,"long":-93.2638},{"zip":"55459","city":"Minneapolis","state":"MN","lat":44.98,"long":-93.2638},{"zip":"55460","city":"Minneapolis","state":"MN","lat":44.98,"long":-93.2638},{"zip":"55467","city":"Minneapolis","state":"MN","lat":44.9861,"long":-93.2708},{"zip":"55470","city":"Minneapolis","state":"MN","lat":44.98,"long":-93.2638},{"zip":"55472","city":"Minneapolis","state":"MN","lat":44.98,"long":-93.2638},{"zip":"55474","city":"Minneapolis","state":"MN","lat":44.98,"long":-93.2638},{"zip":"55478","city":"Minneapolis","state":"MN","lat":44.98,"long":-93.2638},{"zip":"55479","city":"Minneapolis","state":"MN","lat":44.98,"long":-93.2638},{"zip":"55480","city":"Minneapolis","state":"MN","lat":44.98,"long":-93.2638},{"zip":"55483","city":"Minneapolis","state":"MN","lat":44.98,"long":-93.2638},{"zip":"55484","city":"Minneapolis","state":"MN","lat":44.98,"long":-93.2638},{"zip":"55485","city":"Minneapolis","state":"MN","lat":44.98,"long":-93.2638},{"zip":"55486","city":"Minneapolis","state":"MN","lat":44.98,"long":-93.2638},{"zip":"55487","city":"Minneapolis","state":"MN","lat":44.98,"long":-93.2638},{"zip":"55488","city":"Minneapolis","state":"MN","lat":44.98,"long":-93.2638},{"zip":"55569","city":"Osseo","state":"MN","lat":45.1194,"long":-93.4025},{"zip":"55570","city":"Maple Plain","state":"MN","lat":45.0159,"long":-93.4719},{"zip":"55571","city":"Maple Plain","state":"MN","lat":45.0159,"long":-93.4719},{"zip":"55572","city":"Rockford","state":"MN","lat":45.0883,"long":-93.7344},{"zip":"55573","city":"Young America","state":"MN","lat":45.0159,"long":-93.4719},{"zip":"55574","city":"Maple Plain","state":"MN","lat":45.0159,"long":-93.4719},{"zip":"55575","city":"Howard Lake","state":"MN","lat":45.0608,"long":-94.0733},{"zip":"55576","city":"Maple Plain","state":"MN","lat":45.0159,"long":-93.4719},{"zip":"55577","city":"Maple Plain","state":"MN","lat":45.0159,"long":-93.4719},{"zip":"55578","city":"Maple Plain","state":"MN","lat":45.0159,"long":-93.4719},{"zip":"55579","city":"Maple Plain","state":"MN","lat":45.0159,"long":-93.4719},{"zip":"55593","city":"Maple Plain","state":"MN","lat":45.0159,"long":-93.4719},{"zip":"55595","city":"Loretto","state":"MN","lat":45.0159,"long":-93.4719},{"zip":"55596","city":"Loretto","state":"MN","lat":45.0159,"long":-93.4719},{"zip":"55597","city":"Loretto","state":"MN","lat":45.0159,"long":-93.4719},{"zip":"55598","city":"Loretto","state":"MN","lat":45.0159,"long":-93.4719},{"zip":"55599","city":"Loretto","state":"MN","lat":45.0159,"long":-93.4719},{"zip":"55919","city":"Brownsville","state":"MN","lat":43.6707,"long":-91.3012},{"zip":"55921","city":"Caledonia","state":"MN","lat":43.6221,"long":-91.4837},{"zip":"55931","city":"Eitzen","state":"MN","lat":43.5084,"long":-91.4632},{"zip":"55941","city":"Hokah","state":"MN","lat":43.7509,"long":-91.3455},{"zip":"55943","city":"Houston","state":"MN","lat":43.7929,"long":-91.5626},{"zip":"55947","city":"La Crescent","state":"MN","lat":43.8307,"long":-91.3263},{"zip":"55974","city":"Spring Grove","state":"MN","lat":43.5623,"long":-91.6368},{"zip":"55006","city":"Braham","state":"MN","lat":45.7175,"long":-93.2037},{"zip":"55008","city":"Cambridge","state":"MN","lat":45.5576,"long":-93.2889},{"zip":"55017","city":"Dalbo","state":"MN","lat":45.6787,"long":-93.4419},{"zip":"55029","city":"Grandy","state":"MN","lat":45.6352,"long":-93.1952},{"zip":"55040","city":"Isanti","state":"MN","lat":45.4682,"long":-93.2266},{"zip":"55080","city":"Stanchfield","state":"MN","lat":45.6675,"long":-93.2433},{"zip":"55709","city":"Bovey","state":"MN","lat":47.2868,"long":-93.3723},{"zip":"55716","city":"Calumet","state":"MN","lat":47.3229,"long":-93.2763},{"zip":"55721","city":"Cohasset","state":"MN","lat":47.2691,"long":-93.6392},{"zip":"55722","city":"Coleraine","state":"MN","lat":47.2888,"long":-93.4277},{"zip":"55730","city":"Grand Rapids","state":"MN","lat":47.2372,"long":-93.5302},{"zip":"55742","city":"Goodland","state":"MN","lat":47.1924,"long":-93.1469},{"zip":"55744","city":"Grand Rapids","state":"MN","lat":47.2348,"long":-93.5115},{"zip":"55745","city":"Grand Rapids","state":"MN","lat":47.2372,"long":-93.5302},{"zip":"55753","city":"Keewatin","state":"MN","lat":47.398,"long":-93.0784},{"zip":"55764","city":"Marble","state":"MN","lat":47.3219,"long":-93.2939},{"zip":"55769","city":"Nashwauk","state":"MN","lat":47.42,"long":-93.2168},{"zip":"55775","city":"Pengilly","state":"MN","lat":47.3151,"long":-93.1937},{"zip":"55784","city":"Swan River","state":"MN","lat":47.0739,"long":-93.1964},{"zip":"55786","city":"Taconite","state":"MN","lat":47.3164,"long":-93.3904},{"zip":"55793","city":"Warba","state":"MN","lat":47.1361,"long":-93.2764},{"zip":"55051","city":"Mora","state":"MN","lat":45.8958,"long":-93.2942},{"zip":"55601","city":"Beaver Bay","state":"MN","lat":47.256,"long":-91.3566},{"zip":"55603","city":"Finland","state":"MN","lat":47.4197,"long":-91.2096},{"zip":"55607","city":"Isabella","state":"MN","lat":47.6604,"long":-91.4989},{"zip":"55609","city":"Knife River","state":"MN","lat":46.9539,"long":-91.778},{"zip":"55614","city":"Silver Bay","state":"MN","lat":47.3585,"long":-91.2205},{"zip":"55616","city":"Two Harbors","state":"MN","lat":47.0394,"long":-91.6783},{"zip":"55312","city":"Brownton","state":"MN","lat":44.7281,"long":-94.3306},{"zip":"55336","city":"Glencoe","state":"MN","lat":44.778,"long":-94.1616},{"zip":"55350","city":"Hutchinson","state":"MN","lat":44.8946,"long":-94.3847},{"zip":"55354","city":"Lester Prairie","state":"MN","lat":44.8739,"long":-94.0551},{"zip":"55370","city":"Plato","state":"MN","lat":44.7657,"long":-94.0506},{"zip":"55381","city":"Silver Lake","state":"MN","lat":44.9139,"long":-94.1974},{"zip":"55385","city":"Stewart","state":"MN","lat":44.7259,"long":-94.4516},{"zip":"55395","city":"Winsted","state":"MN","lat":44.9585,"long":-94.0552},{"zip":"55324","city":"Darwin","state":"MN","lat":45.1029,"long":-94.4249},{"zip":"55325","city":"Dassel","state":"MN","lat":45.1032,"long":-94.3305},{"zip":"55329","city":"Eden Valley","state":"MN","lat":45.302,"long":-94.6039},{"zip":"55355","city":"Litchfield","state":"MN","lat":45.1263,"long":-94.5268},{"zip":"55389","city":"Watkins","state":"MN","lat":45.3087,"long":-94.4297},{"zip":"55371","city":"Princeton","state":"MN","lat":45.5851,"long":-93.5961},{"zip":"55909","city":"Adams","state":"MN","lat":43.5591,"long":-92.7305},{"zip":"55912","city":"Austin","state":"MN","lat":43.6695,"long":-92.9784},{"zip":"55918","city":"Brownsdale","state":"MN","lat":43.7248,"long":-92.8738},{"zip":"55926","city":"Dexter","state":"MN","lat":43.716,"long":-92.7268},{"zip":"55933","city":"Elkton","state":"MN","lat":43.6348,"long":-92.7104},{"zip":"55936","city":"Grand Meadow","state":"MN","lat":43.7101,"long":-92.5692},{"zip":"55950","city":"Lansing","state":"MN","lat":43.7452,"long":-92.9702},{"zip":"55951","city":"Le Roy","state":"MN","lat":43.5315,"long":-92.5065},{"zip":"55953","city":"Lyle","state":"MN","lat":43.5309,"long":-92.9328},{"zip":"55967","city":"Racine","state":"MN","lat":43.79,"long":-92.531},{"zip":"55970","city":"Rose Creek","state":"MN","lat":43.6036,"long":-92.8319},{"zip":"55973","city":"Sargeant","state":"MN","lat":43.809,"long":-92.7595},{"zip":"55977","city":"Taopi","state":"MN","lat":43.5458,"long":-92.6335},{"zip":"55982","city":"Waltham","state":"MN","lat":43.807,"long":-92.8734},{"zip":"55901","city":"Rochester","state":"MN","lat":44.0496,"long":-92.4896},{"zip":"55902","city":"Rochester","state":"MN","lat":44.0032,"long":-92.4835},{"zip":"55903","city":"Rochester","state":"MN","lat":43.9966,"long":-92.5409},{"zip":"55904","city":"Rochester","state":"MN","lat":44.0105,"long":-92.3973},{"zip":"55905","city":"Rochester","state":"MN","lat":44.0225,"long":-92.4668},{"zip":"55906","city":"Rochester","state":"MN","lat":44.1078,"long":-92.4053},{"zip":"55920","city":"Byron","state":"MN","lat":44.0373,"long":-92.6308},{"zip":"55929","city":"Dover","state":"MN","lat":44.0015,"long":-92.1415},{"zip":"55934","city":"Eyota","state":"MN","lat":44.0099,"long":-92.2648},{"zip":"55960","city":"Oronoco","state":"MN","lat":44.1489,"long":-92.485},{"zip":"55976","city":"Stewartville","state":"MN","lat":43.8555,"long":-92.4885},{"zip":"55007","city":"Brook Park","state":"MN","lat":45.9474,"long":-93.0736},{"zip":"55030","city":"Grasston","state":"MN","lat":45.8566,"long":-93.0813},{"zip":"55036","city":"Henriette","state":"MN","lat":45.8712,"long":-93.1196},{"zip":"55037","city":"Hinckley","state":"MN","lat":46.0189,"long":-92.8993},{"zip":"55063","city":"Pine City","state":"MN","lat":45.8363,"long":-92.9042},{"zip":"55067","city":"Rock Creek","state":"MN","lat":45.7575,"long":-92.9624},{"zip":"55072","city":"Sandstone","state":"MN","lat":46.1325,"long":-92.589},{"zip":"55704","city":"Askov","state":"MN","lat":46.1964,"long":-92.7528},{"zip":"55712","city":"Bruno","state":"MN","lat":46.2845,"long":-92.619},{"zip":"55735","city":"Finlayson","state":"MN","lat":46.2121,"long":-92.9389},{"zip":"55756","city":"Kerrick","state":"MN","lat":46.3792,"long":-92.578},{"zip":"55783","city":"Sturgeon Lake","state":"MN","lat":46.3837,"long":-92.8182},{"zip":"55795","city":"Willow River","state":"MN","lat":46.2949,"long":-92.8309},{"zip":"55101","city":"Saint Paul","state":"MN","lat":44.9512,"long":-93.0902},{"zip":"55102","city":"Saint Paul","state":"MN","lat":44.9372,"long":-93.1209},{"zip":"55103","city":"Saint Paul","state":"MN","lat":44.9608,"long":-93.1216},{"zip":"55104","city":"Saint Paul","state":"MN","lat":44.9532,"long":-93.158},{"zip":"55105","city":"Saint Paul","state":"MN","lat":44.9347,"long":-93.1651},{"zip":"55106","city":"Saint Paul","state":"MN","lat":44.9684,"long":-93.0488},{"zip":"55107","city":"Saint Paul","state":"MN","lat":44.9325,"long":-93.088},{"zip":"55108","city":"Saint Paul","state":"MN","lat":44.9806,"long":-93.1771},{"zip":"55109","city":"Saint Paul","state":"MN","lat":45.0132,"long":-93.0297},{"zip":"55110","city":"Saint Paul","state":"MN","lat":45.08,"long":-93.0223},{"zip":"55112","city":"Saint Paul","state":"MN","lat":45.0788,"long":-93.1872},{"zip":"55113","city":"Saint Paul","state":"MN","lat":45.0139,"long":-93.1571},{"zip":"55114","city":"Saint Paul","state":"MN","lat":44.968,"long":-93.1981},{"zip":"55116","city":"Saint Paul","state":"MN","lat":44.914,"long":-93.1727},{"zip":"55117","city":"Saint Paul","state":"MN","lat":44.9995,"long":-93.0969},{"zip":"55119","city":"Saint Paul","state":"MN","lat":44.9414,"long":-93.0107},{"zip":"55126","city":"Saint Paul","state":"MN","lat":45.0736,"long":-93.138},{"zip":"55127","city":"Saint Paul","state":"MN","lat":45.0803,"long":-93.0875},{"zip":"55130","city":"Saint Paul","state":"MN","lat":44.973,"long":-93.0827},{"zip":"55133","city":"Saint Paul","state":"MN","lat":45.0059,"long":-93.1059},{"zip":"55144","city":"Saint Paul","state":"MN","lat":45.0059,"long":-93.1059},{"zip":"55145","city":"Saint Paul","state":"MN","lat":44.9444,"long":-93.0933},{"zip":"55146","city":"Saint Paul","state":"MN","lat":44.9427,"long":-93.0828},{"zip":"55155","city":"Saint Paul","state":"MN","lat":44.9522,"long":-93.0955},{"zip":"55164","city":"Saint Paul","state":"MN","lat":44.9909,"long":-93.1066},{"zip":"55165","city":"Saint Paul","state":"MN","lat":45.0059,"long":-93.1059},{"zip":"55170","city":"Saint Paul","state":"MN","lat":44.9444,"long":-93.0933},{"zip":"55172","city":"Saint Paul","state":"MN","lat":45.0059,"long":-93.1059},{"zip":"55175","city":"Saint Paul","state":"MN","lat":45.0059,"long":-93.1059},{"zip":"55187","city":"Saint Paul","state":"MN","lat":45.0059,"long":-93.1059},{"zip":"55188","city":"Saint Paul","state":"MN","lat":45.0059,"long":-93.1059},{"zip":"55310","city":"Bird Island","state":"MN","lat":44.7507,"long":-94.8716},{"zip":"55314","city":"Buffalo Lake","state":"MN","lat":44.7709,"long":-94.5912},{"zip":"55332","city":"Fairfax","state":"MN","lat":44.5329,"long":-94.7256},{"zip":"55333","city":"Franklin","state":"MN","lat":44.5421,"long":-94.8931},{"zip":"55342","city":"Hector","state":"MN","lat":44.7485,"long":-94.7058},{"zip":"55019","city":"Dundas","state":"MN","lat":44.3955,"long":-93.2037},{"zip":"55021","city":"Faribault","state":"MN","lat":44.2945,"long":-93.2818},{"zip":"55046","city":"Lonsdale","state":"MN","lat":44.4477,"long":-93.4252},{"zip":"55052","city":"Morristown","state":"MN","lat":44.2342,"long":-93.4525},{"zip":"55053","city":"Nerstrand","state":"MN","lat":44.3538,"long":-93.0855},{"zip":"55057","city":"Northfield","state":"MN","lat":44.4587,"long":-93.1668},{"zip":"55087","city":"Warsaw","state":"MN","lat":44.2485,"long":-93.3949},{"zip":"55088","city":"Webster","state":"MN","lat":44.5003,"long":-93.3826},{"zip":"55602","city":"Brimson","state":"MN","lat":47.3142,"long":-91.8625},{"zip":"55702","city":"Alborn","state":"MN","lat":46.9782,"long":-92.5579},{"zip":"55703","city":"Angora","state":"MN","lat":47.7577,"long":-92.6413},{"zip":"55705","city":"Aurora","state":"MN","lat":47.4951,"long":-92.2415},{"zip":"55706","city":"Babbitt","state":"MN","lat":47.7091,"long":-91.957},{"zip":"55708","city":"Biwabik","state":"MN","lat":47.5328,"long":-92.3408},{"zip":"55710","city":"Britt","state":"MN","lat":47.655,"long":-92.6321},{"zip":"55711","city":"Brookston","state":"MN","lat":46.8384,"long":-92.643},{"zip":"55713","city":"Buhl","state":"MN","lat":47.4932,"long":-92.7643},{"zip":"55717","city":"Canyon","state":"MN","lat":47.0785,"long":-92.4594},{"zip":"55719","city":"Chisholm","state":"MN","lat":47.5007,"long":-92.8617},{"zip":"55723","city":"Cook","state":"MN","lat":47.8442,"long":-92.721},{"zip":"55724","city":"Cotton","state":"MN","lat":47.1521,"long":-92.4352},{"zip":"55725","city":"Crane Lake","state":"MN","lat":48.2594,"long":-92.4896},{"zip":"55731","city":"Ely","state":"MN","lat":47.9034,"long":-91.857},{"zip":"55732","city":"Embarrass","state":"MN","lat":47.6658,"long":-92.2101},{"zip":"55734","city":"Eveleth","state":"MN","lat":47.451,"long":-92.528},{"zip":"55736","city":"Floodwood","state":"MN","lat":46.9076,"long":-92.9167},{"zip":"55738","city":"Forbes","state":"MN","lat":47.2732,"long":-92.6756},{"zip":"55741","city":"Gilbert","state":"MN","lat":47.4885,"long":-92.4025},{"zip":"55746","city":"Hibbing","state":"MN","lat":47.4156,"long":-92.9356},{"zip":"55747","city":"Hibbing","state":"MN","lat":47.4272,"long":-92.9377},{"zip":"55750","city":"Hoyt Lakes","state":"MN","lat":47.515,"long":-92.14},{"zip":"55751","city":"Iron","state":"MN","lat":47.4115,"long":-92.6195},{"zip":"55758","city":"Kinney","state":"MN","lat":47.5121,"long":-92.7402},{"zip":"55763","city":"Makinen","state":"MN","lat":47.3416,"long":-92.3446},{"zip":"55765","city":"Meadowlands","state":"MN","lat":47.1021,"long":-92.7884},{"zip":"55766","city":"Melrude","state":"MN","lat":47.2496,"long":-92.4123},{"zip":"55768","city":"Mountain Iron","state":"MN","lat":47.5133,"long":-92.6243},{"zip":"55771","city":"Orr","state":"MN","lat":48.1439,"long":-92.8561},{"zip":"55772","city":"Nett Lake","state":"MN","lat":48.0817,"long":-93.0834},{"zip":"55777","city":"Virginia","state":"MN","lat":47.5233,"long":-92.5366},{"zip":"55779","city":"Saginaw","state":"MN","lat":46.8795,"long":-92.3917},{"zip":"55781","city":"Side Lake","state":"MN","lat":47.6671,"long":-93.0424},{"zip":"55782","city":"Soudan","state":"MN","lat":47.821,"long":-92.2464},{"zip":"55790","city":"Tower","state":"MN","lat":47.8089,"long":-92.2878},{"zip":"55791","city":"Twig","state":"MN","lat":46.8944,"long":-92.3646},{"zip":"55792","city":"Virginia","state":"MN","lat":47.5371,"long":-92.5285},{"zip":"55796","city":"Winton","state":"MN","lat":47.9263,"long":-91.8007},{"zip":"55801","city":"Duluth","state":"MN","lat":46.7833,"long":-92.1066},{"zip":"55802","city":"Duluth","state":"MN","lat":46.7685,"long":-92.0865},{"zip":"55803","city":"Duluth","state":"MN","lat":46.8749,"long":-92.0941},{"zip":"55804","city":"Duluth","state":"MN","lat":46.8551,"long":-92.0074},{"zip":"55805","city":"Duluth","state":"MN","lat":46.7987,"long":-92.0946},{"zip":"55806","city":"Duluth","state":"MN","lat":46.7715,"long":-92.1279},{"zip":"55807","city":"Duluth","state":"MN","lat":46.7408,"long":-92.1698},{"zip":"55808","city":"Duluth","state":"MN","lat":46.681,"long":-92.2226},{"zip":"55810","city":"Duluth","state":"MN","lat":46.7606,"long":-92.266},{"zip":"55811","city":"Duluth","state":"MN","lat":46.8147,"long":-92.1998},{"zip":"55812","city":"Duluth","state":"MN","lat":46.8106,"long":-92.0767},{"zip":"55814","city":"Duluth","state":"MN","lat":46.7833,"long":-92.1066},{"zip":"55815","city":"Duluth","state":"MN","lat":46.7833,"long":-92.1066},{"zip":"55816","city":"Duluth","state":"MN","lat":46.7833,"long":-92.1066},{"zip":"55020","city":"Elko New Market","state":"MN","lat":44.5647,"long":-93.3269},{"zip":"55054","city":"Elko New Market","state":"MN","lat":44.5647,"long":-93.3269},{"zip":"55352","city":"Jordan","state":"MN","lat":44.6713,"long":-93.6195},{"zip":"55372","city":"Prior Lake","state":"MN","lat":44.7107,"long":-93.4101},{"zip":"55378","city":"Savage","state":"MN","lat":44.7615,"long":-93.3434},{"zip":"55379","city":"Shakopee","state":"MN","lat":44.7793,"long":-93.5197},{"zip":"55308","city":"Becker","state":"MN","lat":45.4365,"long":-93.841},{"zip":"55309","city":"Big Lake","state":"MN","lat":45.3506,"long":-93.7399},{"zip":"55319","city":"Clear Lake","state":"MN","lat":45.4795,"long":-93.9684},{"zip":"55330","city":"Elk River","state":"MN","lat":45.3136,"long":-93.5814},{"zip":"55377","city":"Santiago","state":"MN","lat":45.5402,"long":-93.8154},{"zip":"55398","city":"Zimmerman","state":"MN","lat":45.4553,"long":-93.5879},{"zip":"55307","city":"Arlington","state":"MN","lat":44.6153,"long":-94.0762},{"zip":"55334","city":"Gaylord","state":"MN","lat":44.5463,"long":-94.1955},{"zip":"55335","city":"Gibbon","state":"MN","lat":44.5606,"long":-94.5467},{"zip":"55338","city":"Green Isle","state":"MN","lat":44.6791,"long":-94.0083},{"zip":"55366","city":"New Auburn","state":"MN","lat":44.6735,"long":-94.2293},{"zip":"55396","city":"Winthrop","state":"MN","lat":44.5436,"long":-94.3698},{"zip":"55353","city":"Kimball","state":"MN","lat":45.3436,"long":-94.3028},{"zip":"55049","city":"Medford","state":"MN","lat":44.1741,"long":-93.2437},{"zip":"55060","city":"Owatonna","state":"MN","lat":44.0805,"long":-93.2191},{"zip":"55917","city":"Blooming Prairie","state":"MN","lat":43.8977,"long":-93.0608},{"zip":"55041","city":"Lake City","state":"MN","lat":44.4305,"long":-92.2838},{"zip":"55932","city":"Elgin","state":"MN","lat":44.1358,"long":-92.2535},{"zip":"55945","city":"Kellogg","state":"MN","lat":44.2739,"long":-92.1095},{"zip":"55956","city":"Mazeppa","state":"MN","lat":44.2646,"long":-92.5207},{"zip":"55957","city":"Millville","state":"MN","lat":44.2359,"long":-92.2672},{"zip":"55964","city":"Plainview","state":"MN","lat":44.1637,"long":-92.1621},{"zip":"55968","city":"Reads Landing","state":"MN","lat":44.3977,"long":-92.0893},{"zip":"55981","city":"Wabasha","state":"MN","lat":44.3703,"long":-92.0361},{"zip":"55991","city":"Zumbro Falls","state":"MN","lat":44.2427,"long":-92.4256},{"zip":"55001","city":"Afton","state":"MN","lat":44.8697,"long":-92.8234},{"zip":"55003","city":"Bayport","state":"MN","lat":45.0214,"long":-92.7844},{"zip":"55016","city":"Cottage Grove","state":"MN","lat":44.8308,"long":-92.9393},{"zip":"55025","city":"Forest Lake","state":"MN","lat":45.2685,"long":-92.9749},{"zip":"55038","city":"Hugo","state":"MN","lat":45.1824,"long":-92.9452},{"zip":"55042","city":"Lake Elmo","state":"MN","lat":44.9946,"long":-92.9056},{"zip":"55043","city":"Lakeland","state":"MN","lat":44.9394,"long":-92.7716},{"zip":"55047","city":"Marine On Saint Croix","state":"MN","lat":45.1988,"long":-92.8258},{"zip":"55055","city":"Newport","state":"MN","lat":44.8725,"long":-92.9986},{"zip":"55071","city":"Saint Paul Park","state":"MN","lat":44.8344,"long":-92.9873},{"zip":"55073","city":"Scandia","state":"MN","lat":45.2697,"long":-92.8292},{"zip":"55082","city":"Stillwater","state":"MN","lat":45.0614,"long":-92.8474},{"zip":"55083","city":"Stillwater","state":"MN","lat":45.021,"long":-92.9837},{"zip":"55090","city":"Willernie","state":"MN","lat":45.0535,"long":-92.957},{"zip":"55115","city":"Saint Paul","state":"MN","lat":45.071,"long":-92.9391},{"zip":"55125","city":"Saint Paul","state":"MN","lat":44.9197,"long":-92.9439},{"zip":"55128","city":"Saint Paul","state":"MN","lat":44.9913,"long":-92.9487},{"zip":"55129","city":"Saint Paul","state":"MN","lat":44.8985,"long":-92.923},{"zip":"55910","city":"Altura","state":"MN","lat":44.1361,"long":-91.9745},{"zip":"55925","city":"Dakota","state":"MN","lat":43.9148,"long":-91.394},{"zip":"55942","city":"Homer","state":"MN","lat":44.02,"long":-91.6819},{"zip":"55952","city":"Lewiston","state":"MN","lat":43.9702,"long":-91.8662},{"zip":"55959","city":"Minnesota City","state":"MN","lat":44.0832,"long":-91.7418},{"zip":"55969","city":"Rollingstone","state":"MN","lat":44.1025,"long":-91.8158},{"zip":"55972","city":"Saint Charles","state":"MN","lat":43.9585,"long":-92.0517},{"zip":"55979","city":"Utica","state":"MN","lat":43.9587,"long":-91.9417},{"zip":"55987","city":"Winona","state":"MN","lat":44.03,"long":-91.7009},{"zip":"55988","city":"Stockton","state":"MN","lat":44.0252,"long":-91.7708},{"zip":"55301","city":"Albertville","state":"MN","lat":45.2534,"long":-93.6469},{"zip":"55302","city":"Annandale","state":"MN","lat":45.2483,"long":-94.1061},{"zip":"55313","city":"Buffalo","state":"MN","lat":45.1814,"long":-93.8635},{"zip":"55320","city":"Clearwater","state":"MN","lat":45.3877,"long":-94.0452},{"zip":"55321","city":"Cokato","state":"MN","lat":45.0748,"long":-94.1911},{"zip":"55328","city":"Delano","state":"MN","lat":45.0342,"long":-93.8016},{"zip":"55341","city":"Hanover","state":"MN","lat":45.1602,"long":-93.6734},{"zip":"55349","city":"Howard Lake","state":"MN","lat":45.0616,"long":-94.0695},{"zip":"55358","city":"Maple Lake","state":"MN","lat":45.2202,"long":-93.9638},{"zip":"55362","city":"Monticello","state":"MN","lat":45.2956,"long":-93.8023},{"zip":"55363","city":"Montrose","state":"MN","lat":45.0442,"long":-93.9139},{"zip":"55373","city":"Rockford","state":"MN","lat":45.0882,"long":-93.7237},{"zip":"55376","city":"Saint Michael","state":"MN","lat":45.2064,"long":-93.6593},{"zip":"55380","city":"Silver Creek","state":"MN","lat":45.3158,"long":-93.9798},{"zip":"55382","city":"South Haven","state":"MN","lat":45.2925,"long":-94.2119},{"zip":"55390","city":"Waverly","state":"MN","lat":45.0666,"long":-93.9664},{"zip":"55592","city":"Maple Plain","state":"MN","lat":45.2009,"long":-93.8881}]
