[{"zip":"55005","city":"Bethel","state":"MN","lat":45.3887,"long":-93.2315},{"zip":"55011","city":"Cedar","state":"MN","lat":45.3414,"long":-93.235},{"zip":"55014","city":"Circle Pines","state":"MN","lat":45.1528,"long":-93.144},{"zip":"55070","city":"Saint Francis","state":"MN","lat":45.3903,"long":-93.3598},{"zip":"55002","city":"Almelund","state":"MN","lat":45.5134,"long":-92.8942},{"zip":"55012","city":"Center City","state":"MN","lat":45.4482,"long":-92.7894},{"zip":"55013","city":"Chisago City","state":"MN","lat":45.3611,"long":-92.8921},{"zip":"55032","city":"Harris","state":"MN","lat":45.5962,"long":-93.0395},{"zip":"55045","city":"Lindstrom","state":"MN","lat":45.3873,"long":-92.8421},{"zip":"55056","city":"North Branch","state":"MN","lat":45.5114,"long":-92.9802},{"zip":"55069","city":"Rush City","state":"MN","lat":45.6855,"long":-92.9655},{"zip":"55074","city":"Shafer","state":"MN","lat":45.3576,"long":-92.7609},{"zip":"55078","city":"Stacy","state":"MN","lat":45.398,"long":-92.9874},{"zip":"55079","city":"Stacy","state":"MN","lat":45.3975,"long":-93.0177},{"zip":"55084","city":"Taylors Falls","state":"MN","lat":45.4576,"long":-92.733},{"zip":"55092","city":"Wyoming","state":"MN","lat":45.3364,"long":-92.9675},{"zip":"55010","city":"Castle Rock","state":"MN","lat":44.5472,"long":-93.1531},{"zip":"55024","city":"Farmington","state":"MN","lat":44.6628,"long":-93.1539},{"zip":"55031","city":"Hampton","state":"MN","lat":44.6028,"long":-92.9467},{"zip":"55033","city":"Hastings","state":"MN","lat":44.7129,"long":-92.8637},{"zip":"55044","city":"Lakeville","state":"MN","lat":44.6749,"long":-93.2578},{"zip":"55065","city":"Randolph","state":"MN","lat":44.5274,"long":-93.0196},{"zip":"55068","city":"Rosemount","state":"MN","lat":44.7394,"long":-93.1258},{"zip":"55075","city":"South Saint Paul","state":"MN","lat":44.8881,"long":-93.046},{"zip":"55076","city":"Inver Grove Heights","state":"MN","lat":44.8288,"long":-93.0391},{"zip":"55077","city":"Inver Grove Heights","state":"MN","lat":44.8283,"long":-93.094},{"zip":"55085","city":"Vermillion","state":"MN","lat":44.6748,"long":-92.9683},{"zip":"55009","city":"Cannon Falls","state":"MN","lat":44.496,"long":-92.864},{"zip":"55018","city":"Dennison","state":"MN","lat":44.4265,"long":-92.9554},{"zip":"55026","city":"Frontenac","state":"MN","lat":44.52,"long":-92.3582},{"zip":"55027","city":"Goodhue","state":"MN","lat":44.4022,"long":-92.5717},{"zip":"55066","city":"Red Wing","state":"MN","lat":44.5528,"long":-92.5486},{"zip":"55089","city":"Welch","state":"MN","lat":44.603,"long":-92.7263},{"zip":"55006","city":"Braham","state":"MN","lat":45.7175,"long":-93.2037},{"zip":"55008","city":"Cambridge","state":"MN","lat":45.5576,"long":-93.2889},{"zip":"55017","city":"Dalbo","state":"MN","lat":45.6787,"long":-93.4419},{"zip":"55029","city":"Grandy","state":"MN","lat":45.6352,"long":-93.1952},{"zip":"55040","city":"Isanti","state":"MN","lat":45.4682,"long":-93.2266},{"zip":"55080","city":"Stanchfield","state":"MN","lat":45.6675,"long":-93.2433},{"zip":"55051","city":"Mora","state":"MN","lat":45.8958,"long":-93.2942},{"zip":"55007","city":"Brook Park","state":"MN","lat":45.9474,"long":-93.0736},{"zip":"55030","city":"Grasston","state":"MN","lat":45.8566,"long":-93.0813},{"zip":"55036","city":"Henriette","state":"MN","lat":45.8712,"long":-93.1196},{"zip":"55037","city":"Hinckley","state":"MN","lat":46.0189,"long":-92.8993},{"zip":"55063","city":"Pine City","state":"MN","lat":45.8363,"long":-92.9042},{"zip":"55067","city":"Rock Creek","state":"MN","lat":45.7575,"long":-92.9624},{"zip":"55072","city":"Sandstone","state":"MN","lat":46.1325,"long":-92.589},{"zip":"55019","city":"Dundas","state":"MN","lat":44.3955,"long":-93.2037},{"zip":"55021","city":"Faribault","state":"MN","lat":44.2945,"long":-93.2818},{"zip":"55046","city":"Lonsdale","state":"MN","lat":44.4477,"long":-93.4252},{"zip":"55052","city":"Morristown","state":"MN","lat":44.2342,"long":-93.4525},{"zip":"55053","city":"Nerstrand","state":"MN","lat":44.3538,"long":-93.0855},{"zip":"55057","city":"Northfield","state":"MN","lat":44.4587,"long":-93.1668},{"zip":"55087","city":"Warsaw","state":"MN","lat":44.2485,"long":-93.3949},{"zip":"55088","city":"Webster","state":"MN","lat":44.5003,"long":-93.3826},{"zip":"55020","city":"Elko New Market","state":"MN","lat":44.5647,"long":-93.3269},{"zip":"55054","city":"Elko New Market","state":"MN","lat":44.5647,"long":-93.3269},{"zip":"55049","city":"Medford","state":"MN","lat":44.1741,"long":-93.2437},{"zip":"55060","city":"Owatonna","state":"MN","lat":44.0805,"long":-93.2191},{"zip":"55041","city":"Lake City","state":"MN","lat":44.4305,"long":-92.2838},{"zip":"55001","city":"Afton","state":"MN","lat":44.8697,"long":-92.8234},{"zip":"55003","city":"Bayport","state":"MN","lat":45.0214,"long":-92.7844},{"zip":"55016","city":"Cottage Grove","state":"MN","lat":44.8308,"long":-92.9393},{"zip":"55025","city":"Forest Lake","state":"MN","lat":45.2685,"long":-92.9749},{"zip":"55038","city":"Hugo","state":"MN","lat":45.1824,"long":-92.9452},{"zip":"55042","city":"Lake Elmo","state":"MN","lat":44.9946,"long":-92.9056},{"zip":"55043","city":"Lakeland","state":"MN","lat":44.9394,"long":-92.7716},{"zip":"55047","city":"Marine On Saint Croix","state":"MN","lat":45.1988,"long":-92.8258},{"zip":"55055","city":"Newport","state":"MN","lat":44.8725,"long":-92.9986},{"zip":"55071","city":"Saint Paul Park","state":"MN","lat":44.8344,"long":-92.9873},{"zip":"55073","city":"Scandia","state":"MN","lat":45.2697,"long":-92.8292},{"zip":"55082","city":"Stillwater","state":"MN","lat":45.0614,"long":-92.8474},{"zip":"55083","city":"Stillwater","state":"MN","lat":45.021,"long":-92.9837},{"zip":"55090","city":"Willernie","state":"MN","lat":45.0535,"long":-92.957}]
