[{"zip":"55118","city":"Saint Paul","state":"MN","lat":44.8965,"long":-93.1034},{"zip":"55120","city":"Saint Paul","state":"MN","lat":44.8704,"long":-93.1434},{"zip":"55121","city":"Saint Paul","state":"MN","lat":44.8471,"long":-93.1543},{"zip":"55122","city":"Saint Paul","state":"MN","lat":44.786,"long":-93.2202},{"zip":"55123","city":"Saint Paul","state":"MN","lat":44.806,"long":-93.1409},{"zip":"55124","city":"Saint Paul","state":"MN","lat":44.7497,"long":-93.2029},{"zip":"55150","city":"Mendota","state":"MN","lat":44.8858,"long":-93.1612},{"zip":"55111","city":"Saint Paul","state":"MN","lat":44.8828,"long":-93.2007},{"zip":"55101","city":"Saint Paul","state":"MN","lat":44.9512,"long":-93.0902},{"zip":"55102","city":"Saint Paul","state":"MN","lat":44.9372,"long":-93.1209},{"zip":"55103","city":"Saint Paul","state":"MN","lat":44.9608,"long":-93.1216},{"zip":"55104","city":"Saint Paul","state":"MN","lat":44.9532,"long":-93.158},{"zip":"55105","city":"Saint Paul","state":"MN","lat":44.9347,"long":-93.1651},{"zip":"55106","city":"Saint Paul","state":"MN","lat":44.9684,"long":-93.0488},{"zip":"55107","city":"Saint Paul","state":"MN","lat":44.9325,"long":-93.088},{"zip":"55108","city":"Saint Paul","state":"MN","lat":44.9806,"long":-93.1771},{"zip":"55109","city":"Saint Paul","state":"MN","lat":45.0132,"long":-93.0297},{"zip":"55110","city":"Saint Paul","state":"MN","lat":45.08,"long":-93.0223},{"zip":"55112","city":"Saint Paul","state":"MN","lat":45.0788,"long":-93.1872},{"zip":"55113","city":"Saint Paul","state":"MN","lat":45.0139,"long":-93.1571},{"zip":"55114","city":"Saint Paul","state":"MN","lat":44.968,"long":-93.1981},{"zip":"55116","city":"Saint Paul","state":"MN","lat":44.914,"long":-93.1727},{"zip":"55117","city":"Saint Paul","state":"MN","lat":44.9995,"long":-93.0969},{"zip":"55119","city":"Saint Paul","state":"MN","lat":44.9414,"long":-93.0107},{"zip":"55126","city":"Saint Paul","state":"MN","lat":45.0736,"long":-93.138},{"zip":"55127","city":"Saint Paul","state":"MN","lat":45.0803,"long":-93.0875},{"zip":"55130","city":"Saint Paul","state":"MN","lat":44.973,"long":-93.0827},{"zip":"55133","city":"Saint Paul","state":"MN","lat":45.0059,"long":-93.1059},{"zip":"55144","city":"Saint Paul","state":"MN","lat":45.0059,"long":-93.1059},{"zip":"55145","city":"Saint Paul","state":"MN","lat":44.9444,"long":-93.0933},{"zip":"55146","city":"Saint Paul","state":"MN","lat":44.9427,"long":-93.0828},{"zip":"55155","city":"Saint Paul","state":"MN","lat":44.9522,"long":-93.0955},{"zip":"55164","city":"Saint Paul","state":"MN","lat":44.9909,"long":-93.1066},{"zip":"55165","city":"Saint Paul","state":"MN","lat":45.0059,"long":-93.1059},{"zip":"55170","city":"Saint Paul","state":"MN","lat":44.9444,"long":-93.0933},{"zip":"55172","city":"Saint Paul","state":"MN","lat":45.0059,"long":-93.1059},{"zip":"55175","city":"Saint Paul","state":"MN","lat":45.0059,"long":-93.1059},{"zip":"55187","city":"Saint Paul","state":"MN","lat":45.0059,"long":-93.1059},{"zip":"55188","city":"Saint Paul","state":"MN","lat":45.0059,"long":-93.1059},{"zip":"55115","city":"Saint Paul","state":"MN","lat":45.071,"long":-92.9391},{"zip":"55125","city":"Saint Paul","state":"MN","lat":44.9197,"long":-92.9439},{"zip":"55128","city":"Saint Paul","state":"MN","lat":44.9913,"long":-92.9487},{"zip":"55129","city":"Saint Paul","state":"MN","lat":44.8985,"long":-92.923}]
