[{"zip":"55421","city":"Minneapolis","state":"MN","lat":45.0523,"long":-93.2541},{"zip":"55432","city":"Minneapolis","state":"MN","lat":45.095,"long":-93.2396},{"zip":"55433","city":"Minneapolis","state":"MN","lat":45.1643,"long":-93.3193},{"zip":"55434","city":"Minneapolis","state":"MN","lat":45.1681,"long":-93.2504},{"zip":"55448","city":"Minneapolis","state":"MN","lat":45.1907,"long":-93.3021},{"zip":"55449","city":"Minneapolis","state":"MN","lat":45.1697,"long":-93.1889},{"zip":"55473","city":"Minneapolis","state":"MN","lat":44.98,"long":-93.2638},{"zip":"55401","city":"Minneapolis","state":"MN","lat":44.9835,"long":-93.2683},{"zip":"55402","city":"Minneapolis","state":"MN","lat":44.9762,"long":-93.2759},{"zip":"55403","city":"Minneapolis","state":"MN","lat":44.9673,"long":-93.2828},{"zip":"55404","city":"Minneapolis","state":"MN","lat":44.9609,"long":-93.2642},{"zip":"55405","city":"Minneapolis","state":"MN","lat":44.9702,"long":-93.3047},{"zip":"55406","city":"Minneapolis","state":"MN","lat":44.9384,"long":-93.2214},{"zip":"55407","city":"Minneapolis","state":"MN","lat":44.9378,"long":-93.2545},{"zip":"55408","city":"Minneapolis","state":"MN","lat":44.9466,"long":-93.2862},{"zip":"55409","city":"Minneapolis","state":"MN","lat":44.9264,"long":-93.2818},{"zip":"55410","city":"Minneapolis","state":"MN","lat":44.9124,"long":-93.3188},{"zip":"55411","city":"Minneapolis","state":"MN","lat":44.9996,"long":-93.3005},{"zip":"55412","city":"Minneapolis","state":"MN","lat":45.0242,"long":-93.302},{"zip":"55413","city":"Minneapolis","state":"MN","lat":44.998,"long":-93.2552},{"zip":"55414","city":"Minneapolis","state":"MN","lat":44.9779,"long":-93.2199},{"zip":"55415","city":"Minneapolis","state":"MN","lat":44.9742,"long":-93.2585},{"zip":"55416","city":"Minneapolis","state":"MN","lat":44.9497,"long":-93.3373},{"zip":"55417","city":"Minneapolis","state":"MN","lat":44.9054,"long":-93.2361},{"zip":"55418","city":"Minneapolis","state":"MN","lat":45.0192,"long":-93.2401},{"zip":"55419","city":"Minneapolis","state":"MN","lat":44.9026,"long":-93.2886},{"zip":"55420","city":"Minneapolis","state":"MN","lat":44.8358,"long":-93.2778},{"zip":"55422","city":"Minneapolis","state":"MN","lat":45.0096,"long":-93.3424},{"zip":"55423","city":"Minneapolis","state":"MN","lat":44.8756,"long":-93.2553},{"zip":"55424","city":"Minneapolis","state":"MN","lat":44.9052,"long":-93.3403},{"zip":"55425","city":"Minneapolis","state":"MN","lat":44.8427,"long":-93.2363},{"zip":"55426","city":"Minneapolis","state":"MN","lat":44.955,"long":-93.3829},{"zip":"55427","city":"Minneapolis","state":"MN","lat":45,"long":-93.391},{"zip":"55428","city":"Minneapolis","state":"MN","lat":45.0632,"long":-93.3811},{"zip":"55429","city":"Minneapolis","state":"MN","lat":45.0645,"long":-93.3413},{"zip":"55430","city":"Minneapolis","state":"MN","lat":45.0639,"long":-93.3022},{"zip":"55431","city":"Minneapolis","state":"MN","lat":44.8288,"long":-93.3118},{"zip":"55435","city":"Minneapolis","state":"MN","lat":44.8735,"long":-93.3346},{"zip":"55436","city":"Minneapolis","state":"MN","lat":44.9034,"long":-93.374},{"zip":"55437","city":"Minneapolis","state":"MN","lat":44.8261,"long":-93.3538},{"zip":"55438","city":"Minneapolis","state":"MN","lat":44.8266,"long":-93.375},{"zip":"55439","city":"Minneapolis","state":"MN","lat":44.8744,"long":-93.3753},{"zip":"55440","city":"Minneapolis","state":"MN","lat":44.98,"long":-93.2638},{"zip":"55441","city":"Minneapolis","state":"MN","lat":45.0058,"long":-93.4193},{"zip":"55442","city":"Minneapolis","state":"MN","lat":45.0467,"long":-93.431},{"zip":"55443","city":"Minneapolis","state":"MN","lat":45.1194,"long":-93.3431},{"zip":"55444","city":"Minneapolis","state":"MN","lat":45.1178,"long":-93.3054},{"zip":"55445","city":"Minneapolis","state":"MN","lat":45.1232,"long":-93.3797},{"zip":"55446","city":"Minneapolis","state":"MN","lat":45.04,"long":-93.4865},{"zip":"55447","city":"Minneapolis","state":"MN","lat":45.0033,"long":-93.4875},{"zip":"55450","city":"Minneapolis","state":"MN","lat":44.8811,"long":-93.2207},{"zip":"55454","city":"Minneapolis","state":"MN","lat":44.9682,"long":-93.2429},{"zip":"55455","city":"Minneapolis","state":"MN","lat":44.9735,"long":-93.2331},{"zip":"55458","city":"Minneapolis","state":"MN","lat":44.98,"long":-93.2638},{"zip":"55459","city":"Minneapolis","state":"MN","lat":44.98,"long":-93.2638},{"zip":"55460","city":"Minneapolis","state":"MN","lat":44.98,"long":-93.2638},{"zip":"55467","city":"Minneapolis","state":"MN","lat":44.9861,"long":-93.2708},{"zip":"55470","city":"Minneapolis","state":"MN","lat":44.98,"long":-93.2638},{"zip":"55472","city":"Minneapolis","state":"MN","lat":44.98,"long":-93.2638},{"zip":"55474","city":"Minneapolis","state":"MN","lat":44.98,"long":-93.2638},{"zip":"55478","city":"Minneapolis","state":"MN","lat":44.98,"long":-93.2638},{"zip":"55479","city":"Minneapolis","state":"MN","lat":44.98,"long":-93.2638},{"zip":"55480","city":"Minneapolis","state":"MN","lat":44.98,"long":-93.2638},{"zip":"55483","city":"Minneapolis","state":"MN","lat":44.98,"long":-93.2638},{"zip":"55484","city":"Minneapolis","state":"MN","lat":44.98,"long":-93.2638},{"zip":"55485","city":"Minneapolis","state":"MN","lat":44.98,"long":-93.2638},{"zip":"55486","city":"Minneapolis","state":"MN","lat":44.98,"long":-93.2638},{"zip":"55487","city":"Minneapolis","state":"MN","lat":44.98,"long":-93.2638},{"zip":"55488","city":"Minneapolis","state":"MN","lat":44.98,"long":-93.2638}]
