[{"zip":"55550","city":"Young America","state":"MN","lat":44.8055,"long":-93.7665},{"zip":"55551","city":"Young America","state":"MN","lat":44.8055,"long":-93.7665},{"zip":"55553","city":"Young America","state":"MN","lat":44.8055,"long":-93.7665},{"zip":"55554","city":"Norwood","state":"MN","lat":44.8055,"long":-93.7665},{"zip":"55558","city":"Young America","state":"MN","lat":44.8055,"long":-93.7665},{"zip":"55568","city":"Young America","state":"MN","lat":44.8055,"long":-93.7665},{"zip":"55583","city":"Norwood","state":"MN","lat":44.8055,"long":-93.7665},{"zip":"55594","city":"Young America","state":"MN","lat":44.8055,"long":-93.7665},{"zip":"55569","city":"Osseo","state":"MN","lat":45.1194,"long":-93.4025},{"zip":"55570","city":"Maple Plain","state":"MN","lat":45.0159,"long":-93.4719},{"zip":"55571","city":"Maple Plain","state":"MN","lat":45.0159,"long":-93.4719},{"zip":"55572","city":"Rockford","state":"MN","lat":45.0883,"long":-93.7344},{"zip":"55573","city":"Young America","state":"MN","lat":45.0159,"long":-93.4719},{"zip":"55574","city":"Maple Plain","state":"MN","lat":45.0159,"long":-93.4719},{"zip":"55575","city":"Howard Lake","state":"MN","lat":45.0608,"long":-94.0733},{"zip":"55576","city":"Maple Plain","state":"MN","lat":45.0159,"long":-93.4719},{"zip":"55577","city":"Maple Plain","state":"MN","lat":45.0159,"long":-93.4719},{"zip":"55578","city":"Maple Plain","state":"MN","lat":45.0159,"long":-93.4719},{"zip":"55579","city":"Maple Plain","state":"MN","lat":45.0159,"long":-93.4719},{"zip":"55593","city":"Maple Plain","state":"MN","lat":45.0159,"long":-93.4719},{"zip":"55595","city":"Loretto","state":"MN","lat":45.0159,"long":-93.4719},{"zip":"55596","city":"Loretto","state":"MN","lat":45.0159,"long":-93.4719},{"zip":"55597","city":"Loretto","state":"MN","lat":45.0159,"long":-93.4719},{"zip":"55598","city":"Loretto","state":"MN","lat":45.0159,"long":-93.4719},{"zip":"55599","city":"Loretto","state":"MN","lat":45.0159,"long":-93.4719},{"zip":"55592","city":"Maple Plain","state":"MN","lat":45.2009,"long":-93.8881}]
