[{"zip":"55604","city":"Grand Marais","state":"MN","lat":47.7758,"long":-90.3391},{"zip":"55605","city":"Grand Portage","state":"MN","lat":47.9591,"long":-89.6989},{"zip":"55606","city":"Hovland","state":"MN","lat":47.8342,"long":-90.0476},{"zip":"55612","city":"Lutsen","state":"MN","lat":47.6831,"long":-90.6381},{"zip":"55613","city":"Schroeder","state":"MN","lat":47.5422,"long":-90.9338},{"zip":"55615","city":"Tofte","state":"MN","lat":47.5738,"long":-90.8363},{"zip":"55601","city":"Beaver Bay","state":"MN","lat":47.256,"long":-91.3566},{"zip":"55603","city":"Finland","state":"MN","lat":47.4197,"long":-91.2096},{"zip":"55607","city":"Isabella","state":"MN","lat":47.6604,"long":-91.4989},{"zip":"55609","city":"Knife River","state":"MN","lat":46.9539,"long":-91.778},{"zip":"55614","city":"Silver Bay","state":"MN","lat":47.3585,"long":-91.2205},{"zip":"55616","city":"Two Harbors","state":"MN","lat":47.0394,"long":-91.6783},{"zip":"55602","city":"Brimson","state":"MN","lat":47.3142,"long":-91.8625}]
