[{"zip":"55748","city":"Hill City","state":"MN","lat":46.9968,"long":-93.5994},{"zip":"55752","city":"Jacobson","state":"MN","lat":46.9772,"long":-93.3064},{"zip":"55760","city":"Mcgregor","state":"MN","lat":46.6072,"long":-93.3076},{"zip":"55785","city":"Swatara","state":"MN","lat":46.9232,"long":-93.7464},{"zip":"55787","city":"Tamarack","state":"MN","lat":46.6444,"long":-93.1272},{"zip":"55707","city":"Barnum","state":"MN","lat":46.5196,"long":-92.6292},{"zip":"55718","city":"Carlton","state":"MN","lat":46.6484,"long":-92.471},{"zip":"55720","city":"Cloquet","state":"MN","lat":46.7546,"long":-92.5408},{"zip":"55726","city":"Cromwell","state":"MN","lat":46.6718,"long":-92.8739},{"zip":"55733","city":"Esko","state":"MN","lat":46.7126,"long":-92.3569},{"zip":"55749","city":"Holyoke","state":"MN","lat":46.4664,"long":-92.375},{"zip":"55757","city":"Kettle River","state":"MN","lat":46.5029,"long":-92.9047},{"zip":"55767","city":"Moose Lake","state":"MN","lat":46.4472,"long":-92.7466},{"zip":"55780","city":"Sawyer","state":"MN","lat":46.6831,"long":-92.6927},{"zip":"55797","city":"Wrenshall","state":"MN","lat":46.5921,"long":-92.3718},{"zip":"55798","city":"Wright","state":"MN","lat":46.6691,"long":-93.0069},{"zip":"55709","city":"Bovey","state":"MN","lat":47.2868,"long":-93.3723},{"zip":"55716","city":"Calumet","state":"MN","lat":47.3229,"long":-93.2763},{"zip":"55721","city":"Cohasset","state":"MN","lat":47.2691,"long":-93.6392},{"zip":"55722","city":"Coleraine","state":"MN","lat":47.2888,"long":-93.4277},{"zip":"55730","city":"Grand Rapids","state":"MN","lat":47.2372,"long":-93.5302},{"zip":"55742","city":"Goodland","state":"MN","lat":47.1924,"long":-93.1469},{"zip":"55744","city":"Grand Rapids","state":"MN","lat":47.2348,"long":-93.5115},{"zip":"55745","city":"Grand Rapids","state":"MN","lat":47.2372,"long":-93.5302},{"zip":"55753","city":"Keewatin","state":"MN","lat":47.398,"long":-93.0784},{"zip":"55764","city":"Marble","state":"MN","lat":47.3219,"long":-93.2939},{"zip":"55769","city":"Nashwauk","state":"MN","lat":47.42,"long":-93.2168},{"zip":"55775","city":"Pengilly","state":"MN","lat":47.3151,"long":-93.1937},{"zip":"55784","city":"Swan River","state":"MN","lat":47.0739,"long":-93.1964},{"zip":"55786","city":"Taconite","state":"MN","lat":47.3164,"long":-93.3904},{"zip":"55793","city":"Warba","state":"MN","lat":47.1361,"long":-93.2764},{"zip":"55704","city":"Askov","state":"MN","lat":46.1964,"long":-92.7528},{"zip":"55712","city":"Bruno","state":"MN","lat":46.2845,"long":-92.619},{"zip":"55735","city":"Finlayson","state":"MN","lat":46.2121,"long":-92.9389},{"zip":"55756","city":"Kerrick","state":"MN","lat":46.3792,"long":-92.578},{"zip":"55783","city":"Sturgeon Lake","state":"MN","lat":46.3837,"long":-92.8182},{"zip":"55795","city":"Willow River","state":"MN","lat":46.2949,"long":-92.8309},{"zip":"55702","city":"Alborn","state":"MN","lat":46.9782,"long":-92.5579},{"zip":"55703","city":"Angora","state":"MN","lat":47.7577,"long":-92.6413},{"zip":"55705","city":"Aurora","state":"MN","lat":47.4951,"long":-92.2415},{"zip":"55706","city":"Babbitt","state":"MN","lat":47.7091,"long":-91.957},{"zip":"55708","city":"Biwabik","state":"MN","lat":47.5328,"long":-92.3408},{"zip":"55710","city":"Britt","state":"MN","lat":47.655,"long":-92.6321},{"zip":"55711","city":"Brookston","state":"MN","lat":46.8384,"long":-92.643},{"zip":"55713","city":"Buhl","state":"MN","lat":47.4932,"long":-92.7643},{"zip":"55717","city":"Canyon","state":"MN","lat":47.0785,"long":-92.4594},{"zip":"55719","city":"Chisholm","state":"MN","lat":47.5007,"long":-92.8617},{"zip":"55723","city":"Cook","state":"MN","lat":47.8442,"long":-92.721},{"zip":"55724","city":"Cotton","state":"MN","lat":47.1521,"long":-92.4352},{"zip":"55725","city":"Crane Lake","state":"MN","lat":48.2594,"long":-92.4896},{"zip":"55731","city":"Ely","state":"MN","lat":47.9034,"long":-91.857},{"zip":"55732","city":"Embarrass","state":"MN","lat":47.6658,"long":-92.2101},{"zip":"55734","city":"Eveleth","state":"MN","lat":47.451,"long":-92.528},{"zip":"55736","city":"Floodwood","state":"MN","lat":46.9076,"long":-92.9167},{"zip":"55738","city":"Forbes","state":"MN","lat":47.2732,"long":-92.6756},{"zip":"55741","city":"Gilbert","state":"MN","lat":47.4885,"long":-92.4025},{"zip":"55746","city":"Hibbing","state":"MN","lat":47.4156,"long":-92.9356},{"zip":"55747","city":"Hibbing","state":"MN","lat":47.4272,"long":-92.9377},{"zip":"55750","city":"Hoyt Lakes","state":"MN","lat":47.515,"long":-92.14},{"zip":"55751","city":"Iron","state":"MN","lat":47.4115,"long":-92.6195},{"zip":"55758","city":"Kinney","state":"MN","lat":47.5121,"long":-92.7402},{"zip":"55763","city":"Makinen","state":"MN","lat":47.3416,"long":-92.3446},{"zip":"55765","city":"Meadowlands","state":"MN","lat":47.1021,"long":-92.7884},{"zip":"55766","city":"Melrude","state":"MN","lat":47.2496,"long":-92.4123},{"zip":"55768","city":"Mountain Iron","state":"MN","lat":47.5133,"long":-92.6243},{"zip":"55771","city":"Orr","state":"MN","lat":48.1439,"long":-92.8561},{"zip":"55772","city":"Nett Lake","state":"MN","lat":48.0817,"long":-93.0834},{"zip":"55777","city":"Virginia","state":"MN","lat":47.5233,"long":-92.5366},{"zip":"55779","city":"Saginaw","state":"MN","lat":46.8795,"long":-92.3917},{"zip":"55781","city":"Side Lake","state":"MN","lat":47.6671,"long":-93.0424},{"zip":"55782","city":"Soudan","state":"MN","lat":47.821,"long":-92.2464},{"zip":"55790","city":"Tower","state":"MN","lat":47.8089,"long":-92.2878},{"zip":"55791","city":"Twig","state":"MN","lat":46.8944,"long":-92.3646},{"zip":"55792","city":"Virginia","state":"MN","lat":47.5371,"long":-92.5285},{"zip":"55796","city":"Winton","state":"MN","lat":47.9263,"long":-91.8007}]
