[{"zip":"55801","city":"Duluth","state":"MN","lat":46.7833,"long":-92.1066},{"zip":"55802","city":"Duluth","state":"MN","lat":46.7685,"long":-92.0865},{"zip":"55803","city":"Duluth","state":"MN","lat":46.8749,"long":-92.0941},{"zip":"55804","city":"Duluth","state":"MN","lat":46.8551,"long":-92.0074},{"zip":"55805","city":"Duluth","state":"MN","lat":46.7987,"long":-92.0946},{"zip":"55806","city":"Duluth","state":"MN","lat":46.7715,"long":-92.1279},{"zip":"55807","city":"Duluth","state":"MN","lat":46.7408,"long":-92.1698},{"zip":"55808","city":"Duluth","state":"MN","lat":46.681,"long":-92.2226},{"zip":"55810","city":"Duluth","state":"MN","lat":46.7606,"long":-92.266},{"zip":"55811","city":"Duluth","state":"MN","lat":46.8147,"long":-92.1998},{"zip":"55812","city":"Duluth","state":"MN","lat":46.8106,"long":-92.0767},{"zip":"55814","city":"Duluth","state":"MN","lat":46.7833,"long":-92.1066},{"zip":"55815","city":"Duluth","state":"MN","lat":46.7833,"long":-92.1066},{"zip":"55816","city":"Duluth","state":"MN","lat":46.7833,"long":-92.1066}]
