[{"zip":"56901","city":"Washington","state":"DC","lat":38.8952,"long":-77.0365},{"zip":"56915","city":"Washington","state":"DC","lat":38.8952,"long":-77.0365},{"zip":"56920","city":"Washington","state":"DC","lat":38.8952,"long":-77.0365},{"zip":"56933","city":"Washington","state":"DC","lat":38.8952,"long":-77.0365},{"zip":"56944","city":"Washington","state":"DC","lat":38.8952,"long":-77.0365},{"zip":"56972","city":"Washington","state":"DC","lat":38.8951,"long":-77.0364},{"zip":"56350","city":"Mc Grath","state":"MN","lat":46.1957,"long":-93.3774},{"zip":"56431","city":"Aitkin","state":"MN","lat":46.4799,"long":-93.6454},{"zip":"56469","city":"Palisade","state":"MN","lat":46.6895,"long":-93.5627},{"zip":"56501","city":"Detroit Lakes","state":"MN","lat":46.8172,"long":-95.8453},{"zip":"56502","city":"Detroit Lakes","state":"MN","lat":46.8172,"long":-95.8453},{"zip":"56511","city":"Audubon","state":"MN","lat":46.8719,"long":-95.9881},{"zip":"56521","city":"Callaway","state":"MN","lat":47.0076,"long":-95.944},{"zip":"56544","city":"Frazee","state":"MN","lat":46.7565,"long":-95.5212},{"zip":"56554","city":"Lake Park","state":"MN","lat":46.8176,"long":-96.067},{"zip":"56569","city":"Ogema","state":"MN","lat":47.1029,"long":-95.9151},{"zip":"56570","city":"Osage","state":"MN","lat":46.9329,"long":-95.2353},{"zip":"56575","city":"Ponsford","state":"MN","lat":47.0133,"long":-95.3197},{"zip":"56577","city":"Richwood","state":"MN","lat":46.934,"long":-95.6784},{"zip":"56578","city":"Rochert","state":"MN","lat":46.8862,"long":-95.7246},{"zip":"56591","city":"White Earth","state":"MN","lat":46.934,"long":-95.6784},{"zip":"56593","city":"Wolf Lake","state":"MN","lat":46.8035,"long":-95.3535},{"zip":"56601","city":"Bemidji","state":"MN","lat":47.572,"long":-94.8013},{"zip":"56619","city":"Bemidji","state":"MN","lat":47.4736,"long":-94.8803},{"zip":"56630","city":"Blackduck","state":"MN","lat":47.7381,"long":-94.4961},{"zip":"56647","city":"Hines","state":"MN","lat":47.7324,"long":-94.6477},{"zip":"56650","city":"Kelliher","state":"MN","lat":47.9272,"long":-94.5382},{"zip":"56663","city":"Pennington","state":"MN","lat":47.4651,"long":-94.4834},{"zip":"56666","city":"Ponemah","state":"MN","lat":48.0372,"long":-94.917},{"zip":"56667","city":"Puposky","state":"MN","lat":47.7436,"long":-94.9803},{"zip":"56670","city":"Redby","state":"MN","lat":47.8689,"long":-94.9404},{"zip":"56671","city":"Redlake","state":"MN","lat":47.8654,"long":-95.0643},{"zip":"56678","city":"Solway","state":"MN","lat":47.548,"long":-95.1205},{"zip":"56683","city":"Tenstrike","state":"MN","lat":47.6566,"long":-94.6747},{"zip":"56685","city":"Waskish","state":"MN","lat":48.177,"long":-94.5037},{"zip":"56687","city":"Wilton","state":"MN","lat":47.5036,"long":-95.0011},{"zip":"56329","city":"Foley","state":"MN","lat":45.6919,"long":-93.9148},{"zip":"56333","city":"Gilman","state":"MN","lat":45.6917,"long":-94.0563},{"zip":"56357","city":"Oak Park","state":"MN","lat":45.7022,"long":-93.8164},{"zip":"56367","city":"Rice","state":"MN","lat":45.7364,"long":-94.1658},{"zip":"56379","city":"Sauk Rapids","state":"MN","lat":45.604,"long":-94.1591},{"zip":"56210","city":"Barry","state":"MN","lat":45.5593,"long":-96.5589},{"zip":"56211","city":"Beardsley","state":"MN","lat":45.5539,"long":-96.706},{"zip":"56225","city":"Clinton","state":"MN","lat":45.4577,"long":-96.4182},{"zip":"56227","city":"Correll","state":"MN","lat":45.2907,"long":-96.1753},{"zip":"56240","city":"Graceville","state":"MN","lat":45.5602,"long":-96.4209},{"zip":"56276","city":"Odessa","state":"MN","lat":45.2597,"long":-96.3289},{"zip":"56278","city":"Ortonville","state":"MN","lat":45.3296,"long":-96.4596},{"zip":"56001","city":"Mankato","state":"MN","lat":44.1538,"long":-93.996},{"zip":"56002","city":"Mankato","state":"MN","lat":44.1591,"long":-94.0092},{"zip":"56010","city":"Amboy","state":"MN","lat":43.8903,"long":-94.1774},{"zip":"56024","city":"Eagle Lake","state":"MN","lat":44.1546,"long":-93.8719},{"zip":"56034","city":"Garden City","state":"MN","lat":44.0467,"long":-94.1791},{"zip":"56037","city":"Good Thunder","state":"MN","lat":43.9952,"long":-94.0677},{"zip":"56055","city":"Lake Crystal","state":"MN","lat":44.1202,"long":-94.2184},{"zip":"56063","city":"Madison Lake","state":"MN","lat":44.2221,"long":-93.8289},{"zip":"56065","city":"Mapleton","state":"MN","lat":43.9331,"long":-93.9542},{"zip":"56078","city":"Pemberton","state":"MN","lat":44.0077,"long":-93.7833},{"zip":"56080","city":"Saint Clair","state":"MN","lat":44.0817,"long":-93.8571},{"zip":"56090","city":"Vernon Center","state":"MN","lat":43.9706,"long":-94.2142},{"zip":"56019","city":"Comfrey","state":"MN","lat":44.1111,"long":-94.9134},{"zip":"56030","city":"Essig","state":"MN","lat":44.3258,"long":-94.6052},{"zip":"56041","city":"Hanska","state":"MN","lat":44.1527,"long":-94.4933},{"zip":"56073","city":"New Ulm","state":"MN","lat":44.3044,"long":-94.4644},{"zip":"56084","city":"Searles","state":"MN","lat":44.2286,"long":-94.4347},{"zip":"56085","city":"Sleepy Eye","state":"MN","lat":44.2821,"long":-94.7273},{"zip":"56087","city":"Springfield","state":"MN","lat":44.2329,"long":-94.9792},{"zip":"56430","city":"Ah Gwah Ching","state":"MN","lat":47.0741,"long":-94.5628},{"zip":"56435","city":"Backus","state":"MN","lat":46.8699,"long":-94.3959},{"zip":"56452","city":"Hackensack","state":"MN","lat":46.9884,"long":-94.5033},{"zip":"56473","city":"Pillager","state":"MN","lat":46.3607,"long":-94.4895},{"zip":"56474","city":"Pine River","state":"MN","lat":46.6938,"long":-94.4477},{"zip":"56484","city":"Walker","state":"MN","lat":47.0877,"long":-94.5847},{"zip":"56626","city":"Bena","state":"MN","lat":47.3477,"long":-94.2519},{"zip":"56633","city":"Cass Lake","state":"MN","lat":47.3516,"long":-94.6119},{"zip":"56641","city":"Federal Dam","state":"MN","lat":47.2069,"long":-94.2575},{"zip":"56655","city":"Longville","state":"MN","lat":47.0248,"long":-94.1982},{"zip":"56662","city":"Outing","state":"MN","lat":46.8375,"long":-93.9443},{"zip":"56672","city":"Remer","state":"MN","lat":47.0874,"long":-93.9196},{"zip":"56222","city":"Clara City","state":"MN","lat":44.9639,"long":-95.3499},{"zip":"56260","city":"Maynard","state":"MN","lat":44.9226,"long":-95.4845},{"zip":"56262","city":"Milan","state":"MN","lat":45.1143,"long":-95.869},{"zip":"56265","city":"Montevideo","state":"MN","lat":44.9688,"long":-95.6765},{"zip":"56295","city":"Watson","state":"MN","lat":45.0412,"long":-95.834},{"zip":"56514","city":"Barnesville","state":"MN","lat":46.6522,"long":-96.4198},{"zip":"56525","city":"Comstock","state":"MN","lat":46.6667,"long":-96.7398},{"zip":"56529","city":"Dilworth","state":"MN","lat":46.8782,"long":-96.7022},{"zip":"56536","city":"Felton","state":"MN","lat":47.0705,"long":-96.5052},{"zip":"56546","city":"Georgetown","state":"MN","lat":47.0999,"long":-96.727},{"zip":"56547","city":"Glyndon","state":"MN","lat":46.882,"long":-96.5583},{"zip":"56549","city":"Hawley","state":"MN","lat":46.9777,"long":-96.4092},{"zip":"56552","city":"Hitterdal","state":"MN","lat":47.0014,"long":-96.2888},{"zip":"56560","city":"Moorhead","state":"MN","lat":46.8677,"long":-96.7572},{"zip":"56561","city":"Moorhead","state":"MN","lat":46.8739,"long":-96.7695},{"zip":"56562","city":"Moorhead","state":"MN","lat":46.8739,"long":-96.7695},{"zip":"56563","city":"Moorhead","state":"MN","lat":46.8739,"long":-96.7695},{"zip":"56580","city":"Sabin","state":"MN","lat":46.7703,"long":-96.5985},{"zip":"56585","city":"Ulen","state":"MN","lat":47.0903,"long":-96.2824},{"zip":"56621","city":"Bagley","state":"MN","lat":47.487,"long":-95.4133},{"zip":"56634","city":"Clearbrook","state":"MN","lat":47.7146,"long":-95.3752},{"zip":"56644","city":"Gonvick","state":"MN","lat":47.749,"long":-95.499},{"zip":"56652","city":"Leonard","state":"MN","lat":47.7334,"long":-95.2481},{"zip":"56676","city":"Shevlin","state":"MN","lat":47.5004,"long":-95.245},{"zip":"56101","city":"Windom","state":"MN","lat":43.8831,"long":-95.1373},{"zip":"56118","city":"Bingham Lake","state":"MN","lat":43.8942,"long":-95.0457},{"zip":"56145","city":"Jeffers","state":"MN","lat":44.0737,"long":-95.1547},{"zip":"56159","city":"Mountain Lake","state":"MN","lat":43.939,"long":-94.9273},{"zip":"56174","city":"Storden","state":"MN","lat":44.0524,"long":-95.3019},{"zip":"56183","city":"Westbrook","state":"MN","lat":44.0654,"long":-95.4232},{"zip":"56401","city":"Brainerd","state":"MN","lat":46.3502,"long":-94.1},{"zip":"56425","city":"Baxter","state":"MN","lat":46.3429,"long":-94.2822},{"zip":"56441","city":"Crosby","state":"MN","lat":46.5091,"long":-93.9874},{"zip":"56442","city":"Crosslake","state":"MN","lat":46.6773,"long":-94.1128},{"zip":"56444","city":"Deerwood","state":"MN","lat":46.4446,"long":-93.8849},{"zip":"56447","city":"Emily","state":"MN","lat":46.7478,"long":-93.9484},{"zip":"56448","city":"Fifty Lakes","state":"MN","lat":46.747,"long":-94.0656},{"zip":"56449","city":"Fort Ripley","state":"MN","lat":46.2099,"long":-94.2527},{"zip":"56450","city":"Garrison","state":"MN","lat":46.2314,"long":-93.8341},{"zip":"56455","city":"Ironton","state":"MN","lat":46.4778,"long":-93.9789},{"zip":"56456","city":"Jenkins","state":"MN","lat":46.4807,"long":-94.0859},{"zip":"56459","city":"Lake Hubert","state":"MN","lat":46.4987,"long":-94.2519},{"zip":"56465","city":"Merrifield","state":"MN","lat":46.5393,"long":-94.1344},{"zip":"56468","city":"Nisswa","state":"MN","lat":46.4929,"long":-94.2976},{"zip":"56472","city":"Pequot Lakes","state":"MN","lat":46.6257,"long":-94.2684},{"zip":"56308","city":"Alexandria","state":"MN","lat":45.8817,"long":-95.382},{"zip":"56315","city":"Brandon","state":"MN","lat":45.9652,"long":-95.5987},{"zip":"56319","city":"Carlos","state":"MN","lat":45.9726,"long":-95.3105},{"zip":"56326","city":"Evansville","state":"MN","lat":46.0153,"long":-95.6951},{"zip":"56332","city":"Garfield","state":"MN","lat":45.9847,"long":-95.5066},{"zip":"56341","city":"Holmes City","state":"MN","lat":45.831,"long":-95.5416},{"zip":"56343","city":"Kensington","state":"MN","lat":45.8176,"long":-95.6945},{"zip":"56354","city":"Miltona","state":"MN","lat":46.0545,"long":-95.3258},{"zip":"56355","city":"Nelson","state":"MN","lat":45.9356,"long":-95.2398},{"zip":"56360","city":"Osakis","state":"MN","lat":45.8768,"long":-95.1332},{"zip":"56013","city":"Blue Earth","state":"MN","lat":43.6394,"long":-94.0924},{"zip":"56014","city":"Bricelyn","state":"MN","lat":43.5746,"long":-93.8211},{"zip":"56023","city":"Delavan","state":"MN","lat":43.7719,"long":-94.0225},{"zip":"56025","city":"Easton","state":"MN","lat":43.7658,"long":-93.9011},{"zip":"56027","city":"Elmore","state":"MN","lat":43.5201,"long":-94.0984},{"zip":"56033","city":"Frost","state":"MN","lat":43.5638,"long":-93.9361},{"zip":"56047","city":"Huntley","state":"MN","lat":43.7316,"long":-94.2375},{"zip":"56051","city":"Kiester","state":"MN","lat":43.5414,"long":-93.7102},{"zip":"56068","city":"Minnesota Lake","state":"MN","lat":43.8295,"long":-93.8282},{"zip":"56097","city":"Wells","state":"MN","lat":43.7434,"long":-93.7321},{"zip":"56098","city":"Winnebago","state":"MN","lat":43.7755,"long":-94.1632},{"zip":"56007","city":"Albert Lea","state":"MN","lat":43.6537,"long":-93.3707},{"zip":"56009","city":"Alden","state":"MN","lat":43.6466,"long":-93.5823},{"zip":"56016","city":"Clarks Grove","state":"MN","lat":43.763,"long":-93.3232},{"zip":"56020","city":"Conger","state":"MN","lat":43.621,"long":-93.5482},{"zip":"56029","city":"Emmons","state":"MN","lat":43.5089,"long":-93.4824},{"zip":"56032","city":"Freeborn","state":"MN","lat":43.7658,"long":-93.5641},{"zip":"56035","city":"Geneva","state":"MN","lat":43.8235,"long":-93.2671},{"zip":"56036","city":"Glenville","state":"MN","lat":43.5577,"long":-93.2618},{"zip":"56042","city":"Hartland","state":"MN","lat":43.804,"long":-93.477},{"zip":"56043","city":"Hayward","state":"MN","lat":43.6386,"long":-93.2377},{"zip":"56045","city":"Hollandale","state":"MN","lat":43.7608,"long":-93.2041},{"zip":"56089","city":"Twin Lakes","state":"MN","lat":43.5593,"long":-93.4206},{"zip":"56248","city":"Herman","state":"MN","lat":45.8086,"long":-96.1434},{"zip":"56274","city":"Norcross","state":"MN","lat":45.8858,"long":-96.1342},{"zip":"56309","city":"Ashby","state":"MN","lat":46.0781,"long":-95.8214},{"zip":"56311","city":"Barrett","state":"MN","lat":45.8996,"long":-95.8754},{"zip":"56339","city":"Hoffman","state":"MN","lat":45.8233,"long":-95.7955},{"zip":"56531","city":"Elbow Lake","state":"MN","lat":45.9953,"long":-95.9671},{"zip":"56590","city":"Wendell","state":"MN","lat":46.0562,"long":-96.1144},{"zip":"56433","city":"Akeley","state":"MN","lat":47.001,"long":-94.7234},{"zip":"56436","city":"Benedict","state":"MN","lat":47.1082,"long":-94.9211},{"zip":"56458","city":"Lake George","state":"MN","lat":47.215,"long":-95.0021},{"zip":"56461","city":"Laporte","state":"MN","lat":47.2368,"long":-94.7772},{"zip":"56467","city":"Nevis","state":"MN","lat":46.9319,"long":-94.846},{"zip":"56470","city":"Park Rapids","state":"MN","lat":46.9377,"long":-95.0383},{"zip":"56628","city":"Bigfork","state":"MN","lat":47.7502,"long":-93.6707},{"zip":"56631","city":"Bowstring","state":"MN","lat":47.543,"long":-93.7966},{"zip":"56636","city":"Deer River","state":"MN","lat":47.3829,"long":-93.8498},{"zip":"56637","city":"Talmoon","state":"MN","lat":47.5888,"long":-93.7749},{"zip":"56639","city":"Effie","state":"MN","lat":47.8472,"long":-93.5799},{"zip":"56657","city":"Marcell","state":"MN","lat":47.5485,"long":-93.6236},{"zip":"56659","city":"Max","state":"MN","lat":47.6147,"long":-94.068},{"zip":"56680","city":"Spring Lake","state":"MN","lat":47.6359,"long":-93.922},{"zip":"56681","city":"Squaw Lake","state":"MN","lat":47.6362,"long":-94.1475},{"zip":"56688","city":"Wirt","state":"MN","lat":47.7462,"long":-93.963},{"zip":"56111","city":"Alpha","state":"MN","lat":43.5946,"long":-94.9051},{"zip":"56137","city":"Heron Lake","state":"MN","lat":43.7979,"long":-95.3267},{"zip":"56143","city":"Jackson","state":"MN","lat":43.6457,"long":-94.9938},{"zip":"56150","city":"Lakefield","state":"MN","lat":43.6545,"long":-95.1848},{"zip":"56161","city":"Okabena","state":"MN","lat":43.723,"long":-95.3381},{"zip":"56358","city":"Ogilvie","state":"MN","lat":45.8476,"long":-93.4359},{"zip":"56201","city":"Willmar","state":"MN","lat":45.1393,"long":-95.0523},{"zip":"56209","city":"Atwater","state":"MN","lat":45.1116,"long":-94.7938},{"zip":"56216","city":"Blomkest","state":"MN","lat":44.9501,"long":-95.0588},{"zip":"56251","city":"Kandiyohi","state":"MN","lat":45.1426,"long":-94.9183},{"zip":"56253","city":"Lake Lillian","state":"MN","lat":44.966,"long":-94.9014},{"zip":"56273","city":"New London","state":"MN","lat":45.2949,"long":-94.948},{"zip":"56279","city":"Pennock","state":"MN","lat":45.131,"long":-95.1753},{"zip":"56281","city":"Prinsburg","state":"MN","lat":44.9371,"long":-95.1865},{"zip":"56282","city":"Raymond","state":"MN","lat":45.0181,"long":-95.2208},{"zip":"56288","city":"Spicer","state":"MN","lat":45.2241,"long":-94.9116},{"zip":"56289","city":"Sunburg","state":"MN","lat":45.3583,"long":-95.2049},{"zip":"56720","city":"Donaldson","state":"MN","lat":48.5722,"long":-96.8964},{"zip":"56728","city":"Hallock","state":"MN","lat":48.7749,"long":-96.9445},{"zip":"56729","city":"Halma","state":"MN","lat":48.6669,"long":-96.5969},{"zip":"56731","city":"Humboldt","state":"MN","lat":48.9211,"long":-97.0934},{"zip":"56732","city":"Karlstad","state":"MN","lat":48.5916,"long":-96.5511},{"zip":"56733","city":"Kennedy","state":"MN","lat":48.6337,"long":-96.9614},{"zip":"56734","city":"Lake Bronson","state":"MN","lat":48.7787,"long":-96.6431},{"zip":"56735","city":"Lancaster","state":"MN","lat":48.9153,"long":-96.6366},{"zip":"56740","city":"Noyes","state":"MN","lat":48.9975,"long":-97.2045},{"zip":"56755","city":"Saint Vincent","state":"MN","lat":48.9458,"long":-97.1703},{"zip":"56627","city":"Big Falls","state":"MN","lat":48.156,"long":-93.7296},{"zip":"56629","city":"Birchdale","state":"MN","lat":48.6247,"long":-94.1677},{"zip":"56649","city":"International Falls","state":"MN","lat":48.601,"long":-93.411},{"zip":"56653","city":"Littlefork","state":"MN","lat":48.3852,"long":-93.5399},{"zip":"56654","city":"Loman","state":"MN","lat":48.5164,"long":-93.8407},{"zip":"56658","city":"Margie","state":"MN","lat":48.0904,"long":-93.8292},{"zip":"56660","city":"Mizpah","state":"MN","lat":47.9495,"long":-94.1467},{"zip":"56661","city":"Northome","state":"MN","lat":47.844,"long":-94.2043},{"zip":"56668","city":"Ranier","state":"MN","lat":48.613,"long":-93.3488},{"zip":"56669","city":"Kabetogama","state":"MN","lat":48.2463,"long":-93.7842},{"zip":"56679","city":"South International Falls","state":"MN","lat":48.5866,"long":-93.399},{"zip":"56212","city":"Bellingham","state":"MN","lat":45.1556,"long":-96.3224},{"zip":"56218","city":"Boyd","state":"MN","lat":44.8507,"long":-95.9421},{"zip":"56232","city":"Dawson","state":"MN","lat":44.9327,"long":-96.0545},{"zip":"56256","city":"Madison","state":"MN","lat":44.9946,"long":-96.1645},{"zip":"56257","city":"Marietta","state":"MN","lat":44.9636,"long":-96.4094},{"zip":"56623","city":"Baudette","state":"MN","lat":48.6927,"long":-94.5995},{"zip":"56686","city":"Williams","state":"MN","lat":48.8022,"long":-94.9556},{"zip":"56711","city":"Angle Inlet","state":"MN","lat":49.3453,"long":-95.0627},{"zip":"56741","city":"Oak Island","state":"MN","lat":49.3135,"long":-94.8492},{"zip":"56017","city":"Cleveland","state":"MN","lat":44.3201,"long":-93.8286},{"zip":"56028","city":"Elysian","state":"MN","lat":44.2231,"long":-93.6965},{"zip":"56050","city":"Kasota","state":"MN","lat":44.2842,"long":-93.9453},{"zip":"56052","city":"Kilkenny","state":"MN","lat":44.3133,"long":-93.5741},{"zip":"56057","city":"Le Center","state":"MN","lat":44.3853,"long":-93.7214},{"zip":"56058","city":"Le Sueur","state":"MN","lat":44.4582,"long":-93.8856},{"zip":"56069","city":"Montgomery","state":"MN","lat":44.4356,"long":-93.581},{"zip":"56071","city":"New Prague","state":"MN","lat":44.5402,"long":-93.5805},{"zip":"56096","city":"Waterville","state":"MN","lat":44.2238,"long":-93.5751},{"zip":"56113","city":"Arco","state":"MN","lat":44.4091,"long":-96.1999},{"zip":"56136","city":"Hendricks","state":"MN","lat":44.4995,"long":-96.4078},{"zip":"56142","city":"Ivanhoe","state":"MN","lat":44.4633,"long":-96.2473},{"zip":"56149","city":"Lake Benton","state":"MN","lat":44.2782,"long":-96.291},{"zip":"56178","city":"Tyler","state":"MN","lat":44.2773,"long":-96.1302},{"zip":"56115","city":"Balaton","state":"MN","lat":44.2253,"long":-95.8838},{"zip":"56132","city":"Garvin","state":"MN","lat":44.2293,"long":-95.7672},{"zip":"56157","city":"Lynd","state":"MN","lat":44.4032,"long":-95.9233},{"zip":"56169","city":"Russell","state":"MN","lat":44.3201,"long":-95.9426},{"zip":"56175","city":"Tracy","state":"MN","lat":44.2342,"long":-95.6213},{"zip":"56229","city":"Cottonwood","state":"MN","lat":44.6003,"long":-95.6925},{"zip":"56239","city":"Ghent","state":"MN","lat":44.5078,"long":-95.8936},{"zip":"56258","city":"Marshall","state":"MN","lat":44.4481,"long":-95.7795},{"zip":"56264","city":"Minneota","state":"MN","lat":44.5587,"long":-95.9767},{"zip":"56291","city":"Taunton","state":"MN","lat":44.5951,"long":-96.0526},{"zip":"56516","city":"Bejou","state":"MN","lat":47.4491,"long":-95.9454},{"zip":"56557","city":"Mahnomen","state":"MN","lat":47.3362,"long":-95.8856},{"zip":"56566","city":"Naytahwaush","state":"MN","lat":47.2601,"long":-95.6283},{"zip":"56589","city":"Waubun","state":"MN","lat":47.192,"long":-95.8871},{"zip":"56710","city":"Alvarado","state":"MN","lat":48.202,"long":-96.9915},{"zip":"56713","city":"Argyle","state":"MN","lat":48.3314,"long":-96.8671},{"zip":"56724","city":"Gatzke","state":"MN","lat":48.4104,"long":-95.7903},{"zip":"56727","city":"Grygla","state":"MN","lat":48.3071,"long":-95.6398},{"zip":"56737","city":"Middle River","state":"MN","lat":48.4426,"long":-96.1232},{"zip":"56738","city":"Newfolden","state":"MN","lat":48.2895,"long":-96.255},{"zip":"56744","city":"Oslo","state":"MN","lat":48.2066,"long":-97.1163},{"zip":"56757","city":"Stephen","state":"MN","lat":48.4525,"long":-96.8674},{"zip":"56758","city":"Strandquist","state":"MN","lat":48.4526,"long":-96.4723},{"zip":"56760","city":"Viking","state":"MN","lat":48.2349,"long":-96.4749},{"zip":"56762","city":"Warren","state":"MN","lat":48.2614,"long":-96.7726},{"zip":"56031","city":"Fairmont","state":"MN","lat":43.6376,"long":-94.451},{"zip":"56039","city":"Granada","state":"MN","lat":43.7061,"long":-94.3307},{"zip":"56075","city":"Northrop","state":"MN","lat":43.7353,"long":-94.4357},{"zip":"56088","city":"Truman","state":"MN","lat":43.82,"long":-94.4319},{"zip":"56121","city":"Ceylon","state":"MN","lat":43.5382,"long":-94.6149},{"zip":"56127","city":"Dunnell","state":"MN","lat":43.5531,"long":-94.7876},{"zip":"56162","city":"Ormsby","state":"MN","lat":43.8616,"long":-94.6873},{"zip":"56171","city":"Sherburn","state":"MN","lat":43.6611,"long":-94.7269},{"zip":"56176","city":"Trimont","state":"MN","lat":43.7827,"long":-94.7186},{"zip":"56181","city":"Welcome","state":"MN","lat":43.6705,"long":-94.5886},{"zip":"56228","city":"Cosmos","state":"MN","lat":44.959,"long":-94.6978},{"zip":"56243","city":"Grove City","state":"MN","lat":45.1532,"long":-94.6878},{"zip":"56313","city":"Bock","state":"MN","lat":45.7845,"long":-93.5522},{"zip":"56330","city":"Foreston","state":"MN","lat":45.7028,"long":-93.6958},{"zip":"56342","city":"Isle","state":"MN","lat":46.1696,"long":-93.4741},{"zip":"56353","city":"Milaca","state":"MN","lat":45.7795,"long":-93.6453},{"zip":"56359","city":"Onamia","state":"MN","lat":46.0902,"long":-93.6867},{"zip":"56363","city":"Pease","state":"MN","lat":45.6974,"long":-93.6465},{"zip":"56386","city":"Wahkon","state":"MN","lat":46.1121,"long":-93.4972},{"zip":"56314","city":"Bowlus","state":"MN","lat":45.8121,"long":-94.4175},{"zip":"56317","city":"Buckman","state":"MN","lat":45.8975,"long":-94.0936},{"zip":"56328","city":"Flensburg","state":"MN","lat":45.9533,"long":-94.5468},{"zip":"56338","city":"Hillman","state":"MN","lat":46.0678,"long":-93.8812},{"zip":"56344","city":"Lastrup","state":"MN","lat":46.0394,"long":-94.0633},{"zip":"56345","city":"Little Falls","state":"MN","lat":45.9811,"long":-94.3604},{"zip":"56364","city":"Pierz","state":"MN","lat":46.0081,"long":-94.0853},{"zip":"56373","city":"Royalton","state":"MN","lat":45.8589,"long":-94.2211},{"zip":"56382","city":"Swanville","state":"MN","lat":45.9431,"long":-94.6289},{"zip":"56384","city":"Upsala","state":"MN","lat":45.8097,"long":-94.5755},{"zip":"56388","city":"Waite Park","state":"MN","lat":45.5572,"long":-94.2242},{"zip":"56443","city":"Cushing","state":"MN","lat":46.2022,"long":-94.6185},{"zip":"56466","city":"Motley","state":"MN","lat":46.2881,"long":-94.5638},{"zip":"56475","city":"Randall","state":"MN","lat":46.0734,"long":-94.5005},{"zip":"56114","city":"Avoca","state":"MN","lat":43.9706,"long":-95.6002},{"zip":"56122","city":"Chandler","state":"MN","lat":43.9163,"long":-95.9296},{"zip":"56123","city":"Currie","state":"MN","lat":44.0946,"long":-95.6953},{"zip":"56125","city":"Dovray","state":"MN","lat":44.0533,"long":-95.5499},{"zip":"56131","city":"Fulda","state":"MN","lat":43.8753,"long":-95.5979},{"zip":"56141","city":"Iona","state":"MN","lat":43.9026,"long":-95.7718},{"zip":"56151","city":"Lake Wilson","state":"MN","lat":44.0095,"long":-95.9797},{"zip":"56172","city":"Slayton","state":"MN","lat":43.9856,"long":-95.7554},{"zip":"56003","city":"Mankato","state":"MN","lat":44.2172,"long":-94.0942},{"zip":"56021","city":"Courtland","state":"MN","lat":44.2791,"long":-94.3482},{"zip":"56054","city":"Lafayette","state":"MN","lat":44.4073,"long":-94.4365},{"zip":"56074","city":"Nicollet","state":"MN","lat":44.2724,"long":-94.1867},{"zip":"56082","city":"Saint Peter","state":"MN","lat":44.3351,"long":-93.9811},{"zip":"56110","city":"Adrian","state":"MN","lat":43.6197,"long":-95.9273},{"zip":"56117","city":"Bigelow","state":"MN","lat":43.5336,"long":-95.6515},{"zip":"56119","city":"Brewster","state":"MN","lat":43.7032,"long":-95.4807},{"zip":"56129","city":"Ellsworth","state":"MN","lat":43.5265,"long":-96.0112},{"zip":"56153","city":"Leota","state":"MN","lat":43.8404,"long":-96.0128},{"zip":"56155","city":"Lismore","state":"MN","lat":43.7339,"long":-95.9682},{"zip":"56165","city":"Reading","state":"MN","lat":43.7136,"long":-95.7389},{"zip":"56167","city":"Round Lake","state":"MN","lat":43.562,"long":-95.4502},{"zip":"56168","city":"Rushmore","state":"MN","lat":43.624,"long":-95.7767},{"zip":"56185","city":"Wilmont","state":"MN","lat":43.7692,"long":-95.8324},{"zip":"56187","city":"Worthington","state":"MN","lat":43.6286,"long":-95.6059},{"zip":"56510","city":"Ada","state":"MN","lat":47.3253,"long":-96.5973},{"zip":"56519","city":"Borup","state":"MN","lat":47.1896,"long":-96.553},{"zip":"56541","city":"Flom","state":"MN","lat":47.1588,"long":-96.1309},{"zip":"56545","city":"Gary","state":"MN","lat":47.3675,"long":-96.2152},{"zip":"56548","city":"Halstad","state":"MN","lat":47.3551,"long":-96.798},{"zip":"56550","city":"Hendrum","state":"MN","lat":47.2689,"long":-96.7987},{"zip":"56574","city":"Perley","state":"MN","lat":47.1831,"long":-96.7777},{"zip":"56581","city":"Shelly","state":"MN","lat":47.4554,"long":-96.7838},{"zip":"56584","city":"Twin Valley","state":"MN","lat":47.2509,"long":-96.2464},{"zip":"56324","city":"Dalton","state":"MN","lat":46.1738,"long":-95.9156},{"zip":"56361","city":"Parkers Prairie","state":"MN","lat":46.153,"long":-95.3289},{"zip":"56515","city":"Battle Lake","state":"MN","lat":46.3142,"long":-95.7144},{"zip":"56518","city":"Bluffton","state":"MN","lat":46.4918,"long":-95.2236},{"zip":"56524","city":"Clitherall","state":"MN","lat":46.2757,"long":-95.6308},{"zip":"56527","city":"Deer Creek","state":"MN","lat":46.3911,"long":-95.3214},{"zip":"56528","city":"Dent","state":"MN","lat":46.5554,"long":-95.7644},{"zip":"56533","city":"Elizabeth","state":"MN","lat":46.3803,"long":-96.1326},{"zip":"56534","city":"Erhard","state":"MN","lat":46.4948,"long":-96.0593},{"zip":"56537","city":"Fergus Falls","state":"MN","lat":46.276,"long":-96.0904},{"zip":"56538","city":"Fergus Falls","state":"MN","lat":46.283,"long":-96.0776},{"zip":"56551","city":"Henning","state":"MN","lat":46.3256,"long":-95.3852},{"zip":"56567","city":"New York Mills","state":"MN","lat":46.5559,"long":-95.4047},{"zip":"56571","city":"Ottertail","state":"MN","lat":46.4177,"long":-95.5436},{"zip":"56572","city":"Pelican Rapids","state":"MN","lat":46.5994,"long":-96.0662},{"zip":"56573","city":"Perham","state":"MN","lat":46.6031,"long":-95.5818},{"zip":"56576","city":"Richville","state":"MN","lat":46.4434,"long":-95.7924},{"zip":"56586","city":"Underwood","state":"MN","lat":46.3265,"long":-95.8415},{"zip":"56587","city":"Vergas","state":"MN","lat":46.6706,"long":-95.7948},{"zip":"56588","city":"Vining","state":"MN","lat":46.2195,"long":-95.506},{"zip":"56701","city":"Thief River Falls","state":"MN","lat":48.1191,"long":-96.1811},{"zip":"56725","city":"Goodridge","state":"MN","lat":48.0686,"long":-95.7283},{"zip":"56754","city":"Saint Hilaire","state":"MN","lat":48.0109,"long":-96.2249},{"zip":"56128","city":"Edgerton","state":"MN","lat":43.8824,"long":-96.1463},{"zip":"56139","city":"Holland","state":"MN","lat":44.0759,"long":-96.1903},{"zip":"56140","city":"Ihlen","state":"MN","lat":43.8955,"long":-96.364},{"zip":"56144","city":"Jasper","state":"MN","lat":43.8568,"long":-96.385},{"zip":"56164","city":"Pipestone","state":"MN","lat":43.9893,"long":-96.2652},{"zip":"56170","city":"Ruthton","state":"MN","lat":44.1682,"long":-96.0871},{"zip":"56186","city":"Woodstock","state":"MN","lat":43.9873,"long":-96.1192},{"zip":"56517","city":"Beltrami","state":"MN","lat":47.5721,"long":-96.4549},{"zip":"56523","city":"Climax","state":"MN","lat":47.6837,"long":-96.8715},{"zip":"56535","city":"Erskine","state":"MN","lat":47.6618,"long":-96.0122},{"zip":"56540","city":"Fertile","state":"MN","lat":47.5361,"long":-96.2803},{"zip":"56542","city":"Fosston","state":"MN","lat":47.5816,"long":-95.7431},{"zip":"56556","city":"Mcintosh","state":"MN","lat":47.6522,"long":-95.8863},{"zip":"56568","city":"Nielsville","state":"MN","lat":47.5373,"long":-96.7574},{"zip":"56592","city":"Winger","state":"MN","lat":47.5375,"long":-95.9941},{"zip":"56646","city":"Gully","state":"MN","lat":47.7697,"long":-95.641},{"zip":"56651","city":"Lengby","state":"MN","lat":47.5158,"long":-95.6359},{"zip":"56684","city":"Trail","state":"MN","lat":47.7478,"long":-95.7607},{"zip":"56716","city":"Crookston","state":"MN","lat":47.7797,"long":-96.5931},{"zip":"56721","city":"East Grand Forks","state":"MN","lat":47.9318,"long":-97.0213},{"zip":"56722","city":"Euclid","state":"MN","lat":47.9845,"long":-96.6428},{"zip":"56723","city":"Fisher","state":"MN","lat":47.8003,"long":-96.8015},{"zip":"56736","city":"Mentor","state":"MN","lat":47.6576,"long":-96.1778},{"zip":"56323","city":"Cyrus","state":"MN","lat":45.6414,"long":-95.7096},{"zip":"56327","city":"Farwell","state":"MN","lat":45.7244,"long":-95.6656},{"zip":"56334","city":"Glenwood","state":"MN","lat":45.6429,"long":-95.3868},{"zip":"56349","city":"Lowry","state":"MN","lat":45.7105,"long":-95.5322},{"zip":"56381","city":"Starbuck","state":"MN","lat":45.5926,"long":-95.5421},{"zip":"56385","city":"Villard","state":"MN","lat":45.7118,"long":-95.2414},{"zip":"56715","city":"Brooks","state":"MN","lat":47.8129,"long":-96.0117},{"zip":"56742","city":"Oklee","state":"MN","lat":47.8286,"long":-95.8617},{"zip":"56748","city":"Plummer","state":"MN","lat":47.9113,"long":-95.9646},{"zip":"56750","city":"Red Lake Falls","state":"MN","lat":47.8823,"long":-96.2681},{"zip":"56083","city":"Sanborn","state":"MN","lat":44.2183,"long":-95.1328},{"zip":"56152","city":"Lamberton","state":"MN","lat":44.2378,"long":-95.2739},{"zip":"56166","city":"Revere","state":"MN","lat":44.2391,"long":-95.3557},{"zip":"56180","city":"Walnut Grove","state":"MN","lat":44.2294,"long":-95.4965},{"zip":"56214","city":"Belview","state":"MN","lat":44.6055,"long":-95.3178},{"zip":"56224","city":"Clements","state":"MN","lat":44.3943,"long":-95.0474},{"zip":"56255","city":"Lucan","state":"MN","lat":44.4132,"long":-95.4119},{"zip":"56263","city":"Milroy","state":"MN","lat":44.4365,"long":-95.5545},{"zip":"56266","city":"Morgan","state":"MN","lat":44.3926,"long":-94.9218},{"zip":"56283","city":"Redwood Falls","state":"MN","lat":44.5394,"long":-95.1169},{"zip":"56287","city":"Seaforth","state":"MN","lat":44.4772,"long":-95.3264},{"zip":"56292","city":"Vesta","state":"MN","lat":44.5051,"long":-95.4118},{"zip":"56293","city":"Wabasso","state":"MN","lat":44.4059,"long":-95.2632},{"zip":"56294","city":"Wanda","state":"MN","lat":44.3149,"long":-95.213},{"zip":"56230","city":"Danube","state":"MN","lat":44.7919,"long":-95.0972},{"zip":"56270","city":"Morton","state":"MN","lat":44.5662,"long":-95.0268},{"zip":"56277","city":"Olivia","state":"MN","lat":44.7706,"long":-94.9727},{"zip":"56284","city":"Renville","state":"MN","lat":44.7776,"long":-95.1989},{"zip":"56285","city":"Sacred Heart","state":"MN","lat":44.7975,"long":-95.3538},{"zip":"56116","city":"Beaver Creek","state":"MN","lat":43.6223,"long":-96.3698},{"zip":"56134","city":"Hardwick","state":"MN","lat":43.7911,"long":-96.2161},{"zip":"56138","city":"Hills","state":"MN","lat":43.5335,"long":-96.3645},{"zip":"56146","city":"Kanaranzi","state":"MN","lat":43.5758,"long":-96.0945},{"zip":"56147","city":"Kenneth","state":"MN","lat":43.7637,"long":-96.1089},{"zip":"56156","city":"Luverne","state":"MN","lat":43.6614,"long":-96.2216},{"zip":"56158","city":"Magnolia","state":"MN","lat":43.644,"long":-96.0769},{"zip":"56173","city":"Steen","state":"MN","lat":43.5317,"long":-96.2439},{"zip":"56673","city":"Roosevelt","state":"MN","lat":48.8279,"long":-95.1119},{"zip":"56682","city":"Swift","state":"MN","lat":48.8533,"long":-95.2213},{"zip":"56714","city":"Badger","state":"MN","lat":48.7913,"long":-96.0965},{"zip":"56726","city":"Greenbush","state":"MN","lat":48.6957,"long":-96.1871},{"zip":"56751","city":"Roseau","state":"MN","lat":48.7048,"long":-95.7504},{"zip":"56756","city":"Salol","state":"MN","lat":48.8522,"long":-95.5356},{"zip":"56759","city":"Strathcona","state":"MN","lat":48.5459,"long":-96.0879},{"zip":"56761","city":"Wannaska","state":"MN","lat":48.6452,"long":-95.7072},{"zip":"56763","city":"Warroad","state":"MN","lat":48.9111,"long":-95.3538},{"zip":"56011","city":"Belle Plaine","state":"MN","lat":44.6139,"long":-93.7604},{"zip":"56044","city":"Henderson","state":"MN","lat":44.5344,"long":-93.9345},{"zip":"56301","city":"Saint Cloud","state":"MN","lat":45.541,"long":-94.1819},{"zip":"56302","city":"Saint Cloud","state":"MN","lat":45.5608,"long":-94.1625},{"zip":"56303","city":"Saint Cloud","state":"MN","lat":45.5713,"long":-94.2036},{"zip":"56304","city":"Saint Cloud","state":"MN","lat":45.5521,"long":-94.1284},{"zip":"56307","city":"Albany","state":"MN","lat":45.6151,"long":-94.574},{"zip":"56310","city":"Avon","state":"MN","lat":45.6122,"long":-94.436},{"zip":"56312","city":"Belgrade","state":"MN","lat":45.4865,"long":-94.9699},{"zip":"56316","city":"Brooten","state":"MN","lat":45.5011,"long":-95.1245},{"zip":"56320","city":"Cold Spring","state":"MN","lat":45.45,"long":-94.4378},{"zip":"56321","city":"Collegeville","state":"MN","lat":45.5783,"long":-94.4199},{"zip":"56325","city":"Elrosa","state":"MN","lat":45.5636,"long":-94.9464},{"zip":"56331","city":"Freeport","state":"MN","lat":45.6731,"long":-94.6785},{"zip":"56335","city":"Greenwald","state":"MN","lat":45.5971,"long":-94.8515},{"zip":"56340","city":"Holdingford","state":"MN","lat":45.7249,"long":-94.4581},{"zip":"56352","city":"Melrose","state":"MN","lat":45.6582,"long":-94.8198},{"zip":"56356","city":"New Munich","state":"MN","lat":45.6297,"long":-94.7519},{"zip":"56362","city":"Paynesville","state":"MN","lat":45.3988,"long":-94.7157},{"zip":"56368","city":"Richmond","state":"MN","lat":45.4605,"long":-94.5361},{"zip":"56369","city":"Rockville","state":"MN","lat":45.4719,"long":-94.3408},{"zip":"56371","city":"Roscoe","state":"MN","lat":45.4332,"long":-94.6366},{"zip":"56372","city":"Saint Cloud","state":"MN","lat":45.5608,"long":-94.1625},{"zip":"56374","city":"Saint Joseph","state":"MN","lat":45.5651,"long":-94.3367},{"zip":"56375","city":"Saint Stephen","state":"MN","lat":45.7118,"long":-94.2817},{"zip":"56376","city":"Saint Martin","state":"MN","lat":45.5019,"long":-94.6689},{"zip":"56377","city":"Sartell","state":"MN","lat":45.6318,"long":-94.2136},{"zip":"56378","city":"Sauk Centre","state":"MN","lat":45.7281,"long":-94.9682},{"zip":"56387","city":"Waite Park","state":"MN","lat":45.5497,"long":-94.2245},{"zip":"56393","city":"Saint Cloud","state":"MN","lat":45.5608,"long":-94.1625},{"zip":"56395","city":"Saint Cloud","state":"MN","lat":45.5608,"long":-94.1625},{"zip":"56396","city":"Saint Cloud","state":"MN","lat":45.5608,"long":-94.1625},{"zip":"56397","city":"Saint Cloud","state":"MN","lat":45.5608,"long":-94.1625},{"zip":"56398","city":"Saint Cloud","state":"MN","lat":45.5608,"long":-94.1625},{"zip":"56399","city":"Saint Cloud","state":"MN","lat":45.5608,"long":-94.1625},{"zip":"56026","city":"Ellendale","state":"MN","lat":43.8826,"long":-93.3195},{"zip":"56046","city":"Hope","state":"MN","lat":43.9619,"long":-93.276},{"zip":"56207","city":"Alberta","state":"MN","lat":45.5571,"long":-96.0498},{"zip":"56221","city":"Chokio","state":"MN","lat":45.5524,"long":-96.1733},{"zip":"56235","city":"Donnelly","state":"MN","lat":45.7014,"long":-96.0649},{"zip":"56244","city":"Hancock","state":"MN","lat":45.4985,"long":-95.8008},{"zip":"56267","city":"Morris","state":"MN","lat":45.5921,"long":-95.9172},{"zip":"56208","city":"Appleton","state":"MN","lat":45.2054,"long":-95.9949},{"zip":"56215","city":"Benson","state":"MN","lat":45.3129,"long":-95.5766},{"zip":"56226","city":"Clontarf","state":"MN","lat":45.3763,"long":-95.6787},{"zip":"56231","city":"Danvers","state":"MN","lat":45.2818,"long":-95.7219},{"zip":"56249","city":"Holloway","state":"MN","lat":45.2708,"long":-95.9164},{"zip":"56252","city":"Kerkhoven","state":"MN","lat":45.2096,"long":-95.3115},{"zip":"56271","city":"Murdock","state":"MN","lat":45.2161,"long":-95.4049},{"zip":"56318","city":"Burtrum","state":"MN","lat":45.888,"long":-94.6962},{"zip":"56336","city":"Grey Eagle","state":"MN","lat":45.8252,"long":-94.7467},{"zip":"56347","city":"Long Prairie","state":"MN","lat":45.9747,"long":-94.8656},{"zip":"56389","city":"West Union","state":"MN","lat":45.7995,"long":-95.0821},{"zip":"56437","city":"Bertha","state":"MN","lat":46.2515,"long":-95.0357},{"zip":"56438","city":"Browerville","state":"MN","lat":46.0905,"long":-94.8346},{"zip":"56440","city":"Clarissa","state":"MN","lat":46.1373,"long":-94.9572},{"zip":"56446","city":"Eagle Bend","state":"MN","lat":46.117,"long":-95.0961},{"zip":"56453","city":"Hewitt","state":"MN","lat":46.325,"long":-95.0504},{"zip":"56479","city":"Staples","state":"MN","lat":46.3536,"long":-94.7633},{"zip":"56219","city":"Browns Valley","state":"MN","lat":45.6069,"long":-96.8063},{"zip":"56236","city":"Dumont","state":"MN","lat":45.6717,"long":-96.4061},{"zip":"56296","city":"Wheaton","state":"MN","lat":45.8111,"long":-96.4866},{"zip":"56583","city":"Tintah","state":"MN","lat":46.0074,"long":-96.3593},{"zip":"56434","city":"Aldrich","state":"MN","lat":46.3797,"long":-94.9364},{"zip":"56464","city":"Menahga","state":"MN","lat":46.7572,"long":-95.0714},{"zip":"56477","city":"Sebeka","state":"MN","lat":46.6306,"long":-95.0681},{"zip":"56481","city":"Verndale","state":"MN","lat":46.5065,"long":-94.9676},{"zip":"56482","city":"Wadena","state":"MN","lat":46.4401,"long":-95.1283},{"zip":"56048","city":"Janesville","state":"MN","lat":44.1168,"long":-93.7095},{"zip":"56072","city":"New Richland","state":"MN","lat":43.8937,"long":-93.4995},{"zip":"56091","city":"Waldorf","state":"MN","lat":43.9399,"long":-93.7043},{"zip":"56093","city":"Waseca","state":"MN","lat":44.0834,"long":-93.5108},{"zip":"56022","city":"Darfur","state":"MN","lat":44.0513,"long":-94.838},{"zip":"56056","city":"La Salle","state":"MN","lat":44.0727,"long":-94.5795},{"zip":"56060","city":"Lewisville","state":"MN","lat":43.9209,"long":-94.4289},{"zip":"56062","city":"Madelia","state":"MN","lat":44.0499,"long":-94.411},{"zip":"56081","city":"Saint James","state":"MN","lat":43.9875,"long":-94.6229},{"zip":"56120","city":"Butterfield","state":"MN","lat":43.9654,"long":-94.7956},{"zip":"56160","city":"Odin","state":"MN","lat":43.8824,"long":-94.774},{"zip":"56520","city":"Breckenridge","state":"MN","lat":46.2797,"long":-96.5622},{"zip":"56522","city":"Campbell","state":"MN","lat":46.1402,"long":-96.4433},{"zip":"56543","city":"Foxhome","state":"MN","lat":46.2584,"long":-96.3176},{"zip":"56553","city":"Kent","state":"MN","lat":46.4378,"long":-96.6852},{"zip":"56565","city":"Nashua","state":"MN","lat":46.0537,"long":-96.316},{"zip":"56579","city":"Rothsay","state":"MN","lat":46.5094,"long":-96.2887},{"zip":"56594","city":"Wolverton","state":"MN","lat":46.555,"long":-96.6149},{"zip":"56220","city":"Canby","state":"MN","lat":44.7202,"long":-96.2784},{"zip":"56223","city":"Clarkfield","state":"MN","lat":44.7743,"long":-95.8304},{"zip":"56237","city":"Echo","state":"MN","lat":44.631,"long":-95.4182},{"zip":"56241","city":"Granite Falls","state":"MN","lat":44.8087,"long":-95.5516},{"zip":"56245","city":"Hanley Falls","state":"MN","lat":44.6789,"long":-95.6825},{"zip":"56280","city":"Porter","state":"MN","lat":44.6565,"long":-96.1581},{"zip":"56297","city":"Wood Lake","state":"MN","lat":44.6379,"long":-95.5409}]
