[{"zip":"56001","city":"Mankato","state":"MN","lat":44.1538,"long":-93.996},{"zip":"56002","city":"Mankato","state":"MN","lat":44.1591,"long":-94.0092},{"zip":"56010","city":"Amboy","state":"MN","lat":43.8903,"long":-94.1774},{"zip":"56024","city":"Eagle Lake","state":"MN","lat":44.1546,"long":-93.8719},{"zip":"56034","city":"Garden City","state":"MN","lat":44.0467,"long":-94.1791},{"zip":"56037","city":"Good Thunder","state":"MN","lat":43.9952,"long":-94.0677},{"zip":"56055","city":"Lake Crystal","state":"MN","lat":44.1202,"long":-94.2184},{"zip":"56063","city":"Madison Lake","state":"MN","lat":44.2221,"long":-93.8289},{"zip":"56065","city":"Mapleton","state":"MN","lat":43.9331,"long":-93.9542},{"zip":"56078","city":"Pemberton","state":"MN","lat":44.0077,"long":-93.7833},{"zip":"56080","city":"Saint Clair","state":"MN","lat":44.0817,"long":-93.8571},{"zip":"56090","city":"Vernon Center","state":"MN","lat":43.9706,"long":-94.2142},{"zip":"56019","city":"Comfrey","state":"MN","lat":44.1111,"long":-94.9134},{"zip":"56030","city":"Essig","state":"MN","lat":44.3258,"long":-94.6052},{"zip":"56041","city":"Hanska","state":"MN","lat":44.1527,"long":-94.4933},{"zip":"56073","city":"New Ulm","state":"MN","lat":44.3044,"long":-94.4644},{"zip":"56084","city":"Searles","state":"MN","lat":44.2286,"long":-94.4347},{"zip":"56085","city":"Sleepy Eye","state":"MN","lat":44.2821,"long":-94.7273},{"zip":"56087","city":"Springfield","state":"MN","lat":44.2329,"long":-94.9792},{"zip":"56013","city":"Blue Earth","state":"MN","lat":43.6394,"long":-94.0924},{"zip":"56014","city":"Bricelyn","state":"MN","lat":43.5746,"long":-93.8211},{"zip":"56023","city":"Delavan","state":"MN","lat":43.7719,"long":-94.0225},{"zip":"56025","city":"Easton","state":"MN","lat":43.7658,"long":-93.9011},{"zip":"56027","city":"Elmore","state":"MN","lat":43.5201,"long":-94.0984},{"zip":"56033","city":"Frost","state":"MN","lat":43.5638,"long":-93.9361},{"zip":"56047","city":"Huntley","state":"MN","lat":43.7316,"long":-94.2375},{"zip":"56051","city":"Kiester","state":"MN","lat":43.5414,"long":-93.7102},{"zip":"56068","city":"Minnesota Lake","state":"MN","lat":43.8295,"long":-93.8282},{"zip":"56097","city":"Wells","state":"MN","lat":43.7434,"long":-93.7321},{"zip":"56098","city":"Winnebago","state":"MN","lat":43.7755,"long":-94.1632},{"zip":"56007","city":"Albert Lea","state":"MN","lat":43.6537,"long":-93.3707},{"zip":"56009","city":"Alden","state":"MN","lat":43.6466,"long":-93.5823},{"zip":"56016","city":"Clarks Grove","state":"MN","lat":43.763,"long":-93.3232},{"zip":"56020","city":"Conger","state":"MN","lat":43.621,"long":-93.5482},{"zip":"56029","city":"Emmons","state":"MN","lat":43.5089,"long":-93.4824},{"zip":"56032","city":"Freeborn","state":"MN","lat":43.7658,"long":-93.5641},{"zip":"56035","city":"Geneva","state":"MN","lat":43.8235,"long":-93.2671},{"zip":"56036","city":"Glenville","state":"MN","lat":43.5577,"long":-93.2618},{"zip":"56042","city":"Hartland","state":"MN","lat":43.804,"long":-93.477},{"zip":"56043","city":"Hayward","state":"MN","lat":43.6386,"long":-93.2377},{"zip":"56045","city":"Hollandale","state":"MN","lat":43.7608,"long":-93.2041},{"zip":"56089","city":"Twin Lakes","state":"MN","lat":43.5593,"long":-93.4206},{"zip":"56017","city":"Cleveland","state":"MN","lat":44.3201,"long":-93.8286},{"zip":"56028","city":"Elysian","state":"MN","lat":44.2231,"long":-93.6965},{"zip":"56050","city":"Kasota","state":"MN","lat":44.2842,"long":-93.9453},{"zip":"56052","city":"Kilkenny","state":"MN","lat":44.3133,"long":-93.5741},{"zip":"56057","city":"Le Center","state":"MN","lat":44.3853,"long":-93.7214},{"zip":"56058","city":"Le Sueur","state":"MN","lat":44.4582,"long":-93.8856},{"zip":"56069","city":"Montgomery","state":"MN","lat":44.4356,"long":-93.581},{"zip":"56071","city":"New Prague","state":"MN","lat":44.5402,"long":-93.5805},{"zip":"56096","city":"Waterville","state":"MN","lat":44.2238,"long":-93.5751},{"zip":"56031","city":"Fairmont","state":"MN","lat":43.6376,"long":-94.451},{"zip":"56039","city":"Granada","state":"MN","lat":43.7061,"long":-94.3307},{"zip":"56075","city":"Northrop","state":"MN","lat":43.7353,"long":-94.4357},{"zip":"56088","city":"Truman","state":"MN","lat":43.82,"long":-94.4319},{"zip":"56003","city":"Mankato","state":"MN","lat":44.2172,"long":-94.0942},{"zip":"56021","city":"Courtland","state":"MN","lat":44.2791,"long":-94.3482},{"zip":"56054","city":"Lafayette","state":"MN","lat":44.4073,"long":-94.4365},{"zip":"56074","city":"Nicollet","state":"MN","lat":44.2724,"long":-94.1867},{"zip":"56082","city":"Saint Peter","state":"MN","lat":44.3351,"long":-93.9811},{"zip":"56083","city":"Sanborn","state":"MN","lat":44.2183,"long":-95.1328},{"zip":"56011","city":"Belle Plaine","state":"MN","lat":44.6139,"long":-93.7604},{"zip":"56044","city":"Henderson","state":"MN","lat":44.5344,"long":-93.9345},{"zip":"56026","city":"Ellendale","state":"MN","lat":43.8826,"long":-93.3195},{"zip":"56046","city":"Hope","state":"MN","lat":43.9619,"long":-93.276},{"zip":"56048","city":"Janesville","state":"MN","lat":44.1168,"long":-93.7095},{"zip":"56072","city":"New Richland","state":"MN","lat":43.8937,"long":-93.4995},{"zip":"56091","city":"Waldorf","state":"MN","lat":43.9399,"long":-93.7043},{"zip":"56093","city":"Waseca","state":"MN","lat":44.0834,"long":-93.5108},{"zip":"56022","city":"Darfur","state":"MN","lat":44.0513,"long":-94.838},{"zip":"56056","city":"La Salle","state":"MN","lat":44.0727,"long":-94.5795},{"zip":"56060","city":"Lewisville","state":"MN","lat":43.9209,"long":-94.4289},{"zip":"56062","city":"Madelia","state":"MN","lat":44.0499,"long":-94.411},{"zip":"56081","city":"Saint James","state":"MN","lat":43.9875,"long":-94.6229}]
