[{"zip":"56101","city":"Windom","state":"MN","lat":43.8831,"long":-95.1373},{"zip":"56118","city":"Bingham Lake","state":"MN","lat":43.8942,"long":-95.0457},{"zip":"56145","city":"Jeffers","state":"MN","lat":44.0737,"long":-95.1547},{"zip":"56159","city":"Mountain Lake","state":"MN","lat":43.939,"long":-94.9273},{"zip":"56174","city":"Storden","state":"MN","lat":44.0524,"long":-95.3019},{"zip":"56183","city":"Westbrook","state":"MN","lat":44.0654,"long":-95.4232},{"zip":"56111","city":"Alpha","state":"MN","lat":43.5946,"long":-94.9051},{"zip":"56137","city":"Heron Lake","state":"MN","lat":43.7979,"long":-95.3267},{"zip":"56143","city":"Jackson","state":"MN","lat":43.6457,"long":-94.9938},{"zip":"56150","city":"Lakefield","state":"MN","lat":43.6545,"long":-95.1848},{"zip":"56161","city":"Okabena","state":"MN","lat":43.723,"long":-95.3381},{"zip":"56113","city":"Arco","state":"MN","lat":44.4091,"long":-96.1999},{"zip":"56136","city":"Hendricks","state":"MN","lat":44.4995,"long":-96.4078},{"zip":"56142","city":"Ivanhoe","state":"MN","lat":44.4633,"long":-96.2473},{"zip":"56149","city":"Lake Benton","state":"MN","lat":44.2782,"long":-96.291},{"zip":"56178","city":"Tyler","state":"MN","lat":44.2773,"long":-96.1302},{"zip":"56115","city":"Balaton","state":"MN","lat":44.2253,"long":-95.8838},{"zip":"56132","city":"Garvin","state":"MN","lat":44.2293,"long":-95.7672},{"zip":"56157","city":"Lynd","state":"MN","lat":44.4032,"long":-95.9233},{"zip":"56169","city":"Russell","state":"MN","lat":44.3201,"long":-95.9426},{"zip":"56175","city":"Tracy","state":"MN","lat":44.2342,"long":-95.6213},{"zip":"56121","city":"Ceylon","state":"MN","lat":43.5382,"long":-94.6149},{"zip":"56127","city":"Dunnell","state":"MN","lat":43.5531,"long":-94.7876},{"zip":"56162","city":"Ormsby","state":"MN","lat":43.8616,"long":-94.6873},{"zip":"56171","city":"Sherburn","state":"MN","lat":43.6611,"long":-94.7269},{"zip":"56176","city":"Trimont","state":"MN","lat":43.7827,"long":-94.7186},{"zip":"56181","city":"Welcome","state":"MN","lat":43.6705,"long":-94.5886},{"zip":"56114","city":"Avoca","state":"MN","lat":43.9706,"long":-95.6002},{"zip":"56122","city":"Chandler","state":"MN","lat":43.9163,"long":-95.9296},{"zip":"56123","city":"Currie","state":"MN","lat":44.0946,"long":-95.6953},{"zip":"56125","city":"Dovray","state":"MN","lat":44.0533,"long":-95.5499},{"zip":"56131","city":"Fulda","state":"MN","lat":43.8753,"long":-95.5979},{"zip":"56141","city":"Iona","state":"MN","lat":43.9026,"long":-95.7718},{"zip":"56151","city":"Lake Wilson","state":"MN","lat":44.0095,"long":-95.9797},{"zip":"56172","city":"Slayton","state":"MN","lat":43.9856,"long":-95.7554},{"zip":"56110","city":"Adrian","state":"MN","lat":43.6197,"long":-95.9273},{"zip":"56117","city":"Bigelow","state":"MN","lat":43.5336,"long":-95.6515},{"zip":"56119","city":"Brewster","state":"MN","lat":43.7032,"long":-95.4807},{"zip":"56129","city":"Ellsworth","state":"MN","lat":43.5265,"long":-96.0112},{"zip":"56153","city":"Leota","state":"MN","lat":43.8404,"long":-96.0128},{"zip":"56155","city":"Lismore","state":"MN","lat":43.7339,"long":-95.9682},{"zip":"56165","city":"Reading","state":"MN","lat":43.7136,"long":-95.7389},{"zip":"56167","city":"Round Lake","state":"MN","lat":43.562,"long":-95.4502},{"zip":"56168","city":"Rushmore","state":"MN","lat":43.624,"long":-95.7767},{"zip":"56185","city":"Wilmont","state":"MN","lat":43.7692,"long":-95.8324},{"zip":"56187","city":"Worthington","state":"MN","lat":43.6286,"long":-95.6059},{"zip":"56128","city":"Edgerton","state":"MN","lat":43.8824,"long":-96.1463},{"zip":"56139","city":"Holland","state":"MN","lat":44.0759,"long":-96.1903},{"zip":"56140","city":"Ihlen","state":"MN","lat":43.8955,"long":-96.364},{"zip":"56144","city":"Jasper","state":"MN","lat":43.8568,"long":-96.385},{"zip":"56164","city":"Pipestone","state":"MN","lat":43.9893,"long":-96.2652},{"zip":"56170","city":"Ruthton","state":"MN","lat":44.1682,"long":-96.0871},{"zip":"56186","city":"Woodstock","state":"MN","lat":43.9873,"long":-96.1192},{"zip":"56152","city":"Lamberton","state":"MN","lat":44.2378,"long":-95.2739},{"zip":"56166","city":"Revere","state":"MN","lat":44.2391,"long":-95.3557},{"zip":"56180","city":"Walnut Grove","state":"MN","lat":44.2294,"long":-95.4965},{"zip":"56116","city":"Beaver Creek","state":"MN","lat":43.6223,"long":-96.3698},{"zip":"56134","city":"Hardwick","state":"MN","lat":43.7911,"long":-96.2161},{"zip":"56138","city":"Hills","state":"MN","lat":43.5335,"long":-96.3645},{"zip":"56146","city":"Kanaranzi","state":"MN","lat":43.5758,"long":-96.0945},{"zip":"56147","city":"Kenneth","state":"MN","lat":43.7637,"long":-96.1089},{"zip":"56156","city":"Luverne","state":"MN","lat":43.6614,"long":-96.2216},{"zip":"56158","city":"Magnolia","state":"MN","lat":43.644,"long":-96.0769},{"zip":"56173","city":"Steen","state":"MN","lat":43.5317,"long":-96.2439},{"zip":"56120","city":"Butterfield","state":"MN","lat":43.9654,"long":-94.7956},{"zip":"56160","city":"Odin","state":"MN","lat":43.8824,"long":-94.774}]
