[{"zip":"56210","city":"Barry","state":"MN","lat":45.5593,"long":-96.5589},{"zip":"56211","city":"Beardsley","state":"MN","lat":45.5539,"long":-96.706},{"zip":"56225","city":"Clinton","state":"MN","lat":45.4577,"long":-96.4182},{"zip":"56227","city":"Correll","state":"MN","lat":45.2907,"long":-96.1753},{"zip":"56240","city":"Graceville","state":"MN","lat":45.5602,"long":-96.4209},{"zip":"56276","city":"Odessa","state":"MN","lat":45.2597,"long":-96.3289},{"zip":"56278","city":"Ortonville","state":"MN","lat":45.3296,"long":-96.4596},{"zip":"56222","city":"Clara City","state":"MN","lat":44.9639,"long":-95.3499},{"zip":"56260","city":"Maynard","state":"MN","lat":44.9226,"long":-95.4845},{"zip":"56262","city":"Milan","state":"MN","lat":45.1143,"long":-95.869},{"zip":"56265","city":"Montevideo","state":"MN","lat":44.9688,"long":-95.6765},{"zip":"56295","city":"Watson","state":"MN","lat":45.0412,"long":-95.834},{"zip":"56248","city":"Herman","state":"MN","lat":45.8086,"long":-96.1434},{"zip":"56274","city":"Norcross","state":"MN","lat":45.8858,"long":-96.1342},{"zip":"56201","city":"Willmar","state":"MN","lat":45.1393,"long":-95.0523},{"zip":"56209","city":"Atwater","state":"MN","lat":45.1116,"long":-94.7938},{"zip":"56216","city":"Blomkest","state":"MN","lat":44.9501,"long":-95.0588},{"zip":"56251","city":"Kandiyohi","state":"MN","lat":45.1426,"long":-94.9183},{"zip":"56253","city":"Lake Lillian","state":"MN","lat":44.966,"long":-94.9014},{"zip":"56273","city":"New London","state":"MN","lat":45.2949,"long":-94.948},{"zip":"56279","city":"Pennock","state":"MN","lat":45.131,"long":-95.1753},{"zip":"56281","city":"Prinsburg","state":"MN","lat":44.9371,"long":-95.1865},{"zip":"56282","city":"Raymond","state":"MN","lat":45.0181,"long":-95.2208},{"zip":"56288","city":"Spicer","state":"MN","lat":45.2241,"long":-94.9116},{"zip":"56289","city":"Sunburg","state":"MN","lat":45.3583,"long":-95.2049},{"zip":"56212","city":"Bellingham","state":"MN","lat":45.1556,"long":-96.3224},{"zip":"56218","city":"Boyd","state":"MN","lat":44.8507,"long":-95.9421},{"zip":"56232","city":"Dawson","state":"MN","lat":44.9327,"long":-96.0545},{"zip":"56256","city":"Madison","state":"MN","lat":44.9946,"long":-96.1645},{"zip":"56257","city":"Marietta","state":"MN","lat":44.9636,"long":-96.4094},{"zip":"56229","city":"Cottonwood","state":"MN","lat":44.6003,"long":-95.6925},{"zip":"56239","city":"Ghent","state":"MN","lat":44.5078,"long":-95.8936},{"zip":"56258","city":"Marshall","state":"MN","lat":44.4481,"long":-95.7795},{"zip":"56264","city":"Minneota","state":"MN","lat":44.5587,"long":-95.9767},{"zip":"56291","city":"Taunton","state":"MN","lat":44.5951,"long":-96.0526},{"zip":"56228","city":"Cosmos","state":"MN","lat":44.959,"long":-94.6978},{"zip":"56243","city":"Grove City","state":"MN","lat":45.1532,"long":-94.6878},{"zip":"56214","city":"Belview","state":"MN","lat":44.6055,"long":-95.3178},{"zip":"56224","city":"Clements","state":"MN","lat":44.3943,"long":-95.0474},{"zip":"56255","city":"Lucan","state":"MN","lat":44.4132,"long":-95.4119},{"zip":"56263","city":"Milroy","state":"MN","lat":44.4365,"long":-95.5545},{"zip":"56266","city":"Morgan","state":"MN","lat":44.3926,"long":-94.9218},{"zip":"56283","city":"Redwood Falls","state":"MN","lat":44.5394,"long":-95.1169},{"zip":"56287","city":"Seaforth","state":"MN","lat":44.4772,"long":-95.3264},{"zip":"56292","city":"Vesta","state":"MN","lat":44.5051,"long":-95.4118},{"zip":"56293","city":"Wabasso","state":"MN","lat":44.4059,"long":-95.2632},{"zip":"56294","city":"Wanda","state":"MN","lat":44.3149,"long":-95.213},{"zip":"56230","city":"Danube","state":"MN","lat":44.7919,"long":-95.0972},{"zip":"56270","city":"Morton","state":"MN","lat":44.5662,"long":-95.0268},{"zip":"56277","city":"Olivia","state":"MN","lat":44.7706,"long":-94.9727},{"zip":"56284","city":"Renville","state":"MN","lat":44.7776,"long":-95.1989},{"zip":"56285","city":"Sacred Heart","state":"MN","lat":44.7975,"long":-95.3538},{"zip":"56207","city":"Alberta","state":"MN","lat":45.5571,"long":-96.0498},{"zip":"56221","city":"Chokio","state":"MN","lat":45.5524,"long":-96.1733},{"zip":"56235","city":"Donnelly","state":"MN","lat":45.7014,"long":-96.0649},{"zip":"56244","city":"Hancock","state":"MN","lat":45.4985,"long":-95.8008},{"zip":"56267","city":"Morris","state":"MN","lat":45.5921,"long":-95.9172},{"zip":"56208","city":"Appleton","state":"MN","lat":45.2054,"long":-95.9949},{"zip":"56215","city":"Benson","state":"MN","lat":45.3129,"long":-95.5766},{"zip":"56226","city":"Clontarf","state":"MN","lat":45.3763,"long":-95.6787},{"zip":"56231","city":"Danvers","state":"MN","lat":45.2818,"long":-95.7219},{"zip":"56249","city":"Holloway","state":"MN","lat":45.2708,"long":-95.9164},{"zip":"56252","city":"Kerkhoven","state":"MN","lat":45.2096,"long":-95.3115},{"zip":"56271","city":"Murdock","state":"MN","lat":45.2161,"long":-95.4049},{"zip":"56219","city":"Browns Valley","state":"MN","lat":45.6069,"long":-96.8063},{"zip":"56236","city":"Dumont","state":"MN","lat":45.6717,"long":-96.4061},{"zip":"56296","city":"Wheaton","state":"MN","lat":45.8111,"long":-96.4866},{"zip":"56220","city":"Canby","state":"MN","lat":44.7202,"long":-96.2784},{"zip":"56223","city":"Clarkfield","state":"MN","lat":44.7743,"long":-95.8304},{"zip":"56237","city":"Echo","state":"MN","lat":44.631,"long":-95.4182},{"zip":"56241","city":"Granite Falls","state":"MN","lat":44.8087,"long":-95.5516},{"zip":"56245","city":"Hanley Falls","state":"MN","lat":44.6789,"long":-95.6825},{"zip":"56280","city":"Porter","state":"MN","lat":44.6565,"long":-96.1581},{"zip":"56297","city":"Wood Lake","state":"MN","lat":44.6379,"long":-95.5409}]
