[{"zip":"56350","city":"Mc Grath","state":"MN","lat":46.1957,"long":-93.3774},{"zip":"56329","city":"Foley","state":"MN","lat":45.6919,"long":-93.9148},{"zip":"56333","city":"Gilman","state":"MN","lat":45.6917,"long":-94.0563},{"zip":"56357","city":"Oak Park","state":"MN","lat":45.7022,"long":-93.8164},{"zip":"56367","city":"Rice","state":"MN","lat":45.7364,"long":-94.1658},{"zip":"56379","city":"Sauk Rapids","state":"MN","lat":45.604,"long":-94.1591},{"zip":"56308","city":"Alexandria","state":"MN","lat":45.8817,"long":-95.382},{"zip":"56315","city":"Brandon","state":"MN","lat":45.9652,"long":-95.5987},{"zip":"56319","city":"Carlos","state":"MN","lat":45.9726,"long":-95.3105},{"zip":"56326","city":"Evansville","state":"MN","lat":46.0153,"long":-95.6951},{"zip":"56332","city":"Garfield","state":"MN","lat":45.9847,"long":-95.5066},{"zip":"56341","city":"Holmes City","state":"MN","lat":45.831,"long":-95.5416},{"zip":"56343","city":"Kensington","state":"MN","lat":45.8176,"long":-95.6945},{"zip":"56354","city":"Miltona","state":"MN","lat":46.0545,"long":-95.3258},{"zip":"56355","city":"Nelson","state":"MN","lat":45.9356,"long":-95.2398},{"zip":"56360","city":"Osakis","state":"MN","lat":45.8768,"long":-95.1332},{"zip":"56309","city":"Ashby","state":"MN","lat":46.0781,"long":-95.8214},{"zip":"56311","city":"Barrett","state":"MN","lat":45.8996,"long":-95.8754},{"zip":"56339","city":"Hoffman","state":"MN","lat":45.8233,"long":-95.7955},{"zip":"56358","city":"Ogilvie","state":"MN","lat":45.8476,"long":-93.4359},{"zip":"56313","city":"Bock","state":"MN","lat":45.7845,"long":-93.5522},{"zip":"56330","city":"Foreston","state":"MN","lat":45.7028,"long":-93.6958},{"zip":"56342","city":"Isle","state":"MN","lat":46.1696,"long":-93.4741},{"zip":"56353","city":"Milaca","state":"MN","lat":45.7795,"long":-93.6453},{"zip":"56359","city":"Onamia","state":"MN","lat":46.0902,"long":-93.6867},{"zip":"56363","city":"Pease","state":"MN","lat":45.6974,"long":-93.6465},{"zip":"56386","city":"Wahkon","state":"MN","lat":46.1121,"long":-93.4972},{"zip":"56314","city":"Bowlus","state":"MN","lat":45.8121,"long":-94.4175},{"zip":"56317","city":"Buckman","state":"MN","lat":45.8975,"long":-94.0936},{"zip":"56328","city":"Flensburg","state":"MN","lat":45.9533,"long":-94.5468},{"zip":"56338","city":"Hillman","state":"MN","lat":46.0678,"long":-93.8812},{"zip":"56344","city":"Lastrup","state":"MN","lat":46.0394,"long":-94.0633},{"zip":"56345","city":"Little Falls","state":"MN","lat":45.9811,"long":-94.3604},{"zip":"56364","city":"Pierz","state":"MN","lat":46.0081,"long":-94.0853},{"zip":"56373","city":"Royalton","state":"MN","lat":45.8589,"long":-94.2211},{"zip":"56382","city":"Swanville","state":"MN","lat":45.9431,"long":-94.6289},{"zip":"56384","city":"Upsala","state":"MN","lat":45.8097,"long":-94.5755},{"zip":"56388","city":"Waite Park","state":"MN","lat":45.5572,"long":-94.2242},{"zip":"56324","city":"Dalton","state":"MN","lat":46.1738,"long":-95.9156},{"zip":"56361","city":"Parkers Prairie","state":"MN","lat":46.153,"long":-95.3289},{"zip":"56323","city":"Cyrus","state":"MN","lat":45.6414,"long":-95.7096},{"zip":"56327","city":"Farwell","state":"MN","lat":45.7244,"long":-95.6656},{"zip":"56334","city":"Glenwood","state":"MN","lat":45.6429,"long":-95.3868},{"zip":"56349","city":"Lowry","state":"MN","lat":45.7105,"long":-95.5322},{"zip":"56381","city":"Starbuck","state":"MN","lat":45.5926,"long":-95.5421},{"zip":"56385","city":"Villard","state":"MN","lat":45.7118,"long":-95.2414},{"zip":"56301","city":"Saint Cloud","state":"MN","lat":45.541,"long":-94.1819},{"zip":"56302","city":"Saint Cloud","state":"MN","lat":45.5608,"long":-94.1625},{"zip":"56303","city":"Saint Cloud","state":"MN","lat":45.5713,"long":-94.2036},{"zip":"56304","city":"Saint Cloud","state":"MN","lat":45.5521,"long":-94.1284},{"zip":"56307","city":"Albany","state":"MN","lat":45.6151,"long":-94.574},{"zip":"56310","city":"Avon","state":"MN","lat":45.6122,"long":-94.436},{"zip":"56312","city":"Belgrade","state":"MN","lat":45.4865,"long":-94.9699},{"zip":"56316","city":"Brooten","state":"MN","lat":45.5011,"long":-95.1245},{"zip":"56320","city":"Cold Spring","state":"MN","lat":45.45,"long":-94.4378},{"zip":"56321","city":"Collegeville","state":"MN","lat":45.5783,"long":-94.4199},{"zip":"56325","city":"Elrosa","state":"MN","lat":45.5636,"long":-94.9464},{"zip":"56331","city":"Freeport","state":"MN","lat":45.6731,"long":-94.6785},{"zip":"56335","city":"Greenwald","state":"MN","lat":45.5971,"long":-94.8515},{"zip":"56340","city":"Holdingford","state":"MN","lat":45.7249,"long":-94.4581},{"zip":"56352","city":"Melrose","state":"MN","lat":45.6582,"long":-94.8198},{"zip":"56356","city":"New Munich","state":"MN","lat":45.6297,"long":-94.7519},{"zip":"56362","city":"Paynesville","state":"MN","lat":45.3988,"long":-94.7157},{"zip":"56368","city":"Richmond","state":"MN","lat":45.4605,"long":-94.5361},{"zip":"56369","city":"Rockville","state":"MN","lat":45.4719,"long":-94.3408},{"zip":"56371","city":"Roscoe","state":"MN","lat":45.4332,"long":-94.6366},{"zip":"56372","city":"Saint Cloud","state":"MN","lat":45.5608,"long":-94.1625},{"zip":"56374","city":"Saint Joseph","state":"MN","lat":45.5651,"long":-94.3367},{"zip":"56375","city":"Saint Stephen","state":"MN","lat":45.7118,"long":-94.2817},{"zip":"56376","city":"Saint Martin","state":"MN","lat":45.5019,"long":-94.6689},{"zip":"56377","city":"Sartell","state":"MN","lat":45.6318,"long":-94.2136},{"zip":"56378","city":"Sauk Centre","state":"MN","lat":45.7281,"long":-94.9682},{"zip":"56387","city":"Waite Park","state":"MN","lat":45.5497,"long":-94.2245},{"zip":"56393","city":"Saint Cloud","state":"MN","lat":45.5608,"long":-94.1625},{"zip":"56395","city":"Saint Cloud","state":"MN","lat":45.5608,"long":-94.1625},{"zip":"56396","city":"Saint Cloud","state":"MN","lat":45.5608,"long":-94.1625},{"zip":"56397","city":"Saint Cloud","state":"MN","lat":45.5608,"long":-94.1625},{"zip":"56398","city":"Saint Cloud","state":"MN","lat":45.5608,"long":-94.1625},{"zip":"56399","city":"Saint Cloud","state":"MN","lat":45.5608,"long":-94.1625},{"zip":"56318","city":"Burtrum","state":"MN","lat":45.888,"long":-94.6962},{"zip":"56336","city":"Grey Eagle","state":"MN","lat":45.8252,"long":-94.7467},{"zip":"56347","city":"Long Prairie","state":"MN","lat":45.9747,"long":-94.8656},{"zip":"56389","city":"West Union","state":"MN","lat":45.7995,"long":-95.0821}]
