[{"zip":"56431","city":"Aitkin","state":"MN","lat":46.4799,"long":-93.6454},{"zip":"56469","city":"Palisade","state":"MN","lat":46.6895,"long":-93.5627},{"zip":"56430","city":"Ah Gwah Ching","state":"MN","lat":47.0741,"long":-94.5628},{"zip":"56435","city":"Backus","state":"MN","lat":46.8699,"long":-94.3959},{"zip":"56452","city":"Hackensack","state":"MN","lat":46.9884,"long":-94.5033},{"zip":"56473","city":"Pillager","state":"MN","lat":46.3607,"long":-94.4895},{"zip":"56474","city":"Pine River","state":"MN","lat":46.6938,"long":-94.4477},{"zip":"56484","city":"Walker","state":"MN","lat":47.0877,"long":-94.5847},{"zip":"56401","city":"Brainerd","state":"MN","lat":46.3502,"long":-94.1},{"zip":"56425","city":"Baxter","state":"MN","lat":46.3429,"long":-94.2822},{"zip":"56441","city":"Crosby","state":"MN","lat":46.5091,"long":-93.9874},{"zip":"56442","city":"Crosslake","state":"MN","lat":46.6773,"long":-94.1128},{"zip":"56444","city":"Deerwood","state":"MN","lat":46.4446,"long":-93.8849},{"zip":"56447","city":"Emily","state":"MN","lat":46.7478,"long":-93.9484},{"zip":"56448","city":"Fifty Lakes","state":"MN","lat":46.747,"long":-94.0656},{"zip":"56449","city":"Fort Ripley","state":"MN","lat":46.2099,"long":-94.2527},{"zip":"56450","city":"Garrison","state":"MN","lat":46.2314,"long":-93.8341},{"zip":"56455","city":"Ironton","state":"MN","lat":46.4778,"long":-93.9789},{"zip":"56456","city":"Jenkins","state":"MN","lat":46.4807,"long":-94.0859},{"zip":"56459","city":"Lake Hubert","state":"MN","lat":46.4987,"long":-94.2519},{"zip":"56465","city":"Merrifield","state":"MN","lat":46.5393,"long":-94.1344},{"zip":"56468","city":"Nisswa","state":"MN","lat":46.4929,"long":-94.2976},{"zip":"56472","city":"Pequot Lakes","state":"MN","lat":46.6257,"long":-94.2684},{"zip":"56433","city":"Akeley","state":"MN","lat":47.001,"long":-94.7234},{"zip":"56436","city":"Benedict","state":"MN","lat":47.1082,"long":-94.9211},{"zip":"56458","city":"Lake George","state":"MN","lat":47.215,"long":-95.0021},{"zip":"56461","city":"Laporte","state":"MN","lat":47.2368,"long":-94.7772},{"zip":"56467","city":"Nevis","state":"MN","lat":46.9319,"long":-94.846},{"zip":"56470","city":"Park Rapids","state":"MN","lat":46.9377,"long":-95.0383},{"zip":"56443","city":"Cushing","state":"MN","lat":46.2022,"long":-94.6185},{"zip":"56466","city":"Motley","state":"MN","lat":46.2881,"long":-94.5638},{"zip":"56475","city":"Randall","state":"MN","lat":46.0734,"long":-94.5005},{"zip":"56437","city":"Bertha","state":"MN","lat":46.2515,"long":-95.0357},{"zip":"56438","city":"Browerville","state":"MN","lat":46.0905,"long":-94.8346},{"zip":"56440","city":"Clarissa","state":"MN","lat":46.1373,"long":-94.9572},{"zip":"56446","city":"Eagle Bend","state":"MN","lat":46.117,"long":-95.0961},{"zip":"56453","city":"Hewitt","state":"MN","lat":46.325,"long":-95.0504},{"zip":"56479","city":"Staples","state":"MN","lat":46.3536,"long":-94.7633},{"zip":"56434","city":"Aldrich","state":"MN","lat":46.3797,"long":-94.9364},{"zip":"56464","city":"Menahga","state":"MN","lat":46.7572,"long":-95.0714},{"zip":"56477","city":"Sebeka","state":"MN","lat":46.6306,"long":-95.0681},{"zip":"56481","city":"Verndale","state":"MN","lat":46.5065,"long":-94.9676},{"zip":"56482","city":"Wadena","state":"MN","lat":46.4401,"long":-95.1283}]
