[{"zip":"56501","city":"Detroit Lakes","state":"MN","lat":46.8172,"long":-95.8453},{"zip":"56502","city":"Detroit Lakes","state":"MN","lat":46.8172,"long":-95.8453},{"zip":"56511","city":"Audubon","state":"MN","lat":46.8719,"long":-95.9881},{"zip":"56521","city":"Callaway","state":"MN","lat":47.0076,"long":-95.944},{"zip":"56544","city":"Frazee","state":"MN","lat":46.7565,"long":-95.5212},{"zip":"56554","city":"Lake Park","state":"MN","lat":46.8176,"long":-96.067},{"zip":"56569","city":"Ogema","state":"MN","lat":47.1029,"long":-95.9151},{"zip":"56570","city":"Osage","state":"MN","lat":46.9329,"long":-95.2353},{"zip":"56575","city":"Ponsford","state":"MN","lat":47.0133,"long":-95.3197},{"zip":"56577","city":"Richwood","state":"MN","lat":46.934,"long":-95.6784},{"zip":"56578","city":"Rochert","state":"MN","lat":46.8862,"long":-95.7246},{"zip":"56591","city":"White Earth","state":"MN","lat":46.934,"long":-95.6784},{"zip":"56593","city":"Wolf Lake","state":"MN","lat":46.8035,"long":-95.3535},{"zip":"56514","city":"Barnesville","state":"MN","lat":46.6522,"long":-96.4198},{"zip":"56525","city":"Comstock","state":"MN","lat":46.6667,"long":-96.7398},{"zip":"56529","city":"Dilworth","state":"MN","lat":46.8782,"long":-96.7022},{"zip":"56536","city":"Felton","state":"MN","lat":47.0705,"long":-96.5052},{"zip":"56546","city":"Georgetown","state":"MN","lat":47.0999,"long":-96.727},{"zip":"56547","city":"Glyndon","state":"MN","lat":46.882,"long":-96.5583},{"zip":"56549","city":"Hawley","state":"MN","lat":46.9777,"long":-96.4092},{"zip":"56552","city":"Hitterdal","state":"MN","lat":47.0014,"long":-96.2888},{"zip":"56560","city":"Moorhead","state":"MN","lat":46.8677,"long":-96.7572},{"zip":"56561","city":"Moorhead","state":"MN","lat":46.8739,"long":-96.7695},{"zip":"56562","city":"Moorhead","state":"MN","lat":46.8739,"long":-96.7695},{"zip":"56563","city":"Moorhead","state":"MN","lat":46.8739,"long":-96.7695},{"zip":"56580","city":"Sabin","state":"MN","lat":46.7703,"long":-96.5985},{"zip":"56585","city":"Ulen","state":"MN","lat":47.0903,"long":-96.2824},{"zip":"56531","city":"Elbow Lake","state":"MN","lat":45.9953,"long":-95.9671},{"zip":"56590","city":"Wendell","state":"MN","lat":46.0562,"long":-96.1144},{"zip":"56516","city":"Bejou","state":"MN","lat":47.4491,"long":-95.9454},{"zip":"56557","city":"Mahnomen","state":"MN","lat":47.3362,"long":-95.8856},{"zip":"56566","city":"Naytahwaush","state":"MN","lat":47.2601,"long":-95.6283},{"zip":"56589","city":"Waubun","state":"MN","lat":47.192,"long":-95.8871},{"zip":"56510","city":"Ada","state":"MN","lat":47.3253,"long":-96.5973},{"zip":"56519","city":"Borup","state":"MN","lat":47.1896,"long":-96.553},{"zip":"56541","city":"Flom","state":"MN","lat":47.1588,"long":-96.1309},{"zip":"56545","city":"Gary","state":"MN","lat":47.3675,"long":-96.2152},{"zip":"56548","city":"Halstad","state":"MN","lat":47.3551,"long":-96.798},{"zip":"56550","city":"Hendrum","state":"MN","lat":47.2689,"long":-96.7987},{"zip":"56574","city":"Perley","state":"MN","lat":47.1831,"long":-96.7777},{"zip":"56581","city":"Shelly","state":"MN","lat":47.4554,"long":-96.7838},{"zip":"56584","city":"Twin Valley","state":"MN","lat":47.2509,"long":-96.2464},{"zip":"56515","city":"Battle Lake","state":"MN","lat":46.3142,"long":-95.7144},{"zip":"56518","city":"Bluffton","state":"MN","lat":46.4918,"long":-95.2236},{"zip":"56524","city":"Clitherall","state":"MN","lat":46.2757,"long":-95.6308},{"zip":"56527","city":"Deer Creek","state":"MN","lat":46.3911,"long":-95.3214},{"zip":"56528","city":"Dent","state":"MN","lat":46.5554,"long":-95.7644},{"zip":"56533","city":"Elizabeth","state":"MN","lat":46.3803,"long":-96.1326},{"zip":"56534","city":"Erhard","state":"MN","lat":46.4948,"long":-96.0593},{"zip":"56537","city":"Fergus Falls","state":"MN","lat":46.276,"long":-96.0904},{"zip":"56538","city":"Fergus Falls","state":"MN","lat":46.283,"long":-96.0776},{"zip":"56551","city":"Henning","state":"MN","lat":46.3256,"long":-95.3852},{"zip":"56567","city":"New York Mills","state":"MN","lat":46.5559,"long":-95.4047},{"zip":"56571","city":"Ottertail","state":"MN","lat":46.4177,"long":-95.5436},{"zip":"56572","city":"Pelican Rapids","state":"MN","lat":46.5994,"long":-96.0662},{"zip":"56573","city":"Perham","state":"MN","lat":46.6031,"long":-95.5818},{"zip":"56576","city":"Richville","state":"MN","lat":46.4434,"long":-95.7924},{"zip":"56586","city":"Underwood","state":"MN","lat":46.3265,"long":-95.8415},{"zip":"56587","city":"Vergas","state":"MN","lat":46.6706,"long":-95.7948},{"zip":"56588","city":"Vining","state":"MN","lat":46.2195,"long":-95.506},{"zip":"56517","city":"Beltrami","state":"MN","lat":47.5721,"long":-96.4549},{"zip":"56523","city":"Climax","state":"MN","lat":47.6837,"long":-96.8715},{"zip":"56535","city":"Erskine","state":"MN","lat":47.6618,"long":-96.0122},{"zip":"56540","city":"Fertile","state":"MN","lat":47.5361,"long":-96.2803},{"zip":"56542","city":"Fosston","state":"MN","lat":47.5816,"long":-95.7431},{"zip":"56556","city":"Mcintosh","state":"MN","lat":47.6522,"long":-95.8863},{"zip":"56568","city":"Nielsville","state":"MN","lat":47.5373,"long":-96.7574},{"zip":"56592","city":"Winger","state":"MN","lat":47.5375,"long":-95.9941},{"zip":"56583","city":"Tintah","state":"MN","lat":46.0074,"long":-96.3593},{"zip":"56520","city":"Breckenridge","state":"MN","lat":46.2797,"long":-96.5622},{"zip":"56522","city":"Campbell","state":"MN","lat":46.1402,"long":-96.4433},{"zip":"56543","city":"Foxhome","state":"MN","lat":46.2584,"long":-96.3176},{"zip":"56553","city":"Kent","state":"MN","lat":46.4378,"long":-96.6852},{"zip":"56565","city":"Nashua","state":"MN","lat":46.0537,"long":-96.316},{"zip":"56579","city":"Rothsay","state":"MN","lat":46.5094,"long":-96.2887},{"zip":"56594","city":"Wolverton","state":"MN","lat":46.555,"long":-96.6149}]
