[{"zip":"56601","city":"Bemidji","state":"MN","lat":47.572,"long":-94.8013},{"zip":"56619","city":"Bemidji","state":"MN","lat":47.4736,"long":-94.8803},{"zip":"56630","city":"Blackduck","state":"MN","lat":47.7381,"long":-94.4961},{"zip":"56647","city":"Hines","state":"MN","lat":47.7324,"long":-94.6477},{"zip":"56650","city":"Kelliher","state":"MN","lat":47.9272,"long":-94.5382},{"zip":"56663","city":"Pennington","state":"MN","lat":47.4651,"long":-94.4834},{"zip":"56666","city":"Ponemah","state":"MN","lat":48.0372,"long":-94.917},{"zip":"56667","city":"Puposky","state":"MN","lat":47.7436,"long":-94.9803},{"zip":"56670","city":"Redby","state":"MN","lat":47.8689,"long":-94.9404},{"zip":"56671","city":"Redlake","state":"MN","lat":47.8654,"long":-95.0643},{"zip":"56678","city":"Solway","state":"MN","lat":47.548,"long":-95.1205},{"zip":"56683","city":"Tenstrike","state":"MN","lat":47.6566,"long":-94.6747},{"zip":"56685","city":"Waskish","state":"MN","lat":48.177,"long":-94.5037},{"zip":"56687","city":"Wilton","state":"MN","lat":47.5036,"long":-95.0011},{"zip":"56626","city":"Bena","state":"MN","lat":47.3477,"long":-94.2519},{"zip":"56633","city":"Cass Lake","state":"MN","lat":47.3516,"long":-94.6119},{"zip":"56641","city":"Federal Dam","state":"MN","lat":47.2069,"long":-94.2575},{"zip":"56655","city":"Longville","state":"MN","lat":47.0248,"long":-94.1982},{"zip":"56662","city":"Outing","state":"MN","lat":46.8375,"long":-93.9443},{"zip":"56672","city":"Remer","state":"MN","lat":47.0874,"long":-93.9196},{"zip":"56621","city":"Bagley","state":"MN","lat":47.487,"long":-95.4133},{"zip":"56634","city":"Clearbrook","state":"MN","lat":47.7146,"long":-95.3752},{"zip":"56644","city":"Gonvick","state":"MN","lat":47.749,"long":-95.499},{"zip":"56652","city":"Leonard","state":"MN","lat":47.7334,"long":-95.2481},{"zip":"56676","city":"Shevlin","state":"MN","lat":47.5004,"long":-95.245},{"zip":"56628","city":"Bigfork","state":"MN","lat":47.7502,"long":-93.6707},{"zip":"56631","city":"Bowstring","state":"MN","lat":47.543,"long":-93.7966},{"zip":"56636","city":"Deer River","state":"MN","lat":47.3829,"long":-93.8498},{"zip":"56637","city":"Talmoon","state":"MN","lat":47.5888,"long":-93.7749},{"zip":"56639","city":"Effie","state":"MN","lat":47.8472,"long":-93.5799},{"zip":"56657","city":"Marcell","state":"MN","lat":47.5485,"long":-93.6236},{"zip":"56659","city":"Max","state":"MN","lat":47.6147,"long":-94.068},{"zip":"56680","city":"Spring Lake","state":"MN","lat":47.6359,"long":-93.922},{"zip":"56681","city":"Squaw Lake","state":"MN","lat":47.6362,"long":-94.1475},{"zip":"56688","city":"Wirt","state":"MN","lat":47.7462,"long":-93.963},{"zip":"56627","city":"Big Falls","state":"MN","lat":48.156,"long":-93.7296},{"zip":"56629","city":"Birchdale","state":"MN","lat":48.6247,"long":-94.1677},{"zip":"56649","city":"International Falls","state":"MN","lat":48.601,"long":-93.411},{"zip":"56653","city":"Littlefork","state":"MN","lat":48.3852,"long":-93.5399},{"zip":"56654","city":"Loman","state":"MN","lat":48.5164,"long":-93.8407},{"zip":"56658","city":"Margie","state":"MN","lat":48.0904,"long":-93.8292},{"zip":"56660","city":"Mizpah","state":"MN","lat":47.9495,"long":-94.1467},{"zip":"56661","city":"Northome","state":"MN","lat":47.844,"long":-94.2043},{"zip":"56668","city":"Ranier","state":"MN","lat":48.613,"long":-93.3488},{"zip":"56669","city":"Kabetogama","state":"MN","lat":48.2463,"long":-93.7842},{"zip":"56679","city":"South International Falls","state":"MN","lat":48.5866,"long":-93.399},{"zip":"56623","city":"Baudette","state":"MN","lat":48.6927,"long":-94.5995},{"zip":"56686","city":"Williams","state":"MN","lat":48.8022,"long":-94.9556},{"zip":"56646","city":"Gully","state":"MN","lat":47.7697,"long":-95.641},{"zip":"56651","city":"Lengby","state":"MN","lat":47.5158,"long":-95.6359},{"zip":"56684","city":"Trail","state":"MN","lat":47.7478,"long":-95.7607},{"zip":"56673","city":"Roosevelt","state":"MN","lat":48.8279,"long":-95.1119},{"zip":"56682","city":"Swift","state":"MN","lat":48.8533,"long":-95.2213}]
