[{"zip":"56720","city":"Donaldson","state":"MN","lat":48.5722,"long":-96.8964},{"zip":"56728","city":"Hallock","state":"MN","lat":48.7749,"long":-96.9445},{"zip":"56729","city":"Halma","state":"MN","lat":48.6669,"long":-96.5969},{"zip":"56731","city":"Humboldt","state":"MN","lat":48.9211,"long":-97.0934},{"zip":"56732","city":"Karlstad","state":"MN","lat":48.5916,"long":-96.5511},{"zip":"56733","city":"Kennedy","state":"MN","lat":48.6337,"long":-96.9614},{"zip":"56734","city":"Lake Bronson","state":"MN","lat":48.7787,"long":-96.6431},{"zip":"56735","city":"Lancaster","state":"MN","lat":48.9153,"long":-96.6366},{"zip":"56740","city":"Noyes","state":"MN","lat":48.9975,"long":-97.2045},{"zip":"56755","city":"Saint Vincent","state":"MN","lat":48.9458,"long":-97.1703},{"zip":"56711","city":"Angle Inlet","state":"MN","lat":49.3453,"long":-95.0627},{"zip":"56741","city":"Oak Island","state":"MN","lat":49.3135,"long":-94.8492},{"zip":"56710","city":"Alvarado","state":"MN","lat":48.202,"long":-96.9915},{"zip":"56713","city":"Argyle","state":"MN","lat":48.3314,"long":-96.8671},{"zip":"56724","city":"Gatzke","state":"MN","lat":48.4104,"long":-95.7903},{"zip":"56727","city":"Grygla","state":"MN","lat":48.3071,"long":-95.6398},{"zip":"56737","city":"Middle River","state":"MN","lat":48.4426,"long":-96.1232},{"zip":"56738","city":"Newfolden","state":"MN","lat":48.2895,"long":-96.255},{"zip":"56744","city":"Oslo","state":"MN","lat":48.2066,"long":-97.1163},{"zip":"56757","city":"Stephen","state":"MN","lat":48.4525,"long":-96.8674},{"zip":"56758","city":"Strandquist","state":"MN","lat":48.4526,"long":-96.4723},{"zip":"56760","city":"Viking","state":"MN","lat":48.2349,"long":-96.4749},{"zip":"56762","city":"Warren","state":"MN","lat":48.2614,"long":-96.7726},{"zip":"56701","city":"Thief River Falls","state":"MN","lat":48.1191,"long":-96.1811},{"zip":"56725","city":"Goodridge","state":"MN","lat":48.0686,"long":-95.7283},{"zip":"56754","city":"Saint Hilaire","state":"MN","lat":48.0109,"long":-96.2249},{"zip":"56716","city":"Crookston","state":"MN","lat":47.7797,"long":-96.5931},{"zip":"56721","city":"East Grand Forks","state":"MN","lat":47.9318,"long":-97.0213},{"zip":"56722","city":"Euclid","state":"MN","lat":47.9845,"long":-96.6428},{"zip":"56723","city":"Fisher","state":"MN","lat":47.8003,"long":-96.8015},{"zip":"56736","city":"Mentor","state":"MN","lat":47.6576,"long":-96.1778},{"zip":"56715","city":"Brooks","state":"MN","lat":47.8129,"long":-96.0117},{"zip":"56742","city":"Oklee","state":"MN","lat":47.8286,"long":-95.8617},{"zip":"56748","city":"Plummer","state":"MN","lat":47.9113,"long":-95.9646},{"zip":"56750","city":"Red Lake Falls","state":"MN","lat":47.8823,"long":-96.2681},{"zip":"56714","city":"Badger","state":"MN","lat":48.7913,"long":-96.0965},{"zip":"56726","city":"Greenbush","state":"MN","lat":48.6957,"long":-96.1871},{"zip":"56751","city":"Roseau","state":"MN","lat":48.7048,"long":-95.7504},{"zip":"56756","city":"Salol","state":"MN","lat":48.8522,"long":-95.5356},{"zip":"56759","city":"Strathcona","state":"MN","lat":48.5459,"long":-96.0879},{"zip":"56761","city":"Wannaska","state":"MN","lat":48.6452,"long":-95.7072},{"zip":"56763","city":"Warroad","state":"MN","lat":48.9111,"long":-95.3538}]
