[{"zip":"57368","city":"Plankinton","state":"SD","lat":43.7373,"long":-98.4694},{"zip":"57375","city":"Stickney","state":"SD","lat":43.5842,"long":-98.5088},{"zip":"57383","city":"White Lake","state":"SD","lat":43.7564,"long":-98.7076},{"zip":"57324","city":"Cavour","state":"SD","lat":44.365,"long":-98.0208},{"zip":"57348","city":"Hitchcock","state":"SD","lat":44.5834,"long":-98.4509},{"zip":"57350","city":"Huron","state":"SD","lat":44.359,"long":-98.2163},{"zip":"57379","city":"Virgil","state":"SD","lat":44.2908,"long":-98.4243},{"zip":"57381","city":"Wessington","state":"SD","lat":44.4128,"long":-98.692},{"zip":"57384","city":"Wolsey","state":"SD","lat":44.3991,"long":-98.4743},{"zip":"57386","city":"Yale","state":"SD","lat":44.5225,"long":-98.0401},{"zip":"57399","city":"Huron","state":"SD","lat":44.3633,"long":-98.2143},{"zip":"57551","city":"Martin","state":"SD","lat":43.1722,"long":-101.7341},{"zip":"57574","city":"Tuthill","state":"SD","lat":43.1196,"long":-101.4701},{"zip":"57714","city":"Allen","state":"SD","lat":43.2908,"long":-101.9329},{"zip":"57059","city":"Scotland","state":"SD","lat":43.1212,"long":-97.7296},{"zip":"57062","city":"Springfield","state":"SD","lat":42.8687,"long":-97.9288},{"zip":"57063","city":"Tabor","state":"SD","lat":42.9383,"long":-97.6923},{"zip":"57066","city":"Tyndall","state":"SD","lat":42.99,"long":-97.8633},{"zip":"57315","city":"Avon","state":"SD","lat":43.0397,"long":-98.0283},{"zip":"57002","city":"Aurora","state":"SD","lat":44.2838,"long":-96.7043},{"zip":"57006","city":"Brookings","state":"SD","lat":44.3056,"long":-96.7914},{"zip":"57007","city":"Brookings","state":"SD","lat":44.3697,"long":-96.7907},{"zip":"57026","city":"Elkton","state":"SD","lat":44.235,"long":-96.5011},{"zip":"57061","city":"Sinai","state":"SD","lat":44.2444,"long":-97.0409},{"zip":"57071","city":"Volga","state":"SD","lat":44.3224,"long":-96.9251},{"zip":"57220","city":"Bruce","state":"SD","lat":44.4675,"long":-96.911},{"zip":"57276","city":"White","state":"SD","lat":44.4132,"long":-96.615},{"zip":"57401","city":"Aberdeen","state":"SD","lat":45.4661,"long":-98.4856},{"zip":"57402","city":"Aberdeen","state":"SD","lat":45.5896,"long":-98.352},{"zip":"57426","city":"Barnard","state":"SD","lat":45.7325,"long":-98.4965},{"zip":"57427","city":"Bath","state":"SD","lat":45.4564,"long":-98.3552},{"zip":"57432","city":"Claremont","state":"SD","lat":45.6661,"long":-98.0404},{"zip":"57433","city":"Columbia","state":"SD","lat":45.6512,"long":-98.3158},{"zip":"57439","city":"Ferney","state":"SD","lat":45.329,"long":-98.0837},{"zip":"57441","city":"Frederick","state":"SD","lat":45.8493,"long":-98.5176},{"zip":"57445","city":"Groton","state":"SD","lat":45.4503,"long":-98.1058},{"zip":"57446","city":"Hecla","state":"SD","lat":45.8725,"long":-98.1918},{"zip":"57449","city":"Houghton","state":"SD","lat":45.7967,"long":-98.0952},{"zip":"57474","city":"Stratford","state":"SD","lat":45.2866,"long":-98.2792},{"zip":"57479","city":"Warner","state":"SD","lat":45.3486,"long":-98.4757},{"zip":"57481","city":"Westport","state":"SD","lat":45.6705,"long":-98.5802},{"zip":"57325","city":"Chamberlain","state":"SD","lat":43.7953,"long":-99.3118},{"zip":"57326","city":"Chamberlain","state":"SD","lat":43.8108,"long":-99.3307},{"zip":"57355","city":"Kimball","state":"SD","lat":43.7467,"long":-98.9584},{"zip":"57370","city":"Pukwana","state":"SD","lat":43.7783,"long":-99.1779},{"zip":"57339","city":"Fort Thompson","state":"SD","lat":44.0517,"long":-99.3973},{"zip":"57341","city":"Gann Valley","state":"SD","lat":44.0693,"long":-99.0543},{"zip":"57717","city":"Belle Fourche","state":"SD","lat":44.6723,"long":-103.8396},{"zip":"57760","city":"Newell","state":"SD","lat":44.741,"long":-103.3914},{"zip":"57762","city":"Nisland","state":"SD","lat":44.6665,"long":-103.5402},{"zip":"57788","city":"Vale","state":"SD","lat":44.6222,"long":-103.3795},{"zip":"57632","city":"Herreid","state":"SD","lat":45.8452,"long":-100.049},{"zip":"57646","city":"Mound City","state":"SD","lat":45.6786,"long":-100.0479},{"zip":"57648","city":"Pollock","state":"SD","lat":45.889,"long":-100.2875},{"zip":"57329","city":"Dante","state":"SD","lat":42.9967,"long":-98.1746},{"zip":"57342","city":"Geddes","state":"SD","lat":43.2597,"long":-98.6926},{"zip":"57356","city":"Lake Andes","state":"SD","lat":43.1303,"long":-98.4964},{"zip":"57361","city":"Marty","state":"SD","lat":43.0196,"long":-98.4469},{"zip":"57367","city":"Pickstown","state":"SD","lat":43.0673,"long":-98.523},{"zip":"57369","city":"Platte","state":"SD","lat":43.4251,"long":-98.9479},{"zip":"57380","city":"Wagner","state":"SD","lat":43.0819,"long":-98.2819},{"zip":"57217","city":"Bradley","state":"SD","lat":45.0751,"long":-97.6387},{"zip":"57225","city":"Clark","state":"SD","lat":44.878,"long":-97.7265},{"zip":"57236","city":"Garden City","state":"SD","lat":44.9841,"long":-97.5814},{"zip":"57258","city":"Raymond","state":"SD","lat":44.8637,"long":-97.9168},{"zip":"57271","city":"Vienna","state":"SD","lat":44.7362,"long":-97.5307},{"zip":"57278","city":"Willow Lake","state":"SD","lat":44.6272,"long":-97.6747},{"zip":"57322","city":"Carpenter","state":"SD","lat":44.6648,"long":-97.9168},{"zip":"57010","city":"Burbank","state":"SD","lat":42.7638,"long":-96.8466},{"zip":"57037","city":"Irene","state":"SD","lat":43.1027,"long":-97.2558},{"zip":"57069","city":"Vermillion","state":"SD","lat":42.7951,"long":-96.9258},{"zip":"57073","city":"Wakonda","state":"SD","lat":42.996,"long":-97.0694},{"zip":"57201","city":"Watertown","state":"SD","lat":44.9043,"long":-97.124},{"zip":"57235","city":"Florence","state":"SD","lat":45.0554,"long":-97.2866},{"zip":"57243","city":"Henry","state":"SD","lat":44.8858,"long":-97.4442},{"zip":"57245","city":"Kranzburg","state":"SD","lat":44.8923,"long":-96.9174},{"zip":"57263","city":"South Shore","state":"SD","lat":45.1049,"long":-96.9859},{"zip":"57272","city":"Wallace","state":"SD","lat":45.0815,"long":-97.4458},{"zip":"57621","city":"Bullhead","state":"SD","lat":45.7656,"long":-101.0807},{"zip":"57634","city":"Keldron","state":"SD","lat":45.7528,"long":-101.8843},{"zip":"57639","city":"Little Eagle","state":"SD","lat":45.6758,"long":-100.8043},{"zip":"57641","city":"Mc Intosh","state":"SD","lat":45.7084,"long":-101.1546},{"zip":"57642","city":"Mc Laughlin","state":"SD","lat":45.8763,"long":-100.8915},{"zip":"57645","city":"Morristown","state":"SD","lat":45.9386,"long":-101.7232},{"zip":"57657","city":"Trail City","state":"SD","lat":45.4725,"long":-100.7254},{"zip":"57658","city":"Wakpala","state":"SD","lat":45.7006,"long":-100.5332},{"zip":"57659","city":"Walker","state":"SD","lat":45.9103,"long":-101.0904},{"zip":"57660","city":"Watauga","state":"SD","lat":45.9276,"long":-101.5129},{"zip":"57722","city":"Buffalo Gap","state":"SD","lat":43.4958,"long":-103.3157},{"zip":"57730","city":"Custer","state":"SD","lat":43.6573,"long":-103.4258},{"zip":"57738","city":"Fairburn","state":"SD","lat":43.6623,"long":-103.2133},{"zip":"57744","city":"Hermosa","state":"SD","lat":43.8188,"long":-103.206},{"zip":"57773","city":"Pringle","state":"SD","lat":43.6086,"long":-103.5938},{"zip":"57301","city":"Mitchell","state":"SD","lat":43.7094,"long":-98.0298},{"zip":"57334","city":"Ethan","state":"SD","lat":43.5478,"long":-97.9881},{"zip":"57363","city":"Mount Vernon","state":"SD","lat":43.7204,"long":-98.2633},{"zip":"57219","city":"Bristol","state":"SD","lat":45.288,"long":-97.8086},{"zip":"57239","city":"Grenville","state":"SD","lat":45.5097,"long":-97.3092},{"zip":"57261","city":"Roslyn","state":"SD","lat":45.5006,"long":-97.5401},{"zip":"57273","city":"Waubay","state":"SD","lat":45.3784,"long":-97.295},{"zip":"57274","city":"Webster","state":"SD","lat":45.3151,"long":-97.5254},{"zip":"57422","city":"Andover","state":"SD","lat":45.4222,"long":-97.9175},{"zip":"57468","city":"Pierpont","state":"SD","lat":45.496,"long":-97.8128},{"zip":"57213","city":"Astoria","state":"SD","lat":44.5735,"long":-96.5416},{"zip":"57218","city":"Brandt","state":"SD","lat":44.6738,"long":-96.6435},{"zip":"57226","city":"Clear Lake","state":"SD","lat":44.7612,"long":-96.6907},{"zip":"57237","city":"Gary","state":"SD","lat":44.827,"long":-96.5044},{"zip":"57238","city":"Goodwin","state":"SD","lat":44.8754,"long":-96.8608},{"zip":"57268","city":"Toronto","state":"SD","lat":44.5786,"long":-96.7077},{"zip":"57625","city":"Eagle Butte","state":"SD","lat":45.0016,"long":-101.2329},{"zip":"57630","city":"Glencross","state":"SD","lat":45.4483,"long":-100.9213},{"zip":"57633","city":"Isabel","state":"SD","lat":45.3962,"long":-101.4385},{"zip":"57636","city":"Lantry","state":"SD","lat":45.0144,"long":-101.4315},{"zip":"57652","city":"Ridgeview","state":"SD","lat":45.2024,"long":-100.605},{"zip":"57656","city":"Timber Lake","state":"SD","lat":45.3927,"long":-101.0351},{"zip":"57661","city":"Whitehorse","state":"SD","lat":45.2705,"long":-100.8865},{"zip":"57313","city":"Armour","state":"SD","lat":43.316,"long":-98.3414},{"zip":"57328","city":"Corsica","state":"SD","lat":43.4213,"long":-98.3564},{"zip":"57330","city":"Delmont","state":"SD","lat":43.2573,"long":-98.1596},{"zip":"57344","city":"Harrison","state":"SD","lat":43.4297,"long":-98.5273},{"zip":"57364","city":"New Holland","state":"SD","lat":43.4291,"long":-98.6069},{"zip":"57428","city":"Bowdle","state":"SD","lat":45.453,"long":-99.654},{"zip":"57448","city":"Hosmer","state":"SD","lat":45.569,"long":-99.4857},{"zip":"57451","city":"Ipswich","state":"SD","lat":45.4489,"long":-99.0148},{"zip":"57471","city":"Roscoe","state":"SD","lat":45.4271,"long":-99.3326},{"zip":"57735","city":"Edgemont","state":"SD","lat":43.2874,"long":-103.811},{"zip":"57747","city":"Hot Springs","state":"SD","lat":43.4223,"long":-103.4766},{"zip":"57763","city":"Oelrichs","state":"SD","lat":43.1551,"long":-103.2162},{"zip":"57766","city":"Oral","state":"SD","lat":43.3876,"long":-103.1832},{"zip":"57782","city":"Smithwick","state":"SD","lat":43.3014,"long":-103.2183},{"zip":"57435","city":"Cresbard","state":"SD","lat":45.1691,"long":-98.9411},{"zip":"57438","city":"Faulkton","state":"SD","lat":45.0855,"long":-99.1954},{"zip":"57466","city":"Onaka","state":"SD","lat":45.1965,"long":-99.4551},{"zip":"57467","city":"Orient","state":"SD","lat":44.8343,"long":-99.1058},{"zip":"57470","city":"Rockham","state":"SD","lat":44.8767,"long":-98.8669},{"zip":"57473","city":"Seneca","state":"SD","lat":45.0262,"long":-99.461},{"zip":"57216","city":"Big Stone City","state":"SD","lat":45.285,"long":-96.5614},{"zip":"57246","city":"Labolt","state":"SD","lat":45.0415,"long":-96.6892},{"zip":"57251","city":"Marvin","state":"SD","lat":45.2727,"long":-96.91},{"zip":"57252","city":"Milbank","state":"SD","lat":45.2061,"long":-96.6255},{"zip":"57259","city":"Revillo","state":"SD","lat":45.0805,"long":-96.5557},{"zip":"57264","city":"Stockholm","state":"SD","lat":45.1031,"long":-96.8106},{"zip":"57265","city":"Strandburg","state":"SD","lat":45.0389,"long":-96.7901},{"zip":"57269","city":"Twin Brooks","state":"SD","lat":45.2309,"long":-96.8237},{"zip":"57317","city":"Bonesteel","state":"SD","lat":43.0695,"long":-98.988},{"zip":"57335","city":"Fairfax","state":"SD","lat":43.0351,"long":-98.8308},{"zip":"57523","city":"Burke","state":"SD","lat":43.1825,"long":-99.2937},{"zip":"57529","city":"Dallas","state":"SD","lat":43.2351,"long":-99.514},{"zip":"57533","city":"Gregory","state":"SD","lat":43.2136,"long":-99.3622},{"zip":"57538","city":"Herrick","state":"SD","lat":43.1012,"long":-99.2173},{"zip":"57571","city":"Saint Charles","state":"SD","lat":43.0852,"long":-99.0925},{"zip":"57552","city":"Midland","state":"SD","lat":44.0717,"long":-101.1554},{"zip":"57553","city":"Milesville","state":"SD","lat":44.4283,"long":-101.7523},{"zip":"57567","city":"Philip","state":"SD","lat":44.055,"long":-101.6876},{"zip":"57221","city":"Bryant","state":"SD","lat":44.5987,"long":-97.4537},{"zip":"57223","city":"Castlewood","state":"SD","lat":44.7313,"long":-97.0204},{"zip":"57234","city":"Estelline","state":"SD","lat":44.6029,"long":-96.8928},{"zip":"57241","city":"Hayti","state":"SD","lat":44.6647,"long":-97.2305},{"zip":"57242","city":"Hazel","state":"SD","lat":44.7572,"long":-97.3083},{"zip":"57248","city":"Lake Norden","state":"SD","lat":44.5844,"long":-97.2009},{"zip":"57362","city":"Miller","state":"SD","lat":44.4966,"long":-98.9894},{"zip":"57371","city":"Ree Heights","state":"SD","lat":44.5603,"long":-99.2286},{"zip":"57373","city":"Saint Lawrence","state":"SD","lat":44.5215,"long":-98.8754},{"zip":"57311","city":"Alexandria","state":"SD","lat":43.6684,"long":-97.7563},{"zip":"57332","city":"Emery","state":"SD","lat":43.5656,"long":-97.6475},{"zip":"57340","city":"Fulton","state":"SD","lat":43.7588,"long":-97.8712},{"zip":"57650","city":"Ralph","state":"SD","lat":45.8554,"long":-103.0356},{"zip":"57651","city":"Reva","state":"SD","lat":45.5277,"long":-103.0692},{"zip":"57720","city":"Buffalo","state":"SD","lat":45.574,"long":-103.5826},{"zip":"57724","city":"Camp Crook","state":"SD","lat":45.6402,"long":-104.0278},{"zip":"57755","city":"Ludlow","state":"SD","lat":45.8366,"long":-103.3491},{"zip":"57776","city":"Redig","state":"SD","lat":45.2711,"long":-103.5482},{"zip":"57501","city":"Pierre","state":"SD","lat":44.3695,"long":-100.3211},{"zip":"57522","city":"Blunt","state":"SD","lat":44.5026,"long":-99.9463},{"zip":"57536","city":"Harrold","state":"SD","lat":44.5215,"long":-99.7382},{"zip":"57029","city":"Freeman","state":"SD","lat":43.3605,"long":-97.4601},{"zip":"57045","city":"Menno","state":"SD","lat":43.234,"long":-97.565},{"zip":"57052","city":"Olivet","state":"SD","lat":43.2928,"long":-97.7184},{"zip":"57331","city":"Dimock","state":"SD","lat":43.4705,"long":-97.9988},{"zip":"57354","city":"Kaylor","state":"SD","lat":43.3341,"long":-97.7569},{"zip":"57366","city":"Parkston","state":"SD","lat":43.3978,"long":-97.9678},{"zip":"57376","city":"Tripp","state":"SD","lat":43.2404,"long":-97.9713},{"zip":"57345","city":"Highmore","state":"SD","lat":44.5326,"long":-99.4543},{"zip":"57346","city":"Stephan","state":"SD","lat":44.248,"long":-99.4532},{"zip":"57540","city":"Holabird","state":"SD","lat":44.5173,"long":-99.5943},{"zip":"57521","city":"Belvidere","state":"SD","lat":43.886,"long":-101.2387},{"zip":"57543","city":"Kadoka","state":"SD","lat":43.8446,"long":-101.5523},{"zip":"57547","city":"Long Valley","state":"SD","lat":43.4754,"long":-101.4294},{"zip":"57577","city":"Wanblee","state":"SD","lat":43.5589,"long":-101.7219},{"zip":"57750","city":"Interior","state":"SD","lat":43.7319,"long":-101.9642},{"zip":"57312","city":"Alpena","state":"SD","lat":44.1709,"long":-98.3962},{"zip":"57358","city":"Lane","state":"SD","lat":44.0696,"long":-98.4252},{"zip":"57382","city":"Wessington Springs","state":"SD","lat":44.0664,"long":-98.6751},{"zip":"57531","city":"Draper","state":"SD","lat":43.926,"long":-100.5085},{"zip":"57559","city":"Murdo","state":"SD","lat":43.8961,"long":-100.7121},{"zip":"57562","city":"Okaton","state":"SD","lat":43.8861,"long":-100.8918},{"zip":"57051","city":"Oldham","state":"SD","lat":44.2457,"long":-97.2696},{"zip":"57212","city":"Arlington","state":"SD","lat":44.3668,"long":-97.0687},{"zip":"57214","city":"Badger","state":"SD","lat":44.4918,"long":-97.2184},{"zip":"57231","city":"De Smet","state":"SD","lat":44.3852,"long":-97.5634},{"zip":"57233","city":"Erwin","state":"SD","lat":44.4915,"long":-97.4103},{"zip":"57249","city":"Lake Preston","state":"SD","lat":44.3692,"long":-97.3828},{"zip":"57353","city":"Iroquois","state":"SD","lat":44.3455,"long":-97.8542},{"zip":"57016","city":"Chester","state":"SD","lat":43.8981,"long":-96.9759},{"zip":"57042","city":"Madison","state":"SD","lat":44.0054,"long":-97.1149},{"zip":"57050","city":"Nunda","state":"SD","lat":44.1525,"long":-96.9942},{"zip":"57054","city":"Ramona","state":"SD","lat":44.1229,"long":-97.2349},{"zip":"57057","city":"Rutland","state":"SD","lat":44.0683,"long":-96.9519},{"zip":"57075","city":"Wentworth","state":"SD","lat":43.9852,"long":-96.9615},{"zip":"57076","city":"Winfred","state":"SD","lat":43.9972,"long":-97.3623},{"zip":"57732","city":"Deadwood","state":"SD","lat":44.3767,"long":-103.7296},{"zip":"57754","city":"Lead","state":"SD","lat":44.263,"long":-103.8712},{"zip":"57759","city":"Nemo","state":"SD","lat":44.2097,"long":-103.5449},{"zip":"57779","city":"Saint Onge","state":"SD","lat":44.5473,"long":-103.7232},{"zip":"57783","city":"Spearfish","state":"SD","lat":44.4946,"long":-103.865},{"zip":"57793","city":"Whitewood","state":"SD","lat":44.4589,"long":-103.637},{"zip":"57799","city":"Spearfish","state":"SD","lat":44.4958,"long":-103.8703},{"zip":"57013","city":"Canton","state":"SD","lat":43.3038,"long":-96.5938},{"zip":"57027","city":"Fairview","state":"SD","lat":43.197,"long":-96.5135},{"zip":"57032","city":"Harrisburg","state":"SD","lat":43.446,"long":-96.6864},{"zip":"57034","city":"Hudson","state":"SD","lat":43.1284,"long":-96.5306},{"zip":"57039","city":"Lennox","state":"SD","lat":43.3451,"long":-96.8821},{"zip":"57064","city":"Tea","state":"SD","lat":43.4711,"long":-96.8177},{"zip":"57077","city":"Worthing","state":"SD","lat":43.3291,"long":-96.7628},{"zip":"57365","city":"Oacoma","state":"SD","lat":43.7975,"long":-99.3947},{"zip":"57544","city":"Kennebec","state":"SD","lat":43.8921,"long":-99.8502},{"zip":"57548","city":"Lower Brule","state":"SD","lat":44.0937,"long":-99.6139},{"zip":"57568","city":"Presho","state":"SD","lat":43.8995,"long":-100.0746},{"zip":"57569","city":"Reliance","state":"SD","lat":43.8789,"long":-99.6032},{"zip":"57576","city":"Vivian","state":"SD","lat":43.9535,"long":-100.286},{"zip":"57012","city":"Canistota","state":"SD","lat":43.5856,"long":-97.2889},{"zip":"57048","city":"Montrose","state":"SD","lat":43.7063,"long":-97.1885},{"zip":"57058","city":"Salem","state":"SD","lat":43.7356,"long":-97.3797},{"zip":"57319","city":"Bridgewater","state":"SD","lat":43.5503,"long":-97.4691},{"zip":"57374","city":"Spencer","state":"SD","lat":43.7557,"long":-97.5936},{"zip":"57437","city":"Eureka","state":"SD","lat":45.7707,"long":-99.3308},{"zip":"57456","city":"Leola","state":"SD","lat":45.7228,"long":-98.9409},{"zip":"57457","city":"Long Lake","state":"SD","lat":45.8566,"long":-99.2051},{"zip":"57232","city":"Eden","state":"SD","lat":45.6211,"long":-97.3741},{"zip":"57247","city":"Lake City","state":"SD","lat":45.6899,"long":-97.3481},{"zip":"57270","city":"Veblen","state":"SD","lat":45.8535,"long":-97.3122},{"zip":"57421","city":"Amherst","state":"SD","lat":45.7585,"long":-97.9274},{"zip":"57430","city":"Britton","state":"SD","lat":45.8023,"long":-97.7418},{"zip":"57454","city":"Langford","state":"SD","lat":45.6174,"long":-97.7925},{"zip":"57626","city":"Faith","state":"SD","lat":44.9926,"long":-102.0541},{"zip":"57706","city":"Ellsworth Afb","state":"SD","lat":44.1447,"long":-103.0759},{"zip":"57718","city":"Black Hawk","state":"SD","lat":44.1512,"long":-103.3486},{"zip":"57737","city":"Enning","state":"SD","lat":44.5755,"long":-102.5632},{"zip":"57741","city":"Fort Meade","state":"SD","lat":44.4093,"long":-103.4554},{"zip":"57748","city":"Howes","state":"SD","lat":44.5838,"long":-102.0229},{"zip":"57758","city":"Mud Butte","state":"SD","lat":45.031,"long":-102.8031},{"zip":"57769","city":"Piedmont","state":"SD","lat":44.2287,"long":-103.3688},{"zip":"57785","city":"Sturgis","state":"SD","lat":44.3692,"long":-103.3617},{"zip":"57787","city":"Union Center","state":"SD","lat":44.6539,"long":-102.7252},{"zip":"57792","city":"White Owl","state":"SD","lat":44.6182,"long":-102.4452},{"zip":"57560","city":"Norris","state":"SD","lat":43.4662,"long":-101.1517},{"zip":"57579","city":"White River","state":"SD","lat":43.5666,"long":-100.7449},{"zip":"57585","city":"Wood","state":"SD","lat":43.5366,"long":-100.4379},{"zip":"57321","city":"Canova","state":"SD","lat":43.8855,"long":-97.5342},{"zip":"57323","city":"Carthage","state":"SD","lat":44.1496,"long":-97.7116},{"zip":"57337","city":"Fedora","state":"SD","lat":43.9841,"long":-97.789},{"zip":"57349","city":"Howard","state":"SD","lat":44.0371,"long":-97.5603},{"zip":"57003","city":"Baltic","state":"SD","lat":43.7309,"long":-96.7563},{"zip":"57005","city":"Brandon","state":"SD","lat":43.5926,"long":-96.586},{"zip":"57018","city":"Colton","state":"SD","lat":43.7951,"long":-96.9572},{"zip":"57020","city":"Crooks","state":"SD","lat":43.6669,"long":-96.8221},{"zip":"57022","city":"Dell Rapids","state":"SD","lat":43.8228,"long":-96.7223},{"zip":"57030","city":"Garretson","state":"SD","lat":43.7162,"long":-96.5196},{"zip":"57033","city":"Hartford","state":"SD","lat":43.6155,"long":-96.9501},{"zip":"57035","city":"Humboldt","state":"SD","lat":43.612,"long":-97.0697},{"zip":"57041","city":"Lyons","state":"SD","lat":43.7285,"long":-96.8709},{"zip":"57055","city":"Renner","state":"SD","lat":43.6366,"long":-96.7119},{"zip":"57068","city":"Valley Springs","state":"SD","lat":43.5773,"long":-96.4956},{"zip":"57101","city":"Sioux Falls","state":"SD","lat":43.5464,"long":-96.6906},{"zip":"57103","city":"Sioux Falls","state":"SD","lat":43.5374,"long":-96.6864},{"zip":"57104","city":"Sioux Falls","state":"SD","lat":43.5514,"long":-96.7375},{"zip":"57105","city":"Sioux Falls","state":"SD","lat":43.524,"long":-96.7341},{"zip":"57106","city":"Sioux Falls","state":"SD","lat":43.5179,"long":-96.7924},{"zip":"57107","city":"Sioux Falls","state":"SD","lat":43.5566,"long":-96.8028},{"zip":"57108","city":"Sioux Falls","state":"SD","lat":43.4775,"long":-96.7041},{"zip":"57109","city":"Sioux Falls","state":"SD","lat":43.6746,"long":-96.7913},{"zip":"57110","city":"Sioux Falls","state":"SD","lat":43.5486,"long":-96.6332},{"zip":"57117","city":"Sioux Falls","state":"SD","lat":43.6746,"long":-96.7913},{"zip":"57118","city":"Sioux Falls","state":"SD","lat":43.6746,"long":-96.7913},{"zip":"57186","city":"Sioux Falls","state":"SD","lat":43.5424,"long":-96.7312},{"zip":"57193","city":"Sioux Falls","state":"SD","lat":43.6746,"long":-96.7913},{"zip":"57197","city":"Sioux Falls","state":"SD","lat":43.6746,"long":-96.7913},{"zip":"57198","city":"Sioux Falls","state":"SD","lat":43.6746,"long":-96.7913},{"zip":"57017","city":"Colman","state":"SD","lat":43.9558,"long":-96.8189},{"zip":"57024","city":"Egan","state":"SD","lat":43.9866,"long":-96.6493},{"zip":"57028","city":"Flandreau","state":"SD","lat":44.0658,"long":-96.6222},{"zip":"57065","city":"Trent","state":"SD","lat":43.8942,"long":-96.6326},{"zip":"57701","city":"Rapid City","state":"SD","lat":44.1415,"long":-103.2052},{"zip":"57702","city":"Rapid City","state":"SD","lat":44.0036,"long":-103.3589},{"zip":"57703","city":"Rapid City","state":"SD","lat":44.048,"long":-103.1763},{"zip":"57709","city":"Rapid City","state":"SD","lat":44.0761,"long":-103.3171},{"zip":"57719","city":"Box Elder","state":"SD","lat":44.1199,"long":-103.0682},{"zip":"57725","city":"Caputa","state":"SD","lat":43.9481,"long":-102.7935},{"zip":"57745","city":"Hill City","state":"SD","lat":43.9377,"long":-103.5782},{"zip":"57751","city":"Keystone","state":"SD","lat":43.8848,"long":-103.3995},{"zip":"57761","city":"New Underwood","state":"SD","lat":44.0874,"long":-102.8136},{"zip":"57767","city":"Owanka","state":"SD","lat":44.0631,"long":-102.5628},{"zip":"57775","city":"Quinn","state":"SD","lat":44.1035,"long":-102.0159},{"zip":"57780","city":"Scenic","state":"SD","lat":43.7994,"long":-102.5353},{"zip":"57790","city":"Wall","state":"SD","lat":43.9812,"long":-102.2245},{"zip":"57791","city":"Wasta","state":"SD","lat":44.225,"long":-102.4311},{"zip":"57620","city":"Bison","state":"SD","lat":45.5161,"long":-102.4827},{"zip":"57638","city":"Lemmon","state":"SD","lat":45.9159,"long":-102.1928},{"zip":"57640","city":"Lodgepole","state":"SD","lat":45.8232,"long":-102.7599},{"zip":"57644","city":"Meadow","state":"SD","lat":45.3538,"long":-102.2844},{"zip":"57649","city":"Prairie City","state":"SD","lat":45.5813,"long":-102.8085},{"zip":"57442","city":"Gettysburg","state":"SD","lat":45.0259,"long":-99.9766},{"zip":"57450","city":"Hoven","state":"SD","lat":45.2278,"long":-99.7763},{"zip":"57455","city":"Lebanon","state":"SD","lat":45.0123,"long":-99.7366},{"zip":"57475","city":"Tolstoy","state":"SD","lat":45.1702,"long":-99.6176},{"zip":"57224","city":"Claire City","state":"SD","lat":45.8755,"long":-97.1073},{"zip":"57227","city":"Corona","state":"SD","lat":45.3595,"long":-96.6649},{"zip":"57255","city":"New Effington","state":"SD","lat":45.8659,"long":-96.915},{"zip":"57256","city":"Ortley","state":"SD","lat":45.2657,"long":-97.1925},{"zip":"57257","city":"Peever","state":"SD","lat":45.5206,"long":-97.0012},{"zip":"57260","city":"Rosholt","state":"SD","lat":45.8753,"long":-96.7174},{"zip":"57262","city":"Sisseton","state":"SD","lat":45.6732,"long":-97.0715},{"zip":"57266","city":"Summit","state":"SD","lat":45.3521,"long":-97.0427},{"zip":"57279","city":"Wilmot","state":"SD","lat":45.4125,"long":-96.856},{"zip":"57314","city":"Artesian","state":"SD","lat":44.021,"long":-98.0114},{"zip":"57359","city":"Letcher","state":"SD","lat":43.8923,"long":-98.1743},{"zip":"57385","city":"Woonsocket","state":"SD","lat":44.0572,"long":-98.243},{"zip":"57716","city":"Batesland","state":"SD","lat":43.1085,"long":-102.2006},{"zip":"57752","city":"Kyle","state":"SD","lat":43.425,"long":-102.1765},{"zip":"57756","city":"Manderson","state":"SD","lat":43.3526,"long":-102.5411},{"zip":"57764","city":"Oglala","state":"SD","lat":43.1886,"long":-102.7396},{"zip":"57770","city":"Pine Ridge","state":"SD","lat":43.1124,"long":-102.5984},{"zip":"57772","city":"Porcupine","state":"SD","lat":43.2397,"long":-102.331},{"zip":"57794","city":"Wounded Knee","state":"SD","lat":43.3526,"long":-102.5411},{"zip":"57424","city":"Ashton","state":"SD","lat":45.0465,"long":-98.3973},{"zip":"57429","city":"Brentford","state":"SD","lat":45.1635,"long":-98.3193},{"zip":"57434","city":"Conde","state":"SD","lat":45.1393,"long":-98.1534},{"zip":"57436","city":"Doland","state":"SD","lat":44.8159,"long":-98.0947},{"zip":"57440","city":"Frankfort","state":"SD","lat":44.8084,"long":-98.2935},{"zip":"57460","city":"Mansfield","state":"SD","lat":45.243,"long":-98.5629},{"zip":"57461","city":"Mellette","state":"SD","lat":45.1631,"long":-98.4824},{"zip":"57465","city":"Northville","state":"SD","lat":45.1611,"long":-98.6589},{"zip":"57469","city":"Redfield","state":"SD","lat":44.8719,"long":-98.5112},{"zip":"57476","city":"Tulare","state":"SD","lat":44.7305,"long":-98.5539},{"zip":"57477","city":"Turton","state":"SD","lat":45.0379,"long":-98.0996},{"zip":"57532","city":"Fort Pierre","state":"SD","lat":44.3426,"long":-100.4043},{"zip":"57537","city":"Hayes","state":"SD","lat":44.3703,"long":-101.0215},{"zip":"57520","city":"Agar","state":"SD","lat":44.8393,"long":-100.0712},{"zip":"57564","city":"Onida","state":"SD","lat":44.7125,"long":-100.0957},{"zip":"57555","city":"Mission","state":"SD","lat":43.285,"long":-100.5954},{"zip":"57563","city":"Okreek","state":"SD","lat":43.3633,"long":-100.3809},{"zip":"57566","city":"Parmelee","state":"SD","lat":43.3117,"long":-101.0081},{"zip":"57570","city":"Rosebud","state":"SD","lat":43.2328,"long":-100.8535},{"zip":"57572","city":"Saint Francis","state":"SD","lat":43.1444,"long":-100.9051},{"zip":"57528","city":"Colome","state":"SD","lat":43.2273,"long":-99.6933},{"zip":"57534","city":"Hamill","state":"SD","lat":43.6439,"long":-99.6918},{"zip":"57541","city":"Ideal","state":"SD","lat":43.5596,"long":-99.9279},{"zip":"57580","city":"Winner","state":"SD","lat":43.3318,"long":-99.8033},{"zip":"57584","city":"Witten","state":"SD","lat":43.4498,"long":-100.0783},{"zip":"57014","city":"Centerville","state":"SD","lat":43.1176,"long":-96.9636},{"zip":"57015","city":"Chancellor","state":"SD","lat":43.408,"long":-96.9827},{"zip":"57021","city":"Davis","state":"SD","lat":43.2864,"long":-96.9792},{"zip":"57036","city":"Hurley","state":"SD","lat":43.2893,"long":-97.1904},{"zip":"57043","city":"Marion","state":"SD","lat":43.4188,"long":-97.2771},{"zip":"57047","city":"Monroe","state":"SD","lat":43.5207,"long":-97.212},{"zip":"57053","city":"Parker","state":"SD","lat":43.402,"long":-97.1333},{"zip":"57070","city":"Viborg","state":"SD","lat":43.1815,"long":-97.114},{"zip":"57001","city":"Alcester","state":"SD","lat":43.0047,"long":-96.6332},{"zip":"57004","city":"Beresford","state":"SD","lat":43.0874,"long":-96.7813},{"zip":"57025","city":"Elk Point","state":"SD","lat":42.7382,"long":-96.687},{"zip":"57038","city":"Jefferson","state":"SD","lat":42.6013,"long":-96.5784},{"zip":"57049","city":"North Sioux City","state":"SD","lat":42.5249,"long":-96.5074},{"zip":"57420","city":"Akaska","state":"SD","lat":45.3324,"long":-100.1186},{"zip":"57452","city":"Java","state":"SD","lat":45.4492,"long":-99.822},{"zip":"57472","city":"Selby","state":"SD","lat":45.4786,"long":-100.0541},{"zip":"57601","city":"Mobridge","state":"SD","lat":45.5407,"long":-100.4315},{"zip":"57631","city":"Glenham","state":"SD","lat":45.5335,"long":-100.2716},{"zip":"57031","city":"Gayville","state":"SD","lat":42.8835,"long":-97.183},{"zip":"57040","city":"Lesterville","state":"SD","lat":43.0394,"long":-97.5956},{"zip":"57046","city":"Mission Hill","state":"SD","lat":42.9836,"long":-97.3349},{"zip":"57067","city":"Utica","state":"SD","lat":43.0164,"long":-97.3694},{"zip":"57072","city":"Volin","state":"SD","lat":42.9572,"long":-97.1803},{"zip":"57078","city":"Yankton","state":"SD","lat":42.8821,"long":-97.3986},{"zip":"57622","city":"Cherry Creek","state":"SD","lat":44.6055,"long":-101.4999},{"zip":"57623","city":"Dupree","state":"SD","lat":45.0079,"long":-101.6337}]
