[{"zip":"57059","city":"Scotland","state":"SD","lat":43.1212,"long":-97.7296},{"zip":"57062","city":"Springfield","state":"SD","lat":42.8687,"long":-97.9288},{"zip":"57063","city":"Tabor","state":"SD","lat":42.9383,"long":-97.6923},{"zip":"57066","city":"Tyndall","state":"SD","lat":42.99,"long":-97.8633},{"zip":"57002","city":"Aurora","state":"SD","lat":44.2838,"long":-96.7043},{"zip":"57006","city":"Brookings","state":"SD","lat":44.3056,"long":-96.7914},{"zip":"57007","city":"Brookings","state":"SD","lat":44.3697,"long":-96.7907},{"zip":"57026","city":"Elkton","state":"SD","lat":44.235,"long":-96.5011},{"zip":"57061","city":"Sinai","state":"SD","lat":44.2444,"long":-97.0409},{"zip":"57071","city":"Volga","state":"SD","lat":44.3224,"long":-96.9251},{"zip":"57010","city":"Burbank","state":"SD","lat":42.7638,"long":-96.8466},{"zip":"57037","city":"Irene","state":"SD","lat":43.1027,"long":-97.2558},{"zip":"57069","city":"Vermillion","state":"SD","lat":42.7951,"long":-96.9258},{"zip":"57073","city":"Wakonda","state":"SD","lat":42.996,"long":-97.0694},{"zip":"57029","city":"Freeman","state":"SD","lat":43.3605,"long":-97.4601},{"zip":"57045","city":"Menno","state":"SD","lat":43.234,"long":-97.565},{"zip":"57052","city":"Olivet","state":"SD","lat":43.2928,"long":-97.7184},{"zip":"57051","city":"Oldham","state":"SD","lat":44.2457,"long":-97.2696},{"zip":"57016","city":"Chester","state":"SD","lat":43.8981,"long":-96.9759},{"zip":"57042","city":"Madison","state":"SD","lat":44.0054,"long":-97.1149},{"zip":"57050","city":"Nunda","state":"SD","lat":44.1525,"long":-96.9942},{"zip":"57054","city":"Ramona","state":"SD","lat":44.1229,"long":-97.2349},{"zip":"57057","city":"Rutland","state":"SD","lat":44.0683,"long":-96.9519},{"zip":"57075","city":"Wentworth","state":"SD","lat":43.9852,"long":-96.9615},{"zip":"57076","city":"Winfred","state":"SD","lat":43.9972,"long":-97.3623},{"zip":"57013","city":"Canton","state":"SD","lat":43.3038,"long":-96.5938},{"zip":"57027","city":"Fairview","state":"SD","lat":43.197,"long":-96.5135},{"zip":"57032","city":"Harrisburg","state":"SD","lat":43.446,"long":-96.6864},{"zip":"57034","city":"Hudson","state":"SD","lat":43.1284,"long":-96.5306},{"zip":"57039","city":"Lennox","state":"SD","lat":43.3451,"long":-96.8821},{"zip":"57064","city":"Tea","state":"SD","lat":43.4711,"long":-96.8177},{"zip":"57077","city":"Worthing","state":"SD","lat":43.3291,"long":-96.7628},{"zip":"57012","city":"Canistota","state":"SD","lat":43.5856,"long":-97.2889},{"zip":"57048","city":"Montrose","state":"SD","lat":43.7063,"long":-97.1885},{"zip":"57058","city":"Salem","state":"SD","lat":43.7356,"long":-97.3797},{"zip":"57003","city":"Baltic","state":"SD","lat":43.7309,"long":-96.7563},{"zip":"57005","city":"Brandon","state":"SD","lat":43.5926,"long":-96.586},{"zip":"57018","city":"Colton","state":"SD","lat":43.7951,"long":-96.9572},{"zip":"57020","city":"Crooks","state":"SD","lat":43.6669,"long":-96.8221},{"zip":"57022","city":"Dell Rapids","state":"SD","lat":43.8228,"long":-96.7223},{"zip":"57030","city":"Garretson","state":"SD","lat":43.7162,"long":-96.5196},{"zip":"57033","city":"Hartford","state":"SD","lat":43.6155,"long":-96.9501},{"zip":"57035","city":"Humboldt","state":"SD","lat":43.612,"long":-97.0697},{"zip":"57041","city":"Lyons","state":"SD","lat":43.7285,"long":-96.8709},{"zip":"57055","city":"Renner","state":"SD","lat":43.6366,"long":-96.7119},{"zip":"57068","city":"Valley Springs","state":"SD","lat":43.5773,"long":-96.4956},{"zip":"57017","city":"Colman","state":"SD","lat":43.9558,"long":-96.8189},{"zip":"57024","city":"Egan","state":"SD","lat":43.9866,"long":-96.6493},{"zip":"57028","city":"Flandreau","state":"SD","lat":44.0658,"long":-96.6222},{"zip":"57065","city":"Trent","state":"SD","lat":43.8942,"long":-96.6326},{"zip":"57014","city":"Centerville","state":"SD","lat":43.1176,"long":-96.9636},{"zip":"57015","city":"Chancellor","state":"SD","lat":43.408,"long":-96.9827},{"zip":"57021","city":"Davis","state":"SD","lat":43.2864,"long":-96.9792},{"zip":"57036","city":"Hurley","state":"SD","lat":43.2893,"long":-97.1904},{"zip":"57043","city":"Marion","state":"SD","lat":43.4188,"long":-97.2771},{"zip":"57047","city":"Monroe","state":"SD","lat":43.5207,"long":-97.212},{"zip":"57053","city":"Parker","state":"SD","lat":43.402,"long":-97.1333},{"zip":"57070","city":"Viborg","state":"SD","lat":43.1815,"long":-97.114},{"zip":"57001","city":"Alcester","state":"SD","lat":43.0047,"long":-96.6332},{"zip":"57004","city":"Beresford","state":"SD","lat":43.0874,"long":-96.7813},{"zip":"57025","city":"Elk Point","state":"SD","lat":42.7382,"long":-96.687},{"zip":"57038","city":"Jefferson","state":"SD","lat":42.6013,"long":-96.5784},{"zip":"57049","city":"North Sioux City","state":"SD","lat":42.5249,"long":-96.5074},{"zip":"57031","city":"Gayville","state":"SD","lat":42.8835,"long":-97.183},{"zip":"57040","city":"Lesterville","state":"SD","lat":43.0394,"long":-97.5956},{"zip":"57046","city":"Mission Hill","state":"SD","lat":42.9836,"long":-97.3349},{"zip":"57067","city":"Utica","state":"SD","lat":43.0164,"long":-97.3694},{"zip":"57072","city":"Volin","state":"SD","lat":42.9572,"long":-97.1803},{"zip":"57078","city":"Yankton","state":"SD","lat":42.8821,"long":-97.3986}]
