[{"zip":"57220","city":"Bruce","state":"SD","lat":44.4675,"long":-96.911},{"zip":"57276","city":"White","state":"SD","lat":44.4132,"long":-96.615},{"zip":"57217","city":"Bradley","state":"SD","lat":45.0751,"long":-97.6387},{"zip":"57225","city":"Clark","state":"SD","lat":44.878,"long":-97.7265},{"zip":"57236","city":"Garden City","state":"SD","lat":44.9841,"long":-97.5814},{"zip":"57258","city":"Raymond","state":"SD","lat":44.8637,"long":-97.9168},{"zip":"57271","city":"Vienna","state":"SD","lat":44.7362,"long":-97.5307},{"zip":"57278","city":"Willow Lake","state":"SD","lat":44.6272,"long":-97.6747},{"zip":"57201","city":"Watertown","state":"SD","lat":44.9043,"long":-97.124},{"zip":"57235","city":"Florence","state":"SD","lat":45.0554,"long":-97.2866},{"zip":"57243","city":"Henry","state":"SD","lat":44.8858,"long":-97.4442},{"zip":"57245","city":"Kranzburg","state":"SD","lat":44.8923,"long":-96.9174},{"zip":"57263","city":"South Shore","state":"SD","lat":45.1049,"long":-96.9859},{"zip":"57272","city":"Wallace","state":"SD","lat":45.0815,"long":-97.4458},{"zip":"57219","city":"Bristol","state":"SD","lat":45.288,"long":-97.8086},{"zip":"57239","city":"Grenville","state":"SD","lat":45.5097,"long":-97.3092},{"zip":"57261","city":"Roslyn","state":"SD","lat":45.5006,"long":-97.5401},{"zip":"57273","city":"Waubay","state":"SD","lat":45.3784,"long":-97.295},{"zip":"57274","city":"Webster","state":"SD","lat":45.3151,"long":-97.5254},{"zip":"57213","city":"Astoria","state":"SD","lat":44.5735,"long":-96.5416},{"zip":"57218","city":"Brandt","state":"SD","lat":44.6738,"long":-96.6435},{"zip":"57226","city":"Clear Lake","state":"SD","lat":44.7612,"long":-96.6907},{"zip":"57237","city":"Gary","state":"SD","lat":44.827,"long":-96.5044},{"zip":"57238","city":"Goodwin","state":"SD","lat":44.8754,"long":-96.8608},{"zip":"57268","city":"Toronto","state":"SD","lat":44.5786,"long":-96.7077},{"zip":"57216","city":"Big Stone City","state":"SD","lat":45.285,"long":-96.5614},{"zip":"57246","city":"Labolt","state":"SD","lat":45.0415,"long":-96.6892},{"zip":"57251","city":"Marvin","state":"SD","lat":45.2727,"long":-96.91},{"zip":"57252","city":"Milbank","state":"SD","lat":45.2061,"long":-96.6255},{"zip":"57259","city":"Revillo","state":"SD","lat":45.0805,"long":-96.5557},{"zip":"57264","city":"Stockholm","state":"SD","lat":45.1031,"long":-96.8106},{"zip":"57265","city":"Strandburg","state":"SD","lat":45.0389,"long":-96.7901},{"zip":"57269","city":"Twin Brooks","state":"SD","lat":45.2309,"long":-96.8237},{"zip":"57221","city":"Bryant","state":"SD","lat":44.5987,"long":-97.4537},{"zip":"57223","city":"Castlewood","state":"SD","lat":44.7313,"long":-97.0204},{"zip":"57234","city":"Estelline","state":"SD","lat":44.6029,"long":-96.8928},{"zip":"57241","city":"Hayti","state":"SD","lat":44.6647,"long":-97.2305},{"zip":"57242","city":"Hazel","state":"SD","lat":44.7572,"long":-97.3083},{"zip":"57248","city":"Lake Norden","state":"SD","lat":44.5844,"long":-97.2009},{"zip":"57212","city":"Arlington","state":"SD","lat":44.3668,"long":-97.0687},{"zip":"57214","city":"Badger","state":"SD","lat":44.4918,"long":-97.2184},{"zip":"57231","city":"De Smet","state":"SD","lat":44.3852,"long":-97.5634},{"zip":"57233","city":"Erwin","state":"SD","lat":44.4915,"long":-97.4103},{"zip":"57249","city":"Lake Preston","state":"SD","lat":44.3692,"long":-97.3828},{"zip":"57232","city":"Eden","state":"SD","lat":45.6211,"long":-97.3741},{"zip":"57247","city":"Lake City","state":"SD","lat":45.6899,"long":-97.3481},{"zip":"57270","city":"Veblen","state":"SD","lat":45.8535,"long":-97.3122},{"zip":"57224","city":"Claire City","state":"SD","lat":45.8755,"long":-97.1073},{"zip":"57227","city":"Corona","state":"SD","lat":45.3595,"long":-96.6649},{"zip":"57255","city":"New Effington","state":"SD","lat":45.8659,"long":-96.915},{"zip":"57256","city":"Ortley","state":"SD","lat":45.2657,"long":-97.1925},{"zip":"57257","city":"Peever","state":"SD","lat":45.5206,"long":-97.0012},{"zip":"57260","city":"Rosholt","state":"SD","lat":45.8753,"long":-96.7174},{"zip":"57262","city":"Sisseton","state":"SD","lat":45.6732,"long":-97.0715},{"zip":"57266","city":"Summit","state":"SD","lat":45.3521,"long":-97.0427},{"zip":"57279","city":"Wilmot","state":"SD","lat":45.4125,"long":-96.856}]
