[{"zip":"57368","city":"Plankinton","state":"SD","lat":43.7373,"long":-98.4694},{"zip":"57375","city":"Stickney","state":"SD","lat":43.5842,"long":-98.5088},{"zip":"57383","city":"White Lake","state":"SD","lat":43.7564,"long":-98.7076},{"zip":"57324","city":"Cavour","state":"SD","lat":44.365,"long":-98.0208},{"zip":"57348","city":"Hitchcock","state":"SD","lat":44.5834,"long":-98.4509},{"zip":"57350","city":"Huron","state":"SD","lat":44.359,"long":-98.2163},{"zip":"57379","city":"Virgil","state":"SD","lat":44.2908,"long":-98.4243},{"zip":"57381","city":"Wessington","state":"SD","lat":44.4128,"long":-98.692},{"zip":"57384","city":"Wolsey","state":"SD","lat":44.3991,"long":-98.4743},{"zip":"57386","city":"Yale","state":"SD","lat":44.5225,"long":-98.0401},{"zip":"57399","city":"Huron","state":"SD","lat":44.3633,"long":-98.2143},{"zip":"57315","city":"Avon","state":"SD","lat":43.0397,"long":-98.0283},{"zip":"57325","city":"Chamberlain","state":"SD","lat":43.7953,"long":-99.3118},{"zip":"57326","city":"Chamberlain","state":"SD","lat":43.8108,"long":-99.3307},{"zip":"57355","city":"Kimball","state":"SD","lat":43.7467,"long":-98.9584},{"zip":"57370","city":"Pukwana","state":"SD","lat":43.7783,"long":-99.1779},{"zip":"57339","city":"Fort Thompson","state":"SD","lat":44.0517,"long":-99.3973},{"zip":"57341","city":"Gann Valley","state":"SD","lat":44.0693,"long":-99.0543},{"zip":"57329","city":"Dante","state":"SD","lat":42.9967,"long":-98.1746},{"zip":"57342","city":"Geddes","state":"SD","lat":43.2597,"long":-98.6926},{"zip":"57356","city":"Lake Andes","state":"SD","lat":43.1303,"long":-98.4964},{"zip":"57361","city":"Marty","state":"SD","lat":43.0196,"long":-98.4469},{"zip":"57367","city":"Pickstown","state":"SD","lat":43.0673,"long":-98.523},{"zip":"57369","city":"Platte","state":"SD","lat":43.4251,"long":-98.9479},{"zip":"57380","city":"Wagner","state":"SD","lat":43.0819,"long":-98.2819},{"zip":"57322","city":"Carpenter","state":"SD","lat":44.6648,"long":-97.9168},{"zip":"57301","city":"Mitchell","state":"SD","lat":43.7094,"long":-98.0298},{"zip":"57334","city":"Ethan","state":"SD","lat":43.5478,"long":-97.9881},{"zip":"57363","city":"Mount Vernon","state":"SD","lat":43.7204,"long":-98.2633},{"zip":"57313","city":"Armour","state":"SD","lat":43.316,"long":-98.3414},{"zip":"57328","city":"Corsica","state":"SD","lat":43.4213,"long":-98.3564},{"zip":"57330","city":"Delmont","state":"SD","lat":43.2573,"long":-98.1596},{"zip":"57344","city":"Harrison","state":"SD","lat":43.4297,"long":-98.5273},{"zip":"57364","city":"New Holland","state":"SD","lat":43.4291,"long":-98.6069},{"zip":"57317","city":"Bonesteel","state":"SD","lat":43.0695,"long":-98.988},{"zip":"57335","city":"Fairfax","state":"SD","lat":43.0351,"long":-98.8308},{"zip":"57362","city":"Miller","state":"SD","lat":44.4966,"long":-98.9894},{"zip":"57371","city":"Ree Heights","state":"SD","lat":44.5603,"long":-99.2286},{"zip":"57373","city":"Saint Lawrence","state":"SD","lat":44.5215,"long":-98.8754},{"zip":"57311","city":"Alexandria","state":"SD","lat":43.6684,"long":-97.7563},{"zip":"57332","city":"Emery","state":"SD","lat":43.5656,"long":-97.6475},{"zip":"57340","city":"Fulton","state":"SD","lat":43.7588,"long":-97.8712},{"zip":"57331","city":"Dimock","state":"SD","lat":43.4705,"long":-97.9988},{"zip":"57354","city":"Kaylor","state":"SD","lat":43.3341,"long":-97.7569},{"zip":"57366","city":"Parkston","state":"SD","lat":43.3978,"long":-97.9678},{"zip":"57376","city":"Tripp","state":"SD","lat":43.2404,"long":-97.9713},{"zip":"57345","city":"Highmore","state":"SD","lat":44.5326,"long":-99.4543},{"zip":"57346","city":"Stephan","state":"SD","lat":44.248,"long":-99.4532},{"zip":"57312","city":"Alpena","state":"SD","lat":44.1709,"long":-98.3962},{"zip":"57358","city":"Lane","state":"SD","lat":44.0696,"long":-98.4252},{"zip":"57382","city":"Wessington Springs","state":"SD","lat":44.0664,"long":-98.6751},{"zip":"57353","city":"Iroquois","state":"SD","lat":44.3455,"long":-97.8542},{"zip":"57365","city":"Oacoma","state":"SD","lat":43.7975,"long":-99.3947},{"zip":"57319","city":"Bridgewater","state":"SD","lat":43.5503,"long":-97.4691},{"zip":"57374","city":"Spencer","state":"SD","lat":43.7557,"long":-97.5936},{"zip":"57321","city":"Canova","state":"SD","lat":43.8855,"long":-97.5342},{"zip":"57323","city":"Carthage","state":"SD","lat":44.1496,"long":-97.7116},{"zip":"57337","city":"Fedora","state":"SD","lat":43.9841,"long":-97.789},{"zip":"57349","city":"Howard","state":"SD","lat":44.0371,"long":-97.5603},{"zip":"57314","city":"Artesian","state":"SD","lat":44.021,"long":-98.0114},{"zip":"57359","city":"Letcher","state":"SD","lat":43.8923,"long":-98.1743},{"zip":"57385","city":"Woonsocket","state":"SD","lat":44.0572,"long":-98.243}]
