[{"zip":"57551","city":"Martin","state":"SD","lat":43.1722,"long":-101.7341},{"zip":"57574","city":"Tuthill","state":"SD","lat":43.1196,"long":-101.4701},{"zip":"57523","city":"Burke","state":"SD","lat":43.1825,"long":-99.2937},{"zip":"57529","city":"Dallas","state":"SD","lat":43.2351,"long":-99.514},{"zip":"57533","city":"Gregory","state":"SD","lat":43.2136,"long":-99.3622},{"zip":"57538","city":"Herrick","state":"SD","lat":43.1012,"long":-99.2173},{"zip":"57571","city":"Saint Charles","state":"SD","lat":43.0852,"long":-99.0925},{"zip":"57552","city":"Midland","state":"SD","lat":44.0717,"long":-101.1554},{"zip":"57553","city":"Milesville","state":"SD","lat":44.4283,"long":-101.7523},{"zip":"57567","city":"Philip","state":"SD","lat":44.055,"long":-101.6876},{"zip":"57501","city":"Pierre","state":"SD","lat":44.3695,"long":-100.3211},{"zip":"57522","city":"Blunt","state":"SD","lat":44.5026,"long":-99.9463},{"zip":"57536","city":"Harrold","state":"SD","lat":44.5215,"long":-99.7382},{"zip":"57540","city":"Holabird","state":"SD","lat":44.5173,"long":-99.5943},{"zip":"57521","city":"Belvidere","state":"SD","lat":43.886,"long":-101.2387},{"zip":"57543","city":"Kadoka","state":"SD","lat":43.8446,"long":-101.5523},{"zip":"57547","city":"Long Valley","state":"SD","lat":43.4754,"long":-101.4294},{"zip":"57577","city":"Wanblee","state":"SD","lat":43.5589,"long":-101.7219},{"zip":"57531","city":"Draper","state":"SD","lat":43.926,"long":-100.5085},{"zip":"57559","city":"Murdo","state":"SD","lat":43.8961,"long":-100.7121},{"zip":"57562","city":"Okaton","state":"SD","lat":43.8861,"long":-100.8918},{"zip":"57544","city":"Kennebec","state":"SD","lat":43.8921,"long":-99.8502},{"zip":"57548","city":"Lower Brule","state":"SD","lat":44.0937,"long":-99.6139},{"zip":"57568","city":"Presho","state":"SD","lat":43.8995,"long":-100.0746},{"zip":"57569","city":"Reliance","state":"SD","lat":43.8789,"long":-99.6032},{"zip":"57576","city":"Vivian","state":"SD","lat":43.9535,"long":-100.286},{"zip":"57560","city":"Norris","state":"SD","lat":43.4662,"long":-101.1517},{"zip":"57579","city":"White River","state":"SD","lat":43.5666,"long":-100.7449},{"zip":"57585","city":"Wood","state":"SD","lat":43.5366,"long":-100.4379},{"zip":"57532","city":"Fort Pierre","state":"SD","lat":44.3426,"long":-100.4043},{"zip":"57537","city":"Hayes","state":"SD","lat":44.3703,"long":-101.0215},{"zip":"57520","city":"Agar","state":"SD","lat":44.8393,"long":-100.0712},{"zip":"57564","city":"Onida","state":"SD","lat":44.7125,"long":-100.0957},{"zip":"57555","city":"Mission","state":"SD","lat":43.285,"long":-100.5954},{"zip":"57563","city":"Okreek","state":"SD","lat":43.3633,"long":-100.3809},{"zip":"57566","city":"Parmelee","state":"SD","lat":43.3117,"long":-101.0081},{"zip":"57570","city":"Rosebud","state":"SD","lat":43.2328,"long":-100.8535},{"zip":"57572","city":"Saint Francis","state":"SD","lat":43.1444,"long":-100.9051},{"zip":"57528","city":"Colome","state":"SD","lat":43.2273,"long":-99.6933},{"zip":"57534","city":"Hamill","state":"SD","lat":43.6439,"long":-99.6918},{"zip":"57541","city":"Ideal","state":"SD","lat":43.5596,"long":-99.9279},{"zip":"57580","city":"Winner","state":"SD","lat":43.3318,"long":-99.8033},{"zip":"57584","city":"Witten","state":"SD","lat":43.4498,"long":-100.0783}]
