[{"zip":"57632","city":"Herreid","state":"SD","lat":45.8452,"long":-100.049},{"zip":"57646","city":"Mound City","state":"SD","lat":45.6786,"long":-100.0479},{"zip":"57648","city":"Pollock","state":"SD","lat":45.889,"long":-100.2875},{"zip":"57621","city":"Bullhead","state":"SD","lat":45.7656,"long":-101.0807},{"zip":"57634","city":"Keldron","state":"SD","lat":45.7528,"long":-101.8843},{"zip":"57639","city":"Little Eagle","state":"SD","lat":45.6758,"long":-100.8043},{"zip":"57641","city":"Mc Intosh","state":"SD","lat":45.7084,"long":-101.1546},{"zip":"57642","city":"Mc Laughlin","state":"SD","lat":45.8763,"long":-100.8915},{"zip":"57645","city":"Morristown","state":"SD","lat":45.9386,"long":-101.7232},{"zip":"57657","city":"Trail City","state":"SD","lat":45.4725,"long":-100.7254},{"zip":"57658","city":"Wakpala","state":"SD","lat":45.7006,"long":-100.5332},{"zip":"57659","city":"Walker","state":"SD","lat":45.9103,"long":-101.0904},{"zip":"57660","city":"Watauga","state":"SD","lat":45.9276,"long":-101.5129},{"zip":"57625","city":"Eagle Butte","state":"SD","lat":45.0016,"long":-101.2329},{"zip":"57630","city":"Glencross","state":"SD","lat":45.4483,"long":-100.9213},{"zip":"57633","city":"Isabel","state":"SD","lat":45.3962,"long":-101.4385},{"zip":"57636","city":"Lantry","state":"SD","lat":45.0144,"long":-101.4315},{"zip":"57652","city":"Ridgeview","state":"SD","lat":45.2024,"long":-100.605},{"zip":"57656","city":"Timber Lake","state":"SD","lat":45.3927,"long":-101.0351},{"zip":"57661","city":"Whitehorse","state":"SD","lat":45.2705,"long":-100.8865},{"zip":"57650","city":"Ralph","state":"SD","lat":45.8554,"long":-103.0356},{"zip":"57651","city":"Reva","state":"SD","lat":45.5277,"long":-103.0692},{"zip":"57626","city":"Faith","state":"SD","lat":44.9926,"long":-102.0541},{"zip":"57620","city":"Bison","state":"SD","lat":45.5161,"long":-102.4827},{"zip":"57638","city":"Lemmon","state":"SD","lat":45.9159,"long":-102.1928},{"zip":"57640","city":"Lodgepole","state":"SD","lat":45.8232,"long":-102.7599},{"zip":"57644","city":"Meadow","state":"SD","lat":45.3538,"long":-102.2844},{"zip":"57649","city":"Prairie City","state":"SD","lat":45.5813,"long":-102.8085},{"zip":"57601","city":"Mobridge","state":"SD","lat":45.5407,"long":-100.4315},{"zip":"57631","city":"Glenham","state":"SD","lat":45.5335,"long":-100.2716},{"zip":"57622","city":"Cherry Creek","state":"SD","lat":44.6055,"long":-101.4999},{"zip":"57623","city":"Dupree","state":"SD","lat":45.0079,"long":-101.6337}]
