[{"zip":"57714","city":"Allen","state":"SD","lat":43.2908,"long":-101.9329},{"zip":"57717","city":"Belle Fourche","state":"SD","lat":44.6723,"long":-103.8396},{"zip":"57760","city":"Newell","state":"SD","lat":44.741,"long":-103.3914},{"zip":"57762","city":"Nisland","state":"SD","lat":44.6665,"long":-103.5402},{"zip":"57788","city":"Vale","state":"SD","lat":44.6222,"long":-103.3795},{"zip":"57722","city":"Buffalo Gap","state":"SD","lat":43.4958,"long":-103.3157},{"zip":"57730","city":"Custer","state":"SD","lat":43.6573,"long":-103.4258},{"zip":"57738","city":"Fairburn","state":"SD","lat":43.6623,"long":-103.2133},{"zip":"57744","city":"Hermosa","state":"SD","lat":43.8188,"long":-103.206},{"zip":"57773","city":"Pringle","state":"SD","lat":43.6086,"long":-103.5938},{"zip":"57735","city":"Edgemont","state":"SD","lat":43.2874,"long":-103.811},{"zip":"57747","city":"Hot Springs","state":"SD","lat":43.4223,"long":-103.4766},{"zip":"57763","city":"Oelrichs","state":"SD","lat":43.1551,"long":-103.2162},{"zip":"57766","city":"Oral","state":"SD","lat":43.3876,"long":-103.1832},{"zip":"57782","city":"Smithwick","state":"SD","lat":43.3014,"long":-103.2183},{"zip":"57720","city":"Buffalo","state":"SD","lat":45.574,"long":-103.5826},{"zip":"57724","city":"Camp Crook","state":"SD","lat":45.6402,"long":-104.0278},{"zip":"57755","city":"Ludlow","state":"SD","lat":45.8366,"long":-103.3491},{"zip":"57776","city":"Redig","state":"SD","lat":45.2711,"long":-103.5482},{"zip":"57750","city":"Interior","state":"SD","lat":43.7319,"long":-101.9642},{"zip":"57732","city":"Deadwood","state":"SD","lat":44.3767,"long":-103.7296},{"zip":"57754","city":"Lead","state":"SD","lat":44.263,"long":-103.8712},{"zip":"57759","city":"Nemo","state":"SD","lat":44.2097,"long":-103.5449},{"zip":"57779","city":"Saint Onge","state":"SD","lat":44.5473,"long":-103.7232},{"zip":"57783","city":"Spearfish","state":"SD","lat":44.4946,"long":-103.865},{"zip":"57793","city":"Whitewood","state":"SD","lat":44.4589,"long":-103.637},{"zip":"57799","city":"Spearfish","state":"SD","lat":44.4958,"long":-103.8703},{"zip":"57706","city":"Ellsworth Afb","state":"SD","lat":44.1447,"long":-103.0759},{"zip":"57718","city":"Black Hawk","state":"SD","lat":44.1512,"long":-103.3486},{"zip":"57737","city":"Enning","state":"SD","lat":44.5755,"long":-102.5632},{"zip":"57741","city":"Fort Meade","state":"SD","lat":44.4093,"long":-103.4554},{"zip":"57748","city":"Howes","state":"SD","lat":44.5838,"long":-102.0229},{"zip":"57758","city":"Mud Butte","state":"SD","lat":45.031,"long":-102.8031},{"zip":"57769","city":"Piedmont","state":"SD","lat":44.2287,"long":-103.3688},{"zip":"57785","city":"Sturgis","state":"SD","lat":44.3692,"long":-103.3617},{"zip":"57787","city":"Union Center","state":"SD","lat":44.6539,"long":-102.7252},{"zip":"57792","city":"White Owl","state":"SD","lat":44.6182,"long":-102.4452},{"zip":"57701","city":"Rapid City","state":"SD","lat":44.1415,"long":-103.2052},{"zip":"57702","city":"Rapid City","state":"SD","lat":44.0036,"long":-103.3589},{"zip":"57703","city":"Rapid City","state":"SD","lat":44.048,"long":-103.1763},{"zip":"57709","city":"Rapid City","state":"SD","lat":44.0761,"long":-103.3171},{"zip":"57719","city":"Box Elder","state":"SD","lat":44.1199,"long":-103.0682},{"zip":"57725","city":"Caputa","state":"SD","lat":43.9481,"long":-102.7935},{"zip":"57745","city":"Hill City","state":"SD","lat":43.9377,"long":-103.5782},{"zip":"57751","city":"Keystone","state":"SD","lat":43.8848,"long":-103.3995},{"zip":"57761","city":"New Underwood","state":"SD","lat":44.0874,"long":-102.8136},{"zip":"57767","city":"Owanka","state":"SD","lat":44.0631,"long":-102.5628},{"zip":"57775","city":"Quinn","state":"SD","lat":44.1035,"long":-102.0159},{"zip":"57780","city":"Scenic","state":"SD","lat":43.7994,"long":-102.5353},{"zip":"57790","city":"Wall","state":"SD","lat":43.9812,"long":-102.2245},{"zip":"57791","city":"Wasta","state":"SD","lat":44.225,"long":-102.4311},{"zip":"57716","city":"Batesland","state":"SD","lat":43.1085,"long":-102.2006},{"zip":"57752","city":"Kyle","state":"SD","lat":43.425,"long":-102.1765},{"zip":"57756","city":"Manderson","state":"SD","lat":43.3526,"long":-102.5411},{"zip":"57764","city":"Oglala","state":"SD","lat":43.1886,"long":-102.7396},{"zip":"57770","city":"Pine Ridge","state":"SD","lat":43.1124,"long":-102.5984},{"zip":"57772","city":"Porcupine","state":"SD","lat":43.2397,"long":-102.331},{"zip":"57794","city":"Wounded Knee","state":"SD","lat":43.3526,"long":-102.5411}]
