[{"zip":"58639","city":"Hettinger","state":"ND","lat":46.0578,"long":-102.7851},{"zip":"58649","city":"Reeder","state":"ND","lat":46.1116,"long":-102.9405},{"zip":"58031","city":"Fingal","state":"ND","lat":46.7728,"long":-97.7812},{"zip":"58049","city":"Kathryn","state":"ND","lat":46.7177,"long":-97.9763},{"zip":"58062","city":"Nome","state":"ND","lat":46.6748,"long":-97.7911},{"zip":"58063","city":"Oriska","state":"ND","lat":46.9433,"long":-97.7853},{"zip":"58065","city":"Pillsbury","state":"ND","lat":47.1862,"long":-97.7605},{"zip":"58072","city":"Valley City","state":"ND","lat":46.9268,"long":-98.0033},{"zip":"58429","city":"Dazey","state":"ND","lat":47.1828,"long":-98.1616},{"zip":"58461","city":"Litchville","state":"ND","lat":46.6536,"long":-98.1943},{"zip":"58479","city":"Rogers","state":"ND","lat":47.0741,"long":-98.2136},{"zip":"58480","city":"Sanborn","state":"ND","lat":46.9271,"long":-98.2336},{"zip":"58492","city":"Wimbledon","state":"ND","lat":47.1438,"long":-98.4329},{"zip":"58332","city":"Esmond","state":"ND","lat":48.0419,"long":-99.7617},{"zip":"58335","city":"Fort Totten","state":"ND","lat":47.9811,"long":-99.0264},{"zip":"58343","city":"Knox","state":"ND","lat":48.3388,"long":-99.6713},{"zip":"58346","city":"Leeds","state":"ND","lat":48.2889,"long":-99.4376},{"zip":"58348","city":"Maddock","state":"ND","lat":47.9625,"long":-99.5301},{"zip":"58351","city":"Minnewaukan","state":"ND","lat":48.0698,"long":-99.2743},{"zip":"58357","city":"Oberon","state":"ND","lat":47.9487,"long":-99.1401},{"zip":"58370","city":"Saint Michael","state":"ND","lat":47.985,"long":-98.8721},{"zip":"58379","city":"Tokio","state":"ND","lat":47.9247,"long":-98.8162},{"zip":"58381","city":"Warwick","state":"ND","lat":47.8913,"long":-98.681},{"zip":"58386","city":"York","state":"ND","lat":48.2565,"long":-99.6025},{"zip":"58627","city":"Fairfield","state":"ND","lat":47.2329,"long":-103.3056},{"zip":"58645","city":"Medora","state":"ND","lat":46.9387,"long":-103.5632},{"zip":"58318","city":"Bottineau","state":"ND","lat":48.8451,"long":-100.4329},{"zip":"58384","city":"Willow City","state":"ND","lat":48.6062,"long":-100.2968},{"zip":"58711","city":"Antler","state":"ND","lat":48.9585,"long":-101.3338},{"zip":"58748","city":"Kramer","state":"ND","lat":48.6867,"long":-100.6716},{"zip":"58750","city":"Lansford","state":"ND","lat":48.6254,"long":-101.3858},{"zip":"58760","city":"Maxbass","state":"ND","lat":48.7722,"long":-101.2563},{"zip":"58762","city":"Newburg","state":"ND","lat":48.6982,"long":-100.9681},{"zip":"58783","city":"Souris","state":"ND","lat":48.8738,"long":-100.7359},{"zip":"58793","city":"Westhope","state":"ND","lat":48.9051,"long":-101.0338},{"zip":"58623","city":"Bowman","state":"ND","lat":46.1733,"long":-103.402},{"zip":"58651","city":"Rhame","state":"ND","lat":46.1664,"long":-103.7079},{"zip":"58653","city":"Scranton","state":"ND","lat":46.0916,"long":-103.1354},{"zip":"58721","city":"Bowbells","state":"ND","lat":48.8378,"long":-102.2839},{"zip":"58727","city":"Columbus","state":"ND","lat":48.8434,"long":-102.798},{"zip":"58737","city":"Flaxton","state":"ND","lat":48.8772,"long":-102.3823},{"zip":"58752","city":"Lignite","state":"ND","lat":48.8481,"long":-102.5542},{"zip":"58772","city":"Portal","state":"ND","lat":48.9758,"long":-102.548},{"zip":"58773","city":"Powers Lake","state":"ND","lat":48.6551,"long":-102.6795},{"zip":"58477","city":"Regan","state":"ND","lat":47.1527,"long":-100.5224},{"zip":"58494","city":"Wing","state":"ND","lat":47.1519,"long":-100.3072},{"zip":"58501","city":"Bismarck","state":"ND","lat":46.8083,"long":-100.7837},{"zip":"58502","city":"Bismarck","state":"ND","lat":46.8887,"long":-100.6819},{"zip":"58503","city":"Bismarck","state":"ND","lat":46.8394,"long":-100.7843},{"zip":"58504","city":"Bismarck","state":"ND","lat":46.7231,"long":-100.678},{"zip":"58505","city":"Bismarck","state":"ND","lat":46.8165,"long":-100.7805},{"zip":"58506","city":"Bismarck","state":"ND","lat":46.8083,"long":-100.7837},{"zip":"58507","city":"Bismarck","state":"ND","lat":46.8083,"long":-100.7837},{"zip":"58521","city":"Baldwin","state":"ND","lat":46.9543,"long":-100.7615},{"zip":"58532","city":"Driscoll","state":"ND","lat":46.8511,"long":-100.1441},{"zip":"58558","city":"Menoken","state":"ND","lat":46.8205,"long":-100.5312},{"zip":"58560","city":"Moffit","state":"ND","lat":46.6757,"long":-100.2975},{"zip":"58572","city":"Sterling","state":"ND","lat":46.8436,"long":-100.2744},{"zip":"58002","city":"Absaraka","state":"ND","lat":46.9763,"long":-97.4069},{"zip":"58004","city":"Amenia","state":"ND","lat":47.0194,"long":-97.2048},{"zip":"58005","city":"Argusville","state":"ND","lat":47.1066,"long":-96.9058},{"zip":"58006","city":"Arthur","state":"ND","lat":47.1048,"long":-97.2097},{"zip":"58007","city":"Ayr","state":"ND","lat":47.0139,"long":-97.4629},{"zip":"58011","city":"Buffalo","state":"ND","lat":46.9264,"long":-97.5352},{"zip":"58012","city":"Casselton","state":"ND","lat":46.8992,"long":-97.2138},{"zip":"58021","city":"Davenport","state":"ND","lat":46.6968,"long":-97.0871},{"zip":"58029","city":"Erie","state":"ND","lat":47.1128,"long":-97.3849},{"zip":"58036","city":"Gardner","state":"ND","lat":47.1252,"long":-96.9901},{"zip":"58038","city":"Grandin","state":"ND","lat":47.2158,"long":-97.0207},{"zip":"58042","city":"Harwood","state":"ND","lat":46.9565,"long":-96.9654},{"zip":"58047","city":"Horace","state":"ND","lat":46.7101,"long":-96.8851},{"zip":"58048","city":"Hunter","state":"ND","lat":47.1905,"long":-97.217},{"zip":"58051","city":"Kindred","state":"ND","lat":46.6543,"long":-97.0049},{"zip":"58052","city":"Leonard","state":"ND","lat":46.6593,"long":-97.2725},{"zip":"58059","city":"Mapleton","state":"ND","lat":46.8614,"long":-97.1157},{"zip":"58064","city":"Page","state":"ND","lat":47.1515,"long":-97.5967},{"zip":"58071","city":"Tower City","state":"ND","lat":46.9119,"long":-97.6594},{"zip":"58078","city":"West Fargo","state":"ND","lat":46.8907,"long":-96.9258},{"zip":"58079","city":"Wheatland","state":"ND","lat":46.8326,"long":-97.3461},{"zip":"58102","city":"Fargo","state":"ND","lat":46.9209,"long":-96.8318},{"zip":"58103","city":"Fargo","state":"ND","lat":46.8564,"long":-96.8123},{"zip":"58104","city":"Fargo","state":"ND","lat":46.7932,"long":-96.8397},{"zip":"58105","city":"Fargo","state":"ND","lat":46.8954,"long":-96.8078},{"zip":"58106","city":"Fargo","state":"ND","lat":46.8772,"long":-96.7898},{"zip":"58107","city":"Fargo","state":"ND","lat":46.8772,"long":-96.7898},{"zip":"58108","city":"Fargo","state":"ND","lat":46.8772,"long":-96.7898},{"zip":"58109","city":"Fargo","state":"ND","lat":46.8235,"long":-96.8148},{"zip":"58121","city":"Fargo","state":"ND","lat":46.8772,"long":-96.7898},{"zip":"58122","city":"Fargo","state":"ND","lat":46.8772,"long":-96.7898},{"zip":"58124","city":"Fargo","state":"ND","lat":46.8772,"long":-96.7898},{"zip":"58125","city":"Fargo","state":"ND","lat":46.8772,"long":-96.7898},{"zip":"58126","city":"Fargo","state":"ND","lat":46.8772,"long":-96.7898},{"zip":"58239","city":"Hannah","state":"ND","lat":48.9594,"long":-98.7237},{"zip":"58249","city":"Langdon","state":"ND","lat":48.7866,"long":-98.3566},{"zip":"58255","city":"Maida","state":"ND","lat":48.9986,"long":-98.3648},{"zip":"58260","city":"Milton","state":"ND","lat":48.617,"long":-98.0183},{"zip":"58269","city":"Osnabrock","state":"ND","lat":48.6689,"long":-98.1512},{"zip":"58281","city":"Wales","state":"ND","lat":48.9216,"long":-98.5596},{"zip":"58311","city":"Alsen","state":"ND","lat":48.6525,"long":-98.5795},{"zip":"58323","city":"Calvin","state":"ND","lat":48.851,"long":-98.8808},{"zip":"58352","city":"Munich","state":"ND","lat":48.6694,"long":-98.8355},{"zip":"58355","city":"Nekoma","state":"ND","lat":48.5772,"long":-98.3704},{"zip":"58372","city":"Sarles","state":"ND","lat":48.9458,"long":-98.996},{"zip":"58436","city":"Ellendale","state":"ND","lat":46.0073,"long":-98.5138},{"zip":"58439","city":"Forbes","state":"ND","lat":46.0109,"long":-98.8124},{"zip":"58441","city":"Fullerton","state":"ND","lat":46.1951,"long":-98.3882},{"zip":"58474","city":"Oakes","state":"ND","lat":46.1095,"long":-98.2257},{"zip":"58730","city":"Crosby","state":"ND","lat":48.8836,"long":-103.274},{"zip":"58765","city":"Noonan","state":"ND","lat":48.8856,"long":-103.0098},{"zip":"58833","city":"Ambrose","state":"ND","lat":48.8165,"long":-103.4673},{"zip":"58844","city":"Fortuna","state":"ND","lat":48.8813,"long":-103.7415},{"zip":"58625","city":"Dodge","state":"ND","lat":47.3049,"long":-102.1985},{"zip":"58626","city":"Dunn Center","state":"ND","lat":47.3536,"long":-102.6205},{"zip":"58636","city":"Halliday","state":"ND","lat":47.3517,"long":-102.3368},{"zip":"58640","city":"Killdeer","state":"ND","lat":47.4109,"long":-102.7762},{"zip":"58642","city":"Manning","state":"ND","lat":47.1258,"long":-102.6806},{"zip":"58644","city":"Marshall","state":"ND","lat":47.1381,"long":-102.333},{"zip":"58356","city":"New Rockford","state":"ND","lat":47.7174,"long":-98.8987},{"zip":"58374","city":"Sheyenne","state":"ND","lat":47.8184,"long":-99.0583},{"zip":"58524","city":"Braddock","state":"ND","lat":46.5603,"long":-100.1075},{"zip":"58542","city":"Hague","state":"ND","lat":46.0589,"long":-99.9745},{"zip":"58544","city":"Hazelton","state":"ND","lat":46.4875,"long":-100.2733},{"zip":"58549","city":"Kintyre","state":"ND","lat":46.5736,"long":-99.9705},{"zip":"58552","city":"Linton","state":"ND","lat":46.1855,"long":-100.2331},{"zip":"58573","city":"Strasburg","state":"ND","lat":46.0979,"long":-100.2119},{"zip":"58421","city":"Carrington","state":"ND","lat":47.4573,"long":-98.8933},{"zip":"58443","city":"Glenfield","state":"ND","lat":47.4569,"long":-98.6916},{"zip":"58445","city":"Grace City","state":"ND","lat":47.5536,"long":-98.8095},{"zip":"58464","city":"Mchenry","state":"ND","lat":47.5604,"long":-98.5726},{"zip":"58621","city":"Beach","state":"ND","lat":46.9324,"long":-103.9843},{"zip":"58632","city":"Golva","state":"ND","lat":46.7075,"long":-103.9575},{"zip":"58654","city":"Sentinel Butte","state":"ND","lat":46.8305,"long":-103.8001},{"zip":"58201","city":"Grand Forks","state":"ND","lat":47.901,"long":-97.0446},{"zip":"58202","city":"Grand Forks","state":"ND","lat":47.9215,"long":-97.0735},{"zip":"58203","city":"Grand Forks","state":"ND","lat":47.9272,"long":-97.0672},{"zip":"58204","city":"Grand Forks Afb","state":"ND","lat":47.9679,"long":-97.3675},{"zip":"58205","city":"Grand Forks Afb","state":"ND","lat":47.9515,"long":-97.379},{"zip":"58206","city":"Grand Forks","state":"ND","lat":47.9253,"long":-97.0329},{"zip":"58207","city":"Grand Forks","state":"ND","lat":47.9253,"long":-97.0329},{"zip":"58208","city":"Grand Forks","state":"ND","lat":47.9253,"long":-97.0329},{"zip":"58214","city":"Arvilla","state":"ND","lat":47.9093,"long":-97.4871},{"zip":"58228","city":"Emerado","state":"ND","lat":47.9214,"long":-97.263},{"zip":"58235","city":"Gilby","state":"ND","lat":48.0853,"long":-97.4706},{"zip":"58244","city":"Inkster","state":"ND","lat":48.1514,"long":-97.6443},{"zip":"58251","city":"Larimore","state":"ND","lat":47.9115,"long":-97.6264},{"zip":"58256","city":"Manvel","state":"ND","lat":48.0853,"long":-97.1943},{"zip":"58258","city":"Mekinock","state":"ND","lat":48.0074,"long":-97.4305},{"zip":"58266","city":"Niagara","state":"ND","lat":47.9848,"long":-97.8334},{"zip":"58267","city":"Northwood","state":"ND","lat":47.7591,"long":-97.6038},{"zip":"58275","city":"Reynolds","state":"ND","lat":47.7068,"long":-97.2092},{"zip":"58278","city":"Thompson","state":"ND","lat":47.7766,"long":-97.0962},{"zip":"58529","city":"Carson","state":"ND","lat":46.4624,"long":-101.5387},{"zip":"58533","city":"Elgin","state":"ND","lat":46.3679,"long":-101.7558},{"zip":"58562","city":"New Leipzig","state":"ND","lat":46.3823,"long":-101.9619},{"zip":"58564","city":"Raleigh","state":"ND","lat":46.3352,"long":-101.2827},{"zip":"58569","city":"Shields","state":"ND","lat":46.1838,"long":-101.2589},{"zip":"58416","city":"Binford","state":"ND","lat":47.5739,"long":-98.3546},{"zip":"58425","city":"Cooperstown","state":"ND","lat":47.4527,"long":-98.1533},{"zip":"58448","city":"Hannaford","state":"ND","lat":47.3786,"long":-98.3502},{"zip":"58452","city":"Jessie","state":"ND","lat":47.5422,"long":-98.2382},{"zip":"58484","city":"Sutton","state":"ND","lat":47.3854,"long":-98.432},{"zip":"58646","city":"Mott","state":"ND","lat":46.3696,"long":-102.327},{"zip":"58647","city":"New England","state":"ND","lat":46.5128,"long":-102.8358},{"zip":"58650","city":"Regent","state":"ND","lat":46.4235,"long":-102.5684},{"zip":"58428","city":"Dawson","state":"ND","lat":46.8686,"long":-99.7515},{"zip":"58475","city":"Pettibone","state":"ND","lat":47.12,"long":-99.5279},{"zip":"58478","city":"Robinson","state":"ND","lat":47.1749,"long":-99.7457},{"zip":"58482","city":"Steele","state":"ND","lat":46.8524,"long":-99.9336},{"zip":"58487","city":"Tappen","state":"ND","lat":46.8336,"long":-99.6019},{"zip":"58488","city":"Tuttle","state":"ND","lat":47.1626,"long":-99.9873},{"zip":"58415","city":"Berlin","state":"ND","lat":46.3786,"long":-98.4898},{"zip":"58431","city":"Dickey","state":"ND","lat":46.5426,"long":-98.4682},{"zip":"58433","city":"Edgeley","state":"ND","lat":46.3591,"long":-98.7157},{"zip":"58454","city":"Jud","state":"ND","lat":46.5511,"long":-98.8667},{"zip":"58456","city":"Kulm","state":"ND","lat":46.3073,"long":-98.9427},{"zip":"58458","city":"Lamoure","state":"ND","lat":46.3844,"long":-98.3587},{"zip":"58466","city":"Marion","state":"ND","lat":46.5514,"long":-98.369},{"zip":"58490","city":"Verona","state":"ND","lat":46.3712,"long":-98.0895},{"zip":"58440","city":"Fredonia","state":"ND","lat":46.3701,"long":-99.1733},{"zip":"58442","city":"Gackle","state":"ND","lat":46.5913,"long":-99.2191},{"zip":"58561","city":"Napoleon","state":"ND","lat":46.4867,"long":-99.7725},{"zip":"58710","city":"Anamoose","state":"ND","lat":47.8703,"long":-100.2529},{"zip":"58712","city":"Balfour","state":"ND","lat":47.9685,"long":-100.5209},{"zip":"58713","city":"Bantry","state":"ND","lat":48.5351,"long":-100.5954},{"zip":"58731","city":"Deering","state":"ND","lat":48.4057,"long":-101.0337},{"zip":"58736","city":"Drake","state":"ND","lat":47.9024,"long":-100.379},{"zip":"58741","city":"Granville","state":"ND","lat":48.2566,"long":-100.8082},{"zip":"58744","city":"Karlsruhe","state":"ND","lat":48.1009,"long":-100.5742},{"zip":"58768","city":"Norwich","state":"ND","lat":48.2491,"long":-100.9712},{"zip":"58788","city":"Towner","state":"ND","lat":48.3636,"long":-100.4854},{"zip":"58789","city":"Upham","state":"ND","lat":48.5816,"long":-100.7323},{"zip":"58790","city":"Velva","state":"ND","lat":48.0675,"long":-100.9346},{"zip":"58792","city":"Voltaire","state":"ND","lat":47.986,"long":-100.7988},{"zip":"58413","city":"Ashley","state":"ND","lat":46.0537,"long":-99.3164},{"zip":"58460","city":"Lehr","state":"ND","lat":46.2586,"long":-99.3491},{"zip":"58495","city":"Wishek","state":"ND","lat":46.1917,"long":-99.6131},{"zip":"58581","city":"Zeeland","state":"ND","lat":46.0055,"long":-99.7725},{"zip":"58634","city":"Grassy Butte","state":"ND","lat":47.4431,"long":-103.2944},{"zip":"58757","city":"Mandaree","state":"ND","lat":47.7292,"long":-102.676},{"zip":"58831","city":"Alexander","state":"ND","lat":47.7947,"long":-103.6546},{"zip":"58835","city":"Arnegard","state":"ND","lat":47.8088,"long":-103.4538},{"zip":"58838","city":"Cartwright","state":"ND","lat":47.7992,"long":-103.9487},{"zip":"58847","city":"Keene","state":"ND","lat":47.9405,"long":-102.8906},{"zip":"58854","city":"Watford City","state":"ND","lat":47.8043,"long":-103.2582},{"zip":"58531","city":"Coleharbor","state":"ND","lat":47.5442,"long":-101.2238},{"zip":"58540","city":"Garrison","state":"ND","lat":47.6675,"long":-101.6142},{"zip":"58559","city":"Mercer","state":"ND","lat":47.4858,"long":-100.7171},{"zip":"58565","city":"Riverdale","state":"ND","lat":47.4975,"long":-101.3713},{"zip":"58575","city":"Turtle Lake","state":"ND","lat":47.5414,"long":-100.8814},{"zip":"58576","city":"Underwood","state":"ND","lat":47.4602,"long":-101.1898},{"zip":"58577","city":"Washburn","state":"ND","lat":47.3114,"long":-101.0116},{"zip":"58579","city":"Wilton","state":"ND","lat":47.1709,"long":-100.7944},{"zip":"58716","city":"Benedict","state":"ND","lat":47.7865,"long":-101.0579},{"zip":"58723","city":"Butte","state":"ND","lat":47.8119,"long":-100.6604},{"zip":"58759","city":"Max","state":"ND","lat":47.8156,"long":-101.2932},{"zip":"58775","city":"Roseglen","state":"ND","lat":47.696,"long":-101.822},{"zip":"58778","city":"Ruso","state":"ND","lat":47.7622,"long":-100.8754},{"zip":"58523","city":"Beulah","state":"ND","lat":47.2707,"long":-101.8075},{"zip":"58541","city":"Golden Valley","state":"ND","lat":47.2938,"long":-102.0612},{"zip":"58545","city":"Hazen","state":"ND","lat":47.3271,"long":-101.6107},{"zip":"58571","city":"Stanton","state":"ND","lat":47.3128,"long":-101.3899},{"zip":"58580","city":"Zap","state":"ND","lat":47.2897,"long":-101.9256},{"zip":"58520","city":"Almont","state":"ND","lat":46.7046,"long":-101.5221},{"zip":"58535","city":"Flasher","state":"ND","lat":46.5998,"long":-101.3166},{"zip":"58554","city":"Mandan","state":"ND","lat":46.8306,"long":-100.9092},{"zip":"58563","city":"New Salem","state":"ND","lat":46.806,"long":-101.4291},{"zip":"58566","city":"Saint Anthony","state":"ND","lat":46.5888,"long":-100.8972},{"zip":"58631","city":"Glen Ullin","state":"ND","lat":46.8233,"long":-101.8223},{"zip":"58638","city":"Hebron","state":"ND","lat":46.8936,"long":-102.0367},{"zip":"58763","city":"New Town","state":"ND","lat":47.9718,"long":-102.4716},{"zip":"58769","city":"Palermo","state":"ND","lat":48.3396,"long":-102.24},{"zip":"58770","city":"Parshall","state":"ND","lat":47.956,"long":-102.1427},{"zip":"58771","city":"Plaza","state":"ND","lat":48.0242,"long":-101.9643},{"zip":"58776","city":"Ross","state":"ND","lat":48.3111,"long":-102.5466},{"zip":"58784","city":"Stanley","state":"ND","lat":48.3458,"long":-102.4185},{"zip":"58794","city":"White Earth","state":"ND","lat":48.2994,"long":-102.7701},{"zip":"58212","city":"Aneta","state":"ND","lat":47.6993,"long":-97.9814},{"zip":"58224","city":"Dahlen","state":"ND","lat":48.1599,"long":-97.9573},{"zip":"58254","city":"Mcville","state":"ND","lat":47.7639,"long":-98.1773},{"zip":"58259","city":"Michigan","state":"ND","lat":48.0204,"long":-98.1186},{"zip":"58272","city":"Petersburg","state":"ND","lat":47.998,"long":-97.984},{"zip":"58344","city":"Lakota","state":"ND","lat":47.972,"long":-98.3246},{"zip":"58361","city":"Pekin","state":"ND","lat":47.7696,"long":-98.326},{"zip":"58380","city":"Tolna","state":"ND","lat":47.8462,"long":-98.4512},{"zip":"58530","city":"Center","state":"ND","lat":47.1459,"long":-101.1594},{"zip":"58216","city":"Bathgate","state":"ND","lat":48.8686,"long":-97.4832},{"zip":"58220","city":"Cavalier","state":"ND","lat":48.7935,"long":-97.7143},{"zip":"58222","city":"Crystal","state":"ND","lat":48.5924,"long":-97.6738},{"zip":"58225","city":"Drayton","state":"ND","lat":48.6104,"long":-97.2156},{"zip":"58236","city":"Glasston","state":"ND","lat":48.7201,"long":-97.4696},{"zip":"58238","city":"Hamilton","state":"ND","lat":48.7942,"long":-97.4693},{"zip":"58241","city":"Hensel","state":"ND","lat":48.7203,"long":-97.6993},{"zip":"58262","city":"Mountain","state":"ND","lat":48.6931,"long":-97.8841},{"zip":"58265","city":"Neche","state":"ND","lat":48.9796,"long":-97.5427},{"zip":"58271","city":"Pembina","state":"ND","lat":48.859,"long":-97.2886},{"zip":"58276","city":"Saint Thomas","state":"ND","lat":48.6252,"long":-97.4545},{"zip":"58282","city":"Walhalla","state":"ND","lat":48.8808,"long":-97.7974},{"zip":"58313","city":"Balta","state":"ND","lat":48.1667,"long":-100.0371},{"zip":"58368","city":"Rugby","state":"ND","lat":48.2545,"long":-99.9899},{"zip":"58385","city":"Wolford","state":"ND","lat":48.4809,"long":-99.6628},{"zip":"58301","city":"Devils Lake","state":"ND","lat":48.1132,"long":-98.8616},{"zip":"58321","city":"Brocket","state":"ND","lat":48.2255,"long":-98.3559},{"zip":"58325","city":"Churchs Ferry","state":"ND","lat":48.2862,"long":-99.1412},{"zip":"58327","city":"Crary","state":"ND","lat":48.091,"long":-98.5731},{"zip":"58330","city":"Edmore","state":"ND","lat":48.4308,"long":-98.4458},{"zip":"58338","city":"Hampden","state":"ND","lat":48.5229,"long":-98.6543},{"zip":"58345","city":"Lawton","state":"ND","lat":48.3033,"long":-98.4142},{"zip":"58362","city":"Penn","state":"ND","lat":48.2271,"long":-99.0655},{"zip":"58377","city":"Starkweather","state":"ND","lat":48.4488,"long":-98.8539},{"zip":"58382","city":"Webster","state":"ND","lat":48.3229,"long":-98.8739},{"zip":"58027","city":"Enderlin","state":"ND","lat":46.6079,"long":-97.6106},{"zip":"58033","city":"Fort Ransom","state":"ND","lat":46.4494,"long":-97.9091},{"zip":"58054","city":"Lisbon","state":"ND","lat":46.456,"long":-97.6369},{"zip":"58057","city":"Mcleod","state":"ND","lat":46.4103,"long":-97.3139},{"zip":"58068","city":"Sheldon","state":"ND","lat":46.5548,"long":-97.4543},{"zip":"58740","city":"Glenburn","state":"ND","lat":48.4718,"long":-101.2297},{"zip":"58761","city":"Mohall","state":"ND","lat":48.7269,"long":-101.6058},{"zip":"58782","city":"Sherwood","state":"ND","lat":48.9576,"long":-101.697},{"zip":"58787","city":"Tolley","state":"ND","lat":48.7969,"long":-101.8559},{"zip":"58001","city":"Abercrombie","state":"ND","lat":46.4479,"long":-96.7278},{"zip":"58008","city":"Barney","state":"ND","lat":46.2496,"long":-96.9708},{"zip":"58015","city":"Christine","state":"ND","lat":46.5736,"long":-96.8017},{"zip":"58018","city":"Colfax","state":"ND","lat":46.4574,"long":-96.8737},{"zip":"58030","city":"Fairmount","state":"ND","lat":46.0427,"long":-96.6308},{"zip":"58041","city":"Hankinson","state":"ND","lat":46.0558,"long":-96.8991},{"zip":"58053","city":"Lidgerwood","state":"ND","lat":46.0641,"long":-97.1799},{"zip":"58058","city":"Mantador","state":"ND","lat":46.1599,"long":-96.957},{"zip":"58061","city":"Mooreton","state":"ND","lat":46.2686,"long":-96.8762},{"zip":"58074","city":"Wahpeton","state":"ND","lat":46.2652,"long":-96.6059},{"zip":"58075","city":"Wahpeton","state":"ND","lat":46.3366,"long":-96.7921},{"zip":"58076","city":"Wahpeton","state":"ND","lat":46.2718,"long":-96.6081},{"zip":"58077","city":"Walcott","state":"ND","lat":46.5835,"long":-97.0014},{"zip":"58081","city":"Wyndmere","state":"ND","lat":46.2891,"long":-97.1289},{"zip":"58310","city":"Agate","state":"ND","lat":48.6228,"long":-99.4932},{"zip":"58316","city":"Belcourt","state":"ND","lat":48.8379,"long":-99.7688},{"zip":"58329","city":"Dunseith","state":"ND","lat":48.8561,"long":-100.0241},{"zip":"58353","city":"Mylo","state":"ND","lat":48.6329,"long":-99.5957},{"zip":"58366","city":"Rolette","state":"ND","lat":48.7009,"long":-99.8785},{"zip":"58367","city":"Rolla","state":"ND","lat":48.8594,"long":-99.6134},{"zip":"58369","city":"Saint John","state":"ND","lat":48.9366,"long":-99.7648},{"zip":"58013","city":"Cayuga","state":"ND","lat":46.1326,"long":-97.4059},{"zip":"58017","city":"Cogswell","state":"ND","lat":46.0659,"long":-97.8207},{"zip":"58032","city":"Forman","state":"ND","lat":46.0721,"long":-97.6986},{"zip":"58040","city":"Gwinner","state":"ND","lat":46.2258,"long":-97.6626},{"zip":"58043","city":"Havana","state":"ND","lat":45.9644,"long":-97.6094},{"zip":"58060","city":"Milnor","state":"ND","lat":46.2007,"long":-97.4772},{"zip":"58067","city":"Rutland","state":"ND","lat":46.0738,"long":-97.5483},{"zip":"58069","city":"Stirum","state":"ND","lat":46.2519,"long":-97.8326},{"zip":"58430","city":"Denhoff","state":"ND","lat":47.5709,"long":-100.263},{"zip":"58444","city":"Goodrich","state":"ND","lat":47.471,"long":-100.119},{"zip":"58463","city":"Mcclusky","state":"ND","lat":47.4896,"long":-100.452},{"zip":"58758","city":"Martin","state":"ND","lat":47.7781,"long":-100.1225},{"zip":"58528","city":"Cannon Ball","state":"ND","lat":46.3874,"long":-100.5975},{"zip":"58538","city":"Fort Yates","state":"ND","lat":46.0905,"long":-100.6516},{"zip":"58568","city":"Selfridge","state":"ND","lat":46.0351,"long":-101.1502},{"zip":"58570","city":"Solen","state":"ND","lat":46.3656,"long":-100.7831},{"zip":"58620","city":"Amidon","state":"ND","lat":46.456,"long":-103.2647},{"zip":"58643","city":"Marmarth","state":"ND","lat":46.3254,"long":-103.88},{"zip":"58601","city":"Dickinson","state":"ND","lat":46.8057,"long":-102.7565},{"zip":"58602","city":"Dickinson","state":"ND","lat":46.8792,"long":-102.7896},{"zip":"58622","city":"Belfield","state":"ND","lat":46.8198,"long":-103.1261},{"zip":"58630","city":"Gladstone","state":"ND","lat":46.8152,"long":-102.5274},{"zip":"58641","city":"Lefor","state":"ND","lat":46.6684,"long":-102.4986},{"zip":"58652","city":"Richardton","state":"ND","lat":46.8426,"long":-102.292},{"zip":"58655","city":"South Heart","state":"ND","lat":46.8127,"long":-103.0162},{"zip":"58656","city":"Taylor","state":"ND","lat":46.9284,"long":-102.3756},{"zip":"58046","city":"Hope","state":"ND","lat":47.3237,"long":-97.7134},{"zip":"58056","city":"Luverne","state":"ND","lat":47.2319,"long":-97.9314},{"zip":"58230","city":"Finley","state":"ND","lat":47.5306,"long":-97.7442},{"zip":"58277","city":"Sharon","state":"ND","lat":47.6062,"long":-97.9051},{"zip":"58401","city":"Jamestown","state":"ND","lat":46.921,"long":-98.7455},{"zip":"58402","city":"Jamestown","state":"ND","lat":46.9788,"long":-98.96},{"zip":"58405","city":"Jamestown","state":"ND","lat":46.9133,"long":-98.6996},{"zip":"58420","city":"Buchanan","state":"ND","lat":47.0051,"long":-98.9007},{"zip":"58424","city":"Cleveland","state":"ND","lat":46.8931,"long":-99.1288},{"zip":"58426","city":"Courtenay","state":"ND","lat":47.2272,"long":-98.5489},{"zip":"58455","city":"Kensal","state":"ND","lat":47.2726,"long":-98.7206},{"zip":"58467","city":"Medina","state":"ND","lat":46.892,"long":-99.3106},{"zip":"58472","city":"Montpelier","state":"ND","lat":46.6816,"long":-98.6604},{"zip":"58476","city":"Pingree","state":"ND","lat":47.2038,"long":-99.0144},{"zip":"58481","city":"Spiritwood","state":"ND","lat":46.9865,"long":-98.5219},{"zip":"58483","city":"Streeter","state":"ND","lat":46.695,"long":-99.2971},{"zip":"58496","city":"Woodworth","state":"ND","lat":47.1636,"long":-99.3406},{"zip":"58497","city":"Ypsilanti","state":"ND","lat":46.7719,"long":-98.4876},{"zip":"58317","city":"Bisbee","state":"ND","lat":48.6258,"long":-99.3779},{"zip":"58324","city":"Cando","state":"ND","lat":48.4867,"long":-99.2099},{"zip":"58331","city":"Egeland","state":"ND","lat":48.6355,"long":-99.1115},{"zip":"58339","city":"Hansboro","state":"ND","lat":48.9001,"long":-99.4278},{"zip":"58363","city":"Perth","state":"ND","lat":48.7546,"long":-99.4384},{"zip":"58365","city":"Rocklake","state":"ND","lat":48.8216,"long":-99.1796},{"zip":"58009","city":"Blanchard","state":"ND","lat":47.3277,"long":-97.2466},{"zip":"58016","city":"Clifford","state":"ND","lat":47.3569,"long":-97.41},{"zip":"58035","city":"Galesburg","state":"ND","lat":47.27,"long":-97.4065},{"zip":"58045","city":"Hillsboro","state":"ND","lat":47.3835,"long":-97.0603},{"zip":"58218","city":"Buxton","state":"ND","lat":47.6163,"long":-97.0893},{"zip":"58219","city":"Caledonia","state":"ND","lat":47.4776,"long":-96.879},{"zip":"58223","city":"Cummings","state":"ND","lat":47.537,"long":-96.9913},{"zip":"58240","city":"Hatton","state":"ND","lat":47.638,"long":-97.4325},{"zip":"58257","city":"Mayville","state":"ND","lat":47.5014,"long":-97.3176},{"zip":"58274","city":"Portland","state":"ND","lat":47.5015,"long":-97.3843},{"zip":"58210","city":"Adams","state":"ND","lat":48.4223,"long":-98.0867},{"zip":"58227","city":"Edinburg","state":"ND","lat":48.4997,"long":-97.8932},{"zip":"58229","city":"Fairdale","state":"ND","lat":48.4819,"long":-98.2066},{"zip":"58231","city":"Fordville","state":"ND","lat":48.2212,"long":-97.8022},{"zip":"58233","city":"Forest River","state":"ND","lat":48.2251,"long":-97.4605},{"zip":"58237","city":"Grafton","state":"ND","lat":48.4122,"long":-97.4106},{"zip":"58243","city":"Hoople","state":"ND","lat":48.5198,"long":-97.6183},{"zip":"58250","city":"Lankin","state":"ND","lat":48.2952,"long":-98.007},{"zip":"58261","city":"Minto","state":"ND","lat":48.26,"long":-97.3144},{"zip":"58270","city":"Park River","state":"ND","lat":48.4039,"long":-97.7439},{"zip":"58273","city":"Pisek","state":"ND","lat":48.2971,"long":-97.7029},{"zip":"58701","city":"Minot","state":"ND","lat":48.2291,"long":-101.2985},{"zip":"58702","city":"Minot","state":"ND","lat":48.3369,"long":-101.4513},{"zip":"58703","city":"Minot","state":"ND","lat":48.3306,"long":-101.3156},{"zip":"58704","city":"Minot Afb","state":"ND","lat":48.4232,"long":-101.3168},{"zip":"58705","city":"Minot Afb","state":"ND","lat":48.4223,"long":-101.3339},{"zip":"58707","city":"Minot","state":"ND","lat":48.2453,"long":-101.3012},{"zip":"58718","city":"Berthold","state":"ND","lat":48.3064,"long":-101.6866},{"zip":"58722","city":"Burlington","state":"ND","lat":48.2735,"long":-101.4282},{"zip":"58725","city":"Carpio","state":"ND","lat":48.4323,"long":-101.7119},{"zip":"58733","city":"Des Lacs","state":"ND","lat":48.2557,"long":-101.5672},{"zip":"58734","city":"Donnybrook","state":"ND","lat":48.49,"long":-101.896},{"zip":"58735","city":"Douglas","state":"ND","lat":47.8659,"long":-101.5112},{"zip":"58746","city":"Kenmare","state":"ND","lat":48.7182,"long":-102.0852},{"zip":"58756","city":"Makoti","state":"ND","lat":47.9611,"long":-101.8046},{"zip":"58779","city":"Ryder","state":"ND","lat":47.9788,"long":-101.6683},{"zip":"58781","city":"Sawyer","state":"ND","lat":48.0858,"long":-101.0674},{"zip":"58785","city":"Surrey","state":"ND","lat":48.2365,"long":-101.1216},{"zip":"58341","city":"Harvey","state":"ND","lat":47.7035,"long":-99.7478},{"zip":"58418","city":"Bowdon","state":"ND","lat":47.4343,"long":-99.7015},{"zip":"58422","city":"Cathay","state":"ND","lat":47.6289,"long":-99.4049},{"zip":"58423","city":"Chaseley","state":"ND","lat":47.449,"long":-99.8241},{"zip":"58438","city":"Fessenden","state":"ND","lat":47.6286,"long":-99.6434},{"zip":"58451","city":"Hurdsfield","state":"ND","lat":47.4387,"long":-99.9416},{"zip":"58486","city":"Sykeston","state":"ND","lat":47.4369,"long":-99.3975},{"zip":"58755","city":"Mcgregor","state":"ND","lat":48.595,"long":-102.9288},{"zip":"58795","city":"Wildrose","state":"ND","lat":48.5678,"long":-103.1536},{"zip":"58801","city":"Williston","state":"ND","lat":48.2257,"long":-103.649},{"zip":"58802","city":"Williston","state":"ND","lat":48.1688,"long":-103.6148},{"zip":"58830","city":"Alamo","state":"ND","lat":48.5817,"long":-103.4699},{"zip":"58843","city":"Epping","state":"ND","lat":48.2764,"long":-103.3763},{"zip":"58845","city":"Grenora","state":"ND","lat":48.5252,"long":-103.9176},{"zip":"58849","city":"Ray","state":"ND","lat":48.3217,"long":-103.1654},{"zip":"58852","city":"Tioga","state":"ND","lat":48.3646,"long":-102.9576},{"zip":"58853","city":"Trenton","state":"ND","lat":48.0706,"long":-103.8369},{"zip":"58856","city":"Zahl","state":"ND","lat":48.5787,"long":-103.6599}]
