[{"zip":"58031","city":"Fingal","state":"ND","lat":46.7728,"long":-97.7812},{"zip":"58049","city":"Kathryn","state":"ND","lat":46.7177,"long":-97.9763},{"zip":"58062","city":"Nome","state":"ND","lat":46.6748,"long":-97.7911},{"zip":"58063","city":"Oriska","state":"ND","lat":46.9433,"long":-97.7853},{"zip":"58065","city":"Pillsbury","state":"ND","lat":47.1862,"long":-97.7605},{"zip":"58072","city":"Valley City","state":"ND","lat":46.9268,"long":-98.0033},{"zip":"58002","city":"Absaraka","state":"ND","lat":46.9763,"long":-97.4069},{"zip":"58004","city":"Amenia","state":"ND","lat":47.0194,"long":-97.2048},{"zip":"58005","city":"Argusville","state":"ND","lat":47.1066,"long":-96.9058},{"zip":"58006","city":"Arthur","state":"ND","lat":47.1048,"long":-97.2097},{"zip":"58007","city":"Ayr","state":"ND","lat":47.0139,"long":-97.4629},{"zip":"58011","city":"Buffalo","state":"ND","lat":46.9264,"long":-97.5352},{"zip":"58012","city":"Casselton","state":"ND","lat":46.8992,"long":-97.2138},{"zip":"58021","city":"Davenport","state":"ND","lat":46.6968,"long":-97.0871},{"zip":"58029","city":"Erie","state":"ND","lat":47.1128,"long":-97.3849},{"zip":"58036","city":"Gardner","state":"ND","lat":47.1252,"long":-96.9901},{"zip":"58038","city":"Grandin","state":"ND","lat":47.2158,"long":-97.0207},{"zip":"58042","city":"Harwood","state":"ND","lat":46.9565,"long":-96.9654},{"zip":"58047","city":"Horace","state":"ND","lat":46.7101,"long":-96.8851},{"zip":"58048","city":"Hunter","state":"ND","lat":47.1905,"long":-97.217},{"zip":"58051","city":"Kindred","state":"ND","lat":46.6543,"long":-97.0049},{"zip":"58052","city":"Leonard","state":"ND","lat":46.6593,"long":-97.2725},{"zip":"58059","city":"Mapleton","state":"ND","lat":46.8614,"long":-97.1157},{"zip":"58064","city":"Page","state":"ND","lat":47.1515,"long":-97.5967},{"zip":"58071","city":"Tower City","state":"ND","lat":46.9119,"long":-97.6594},{"zip":"58078","city":"West Fargo","state":"ND","lat":46.8907,"long":-96.9258},{"zip":"58079","city":"Wheatland","state":"ND","lat":46.8326,"long":-97.3461},{"zip":"58027","city":"Enderlin","state":"ND","lat":46.6079,"long":-97.6106},{"zip":"58033","city":"Fort Ransom","state":"ND","lat":46.4494,"long":-97.9091},{"zip":"58054","city":"Lisbon","state":"ND","lat":46.456,"long":-97.6369},{"zip":"58057","city":"Mcleod","state":"ND","lat":46.4103,"long":-97.3139},{"zip":"58068","city":"Sheldon","state":"ND","lat":46.5548,"long":-97.4543},{"zip":"58001","city":"Abercrombie","state":"ND","lat":46.4479,"long":-96.7278},{"zip":"58008","city":"Barney","state":"ND","lat":46.2496,"long":-96.9708},{"zip":"58015","city":"Christine","state":"ND","lat":46.5736,"long":-96.8017},{"zip":"58018","city":"Colfax","state":"ND","lat":46.4574,"long":-96.8737},{"zip":"58030","city":"Fairmount","state":"ND","lat":46.0427,"long":-96.6308},{"zip":"58041","city":"Hankinson","state":"ND","lat":46.0558,"long":-96.8991},{"zip":"58053","city":"Lidgerwood","state":"ND","lat":46.0641,"long":-97.1799},{"zip":"58058","city":"Mantador","state":"ND","lat":46.1599,"long":-96.957},{"zip":"58061","city":"Mooreton","state":"ND","lat":46.2686,"long":-96.8762},{"zip":"58074","city":"Wahpeton","state":"ND","lat":46.2652,"long":-96.6059},{"zip":"58075","city":"Wahpeton","state":"ND","lat":46.3366,"long":-96.7921},{"zip":"58076","city":"Wahpeton","state":"ND","lat":46.2718,"long":-96.6081},{"zip":"58077","city":"Walcott","state":"ND","lat":46.5835,"long":-97.0014},{"zip":"58081","city":"Wyndmere","state":"ND","lat":46.2891,"long":-97.1289},{"zip":"58013","city":"Cayuga","state":"ND","lat":46.1326,"long":-97.4059},{"zip":"58017","city":"Cogswell","state":"ND","lat":46.0659,"long":-97.8207},{"zip":"58032","city":"Forman","state":"ND","lat":46.0721,"long":-97.6986},{"zip":"58040","city":"Gwinner","state":"ND","lat":46.2258,"long":-97.6626},{"zip":"58043","city":"Havana","state":"ND","lat":45.9644,"long":-97.6094},{"zip":"58060","city":"Milnor","state":"ND","lat":46.2007,"long":-97.4772},{"zip":"58067","city":"Rutland","state":"ND","lat":46.0738,"long":-97.5483},{"zip":"58069","city":"Stirum","state":"ND","lat":46.2519,"long":-97.8326},{"zip":"58046","city":"Hope","state":"ND","lat":47.3237,"long":-97.7134},{"zip":"58056","city":"Luverne","state":"ND","lat":47.2319,"long":-97.9314},{"zip":"58009","city":"Blanchard","state":"ND","lat":47.3277,"long":-97.2466},{"zip":"58016","city":"Clifford","state":"ND","lat":47.3569,"long":-97.41},{"zip":"58035","city":"Galesburg","state":"ND","lat":47.27,"long":-97.4065},{"zip":"58045","city":"Hillsboro","state":"ND","lat":47.3835,"long":-97.0603}]
