[{"zip":"58239","city":"Hannah","state":"ND","lat":48.9594,"long":-98.7237},{"zip":"58249","city":"Langdon","state":"ND","lat":48.7866,"long":-98.3566},{"zip":"58255","city":"Maida","state":"ND","lat":48.9986,"long":-98.3648},{"zip":"58260","city":"Milton","state":"ND","lat":48.617,"long":-98.0183},{"zip":"58269","city":"Osnabrock","state":"ND","lat":48.6689,"long":-98.1512},{"zip":"58281","city":"Wales","state":"ND","lat":48.9216,"long":-98.5596},{"zip":"58201","city":"Grand Forks","state":"ND","lat":47.901,"long":-97.0446},{"zip":"58202","city":"Grand Forks","state":"ND","lat":47.9215,"long":-97.0735},{"zip":"58203","city":"Grand Forks","state":"ND","lat":47.9272,"long":-97.0672},{"zip":"58204","city":"Grand Forks Afb","state":"ND","lat":47.9679,"long":-97.3675},{"zip":"58205","city":"Grand Forks Afb","state":"ND","lat":47.9515,"long":-97.379},{"zip":"58206","city":"Grand Forks","state":"ND","lat":47.9253,"long":-97.0329},{"zip":"58207","city":"Grand Forks","state":"ND","lat":47.9253,"long":-97.0329},{"zip":"58208","city":"Grand Forks","state":"ND","lat":47.9253,"long":-97.0329},{"zip":"58214","city":"Arvilla","state":"ND","lat":47.9093,"long":-97.4871},{"zip":"58228","city":"Emerado","state":"ND","lat":47.9214,"long":-97.263},{"zip":"58235","city":"Gilby","state":"ND","lat":48.0853,"long":-97.4706},{"zip":"58244","city":"Inkster","state":"ND","lat":48.1514,"long":-97.6443},{"zip":"58251","city":"Larimore","state":"ND","lat":47.9115,"long":-97.6264},{"zip":"58256","city":"Manvel","state":"ND","lat":48.0853,"long":-97.1943},{"zip":"58258","city":"Mekinock","state":"ND","lat":48.0074,"long":-97.4305},{"zip":"58266","city":"Niagara","state":"ND","lat":47.9848,"long":-97.8334},{"zip":"58267","city":"Northwood","state":"ND","lat":47.7591,"long":-97.6038},{"zip":"58275","city":"Reynolds","state":"ND","lat":47.7068,"long":-97.2092},{"zip":"58278","city":"Thompson","state":"ND","lat":47.7766,"long":-97.0962},{"zip":"58212","city":"Aneta","state":"ND","lat":47.6993,"long":-97.9814},{"zip":"58224","city":"Dahlen","state":"ND","lat":48.1599,"long":-97.9573},{"zip":"58254","city":"Mcville","state":"ND","lat":47.7639,"long":-98.1773},{"zip":"58259","city":"Michigan","state":"ND","lat":48.0204,"long":-98.1186},{"zip":"58272","city":"Petersburg","state":"ND","lat":47.998,"long":-97.984},{"zip":"58216","city":"Bathgate","state":"ND","lat":48.8686,"long":-97.4832},{"zip":"58220","city":"Cavalier","state":"ND","lat":48.7935,"long":-97.7143},{"zip":"58222","city":"Crystal","state":"ND","lat":48.5924,"long":-97.6738},{"zip":"58225","city":"Drayton","state":"ND","lat":48.6104,"long":-97.2156},{"zip":"58236","city":"Glasston","state":"ND","lat":48.7201,"long":-97.4696},{"zip":"58238","city":"Hamilton","state":"ND","lat":48.7942,"long":-97.4693},{"zip":"58241","city":"Hensel","state":"ND","lat":48.7203,"long":-97.6993},{"zip":"58262","city":"Mountain","state":"ND","lat":48.6931,"long":-97.8841},{"zip":"58265","city":"Neche","state":"ND","lat":48.9796,"long":-97.5427},{"zip":"58271","city":"Pembina","state":"ND","lat":48.859,"long":-97.2886},{"zip":"58276","city":"Saint Thomas","state":"ND","lat":48.6252,"long":-97.4545},{"zip":"58282","city":"Walhalla","state":"ND","lat":48.8808,"long":-97.7974},{"zip":"58230","city":"Finley","state":"ND","lat":47.5306,"long":-97.7442},{"zip":"58277","city":"Sharon","state":"ND","lat":47.6062,"long":-97.9051},{"zip":"58218","city":"Buxton","state":"ND","lat":47.6163,"long":-97.0893},{"zip":"58219","city":"Caledonia","state":"ND","lat":47.4776,"long":-96.879},{"zip":"58223","city":"Cummings","state":"ND","lat":47.537,"long":-96.9913},{"zip":"58240","city":"Hatton","state":"ND","lat":47.638,"long":-97.4325},{"zip":"58257","city":"Mayville","state":"ND","lat":47.5014,"long":-97.3176},{"zip":"58274","city":"Portland","state":"ND","lat":47.5015,"long":-97.3843},{"zip":"58210","city":"Adams","state":"ND","lat":48.4223,"long":-98.0867},{"zip":"58227","city":"Edinburg","state":"ND","lat":48.4997,"long":-97.8932},{"zip":"58229","city":"Fairdale","state":"ND","lat":48.4819,"long":-98.2066},{"zip":"58231","city":"Fordville","state":"ND","lat":48.2212,"long":-97.8022},{"zip":"58233","city":"Forest River","state":"ND","lat":48.2251,"long":-97.4605},{"zip":"58237","city":"Grafton","state":"ND","lat":48.4122,"long":-97.4106},{"zip":"58243","city":"Hoople","state":"ND","lat":48.5198,"long":-97.6183},{"zip":"58250","city":"Lankin","state":"ND","lat":48.2952,"long":-98.007},{"zip":"58261","city":"Minto","state":"ND","lat":48.26,"long":-97.3144},{"zip":"58270","city":"Park River","state":"ND","lat":48.4039,"long":-97.7439},{"zip":"58273","city":"Pisek","state":"ND","lat":48.2971,"long":-97.7029}]
