[{"zip":"58332","city":"Esmond","state":"ND","lat":48.0419,"long":-99.7617},{"zip":"58335","city":"Fort Totten","state":"ND","lat":47.9811,"long":-99.0264},{"zip":"58343","city":"Knox","state":"ND","lat":48.3388,"long":-99.6713},{"zip":"58346","city":"Leeds","state":"ND","lat":48.2889,"long":-99.4376},{"zip":"58348","city":"Maddock","state":"ND","lat":47.9625,"long":-99.5301},{"zip":"58351","city":"Minnewaukan","state":"ND","lat":48.0698,"long":-99.2743},{"zip":"58357","city":"Oberon","state":"ND","lat":47.9487,"long":-99.1401},{"zip":"58370","city":"Saint Michael","state":"ND","lat":47.985,"long":-98.8721},{"zip":"58379","city":"Tokio","state":"ND","lat":47.9247,"long":-98.8162},{"zip":"58381","city":"Warwick","state":"ND","lat":47.8913,"long":-98.681},{"zip":"58386","city":"York","state":"ND","lat":48.2565,"long":-99.6025},{"zip":"58318","city":"Bottineau","state":"ND","lat":48.8451,"long":-100.4329},{"zip":"58384","city":"Willow City","state":"ND","lat":48.6062,"long":-100.2968},{"zip":"58311","city":"Alsen","state":"ND","lat":48.6525,"long":-98.5795},{"zip":"58323","city":"Calvin","state":"ND","lat":48.851,"long":-98.8808},{"zip":"58352","city":"Munich","state":"ND","lat":48.6694,"long":-98.8355},{"zip":"58355","city":"Nekoma","state":"ND","lat":48.5772,"long":-98.3704},{"zip":"58372","city":"Sarles","state":"ND","lat":48.9458,"long":-98.996},{"zip":"58356","city":"New Rockford","state":"ND","lat":47.7174,"long":-98.8987},{"zip":"58374","city":"Sheyenne","state":"ND","lat":47.8184,"long":-99.0583},{"zip":"58344","city":"Lakota","state":"ND","lat":47.972,"long":-98.3246},{"zip":"58361","city":"Pekin","state":"ND","lat":47.7696,"long":-98.326},{"zip":"58380","city":"Tolna","state":"ND","lat":47.8462,"long":-98.4512},{"zip":"58313","city":"Balta","state":"ND","lat":48.1667,"long":-100.0371},{"zip":"58368","city":"Rugby","state":"ND","lat":48.2545,"long":-99.9899},{"zip":"58385","city":"Wolford","state":"ND","lat":48.4809,"long":-99.6628},{"zip":"58301","city":"Devils Lake","state":"ND","lat":48.1132,"long":-98.8616},{"zip":"58321","city":"Brocket","state":"ND","lat":48.2255,"long":-98.3559},{"zip":"58325","city":"Churchs Ferry","state":"ND","lat":48.2862,"long":-99.1412},{"zip":"58327","city":"Crary","state":"ND","lat":48.091,"long":-98.5731},{"zip":"58330","city":"Edmore","state":"ND","lat":48.4308,"long":-98.4458},{"zip":"58338","city":"Hampden","state":"ND","lat":48.5229,"long":-98.6543},{"zip":"58345","city":"Lawton","state":"ND","lat":48.3033,"long":-98.4142},{"zip":"58362","city":"Penn","state":"ND","lat":48.2271,"long":-99.0655},{"zip":"58377","city":"Starkweather","state":"ND","lat":48.4488,"long":-98.8539},{"zip":"58382","city":"Webster","state":"ND","lat":48.3229,"long":-98.8739},{"zip":"58310","city":"Agate","state":"ND","lat":48.6228,"long":-99.4932},{"zip":"58316","city":"Belcourt","state":"ND","lat":48.8379,"long":-99.7688},{"zip":"58329","city":"Dunseith","state":"ND","lat":48.8561,"long":-100.0241},{"zip":"58353","city":"Mylo","state":"ND","lat":48.6329,"long":-99.5957},{"zip":"58366","city":"Rolette","state":"ND","lat":48.7009,"long":-99.8785},{"zip":"58367","city":"Rolla","state":"ND","lat":48.8594,"long":-99.6134},{"zip":"58369","city":"Saint John","state":"ND","lat":48.9366,"long":-99.7648},{"zip":"58317","city":"Bisbee","state":"ND","lat":48.6258,"long":-99.3779},{"zip":"58324","city":"Cando","state":"ND","lat":48.4867,"long":-99.2099},{"zip":"58331","city":"Egeland","state":"ND","lat":48.6355,"long":-99.1115},{"zip":"58339","city":"Hansboro","state":"ND","lat":48.9001,"long":-99.4278},{"zip":"58363","city":"Perth","state":"ND","lat":48.7546,"long":-99.4384},{"zip":"58365","city":"Rocklake","state":"ND","lat":48.8216,"long":-99.1796},{"zip":"58341","city":"Harvey","state":"ND","lat":47.7035,"long":-99.7478}]
