[{"zip":"58429","city":"Dazey","state":"ND","lat":47.1828,"long":-98.1616},{"zip":"58461","city":"Litchville","state":"ND","lat":46.6536,"long":-98.1943},{"zip":"58479","city":"Rogers","state":"ND","lat":47.0741,"long":-98.2136},{"zip":"58480","city":"Sanborn","state":"ND","lat":46.9271,"long":-98.2336},{"zip":"58492","city":"Wimbledon","state":"ND","lat":47.1438,"long":-98.4329},{"zip":"58477","city":"Regan","state":"ND","lat":47.1527,"long":-100.5224},{"zip":"58494","city":"Wing","state":"ND","lat":47.1519,"long":-100.3072},{"zip":"58436","city":"Ellendale","state":"ND","lat":46.0073,"long":-98.5138},{"zip":"58439","city":"Forbes","state":"ND","lat":46.0109,"long":-98.8124},{"zip":"58441","city":"Fullerton","state":"ND","lat":46.1951,"long":-98.3882},{"zip":"58474","city":"Oakes","state":"ND","lat":46.1095,"long":-98.2257},{"zip":"58421","city":"Carrington","state":"ND","lat":47.4573,"long":-98.8933},{"zip":"58443","city":"Glenfield","state":"ND","lat":47.4569,"long":-98.6916},{"zip":"58445","city":"Grace City","state":"ND","lat":47.5536,"long":-98.8095},{"zip":"58464","city":"Mchenry","state":"ND","lat":47.5604,"long":-98.5726},{"zip":"58416","city":"Binford","state":"ND","lat":47.5739,"long":-98.3546},{"zip":"58425","city":"Cooperstown","state":"ND","lat":47.4527,"long":-98.1533},{"zip":"58448","city":"Hannaford","state":"ND","lat":47.3786,"long":-98.3502},{"zip":"58452","city":"Jessie","state":"ND","lat":47.5422,"long":-98.2382},{"zip":"58484","city":"Sutton","state":"ND","lat":47.3854,"long":-98.432},{"zip":"58428","city":"Dawson","state":"ND","lat":46.8686,"long":-99.7515},{"zip":"58475","city":"Pettibone","state":"ND","lat":47.12,"long":-99.5279},{"zip":"58478","city":"Robinson","state":"ND","lat":47.1749,"long":-99.7457},{"zip":"58482","city":"Steele","state":"ND","lat":46.8524,"long":-99.9336},{"zip":"58487","city":"Tappen","state":"ND","lat":46.8336,"long":-99.6019},{"zip":"58488","city":"Tuttle","state":"ND","lat":47.1626,"long":-99.9873},{"zip":"58415","city":"Berlin","state":"ND","lat":46.3786,"long":-98.4898},{"zip":"58431","city":"Dickey","state":"ND","lat":46.5426,"long":-98.4682},{"zip":"58433","city":"Edgeley","state":"ND","lat":46.3591,"long":-98.7157},{"zip":"58454","city":"Jud","state":"ND","lat":46.5511,"long":-98.8667},{"zip":"58456","city":"Kulm","state":"ND","lat":46.3073,"long":-98.9427},{"zip":"58458","city":"Lamoure","state":"ND","lat":46.3844,"long":-98.3587},{"zip":"58466","city":"Marion","state":"ND","lat":46.5514,"long":-98.369},{"zip":"58490","city":"Verona","state":"ND","lat":46.3712,"long":-98.0895},{"zip":"58440","city":"Fredonia","state":"ND","lat":46.3701,"long":-99.1733},{"zip":"58442","city":"Gackle","state":"ND","lat":46.5913,"long":-99.2191},{"zip":"58413","city":"Ashley","state":"ND","lat":46.0537,"long":-99.3164},{"zip":"58460","city":"Lehr","state":"ND","lat":46.2586,"long":-99.3491},{"zip":"58495","city":"Wishek","state":"ND","lat":46.1917,"long":-99.6131},{"zip":"58430","city":"Denhoff","state":"ND","lat":47.5709,"long":-100.263},{"zip":"58444","city":"Goodrich","state":"ND","lat":47.471,"long":-100.119},{"zip":"58463","city":"Mcclusky","state":"ND","lat":47.4896,"long":-100.452},{"zip":"58401","city":"Jamestown","state":"ND","lat":46.921,"long":-98.7455},{"zip":"58402","city":"Jamestown","state":"ND","lat":46.9788,"long":-98.96},{"zip":"58405","city":"Jamestown","state":"ND","lat":46.9133,"long":-98.6996},{"zip":"58420","city":"Buchanan","state":"ND","lat":47.0051,"long":-98.9007},{"zip":"58424","city":"Cleveland","state":"ND","lat":46.8931,"long":-99.1288},{"zip":"58426","city":"Courtenay","state":"ND","lat":47.2272,"long":-98.5489},{"zip":"58455","city":"Kensal","state":"ND","lat":47.2726,"long":-98.7206},{"zip":"58467","city":"Medina","state":"ND","lat":46.892,"long":-99.3106},{"zip":"58472","city":"Montpelier","state":"ND","lat":46.6816,"long":-98.6604},{"zip":"58476","city":"Pingree","state":"ND","lat":47.2038,"long":-99.0144},{"zip":"58481","city":"Spiritwood","state":"ND","lat":46.9865,"long":-98.5219},{"zip":"58483","city":"Streeter","state":"ND","lat":46.695,"long":-99.2971},{"zip":"58496","city":"Woodworth","state":"ND","lat":47.1636,"long":-99.3406},{"zip":"58497","city":"Ypsilanti","state":"ND","lat":46.7719,"long":-98.4876},{"zip":"58418","city":"Bowdon","state":"ND","lat":47.4343,"long":-99.7015},{"zip":"58422","city":"Cathay","state":"ND","lat":47.6289,"long":-99.4049},{"zip":"58423","city":"Chaseley","state":"ND","lat":47.449,"long":-99.8241},{"zip":"58438","city":"Fessenden","state":"ND","lat":47.6286,"long":-99.6434},{"zip":"58451","city":"Hurdsfield","state":"ND","lat":47.4387,"long":-99.9416},{"zip":"58486","city":"Sykeston","state":"ND","lat":47.4369,"long":-99.3975}]
