[{"zip":"58501","city":"Bismarck","state":"ND","lat":46.8083,"long":-100.7837},{"zip":"58502","city":"Bismarck","state":"ND","lat":46.8887,"long":-100.6819},{"zip":"58503","city":"Bismarck","state":"ND","lat":46.8394,"long":-100.7843},{"zip":"58504","city":"Bismarck","state":"ND","lat":46.7231,"long":-100.678},{"zip":"58505","city":"Bismarck","state":"ND","lat":46.8165,"long":-100.7805},{"zip":"58506","city":"Bismarck","state":"ND","lat":46.8083,"long":-100.7837},{"zip":"58507","city":"Bismarck","state":"ND","lat":46.8083,"long":-100.7837},{"zip":"58521","city":"Baldwin","state":"ND","lat":46.9543,"long":-100.7615},{"zip":"58532","city":"Driscoll","state":"ND","lat":46.8511,"long":-100.1441},{"zip":"58558","city":"Menoken","state":"ND","lat":46.8205,"long":-100.5312},{"zip":"58560","city":"Moffit","state":"ND","lat":46.6757,"long":-100.2975},{"zip":"58572","city":"Sterling","state":"ND","lat":46.8436,"long":-100.2744},{"zip":"58524","city":"Braddock","state":"ND","lat":46.5603,"long":-100.1075},{"zip":"58542","city":"Hague","state":"ND","lat":46.0589,"long":-99.9745},{"zip":"58544","city":"Hazelton","state":"ND","lat":46.4875,"long":-100.2733},{"zip":"58549","city":"Kintyre","state":"ND","lat":46.5736,"long":-99.9705},{"zip":"58552","city":"Linton","state":"ND","lat":46.1855,"long":-100.2331},{"zip":"58573","city":"Strasburg","state":"ND","lat":46.0979,"long":-100.2119},{"zip":"58529","city":"Carson","state":"ND","lat":46.4624,"long":-101.5387},{"zip":"58533","city":"Elgin","state":"ND","lat":46.3679,"long":-101.7558},{"zip":"58562","city":"New Leipzig","state":"ND","lat":46.3823,"long":-101.9619},{"zip":"58564","city":"Raleigh","state":"ND","lat":46.3352,"long":-101.2827},{"zip":"58569","city":"Shields","state":"ND","lat":46.1838,"long":-101.2589},{"zip":"58561","city":"Napoleon","state":"ND","lat":46.4867,"long":-99.7725},{"zip":"58581","city":"Zeeland","state":"ND","lat":46.0055,"long":-99.7725},{"zip":"58531","city":"Coleharbor","state":"ND","lat":47.5442,"long":-101.2238},{"zip":"58540","city":"Garrison","state":"ND","lat":47.6675,"long":-101.6142},{"zip":"58559","city":"Mercer","state":"ND","lat":47.4858,"long":-100.7171},{"zip":"58565","city":"Riverdale","state":"ND","lat":47.4975,"long":-101.3713},{"zip":"58575","city":"Turtle Lake","state":"ND","lat":47.5414,"long":-100.8814},{"zip":"58576","city":"Underwood","state":"ND","lat":47.4602,"long":-101.1898},{"zip":"58577","city":"Washburn","state":"ND","lat":47.3114,"long":-101.0116},{"zip":"58579","city":"Wilton","state":"ND","lat":47.1709,"long":-100.7944},{"zip":"58523","city":"Beulah","state":"ND","lat":47.2707,"long":-101.8075},{"zip":"58541","city":"Golden Valley","state":"ND","lat":47.2938,"long":-102.0612},{"zip":"58545","city":"Hazen","state":"ND","lat":47.3271,"long":-101.6107},{"zip":"58571","city":"Stanton","state":"ND","lat":47.3128,"long":-101.3899},{"zip":"58580","city":"Zap","state":"ND","lat":47.2897,"long":-101.9256},{"zip":"58520","city":"Almont","state":"ND","lat":46.7046,"long":-101.5221},{"zip":"58535","city":"Flasher","state":"ND","lat":46.5998,"long":-101.3166},{"zip":"58554","city":"Mandan","state":"ND","lat":46.8306,"long":-100.9092},{"zip":"58563","city":"New Salem","state":"ND","lat":46.806,"long":-101.4291},{"zip":"58566","city":"Saint Anthony","state":"ND","lat":46.5888,"long":-100.8972},{"zip":"58530","city":"Center","state":"ND","lat":47.1459,"long":-101.1594},{"zip":"58528","city":"Cannon Ball","state":"ND","lat":46.3874,"long":-100.5975},{"zip":"58538","city":"Fort Yates","state":"ND","lat":46.0905,"long":-100.6516},{"zip":"58568","city":"Selfridge","state":"ND","lat":46.0351,"long":-101.1502},{"zip":"58570","city":"Solen","state":"ND","lat":46.3656,"long":-100.7831}]
