[{"zip":"58639","city":"Hettinger","state":"ND","lat":46.0578,"long":-102.7851},{"zip":"58649","city":"Reeder","state":"ND","lat":46.1116,"long":-102.9405},{"zip":"58627","city":"Fairfield","state":"ND","lat":47.2329,"long":-103.3056},{"zip":"58645","city":"Medora","state":"ND","lat":46.9387,"long":-103.5632},{"zip":"58623","city":"Bowman","state":"ND","lat":46.1733,"long":-103.402},{"zip":"58651","city":"Rhame","state":"ND","lat":46.1664,"long":-103.7079},{"zip":"58653","city":"Scranton","state":"ND","lat":46.0916,"long":-103.1354},{"zip":"58625","city":"Dodge","state":"ND","lat":47.3049,"long":-102.1985},{"zip":"58626","city":"Dunn Center","state":"ND","lat":47.3536,"long":-102.6205},{"zip":"58636","city":"Halliday","state":"ND","lat":47.3517,"long":-102.3368},{"zip":"58640","city":"Killdeer","state":"ND","lat":47.4109,"long":-102.7762},{"zip":"58642","city":"Manning","state":"ND","lat":47.1258,"long":-102.6806},{"zip":"58644","city":"Marshall","state":"ND","lat":47.1381,"long":-102.333},{"zip":"58621","city":"Beach","state":"ND","lat":46.9324,"long":-103.9843},{"zip":"58632","city":"Golva","state":"ND","lat":46.7075,"long":-103.9575},{"zip":"58654","city":"Sentinel Butte","state":"ND","lat":46.8305,"long":-103.8001},{"zip":"58646","city":"Mott","state":"ND","lat":46.3696,"long":-102.327},{"zip":"58647","city":"New England","state":"ND","lat":46.5128,"long":-102.8358},{"zip":"58650","city":"Regent","state":"ND","lat":46.4235,"long":-102.5684},{"zip":"58634","city":"Grassy Butte","state":"ND","lat":47.4431,"long":-103.2944},{"zip":"58631","city":"Glen Ullin","state":"ND","lat":46.8233,"long":-101.8223},{"zip":"58638","city":"Hebron","state":"ND","lat":46.8936,"long":-102.0367},{"zip":"58620","city":"Amidon","state":"ND","lat":46.456,"long":-103.2647},{"zip":"58643","city":"Marmarth","state":"ND","lat":46.3254,"long":-103.88},{"zip":"58601","city":"Dickinson","state":"ND","lat":46.8057,"long":-102.7565},{"zip":"58602","city":"Dickinson","state":"ND","lat":46.8792,"long":-102.7896},{"zip":"58622","city":"Belfield","state":"ND","lat":46.8198,"long":-103.1261},{"zip":"58630","city":"Gladstone","state":"ND","lat":46.8152,"long":-102.5274},{"zip":"58641","city":"Lefor","state":"ND","lat":46.6684,"long":-102.4986},{"zip":"58652","city":"Richardton","state":"ND","lat":46.8426,"long":-102.292},{"zip":"58655","city":"South Heart","state":"ND","lat":46.8127,"long":-103.0162},{"zip":"58656","city":"Taylor","state":"ND","lat":46.9284,"long":-102.3756}]
