[{"zip":"58711","city":"Antler","state":"ND","lat":48.9585,"long":-101.3338},{"zip":"58748","city":"Kramer","state":"ND","lat":48.6867,"long":-100.6716},{"zip":"58750","city":"Lansford","state":"ND","lat":48.6254,"long":-101.3858},{"zip":"58760","city":"Maxbass","state":"ND","lat":48.7722,"long":-101.2563},{"zip":"58762","city":"Newburg","state":"ND","lat":48.6982,"long":-100.9681},{"zip":"58783","city":"Souris","state":"ND","lat":48.8738,"long":-100.7359},{"zip":"58793","city":"Westhope","state":"ND","lat":48.9051,"long":-101.0338},{"zip":"58721","city":"Bowbells","state":"ND","lat":48.8378,"long":-102.2839},{"zip":"58727","city":"Columbus","state":"ND","lat":48.8434,"long":-102.798},{"zip":"58737","city":"Flaxton","state":"ND","lat":48.8772,"long":-102.3823},{"zip":"58752","city":"Lignite","state":"ND","lat":48.8481,"long":-102.5542},{"zip":"58772","city":"Portal","state":"ND","lat":48.9758,"long":-102.548},{"zip":"58773","city":"Powers Lake","state":"ND","lat":48.6551,"long":-102.6795},{"zip":"58730","city":"Crosby","state":"ND","lat":48.8836,"long":-103.274},{"zip":"58765","city":"Noonan","state":"ND","lat":48.8856,"long":-103.0098},{"zip":"58710","city":"Anamoose","state":"ND","lat":47.8703,"long":-100.2529},{"zip":"58712","city":"Balfour","state":"ND","lat":47.9685,"long":-100.5209},{"zip":"58713","city":"Bantry","state":"ND","lat":48.5351,"long":-100.5954},{"zip":"58731","city":"Deering","state":"ND","lat":48.4057,"long":-101.0337},{"zip":"58736","city":"Drake","state":"ND","lat":47.9024,"long":-100.379},{"zip":"58741","city":"Granville","state":"ND","lat":48.2566,"long":-100.8082},{"zip":"58744","city":"Karlsruhe","state":"ND","lat":48.1009,"long":-100.5742},{"zip":"58768","city":"Norwich","state":"ND","lat":48.2491,"long":-100.9712},{"zip":"58788","city":"Towner","state":"ND","lat":48.3636,"long":-100.4854},{"zip":"58789","city":"Upham","state":"ND","lat":48.5816,"long":-100.7323},{"zip":"58790","city":"Velva","state":"ND","lat":48.0675,"long":-100.9346},{"zip":"58792","city":"Voltaire","state":"ND","lat":47.986,"long":-100.7988},{"zip":"58757","city":"Mandaree","state":"ND","lat":47.7292,"long":-102.676},{"zip":"58716","city":"Benedict","state":"ND","lat":47.7865,"long":-101.0579},{"zip":"58723","city":"Butte","state":"ND","lat":47.8119,"long":-100.6604},{"zip":"58759","city":"Max","state":"ND","lat":47.8156,"long":-101.2932},{"zip":"58775","city":"Roseglen","state":"ND","lat":47.696,"long":-101.822},{"zip":"58778","city":"Ruso","state":"ND","lat":47.7622,"long":-100.8754},{"zip":"58763","city":"New Town","state":"ND","lat":47.9718,"long":-102.4716},{"zip":"58769","city":"Palermo","state":"ND","lat":48.3396,"long":-102.24},{"zip":"58770","city":"Parshall","state":"ND","lat":47.956,"long":-102.1427},{"zip":"58771","city":"Plaza","state":"ND","lat":48.0242,"long":-101.9643},{"zip":"58776","city":"Ross","state":"ND","lat":48.3111,"long":-102.5466},{"zip":"58784","city":"Stanley","state":"ND","lat":48.3458,"long":-102.4185},{"zip":"58794","city":"White Earth","state":"ND","lat":48.2994,"long":-102.7701},{"zip":"58740","city":"Glenburn","state":"ND","lat":48.4718,"long":-101.2297},{"zip":"58761","city":"Mohall","state":"ND","lat":48.7269,"long":-101.6058},{"zip":"58782","city":"Sherwood","state":"ND","lat":48.9576,"long":-101.697},{"zip":"58787","city":"Tolley","state":"ND","lat":48.7969,"long":-101.8559},{"zip":"58758","city":"Martin","state":"ND","lat":47.7781,"long":-100.1225},{"zip":"58701","city":"Minot","state":"ND","lat":48.2291,"long":-101.2985},{"zip":"58702","city":"Minot","state":"ND","lat":48.3369,"long":-101.4513},{"zip":"58703","city":"Minot","state":"ND","lat":48.3306,"long":-101.3156},{"zip":"58704","city":"Minot Afb","state":"ND","lat":48.4232,"long":-101.3168},{"zip":"58705","city":"Minot Afb","state":"ND","lat":48.4223,"long":-101.3339},{"zip":"58707","city":"Minot","state":"ND","lat":48.2453,"long":-101.3012},{"zip":"58718","city":"Berthold","state":"ND","lat":48.3064,"long":-101.6866},{"zip":"58722","city":"Burlington","state":"ND","lat":48.2735,"long":-101.4282},{"zip":"58725","city":"Carpio","state":"ND","lat":48.4323,"long":-101.7119},{"zip":"58733","city":"Des Lacs","state":"ND","lat":48.2557,"long":-101.5672},{"zip":"58734","city":"Donnybrook","state":"ND","lat":48.49,"long":-101.896},{"zip":"58735","city":"Douglas","state":"ND","lat":47.8659,"long":-101.5112},{"zip":"58746","city":"Kenmare","state":"ND","lat":48.7182,"long":-102.0852},{"zip":"58756","city":"Makoti","state":"ND","lat":47.9611,"long":-101.8046},{"zip":"58779","city":"Ryder","state":"ND","lat":47.9788,"long":-101.6683},{"zip":"58781","city":"Sawyer","state":"ND","lat":48.0858,"long":-101.0674},{"zip":"58785","city":"Surrey","state":"ND","lat":48.2365,"long":-101.1216},{"zip":"58755","city":"Mcgregor","state":"ND","lat":48.595,"long":-102.9288},{"zip":"58795","city":"Wildrose","state":"ND","lat":48.5678,"long":-103.1536}]
