[{"zip":"58833","city":"Ambrose","state":"ND","lat":48.8165,"long":-103.4673},{"zip":"58844","city":"Fortuna","state":"ND","lat":48.8813,"long":-103.7415},{"zip":"58831","city":"Alexander","state":"ND","lat":47.7947,"long":-103.6546},{"zip":"58835","city":"Arnegard","state":"ND","lat":47.8088,"long":-103.4538},{"zip":"58838","city":"Cartwright","state":"ND","lat":47.7992,"long":-103.9487},{"zip":"58847","city":"Keene","state":"ND","lat":47.9405,"long":-102.8906},{"zip":"58854","city":"Watford City","state":"ND","lat":47.8043,"long":-103.2582},{"zip":"58801","city":"Williston","state":"ND","lat":48.2257,"long":-103.649},{"zip":"58802","city":"Williston","state":"ND","lat":48.1688,"long":-103.6148},{"zip":"58830","city":"Alamo","state":"ND","lat":48.5817,"long":-103.4699},{"zip":"58843","city":"Epping","state":"ND","lat":48.2764,"long":-103.3763},{"zip":"58845","city":"Grenora","state":"ND","lat":48.5252,"long":-103.9176},{"zip":"58849","city":"Ray","state":"ND","lat":48.3217,"long":-103.1654},{"zip":"58852","city":"Tioga","state":"ND","lat":48.3646,"long":-102.9576},{"zip":"58853","city":"Trenton","state":"ND","lat":48.0706,"long":-103.8369},{"zip":"58856","city":"Zahl","state":"ND","lat":48.5787,"long":-103.6599}]
