[{"zip":"59724","city":"Dell","state":"MT","lat":44.723,"long":-112.6972},{"zip":"59725","city":"Dillon","state":"MT","lat":45.2339,"long":-112.6405},{"zip":"59732","city":"Glen","state":"MT","lat":45.4766,"long":-112.6906},{"zip":"59736","city":"Jackson","state":"MT","lat":45.3687,"long":-113.3598},{"zip":"59739","city":"Lima","state":"MT","lat":44.6441,"long":-112.5625},{"zip":"59746","city":"Polaris","state":"MT","lat":45.3696,"long":-113.1195},{"zip":"59761","city":"Wisdom","state":"MT","lat":45.6519,"long":-113.4729},{"zip":"59762","city":"Wise River","state":"MT","lat":45.7424,"long":-112.9963},{"zip":"59016","city":"Busby","state":"MT","lat":45.5541,"long":-106.8723},{"zip":"59022","city":"Crow Agency","state":"MT","lat":45.6296,"long":-107.4973},{"zip":"59025","city":"Decker","state":"MT","lat":45.1797,"long":-106.8721},{"zip":"59031","city":"Garryowen","state":"MT","lat":45.5187,"long":-107.4817},{"zip":"59034","city":"Hardin","state":"MT","lat":45.7498,"long":-107.6075},{"zip":"59035","city":"Fort Smith","state":"MT","lat":45.3127,"long":-107.9371},{"zip":"59050","city":"Lodge Grass","state":"MT","lat":45.3166,"long":-107.3675},{"zip":"59066","city":"Pryor","state":"MT","lat":45.4297,"long":-108.5332},{"zip":"59075","city":"Saint Xavier","state":"MT","lat":45.3985,"long":-107.8893},{"zip":"59089","city":"Wyola","state":"MT","lat":45.1089,"long":-107.4303},{"zip":"59523","city":"Chinook","state":"MT","lat":48.5799,"long":-109.2225},{"zip":"59526","city":"Harlem","state":"MT","lat":48.5398,"long":-108.7693},{"zip":"59527","city":"Hays","state":"MT","lat":47.9892,"long":-108.6943},{"zip":"59529","city":"Hogeland","state":"MT","lat":48.8571,"long":-108.6677},{"zip":"59535","city":"Lloyd","state":"MT","lat":47.9647,"long":-109.2671},{"zip":"59542","city":"Turner","state":"MT","lat":48.8328,"long":-108.3961},{"zip":"59547","city":"Zurich","state":"MT","lat":48.5844,"long":-109.0304},{"zip":"59641","city":"Radersburg","state":"MT","lat":46.2069,"long":-111.6344},{"zip":"59643","city":"Toston","state":"MT","lat":46.1709,"long":-111.5899},{"zip":"59644","city":"Townsend","state":"MT","lat":46.3346,"long":-111.4919},{"zip":"59647","city":"Winston","state":"MT","lat":46.4545,"long":-111.651},{"zip":"59007","city":"Bearcreek","state":"MT","lat":45.1608,"long":-109.1571},{"zip":"59008","city":"Belfry","state":"MT","lat":45.0498,"long":-109.0788},{"zip":"59013","city":"Boyd","state":"MT","lat":45.4577,"long":-109.0665},{"zip":"59014","city":"Bridger","state":"MT","lat":45.2857,"long":-108.9082},{"zip":"59026","city":"Edgar","state":"MT","lat":45.4647,"long":-108.8524},{"zip":"59029","city":"Fromberg","state":"MT","lat":45.4027,"long":-108.9057},{"zip":"59041","city":"Joliet","state":"MT","lat":45.4941,"long":-108.9922},{"zip":"59068","city":"Red Lodge","state":"MT","lat":45.1965,"long":-109.2688},{"zip":"59070","city":"Roberts","state":"MT","lat":45.3672,"long":-109.1769},{"zip":"59071","city":"Roscoe","state":"MT","lat":45.268,"long":-109.5658},{"zip":"59311","city":"Alzada","state":"MT","lat":45.1562,"long":-104.2617},{"zip":"59316","city":"Boyes","state":"MT","lat":45.268,"long":-105.0311},{"zip":"59319","city":"Capitol","state":"MT","lat":45.4361,"long":-104.0655},{"zip":"59324","city":"Ekalaka","state":"MT","lat":45.8805,"long":-104.504},{"zip":"59332","city":"Hammond","state":"MT","lat":45.5671,"long":-104.5391},{"zip":"59401","city":"Great Falls","state":"MT","lat":47.5098,"long":-111.2734},{"zip":"59402","city":"Malmstrom Afb","state":"MT","lat":47.5002,"long":-111.3008},{"zip":"59403","city":"Great Falls","state":"MT","lat":47.5002,"long":-111.3008},{"zip":"59404","city":"Great Falls","state":"MT","lat":47.5098,"long":-111.3405},{"zip":"59405","city":"Great Falls","state":"MT","lat":47.495,"long":-111.2502},{"zip":"59406","city":"Great Falls","state":"MT","lat":47.62,"long":-111.2393},{"zip":"59412","city":"Belt","state":"MT","lat":47.3821,"long":-110.9081},{"zip":"59414","city":"Black Eagle","state":"MT","lat":47.5262,"long":-111.2764},{"zip":"59421","city":"Cascade","state":"MT","lat":47.2912,"long":-111.7223},{"zip":"59443","city":"Fort Shaw","state":"MT","lat":47.5055,"long":-111.8103},{"zip":"59463","city":"Monarch","state":"MT","lat":47.0722,"long":-110.871},{"zip":"59465","city":"Neihart","state":"MT","lat":46.9391,"long":-110.7328},{"zip":"59472","city":"Sand Coulee","state":"MT","lat":47.4021,"long":-111.1661},{"zip":"59477","city":"Simms","state":"MT","lat":47.4958,"long":-111.8861},{"zip":"59480","city":"Stockett","state":"MT","lat":47.3217,"long":-111.1287},{"zip":"59483","city":"Sun River","state":"MT","lat":47.481,"long":-111.7242},{"zip":"59485","city":"Ulm","state":"MT","lat":47.3539,"long":-111.5954},{"zip":"59487","city":"Vaughn","state":"MT","lat":47.5624,"long":-111.577},{"zip":"59420","city":"Carter","state":"MT","lat":47.781,"long":-110.9786},{"zip":"59440","city":"Floweree","state":"MT","lat":47.6584,"long":-111.1214},{"zip":"59442","city":"Fort Benton","state":"MT","lat":47.924,"long":-110.6052},{"zip":"59446","city":"Geraldine","state":"MT","lat":47.6024,"long":-110.2765},{"zip":"59450","city":"Highwood","state":"MT","lat":47.5816,"long":-110.7887},{"zip":"59460","city":"Loma","state":"MT","lat":47.9546,"long":-110.4995},{"zip":"59520","city":"Big Sandy","state":"MT","lat":48.1497,"long":-110.0776},{"zip":"59301","city":"Miles City","state":"MT","lat":46.4075,"long":-105.8332},{"zip":"59336","city":"Ismay","state":"MT","lat":46.4132,"long":-105.2091},{"zip":"59338","city":"Kinsey","state":"MT","lat":46.5708,"long":-105.6569},{"zip":"59351","city":"Volborg","state":"MT","lat":45.8428,"long":-105.6811},{"zip":"59222","city":"Flaxville","state":"MT","lat":48.7472,"long":-105.1637},{"zip":"59253","city":"Peerless","state":"MT","lat":48.7808,"long":-105.8006},{"zip":"59263","city":"Scobey","state":"MT","lat":48.7854,"long":-105.417},{"zip":"59276","city":"Whitetail","state":"MT","lat":48.8956,"long":-105.1617},{"zip":"59259","city":"Richey","state":"MT","lat":47.6229,"long":-105.017},{"zip":"59315","city":"Bloomfield","state":"MT","lat":47.41,"long":-104.9596},{"zip":"59330","city":"Glendive","state":"MT","lat":47.1008,"long":-104.7287},{"zip":"59339","city":"Lindsay","state":"MT","lat":47.2024,"long":-105.2089},{"zip":"59711","city":"Anaconda","state":"MT","lat":46.1299,"long":-112.9739},{"zip":"59756","city":"Warm Springs","state":"MT","lat":46.2183,"long":-112.8117},{"zip":"59313","city":"Baker","state":"MT","lat":46.3552,"long":-104.2667},{"zip":"59344","city":"Plevna","state":"MT","lat":46.4112,"long":-104.5713},{"zip":"59354","city":"Willard","state":"MT","lat":46.1141,"long":-104.4467},{"zip":"59032","city":"Grass Range","state":"MT","lat":47.0259,"long":-108.8271},{"zip":"59418","city":"Buffalo","state":"MT","lat":46.8211,"long":-109.8285},{"zip":"59424","city":"Coffee Creek","state":"MT","lat":47.3467,"long":-110.0908},{"zip":"59430","city":"Denton","state":"MT","lat":47.3191,"long":-109.8789},{"zip":"59441","city":"Forest Grove","state":"MT","lat":47.8107,"long":-111.2076},{"zip":"59451","city":"Hilger","state":"MT","lat":47.2539,"long":-109.3599},{"zip":"59457","city":"Lewistown","state":"MT","lat":47.0563,"long":-109.4203},{"zip":"59464","city":"Moore","state":"MT","lat":46.9755,"long":-109.6969},{"zip":"59471","city":"Roy","state":"MT","lat":47.3678,"long":-108.8634},{"zip":"59489","city":"Winifred","state":"MT","lat":47.6408,"long":-109.2364},{"zip":"59901","city":"Kalispell","state":"MT","lat":48.2028,"long":-114.3039},{"zip":"59903","city":"Kalispell","state":"MT","lat":48.2237,"long":-114.4296},{"zip":"59904","city":"Kalispell","state":"MT","lat":48.2404,"long":-114.2561},{"zip":"59911","city":"Bigfork","state":"MT","lat":48.0633,"long":-114.0726},{"zip":"59912","city":"Columbia Falls","state":"MT","lat":48.3534,"long":-114.1784},{"zip":"59913","city":"Coram","state":"MT","lat":48.4342,"long":-114.0584},{"zip":"59916","city":"Essex","state":"MT","lat":48.278,"long":-113.6126},{"zip":"59919","city":"Hungry Horse","state":"MT","lat":48.3858,"long":-114.061},{"zip":"59920","city":"Kila","state":"MT","lat":48.0744,"long":-114.5104},{"zip":"59921","city":"Lake Mc Donald","state":"MT","lat":48.2989,"long":-113.9497},{"zip":"59922","city":"Lakeside","state":"MT","lat":48.0215,"long":-114.2266},{"zip":"59925","city":"Marion","state":"MT","lat":48.0836,"long":-114.7446},{"zip":"59926","city":"Martin City","state":"MT","lat":48.3916,"long":-114.0382},{"zip":"59927","city":"Olney","state":"MT","lat":48.5455,"long":-114.592},{"zip":"59928","city":"Polebridge","state":"MT","lat":48.8206,"long":-114.3836},{"zip":"59932","city":"Somers","state":"MT","lat":48.0793,"long":-114.2355},{"zip":"59936","city":"West Glacier","state":"MT","lat":48.5,"long":-113.9787},{"zip":"59937","city":"Whitefish","state":"MT","lat":48.404,"long":-114.3509},{"zip":"59714","city":"Belgrade","state":"MT","lat":45.7801,"long":-111.1439},{"zip":"59715","city":"Bozeman","state":"MT","lat":45.6693,"long":-111.0431},{"zip":"59716","city":"Big Sky","state":"MT","lat":45.2847,"long":-111.3683},{"zip":"59717","city":"Bozeman","state":"MT","lat":45.628,"long":-110.9013},{"zip":"59718","city":"Bozeman","state":"MT","lat":45.6681,"long":-111.2404},{"zip":"59719","city":"Bozeman","state":"MT","lat":45.628,"long":-110.9013},{"zip":"59730","city":"Gallatin Gateway","state":"MT","lat":45.339,"long":-111.2485},{"zip":"59741","city":"Manhattan","state":"MT","lat":45.798,"long":-111.3146},{"zip":"59752","city":"Three Forks","state":"MT","lat":45.8811,"long":-111.5436},{"zip":"59758","city":"West Yellowstone","state":"MT","lat":44.6621,"long":-111.1041},{"zip":"59760","city":"Willow Creek","state":"MT","lat":45.7827,"long":-111.6345},{"zip":"59771","city":"Bozeman","state":"MT","lat":45.7246,"long":-111.1238},{"zip":"59772","city":"Bozeman","state":"MT","lat":45.6361,"long":-111.0647},{"zip":"59058","city":"Mosby","state":"MT","lat":46.9005,"long":-107.7891},{"zip":"59077","city":"Sand Springs","state":"MT","lat":47.1008,"long":-107.4856},{"zip":"59318","city":"Brusett","state":"MT","lat":47.3423,"long":-107.5999},{"zip":"59322","city":"Cohagen","state":"MT","lat":47.1263,"long":-106.4981},{"zip":"59337","city":"Jordan","state":"MT","lat":47.3208,"long":-106.9101},{"zip":"59411","city":"Babb","state":"MT","lat":48.8788,"long":-113.3681},{"zip":"59417","city":"Browning","state":"MT","lat":48.5569,"long":-113.0134},{"zip":"59427","city":"Cut Bank","state":"MT","lat":48.6603,"long":-112.3654},{"zip":"59434","city":"East Glacier Park","state":"MT","lat":48.4457,"long":-113.219},{"zip":"59046","city":"Lavina","state":"MT","lat":46.3291,"long":-108.9959},{"zip":"59074","city":"Ryegate","state":"MT","lat":46.2724,"long":-109.2761},{"zip":"59832","city":"Drummond","state":"MT","lat":46.6647,"long":-113.2426},{"zip":"59837","city":"Hall","state":"MT","lat":46.5825,"long":-113.2087},{"zip":"59858","city":"Philipsburg","state":"MT","lat":46.3189,"long":-113.3126},{"zip":"59501","city":"Havre","state":"MT","lat":48.5561,"long":-109.688},{"zip":"59521","city":"Box Elder","state":"MT","lat":48.2841,"long":-109.8205},{"zip":"59525","city":"Gildford","state":"MT","lat":48.5927,"long":-110.2836},{"zip":"59528","city":"Hingham","state":"MT","lat":48.587,"long":-110.4275},{"zip":"59530","city":"Inverness","state":"MT","lat":48.593,"long":-110.688},{"zip":"59532","city":"Kremlin","state":"MT","lat":48.56,"long":-110.0513},{"zip":"59540","city":"Rudyard","state":"MT","lat":48.586,"long":-110.5552},{"zip":"59631","city":"Basin","state":"MT","lat":46.3296,"long":-112.1967},{"zip":"59632","city":"Boulder","state":"MT","lat":46.2306,"long":-112.1138},{"zip":"59634","city":"Clancy","state":"MT","lat":46.4652,"long":-111.9864},{"zip":"59638","city":"Jefferson City","state":"MT","lat":46.3679,"long":-112.0232},{"zip":"59721","city":"Cardwell","state":"MT","lat":45.8941,"long":-111.7809},{"zip":"59759","city":"Whitehall","state":"MT","lat":45.8771,"long":-112.1245},{"zip":"59447","city":"Geyser","state":"MT","lat":47.2598,"long":-110.4839},{"zip":"59452","city":"Hobson","state":"MT","lat":46.9968,"long":-109.8756},{"zip":"59462","city":"Moccasin","state":"MT","lat":47.0916,"long":-109.8901},{"zip":"59469","city":"Raynesford","state":"MT","lat":47.2604,"long":-110.7047},{"zip":"59479","city":"Stanford","state":"MT","lat":47.1489,"long":-110.1961},{"zip":"59821","city":"Arlee","state":"MT","lat":47.186,"long":-114.076},{"zip":"59824","city":"Charlo","state":"MT","lat":47.4385,"long":-114.1723},{"zip":"59855","city":"Pablo","state":"MT","lat":47.6002,"long":-114.119},{"zip":"59860","city":"Polson","state":"MT","lat":47.6876,"long":-114.1404},{"zip":"59863","city":"Ravalli","state":"MT","lat":47.2772,"long":-114.1807},{"zip":"59864","city":"Ronan","state":"MT","lat":47.5525,"long":-114.1054},{"zip":"59865","city":"Saint Ignatius","state":"MT","lat":47.33,"long":-114.0758},{"zip":"59910","city":"Big Arm","state":"MT","lat":47.7952,"long":-114.302},{"zip":"59914","city":"Dayton","state":"MT","lat":47.8607,"long":-114.2809},{"zip":"59915","city":"Elmo","state":"MT","lat":47.8305,"long":-114.3496},{"zip":"59929","city":"Proctor","state":"MT","lat":47.9404,"long":-114.3832},{"zip":"59931","city":"Rollins","state":"MT","lat":47.9182,"long":-114.225},{"zip":"59410","city":"Augusta","state":"MT","lat":47.4537,"long":-112.3883},{"zip":"59601","city":"Helena","state":"MT","lat":46.6131,"long":-112.0213},{"zip":"59602","city":"Helena","state":"MT","lat":46.7074,"long":-111.958},{"zip":"59604","city":"Helena","state":"MT","lat":46.6672,"long":-111.9689},{"zip":"59620","city":"Helena","state":"MT","lat":46.5927,"long":-112.0361},{"zip":"59623","city":"Helena","state":"MT","lat":46.5901,"long":-112.0402},{"zip":"59624","city":"Helena","state":"MT","lat":46.5927,"long":-112.0361},{"zip":"59625","city":"Helena","state":"MT","lat":46.6018,"long":-112.0413},{"zip":"59626","city":"Helena","state":"MT","lat":46.5927,"long":-112.0361},{"zip":"59633","city":"Canyon Creek","state":"MT","lat":46.7627,"long":-112.2795},{"zip":"59635","city":"East Helena","state":"MT","lat":46.5973,"long":-111.9051},{"zip":"59636","city":"Fort Harrison","state":"MT","lat":46.6197,"long":-112.1099},{"zip":"59639","city":"Lincoln","state":"MT","lat":46.9575,"long":-112.6651},{"zip":"59640","city":"Marysville","state":"MT","lat":46.7499,"long":-112.2994},{"zip":"59648","city":"Wolf Creek","state":"MT","lat":47.0856,"long":-112.1476},{"zip":"59522","city":"Chester","state":"MT","lat":48.4541,"long":-110.9798},{"zip":"59531","city":"Joplin","state":"MT","lat":48.6498,"long":-110.7914},{"zip":"59545","city":"Whitlash","state":"MT","lat":48.911,"long":-111.1075},{"zip":"59917","city":"Eureka","state":"MT","lat":48.8428,"long":-115.0049},{"zip":"59918","city":"Fortine","state":"MT","lat":48.7586,"long":-114.8809},{"zip":"59923","city":"Libby","state":"MT","lat":48.3773,"long":-115.5391},{"zip":"59930","city":"Rexford","state":"MT","lat":48.9179,"long":-115.2129},{"zip":"59933","city":"Stryker","state":"MT","lat":48.6741,"long":-114.7702},{"zip":"59934","city":"Trego","state":"MT","lat":48.7052,"long":-114.8693},{"zip":"59935","city":"Troy","state":"MT","lat":48.4791,"long":-115.8817},{"zip":"59214","city":"Brockway","state":"MT","lat":47.2485,"long":-105.7776},{"zip":"59215","city":"Circle","state":"MT","lat":47.4264,"long":-105.6148},{"zip":"59274","city":"Vida","state":"MT","lat":47.832,"long":-105.493},{"zip":"59710","city":"Alder","state":"MT","lat":45.1939,"long":-112.0568},{"zip":"59720","city":"Cameron","state":"MT","lat":45.139,"long":-111.6508},{"zip":"59729","city":"Ennis","state":"MT","lat":45.3545,"long":-111.687},{"zip":"59735","city":"Harrison","state":"MT","lat":45.7423,"long":-111.8461},{"zip":"59740","city":"Mc Allister","state":"MT","lat":45.408,"long":-111.7761},{"zip":"59745","city":"Norris","state":"MT","lat":45.5323,"long":-111.6943},{"zip":"59747","city":"Pony","state":"MT","lat":45.6585,"long":-111.8944},{"zip":"59749","city":"Sheridan","state":"MT","lat":45.423,"long":-112.1735},{"zip":"59751","city":"Silver Star","state":"MT","lat":45.7,"long":-112.2535},{"zip":"59754","city":"Twin Bridges","state":"MT","lat":45.5311,"long":-112.3495},{"zip":"59755","city":"Virginia City","state":"MT","lat":45.2938,"long":-111.9461},{"zip":"59053","city":"Martinsdale","state":"MT","lat":46.4581,"long":-110.4324},{"zip":"59642","city":"Ringling","state":"MT","lat":46.2716,"long":-110.8072},{"zip":"59645","city":"White Sulphur Springs","state":"MT","lat":46.6332,"long":-111.0506},{"zip":"59820","city":"Alberton","state":"MT","lat":46.9806,"long":-114.4921},{"zip":"59830","city":"De Borgia","state":"MT","lat":47.3888,"long":-115.3479},{"zip":"59842","city":"Haugan","state":"MT","lat":47.3833,"long":-115.3996},{"zip":"59866","city":"Saint Regis","state":"MT","lat":47.3369,"long":-115.1703},{"zip":"59867","city":"Saltese","state":"MT","lat":47.4102,"long":-115.5096},{"zip":"59872","city":"Superior","state":"MT","lat":47.1721,"long":-114.8885},{"zip":"59801","city":"Missoula","state":"MT","lat":46.8563,"long":-114.0252},{"zip":"59802","city":"Missoula","state":"MT","lat":46.9006,"long":-114.0027},{"zip":"59803","city":"Missoula","state":"MT","lat":46.8224,"long":-114.0265},{"zip":"59804","city":"Missoula","state":"MT","lat":46.8467,"long":-114.1698},{"zip":"59806","city":"Missoula","state":"MT","lat":46.8721,"long":-113.994},{"zip":"59807","city":"Missoula","state":"MT","lat":46.9103,"long":-113.9587},{"zip":"59808","city":"Missoula","state":"MT","lat":46.9776,"long":-114.0619},{"zip":"59812","city":"Missoula","state":"MT","lat":46.8721,"long":-113.994},{"zip":"59823","city":"Bonner","state":"MT","lat":46.8733,"long":-113.8645},{"zip":"59825","city":"Clinton","state":"MT","lat":46.7673,"long":-113.7038},{"zip":"59826","city":"Condon","state":"MT","lat":47.5097,"long":-113.7075},{"zip":"59834","city":"Frenchtown","state":"MT","lat":47.0471,"long":-114.2683},{"zip":"59846","city":"Huson","state":"MT","lat":47.066,"long":-114.4219},{"zip":"59847","city":"Lolo","state":"MT","lat":46.7585,"long":-114.1097},{"zip":"59851","city":"Milltown","state":"MT","lat":46.8737,"long":-113.8783},{"zip":"59868","city":"Seeley Lake","state":"MT","lat":47.1789,"long":-113.481},{"zip":"59054","city":"Melstone","state":"MT","lat":46.5986,"long":-107.8692},{"zip":"59059","city":"Musselshell","state":"MT","lat":46.5186,"long":-108.0912},{"zip":"59072","city":"Roundup","state":"MT","lat":46.4225,"long":-108.5438},{"zip":"59073","city":"Roundup","state":"MT","lat":46.4452,"long":-108.5418},{"zip":"59018","city":"Clyde Park","state":"MT","lat":45.8341,"long":-110.6222},{"zip":"59020","city":"Cooke City","state":"MT","lat":45.0234,"long":-109.907},{"zip":"59027","city":"Emigrant","state":"MT","lat":45.2708,"long":-110.7921},{"zip":"59030","city":"Gardiner","state":"MT","lat":45.0849,"long":-110.5715},{"zip":"59047","city":"Livingston","state":"MT","lat":45.6546,"long":-110.5609},{"zip":"59065","city":"Pray","state":"MT","lat":45.3331,"long":-110.7137},{"zip":"59081","city":"Silver Gate","state":"MT","lat":45.0046,"long":-109.9854},{"zip":"59082","city":"Springdale","state":"MT","lat":45.7383,"long":-110.2271},{"zip":"59086","city":"Wilsall","state":"MT","lat":45.9484,"long":-110.6061},{"zip":"59084","city":"Teigen","state":"MT","lat":47.0366,"long":-108.5968},{"zip":"59087","city":"Winnett","state":"MT","lat":46.9438,"long":-108.3184},{"zip":"59261","city":"Saco","state":"MT","lat":48.6389,"long":-107.4293},{"zip":"59524","city":"Dodson","state":"MT","lat":48.395,"long":-108.2465},{"zip":"59537","city":"Loring","state":"MT","lat":48.7983,"long":-107.8686},{"zip":"59538","city":"Malta","state":"MT","lat":48.3692,"long":-107.8408},{"zip":"59544","city":"Whitewater","state":"MT","lat":48.7595,"long":-107.6276},{"zip":"59546","city":"Zortman","state":"MT","lat":47.7698,"long":-108.592},{"zip":"59416","city":"Brady","state":"MT","lat":48.0312,"long":-111.755},{"zip":"59425","city":"Conrad","state":"MT","lat":48.1783,"long":-111.9397},{"zip":"59432","city":"Dupuyer","state":"MT","lat":48.1925,"long":-112.4995},{"zip":"59448","city":"Heart Butte","state":"MT","lat":48.2777,"long":-112.8456},{"zip":"59456","city":"Ledger","state":"MT","lat":48.2643,"long":-111.3886},{"zip":"59486","city":"Valier","state":"MT","lat":48.2795,"long":-112.3033},{"zip":"59062","city":"Otter","state":"MT","lat":45.0903,"long":-106.1499},{"zip":"59314","city":"Biddle","state":"MT","lat":45.0994,"long":-105.3383},{"zip":"59317","city":"Broadus","state":"MT","lat":45.2572,"long":-105.2568},{"zip":"59343","city":"Olive","state":"MT","lat":45.5506,"long":-105.528},{"zip":"59345","city":"Powderville","state":"MT","lat":45.7589,"long":-105.1153},{"zip":"59713","city":"Avon","state":"MT","lat":46.5972,"long":-112.602},{"zip":"59722","city":"Deer Lodge","state":"MT","lat":46.3881,"long":-112.7476},{"zip":"59728","city":"Elliston","state":"MT","lat":46.5034,"long":-112.4007},{"zip":"59731","city":"Garrison","state":"MT","lat":46.5948,"long":-112.7756},{"zip":"59733","city":"Gold Creek","state":"MT","lat":46.59,"long":-112.9706},{"zip":"59843","city":"Helmville","state":"MT","lat":46.83,"long":-112.9413},{"zip":"59854","city":"Ovando","state":"MT","lat":47.0067,"long":-113.0905},{"zip":"59326","city":"Fallon","state":"MT","lat":46.7866,"long":-105.1161},{"zip":"59341","city":"Mildred","state":"MT","lat":46.6758,"long":-104.96},{"zip":"59349","city":"Terry","state":"MT","lat":46.829,"long":-105.3706},{"zip":"59827","city":"Conner","state":"MT","lat":45.919,"long":-114.059},{"zip":"59828","city":"Corvallis","state":"MT","lat":46.3142,"long":-114.096},{"zip":"59829","city":"Darby","state":"MT","lat":46.028,"long":-114.1938},{"zip":"59833","city":"Florence","state":"MT","lat":46.631,"long":-114.0945},{"zip":"59835","city":"Grantsdale","state":"MT","lat":46.2035,"long":-114.1418},{"zip":"59840","city":"Hamilton","state":"MT","lat":46.2395,"long":-114.1679},{"zip":"59841","city":"Pinesdale","state":"MT","lat":46.3329,"long":-114.2235},{"zip":"59870","city":"Stevensville","state":"MT","lat":46.5267,"long":-114.0478},{"zip":"59871","city":"Sula","state":"MT","lat":45.8433,"long":-113.8748},{"zip":"59875","city":"Victor","state":"MT","lat":46.4005,"long":-114.1665},{"zip":"59217","city":"Crane","state":"MT","lat":47.5758,"long":-104.2624},{"zip":"59221","city":"Fairview","state":"MT","lat":47.8916,"long":-104.2302},{"zip":"59243","city":"Lambert","state":"MT","lat":47.7459,"long":-104.5987},{"zip":"59262","city":"Savage","state":"MT","lat":47.5194,"long":-104.2845},{"zip":"59270","city":"Sidney","state":"MT","lat":47.713,"long":-104.1634},{"zip":"59201","city":"Wolf Point","state":"MT","lat":48.1119,"long":-105.6293},{"zip":"59212","city":"Bainville","state":"MT","lat":48.158,"long":-104.1995},{"zip":"59213","city":"Brockton","state":"MT","lat":48.2101,"long":-104.8548},{"zip":"59218","city":"Culbertson","state":"MT","lat":48.1495,"long":-104.5132},{"zip":"59226","city":"Froid","state":"MT","lat":48.3345,"long":-104.4961},{"zip":"59242","city":"Homestead","state":"MT","lat":48.435,"long":-104.4389},{"zip":"59255","city":"Poplar","state":"MT","lat":48.1307,"long":-105.187},{"zip":"59003","city":"Ashland","state":"MT","lat":45.5827,"long":-106.2797},{"zip":"59004","city":"Ashland","state":"MT","lat":45.5944,"long":-106.2708},{"zip":"59012","city":"Birney","state":"MT","lat":45.2862,"long":-106.5095},{"zip":"59039","city":"Ingomar","state":"MT","lat":46.5767,"long":-107.3723},{"zip":"59043","city":"Lame Deer","state":"MT","lat":45.6032,"long":-106.5654},{"zip":"59083","city":"Sumatra","state":"MT","lat":46.6183,"long":-107.5512},{"zip":"59312","city":"Angela","state":"MT","lat":46.73,"long":-106.2011},{"zip":"59323","city":"Colstrip","state":"MT","lat":45.9344,"long":-106.6368},{"zip":"59327","city":"Forsyth","state":"MT","lat":46.2819,"long":-106.6991},{"zip":"59333","city":"Hathaway","state":"MT","lat":46.2761,"long":-106.1967},{"zip":"59347","city":"Rosebud","state":"MT","lat":46.4352,"long":-106.352},{"zip":"59831","city":"Dixon","state":"MT","lat":47.3131,"long":-114.3056},{"zip":"59844","city":"Heron","state":"MT","lat":48.0537,"long":-115.9407},{"zip":"59845","city":"Hot Springs","state":"MT","lat":47.5914,"long":-114.6597},{"zip":"59848","city":"Lonepine","state":"MT","lat":47.7251,"long":-114.657},{"zip":"59853","city":"Noxon","state":"MT","lat":48.0768,"long":-115.8582},{"zip":"59856","city":"Paradise","state":"MT","lat":47.3878,"long":-114.799},{"zip":"59859","city":"Plains","state":"MT","lat":47.4734,"long":-114.893},{"zip":"59873","city":"Thompson Falls","state":"MT","lat":47.6016,"long":-115.3602},{"zip":"59874","city":"Trout Creek","state":"MT","lat":47.8111,"long":-115.5592},{"zip":"59211","city":"Antelope","state":"MT","lat":48.6968,"long":-104.4529},{"zip":"59219","city":"Dagmar","state":"MT","lat":48.6093,"long":-104.2401},{"zip":"59247","city":"Medicine Lake","state":"MT","lat":48.4852,"long":-104.4375},{"zip":"59252","city":"Outlook","state":"MT","lat":48.8817,"long":-104.7415},{"zip":"59254","city":"Plentywood","state":"MT","lat":48.7788,"long":-104.56},{"zip":"59256","city":"Raymond","state":"MT","lat":48.8764,"long":-104.5802},{"zip":"59257","city":"Redstone","state":"MT","lat":48.728,"long":-104.9402},{"zip":"59258","city":"Reserve","state":"MT","lat":48.5905,"long":-104.6279},{"zip":"59275","city":"Westby","state":"MT","lat":48.8587,"long":-104.1247},{"zip":"59701","city":"Butte","state":"MT","lat":45.9979,"long":-112.5988},{"zip":"59702","city":"Butte","state":"MT","lat":45.9053,"long":-112.6377},{"zip":"59703","city":"Butte","state":"MT","lat":45.9053,"long":-112.6377},{"zip":"59707","city":"Butte","state":"MT","lat":46.0038,"long":-112.5347},{"zip":"59727","city":"Divide","state":"MT","lat":45.803,"long":-112.809},{"zip":"59743","city":"Melrose","state":"MT","lat":45.6319,"long":-112.6845},{"zip":"59748","city":"Ramsay","state":"MT","lat":46.0058,"long":-112.6861},{"zip":"59750","city":"Butte","state":"MT","lat":46.0033,"long":-112.7159},{"zip":"59001","city":"Absarokee","state":"MT","lat":45.5154,"long":-109.4692},{"zip":"59019","city":"Columbus","state":"MT","lat":45.6262,"long":-109.2571},{"zip":"59028","city":"Fishtail","state":"MT","lat":45.4002,"long":-109.5821},{"zip":"59057","city":"Molt","state":"MT","lat":45.8615,"long":-108.9731},{"zip":"59061","city":"Nye","state":"MT","lat":45.441,"long":-109.8271},{"zip":"59063","city":"Park City","state":"MT","lat":45.6329,"long":-108.9293},{"zip":"59067","city":"Rapelje","state":"MT","lat":45.9795,"long":-109.2761},{"zip":"59069","city":"Reed Point","state":"MT","lat":45.7439,"long":-109.5224},{"zip":"59011","city":"Big Timber","state":"MT","lat":45.8283,"long":-109.9631},{"zip":"59033","city":"Greycliff","state":"MT","lat":45.7633,"long":-109.7846},{"zip":"59052","city":"Mc Leod","state":"MT","lat":45.5963,"long":-109.9357},{"zip":"59055","city":"Melville","state":"MT","lat":46.104,"long":-109.7808},{"zip":"59419","city":"Bynum","state":"MT","lat":47.99,"long":-112.2762},{"zip":"59422","city":"Choteau","state":"MT","lat":47.838,"long":-112.2021},{"zip":"59433","city":"Dutton","state":"MT","lat":47.8601,"long":-111.69},{"zip":"59436","city":"Fairfield","state":"MT","lat":47.6143,"long":-112.0015},{"zip":"59467","city":"Pendroy","state":"MT","lat":48.0879,"long":-112.3261},{"zip":"59468","city":"Power","state":"MT","lat":47.6798,"long":-111.7169},{"zip":"59435","city":"Ethridge","state":"MT","lat":48.5578,"long":-112.1206},{"zip":"59444","city":"Galata","state":"MT","lat":48.8111,"long":-111.4704},{"zip":"59454","city":"Kevin","state":"MT","lat":48.7508,"long":-111.9708},{"zip":"59461","city":"Lothair","state":"MT","lat":48.4717,"long":-111.2322},{"zip":"59466","city":"Oilmont","state":"MT","lat":48.74,"long":-111.8409},{"zip":"59474","city":"Shelby","state":"MT","lat":48.5037,"long":-111.8391},{"zip":"59482","city":"Sunburst","state":"MT","lat":48.8516,"long":-111.7442},{"zip":"59484","city":"Sweet Grass","state":"MT","lat":48.9961,"long":-111.9606},{"zip":"59010","city":"Bighorn","state":"MT","lat":45.997,"long":-107.31},{"zip":"59038","city":"Hysham","state":"MT","lat":46.2765,"long":-107.3072},{"zip":"59076","city":"Sanders","state":"MT","lat":46.2914,"long":-107.0967},{"zip":"59223","city":"Fort Peck","state":"MT","lat":48.0196,"long":-106.447},{"zip":"59225","city":"Frazer","state":"MT","lat":48.2959,"long":-106.0324},{"zip":"59230","city":"Glasgow","state":"MT","lat":48.2034,"long":-106.6094},{"zip":"59231","city":"Saint Marie","state":"MT","lat":48.4039,"long":-106.5428},{"zip":"59240","city":"Glentana","state":"MT","lat":48.8481,"long":-106.2495},{"zip":"59241","city":"Hinsdale","state":"MT","lat":48.4007,"long":-107.0098},{"zip":"59244","city":"Larslan","state":"MT","lat":48.5822,"long":-106.2835},{"zip":"59248","city":"Nashua","state":"MT","lat":48.1322,"long":-106.3564},{"zip":"59250","city":"Opheim","state":"MT","lat":48.8702,"long":-106.3658},{"zip":"59260","city":"Richland","state":"MT","lat":48.6507,"long":-106.1192},{"zip":"59273","city":"Vandalia","state":"MT","lat":48.3547,"long":-106.9098},{"zip":"59036","city":"Harlowton","state":"MT","lat":46.4477,"long":-109.8435},{"zip":"59078","city":"Shawmut","state":"MT","lat":46.3869,"long":-109.5974},{"zip":"59085","city":"Two Dot","state":"MT","lat":46.4242,"long":-110.0712},{"zip":"59453","city":"Judith Gap","state":"MT","lat":46.6623,"long":-109.6755},{"zip":"59353","city":"Wibaux","state":"MT","lat":46.9646,"long":-104.1897},{"zip":"59002","city":"Acton","state":"MT","lat":45.9291,"long":-108.6888},{"zip":"59006","city":"Ballantine","state":"MT","lat":45.9547,"long":-108.1231},{"zip":"59015","city":"Broadview","state":"MT","lat":46.0821,"long":-108.8091},{"zip":"59024","city":"Custer","state":"MT","lat":46.1302,"long":-107.5958},{"zip":"59037","city":"Huntley","state":"MT","lat":45.8905,"long":-108.285},{"zip":"59044","city":"Laurel","state":"MT","lat":45.6745,"long":-108.769},{"zip":"59064","city":"Pompeys Pillar","state":"MT","lat":45.9838,"long":-107.9154},{"zip":"59079","city":"Shepherd","state":"MT","lat":45.9461,"long":-108.3426},{"zip":"59088","city":"Worden","state":"MT","lat":45.9779,"long":-108.1533},{"zip":"59101","city":"Billings","state":"MT","lat":45.7745,"long":-108.5005},{"zip":"59102","city":"Billings","state":"MT","lat":45.7813,"long":-108.5727},{"zip":"59103","city":"Billings","state":"MT","lat":45.7833,"long":-108.5007},{"zip":"59104","city":"Billings","state":"MT","lat":45.7833,"long":-108.5007},{"zip":"59105","city":"Billings","state":"MT","lat":45.9497,"long":-108.599},{"zip":"59106","city":"Billings","state":"MT","lat":45.7753,"long":-108.6519},{"zip":"59107","city":"Billings","state":"MT","lat":45.8252,"long":-108.3934},{"zip":"59108","city":"Billings","state":"MT","lat":45.7833,"long":-108.5007},{"zip":"59111","city":"Billings","state":"MT","lat":45.7833,"long":-108.5007},{"zip":"59112","city":"Billings","state":"MT","lat":45.7833,"long":-108.5007},{"zip":"59114","city":"Billings","state":"MT","lat":45.7833,"long":-108.5007},{"zip":"59115","city":"Billings","state":"MT","lat":45.7833,"long":-108.5007},{"zip":"59116","city":"Billings","state":"MT","lat":45.7833,"long":-108.5007},{"zip":"59117","city":"Billings","state":"MT","lat":45.7833,"long":-108.5007}]
