[{"zip":"59016","city":"Busby","state":"MT","lat":45.5541,"long":-106.8723},{"zip":"59022","city":"Crow Agency","state":"MT","lat":45.6296,"long":-107.4973},{"zip":"59025","city":"Decker","state":"MT","lat":45.1797,"long":-106.8721},{"zip":"59031","city":"Garryowen","state":"MT","lat":45.5187,"long":-107.4817},{"zip":"59034","city":"Hardin","state":"MT","lat":45.7498,"long":-107.6075},{"zip":"59035","city":"Fort Smith","state":"MT","lat":45.3127,"long":-107.9371},{"zip":"59050","city":"Lodge Grass","state":"MT","lat":45.3166,"long":-107.3675},{"zip":"59066","city":"Pryor","state":"MT","lat":45.4297,"long":-108.5332},{"zip":"59075","city":"Saint Xavier","state":"MT","lat":45.3985,"long":-107.8893},{"zip":"59089","city":"Wyola","state":"MT","lat":45.1089,"long":-107.4303},{"zip":"59007","city":"Bearcreek","state":"MT","lat":45.1608,"long":-109.1571},{"zip":"59008","city":"Belfry","state":"MT","lat":45.0498,"long":-109.0788},{"zip":"59013","city":"Boyd","state":"MT","lat":45.4577,"long":-109.0665},{"zip":"59014","city":"Bridger","state":"MT","lat":45.2857,"long":-108.9082},{"zip":"59026","city":"Edgar","state":"MT","lat":45.4647,"long":-108.8524},{"zip":"59029","city":"Fromberg","state":"MT","lat":45.4027,"long":-108.9057},{"zip":"59041","city":"Joliet","state":"MT","lat":45.4941,"long":-108.9922},{"zip":"59068","city":"Red Lodge","state":"MT","lat":45.1965,"long":-109.2688},{"zip":"59070","city":"Roberts","state":"MT","lat":45.3672,"long":-109.1769},{"zip":"59071","city":"Roscoe","state":"MT","lat":45.268,"long":-109.5658},{"zip":"59032","city":"Grass Range","state":"MT","lat":47.0259,"long":-108.8271},{"zip":"59058","city":"Mosby","state":"MT","lat":46.9005,"long":-107.7891},{"zip":"59077","city":"Sand Springs","state":"MT","lat":47.1008,"long":-107.4856},{"zip":"59046","city":"Lavina","state":"MT","lat":46.3291,"long":-108.9959},{"zip":"59074","city":"Ryegate","state":"MT","lat":46.2724,"long":-109.2761},{"zip":"59053","city":"Martinsdale","state":"MT","lat":46.4581,"long":-110.4324},{"zip":"59054","city":"Melstone","state":"MT","lat":46.5986,"long":-107.8692},{"zip":"59059","city":"Musselshell","state":"MT","lat":46.5186,"long":-108.0912},{"zip":"59072","city":"Roundup","state":"MT","lat":46.4225,"long":-108.5438},{"zip":"59073","city":"Roundup","state":"MT","lat":46.4452,"long":-108.5418},{"zip":"59018","city":"Clyde Park","state":"MT","lat":45.8341,"long":-110.6222},{"zip":"59020","city":"Cooke City","state":"MT","lat":45.0234,"long":-109.907},{"zip":"59027","city":"Emigrant","state":"MT","lat":45.2708,"long":-110.7921},{"zip":"59030","city":"Gardiner","state":"MT","lat":45.0849,"long":-110.5715},{"zip":"59047","city":"Livingston","state":"MT","lat":45.6546,"long":-110.5609},{"zip":"59065","city":"Pray","state":"MT","lat":45.3331,"long":-110.7137},{"zip":"59081","city":"Silver Gate","state":"MT","lat":45.0046,"long":-109.9854},{"zip":"59082","city":"Springdale","state":"MT","lat":45.7383,"long":-110.2271},{"zip":"59086","city":"Wilsall","state":"MT","lat":45.9484,"long":-110.6061},{"zip":"59084","city":"Teigen","state":"MT","lat":47.0366,"long":-108.5968},{"zip":"59087","city":"Winnett","state":"MT","lat":46.9438,"long":-108.3184},{"zip":"59062","city":"Otter","state":"MT","lat":45.0903,"long":-106.1499},{"zip":"59003","city":"Ashland","state":"MT","lat":45.5827,"long":-106.2797},{"zip":"59004","city":"Ashland","state":"MT","lat":45.5944,"long":-106.2708},{"zip":"59012","city":"Birney","state":"MT","lat":45.2862,"long":-106.5095},{"zip":"59039","city":"Ingomar","state":"MT","lat":46.5767,"long":-107.3723},{"zip":"59043","city":"Lame Deer","state":"MT","lat":45.6032,"long":-106.5654},{"zip":"59083","city":"Sumatra","state":"MT","lat":46.6183,"long":-107.5512},{"zip":"59001","city":"Absarokee","state":"MT","lat":45.5154,"long":-109.4692},{"zip":"59019","city":"Columbus","state":"MT","lat":45.6262,"long":-109.2571},{"zip":"59028","city":"Fishtail","state":"MT","lat":45.4002,"long":-109.5821},{"zip":"59057","city":"Molt","state":"MT","lat":45.8615,"long":-108.9731},{"zip":"59061","city":"Nye","state":"MT","lat":45.441,"long":-109.8271},{"zip":"59063","city":"Park City","state":"MT","lat":45.6329,"long":-108.9293},{"zip":"59067","city":"Rapelje","state":"MT","lat":45.9795,"long":-109.2761},{"zip":"59069","city":"Reed Point","state":"MT","lat":45.7439,"long":-109.5224},{"zip":"59011","city":"Big Timber","state":"MT","lat":45.8283,"long":-109.9631},{"zip":"59033","city":"Greycliff","state":"MT","lat":45.7633,"long":-109.7846},{"zip":"59052","city":"Mc Leod","state":"MT","lat":45.5963,"long":-109.9357},{"zip":"59055","city":"Melville","state":"MT","lat":46.104,"long":-109.7808},{"zip":"59010","city":"Bighorn","state":"MT","lat":45.997,"long":-107.31},{"zip":"59038","city":"Hysham","state":"MT","lat":46.2765,"long":-107.3072},{"zip":"59076","city":"Sanders","state":"MT","lat":46.2914,"long":-107.0967},{"zip":"59036","city":"Harlowton","state":"MT","lat":46.4477,"long":-109.8435},{"zip":"59078","city":"Shawmut","state":"MT","lat":46.3869,"long":-109.5974},{"zip":"59085","city":"Two Dot","state":"MT","lat":46.4242,"long":-110.0712},{"zip":"59002","city":"Acton","state":"MT","lat":45.9291,"long":-108.6888},{"zip":"59006","city":"Ballantine","state":"MT","lat":45.9547,"long":-108.1231},{"zip":"59015","city":"Broadview","state":"MT","lat":46.0821,"long":-108.8091},{"zip":"59024","city":"Custer","state":"MT","lat":46.1302,"long":-107.5958},{"zip":"59037","city":"Huntley","state":"MT","lat":45.8905,"long":-108.285},{"zip":"59044","city":"Laurel","state":"MT","lat":45.6745,"long":-108.769},{"zip":"59064","city":"Pompeys Pillar","state":"MT","lat":45.9838,"long":-107.9154},{"zip":"59079","city":"Shepherd","state":"MT","lat":45.9461,"long":-108.3426},{"zip":"59088","city":"Worden","state":"MT","lat":45.9779,"long":-108.1533}]
