[{"zip":"59101","city":"Billings","state":"MT","lat":45.7745,"long":-108.5005},{"zip":"59102","city":"Billings","state":"MT","lat":45.7813,"long":-108.5727},{"zip":"59103","city":"Billings","state":"MT","lat":45.7833,"long":-108.5007},{"zip":"59104","city":"Billings","state":"MT","lat":45.7833,"long":-108.5007},{"zip":"59105","city":"Billings","state":"MT","lat":45.9497,"long":-108.599},{"zip":"59106","city":"Billings","state":"MT","lat":45.7753,"long":-108.6519},{"zip":"59107","city":"Billings","state":"MT","lat":45.8252,"long":-108.3934},{"zip":"59108","city":"Billings","state":"MT","lat":45.7833,"long":-108.5007},{"zip":"59111","city":"Billings","state":"MT","lat":45.7833,"long":-108.5007},{"zip":"59112","city":"Billings","state":"MT","lat":45.7833,"long":-108.5007},{"zip":"59114","city":"Billings","state":"MT","lat":45.7833,"long":-108.5007},{"zip":"59115","city":"Billings","state":"MT","lat":45.7833,"long":-108.5007},{"zip":"59116","city":"Billings","state":"MT","lat":45.7833,"long":-108.5007},{"zip":"59117","city":"Billings","state":"MT","lat":45.7833,"long":-108.5007}]
