[{"zip":"59222","city":"Flaxville","state":"MT","lat":48.7472,"long":-105.1637},{"zip":"59253","city":"Peerless","state":"MT","lat":48.7808,"long":-105.8006},{"zip":"59263","city":"Scobey","state":"MT","lat":48.7854,"long":-105.417},{"zip":"59276","city":"Whitetail","state":"MT","lat":48.8956,"long":-105.1617},{"zip":"59259","city":"Richey","state":"MT","lat":47.6229,"long":-105.017},{"zip":"59214","city":"Brockway","state":"MT","lat":47.2485,"long":-105.7776},{"zip":"59215","city":"Circle","state":"MT","lat":47.4264,"long":-105.6148},{"zip":"59274","city":"Vida","state":"MT","lat":47.832,"long":-105.493},{"zip":"59261","city":"Saco","state":"MT","lat":48.6389,"long":-107.4293},{"zip":"59217","city":"Crane","state":"MT","lat":47.5758,"long":-104.2624},{"zip":"59221","city":"Fairview","state":"MT","lat":47.8916,"long":-104.2302},{"zip":"59243","city":"Lambert","state":"MT","lat":47.7459,"long":-104.5987},{"zip":"59262","city":"Savage","state":"MT","lat":47.5194,"long":-104.2845},{"zip":"59270","city":"Sidney","state":"MT","lat":47.713,"long":-104.1634},{"zip":"59201","city":"Wolf Point","state":"MT","lat":48.1119,"long":-105.6293},{"zip":"59212","city":"Bainville","state":"MT","lat":48.158,"long":-104.1995},{"zip":"59213","city":"Brockton","state":"MT","lat":48.2101,"long":-104.8548},{"zip":"59218","city":"Culbertson","state":"MT","lat":48.1495,"long":-104.5132},{"zip":"59226","city":"Froid","state":"MT","lat":48.3345,"long":-104.4961},{"zip":"59242","city":"Homestead","state":"MT","lat":48.435,"long":-104.4389},{"zip":"59255","city":"Poplar","state":"MT","lat":48.1307,"long":-105.187},{"zip":"59211","city":"Antelope","state":"MT","lat":48.6968,"long":-104.4529},{"zip":"59219","city":"Dagmar","state":"MT","lat":48.6093,"long":-104.2401},{"zip":"59247","city":"Medicine Lake","state":"MT","lat":48.4852,"long":-104.4375},{"zip":"59252","city":"Outlook","state":"MT","lat":48.8817,"long":-104.7415},{"zip":"59254","city":"Plentywood","state":"MT","lat":48.7788,"long":-104.56},{"zip":"59256","city":"Raymond","state":"MT","lat":48.8764,"long":-104.5802},{"zip":"59257","city":"Redstone","state":"MT","lat":48.728,"long":-104.9402},{"zip":"59258","city":"Reserve","state":"MT","lat":48.5905,"long":-104.6279},{"zip":"59275","city":"Westby","state":"MT","lat":48.8587,"long":-104.1247},{"zip":"59223","city":"Fort Peck","state":"MT","lat":48.0196,"long":-106.447},{"zip":"59225","city":"Frazer","state":"MT","lat":48.2959,"long":-106.0324},{"zip":"59230","city":"Glasgow","state":"MT","lat":48.2034,"long":-106.6094},{"zip":"59231","city":"Saint Marie","state":"MT","lat":48.4039,"long":-106.5428},{"zip":"59240","city":"Glentana","state":"MT","lat":48.8481,"long":-106.2495},{"zip":"59241","city":"Hinsdale","state":"MT","lat":48.4007,"long":-107.0098},{"zip":"59244","city":"Larslan","state":"MT","lat":48.5822,"long":-106.2835},{"zip":"59248","city":"Nashua","state":"MT","lat":48.1322,"long":-106.3564},{"zip":"59250","city":"Opheim","state":"MT","lat":48.8702,"long":-106.3658},{"zip":"59260","city":"Richland","state":"MT","lat":48.6507,"long":-106.1192},{"zip":"59273","city":"Vandalia","state":"MT","lat":48.3547,"long":-106.9098}]
