[{"zip":"59311","city":"Alzada","state":"MT","lat":45.1562,"long":-104.2617},{"zip":"59316","city":"Boyes","state":"MT","lat":45.268,"long":-105.0311},{"zip":"59319","city":"Capitol","state":"MT","lat":45.4361,"long":-104.0655},{"zip":"59324","city":"Ekalaka","state":"MT","lat":45.8805,"long":-104.504},{"zip":"59332","city":"Hammond","state":"MT","lat":45.5671,"long":-104.5391},{"zip":"59301","city":"Miles City","state":"MT","lat":46.4075,"long":-105.8332},{"zip":"59336","city":"Ismay","state":"MT","lat":46.4132,"long":-105.2091},{"zip":"59338","city":"Kinsey","state":"MT","lat":46.5708,"long":-105.6569},{"zip":"59351","city":"Volborg","state":"MT","lat":45.8428,"long":-105.6811},{"zip":"59315","city":"Bloomfield","state":"MT","lat":47.41,"long":-104.9596},{"zip":"59330","city":"Glendive","state":"MT","lat":47.1008,"long":-104.7287},{"zip":"59339","city":"Lindsay","state":"MT","lat":47.2024,"long":-105.2089},{"zip":"59313","city":"Baker","state":"MT","lat":46.3552,"long":-104.2667},{"zip":"59344","city":"Plevna","state":"MT","lat":46.4112,"long":-104.5713},{"zip":"59354","city":"Willard","state":"MT","lat":46.1141,"long":-104.4467},{"zip":"59318","city":"Brusett","state":"MT","lat":47.3423,"long":-107.5999},{"zip":"59322","city":"Cohagen","state":"MT","lat":47.1263,"long":-106.4981},{"zip":"59337","city":"Jordan","state":"MT","lat":47.3208,"long":-106.9101},{"zip":"59314","city":"Biddle","state":"MT","lat":45.0994,"long":-105.3383},{"zip":"59317","city":"Broadus","state":"MT","lat":45.2572,"long":-105.2568},{"zip":"59343","city":"Olive","state":"MT","lat":45.5506,"long":-105.528},{"zip":"59345","city":"Powderville","state":"MT","lat":45.7589,"long":-105.1153},{"zip":"59326","city":"Fallon","state":"MT","lat":46.7866,"long":-105.1161},{"zip":"59341","city":"Mildred","state":"MT","lat":46.6758,"long":-104.96},{"zip":"59349","city":"Terry","state":"MT","lat":46.829,"long":-105.3706},{"zip":"59312","city":"Angela","state":"MT","lat":46.73,"long":-106.2011},{"zip":"59323","city":"Colstrip","state":"MT","lat":45.9344,"long":-106.6368},{"zip":"59327","city":"Forsyth","state":"MT","lat":46.2819,"long":-106.6991},{"zip":"59333","city":"Hathaway","state":"MT","lat":46.2761,"long":-106.1967},{"zip":"59347","city":"Rosebud","state":"MT","lat":46.4352,"long":-106.352},{"zip":"59353","city":"Wibaux","state":"MT","lat":46.9646,"long":-104.1897}]
