[{"zip":"59401","city":"Great Falls","state":"MT","lat":47.5098,"long":-111.2734},{"zip":"59402","city":"Malmstrom Afb","state":"MT","lat":47.5002,"long":-111.3008},{"zip":"59403","city":"Great Falls","state":"MT","lat":47.5002,"long":-111.3008},{"zip":"59404","city":"Great Falls","state":"MT","lat":47.5098,"long":-111.3405},{"zip":"59405","city":"Great Falls","state":"MT","lat":47.495,"long":-111.2502},{"zip":"59406","city":"Great Falls","state":"MT","lat":47.62,"long":-111.2393},{"zip":"59412","city":"Belt","state":"MT","lat":47.3821,"long":-110.9081},{"zip":"59414","city":"Black Eagle","state":"MT","lat":47.5262,"long":-111.2764},{"zip":"59421","city":"Cascade","state":"MT","lat":47.2912,"long":-111.7223},{"zip":"59443","city":"Fort Shaw","state":"MT","lat":47.5055,"long":-111.8103},{"zip":"59463","city":"Monarch","state":"MT","lat":47.0722,"long":-110.871},{"zip":"59465","city":"Neihart","state":"MT","lat":46.9391,"long":-110.7328},{"zip":"59472","city":"Sand Coulee","state":"MT","lat":47.4021,"long":-111.1661},{"zip":"59477","city":"Simms","state":"MT","lat":47.4958,"long":-111.8861},{"zip":"59480","city":"Stockett","state":"MT","lat":47.3217,"long":-111.1287},{"zip":"59483","city":"Sun River","state":"MT","lat":47.481,"long":-111.7242},{"zip":"59485","city":"Ulm","state":"MT","lat":47.3539,"long":-111.5954},{"zip":"59487","city":"Vaughn","state":"MT","lat":47.5624,"long":-111.577},{"zip":"59420","city":"Carter","state":"MT","lat":47.781,"long":-110.9786},{"zip":"59440","city":"Floweree","state":"MT","lat":47.6584,"long":-111.1214},{"zip":"59442","city":"Fort Benton","state":"MT","lat":47.924,"long":-110.6052},{"zip":"59446","city":"Geraldine","state":"MT","lat":47.6024,"long":-110.2765},{"zip":"59450","city":"Highwood","state":"MT","lat":47.5816,"long":-110.7887},{"zip":"59460","city":"Loma","state":"MT","lat":47.9546,"long":-110.4995},{"zip":"59418","city":"Buffalo","state":"MT","lat":46.8211,"long":-109.8285},{"zip":"59424","city":"Coffee Creek","state":"MT","lat":47.3467,"long":-110.0908},{"zip":"59430","city":"Denton","state":"MT","lat":47.3191,"long":-109.8789},{"zip":"59441","city":"Forest Grove","state":"MT","lat":47.8107,"long":-111.2076},{"zip":"59451","city":"Hilger","state":"MT","lat":47.2539,"long":-109.3599},{"zip":"59457","city":"Lewistown","state":"MT","lat":47.0563,"long":-109.4203},{"zip":"59464","city":"Moore","state":"MT","lat":46.9755,"long":-109.6969},{"zip":"59471","city":"Roy","state":"MT","lat":47.3678,"long":-108.8634},{"zip":"59489","city":"Winifred","state":"MT","lat":47.6408,"long":-109.2364},{"zip":"59411","city":"Babb","state":"MT","lat":48.8788,"long":-113.3681},{"zip":"59417","city":"Browning","state":"MT","lat":48.5569,"long":-113.0134},{"zip":"59427","city":"Cut Bank","state":"MT","lat":48.6603,"long":-112.3654},{"zip":"59434","city":"East Glacier Park","state":"MT","lat":48.4457,"long":-113.219},{"zip":"59447","city":"Geyser","state":"MT","lat":47.2598,"long":-110.4839},{"zip":"59452","city":"Hobson","state":"MT","lat":46.9968,"long":-109.8756},{"zip":"59462","city":"Moccasin","state":"MT","lat":47.0916,"long":-109.8901},{"zip":"59469","city":"Raynesford","state":"MT","lat":47.2604,"long":-110.7047},{"zip":"59479","city":"Stanford","state":"MT","lat":47.1489,"long":-110.1961},{"zip":"59410","city":"Augusta","state":"MT","lat":47.4537,"long":-112.3883},{"zip":"59416","city":"Brady","state":"MT","lat":48.0312,"long":-111.755},{"zip":"59425","city":"Conrad","state":"MT","lat":48.1783,"long":-111.9397},{"zip":"59432","city":"Dupuyer","state":"MT","lat":48.1925,"long":-112.4995},{"zip":"59448","city":"Heart Butte","state":"MT","lat":48.2777,"long":-112.8456},{"zip":"59456","city":"Ledger","state":"MT","lat":48.2643,"long":-111.3886},{"zip":"59486","city":"Valier","state":"MT","lat":48.2795,"long":-112.3033},{"zip":"59419","city":"Bynum","state":"MT","lat":47.99,"long":-112.2762},{"zip":"59422","city":"Choteau","state":"MT","lat":47.838,"long":-112.2021},{"zip":"59433","city":"Dutton","state":"MT","lat":47.8601,"long":-111.69},{"zip":"59436","city":"Fairfield","state":"MT","lat":47.6143,"long":-112.0015},{"zip":"59467","city":"Pendroy","state":"MT","lat":48.0879,"long":-112.3261},{"zip":"59468","city":"Power","state":"MT","lat":47.6798,"long":-111.7169},{"zip":"59435","city":"Ethridge","state":"MT","lat":48.5578,"long":-112.1206},{"zip":"59444","city":"Galata","state":"MT","lat":48.8111,"long":-111.4704},{"zip":"59454","city":"Kevin","state":"MT","lat":48.7508,"long":-111.9708},{"zip":"59461","city":"Lothair","state":"MT","lat":48.4717,"long":-111.2322},{"zip":"59466","city":"Oilmont","state":"MT","lat":48.74,"long":-111.8409},{"zip":"59474","city":"Shelby","state":"MT","lat":48.5037,"long":-111.8391},{"zip":"59482","city":"Sunburst","state":"MT","lat":48.8516,"long":-111.7442},{"zip":"59484","city":"Sweet Grass","state":"MT","lat":48.9961,"long":-111.9606},{"zip":"59453","city":"Judith Gap","state":"MT","lat":46.6623,"long":-109.6755}]
