[{"zip":"59523","city":"Chinook","state":"MT","lat":48.5799,"long":-109.2225},{"zip":"59526","city":"Harlem","state":"MT","lat":48.5398,"long":-108.7693},{"zip":"59527","city":"Hays","state":"MT","lat":47.9892,"long":-108.6943},{"zip":"59529","city":"Hogeland","state":"MT","lat":48.8571,"long":-108.6677},{"zip":"59535","city":"Lloyd","state":"MT","lat":47.9647,"long":-109.2671},{"zip":"59542","city":"Turner","state":"MT","lat":48.8328,"long":-108.3961},{"zip":"59547","city":"Zurich","state":"MT","lat":48.5844,"long":-109.0304},{"zip":"59520","city":"Big Sandy","state":"MT","lat":48.1497,"long":-110.0776},{"zip":"59501","city":"Havre","state":"MT","lat":48.5561,"long":-109.688},{"zip":"59521","city":"Box Elder","state":"MT","lat":48.2841,"long":-109.8205},{"zip":"59525","city":"Gildford","state":"MT","lat":48.5927,"long":-110.2836},{"zip":"59528","city":"Hingham","state":"MT","lat":48.587,"long":-110.4275},{"zip":"59530","city":"Inverness","state":"MT","lat":48.593,"long":-110.688},{"zip":"59532","city":"Kremlin","state":"MT","lat":48.56,"long":-110.0513},{"zip":"59540","city":"Rudyard","state":"MT","lat":48.586,"long":-110.5552},{"zip":"59522","city":"Chester","state":"MT","lat":48.4541,"long":-110.9798},{"zip":"59531","city":"Joplin","state":"MT","lat":48.6498,"long":-110.7914},{"zip":"59545","city":"Whitlash","state":"MT","lat":48.911,"long":-111.1075},{"zip":"59524","city":"Dodson","state":"MT","lat":48.395,"long":-108.2465},{"zip":"59537","city":"Loring","state":"MT","lat":48.7983,"long":-107.8686},{"zip":"59538","city":"Malta","state":"MT","lat":48.3692,"long":-107.8408},{"zip":"59544","city":"Whitewater","state":"MT","lat":48.7595,"long":-107.6276},{"zip":"59546","city":"Zortman","state":"MT","lat":47.7698,"long":-108.592}]
