[{"zip":"59641","city":"Radersburg","state":"MT","lat":46.2069,"long":-111.6344},{"zip":"59643","city":"Toston","state":"MT","lat":46.1709,"long":-111.5899},{"zip":"59644","city":"Townsend","state":"MT","lat":46.3346,"long":-111.4919},{"zip":"59647","city":"Winston","state":"MT","lat":46.4545,"long":-111.651},{"zip":"59631","city":"Basin","state":"MT","lat":46.3296,"long":-112.1967},{"zip":"59632","city":"Boulder","state":"MT","lat":46.2306,"long":-112.1138},{"zip":"59634","city":"Clancy","state":"MT","lat":46.4652,"long":-111.9864},{"zip":"59638","city":"Jefferson City","state":"MT","lat":46.3679,"long":-112.0232},{"zip":"59601","city":"Helena","state":"MT","lat":46.6131,"long":-112.0213},{"zip":"59602","city":"Helena","state":"MT","lat":46.7074,"long":-111.958},{"zip":"59604","city":"Helena","state":"MT","lat":46.6672,"long":-111.9689},{"zip":"59620","city":"Helena","state":"MT","lat":46.5927,"long":-112.0361},{"zip":"59623","city":"Helena","state":"MT","lat":46.5901,"long":-112.0402},{"zip":"59624","city":"Helena","state":"MT","lat":46.5927,"long":-112.0361},{"zip":"59625","city":"Helena","state":"MT","lat":46.6018,"long":-112.0413},{"zip":"59626","city":"Helena","state":"MT","lat":46.5927,"long":-112.0361},{"zip":"59633","city":"Canyon Creek","state":"MT","lat":46.7627,"long":-112.2795},{"zip":"59635","city":"East Helena","state":"MT","lat":46.5973,"long":-111.9051},{"zip":"59636","city":"Fort Harrison","state":"MT","lat":46.6197,"long":-112.1099},{"zip":"59639","city":"Lincoln","state":"MT","lat":46.9575,"long":-112.6651},{"zip":"59640","city":"Marysville","state":"MT","lat":46.7499,"long":-112.2994},{"zip":"59648","city":"Wolf Creek","state":"MT","lat":47.0856,"long":-112.1476},{"zip":"59642","city":"Ringling","state":"MT","lat":46.2716,"long":-110.8072},{"zip":"59645","city":"White Sulphur Springs","state":"MT","lat":46.6332,"long":-111.0506}]
