[{"zip":"59724","city":"Dell","state":"MT","lat":44.723,"long":-112.6972},{"zip":"59725","city":"Dillon","state":"MT","lat":45.2339,"long":-112.6405},{"zip":"59732","city":"Glen","state":"MT","lat":45.4766,"long":-112.6906},{"zip":"59736","city":"Jackson","state":"MT","lat":45.3687,"long":-113.3598},{"zip":"59739","city":"Lima","state":"MT","lat":44.6441,"long":-112.5625},{"zip":"59746","city":"Polaris","state":"MT","lat":45.3696,"long":-113.1195},{"zip":"59761","city":"Wisdom","state":"MT","lat":45.6519,"long":-113.4729},{"zip":"59762","city":"Wise River","state":"MT","lat":45.7424,"long":-112.9963},{"zip":"59711","city":"Anaconda","state":"MT","lat":46.1299,"long":-112.9739},{"zip":"59756","city":"Warm Springs","state":"MT","lat":46.2183,"long":-112.8117},{"zip":"59714","city":"Belgrade","state":"MT","lat":45.7801,"long":-111.1439},{"zip":"59715","city":"Bozeman","state":"MT","lat":45.6693,"long":-111.0431},{"zip":"59716","city":"Big Sky","state":"MT","lat":45.2847,"long":-111.3683},{"zip":"59717","city":"Bozeman","state":"MT","lat":45.628,"long":-110.9013},{"zip":"59718","city":"Bozeman","state":"MT","lat":45.6681,"long":-111.2404},{"zip":"59719","city":"Bozeman","state":"MT","lat":45.628,"long":-110.9013},{"zip":"59730","city":"Gallatin Gateway","state":"MT","lat":45.339,"long":-111.2485},{"zip":"59741","city":"Manhattan","state":"MT","lat":45.798,"long":-111.3146},{"zip":"59752","city":"Three Forks","state":"MT","lat":45.8811,"long":-111.5436},{"zip":"59758","city":"West Yellowstone","state":"MT","lat":44.6621,"long":-111.1041},{"zip":"59760","city":"Willow Creek","state":"MT","lat":45.7827,"long":-111.6345},{"zip":"59771","city":"Bozeman","state":"MT","lat":45.7246,"long":-111.1238},{"zip":"59772","city":"Bozeman","state":"MT","lat":45.6361,"long":-111.0647},{"zip":"59721","city":"Cardwell","state":"MT","lat":45.8941,"long":-111.7809},{"zip":"59759","city":"Whitehall","state":"MT","lat":45.8771,"long":-112.1245},{"zip":"59710","city":"Alder","state":"MT","lat":45.1939,"long":-112.0568},{"zip":"59720","city":"Cameron","state":"MT","lat":45.139,"long":-111.6508},{"zip":"59729","city":"Ennis","state":"MT","lat":45.3545,"long":-111.687},{"zip":"59735","city":"Harrison","state":"MT","lat":45.7423,"long":-111.8461},{"zip":"59740","city":"Mc Allister","state":"MT","lat":45.408,"long":-111.7761},{"zip":"59745","city":"Norris","state":"MT","lat":45.5323,"long":-111.6943},{"zip":"59747","city":"Pony","state":"MT","lat":45.6585,"long":-111.8944},{"zip":"59749","city":"Sheridan","state":"MT","lat":45.423,"long":-112.1735},{"zip":"59751","city":"Silver Star","state":"MT","lat":45.7,"long":-112.2535},{"zip":"59754","city":"Twin Bridges","state":"MT","lat":45.5311,"long":-112.3495},{"zip":"59755","city":"Virginia City","state":"MT","lat":45.2938,"long":-111.9461},{"zip":"59713","city":"Avon","state":"MT","lat":46.5972,"long":-112.602},{"zip":"59722","city":"Deer Lodge","state":"MT","lat":46.3881,"long":-112.7476},{"zip":"59728","city":"Elliston","state":"MT","lat":46.5034,"long":-112.4007},{"zip":"59731","city":"Garrison","state":"MT","lat":46.5948,"long":-112.7756},{"zip":"59733","city":"Gold Creek","state":"MT","lat":46.59,"long":-112.9706},{"zip":"59701","city":"Butte","state":"MT","lat":45.9979,"long":-112.5988},{"zip":"59702","city":"Butte","state":"MT","lat":45.9053,"long":-112.6377},{"zip":"59703","city":"Butte","state":"MT","lat":45.9053,"long":-112.6377},{"zip":"59707","city":"Butte","state":"MT","lat":46.0038,"long":-112.5347},{"zip":"59727","city":"Divide","state":"MT","lat":45.803,"long":-112.809},{"zip":"59743","city":"Melrose","state":"MT","lat":45.6319,"long":-112.6845},{"zip":"59748","city":"Ramsay","state":"MT","lat":46.0058,"long":-112.6861},{"zip":"59750","city":"Butte","state":"MT","lat":46.0033,"long":-112.7159}]
