[{"zip":"59832","city":"Drummond","state":"MT","lat":46.6647,"long":-113.2426},{"zip":"59837","city":"Hall","state":"MT","lat":46.5825,"long":-113.2087},{"zip":"59858","city":"Philipsburg","state":"MT","lat":46.3189,"long":-113.3126},{"zip":"59821","city":"Arlee","state":"MT","lat":47.186,"long":-114.076},{"zip":"59824","city":"Charlo","state":"MT","lat":47.4385,"long":-114.1723},{"zip":"59855","city":"Pablo","state":"MT","lat":47.6002,"long":-114.119},{"zip":"59860","city":"Polson","state":"MT","lat":47.6876,"long":-114.1404},{"zip":"59863","city":"Ravalli","state":"MT","lat":47.2772,"long":-114.1807},{"zip":"59864","city":"Ronan","state":"MT","lat":47.5525,"long":-114.1054},{"zip":"59865","city":"Saint Ignatius","state":"MT","lat":47.33,"long":-114.0758},{"zip":"59820","city":"Alberton","state":"MT","lat":46.9806,"long":-114.4921},{"zip":"59830","city":"De Borgia","state":"MT","lat":47.3888,"long":-115.3479},{"zip":"59842","city":"Haugan","state":"MT","lat":47.3833,"long":-115.3996},{"zip":"59866","city":"Saint Regis","state":"MT","lat":47.3369,"long":-115.1703},{"zip":"59867","city":"Saltese","state":"MT","lat":47.4102,"long":-115.5096},{"zip":"59872","city":"Superior","state":"MT","lat":47.1721,"long":-114.8885},{"zip":"59801","city":"Missoula","state":"MT","lat":46.8563,"long":-114.0252},{"zip":"59802","city":"Missoula","state":"MT","lat":46.9006,"long":-114.0027},{"zip":"59803","city":"Missoula","state":"MT","lat":46.8224,"long":-114.0265},{"zip":"59804","city":"Missoula","state":"MT","lat":46.8467,"long":-114.1698},{"zip":"59806","city":"Missoula","state":"MT","lat":46.8721,"long":-113.994},{"zip":"59807","city":"Missoula","state":"MT","lat":46.9103,"long":-113.9587},{"zip":"59808","city":"Missoula","state":"MT","lat":46.9776,"long":-114.0619},{"zip":"59812","city":"Missoula","state":"MT","lat":46.8721,"long":-113.994},{"zip":"59823","city":"Bonner","state":"MT","lat":46.8733,"long":-113.8645},{"zip":"59825","city":"Clinton","state":"MT","lat":46.7673,"long":-113.7038},{"zip":"59826","city":"Condon","state":"MT","lat":47.5097,"long":-113.7075},{"zip":"59834","city":"Frenchtown","state":"MT","lat":47.0471,"long":-114.2683},{"zip":"59846","city":"Huson","state":"MT","lat":47.066,"long":-114.4219},{"zip":"59847","city":"Lolo","state":"MT","lat":46.7585,"long":-114.1097},{"zip":"59851","city":"Milltown","state":"MT","lat":46.8737,"long":-113.8783},{"zip":"59868","city":"Seeley Lake","state":"MT","lat":47.1789,"long":-113.481},{"zip":"59843","city":"Helmville","state":"MT","lat":46.83,"long":-112.9413},{"zip":"59854","city":"Ovando","state":"MT","lat":47.0067,"long":-113.0905},{"zip":"59827","city":"Conner","state":"MT","lat":45.919,"long":-114.059},{"zip":"59828","city":"Corvallis","state":"MT","lat":46.3142,"long":-114.096},{"zip":"59829","city":"Darby","state":"MT","lat":46.028,"long":-114.1938},{"zip":"59833","city":"Florence","state":"MT","lat":46.631,"long":-114.0945},{"zip":"59835","city":"Grantsdale","state":"MT","lat":46.2035,"long":-114.1418},{"zip":"59840","city":"Hamilton","state":"MT","lat":46.2395,"long":-114.1679},{"zip":"59841","city":"Pinesdale","state":"MT","lat":46.3329,"long":-114.2235},{"zip":"59870","city":"Stevensville","state":"MT","lat":46.5267,"long":-114.0478},{"zip":"59871","city":"Sula","state":"MT","lat":45.8433,"long":-113.8748},{"zip":"59875","city":"Victor","state":"MT","lat":46.4005,"long":-114.1665},{"zip":"59831","city":"Dixon","state":"MT","lat":47.3131,"long":-114.3056},{"zip":"59844","city":"Heron","state":"MT","lat":48.0537,"long":-115.9407},{"zip":"59845","city":"Hot Springs","state":"MT","lat":47.5914,"long":-114.6597},{"zip":"59848","city":"Lonepine","state":"MT","lat":47.7251,"long":-114.657},{"zip":"59853","city":"Noxon","state":"MT","lat":48.0768,"long":-115.8582},{"zip":"59856","city":"Paradise","state":"MT","lat":47.3878,"long":-114.799},{"zip":"59859","city":"Plains","state":"MT","lat":47.4734,"long":-114.893},{"zip":"59873","city":"Thompson Falls","state":"MT","lat":47.6016,"long":-115.3602},{"zip":"59874","city":"Trout Creek","state":"MT","lat":47.8111,"long":-115.5592}]
