[{"zip":"59901","city":"Kalispell","state":"MT","lat":48.2028,"long":-114.3039},{"zip":"59903","city":"Kalispell","state":"MT","lat":48.2237,"long":-114.4296},{"zip":"59904","city":"Kalispell","state":"MT","lat":48.2404,"long":-114.2561},{"zip":"59911","city":"Bigfork","state":"MT","lat":48.0633,"long":-114.0726},{"zip":"59912","city":"Columbia Falls","state":"MT","lat":48.3534,"long":-114.1784},{"zip":"59913","city":"Coram","state":"MT","lat":48.4342,"long":-114.0584},{"zip":"59916","city":"Essex","state":"MT","lat":48.278,"long":-113.6126},{"zip":"59919","city":"Hungry Horse","state":"MT","lat":48.3858,"long":-114.061},{"zip":"59920","city":"Kila","state":"MT","lat":48.0744,"long":-114.5104},{"zip":"59921","city":"Lake Mc Donald","state":"MT","lat":48.2989,"long":-113.9497},{"zip":"59922","city":"Lakeside","state":"MT","lat":48.0215,"long":-114.2266},{"zip":"59925","city":"Marion","state":"MT","lat":48.0836,"long":-114.7446},{"zip":"59926","city":"Martin City","state":"MT","lat":48.3916,"long":-114.0382},{"zip":"59927","city":"Olney","state":"MT","lat":48.5455,"long":-114.592},{"zip":"59928","city":"Polebridge","state":"MT","lat":48.8206,"long":-114.3836},{"zip":"59932","city":"Somers","state":"MT","lat":48.0793,"long":-114.2355},{"zip":"59936","city":"West Glacier","state":"MT","lat":48.5,"long":-113.9787},{"zip":"59937","city":"Whitefish","state":"MT","lat":48.404,"long":-114.3509},{"zip":"59910","city":"Big Arm","state":"MT","lat":47.7952,"long":-114.302},{"zip":"59914","city":"Dayton","state":"MT","lat":47.8607,"long":-114.2809},{"zip":"59915","city":"Elmo","state":"MT","lat":47.8305,"long":-114.3496},{"zip":"59929","city":"Proctor","state":"MT","lat":47.9404,"long":-114.3832},{"zip":"59931","city":"Rollins","state":"MT","lat":47.9182,"long":-114.225},{"zip":"59917","city":"Eureka","state":"MT","lat":48.8428,"long":-115.0049},{"zip":"59918","city":"Fortine","state":"MT","lat":48.7586,"long":-114.8809},{"zip":"59923","city":"Libby","state":"MT","lat":48.3773,"long":-115.5391},{"zip":"59930","city":"Rexford","state":"MT","lat":48.9179,"long":-115.2129},{"zip":"59933","city":"Stryker","state":"MT","lat":48.6741,"long":-114.7702},{"zip":"59934","city":"Trego","state":"MT","lat":48.7052,"long":-114.8693},{"zip":"59935","city":"Troy","state":"MT","lat":48.4791,"long":-115.8817}]
