[{"zip":"60949","city":"Ludlow","state":"IL","lat":40.3747,"long":-88.138},{"zip":"60004","city":"Arlington Heights","state":"IL","lat":42.112,"long":-87.9792},{"zip":"60005","city":"Arlington Heights","state":"IL","lat":42.0639,"long":-87.9856},{"zip":"60006","city":"Arlington Heights","state":"IL","lat":42.0884,"long":-87.9806},{"zip":"60007","city":"Elk Grove Village","state":"IL","lat":42.0076,"long":-87.9931},{"zip":"60008","city":"Rolling Meadows","state":"IL","lat":42.073,"long":-88.0191},{"zip":"60009","city":"Elk Grove Village","state":"IL","lat":42.0039,"long":-87.9703},{"zip":"60016","city":"Des Plaines","state":"IL","lat":42.0467,"long":-87.8859},{"zip":"60017","city":"Des Plaines","state":"IL","lat":42.0288,"long":-87.8944},{"zip":"60018","city":"Des Plaines","state":"IL","lat":42.0155,"long":-87.8687},{"zip":"60019","city":"Des Plaines","state":"IL","lat":42.0243,"long":-87.9071},{"zip":"60022","city":"Glencoe","state":"IL","lat":42.1333,"long":-87.7615},{"zip":"60025","city":"Glenview","state":"IL","lat":42.0758,"long":-87.8223},{"zip":"60026","city":"Glenview","state":"IL","lat":42.0698,"long":-87.7878},{"zip":"60029","city":"Golf","state":"IL","lat":42.058,"long":-87.7916},{"zip":"60038","city":"Palatine","state":"IL","lat":42.098,"long":-88.0141},{"zip":"60043","city":"Kenilworth","state":"IL","lat":42.0884,"long":-87.7165},{"zip":"60053","city":"Morton Grove","state":"IL","lat":42.0431,"long":-87.7899},{"zip":"60055","city":"Palatine","state":"IL","lat":42.098,"long":-88.0141},{"zip":"60056","city":"Mount Prospect","state":"IL","lat":42.0624,"long":-87.9377},{"zip":"60062","city":"Northbrook","state":"IL","lat":42.1254,"long":-87.8465},{"zip":"60065","city":"Northbrook","state":"IL","lat":42.1275,"long":-87.829},{"zip":"60067","city":"Palatine","state":"IL","lat":42.1139,"long":-88.0429},{"zip":"60068","city":"Park Ridge","state":"IL","lat":42.0122,"long":-87.8417},{"zip":"60070","city":"Prospect Heights","state":"IL","lat":42.1058,"long":-87.9395},{"zip":"60074","city":"Palatine","state":"IL","lat":42.1458,"long":-88.023},{"zip":"60076","city":"Skokie","state":"IL","lat":42.0362,"long":-87.7328},{"zip":"60077","city":"Skokie","state":"IL","lat":42.0345,"long":-87.7541},{"zip":"60078","city":"Palatine","state":"IL","lat":42.1103,"long":-88.0342},{"zip":"60082","city":"Techny","state":"IL","lat":42.1164,"long":-87.8121},{"zip":"60090","city":"Wheeling","state":"IL","lat":42.134,"long":-87.9341},{"zip":"60091","city":"Wilmette","state":"IL","lat":42.0765,"long":-87.7246},{"zip":"60093","city":"Winnetka","state":"IL","lat":42.1054,"long":-87.7535},{"zip":"60094","city":"Palatine","state":"IL","lat":42.1103,"long":-88.0342},{"zip":"60095","city":"Palatine","state":"IL","lat":42.1103,"long":-88.0342},{"zip":"60103","city":"Bartlett","state":"IL","lat":41.9794,"long":-88.2063},{"zip":"60104","city":"Bellwood","state":"IL","lat":41.8825,"long":-87.8786},{"zip":"60107","city":"Streamwood","state":"IL","lat":42.0225,"long":-88.169},{"zip":"60130","city":"Forest Park","state":"IL","lat":41.8744,"long":-87.8106},{"zip":"60131","city":"Franklin Park","state":"IL","lat":41.9339,"long":-87.8734},{"zip":"60141","city":"Hines","state":"IL","lat":41.8623,"long":-87.8355},{"zip":"60153","city":"Maywood","state":"IL","lat":41.8793,"long":-87.8433},{"zip":"60154","city":"Westchester","state":"IL","lat":41.8524,"long":-87.8845},{"zip":"60155","city":"Broadview","state":"IL","lat":41.8577,"long":-87.8562},{"zip":"60159","city":"Schaumburg","state":"IL","lat":42.0334,"long":-88.0834},{"zip":"60160","city":"Melrose Park","state":"IL","lat":41.9003,"long":-87.8581},{"zip":"60161","city":"Melrose Park","state":"IL","lat":41.9006,"long":-87.8567},{"zip":"60162","city":"Hillside","state":"IL","lat":41.8725,"long":-87.9016},{"zip":"60163","city":"Berkeley","state":"IL","lat":41.8888,"long":-87.909},{"zip":"60164","city":"Melrose Park","state":"IL","lat":41.9214,"long":-87.8924},{"zip":"60165","city":"Stone Park","state":"IL","lat":41.903,"long":-87.8811},{"zip":"60168","city":"Schaumburg","state":"IL","lat":42.0334,"long":-88.0834},{"zip":"60169","city":"Hoffman Estates","state":"IL","lat":42.0493,"long":-88.1065},{"zip":"60171","city":"River Grove","state":"IL","lat":41.9279,"long":-87.8387},{"zip":"60173","city":"Schaumburg","state":"IL","lat":42.0581,"long":-88.0482},{"zip":"60176","city":"Schiller Park","state":"IL","lat":41.9563,"long":-87.8692},{"zip":"60179","city":"Hoffman Estates","state":"IL","lat":42.0793,"long":-88.2237},{"zip":"60192","city":"Hoffman Estates","state":"IL","lat":42.0428,"long":-88.0798},{"zip":"60193","city":"Schaumburg","state":"IL","lat":42.0144,"long":-88.0935},{"zip":"60194","city":"Schaumburg","state":"IL","lat":42.0289,"long":-88.1167},{"zip":"60195","city":"Schaumburg","state":"IL","lat":42.0764,"long":-88.1093},{"zip":"60196","city":"Schaumburg","state":"IL","lat":42.0564,"long":-88.0725},{"zip":"60201","city":"Evanston","state":"IL","lat":42.0546,"long":-87.6943},{"zip":"60202","city":"Evanston","state":"IL","lat":42.0302,"long":-87.6865},{"zip":"60203","city":"Evanston","state":"IL","lat":42.0485,"long":-87.7176},{"zip":"60204","city":"Evanston","state":"IL","lat":42.0411,"long":-87.6901},{"zip":"60208","city":"Evanston","state":"IL","lat":42.0586,"long":-87.6845},{"zip":"60209","city":"Evanston","state":"IL","lat":42.0497,"long":-87.6794},{"zip":"60301","city":"Oak Park","state":"IL","lat":41.8886,"long":-87.7986},{"zip":"60302","city":"Oak Park","state":"IL","lat":41.8925,"long":-87.7895},{"zip":"60303","city":"Oak Park","state":"IL","lat":41.885,"long":-87.7845},{"zip":"60304","city":"Oak Park","state":"IL","lat":41.8725,"long":-87.7877},{"zip":"60305","city":"River Forest","state":"IL","lat":41.8951,"long":-87.8159},{"zip":"60402","city":"Berwyn","state":"IL","lat":41.8347,"long":-87.7914},{"zip":"60406","city":"Blue Island","state":"IL","lat":41.6582,"long":-87.6795},{"zip":"60409","city":"Calumet City","state":"IL","lat":41.6153,"long":-87.5483},{"zip":"60411","city":"Chicago Heights","state":"IL","lat":41.5087,"long":-87.5904},{"zip":"60412","city":"Chicago Heights","state":"IL","lat":41.5061,"long":-87.6356},{"zip":"60415","city":"Chicago Ridge","state":"IL","lat":41.7017,"long":-87.7774},{"zip":"60419","city":"Dolton","state":"IL","lat":41.6257,"long":-87.598},{"zip":"60422","city":"Flossmoor","state":"IL","lat":41.5406,"long":-87.6837},{"zip":"60425","city":"Glenwood","state":"IL","lat":41.5467,"long":-87.6126},{"zip":"60426","city":"Harvey","state":"IL","lat":41.6103,"long":-87.6534},{"zip":"60429","city":"Hazel Crest","state":"IL","lat":41.5738,"long":-87.6849},{"zip":"60430","city":"Homewood","state":"IL","lat":41.5556,"long":-87.6616},{"zip":"60438","city":"Lansing","state":"IL","lat":41.566,"long":-87.5446},{"zip":"60443","city":"Matteson","state":"IL","lat":41.5102,"long":-87.7406},{"zip":"60445","city":"Midlothian","state":"IL","lat":41.635,"long":-87.7362},{"zip":"60452","city":"Oak Forest","state":"IL","lat":41.6077,"long":-87.7542},{"zip":"60453","city":"Oak Lawn","state":"IL","lat":41.7143,"long":-87.7516},{"zip":"60454","city":"Oak Lawn","state":"IL","lat":41.8119,"long":-87.6873},{"zip":"60455","city":"Bridgeview","state":"IL","lat":41.7431,"long":-87.8066},{"zip":"60456","city":"Hometown","state":"IL","lat":41.7311,"long":-87.7315},{"zip":"60457","city":"Hickory Hills","state":"IL","lat":41.7262,"long":-87.8289},{"zip":"60458","city":"Justice","state":"IL","lat":41.7447,"long":-87.8346},{"zip":"60459","city":"Burbank","state":"IL","lat":41.7447,"long":-87.7699},{"zip":"60461","city":"Olympia Fields","state":"IL","lat":41.5167,"long":-87.6908},{"zip":"60462","city":"Orland Park","state":"IL","lat":41.6194,"long":-87.8423},{"zip":"60463","city":"Palos Heights","state":"IL","lat":41.6621,"long":-87.7927},{"zip":"60464","city":"Palos Park","state":"IL","lat":41.6624,"long":-87.8521},{"zip":"60465","city":"Palos Hills","state":"IL","lat":41.7004,"long":-87.8263},{"zip":"60466","city":"Park Forest","state":"IL","lat":41.479,"long":-87.6828},{"zip":"60467","city":"Orland Park","state":"IL","lat":41.6018,"long":-87.8899},{"zip":"60469","city":"Posen","state":"IL","lat":41.6277,"long":-87.6872},{"zip":"60471","city":"Richton Park","state":"IL","lat":41.4819,"long":-87.7238},{"zip":"60472","city":"Robbins","state":"IL","lat":41.6423,"long":-87.7089},{"zip":"60473","city":"South Holland","state":"IL","lat":41.5979,"long":-87.5938},{"zip":"60475","city":"Steger","state":"IL","lat":41.4686,"long":-87.6386},{"zip":"60476","city":"Thornton","state":"IL","lat":41.5727,"long":-87.6078},{"zip":"60477","city":"Tinley Park","state":"IL","lat":41.5825,"long":-87.805},{"zip":"60478","city":"Country Club Hills","state":"IL","lat":41.5637,"long":-87.7247},{"zip":"60480","city":"Willow Springs","state":"IL","lat":41.7364,"long":-87.8786},{"zip":"60482","city":"Worth","state":"IL","lat":41.6895,"long":-87.7863},{"zip":"60499","city":"Bedford Park","state":"IL","lat":41.8119,"long":-87.6873},{"zip":"60501","city":"Summit Argo","state":"IL","lat":41.7801,"long":-87.824},{"zip":"60513","city":"Brookfield","state":"IL","lat":41.8217,"long":-87.8492},{"zip":"60525","city":"La Grange","state":"IL","lat":41.7842,"long":-87.8689},{"zip":"60526","city":"La Grange Park","state":"IL","lat":41.8318,"long":-87.874},{"zip":"60534","city":"Lyons","state":"IL","lat":41.813,"long":-87.8236},{"zip":"60546","city":"Riverside","state":"IL","lat":41.8379,"long":-87.8213},{"zip":"60558","city":"Western Springs","state":"IL","lat":41.8049,"long":-87.8995},{"zip":"60601","city":"Chicago","state":"IL","lat":41.8858,"long":-87.6181},{"zip":"60602","city":"Chicago","state":"IL","lat":41.8829,"long":-87.6321},{"zip":"60603","city":"Chicago","state":"IL","lat":41.8798,"long":-87.6285},{"zip":"60604","city":"Chicago","state":"IL","lat":41.8785,"long":-87.633},{"zip":"60605","city":"Chicago","state":"IL","lat":41.8713,"long":-87.6277},{"zip":"60606","city":"Chicago","state":"IL","lat":41.8868,"long":-87.6386},{"zip":"60607","city":"Chicago","state":"IL","lat":41.8721,"long":-87.6578},{"zip":"60608","city":"Chicago","state":"IL","lat":41.8515,"long":-87.6694},{"zip":"60609","city":"Chicago","state":"IL","lat":41.8097,"long":-87.6533},{"zip":"60610","city":"Chicago","state":"IL","lat":41.9033,"long":-87.6336},{"zip":"60611","city":"Chicago","state":"IL","lat":41.8971,"long":-87.6223},{"zip":"60612","city":"Chicago","state":"IL","lat":41.8805,"long":-87.6873},{"zip":"60613","city":"Chicago","state":"IL","lat":41.9543,"long":-87.6575},{"zip":"60614","city":"Chicago","state":"IL","lat":41.9229,"long":-87.6483},{"zip":"60615","city":"Chicago","state":"IL","lat":41.8022,"long":-87.6006},{"zip":"60616","city":"Chicago","state":"IL","lat":41.8426,"long":-87.6306},{"zip":"60617","city":"Chicago","state":"IL","lat":41.7257,"long":-87.556},{"zip":"60618","city":"Chicago","state":"IL","lat":41.9464,"long":-87.7042},{"zip":"60619","city":"Chicago","state":"IL","lat":41.7458,"long":-87.6054},{"zip":"60620","city":"Chicago","state":"IL","lat":41.7411,"long":-87.6543},{"zip":"60621","city":"Chicago","state":"IL","lat":41.775,"long":-87.6421},{"zip":"60622","city":"Chicago","state":"IL","lat":41.9019,"long":-87.6779},{"zip":"60623","city":"Chicago","state":"IL","lat":41.849,"long":-87.7157},{"zip":"60624","city":"Chicago","state":"IL","lat":41.8804,"long":-87.7223},{"zip":"60625","city":"Chicago","state":"IL","lat":41.9703,"long":-87.7042},{"zip":"60626","city":"Chicago","state":"IL","lat":42.0095,"long":-87.6689},{"zip":"60628","city":"Chicago","state":"IL","lat":41.6934,"long":-87.6243},{"zip":"60629","city":"Chicago","state":"IL","lat":41.7781,"long":-87.7069},{"zip":"60630","city":"Chicago","state":"IL","lat":41.9699,"long":-87.7603},{"zip":"60631","city":"Chicago","state":"IL","lat":41.9951,"long":-87.8082},{"zip":"60632","city":"Chicago","state":"IL","lat":41.8093,"long":-87.7052},{"zip":"60633","city":"Chicago","state":"IL","lat":41.6642,"long":-87.5612},{"zip":"60634","city":"Chicago","state":"IL","lat":41.9463,"long":-87.8061},{"zip":"60636","city":"Chicago","state":"IL","lat":41.776,"long":-87.6674},{"zip":"60637","city":"Chicago","state":"IL","lat":41.7813,"long":-87.6051},{"zip":"60638","city":"Chicago","state":"IL","lat":41.7814,"long":-87.7705},{"zip":"60639","city":"Chicago","state":"IL","lat":41.9202,"long":-87.7535},{"zip":"60640","city":"Chicago","state":"IL","lat":41.9719,"long":-87.6624},{"zip":"60641","city":"Chicago","state":"IL","lat":41.9453,"long":-87.7474},{"zip":"60642","city":"Chicago","state":"IL","lat":41.9008,"long":-87.6528},{"zip":"60643","city":"Chicago","state":"IL","lat":41.6996,"long":-87.6628},{"zip":"60644","city":"Chicago","state":"IL","lat":41.8829,"long":-87.7582},{"zip":"60645","city":"Chicago","state":"IL","lat":42.0086,"long":-87.6947},{"zip":"60646","city":"Chicago","state":"IL","lat":41.993,"long":-87.7596},{"zip":"60647","city":"Chicago","state":"IL","lat":41.9209,"long":-87.7043},{"zip":"60649","city":"Chicago","state":"IL","lat":41.762,"long":-87.5703},{"zip":"60651","city":"Chicago","state":"IL","lat":41.9025,"long":-87.7393},{"zip":"60652","city":"Chicago","state":"IL","lat":41.7454,"long":-87.7135},{"zip":"60653","city":"Chicago","state":"IL","lat":41.8196,"long":-87.6126},{"zip":"60654","city":"Chicago","state":"IL","lat":41.8923,"long":-87.6373},{"zip":"60655","city":"Chicago","state":"IL","lat":41.6948,"long":-87.7038},{"zip":"60656","city":"Chicago","state":"IL","lat":41.9735,"long":-87.8658},{"zip":"60657","city":"Chicago","state":"IL","lat":41.9399,"long":-87.6528},{"zip":"60659","city":"Chicago","state":"IL","lat":41.9972,"long":-87.7166},{"zip":"60660","city":"Chicago","state":"IL","lat":41.9909,"long":-87.6629},{"zip":"60661","city":"Chicago","state":"IL","lat":41.8814,"long":-87.643},{"zip":"60664","city":"Chicago","state":"IL","lat":41.8119,"long":-87.6873},{"zip":"60666","city":"Chicago","state":"IL","lat":41.85,"long":-87.6501},{"zip":"60668","city":"Chicago","state":"IL","lat":41.8119,"long":-87.6873},{"zip":"60669","city":"Chicago","state":"IL","lat":41.8119,"long":-87.6873},{"zip":"60670","city":"Chicago","state":"IL","lat":41.8119,"long":-87.6873},{"zip":"60673","city":"Chicago","state":"IL","lat":41.8119,"long":-87.6873},{"zip":"60674","city":"Chicago","state":"IL","lat":41.8119,"long":-87.6873},{"zip":"60675","city":"Chicago","state":"IL","lat":41.8119,"long":-87.6873},{"zip":"60677","city":"Chicago","state":"IL","lat":41.8119,"long":-87.6873},{"zip":"60678","city":"Chicago","state":"IL","lat":41.8119,"long":-87.6873},{"zip":"60680","city":"Chicago","state":"IL","lat":41.8119,"long":-87.6873},{"zip":"60681","city":"Chicago","state":"IL","lat":41.8119,"long":-87.6873},{"zip":"60682","city":"Chicago","state":"IL","lat":41.837,"long":-87.685},{"zip":"60684","city":"Chicago","state":"IL","lat":41.8119,"long":-87.6873},{"zip":"60685","city":"Chicago","state":"IL","lat":41.8119,"long":-87.6873},{"zip":"60686","city":"Chicago","state":"IL","lat":41.8756,"long":-87.6378},{"zip":"60687","city":"Chicago","state":"IL","lat":41.8119,"long":-87.6873},{"zip":"60688","city":"Chicago","state":"IL","lat":41.8724,"long":-87.6688},{"zip":"60689","city":"Chicago","state":"IL","lat":41.8745,"long":-87.6353},{"zip":"60690","city":"Chicago","state":"IL","lat":41.8119,"long":-87.6873},{"zip":"60691","city":"Chicago","state":"IL","lat":41.8119,"long":-87.6873},{"zip":"60693","city":"Chicago","state":"IL","lat":41.85,"long":-87.6501},{"zip":"60694","city":"Chicago","state":"IL","lat":41.8119,"long":-87.6873},{"zip":"60695","city":"Chicago","state":"IL","lat":41.8839,"long":-87.6317},{"zip":"60696","city":"Chicago","state":"IL","lat":41.8684,"long":-87.6649},{"zip":"60697","city":"Chicago","state":"IL","lat":41.8119,"long":-87.6873},{"zip":"60699","city":"Chicago","state":"IL","lat":41.8119,"long":-87.6873},{"zip":"60701","city":"Chicago","state":"IL","lat":41.8119,"long":-87.6873},{"zip":"60706","city":"Harwood Heights","state":"IL","lat":41.9643,"long":-87.8162},{"zip":"60707","city":"Elmwood Park","state":"IL","lat":41.9232,"long":-87.8185},{"zip":"60712","city":"Lincolnwood","state":"IL","lat":42.008,"long":-87.7361},{"zip":"60714","city":"Niles","state":"IL","lat":42.0312,"long":-87.8112},{"zip":"60803","city":"Alsip","state":"IL","lat":41.6721,"long":-87.7357},{"zip":"60804","city":"Cicero","state":"IL","lat":41.8378,"long":-87.7602},{"zip":"60805","city":"Evergreen Park","state":"IL","lat":41.722,"long":-87.7024},{"zip":"60827","city":"Riverdale","state":"IL","lat":41.6496,"long":-87.6301},{"zip":"60111","city":"Clare","state":"IL","lat":42.0086,"long":-88.8306},{"zip":"60112","city":"Cortland","state":"IL","lat":41.92,"long":-88.6887},{"zip":"60115","city":"Dekalb","state":"IL","lat":41.9008,"long":-88.7548},{"zip":"60129","city":"Esmond","state":"IL","lat":42.0225,"long":-88.9439},{"zip":"60135","city":"Genoa","state":"IL","lat":42.0981,"long":-88.6908},{"zip":"60145","city":"Kingston","state":"IL","lat":42.1057,"long":-88.7695},{"zip":"60146","city":"Kirkland","state":"IL","lat":42.1014,"long":-88.8685},{"zip":"60150","city":"Malta","state":"IL","lat":41.9183,"long":-88.8688},{"zip":"60178","city":"Sycamore","state":"IL","lat":41.9911,"long":-88.6928},{"zip":"60520","city":"Hinckley","state":"IL","lat":41.7691,"long":-88.6448},{"zip":"60548","city":"Sandwich","state":"IL","lat":41.6353,"long":-88.6393},{"zip":"60550","city":"Shabbona","state":"IL","lat":41.7638,"long":-88.8752},{"zip":"60552","city":"Somonauk","state":"IL","lat":41.6383,"long":-88.6816},{"zip":"60556","city":"Waterman","state":"IL","lat":41.7504,"long":-88.7754},{"zip":"60101","city":"Addison","state":"IL","lat":41.9335,"long":-88.0054},{"zip":"60105","city":"Bensenville","state":"IL","lat":41.955,"long":-87.9401},{"zip":"60106","city":"Bensenville","state":"IL","lat":41.9501,"long":-87.945},{"zip":"60108","city":"Bloomingdale","state":"IL","lat":41.9483,"long":-88.0782},{"zip":"60116","city":"Carol Stream","state":"IL","lat":41.9125,"long":-88.1348},{"zip":"60117","city":"Bloomingdale","state":"IL","lat":41.8397,"long":-88.0887},{"zip":"60126","city":"Elmhurst","state":"IL","lat":41.8927,"long":-87.941},{"zip":"60128","city":"Carol Stream","state":"IL","lat":41.8397,"long":-88.0887},{"zip":"60132","city":"Carol Stream","state":"IL","lat":41.8397,"long":-88.0887},{"zip":"60133","city":"Hanover Park","state":"IL","lat":41.9995,"long":-88.1451},{"zip":"60137","city":"Glen Ellyn","state":"IL","lat":41.8661,"long":-88.0648},{"zip":"60138","city":"Glen Ellyn","state":"IL","lat":41.8775,"long":-88.067},{"zip":"60139","city":"Glendale Heights","state":"IL","lat":41.9205,"long":-88.0793},{"zip":"60143","city":"Itasca","state":"IL","lat":41.972,"long":-88.0202},{"zip":"60148","city":"Lombard","state":"IL","lat":41.8721,"long":-88.016},{"zip":"60157","city":"Medinah","state":"IL","lat":41.9814,"long":-88.0512},{"zip":"60172","city":"Roselle","state":"IL","lat":41.9798,"long":-88.0857},{"zip":"60181","city":"Villa Park","state":"IL","lat":41.8799,"long":-87.9782},{"zip":"60184","city":"Wayne","state":"IL","lat":41.9525,"long":-88.2536},{"zip":"60185","city":"West Chicago","state":"IL","lat":41.8886,"long":-88.2022},{"zip":"60186","city":"West Chicago","state":"IL","lat":41.8848,"long":-88.204},{"zip":"60187","city":"Wheaton","state":"IL","lat":41.8724,"long":-88.1123},{"zip":"60188","city":"Carol Stream","state":"IL","lat":41.9178,"long":-88.137},{"zip":"60189","city":"Wheaton","state":"IL","lat":41.8397,"long":-88.0887},{"zip":"60190","city":"Winfield","state":"IL","lat":41.8744,"long":-88.1516},{"zip":"60191","city":"Wood Dale","state":"IL","lat":41.9602,"long":-87.981},{"zip":"60197","city":"Carol Stream","state":"IL","lat":41.9125,"long":-88.1348},{"zip":"60199","city":"Carol Stream","state":"IL","lat":41.8397,"long":-88.0887},{"zip":"60399","city":"Wood Dale","state":"IL","lat":41.9545,"long":-87.9377},{"zip":"60439","city":"Lemont","state":"IL","lat":41.7074,"long":-87.9756},{"zip":"60504","city":"Aurora","state":"IL","lat":41.7523,"long":-88.2453},{"zip":"60514","city":"Clarendon Hills","state":"IL","lat":41.7965,"long":-87.9569},{"zip":"60515","city":"Downers Grove","state":"IL","lat":41.8034,"long":-88.0138},{"zip":"60516","city":"Downers Grove","state":"IL","lat":41.7602,"long":-88.0159},{"zip":"60517","city":"Woodridge","state":"IL","lat":41.7518,"long":-88.0489},{"zip":"60519","city":"Eola","state":"IL","lat":41.7775,"long":-88.2428},{"zip":"60521","city":"Hinsdale","state":"IL","lat":41.8001,"long":-87.9287},{"zip":"60522","city":"Hinsdale","state":"IL","lat":41.8397,"long":-88.0887},{"zip":"60523","city":"Oak Brook","state":"IL","lat":41.8371,"long":-87.9638},{"zip":"60527","city":"Willowbrook","state":"IL","lat":41.7447,"long":-87.9334},{"zip":"60532","city":"Lisle","state":"IL","lat":41.7862,"long":-88.0879},{"zip":"60540","city":"Naperville","state":"IL","lat":41.7662,"long":-88.141},{"zip":"60555","city":"Warrenville","state":"IL","lat":41.828,"long":-88.1921},{"zip":"60559","city":"Westmont","state":"IL","lat":41.7728,"long":-87.9757},{"zip":"60561","city":"Darien","state":"IL","lat":41.7434,"long":-87.9805},{"zip":"60563","city":"Naperville","state":"IL","lat":41.7895,"long":-88.169},{"zip":"60565","city":"Naperville","state":"IL","lat":41.7328,"long":-88.1282},{"zip":"60566","city":"Naperville","state":"IL","lat":41.8397,"long":-88.0887},{"zip":"60567","city":"Naperville","state":"IL","lat":41.7859,"long":-88.1473},{"zip":"60572","city":"Aurora","state":"IL","lat":41.7606,"long":-88.3201},{"zip":"60598","city":"Aurora","state":"IL","lat":41.8397,"long":-88.0887},{"zip":"60599","city":"Fox Valley","state":"IL","lat":41.8397,"long":-88.0887},{"zip":"60919","city":"Cabery","state":"IL","lat":40.9819,"long":-88.1921},{"zip":"60933","city":"Elliott","state":"IL","lat":40.4648,"long":-88.2712},{"zip":"60936","city":"Gibson City","state":"IL","lat":40.4659,"long":-88.3609},{"zip":"60946","city":"Kempton","state":"IL","lat":40.9126,"long":-88.209},{"zip":"60952","city":"Melvin","state":"IL","lat":40.5714,"long":-88.2551},{"zip":"60957","city":"Paxton","state":"IL","lat":40.4565,"long":-88.099},{"zip":"60959","city":"Piper City","state":"IL","lat":40.7556,"long":-88.1873},{"zip":"60962","city":"Roberts","state":"IL","lat":40.6193,"long":-88.1804},{"zip":"60407","city":"Braceville","state":"IL","lat":41.2288,"long":-88.269},{"zip":"60416","city":"Coal City","state":"IL","lat":41.2908,"long":-88.2823},{"zip":"60424","city":"Gardner","state":"IL","lat":41.1775,"long":-88.338},{"zip":"60437","city":"Kinsman","state":"IL","lat":41.1631,"long":-88.5535},{"zip":"60444","city":"Mazon","state":"IL","lat":41.2264,"long":-88.4217},{"zip":"60447","city":"Minooka","state":"IL","lat":41.4615,"long":-88.2786},{"zip":"60450","city":"Morris","state":"IL","lat":41.3672,"long":-88.4178},{"zip":"60474","city":"South Wilmington","state":"IL","lat":41.1728,"long":-88.2767},{"zip":"60479","city":"Verona","state":"IL","lat":41.2501,"long":-88.517},{"zip":"60911","city":"Ashkum","state":"IL","lat":40.8844,"long":-87.9411},{"zip":"60912","city":"Beaverville","state":"IL","lat":40.9672,"long":-87.6217},{"zip":"60918","city":"Buckley","state":"IL","lat":40.6018,"long":-88.0361},{"zip":"60922","city":"Chebanse","state":"IL","lat":41.0254,"long":-87.8959},{"zip":"60924","city":"Cissna Park","state":"IL","lat":40.5858,"long":-87.8759},{"zip":"60926","city":"Claytonville","state":"IL","lat":40.5676,"long":-87.804},{"zip":"60927","city":"Clifton","state":"IL","lat":40.9394,"long":-87.9202},{"zip":"60928","city":"Crescent City","state":"IL","lat":40.7417,"long":-87.849},{"zip":"60930","city":"Danforth","state":"IL","lat":40.8244,"long":-87.9868},{"zip":"60931","city":"Donovan","state":"IL","lat":40.8891,"long":-87.6046},{"zip":"60938","city":"Gilman","state":"IL","lat":40.768,"long":-87.9933},{"zip":"60939","city":"Goodwine","state":"IL","lat":40.5673,"long":-87.7845},{"zip":"60945","city":"Iroquois","state":"IL","lat":40.8269,"long":-87.5847},{"zip":"60948","city":"Loda","state":"IL","lat":40.5241,"long":-88.0927},{"zip":"60951","city":"Martinton","state":"IL","lat":40.9052,"long":-87.7443},{"zip":"60953","city":"Milford","state":"IL","lat":40.6293,"long":-87.6853},{"zip":"60955","city":"Onarga","state":"IL","lat":40.712,"long":-87.9958},{"zip":"60956","city":"Papineau","state":"IL","lat":40.967,"long":-87.7161},{"zip":"60966","city":"Sheldon","state":"IL","lat":40.7803,"long":-87.5736},{"zip":"60967","city":"Stockland","state":"IL","lat":40.6145,"long":-87.5928},{"zip":"60968","city":"Thawville","state":"IL","lat":40.684,"long":-88.0999},{"zip":"60970","city":"Watseka","state":"IL","lat":40.7734,"long":-87.7309},{"zip":"60973","city":"Wellington","state":"IL","lat":40.5339,"long":-87.6561},{"zip":"60974","city":"Woodland","state":"IL","lat":40.7151,"long":-87.7307},{"zip":"60109","city":"Burlington","state":"IL","lat":42.0458,"long":-88.539},{"zip":"60110","city":"Carpentersville","state":"IL","lat":42.123,"long":-88.2606},{"zip":"60118","city":"Dundee","state":"IL","lat":42.0962,"long":-88.2902},{"zip":"60119","city":"Elburn","state":"IL","lat":41.8824,"long":-88.4611},{"zip":"60120","city":"Elgin","state":"IL","lat":42.0384,"long":-88.2606},{"zip":"60121","city":"Elgin","state":"IL","lat":42.0372,"long":-88.2812},{"zip":"60122","city":"Elgin","state":"IL","lat":42.0671,"long":-88.305},{"zip":"60123","city":"Elgin","state":"IL","lat":42.0376,"long":-88.3186},{"zip":"60124","city":"Elgin","state":"IL","lat":42.0293,"long":-88.3747},{"zip":"60134","city":"Geneva","state":"IL","lat":41.886,"long":-88.311},{"zip":"60136","city":"Gilberts","state":"IL","lat":42.0984,"long":-88.3691},{"zip":"60140","city":"Hampshire","state":"IL","lat":42.0807,"long":-88.517},{"zip":"60144","city":"Kaneville","state":"IL","lat":41.8353,"long":-88.522},{"zip":"60147","city":"Lafox","state":"IL","lat":41.937,"long":-88.4202},{"zip":"60151","city":"Maple Park","state":"IL","lat":41.9232,"long":-88.5999},{"zip":"60174","city":"Saint Charles","state":"IL","lat":41.9194,"long":-88.307},{"zip":"60175","city":"Saint Charles","state":"IL","lat":41.9478,"long":-88.3918},{"zip":"60177","city":"South Elgin","state":"IL","lat":41.9969,"long":-88.2986},{"zip":"60183","city":"Wasco","state":"IL","lat":41.937,"long":-88.4202},{"zip":"60502","city":"Aurora","state":"IL","lat":41.7845,"long":-88.2616},{"zip":"60505","city":"Aurora","state":"IL","lat":41.7582,"long":-88.2971},{"zip":"60506","city":"Aurora","state":"IL","lat":41.7664,"long":-88.3446},{"zip":"60507","city":"Aurora","state":"IL","lat":41.7606,"long":-88.3201},{"zip":"60510","city":"Batavia","state":"IL","lat":41.8482,"long":-88.3098},{"zip":"60511","city":"Big Rock","state":"IL","lat":41.7593,"long":-88.5376},{"zip":"60539","city":"Mooseheart","state":"IL","lat":41.8241,"long":-88.3315},{"zip":"60542","city":"North Aurora","state":"IL","lat":41.8089,"long":-88.3274},{"zip":"60554","city":"Sugar Grove","state":"IL","lat":41.7741,"long":-88.4397},{"zip":"60568","city":"Aurora","state":"IL","lat":41.7606,"long":-88.3201},{"zip":"60901","city":"Kankakee","state":"IL","lat":41.1166,"long":-87.8696},{"zip":"60910","city":"Aroma Park","state":"IL","lat":41.0798,"long":-87.8114},{"zip":"60913","city":"Bonfield","state":"IL","lat":41.1573,"long":-88.0619},{"zip":"60914","city":"Bourbonnais","state":"IL","lat":41.1661,"long":-87.879},{"zip":"60915","city":"Bradley","state":"IL","lat":41.1454,"long":-87.8601},{"zip":"60917","city":"Buckingham","state":"IL","lat":41.0433,"long":-88.1772},{"zip":"60935","city":"Essex","state":"IL","lat":41.1676,"long":-88.1845},{"zip":"60940","city":"Grant Park","state":"IL","lat":41.2477,"long":-87.648},{"zip":"60941","city":"Herscher","state":"IL","lat":41.0464,"long":-88.0858},{"zip":"60944","city":"Hopkins Park","state":"IL","lat":41.0634,"long":-87.625},{"zip":"60950","city":"Manteno","state":"IL","lat":41.2514,"long":-87.8468},{"zip":"60954","city":"Momence","state":"IL","lat":41.1593,"long":-87.6575},{"zip":"60958","city":"Pembroke Township","state":"IL","lat":41.0646,"long":-87.5917},{"zip":"60961","city":"Reddick","state":"IL","lat":41.1005,"long":-88.2089},{"zip":"60964","city":"Saint Anne","state":"IL","lat":41.0487,"long":-87.6564},{"zip":"60969","city":"Union Hill","state":"IL","lat":41.1088,"long":-88.1465},{"zip":"60512","city":"Bristol","state":"IL","lat":41.7016,"long":-88.4398},{"zip":"60536","city":"Millbrook","state":"IL","lat":41.5984,"long":-88.5529},{"zip":"60537","city":"Millington","state":"IL","lat":41.5614,"long":-88.5975},{"zip":"60538","city":"Montgomery","state":"IL","lat":41.7177,"long":-88.332},{"zip":"60541","city":"Newark","state":"IL","lat":41.5267,"long":-88.527},{"zip":"60543","city":"Oswego","state":"IL","lat":41.6849,"long":-88.3453},{"zip":"60545","city":"Plano","state":"IL","lat":41.667,"long":-88.5384},{"zip":"60560","city":"Yorkville","state":"IL","lat":41.6387,"long":-88.4438},{"zip":"60002","city":"Antioch","state":"IL","lat":42.4648,"long":-88.1178},{"zip":"60010","city":"Barrington","state":"IL","lat":42.1614,"long":-88.1383},{"zip":"60011","city":"Barrington","state":"IL","lat":42.3228,"long":-87.6101},{"zip":"60015","city":"Deerfield","state":"IL","lat":42.1705,"long":-87.859},{"zip":"60020","city":"Fox Lake","state":"IL","lat":42.3937,"long":-88.1648},{"zip":"60030","city":"Grayslake","state":"IL","lat":42.3524,"long":-88.0545},{"zip":"60031","city":"Gurnee","state":"IL","lat":42.3669,"long":-87.9452},{"zip":"60035","city":"Highland Park","state":"IL","lat":42.1794,"long":-87.8059},{"zip":"60037","city":"Fort Sheridan","state":"IL","lat":42.2097,"long":-87.8056},{"zip":"60040","city":"Highwood","state":"IL","lat":42.2035,"long":-87.8141},{"zip":"60041","city":"Ingleside","state":"IL","lat":42.3631,"long":-88.1587},{"zip":"60042","city":"Island Lake","state":"IL","lat":42.2742,"long":-88.1926},{"zip":"60044","city":"Lake Bluff","state":"IL","lat":42.282,"long":-87.856},{"zip":"60045","city":"Lake Forest","state":"IL","lat":42.2374,"long":-87.8482},{"zip":"60046","city":"Lake Villa","state":"IL","lat":42.3813,"long":-87.9991},{"zip":"60047","city":"Lake Zurich","state":"IL","lat":42.2165,"long":-88.0769},{"zip":"60048","city":"Libertyville","state":"IL","lat":42.281,"long":-87.95},{"zip":"60060","city":"Mundelein","state":"IL","lat":42.2636,"long":-88.0048},{"zip":"60061","city":"Vernon Hills","state":"IL","lat":42.2288,"long":-87.9719},{"zip":"60064","city":"North Chicago","state":"IL","lat":42.3247,"long":-87.8564},{"zip":"60069","city":"Lincolnshire","state":"IL","lat":42.1976,"long":-87.9261},{"zip":"60073","city":"Round Lake","state":"IL","lat":42.3668,"long":-88.0888},{"zip":"60075","city":"Russell","state":"IL","lat":42.4906,"long":-87.9126},{"zip":"60079","city":"Waukegan","state":"IL","lat":42.3636,"long":-87.8448},{"zip":"60083","city":"Wadsworth","state":"IL","lat":42.446,"long":-87.904},{"zip":"60084","city":"Wauconda","state":"IL","lat":42.2636,"long":-88.1333},{"zip":"60085","city":"Waukegan","state":"IL","lat":42.3542,"long":-87.8651},{"zip":"60086","city":"North Chicago","state":"IL","lat":42.4333,"long":-87.7766},{"zip":"60087","city":"Waukegan","state":"IL","lat":42.3989,"long":-87.8554},{"zip":"60088","city":"Great Lakes","state":"IL","lat":42.3032,"long":-87.8642},{"zip":"60089","city":"Buffalo Grove","state":"IL","lat":42.1598,"long":-87.9644},{"zip":"60096","city":"Winthrop Harbor","state":"IL","lat":42.4793,"long":-87.8318},{"zip":"60099","city":"Zion","state":"IL","lat":42.4442,"long":-87.8389},{"zip":"60470","city":"Ransom","state":"IL","lat":41.153,"long":-88.6502},{"zip":"60518","city":"Earlville","state":"IL","lat":41.5859,"long":-88.9103},{"zip":"60531","city":"Leland","state":"IL","lat":41.6066,"long":-88.7716},{"zip":"60549","city":"Serena","state":"IL","lat":41.4995,"long":-88.7509},{"zip":"60551","city":"Sheridan","state":"IL","lat":41.5164,"long":-88.6706},{"zip":"60557","city":"Wedron","state":"IL","lat":41.4409,"long":-88.7703},{"zip":"60530","city":"Lee","state":"IL","lat":41.7864,"long":-88.9714},{"zip":"60553","city":"Steward","state":"IL","lat":41.8475,"long":-89.0151},{"zip":"60420","city":"Dwight","state":"IL","lat":41.0887,"long":-88.4159},{"zip":"60460","city":"Odell","state":"IL","lat":41.0238,"long":-88.5156},{"zip":"60920","city":"Campus","state":"IL","lat":41.0248,"long":-88.3072},{"zip":"60921","city":"Chatsworth","state":"IL","lat":40.7484,"long":-88.2937},{"zip":"60929","city":"Cullom","state":"IL","lat":40.8781,"long":-88.2765},{"zip":"60934","city":"Emington","state":"IL","lat":40.9692,"long":-88.3589},{"zip":"60001","city":"Alden","state":"IL","lat":42.3248,"long":-88.4525},{"zip":"60012","city":"Crystal Lake","state":"IL","lat":42.2662,"long":-88.3213},{"zip":"60013","city":"Cary","state":"IL","lat":42.2196,"long":-88.2426},{"zip":"60014","city":"Crystal Lake","state":"IL","lat":42.2308,"long":-88.3324},{"zip":"60021","city":"Fox River Grove","state":"IL","lat":42.1936,"long":-88.2205},{"zip":"60033","city":"Harvard","state":"IL","lat":42.4227,"long":-88.6048},{"zip":"60034","city":"Hebron","state":"IL","lat":42.4642,"long":-88.4176},{"zip":"60039","city":"Crystal Lake","state":"IL","lat":42.3248,"long":-88.4525},{"zip":"60050","city":"Mchenry","state":"IL","lat":42.3311,"long":-88.2955},{"zip":"60051","city":"Mchenry","state":"IL","lat":42.3542,"long":-88.2294},{"zip":"60071","city":"Richmond","state":"IL","lat":42.4669,"long":-88.29},{"zip":"60072","city":"Ringwood","state":"IL","lat":42.4048,"long":-88.3054},{"zip":"60081","city":"Spring Grove","state":"IL","lat":42.4413,"long":-88.2237},{"zip":"60097","city":"Wonder Lake","state":"IL","lat":42.3849,"long":-88.3534},{"zip":"60098","city":"Woodstock","state":"IL","lat":42.3198,"long":-88.4477},{"zip":"60102","city":"Algonquin","state":"IL","lat":42.1641,"long":-88.3064},{"zip":"60142","city":"Huntley","state":"IL","lat":42.1756,"long":-88.4268},{"zip":"60152","city":"Marengo","state":"IL","lat":42.2442,"long":-88.6074},{"zip":"60156","city":"Lake In The Hills","state":"IL","lat":42.1817,"long":-88.3304},{"zip":"60180","city":"Union","state":"IL","lat":42.2103,"long":-88.5283},{"zip":"60113","city":"Creston","state":"IL","lat":41.9312,"long":-88.9566},{"zip":"60932","city":"East Lynn","state":"IL","lat":40.4633,"long":-87.8056},{"zip":"60942","city":"Hoopeston","state":"IL","lat":40.4639,"long":-87.6662},{"zip":"60960","city":"Rankin","state":"IL","lat":40.4559,"long":-87.8884},{"zip":"60963","city":"Rossville","state":"IL","lat":40.3625,"long":-87.6692},{"zip":"60401","city":"Beecher","state":"IL","lat":41.3444,"long":-87.6115},{"zip":"60403","city":"Crest Hill","state":"IL","lat":41.5548,"long":-88.0987},{"zip":"60404","city":"Shorewood","state":"IL","lat":41.5076,"long":-88.2169},{"zip":"60408","city":"Braidwood","state":"IL","lat":41.2657,"long":-88.2231},{"zip":"60410","city":"Channahon","state":"IL","lat":41.4347,"long":-88.2138},{"zip":"60417","city":"Crete","state":"IL","lat":41.439,"long":-87.6027},{"zip":"60421","city":"Elwood","state":"IL","lat":41.426,"long":-88.0864},{"zip":"60423","city":"Frankfort","state":"IL","lat":41.5094,"long":-87.8248},{"zip":"60428","city":"Markham","state":"IL","lat":41.5998,"long":-87.6906},{"zip":"60431","city":"Joliet","state":"IL","lat":41.4712,"long":-87.9391},{"zip":"60432","city":"Joliet","state":"IL","lat":41.5378,"long":-88.0572},{"zip":"60433","city":"Joliet","state":"IL","lat":41.5119,"long":-88.0569},{"zip":"60434","city":"Joliet","state":"IL","lat":41.5254,"long":-88.0842},{"zip":"60435","city":"Joliet","state":"IL","lat":41.5454,"long":-88.1299},{"zip":"60436","city":"Joliet","state":"IL","lat":41.4884,"long":-88.1572},{"zip":"60440","city":"Bolingbrook","state":"IL","lat":41.6976,"long":-88.0873},{"zip":"60441","city":"Lockport","state":"IL","lat":41.593,"long":-88.0507},{"zip":"60442","city":"Manhattan","state":"IL","lat":41.4289,"long":-87.9771},{"zip":"60446","city":"Romeoville","state":"IL","lat":41.6404,"long":-88.0696},{"zip":"60448","city":"Mokena","state":"IL","lat":41.5342,"long":-87.8911},{"zip":"60449","city":"Monee","state":"IL","lat":41.4191,"long":-87.7748},{"zip":"60451","city":"New Lenox","state":"IL","lat":41.5067,"long":-87.9631},{"zip":"60468","city":"Peotone","state":"IL","lat":41.3361,"long":-87.7897},{"zip":"60481","city":"Wilmington","state":"IL","lat":41.3078,"long":-88.1467},{"zip":"60484","city":"University Park","state":"IL","lat":41.4418,"long":-87.7101},{"zip":"60487","city":"Tinley Park","state":"IL","lat":41.5636,"long":-87.8342},{"zip":"60490","city":"Bolingbrook","state":"IL","lat":41.679,"long":-88.1403},{"zip":"60491","city":"Homer Glen","state":"IL","lat":41.6028,"long":-87.9599},{"zip":"60503","city":"Aurora","state":"IL","lat":41.7199,"long":-88.2548},{"zip":"60544","city":"Plainfield","state":"IL","lat":41.6009,"long":-88.1994},{"zip":"60564","city":"Naperville","state":"IL","lat":41.704,"long":-88.1952},{"zip":"60585","city":"Plainfield","state":"IL","lat":41.6558,"long":-88.2203},{"zip":"60586","city":"Plainfield","state":"IL","lat":41.5642,"long":-88.2178}]
