[{"zip":"60004","city":"Arlington Heights","state":"IL","lat":42.112,"long":-87.9792},{"zip":"60005","city":"Arlington Heights","state":"IL","lat":42.0639,"long":-87.9856},{"zip":"60006","city":"Arlington Heights","state":"IL","lat":42.0884,"long":-87.9806},{"zip":"60007","city":"Elk Grove Village","state":"IL","lat":42.0076,"long":-87.9931},{"zip":"60008","city":"Rolling Meadows","state":"IL","lat":42.073,"long":-88.0191},{"zip":"60009","city":"Elk Grove Village","state":"IL","lat":42.0039,"long":-87.9703},{"zip":"60016","city":"Des Plaines","state":"IL","lat":42.0467,"long":-87.8859},{"zip":"60017","city":"Des Plaines","state":"IL","lat":42.0288,"long":-87.8944},{"zip":"60018","city":"Des Plaines","state":"IL","lat":42.0155,"long":-87.8687},{"zip":"60019","city":"Des Plaines","state":"IL","lat":42.0243,"long":-87.9071},{"zip":"60022","city":"Glencoe","state":"IL","lat":42.1333,"long":-87.7615},{"zip":"60025","city":"Glenview","state":"IL","lat":42.0758,"long":-87.8223},{"zip":"60026","city":"Glenview","state":"IL","lat":42.0698,"long":-87.7878},{"zip":"60029","city":"Golf","state":"IL","lat":42.058,"long":-87.7916},{"zip":"60038","city":"Palatine","state":"IL","lat":42.098,"long":-88.0141},{"zip":"60043","city":"Kenilworth","state":"IL","lat":42.0884,"long":-87.7165},{"zip":"60053","city":"Morton Grove","state":"IL","lat":42.0431,"long":-87.7899},{"zip":"60055","city":"Palatine","state":"IL","lat":42.098,"long":-88.0141},{"zip":"60056","city":"Mount Prospect","state":"IL","lat":42.0624,"long":-87.9377},{"zip":"60062","city":"Northbrook","state":"IL","lat":42.1254,"long":-87.8465},{"zip":"60065","city":"Northbrook","state":"IL","lat":42.1275,"long":-87.829},{"zip":"60067","city":"Palatine","state":"IL","lat":42.1139,"long":-88.0429},{"zip":"60068","city":"Park Ridge","state":"IL","lat":42.0122,"long":-87.8417},{"zip":"60070","city":"Prospect Heights","state":"IL","lat":42.1058,"long":-87.9395},{"zip":"60074","city":"Palatine","state":"IL","lat":42.1458,"long":-88.023},{"zip":"60076","city":"Skokie","state":"IL","lat":42.0362,"long":-87.7328},{"zip":"60077","city":"Skokie","state":"IL","lat":42.0345,"long":-87.7541},{"zip":"60078","city":"Palatine","state":"IL","lat":42.1103,"long":-88.0342},{"zip":"60082","city":"Techny","state":"IL","lat":42.1164,"long":-87.8121},{"zip":"60090","city":"Wheeling","state":"IL","lat":42.134,"long":-87.9341},{"zip":"60091","city":"Wilmette","state":"IL","lat":42.0765,"long":-87.7246},{"zip":"60093","city":"Winnetka","state":"IL","lat":42.1054,"long":-87.7535},{"zip":"60094","city":"Palatine","state":"IL","lat":42.1103,"long":-88.0342},{"zip":"60095","city":"Palatine","state":"IL","lat":42.1103,"long":-88.0342},{"zip":"60002","city":"Antioch","state":"IL","lat":42.4648,"long":-88.1178},{"zip":"60010","city":"Barrington","state":"IL","lat":42.1614,"long":-88.1383},{"zip":"60011","city":"Barrington","state":"IL","lat":42.3228,"long":-87.6101},{"zip":"60015","city":"Deerfield","state":"IL","lat":42.1705,"long":-87.859},{"zip":"60020","city":"Fox Lake","state":"IL","lat":42.3937,"long":-88.1648},{"zip":"60030","city":"Grayslake","state":"IL","lat":42.3524,"long":-88.0545},{"zip":"60031","city":"Gurnee","state":"IL","lat":42.3669,"long":-87.9452},{"zip":"60035","city":"Highland Park","state":"IL","lat":42.1794,"long":-87.8059},{"zip":"60037","city":"Fort Sheridan","state":"IL","lat":42.2097,"long":-87.8056},{"zip":"60040","city":"Highwood","state":"IL","lat":42.2035,"long":-87.8141},{"zip":"60041","city":"Ingleside","state":"IL","lat":42.3631,"long":-88.1587},{"zip":"60042","city":"Island Lake","state":"IL","lat":42.2742,"long":-88.1926},{"zip":"60044","city":"Lake Bluff","state":"IL","lat":42.282,"long":-87.856},{"zip":"60045","city":"Lake Forest","state":"IL","lat":42.2374,"long":-87.8482},{"zip":"60046","city":"Lake Villa","state":"IL","lat":42.3813,"long":-87.9991},{"zip":"60047","city":"Lake Zurich","state":"IL","lat":42.2165,"long":-88.0769},{"zip":"60048","city":"Libertyville","state":"IL","lat":42.281,"long":-87.95},{"zip":"60060","city":"Mundelein","state":"IL","lat":42.2636,"long":-88.0048},{"zip":"60061","city":"Vernon Hills","state":"IL","lat":42.2288,"long":-87.9719},{"zip":"60064","city":"North Chicago","state":"IL","lat":42.3247,"long":-87.8564},{"zip":"60069","city":"Lincolnshire","state":"IL","lat":42.1976,"long":-87.9261},{"zip":"60073","city":"Round Lake","state":"IL","lat":42.3668,"long":-88.0888},{"zip":"60075","city":"Russell","state":"IL","lat":42.4906,"long":-87.9126},{"zip":"60079","city":"Waukegan","state":"IL","lat":42.3636,"long":-87.8448},{"zip":"60083","city":"Wadsworth","state":"IL","lat":42.446,"long":-87.904},{"zip":"60084","city":"Wauconda","state":"IL","lat":42.2636,"long":-88.1333},{"zip":"60085","city":"Waukegan","state":"IL","lat":42.3542,"long":-87.8651},{"zip":"60086","city":"North Chicago","state":"IL","lat":42.4333,"long":-87.7766},{"zip":"60087","city":"Waukegan","state":"IL","lat":42.3989,"long":-87.8554},{"zip":"60088","city":"Great Lakes","state":"IL","lat":42.3032,"long":-87.8642},{"zip":"60089","city":"Buffalo Grove","state":"IL","lat":42.1598,"long":-87.9644},{"zip":"60096","city":"Winthrop Harbor","state":"IL","lat":42.4793,"long":-87.8318},{"zip":"60099","city":"Zion","state":"IL","lat":42.4442,"long":-87.8389},{"zip":"60001","city":"Alden","state":"IL","lat":42.3248,"long":-88.4525},{"zip":"60012","city":"Crystal Lake","state":"IL","lat":42.2662,"long":-88.3213},{"zip":"60013","city":"Cary","state":"IL","lat":42.2196,"long":-88.2426},{"zip":"60014","city":"Crystal Lake","state":"IL","lat":42.2308,"long":-88.3324},{"zip":"60021","city":"Fox River Grove","state":"IL","lat":42.1936,"long":-88.2205},{"zip":"60033","city":"Harvard","state":"IL","lat":42.4227,"long":-88.6048},{"zip":"60034","city":"Hebron","state":"IL","lat":42.4642,"long":-88.4176},{"zip":"60039","city":"Crystal Lake","state":"IL","lat":42.3248,"long":-88.4525},{"zip":"60050","city":"Mchenry","state":"IL","lat":42.3311,"long":-88.2955},{"zip":"60051","city":"Mchenry","state":"IL","lat":42.3542,"long":-88.2294},{"zip":"60071","city":"Richmond","state":"IL","lat":42.4669,"long":-88.29},{"zip":"60072","city":"Ringwood","state":"IL","lat":42.4048,"long":-88.3054},{"zip":"60081","city":"Spring Grove","state":"IL","lat":42.4413,"long":-88.2237},{"zip":"60097","city":"Wonder Lake","state":"IL","lat":42.3849,"long":-88.3534},{"zip":"60098","city":"Woodstock","state":"IL","lat":42.3198,"long":-88.4477}]
