[{"zip":"60402","city":"Berwyn","state":"IL","lat":41.8347,"long":-87.7914},{"zip":"60406","city":"Blue Island","state":"IL","lat":41.6582,"long":-87.6795},{"zip":"60409","city":"Calumet City","state":"IL","lat":41.6153,"long":-87.5483},{"zip":"60411","city":"Chicago Heights","state":"IL","lat":41.5087,"long":-87.5904},{"zip":"60412","city":"Chicago Heights","state":"IL","lat":41.5061,"long":-87.6356},{"zip":"60415","city":"Chicago Ridge","state":"IL","lat":41.7017,"long":-87.7774},{"zip":"60419","city":"Dolton","state":"IL","lat":41.6257,"long":-87.598},{"zip":"60422","city":"Flossmoor","state":"IL","lat":41.5406,"long":-87.6837},{"zip":"60425","city":"Glenwood","state":"IL","lat":41.5467,"long":-87.6126},{"zip":"60426","city":"Harvey","state":"IL","lat":41.6103,"long":-87.6534},{"zip":"60429","city":"Hazel Crest","state":"IL","lat":41.5738,"long":-87.6849},{"zip":"60430","city":"Homewood","state":"IL","lat":41.5556,"long":-87.6616},{"zip":"60438","city":"Lansing","state":"IL","lat":41.566,"long":-87.5446},{"zip":"60443","city":"Matteson","state":"IL","lat":41.5102,"long":-87.7406},{"zip":"60445","city":"Midlothian","state":"IL","lat":41.635,"long":-87.7362},{"zip":"60452","city":"Oak Forest","state":"IL","lat":41.6077,"long":-87.7542},{"zip":"60453","city":"Oak Lawn","state":"IL","lat":41.7143,"long":-87.7516},{"zip":"60454","city":"Oak Lawn","state":"IL","lat":41.8119,"long":-87.6873},{"zip":"60455","city":"Bridgeview","state":"IL","lat":41.7431,"long":-87.8066},{"zip":"60456","city":"Hometown","state":"IL","lat":41.7311,"long":-87.7315},{"zip":"60457","city":"Hickory Hills","state":"IL","lat":41.7262,"long":-87.8289},{"zip":"60458","city":"Justice","state":"IL","lat":41.7447,"long":-87.8346},{"zip":"60459","city":"Burbank","state":"IL","lat":41.7447,"long":-87.7699},{"zip":"60461","city":"Olympia Fields","state":"IL","lat":41.5167,"long":-87.6908},{"zip":"60462","city":"Orland Park","state":"IL","lat":41.6194,"long":-87.8423},{"zip":"60463","city":"Palos Heights","state":"IL","lat":41.6621,"long":-87.7927},{"zip":"60464","city":"Palos Park","state":"IL","lat":41.6624,"long":-87.8521},{"zip":"60465","city":"Palos Hills","state":"IL","lat":41.7004,"long":-87.8263},{"zip":"60466","city":"Park Forest","state":"IL","lat":41.479,"long":-87.6828},{"zip":"60467","city":"Orland Park","state":"IL","lat":41.6018,"long":-87.8899},{"zip":"60469","city":"Posen","state":"IL","lat":41.6277,"long":-87.6872},{"zip":"60471","city":"Richton Park","state":"IL","lat":41.4819,"long":-87.7238},{"zip":"60472","city":"Robbins","state":"IL","lat":41.6423,"long":-87.7089},{"zip":"60473","city":"South Holland","state":"IL","lat":41.5979,"long":-87.5938},{"zip":"60475","city":"Steger","state":"IL","lat":41.4686,"long":-87.6386},{"zip":"60476","city":"Thornton","state":"IL","lat":41.5727,"long":-87.6078},{"zip":"60477","city":"Tinley Park","state":"IL","lat":41.5825,"long":-87.805},{"zip":"60478","city":"Country Club Hills","state":"IL","lat":41.5637,"long":-87.7247},{"zip":"60480","city":"Willow Springs","state":"IL","lat":41.7364,"long":-87.8786},{"zip":"60482","city":"Worth","state":"IL","lat":41.6895,"long":-87.7863},{"zip":"60499","city":"Bedford Park","state":"IL","lat":41.8119,"long":-87.6873},{"zip":"60439","city":"Lemont","state":"IL","lat":41.7074,"long":-87.9756},{"zip":"60407","city":"Braceville","state":"IL","lat":41.2288,"long":-88.269},{"zip":"60416","city":"Coal City","state":"IL","lat":41.2908,"long":-88.2823},{"zip":"60424","city":"Gardner","state":"IL","lat":41.1775,"long":-88.338},{"zip":"60437","city":"Kinsman","state":"IL","lat":41.1631,"long":-88.5535},{"zip":"60444","city":"Mazon","state":"IL","lat":41.2264,"long":-88.4217},{"zip":"60447","city":"Minooka","state":"IL","lat":41.4615,"long":-88.2786},{"zip":"60450","city":"Morris","state":"IL","lat":41.3672,"long":-88.4178},{"zip":"60474","city":"South Wilmington","state":"IL","lat":41.1728,"long":-88.2767},{"zip":"60479","city":"Verona","state":"IL","lat":41.2501,"long":-88.517},{"zip":"60470","city":"Ransom","state":"IL","lat":41.153,"long":-88.6502},{"zip":"60420","city":"Dwight","state":"IL","lat":41.0887,"long":-88.4159},{"zip":"60460","city":"Odell","state":"IL","lat":41.0238,"long":-88.5156},{"zip":"60401","city":"Beecher","state":"IL","lat":41.3444,"long":-87.6115},{"zip":"60403","city":"Crest Hill","state":"IL","lat":41.5548,"long":-88.0987},{"zip":"60404","city":"Shorewood","state":"IL","lat":41.5076,"long":-88.2169},{"zip":"60408","city":"Braidwood","state":"IL","lat":41.2657,"long":-88.2231},{"zip":"60410","city":"Channahon","state":"IL","lat":41.4347,"long":-88.2138},{"zip":"60417","city":"Crete","state":"IL","lat":41.439,"long":-87.6027},{"zip":"60421","city":"Elwood","state":"IL","lat":41.426,"long":-88.0864},{"zip":"60423","city":"Frankfort","state":"IL","lat":41.5094,"long":-87.8248},{"zip":"60428","city":"Markham","state":"IL","lat":41.5998,"long":-87.6906},{"zip":"60431","city":"Joliet","state":"IL","lat":41.4712,"long":-87.9391},{"zip":"60432","city":"Joliet","state":"IL","lat":41.5378,"long":-88.0572},{"zip":"60433","city":"Joliet","state":"IL","lat":41.5119,"long":-88.0569},{"zip":"60434","city":"Joliet","state":"IL","lat":41.5254,"long":-88.0842},{"zip":"60435","city":"Joliet","state":"IL","lat":41.5454,"long":-88.1299},{"zip":"60436","city":"Joliet","state":"IL","lat":41.4884,"long":-88.1572},{"zip":"60440","city":"Bolingbrook","state":"IL","lat":41.6976,"long":-88.0873},{"zip":"60441","city":"Lockport","state":"IL","lat":41.593,"long":-88.0507},{"zip":"60442","city":"Manhattan","state":"IL","lat":41.4289,"long":-87.9771},{"zip":"60446","city":"Romeoville","state":"IL","lat":41.6404,"long":-88.0696},{"zip":"60448","city":"Mokena","state":"IL","lat":41.5342,"long":-87.8911},{"zip":"60449","city":"Monee","state":"IL","lat":41.4191,"long":-87.7748},{"zip":"60451","city":"New Lenox","state":"IL","lat":41.5067,"long":-87.9631},{"zip":"60468","city":"Peotone","state":"IL","lat":41.3361,"long":-87.7897},{"zip":"60481","city":"Wilmington","state":"IL","lat":41.3078,"long":-88.1467},{"zip":"60484","city":"University Park","state":"IL","lat":41.4418,"long":-87.7101},{"zip":"60487","city":"Tinley Park","state":"IL","lat":41.5636,"long":-87.8342},{"zip":"60490","city":"Bolingbrook","state":"IL","lat":41.679,"long":-88.1403},{"zip":"60491","city":"Homer Glen","state":"IL","lat":41.6028,"long":-87.9599}]
