[{"zip":"60501","city":"Summit Argo","state":"IL","lat":41.7801,"long":-87.824},{"zip":"60513","city":"Brookfield","state":"IL","lat":41.8217,"long":-87.8492},{"zip":"60525","city":"La Grange","state":"IL","lat":41.7842,"long":-87.8689},{"zip":"60526","city":"La Grange Park","state":"IL","lat":41.8318,"long":-87.874},{"zip":"60534","city":"Lyons","state":"IL","lat":41.813,"long":-87.8236},{"zip":"60546","city":"Riverside","state":"IL","lat":41.8379,"long":-87.8213},{"zip":"60558","city":"Western Springs","state":"IL","lat":41.8049,"long":-87.8995},{"zip":"60520","city":"Hinckley","state":"IL","lat":41.7691,"long":-88.6448},{"zip":"60548","city":"Sandwich","state":"IL","lat":41.6353,"long":-88.6393},{"zip":"60550","city":"Shabbona","state":"IL","lat":41.7638,"long":-88.8752},{"zip":"60552","city":"Somonauk","state":"IL","lat":41.6383,"long":-88.6816},{"zip":"60556","city":"Waterman","state":"IL","lat":41.7504,"long":-88.7754},{"zip":"60504","city":"Aurora","state":"IL","lat":41.7523,"long":-88.2453},{"zip":"60514","city":"Clarendon Hills","state":"IL","lat":41.7965,"long":-87.9569},{"zip":"60515","city":"Downers Grove","state":"IL","lat":41.8034,"long":-88.0138},{"zip":"60516","city":"Downers Grove","state":"IL","lat":41.7602,"long":-88.0159},{"zip":"60517","city":"Woodridge","state":"IL","lat":41.7518,"long":-88.0489},{"zip":"60519","city":"Eola","state":"IL","lat":41.7775,"long":-88.2428},{"zip":"60521","city":"Hinsdale","state":"IL","lat":41.8001,"long":-87.9287},{"zip":"60522","city":"Hinsdale","state":"IL","lat":41.8397,"long":-88.0887},{"zip":"60523","city":"Oak Brook","state":"IL","lat":41.8371,"long":-87.9638},{"zip":"60527","city":"Willowbrook","state":"IL","lat":41.7447,"long":-87.9334},{"zip":"60532","city":"Lisle","state":"IL","lat":41.7862,"long":-88.0879},{"zip":"60540","city":"Naperville","state":"IL","lat":41.7662,"long":-88.141},{"zip":"60555","city":"Warrenville","state":"IL","lat":41.828,"long":-88.1921},{"zip":"60559","city":"Westmont","state":"IL","lat":41.7728,"long":-87.9757},{"zip":"60561","city":"Darien","state":"IL","lat":41.7434,"long":-87.9805},{"zip":"60563","city":"Naperville","state":"IL","lat":41.7895,"long":-88.169},{"zip":"60565","city":"Naperville","state":"IL","lat":41.7328,"long":-88.1282},{"zip":"60566","city":"Naperville","state":"IL","lat":41.8397,"long":-88.0887},{"zip":"60567","city":"Naperville","state":"IL","lat":41.7859,"long":-88.1473},{"zip":"60572","city":"Aurora","state":"IL","lat":41.7606,"long":-88.3201},{"zip":"60598","city":"Aurora","state":"IL","lat":41.8397,"long":-88.0887},{"zip":"60599","city":"Fox Valley","state":"IL","lat":41.8397,"long":-88.0887},{"zip":"60502","city":"Aurora","state":"IL","lat":41.7845,"long":-88.2616},{"zip":"60505","city":"Aurora","state":"IL","lat":41.7582,"long":-88.2971},{"zip":"60506","city":"Aurora","state":"IL","lat":41.7664,"long":-88.3446},{"zip":"60507","city":"Aurora","state":"IL","lat":41.7606,"long":-88.3201},{"zip":"60510","city":"Batavia","state":"IL","lat":41.8482,"long":-88.3098},{"zip":"60511","city":"Big Rock","state":"IL","lat":41.7593,"long":-88.5376},{"zip":"60539","city":"Mooseheart","state":"IL","lat":41.8241,"long":-88.3315},{"zip":"60542","city":"North Aurora","state":"IL","lat":41.8089,"long":-88.3274},{"zip":"60554","city":"Sugar Grove","state":"IL","lat":41.7741,"long":-88.4397},{"zip":"60568","city":"Aurora","state":"IL","lat":41.7606,"long":-88.3201},{"zip":"60512","city":"Bristol","state":"IL","lat":41.7016,"long":-88.4398},{"zip":"60536","city":"Millbrook","state":"IL","lat":41.5984,"long":-88.5529},{"zip":"60537","city":"Millington","state":"IL","lat":41.5614,"long":-88.5975},{"zip":"60538","city":"Montgomery","state":"IL","lat":41.7177,"long":-88.332},{"zip":"60541","city":"Newark","state":"IL","lat":41.5267,"long":-88.527},{"zip":"60543","city":"Oswego","state":"IL","lat":41.6849,"long":-88.3453},{"zip":"60545","city":"Plano","state":"IL","lat":41.667,"long":-88.5384},{"zip":"60560","city":"Yorkville","state":"IL","lat":41.6387,"long":-88.4438},{"zip":"60518","city":"Earlville","state":"IL","lat":41.5859,"long":-88.9103},{"zip":"60531","city":"Leland","state":"IL","lat":41.6066,"long":-88.7716},{"zip":"60549","city":"Serena","state":"IL","lat":41.4995,"long":-88.7509},{"zip":"60551","city":"Sheridan","state":"IL","lat":41.5164,"long":-88.6706},{"zip":"60557","city":"Wedron","state":"IL","lat":41.4409,"long":-88.7703},{"zip":"60530","city":"Lee","state":"IL","lat":41.7864,"long":-88.9714},{"zip":"60553","city":"Steward","state":"IL","lat":41.8475,"long":-89.0151},{"zip":"60503","city":"Aurora","state":"IL","lat":41.7199,"long":-88.2548},{"zip":"60544","city":"Plainfield","state":"IL","lat":41.6009,"long":-88.1994},{"zip":"60564","city":"Naperville","state":"IL","lat":41.704,"long":-88.1952},{"zip":"60585","city":"Plainfield","state":"IL","lat":41.6558,"long":-88.2203},{"zip":"60586","city":"Plainfield","state":"IL","lat":41.5642,"long":-88.2178}]
