[{"zip":"60601","city":"Chicago","state":"IL","lat":41.8858,"long":-87.6181},{"zip":"60602","city":"Chicago","state":"IL","lat":41.8829,"long":-87.6321},{"zip":"60603","city":"Chicago","state":"IL","lat":41.8798,"long":-87.6285},{"zip":"60604","city":"Chicago","state":"IL","lat":41.8785,"long":-87.633},{"zip":"60605","city":"Chicago","state":"IL","lat":41.8713,"long":-87.6277},{"zip":"60606","city":"Chicago","state":"IL","lat":41.8868,"long":-87.6386},{"zip":"60607","city":"Chicago","state":"IL","lat":41.8721,"long":-87.6578},{"zip":"60608","city":"Chicago","state":"IL","lat":41.8515,"long":-87.6694},{"zip":"60609","city":"Chicago","state":"IL","lat":41.8097,"long":-87.6533},{"zip":"60610","city":"Chicago","state":"IL","lat":41.9033,"long":-87.6336},{"zip":"60611","city":"Chicago","state":"IL","lat":41.8971,"long":-87.6223},{"zip":"60612","city":"Chicago","state":"IL","lat":41.8805,"long":-87.6873},{"zip":"60613","city":"Chicago","state":"IL","lat":41.9543,"long":-87.6575},{"zip":"60614","city":"Chicago","state":"IL","lat":41.9229,"long":-87.6483},{"zip":"60615","city":"Chicago","state":"IL","lat":41.8022,"long":-87.6006},{"zip":"60616","city":"Chicago","state":"IL","lat":41.8426,"long":-87.6306},{"zip":"60617","city":"Chicago","state":"IL","lat":41.7257,"long":-87.556},{"zip":"60618","city":"Chicago","state":"IL","lat":41.9464,"long":-87.7042},{"zip":"60619","city":"Chicago","state":"IL","lat":41.7458,"long":-87.6054},{"zip":"60620","city":"Chicago","state":"IL","lat":41.7411,"long":-87.6543},{"zip":"60621","city":"Chicago","state":"IL","lat":41.775,"long":-87.6421},{"zip":"60622","city":"Chicago","state":"IL","lat":41.9019,"long":-87.6779},{"zip":"60623","city":"Chicago","state":"IL","lat":41.849,"long":-87.7157},{"zip":"60624","city":"Chicago","state":"IL","lat":41.8804,"long":-87.7223},{"zip":"60625","city":"Chicago","state":"IL","lat":41.9703,"long":-87.7042},{"zip":"60626","city":"Chicago","state":"IL","lat":42.0095,"long":-87.6689},{"zip":"60628","city":"Chicago","state":"IL","lat":41.6934,"long":-87.6243},{"zip":"60629","city":"Chicago","state":"IL","lat":41.7781,"long":-87.7069},{"zip":"60630","city":"Chicago","state":"IL","lat":41.9699,"long":-87.7603},{"zip":"60631","city":"Chicago","state":"IL","lat":41.9951,"long":-87.8082},{"zip":"60632","city":"Chicago","state":"IL","lat":41.8093,"long":-87.7052},{"zip":"60633","city":"Chicago","state":"IL","lat":41.6642,"long":-87.5612},{"zip":"60634","city":"Chicago","state":"IL","lat":41.9463,"long":-87.8061},{"zip":"60636","city":"Chicago","state":"IL","lat":41.776,"long":-87.6674},{"zip":"60637","city":"Chicago","state":"IL","lat":41.7813,"long":-87.6051},{"zip":"60638","city":"Chicago","state":"IL","lat":41.7814,"long":-87.7705},{"zip":"60639","city":"Chicago","state":"IL","lat":41.9202,"long":-87.7535},{"zip":"60640","city":"Chicago","state":"IL","lat":41.9719,"long":-87.6624},{"zip":"60641","city":"Chicago","state":"IL","lat":41.9453,"long":-87.7474},{"zip":"60642","city":"Chicago","state":"IL","lat":41.9008,"long":-87.6528},{"zip":"60643","city":"Chicago","state":"IL","lat":41.6996,"long":-87.6628},{"zip":"60644","city":"Chicago","state":"IL","lat":41.8829,"long":-87.7582},{"zip":"60645","city":"Chicago","state":"IL","lat":42.0086,"long":-87.6947},{"zip":"60646","city":"Chicago","state":"IL","lat":41.993,"long":-87.7596},{"zip":"60647","city":"Chicago","state":"IL","lat":41.9209,"long":-87.7043},{"zip":"60649","city":"Chicago","state":"IL","lat":41.762,"long":-87.5703},{"zip":"60651","city":"Chicago","state":"IL","lat":41.9025,"long":-87.7393},{"zip":"60652","city":"Chicago","state":"IL","lat":41.7454,"long":-87.7135},{"zip":"60653","city":"Chicago","state":"IL","lat":41.8196,"long":-87.6126},{"zip":"60654","city":"Chicago","state":"IL","lat":41.8923,"long":-87.6373},{"zip":"60655","city":"Chicago","state":"IL","lat":41.6948,"long":-87.7038},{"zip":"60656","city":"Chicago","state":"IL","lat":41.9735,"long":-87.8658},{"zip":"60657","city":"Chicago","state":"IL","lat":41.9399,"long":-87.6528},{"zip":"60659","city":"Chicago","state":"IL","lat":41.9972,"long":-87.7166},{"zip":"60660","city":"Chicago","state":"IL","lat":41.9909,"long":-87.6629},{"zip":"60661","city":"Chicago","state":"IL","lat":41.8814,"long":-87.643},{"zip":"60664","city":"Chicago","state":"IL","lat":41.8119,"long":-87.6873},{"zip":"60666","city":"Chicago","state":"IL","lat":41.85,"long":-87.6501},{"zip":"60668","city":"Chicago","state":"IL","lat":41.8119,"long":-87.6873},{"zip":"60669","city":"Chicago","state":"IL","lat":41.8119,"long":-87.6873},{"zip":"60670","city":"Chicago","state":"IL","lat":41.8119,"long":-87.6873},{"zip":"60673","city":"Chicago","state":"IL","lat":41.8119,"long":-87.6873},{"zip":"60674","city":"Chicago","state":"IL","lat":41.8119,"long":-87.6873},{"zip":"60675","city":"Chicago","state":"IL","lat":41.8119,"long":-87.6873},{"zip":"60677","city":"Chicago","state":"IL","lat":41.8119,"long":-87.6873},{"zip":"60678","city":"Chicago","state":"IL","lat":41.8119,"long":-87.6873},{"zip":"60680","city":"Chicago","state":"IL","lat":41.8119,"long":-87.6873},{"zip":"60681","city":"Chicago","state":"IL","lat":41.8119,"long":-87.6873},{"zip":"60682","city":"Chicago","state":"IL","lat":41.837,"long":-87.685},{"zip":"60684","city":"Chicago","state":"IL","lat":41.8119,"long":-87.6873},{"zip":"60685","city":"Chicago","state":"IL","lat":41.8119,"long":-87.6873},{"zip":"60686","city":"Chicago","state":"IL","lat":41.8756,"long":-87.6378},{"zip":"60687","city":"Chicago","state":"IL","lat":41.8119,"long":-87.6873},{"zip":"60688","city":"Chicago","state":"IL","lat":41.8724,"long":-87.6688},{"zip":"60689","city":"Chicago","state":"IL","lat":41.8745,"long":-87.6353},{"zip":"60690","city":"Chicago","state":"IL","lat":41.8119,"long":-87.6873},{"zip":"60691","city":"Chicago","state":"IL","lat":41.8119,"long":-87.6873},{"zip":"60693","city":"Chicago","state":"IL","lat":41.85,"long":-87.6501},{"zip":"60694","city":"Chicago","state":"IL","lat":41.8119,"long":-87.6873},{"zip":"60695","city":"Chicago","state":"IL","lat":41.8839,"long":-87.6317},{"zip":"60696","city":"Chicago","state":"IL","lat":41.8684,"long":-87.6649},{"zip":"60697","city":"Chicago","state":"IL","lat":41.8119,"long":-87.6873},{"zip":"60699","city":"Chicago","state":"IL","lat":41.8119,"long":-87.6873}]
