[{"zip":"60949","city":"Ludlow","state":"IL","lat":40.3747,"long":-88.138},{"zip":"60919","city":"Cabery","state":"IL","lat":40.9819,"long":-88.1921},{"zip":"60933","city":"Elliott","state":"IL","lat":40.4648,"long":-88.2712},{"zip":"60936","city":"Gibson City","state":"IL","lat":40.4659,"long":-88.3609},{"zip":"60946","city":"Kempton","state":"IL","lat":40.9126,"long":-88.209},{"zip":"60952","city":"Melvin","state":"IL","lat":40.5714,"long":-88.2551},{"zip":"60957","city":"Paxton","state":"IL","lat":40.4565,"long":-88.099},{"zip":"60959","city":"Piper City","state":"IL","lat":40.7556,"long":-88.1873},{"zip":"60962","city":"Roberts","state":"IL","lat":40.6193,"long":-88.1804},{"zip":"60911","city":"Ashkum","state":"IL","lat":40.8844,"long":-87.9411},{"zip":"60912","city":"Beaverville","state":"IL","lat":40.9672,"long":-87.6217},{"zip":"60918","city":"Buckley","state":"IL","lat":40.6018,"long":-88.0361},{"zip":"60922","city":"Chebanse","state":"IL","lat":41.0254,"long":-87.8959},{"zip":"60924","city":"Cissna Park","state":"IL","lat":40.5858,"long":-87.8759},{"zip":"60926","city":"Claytonville","state":"IL","lat":40.5676,"long":-87.804},{"zip":"60927","city":"Clifton","state":"IL","lat":40.9394,"long":-87.9202},{"zip":"60928","city":"Crescent City","state":"IL","lat":40.7417,"long":-87.849},{"zip":"60930","city":"Danforth","state":"IL","lat":40.8244,"long":-87.9868},{"zip":"60931","city":"Donovan","state":"IL","lat":40.8891,"long":-87.6046},{"zip":"60938","city":"Gilman","state":"IL","lat":40.768,"long":-87.9933},{"zip":"60939","city":"Goodwine","state":"IL","lat":40.5673,"long":-87.7845},{"zip":"60945","city":"Iroquois","state":"IL","lat":40.8269,"long":-87.5847},{"zip":"60948","city":"Loda","state":"IL","lat":40.5241,"long":-88.0927},{"zip":"60951","city":"Martinton","state":"IL","lat":40.9052,"long":-87.7443},{"zip":"60953","city":"Milford","state":"IL","lat":40.6293,"long":-87.6853},{"zip":"60955","city":"Onarga","state":"IL","lat":40.712,"long":-87.9958},{"zip":"60956","city":"Papineau","state":"IL","lat":40.967,"long":-87.7161},{"zip":"60966","city":"Sheldon","state":"IL","lat":40.7803,"long":-87.5736},{"zip":"60967","city":"Stockland","state":"IL","lat":40.6145,"long":-87.5928},{"zip":"60968","city":"Thawville","state":"IL","lat":40.684,"long":-88.0999},{"zip":"60970","city":"Watseka","state":"IL","lat":40.7734,"long":-87.7309},{"zip":"60973","city":"Wellington","state":"IL","lat":40.5339,"long":-87.6561},{"zip":"60974","city":"Woodland","state":"IL","lat":40.7151,"long":-87.7307},{"zip":"60901","city":"Kankakee","state":"IL","lat":41.1166,"long":-87.8696},{"zip":"60910","city":"Aroma Park","state":"IL","lat":41.0798,"long":-87.8114},{"zip":"60913","city":"Bonfield","state":"IL","lat":41.1573,"long":-88.0619},{"zip":"60914","city":"Bourbonnais","state":"IL","lat":41.1661,"long":-87.879},{"zip":"60915","city":"Bradley","state":"IL","lat":41.1454,"long":-87.8601},{"zip":"60917","city":"Buckingham","state":"IL","lat":41.0433,"long":-88.1772},{"zip":"60935","city":"Essex","state":"IL","lat":41.1676,"long":-88.1845},{"zip":"60940","city":"Grant Park","state":"IL","lat":41.2477,"long":-87.648},{"zip":"60941","city":"Herscher","state":"IL","lat":41.0464,"long":-88.0858},{"zip":"60944","city":"Hopkins Park","state":"IL","lat":41.0634,"long":-87.625},{"zip":"60950","city":"Manteno","state":"IL","lat":41.2514,"long":-87.8468},{"zip":"60954","city":"Momence","state":"IL","lat":41.1593,"long":-87.6575},{"zip":"60958","city":"Pembroke Township","state":"IL","lat":41.0646,"long":-87.5917},{"zip":"60961","city":"Reddick","state":"IL","lat":41.1005,"long":-88.2089},{"zip":"60964","city":"Saint Anne","state":"IL","lat":41.0487,"long":-87.6564},{"zip":"60969","city":"Union Hill","state":"IL","lat":41.1088,"long":-88.1465},{"zip":"60920","city":"Campus","state":"IL","lat":41.0248,"long":-88.3072},{"zip":"60921","city":"Chatsworth","state":"IL","lat":40.7484,"long":-88.2937},{"zip":"60929","city":"Cullom","state":"IL","lat":40.8781,"long":-88.2765},{"zip":"60934","city":"Emington","state":"IL","lat":40.9692,"long":-88.3589},{"zip":"60932","city":"East Lynn","state":"IL","lat":40.4633,"long":-87.8056},{"zip":"60942","city":"Hoopeston","state":"IL","lat":40.4639,"long":-87.6662},{"zip":"60960","city":"Rankin","state":"IL","lat":40.4559,"long":-87.8884},{"zip":"60963","city":"Rossville","state":"IL","lat":40.3625,"long":-87.6692}]
