[{"zip":"61008","city":"Belvidere","state":"IL","lat":42.2595,"long":-88.8509},{"zip":"61011","city":"Caledonia","state":"IL","lat":42.3835,"long":-88.9185},{"zip":"61012","city":"Capron","state":"IL","lat":42.4087,"long":-88.7465},{"zip":"61038","city":"Garden Prairie","state":"IL","lat":42.251,"long":-88.7437},{"zip":"61065","city":"Poplar Grove","state":"IL","lat":42.3594,"long":-88.8428},{"zip":"61312","city":"Arlington","state":"IL","lat":41.4437,"long":-89.2219},{"zip":"61314","city":"Buda","state":"IL","lat":41.314,"long":-89.6795},{"zip":"61315","city":"Bureau","state":"IL","lat":41.2894,"long":-89.3686},{"zip":"61317","city":"Cherry","state":"IL","lat":41.4264,"long":-89.2126},{"zip":"61320","city":"Dalzell","state":"IL","lat":41.3547,"long":-89.1705},{"zip":"61322","city":"Depue","state":"IL","lat":41.3092,"long":-89.3252},{"zip":"61323","city":"Dover","state":"IL","lat":41.4362,"long":-89.396},{"zip":"61328","city":"Kasbeer","state":"IL","lat":41.3669,"long":-89.5131},{"zip":"61329","city":"Ladd","state":"IL","lat":41.3825,"long":-89.219},{"zip":"61330","city":"La Moille","state":"IL","lat":41.5376,"long":-89.297},{"zip":"61337","city":"Malden","state":"IL","lat":41.4245,"long":-89.3693},{"zip":"61338","city":"Manlius","state":"IL","lat":41.4555,"long":-89.6697},{"zip":"61344","city":"Mineral","state":"IL","lat":41.4036,"long":-89.8201},{"zip":"61345","city":"Neponset","state":"IL","lat":41.2905,"long":-89.7944},{"zip":"61346","city":"New Bedford","state":"IL","lat":41.5122,"long":-89.7199},{"zip":"61349","city":"Ohio","state":"IL","lat":41.5371,"long":-89.4574},{"zip":"61356","city":"Princeton","state":"IL","lat":41.3629,"long":-89.427},{"zip":"61359","city":"Seatonville","state":"IL","lat":41.3613,"long":-89.2691},{"zip":"61361","city":"Sheffield","state":"IL","lat":41.3949,"long":-89.7115},{"zip":"61362","city":"Spring Valley","state":"IL","lat":41.3279,"long":-89.2042},{"zip":"61368","city":"Tiskilwa","state":"IL","lat":41.2891,"long":-89.508},{"zip":"61374","city":"Van Orin","state":"IL","lat":41.55,"long":-89.3534},{"zip":"61376","city":"Walnut","state":"IL","lat":41.5394,"long":-89.6092},{"zip":"61379","city":"Wyanet","state":"IL","lat":41.3785,"long":-89.5744},{"zip":"61014","city":"Chadwick","state":"IL","lat":41.9962,"long":-89.8963},{"zip":"61046","city":"Lanark","state":"IL","lat":42.0935,"long":-89.8247},{"zip":"61051","city":"Milledgeville","state":"IL","lat":41.9674,"long":-89.7801},{"zip":"61053","city":"Mount Carroll","state":"IL","lat":42.1053,"long":-89.9845},{"zip":"61074","city":"Savanna","state":"IL","lat":42.0956,"long":-90.1401},{"zip":"61078","city":"Shannon","state":"IL","lat":42.161,"long":-89.7481},{"zip":"61285","city":"Thomson","state":"IL","lat":41.9816,"long":-90.0844},{"zip":"61801","city":"Urbana","state":"IL","lat":40.1095,"long":-88.2036},{"zip":"61802","city":"Urbana","state":"IL","lat":40.0746,"long":-88.1691},{"zip":"61803","city":"Urbana","state":"IL","lat":40.1059,"long":-88.2247},{"zip":"61815","city":"Bondville","state":"IL","lat":40.1134,"long":-88.3695},{"zip":"61816","city":"Broadlands","state":"IL","lat":39.9142,"long":-87.9948},{"zip":"61820","city":"Champaign","state":"IL","lat":40.111,"long":-88.2407},{"zip":"61821","city":"Champaign","state":"IL","lat":40.1073,"long":-88.2788},{"zip":"61822","city":"Champaign","state":"IL","lat":40.1317,"long":-88.2854},{"zip":"61824","city":"Champaign","state":"IL","lat":40.1164,"long":-88.2434},{"zip":"61825","city":"Champaign","state":"IL","lat":40.1164,"long":-88.2434},{"zip":"61826","city":"Champaign","state":"IL","lat":40.1131,"long":-88.3613},{"zip":"61840","city":"Dewey","state":"IL","lat":40.3131,"long":-88.277},{"zip":"61843","city":"Fisher","state":"IL","lat":40.2991,"long":-88.356},{"zip":"61845","city":"Foosland","state":"IL","lat":40.3554,"long":-88.4202},{"zip":"61847","city":"Gifford","state":"IL","lat":40.3028,"long":-88.0317},{"zip":"61849","city":"Homer","state":"IL","lat":40.0346,"long":-87.9627},{"zip":"61851","city":"Ivesdale","state":"IL","lat":39.9502,"long":-88.4451},{"zip":"61852","city":"Longview","state":"IL","lat":39.9012,"long":-88.0753},{"zip":"61853","city":"Mahomet","state":"IL","lat":40.1964,"long":-88.3928},{"zip":"61859","city":"Ogden","state":"IL","lat":40.1401,"long":-87.9665},{"zip":"61862","city":"Penfield","state":"IL","lat":40.3101,"long":-87.957},{"zip":"61863","city":"Pesotum","state":"IL","lat":39.9151,"long":-88.2743},{"zip":"61864","city":"Philo","state":"IL","lat":40.0052,"long":-88.1595},{"zip":"61866","city":"Rantoul","state":"IL","lat":40.3107,"long":-88.1462},{"zip":"61871","city":"Royal","state":"IL","lat":40.1924,"long":-87.9742},{"zip":"61872","city":"Sadorus","state":"IL","lat":39.9613,"long":-88.3447},{"zip":"61873","city":"Saint Joseph","state":"IL","lat":40.1207,"long":-88.0472},{"zip":"61874","city":"Savoy","state":"IL","lat":40.0654,"long":-88.2528},{"zip":"61875","city":"Seymour","state":"IL","lat":40.107,"long":-88.4267},{"zip":"61877","city":"Sidney","state":"IL","lat":40.0232,"long":-88.069},{"zip":"61878","city":"Thomasboro","state":"IL","lat":40.2402,"long":-88.183},{"zip":"61880","city":"Tolono","state":"IL","lat":39.985,"long":-88.2596},{"zip":"61912","city":"Ashmore","state":"IL","lat":39.5254,"long":-88.0341},{"zip":"61920","city":"Charleston","state":"IL","lat":39.4869,"long":-88.1761},{"zip":"61931","city":"Humboldt","state":"IL","lat":39.6012,"long":-88.3141},{"zip":"61938","city":"Mattoon","state":"IL","lat":39.4802,"long":-88.3762},{"zip":"61943","city":"Oakland","state":"IL","lat":39.6516,"long":-88.0253},{"zip":"61727","city":"Clinton","state":"IL","lat":40.1487,"long":-88.9627},{"zip":"61735","city":"Dewitt","state":"IL","lat":40.1848,"long":-88.7637},{"zip":"61749","city":"Kenney","state":"IL","lat":40.0967,"long":-89.0859},{"zip":"61750","city":"Lane","state":"IL","lat":40.1235,"long":-88.8597},{"zip":"61777","city":"Wapella","state":"IL","lat":40.2323,"long":-88.9673},{"zip":"61778","city":"Waynesville","state":"IL","lat":40.2437,"long":-89.1143},{"zip":"61842","city":"Farmer City","state":"IL","lat":40.2447,"long":-88.6634},{"zip":"61882","city":"Weldon","state":"IL","lat":40.1177,"long":-88.7531},{"zip":"61910","city":"Arcola","state":"IL","lat":39.687,"long":-88.3037},{"zip":"61911","city":"Arthur","state":"IL","lat":39.7077,"long":-88.4555},{"zip":"61913","city":"Atwood","state":"IL","lat":39.8044,"long":-88.4494},{"zip":"61919","city":"Camargo","state":"IL","lat":39.8,"long":-88.1468},{"zip":"61930","city":"Hindsboro","state":"IL","lat":39.7018,"long":-88.1486},{"zip":"61941","city":"Murdock","state":"IL","lat":39.8009,"long":-88.0784},{"zip":"61942","city":"Newman","state":"IL","lat":39.7848,"long":-88.0001},{"zip":"61953","city":"Tuscola","state":"IL","lat":39.7995,"long":-88.2816},{"zip":"61956","city":"Villa Grove","state":"IL","lat":39.8687,"long":-88.1616},{"zip":"61917","city":"Brocton","state":"IL","lat":39.6923,"long":-87.9263},{"zip":"61924","city":"Chrisman","state":"IL","lat":39.7996,"long":-87.6556},{"zip":"61932","city":"Hume","state":"IL","lat":39.8009,"long":-87.8747},{"zip":"61933","city":"Kansas","state":"IL","lat":39.5525,"long":-87.9352},{"zip":"61940","city":"Metcalf","state":"IL","lat":39.8008,"long":-87.7955},{"zip":"61944","city":"Paris","state":"IL","lat":39.6132,"long":-87.6976},{"zip":"61949","city":"Redmon","state":"IL","lat":39.6453,"long":-87.8617},{"zip":"61955","city":"Vermilion","state":"IL","lat":39.5811,"long":-87.5889},{"zip":"61773","city":"Sibley","state":"IL","lat":40.5823,"long":-88.3815},{"zip":"61415","city":"Avon","state":"IL","lat":40.6549,"long":-90.4461},{"zip":"61427","city":"Cuba","state":"IL","lat":40.4995,"long":-90.1811},{"zip":"61431","city":"Ellisville","state":"IL","lat":40.6047,"long":-90.2875},{"zip":"61432","city":"Fairview","state":"IL","lat":40.6442,"long":-90.1653},{"zip":"61433","city":"Fiatt","state":"IL","lat":40.5603,"long":-90.1798},{"zip":"61441","city":"Ipava","state":"IL","lat":40.3594,"long":-90.2967},{"zip":"61459","city":"Marietta","state":"IL","lat":40.4978,"long":-90.3885},{"zip":"61477","city":"Smithfield","state":"IL","lat":40.4855,"long":-90.2856},{"zip":"61482","city":"Table Grove","state":"IL","lat":40.3784,"long":-90.4239},{"zip":"61484","city":"Vermont","state":"IL","lat":40.3062,"long":-90.422},{"zip":"61501","city":"Astoria","state":"IL","lat":40.2311,"long":-90.3443},{"zip":"61519","city":"Bryant","state":"IL","lat":40.4663,"long":-90.091},{"zip":"61520","city":"Canton","state":"IL","lat":40.5601,"long":-90.0242},{"zip":"61524","city":"Dunfermline","state":"IL","lat":40.4912,"long":-90.0318},{"zip":"61531","city":"Farmington","state":"IL","lat":40.6832,"long":-90.035},{"zip":"61542","city":"Lewistown","state":"IL","lat":40.383,"long":-90.1563},{"zip":"61543","city":"Liverpool","state":"IL","lat":40.3902,"long":-90.0026},{"zip":"61544","city":"London Mills","state":"IL","lat":40.695,"long":-90.2616},{"zip":"61553","city":"Norris","state":"IL","lat":40.6259,"long":-90.0323},{"zip":"61563","city":"Saint David","state":"IL","lat":40.4912,"long":-90.0505},{"zip":"61450","city":"La Harpe","state":"IL","lat":40.5846,"long":-90.9687},{"zip":"61418","city":"Biggsville","state":"IL","lat":40.8531,"long":-90.8561},{"zip":"61425","city":"Carman","state":"IL","lat":40.7551,"long":-91.0564},{"zip":"61437","city":"Gladstone","state":"IL","lat":40.8377,"long":-90.9941},{"zip":"61454","city":"Lomax","state":"IL","lat":40.6761,"long":-91.0391},{"zip":"61460","city":"Media","state":"IL","lat":40.7618,"long":-90.857},{"zip":"61469","city":"Oquawka","state":"IL","lat":40.9442,"long":-90.9302},{"zip":"61471","city":"Raritan","state":"IL","lat":40.6959,"long":-90.8274},{"zip":"61480","city":"Stronghurst","state":"IL","lat":40.7523,"long":-90.9257},{"zip":"61233","city":"Andover","state":"IL","lat":41.2954,"long":-90.2905},{"zip":"61234","city":"Annawan","state":"IL","lat":41.398,"long":-89.9129},{"zip":"61235","city":"Atkinson","state":"IL","lat":41.4162,"long":-90.0225},{"zip":"61238","city":"Cambridge","state":"IL","lat":41.3114,"long":-90.1805},{"zip":"61241","city":"Colona","state":"IL","lat":41.4885,"long":-90.321},{"zip":"61254","city":"Geneseo","state":"IL","lat":41.4688,"long":-90.1711},{"zip":"61258","city":"Hooppole","state":"IL","lat":41.522,"long":-89.9122},{"zip":"61262","city":"Lynn Center","state":"IL","lat":41.2888,"long":-90.3304},{"zip":"61273","city":"Orion","state":"IL","lat":41.3634,"long":-90.3849},{"zip":"61274","city":"Osco","state":"IL","lat":41.3637,"long":-90.2681},{"zip":"61413","city":"Alpha","state":"IL","lat":41.193,"long":-90.3821},{"zip":"61419","city":"Bishop Hill","state":"IL","lat":41.1977,"long":-90.1183},{"zip":"61434","city":"Galva","state":"IL","lat":41.1656,"long":-90.0481},{"zip":"61443","city":"Kewanee","state":"IL","lat":41.2411,"long":-89.9274},{"zip":"61468","city":"Ophiem","state":"IL","lat":41.2525,"long":-90.3876},{"zip":"61490","city":"Woodhull","state":"IL","lat":41.1849,"long":-90.2833},{"zip":"61001","city":"Apple River","state":"IL","lat":42.4714,"long":-90.1201},{"zip":"61025","city":"East Dubuque","state":"IL","lat":42.4875,"long":-90.6046},{"zip":"61028","city":"Elizabeth","state":"IL","lat":42.3089,"long":-90.1986},{"zip":"61036","city":"Galena","state":"IL","lat":42.4182,"long":-90.4195},{"zip":"61041","city":"Hanover","state":"IL","lat":42.2594,"long":-90.2897},{"zip":"61059","city":"Nora","state":"IL","lat":42.4558,"long":-89.9454},{"zip":"61075","city":"Scales Mound","state":"IL","lat":42.4715,"long":-90.258},{"zip":"61085","city":"Stockton","state":"IL","lat":42.3492,"long":-90.0202},{"zip":"61087","city":"Warren","state":"IL","lat":42.489,"long":-89.986},{"zip":"61401","city":"Galesburg","state":"IL","lat":40.9521,"long":-90.3698},{"zip":"61402","city":"Galesburg","state":"IL","lat":40.9478,"long":-90.3712},{"zip":"61410","city":"Abingdon","state":"IL","lat":40.8023,"long":-90.4009},{"zip":"61414","city":"Altona","state":"IL","lat":41.1128,"long":-90.1598},{"zip":"61428","city":"Dahinda","state":"IL","lat":40.9551,"long":-90.1398},{"zip":"61430","city":"East Galesburg","state":"IL","lat":40.9402,"long":-90.3109},{"zip":"61436","city":"Gilson","state":"IL","lat":40.8765,"long":-90.1747},{"zip":"61439","city":"Henderson","state":"IL","lat":41.0276,"long":-90.3575},{"zip":"61448","city":"Knoxville","state":"IL","lat":40.9107,"long":-90.2871},{"zip":"61458","city":"Maquon","state":"IL","lat":40.7849,"long":-90.2008},{"zip":"61467","city":"Oneida","state":"IL","lat":41.0832,"long":-90.2391},{"zip":"61472","city":"Rio","state":"IL","lat":41.1103,"long":-90.39},{"zip":"61474","city":"Saint Augustine","state":"IL","lat":40.7289,"long":-90.3798},{"zip":"61485","city":"Victoria","state":"IL","lat":41.0256,"long":-90.0933},{"zip":"61488","city":"Wataga","state":"IL","lat":41.0224,"long":-90.2723},{"zip":"61489","city":"Williamsfield","state":"IL","lat":40.9277,"long":-90.0267},{"zip":"61572","city":"Yates City","state":"IL","lat":40.7878,"long":-90.0265},{"zip":"61301","city":"La Salle","state":"IL","lat":41.3442,"long":-89.0955},{"zip":"61316","city":"Cedar Point","state":"IL","lat":41.2617,"long":-89.1237},{"zip":"61321","city":"Dana","state":"IL","lat":40.9547,"long":-88.9628},{"zip":"61325","city":"Grand Ridge","state":"IL","lat":41.2386,"long":-88.8168},{"zip":"61332","city":"Leonore","state":"IL","lat":41.1895,"long":-88.9806},{"zip":"61334","city":"Lostant","state":"IL","lat":41.145,"long":-89.075},{"zip":"61341","city":"Marseilles","state":"IL","lat":41.3302,"long":-88.6947},{"zip":"61342","city":"Mendota","state":"IL","lat":41.5443,"long":-89.1083},{"zip":"61348","city":"Oglesby","state":"IL","lat":41.2928,"long":-89.0553},{"zip":"61350","city":"Ottawa","state":"IL","lat":41.3526,"long":-88.8416},{"zip":"61354","city":"Peru","state":"IL","lat":41.333,"long":-89.1265},{"zip":"61358","city":"Rutland","state":"IL","lat":40.9844,"long":-89.0388},{"zip":"61360","city":"Seneca","state":"IL","lat":41.3152,"long":-88.61},{"zip":"61364","city":"Streator","state":"IL","lat":41.1225,"long":-88.8307},{"zip":"61370","city":"Tonica","state":"IL","lat":41.2327,"long":-89.089},{"zip":"61371","city":"Triumph","state":"IL","lat":41.4991,"long":-89.0219},{"zip":"61372","city":"Troy Grove","state":"IL","lat":41.4518,"long":-89.0705},{"zip":"61373","city":"Utica","state":"IL","lat":41.363,"long":-89.0008},{"zip":"61006","city":"Ashton","state":"IL","lat":41.8643,"long":-89.2086},{"zip":"61021","city":"Dixon","state":"IL","lat":41.8478,"long":-89.4893},{"zip":"61031","city":"Franklin Grove","state":"IL","lat":41.858,"long":-89.3171},{"zip":"61042","city":"Harmon","state":"IL","lat":41.6973,"long":-89.5695},{"zip":"61057","city":"Nachusa","state":"IL","lat":41.8316,"long":-89.3896},{"zip":"61310","city":"Amboy","state":"IL","lat":41.7042,"long":-89.3472},{"zip":"61318","city":"Compton","state":"IL","lat":41.685,"long":-89.0877},{"zip":"61324","city":"Eldena","state":"IL","lat":41.7711,"long":-89.4123},{"zip":"61331","city":"Lee Center","state":"IL","lat":41.7488,"long":-89.2827},{"zip":"61353","city":"Paw Paw","state":"IL","lat":41.6852,"long":-88.9674},{"zip":"61367","city":"Sublette","state":"IL","lat":41.6331,"long":-89.2354},{"zip":"61378","city":"West Brooklyn","state":"IL","lat":41.7292,"long":-89.1909},{"zip":"61311","city":"Ancona","state":"IL","lat":41.0426,"long":-88.8642},{"zip":"61313","city":"Blackstone","state":"IL","lat":41.0719,"long":-88.6498},{"zip":"61319","city":"Cornell","state":"IL","lat":41.031,"long":-88.7668},{"zip":"61333","city":"Long Point","state":"IL","lat":40.9896,"long":-88.8811},{"zip":"61739","city":"Fairbury","state":"IL","lat":40.745,"long":-88.5165},{"zip":"61740","city":"Flanagan","state":"IL","lat":40.879,"long":-88.862},{"zip":"61741","city":"Forrest","state":"IL","lat":40.7513,"long":-88.4111},{"zip":"61743","city":"Graymont","state":"IL","lat":40.8757,"long":-88.7817},{"zip":"61764","city":"Pontiac","state":"IL","lat":40.8764,"long":-88.6328},{"zip":"61769","city":"Saunemin","state":"IL","lat":40.8885,"long":-88.4094},{"zip":"61775","city":"Strawn","state":"IL","lat":40.6476,"long":-88.404},{"zip":"61723","city":"Atlanta","state":"IL","lat":40.2586,"long":-89.23},{"zip":"61751","city":"Lawndale","state":"IL","lat":40.2193,"long":-89.2852},{"zip":"61411","city":"Adair","state":"IL","lat":40.3852,"long":-90.5037},{"zip":"61416","city":"Bardolph","state":"IL","lat":40.495,"long":-90.5646},{"zip":"61420","city":"Blandinsville","state":"IL","lat":40.5516,"long":-90.8595},{"zip":"61422","city":"Bushnell","state":"IL","lat":40.5539,"long":-90.506},{"zip":"61438","city":"Good Hope","state":"IL","lat":40.5578,"long":-90.6735},{"zip":"61440","city":"Industry","state":"IL","lat":40.3256,"long":-90.6105},{"zip":"61455","city":"Macomb","state":"IL","lat":40.4617,"long":-90.6787},{"zip":"61470","city":"Prairie City","state":"IL","lat":40.618,"long":-90.4727},{"zip":"61475","city":"Sciota","state":"IL","lat":40.5832,"long":-90.7316},{"zip":"61701","city":"Bloomington","state":"IL","lat":40.4783,"long":-88.9893},{"zip":"61702","city":"Bloomington","state":"IL","lat":40.5192,"long":-88.8643},{"zip":"61704","city":"Bloomington","state":"IL","lat":40.4705,"long":-88.9433},{"zip":"61705","city":"Bloomington","state":"IL","lat":40.44,"long":-89.067},{"zip":"61709","city":"Bloomington","state":"IL","lat":40.4614,"long":-88.953},{"zip":"61710","city":"Bloomington","state":"IL","lat":40.4777,"long":-88.9542},{"zip":"61720","city":"Anchor","state":"IL","lat":40.5441,"long":-88.5266},{"zip":"61722","city":"Arrowsmith","state":"IL","lat":40.412,"long":-88.6296},{"zip":"61724","city":"Bellflower","state":"IL","lat":40.3401,"long":-88.5227},{"zip":"61725","city":"Carlock","state":"IL","lat":40.6029,"long":-89.1098},{"zip":"61726","city":"Chenoa","state":"IL","lat":40.7446,"long":-88.7219},{"zip":"61728","city":"Colfax","state":"IL","lat":40.5704,"long":-88.62},{"zip":"61730","city":"Cooksville","state":"IL","lat":40.536,"long":-88.735},{"zip":"61731","city":"Cropsey","state":"IL","lat":40.603,"long":-88.4943},{"zip":"61732","city":"Danvers","state":"IL","lat":40.5364,"long":-89.1885},{"zip":"61736","city":"Downs","state":"IL","lat":40.3989,"long":-88.8686},{"zip":"61737","city":"Ellsworth","state":"IL","lat":40.4432,"long":-88.7371},{"zip":"61744","city":"Gridley","state":"IL","lat":40.7439,"long":-88.884},{"zip":"61745","city":"Heyworth","state":"IL","lat":40.3307,"long":-88.9776},{"zip":"61748","city":"Hudson","state":"IL","lat":40.6205,"long":-88.9759},{"zip":"61752","city":"Le Roy","state":"IL","lat":40.3468,"long":-88.7598},{"zip":"61753","city":"Lexington","state":"IL","lat":40.6357,"long":-88.8062},{"zip":"61754","city":"Mc Lean","state":"IL","lat":40.3282,"long":-89.1645},{"zip":"61758","city":"Merna","state":"IL","lat":40.5167,"long":-88.8259},{"zip":"61761","city":"Normal","state":"IL","lat":40.5124,"long":-88.9883},{"zip":"61770","city":"Saybrook","state":"IL","lat":40.432,"long":-88.5247},{"zip":"61772","city":"Shirley","state":"IL","lat":40.4174,"long":-89.0822},{"zip":"61774","city":"Stanford","state":"IL","lat":40.4376,"long":-89.2164},{"zip":"61776","city":"Towanda","state":"IL","lat":40.5533,"long":-88.8886},{"zip":"61790","city":"Normal","state":"IL","lat":40.5103,"long":-88.998},{"zip":"61791","city":"Bloomington","state":"IL","lat":40.5192,"long":-88.8643},{"zip":"61799","city":"Bloomington","state":"IL","lat":40.4885,"long":-88.9396},{"zip":"61756","city":"Maroa","state":"IL","lat":40.0342,"long":-88.9578},{"zip":"61369","city":"Toluca","state":"IL","lat":41.0046,"long":-89.1348},{"zip":"61375","city":"Varna","state":"IL","lat":41.0327,"long":-89.2483},{"zip":"61377","city":"Wenona","state":"IL","lat":41.0548,"long":-89.0416},{"zip":"61424","city":"Camp Grove","state":"IL","lat":41.078,"long":-89.6332},{"zip":"61537","city":"Henry","state":"IL","lat":41.1115,"long":-89.3743},{"zip":"61540","city":"Lacon","state":"IL","lat":41.0216,"long":-89.4008},{"zip":"61541","city":"La Rose","state":"IL","lat":40.9823,"long":-89.2354},{"zip":"61565","city":"Sparland","state":"IL","lat":41.0134,"long":-89.4571},{"zip":"61570","city":"Washburn","state":"IL","lat":40.9141,"long":-89.283},{"zip":"61532","city":"Forest City","state":"IL","lat":40.3594,"long":-89.8334},{"zip":"61546","city":"Manito","state":"IL","lat":40.416,"long":-89.7898},{"zip":"61567","city":"Topeka","state":"IL","lat":40.3303,"long":-89.9312},{"zip":"61231","city":"Aledo","state":"IL","lat":41.2008,"long":-90.7416},{"zip":"61260","city":"Joy","state":"IL","lat":41.2262,"long":-90.8518},{"zip":"61263","city":"Matherville","state":"IL","lat":41.2599,"long":-90.6128},{"zip":"61272","city":"New Boston","state":"IL","lat":41.2153,"long":-90.9879},{"zip":"61276","city":"Preemption","state":"IL","lat":41.2996,"long":-90.5866},{"zip":"61281","city":"Sherrard","state":"IL","lat":41.3027,"long":-90.4939},{"zip":"61412","city":"Alexis","state":"IL","lat":41.0521,"long":-90.5436},{"zip":"61442","city":"Keithsburg","state":"IL","lat":41.1043,"long":-90.9263},{"zip":"61465","city":"New Windsor","state":"IL","lat":41.1987,"long":-90.4598},{"zip":"61466","city":"North Henderson","state":"IL","lat":41.1006,"long":-90.4736},{"zip":"61476","city":"Seaton","state":"IL","lat":41.0732,"long":-90.8257},{"zip":"61486","city":"Viola","state":"IL","lat":41.2024,"long":-90.5936},{"zip":"61914","city":"Bethany","state":"IL","lat":39.6348,"long":-88.7543},{"zip":"61925","city":"Dalton City","state":"IL","lat":39.7119,"long":-88.7975},{"zip":"61928","city":"Gays","state":"IL","lat":39.4796,"long":-88.5242},{"zip":"61937","city":"Lovington","state":"IL","lat":39.7192,"long":-88.6417},{"zip":"61951","city":"Sullivan","state":"IL","lat":39.5934,"long":-88.6038},{"zip":"61007","city":"Baileyville","state":"IL","lat":42.1905,"long":-89.5939},{"zip":"61010","city":"Byron","state":"IL","lat":42.1292,"long":-89.2659},{"zip":"61015","city":"Chana","state":"IL","lat":41.9933,"long":-89.2117},{"zip":"61020","city":"Davis Junction","state":"IL","lat":42.0979,"long":-89.0838},{"zip":"61030","city":"Forreston","state":"IL","lat":42.1229,"long":-89.5831},{"zip":"61043","city":"Holcomb","state":"IL","lat":42.0647,"long":-89.0957},{"zip":"61047","city":"Leaf River","state":"IL","lat":42.1532,"long":-89.3959},{"zip":"61049","city":"Lindenwood","state":"IL","lat":42.0507,"long":-89.034},{"zip":"61052","city":"Monroe Center","state":"IL","lat":42.105,"long":-89.0169},{"zip":"61054","city":"Mount Morris","state":"IL","lat":42.0479,"long":-89.4346},{"zip":"61061","city":"Oregon","state":"IL","lat":42.0095,"long":-89.3444},{"zip":"61064","city":"Polo","state":"IL","lat":41.989,"long":-89.5984},{"zip":"61068","city":"Rochelle","state":"IL","lat":41.9282,"long":-89.071},{"zip":"61084","city":"Stillman Valley","state":"IL","lat":42.1183,"long":-89.1898},{"zip":"61091","city":"Woosung","state":"IL","lat":41.9034,"long":-89.5409},{"zip":"61451","city":"Laura","state":"IL","lat":40.9335,"long":-89.9349},{"zip":"61517","city":"Brimfield","state":"IL","lat":40.8407,"long":-89.897},{"zip":"61523","city":"Chillicothe","state":"IL","lat":40.9013,"long":-89.5068},{"zip":"61525","city":"Dunlap","state":"IL","lat":40.8444,"long":-89.6397},{"zip":"61526","city":"Edelstein","state":"IL","lat":40.9454,"long":-89.5858},{"zip":"61528","city":"Edwards","state":"IL","lat":40.779,"long":-89.723},{"zip":"61529","city":"Elmwood","state":"IL","lat":40.7726,"long":-89.9289},{"zip":"61533","city":"Glasford","state":"IL","lat":40.576,"long":-89.8113},{"zip":"61536","city":"Hanna City","state":"IL","lat":40.6798,"long":-89.7952},{"zip":"61539","city":"Kingston Mines","state":"IL","lat":40.5571,"long":-89.7685},{"zip":"61547","city":"Mapleton","state":"IL","lat":40.6117,"long":-89.7184},{"zip":"61552","city":"Mossville","state":"IL","lat":40.818,"long":-89.568},{"zip":"61562","city":"Rome","state":"IL","lat":40.8743,"long":-89.5067},{"zip":"61569","city":"Trivoli","state":"IL","lat":40.6795,"long":-89.9135},{"zip":"61601","city":"Peoria","state":"IL","lat":40.6931,"long":-89.5898},{"zip":"61602","city":"Peoria","state":"IL","lat":40.6936,"long":-89.589},{"zip":"61603","city":"Peoria","state":"IL","lat":40.7132,"long":-89.577},{"zip":"61604","city":"Peoria","state":"IL","lat":40.7111,"long":-89.6324},{"zip":"61605","city":"Peoria","state":"IL","lat":40.6775,"long":-89.6263},{"zip":"61606","city":"Peoria","state":"IL","lat":40.6989,"long":-89.6122},{"zip":"61607","city":"Peoria","state":"IL","lat":40.6321,"long":-89.6903},{"zip":"61612","city":"Peoria","state":"IL","lat":40.7442,"long":-89.7184},{"zip":"61613","city":"Peoria","state":"IL","lat":40.7425,"long":-89.6279},{"zip":"61614","city":"Peoria","state":"IL","lat":40.7681,"long":-89.6026},{"zip":"61615","city":"Peoria","state":"IL","lat":40.7661,"long":-89.645},{"zip":"61616","city":"Peoria Heights","state":"IL","lat":40.7473,"long":-89.574},{"zip":"61625","city":"Peoria","state":"IL","lat":40.6963,"long":-89.6166},{"zip":"61629","city":"Peoria","state":"IL","lat":40.692,"long":-89.5887},{"zip":"61630","city":"Peoria","state":"IL","lat":40.7442,"long":-89.7184},{"zip":"61633","city":"Peoria","state":"IL","lat":40.7312,"long":-89.6031},{"zip":"61634","city":"Peoria","state":"IL","lat":40.6896,"long":-89.5926},{"zip":"61636","city":"Peoria","state":"IL","lat":40.6999,"long":-89.5951},{"zip":"61637","city":"Peoria","state":"IL","lat":40.7025,"long":-89.5898},{"zip":"61638","city":"Peoria","state":"IL","lat":40.7969,"long":-89.6111},{"zip":"61639","city":"Peoria","state":"IL","lat":40.7098,"long":-89.5636},{"zip":"61641","city":"Peoria","state":"IL","lat":40.64,"long":-89.652},{"zip":"61643","city":"Peoria","state":"IL","lat":40.7442,"long":-89.7184},{"zip":"61650","city":"Peoria","state":"IL","lat":40.7442,"long":-89.7184},{"zip":"61651","city":"Peoria","state":"IL","lat":40.7442,"long":-89.7184},{"zip":"61652","city":"Peoria","state":"IL","lat":40.8767,"long":-89.5091},{"zip":"61653","city":"Peoria","state":"IL","lat":40.7442,"long":-89.7184},{"zip":"61654","city":"Peoria","state":"IL","lat":40.7442,"long":-89.7184},{"zip":"61655","city":"Peoria","state":"IL","lat":40.7442,"long":-89.7184},{"zip":"61656","city":"Peoria","state":"IL","lat":40.7442,"long":-89.7184},{"zip":"61813","city":"Bement","state":"IL","lat":39.9222,"long":-88.5688},{"zip":"61818","city":"Cerro Gordo","state":"IL","lat":39.8681,"long":-88.7256},{"zip":"61830","city":"Cisco","state":"IL","lat":39.9972,"long":-88.6962},{"zip":"61839","city":"De Land","state":"IL","lat":40.1107,"long":-88.6392},{"zip":"61854","city":"Mansfield","state":"IL","lat":40.2147,"long":-88.5179},{"zip":"61855","city":"Milmine","state":"IL","lat":39.9238,"long":-88.6599},{"zip":"61856","city":"Monticello","state":"IL","lat":40.0263,"long":-88.5686},{"zip":"61884","city":"White Heath","state":"IL","lat":40.1009,"long":-88.5193},{"zip":"61929","city":"Hammond","state":"IL","lat":39.7946,"long":-88.5793},{"zip":"61936","city":"La Place","state":"IL","lat":39.7983,"long":-88.7272},{"zip":"61326","city":"Granville","state":"IL","lat":41.2642,"long":-89.225},{"zip":"61327","city":"Hennepin","state":"IL","lat":41.2352,"long":-89.3218},{"zip":"61335","city":"Mc Nabb","state":"IL","lat":41.173,"long":-89.2187},{"zip":"61336","city":"Magnolia","state":"IL","lat":41.1164,"long":-89.227},{"zip":"61340","city":"Mark","state":"IL","lat":41.266,"long":-89.2491},{"zip":"61363","city":"Standard","state":"IL","lat":41.2567,"long":-89.1778},{"zip":"61560","city":"Putnam","state":"IL","lat":41.1949,"long":-89.4409},{"zip":"61201","city":"Rock Island","state":"IL","lat":41.4913,"long":-90.5648},{"zip":"61204","city":"Rock Island","state":"IL","lat":41.5549,"long":-90.616},{"zip":"61232","city":"Andalusia","state":"IL","lat":41.4392,"long":-90.7176},{"zip":"61236","city":"Barstow","state":"IL","lat":41.5147,"long":-90.3577},{"zip":"61237","city":"Buffalo Prairie","state":"IL","lat":41.3368,"long":-90.8522},{"zip":"61239","city":"Carbon Cliff","state":"IL","lat":41.4948,"long":-90.3907},{"zip":"61240","city":"Coal Valley","state":"IL","lat":41.4351,"long":-90.4652},{"zip":"61242","city":"Cordova","state":"IL","lat":41.6928,"long":-90.3071},{"zip":"61244","city":"East Moline","state":"IL","lat":41.5118,"long":-90.4321},{"zip":"61256","city":"Hampton","state":"IL","lat":41.5559,"long":-90.4093},{"zip":"61257","city":"Hillsdale","state":"IL","lat":41.5929,"long":-90.2263},{"zip":"61259","city":"Illinois City","state":"IL","lat":41.3892,"long":-90.8925},{"zip":"61264","city":"Milan","state":"IL","lat":41.4262,"long":-90.5739},{"zip":"61265","city":"Moline","state":"IL","lat":41.4906,"long":-90.498},{"zip":"61266","city":"Moline","state":"IL","lat":41.5067,"long":-90.5151},{"zip":"61275","city":"Port Byron","state":"IL","lat":41.6013,"long":-90.3263},{"zip":"61278","city":"Rapids City","state":"IL","lat":41.5817,"long":-90.3435},{"zip":"61279","city":"Reynolds","state":"IL","lat":41.3277,"long":-90.6384},{"zip":"61282","city":"Silvis","state":"IL","lat":41.5007,"long":-90.4126},{"zip":"61284","city":"Taylor Ridge","state":"IL","lat":41.3828,"long":-90.734},{"zip":"61299","city":"Rock Island","state":"IL","lat":41.5203,"long":-90.5416},{"zip":"61452","city":"Littleton","state":"IL","lat":40.2339,"long":-90.619},{"zip":"61957","city":"Windsor","state":"IL","lat":39.4302,"long":-88.5857},{"zip":"61421","city":"Bradford","state":"IL","lat":41.1532,"long":-89.6521},{"zip":"61426","city":"Castleton","state":"IL","lat":41.1183,"long":-89.7071},{"zip":"61449","city":"La Fayette","state":"IL","lat":41.1095,"long":-89.9575},{"zip":"61479","city":"Speer","state":"IL","lat":40.9872,"long":-89.652},{"zip":"61483","city":"Toulon","state":"IL","lat":41.1009,"long":-89.8606},{"zip":"61491","city":"Wyoming","state":"IL","lat":41.0599,"long":-89.7782},{"zip":"61559","city":"Princeville","state":"IL","lat":40.9093,"long":-89.7723},{"zip":"61013","city":"Cedarville","state":"IL","lat":42.3761,"long":-89.6365},{"zip":"61018","city":"Dakota","state":"IL","lat":42.4031,"long":-89.5468},{"zip":"61019","city":"Davis","state":"IL","lat":42.4422,"long":-89.4067},{"zip":"61027","city":"Eleroy","state":"IL","lat":42.332,"long":-89.7612},{"zip":"61032","city":"Freeport","state":"IL","lat":42.2991,"long":-89.6345},{"zip":"61039","city":"German Valley","state":"IL","lat":42.2176,"long":-89.4712},{"zip":"61044","city":"Kent","state":"IL","lat":42.3155,"long":-89.9195},{"zip":"61048","city":"Lena","state":"IL","lat":42.3791,"long":-89.8253},{"zip":"61050","city":"Mc Connell","state":"IL","lat":42.4281,"long":-89.7643},{"zip":"61060","city":"Orangeville","state":"IL","lat":42.4728,"long":-89.6448},{"zip":"61062","city":"Pearl City","state":"IL","lat":42.261,"long":-89.8393},{"zip":"61067","city":"Ridott","state":"IL","lat":42.2996,"long":-89.4627},{"zip":"61070","city":"Rock City","state":"IL","lat":42.4103,"long":-89.4759},{"zip":"61089","city":"Winslow","state":"IL","lat":42.4838,"long":-89.806},{"zip":"61534","city":"Green Valley","state":"IL","lat":40.4198,"long":-89.6549},{"zip":"61535","city":"Groveland","state":"IL","lat":40.5925,"long":-89.5345},{"zip":"61550","city":"Morton","state":"IL","lat":40.6148,"long":-89.4604},{"zip":"61554","city":"Pekin","state":"IL","lat":40.5674,"long":-89.6243},{"zip":"61555","city":"Pekin","state":"IL","lat":40.5607,"long":-89.6502},{"zip":"61558","city":"Pekin","state":"IL","lat":40.5675,"long":-89.6407},{"zip":"61564","city":"South Pekin","state":"IL","lat":40.4945,"long":-89.6518},{"zip":"61568","city":"Tremont","state":"IL","lat":40.5053,"long":-89.4833},{"zip":"61571","city":"Washington","state":"IL","lat":40.7034,"long":-89.4194},{"zip":"61610","city":"Creve Coeur","state":"IL","lat":40.6428,"long":-89.5988},{"zip":"61611","city":"East Peoria","state":"IL","lat":40.6731,"long":-89.5514},{"zip":"61635","city":"East Peoria","state":"IL","lat":40.6661,"long":-89.5801},{"zip":"61721","city":"Armington","state":"IL","lat":40.3613,"long":-89.3231},{"zip":"61733","city":"Deer Creek","state":"IL","lat":40.6224,"long":-89.3323},{"zip":"61734","city":"Delavan","state":"IL","lat":40.369,"long":-89.5321},{"zip":"61747","city":"Hopedale","state":"IL","lat":40.4273,"long":-89.4214},{"zip":"61755","city":"Mackinaw","state":"IL","lat":40.5396,"long":-89.3458},{"zip":"61759","city":"Minier","state":"IL","lat":40.4359,"long":-89.3165},{"zip":"61810","city":"Allerton","state":"IL","lat":39.9188,"long":-87.9312},{"zip":"61811","city":"Alvin","state":"IL","lat":40.3007,"long":-87.608},{"zip":"61812","city":"Armstrong","state":"IL","lat":40.2175,"long":-87.8943},{"zip":"61814","city":"Bismarck","state":"IL","lat":40.2552,"long":-87.6138},{"zip":"61817","city":"Catlin","state":"IL","lat":40.0699,"long":-87.7113},{"zip":"61831","city":"Collison","state":"IL","lat":40.2207,"long":-87.7987},{"zip":"61832","city":"Danville","state":"IL","lat":40.137,"long":-87.6217},{"zip":"61833","city":"Tilton","state":"IL","lat":40.0964,"long":-87.644},{"zip":"61834","city":"Danville","state":"IL","lat":40.1602,"long":-87.6729},{"zip":"61841","city":"Fairmount","state":"IL","lat":40.0373,"long":-87.8365},{"zip":"61844","city":"Fithian","state":"IL","lat":40.1192,"long":-87.8797},{"zip":"61846","city":"Georgetown","state":"IL","lat":39.9792,"long":-87.6365},{"zip":"61848","city":"Henning","state":"IL","lat":40.304,"long":-87.7007},{"zip":"61850","city":"Indianola","state":"IL","lat":39.9268,"long":-87.7388},{"zip":"61857","city":"Muncie","state":"IL","lat":40.1165,"long":-87.8447},{"zip":"61858","city":"Oakwood","state":"IL","lat":40.1167,"long":-87.7825},{"zip":"61865","city":"Potomac","state":"IL","lat":40.309,"long":-87.8232},{"zip":"61870","city":"Ridge Farm","state":"IL","lat":39.9155,"long":-87.6346},{"zip":"61876","city":"Sidell","state":"IL","lat":39.911,"long":-87.8248},{"zip":"61883","city":"Westville","state":"IL","lat":40.0451,"long":-87.636},{"zip":"61417","city":"Berwick","state":"IL","lat":40.7799,"long":-90.5059},{"zip":"61423","city":"Cameron","state":"IL","lat":40.889,"long":-90.5001},{"zip":"61435","city":"Gerlaw","state":"IL","lat":40.9863,"long":-90.5491},{"zip":"61447","city":"Kirkwood","state":"IL","lat":40.8638,"long":-90.7457},{"zip":"61453","city":"Little York","state":"IL","lat":41.0153,"long":-90.7364},{"zip":"61462","city":"Monmouth","state":"IL","lat":40.9107,"long":-90.6448},{"zip":"61473","city":"Roseville","state":"IL","lat":40.7238,"long":-90.6514},{"zip":"61478","city":"Smithshire","state":"IL","lat":40.7579,"long":-90.7606},{"zip":"61037","city":"Galt","state":"IL","lat":41.7865,"long":-89.761},{"zip":"61071","city":"Rock Falls","state":"IL","lat":41.7665,"long":-89.6925},{"zip":"61081","city":"Sterling","state":"IL","lat":41.8055,"long":-89.7054},{"zip":"61230","city":"Albany","state":"IL","lat":41.7659,"long":-90.2081},{"zip":"61243","city":"Deer Grove","state":"IL","lat":41.6316,"long":-89.6972},{"zip":"61250","city":"Erie","state":"IL","lat":41.656,"long":-90.0843},{"zip":"61251","city":"Fenton","state":"IL","lat":41.7285,"long":-90.0457},{"zip":"61252","city":"Fulton","state":"IL","lat":41.8522,"long":-90.1507},{"zip":"61261","city":"Lyndon","state":"IL","lat":41.7199,"long":-89.9169},{"zip":"61270","city":"Morrison","state":"IL","lat":41.8167,"long":-89.969},{"zip":"61277","city":"Prophetstown","state":"IL","lat":41.6312,"long":-89.9467},{"zip":"61283","city":"Tampico","state":"IL","lat":41.6522,"long":-89.7948},{"zip":"61016","city":"Cherry Valley","state":"IL","lat":42.2206,"long":-88.9619},{"zip":"61024","city":"Durand","state":"IL","lat":42.4337,"long":-89.3094},{"zip":"61063","city":"Pecatonica","state":"IL","lat":42.3051,"long":-89.3472},{"zip":"61072","city":"Rockton","state":"IL","lat":42.4544,"long":-89.0887},{"zip":"61073","city":"Roscoe","state":"IL","lat":42.4217,"long":-88.9943},{"zip":"61077","city":"Seward","state":"IL","lat":42.2368,"long":-89.358},{"zip":"61079","city":"Shirland","state":"IL","lat":42.4445,"long":-89.1976},{"zip":"61080","city":"South Beloit","state":"IL","lat":42.4837,"long":-89.0298},{"zip":"61088","city":"Winnebago","state":"IL","lat":42.2727,"long":-89.2373},{"zip":"61101","city":"Rockford","state":"IL","lat":42.2922,"long":-89.1161},{"zip":"61102","city":"Rockford","state":"IL","lat":42.2547,"long":-89.1247},{"zip":"61103","city":"Rockford","state":"IL","lat":42.301,"long":-89.0833},{"zip":"61104","city":"Rockford","state":"IL","lat":42.2554,"long":-89.0768},{"zip":"61105","city":"Rockford","state":"IL","lat":42.2711,"long":-89.094},{"zip":"61106","city":"Rockford","state":"IL","lat":42.3254,"long":-89.1705},{"zip":"61107","city":"Rockford","state":"IL","lat":42.2786,"long":-89.0361},{"zip":"61108","city":"Rockford","state":"IL","lat":42.2514,"long":-89.0235},{"zip":"61109","city":"Rockford","state":"IL","lat":42.2166,"long":-89.0512},{"zip":"61110","city":"Rockford","state":"IL","lat":42.3254,"long":-89.1705},{"zip":"61111","city":"Loves Park","state":"IL","lat":42.3295,"long":-89.0335},{"zip":"61112","city":"Rockford","state":"IL","lat":42.2456,"long":-88.9704},{"zip":"61114","city":"Rockford","state":"IL","lat":42.3185,"long":-88.9972},{"zip":"61115","city":"Machesney Park","state":"IL","lat":42.3545,"long":-89.0397},{"zip":"61125","city":"Rockford","state":"IL","lat":42.3254,"long":-89.1705},{"zip":"61126","city":"Rockford","state":"IL","lat":42.3254,"long":-89.1705},{"zip":"61130","city":"Loves Park","state":"IL","lat":42.3254,"long":-89.1705},{"zip":"61131","city":"Loves Park","state":"IL","lat":42.3254,"long":-89.1705},{"zip":"61132","city":"Loves Park","state":"IL","lat":42.3254,"long":-89.1705},{"zip":"61516","city":"Benson","state":"IL","lat":40.8306,"long":-89.1165},{"zip":"61530","city":"Eureka","state":"IL","lat":40.7152,"long":-89.2706},{"zip":"61545","city":"Lowpoint","state":"IL","lat":40.8793,"long":-89.3703},{"zip":"61548","city":"Metamora","state":"IL","lat":40.7844,"long":-89.4309},{"zip":"61561","city":"Roanoke","state":"IL","lat":40.7956,"long":-89.2093},{"zip":"61729","city":"Congerville","state":"IL","lat":40.6208,"long":-89.1994},{"zip":"61738","city":"El Paso","state":"IL","lat":40.7389,"long":-89.012},{"zip":"61742","city":"Goodfield","state":"IL","lat":40.6329,"long":-89.2727},{"zip":"61760","city":"Minonk","state":"IL","lat":40.8985,"long":-89.0349},{"zip":"61771","city":"Secor","state":"IL","lat":40.7224,"long":-89.1271}]
