[{"zip":"61008","city":"Belvidere","state":"IL","lat":42.2595,"long":-88.8509},{"zip":"61011","city":"Caledonia","state":"IL","lat":42.3835,"long":-88.9185},{"zip":"61012","city":"Capron","state":"IL","lat":42.4087,"long":-88.7465},{"zip":"61038","city":"Garden Prairie","state":"IL","lat":42.251,"long":-88.7437},{"zip":"61065","city":"Poplar Grove","state":"IL","lat":42.3594,"long":-88.8428},{"zip":"61014","city":"Chadwick","state":"IL","lat":41.9962,"long":-89.8963},{"zip":"61046","city":"Lanark","state":"IL","lat":42.0935,"long":-89.8247},{"zip":"61051","city":"Milledgeville","state":"IL","lat":41.9674,"long":-89.7801},{"zip":"61053","city":"Mount Carroll","state":"IL","lat":42.1053,"long":-89.9845},{"zip":"61074","city":"Savanna","state":"IL","lat":42.0956,"long":-90.1401},{"zip":"61078","city":"Shannon","state":"IL","lat":42.161,"long":-89.7481},{"zip":"61001","city":"Apple River","state":"IL","lat":42.4714,"long":-90.1201},{"zip":"61025","city":"East Dubuque","state":"IL","lat":42.4875,"long":-90.6046},{"zip":"61028","city":"Elizabeth","state":"IL","lat":42.3089,"long":-90.1986},{"zip":"61036","city":"Galena","state":"IL","lat":42.4182,"long":-90.4195},{"zip":"61041","city":"Hanover","state":"IL","lat":42.2594,"long":-90.2897},{"zip":"61059","city":"Nora","state":"IL","lat":42.4558,"long":-89.9454},{"zip":"61075","city":"Scales Mound","state":"IL","lat":42.4715,"long":-90.258},{"zip":"61085","city":"Stockton","state":"IL","lat":42.3492,"long":-90.0202},{"zip":"61087","city":"Warren","state":"IL","lat":42.489,"long":-89.986},{"zip":"61006","city":"Ashton","state":"IL","lat":41.8643,"long":-89.2086},{"zip":"61021","city":"Dixon","state":"IL","lat":41.8478,"long":-89.4893},{"zip":"61031","city":"Franklin Grove","state":"IL","lat":41.858,"long":-89.3171},{"zip":"61042","city":"Harmon","state":"IL","lat":41.6973,"long":-89.5695},{"zip":"61057","city":"Nachusa","state":"IL","lat":41.8316,"long":-89.3896},{"zip":"61007","city":"Baileyville","state":"IL","lat":42.1905,"long":-89.5939},{"zip":"61010","city":"Byron","state":"IL","lat":42.1292,"long":-89.2659},{"zip":"61015","city":"Chana","state":"IL","lat":41.9933,"long":-89.2117},{"zip":"61020","city":"Davis Junction","state":"IL","lat":42.0979,"long":-89.0838},{"zip":"61030","city":"Forreston","state":"IL","lat":42.1229,"long":-89.5831},{"zip":"61043","city":"Holcomb","state":"IL","lat":42.0647,"long":-89.0957},{"zip":"61047","city":"Leaf River","state":"IL","lat":42.1532,"long":-89.3959},{"zip":"61049","city":"Lindenwood","state":"IL","lat":42.0507,"long":-89.034},{"zip":"61052","city":"Monroe Center","state":"IL","lat":42.105,"long":-89.0169},{"zip":"61054","city":"Mount Morris","state":"IL","lat":42.0479,"long":-89.4346},{"zip":"61061","city":"Oregon","state":"IL","lat":42.0095,"long":-89.3444},{"zip":"61064","city":"Polo","state":"IL","lat":41.989,"long":-89.5984},{"zip":"61068","city":"Rochelle","state":"IL","lat":41.9282,"long":-89.071},{"zip":"61084","city":"Stillman Valley","state":"IL","lat":42.1183,"long":-89.1898},{"zip":"61091","city":"Woosung","state":"IL","lat":41.9034,"long":-89.5409},{"zip":"61013","city":"Cedarville","state":"IL","lat":42.3761,"long":-89.6365},{"zip":"61018","city":"Dakota","state":"IL","lat":42.4031,"long":-89.5468},{"zip":"61019","city":"Davis","state":"IL","lat":42.4422,"long":-89.4067},{"zip":"61027","city":"Eleroy","state":"IL","lat":42.332,"long":-89.7612},{"zip":"61032","city":"Freeport","state":"IL","lat":42.2991,"long":-89.6345},{"zip":"61039","city":"German Valley","state":"IL","lat":42.2176,"long":-89.4712},{"zip":"61044","city":"Kent","state":"IL","lat":42.3155,"long":-89.9195},{"zip":"61048","city":"Lena","state":"IL","lat":42.3791,"long":-89.8253},{"zip":"61050","city":"Mc Connell","state":"IL","lat":42.4281,"long":-89.7643},{"zip":"61060","city":"Orangeville","state":"IL","lat":42.4728,"long":-89.6448},{"zip":"61062","city":"Pearl City","state":"IL","lat":42.261,"long":-89.8393},{"zip":"61067","city":"Ridott","state":"IL","lat":42.2996,"long":-89.4627},{"zip":"61070","city":"Rock City","state":"IL","lat":42.4103,"long":-89.4759},{"zip":"61089","city":"Winslow","state":"IL","lat":42.4838,"long":-89.806},{"zip":"61037","city":"Galt","state":"IL","lat":41.7865,"long":-89.761},{"zip":"61071","city":"Rock Falls","state":"IL","lat":41.7665,"long":-89.6925},{"zip":"61081","city":"Sterling","state":"IL","lat":41.8055,"long":-89.7054},{"zip":"61016","city":"Cherry Valley","state":"IL","lat":42.2206,"long":-88.9619},{"zip":"61024","city":"Durand","state":"IL","lat":42.4337,"long":-89.3094},{"zip":"61063","city":"Pecatonica","state":"IL","lat":42.3051,"long":-89.3472},{"zip":"61072","city":"Rockton","state":"IL","lat":42.4544,"long":-89.0887},{"zip":"61073","city":"Roscoe","state":"IL","lat":42.4217,"long":-88.9943},{"zip":"61077","city":"Seward","state":"IL","lat":42.2368,"long":-89.358},{"zip":"61079","city":"Shirland","state":"IL","lat":42.4445,"long":-89.1976},{"zip":"61080","city":"South Beloit","state":"IL","lat":42.4837,"long":-89.0298},{"zip":"61088","city":"Winnebago","state":"IL","lat":42.2727,"long":-89.2373}]
