[{"zip":"61101","city":"Rockford","state":"IL","lat":42.2922,"long":-89.1161},{"zip":"61102","city":"Rockford","state":"IL","lat":42.2547,"long":-89.1247},{"zip":"61103","city":"Rockford","state":"IL","lat":42.301,"long":-89.0833},{"zip":"61104","city":"Rockford","state":"IL","lat":42.2554,"long":-89.0768},{"zip":"61105","city":"Rockford","state":"IL","lat":42.2711,"long":-89.094},{"zip":"61106","city":"Rockford","state":"IL","lat":42.3254,"long":-89.1705},{"zip":"61107","city":"Rockford","state":"IL","lat":42.2786,"long":-89.0361},{"zip":"61108","city":"Rockford","state":"IL","lat":42.2514,"long":-89.0235},{"zip":"61109","city":"Rockford","state":"IL","lat":42.2166,"long":-89.0512},{"zip":"61110","city":"Rockford","state":"IL","lat":42.3254,"long":-89.1705},{"zip":"61111","city":"Loves Park","state":"IL","lat":42.3295,"long":-89.0335},{"zip":"61112","city":"Rockford","state":"IL","lat":42.2456,"long":-88.9704},{"zip":"61114","city":"Rockford","state":"IL","lat":42.3185,"long":-88.9972},{"zip":"61115","city":"Machesney Park","state":"IL","lat":42.3545,"long":-89.0397},{"zip":"61125","city":"Rockford","state":"IL","lat":42.3254,"long":-89.1705},{"zip":"61126","city":"Rockford","state":"IL","lat":42.3254,"long":-89.1705},{"zip":"61130","city":"Loves Park","state":"IL","lat":42.3254,"long":-89.1705},{"zip":"61131","city":"Loves Park","state":"IL","lat":42.3254,"long":-89.1705},{"zip":"61132","city":"Loves Park","state":"IL","lat":42.3254,"long":-89.1705}]
