[{"zip":"61285","city":"Thomson","state":"IL","lat":41.9816,"long":-90.0844},{"zip":"61233","city":"Andover","state":"IL","lat":41.2954,"long":-90.2905},{"zip":"61234","city":"Annawan","state":"IL","lat":41.398,"long":-89.9129},{"zip":"61235","city":"Atkinson","state":"IL","lat":41.4162,"long":-90.0225},{"zip":"61238","city":"Cambridge","state":"IL","lat":41.3114,"long":-90.1805},{"zip":"61241","city":"Colona","state":"IL","lat":41.4885,"long":-90.321},{"zip":"61254","city":"Geneseo","state":"IL","lat":41.4688,"long":-90.1711},{"zip":"61258","city":"Hooppole","state":"IL","lat":41.522,"long":-89.9122},{"zip":"61262","city":"Lynn Center","state":"IL","lat":41.2888,"long":-90.3304},{"zip":"61273","city":"Orion","state":"IL","lat":41.3634,"long":-90.3849},{"zip":"61274","city":"Osco","state":"IL","lat":41.3637,"long":-90.2681},{"zip":"61231","city":"Aledo","state":"IL","lat":41.2008,"long":-90.7416},{"zip":"61260","city":"Joy","state":"IL","lat":41.2262,"long":-90.8518},{"zip":"61263","city":"Matherville","state":"IL","lat":41.2599,"long":-90.6128},{"zip":"61272","city":"New Boston","state":"IL","lat":41.2153,"long":-90.9879},{"zip":"61276","city":"Preemption","state":"IL","lat":41.2996,"long":-90.5866},{"zip":"61281","city":"Sherrard","state":"IL","lat":41.3027,"long":-90.4939},{"zip":"61201","city":"Rock Island","state":"IL","lat":41.4913,"long":-90.5648},{"zip":"61204","city":"Rock Island","state":"IL","lat":41.5549,"long":-90.616},{"zip":"61232","city":"Andalusia","state":"IL","lat":41.4392,"long":-90.7176},{"zip":"61236","city":"Barstow","state":"IL","lat":41.5147,"long":-90.3577},{"zip":"61237","city":"Buffalo Prairie","state":"IL","lat":41.3368,"long":-90.8522},{"zip":"61239","city":"Carbon Cliff","state":"IL","lat":41.4948,"long":-90.3907},{"zip":"61240","city":"Coal Valley","state":"IL","lat":41.4351,"long":-90.4652},{"zip":"61242","city":"Cordova","state":"IL","lat":41.6928,"long":-90.3071},{"zip":"61244","city":"East Moline","state":"IL","lat":41.5118,"long":-90.4321},{"zip":"61256","city":"Hampton","state":"IL","lat":41.5559,"long":-90.4093},{"zip":"61257","city":"Hillsdale","state":"IL","lat":41.5929,"long":-90.2263},{"zip":"61259","city":"Illinois City","state":"IL","lat":41.3892,"long":-90.8925},{"zip":"61264","city":"Milan","state":"IL","lat":41.4262,"long":-90.5739},{"zip":"61265","city":"Moline","state":"IL","lat":41.4906,"long":-90.498},{"zip":"61266","city":"Moline","state":"IL","lat":41.5067,"long":-90.5151},{"zip":"61275","city":"Port Byron","state":"IL","lat":41.6013,"long":-90.3263},{"zip":"61278","city":"Rapids City","state":"IL","lat":41.5817,"long":-90.3435},{"zip":"61279","city":"Reynolds","state":"IL","lat":41.3277,"long":-90.6384},{"zip":"61282","city":"Silvis","state":"IL","lat":41.5007,"long":-90.4126},{"zip":"61284","city":"Taylor Ridge","state":"IL","lat":41.3828,"long":-90.734},{"zip":"61299","city":"Rock Island","state":"IL","lat":41.5203,"long":-90.5416},{"zip":"61230","city":"Albany","state":"IL","lat":41.7659,"long":-90.2081},{"zip":"61243","city":"Deer Grove","state":"IL","lat":41.6316,"long":-89.6972},{"zip":"61250","city":"Erie","state":"IL","lat":41.656,"long":-90.0843},{"zip":"61251","city":"Fenton","state":"IL","lat":41.7285,"long":-90.0457},{"zip":"61252","city":"Fulton","state":"IL","lat":41.8522,"long":-90.1507},{"zip":"61261","city":"Lyndon","state":"IL","lat":41.7199,"long":-89.9169},{"zip":"61270","city":"Morrison","state":"IL","lat":41.8167,"long":-89.969},{"zip":"61277","city":"Prophetstown","state":"IL","lat":41.6312,"long":-89.9467},{"zip":"61283","city":"Tampico","state":"IL","lat":41.6522,"long":-89.7948}]
