[{"zip":"61415","city":"Avon","state":"IL","lat":40.6549,"long":-90.4461},{"zip":"61427","city":"Cuba","state":"IL","lat":40.4995,"long":-90.1811},{"zip":"61431","city":"Ellisville","state":"IL","lat":40.6047,"long":-90.2875},{"zip":"61432","city":"Fairview","state":"IL","lat":40.6442,"long":-90.1653},{"zip":"61433","city":"Fiatt","state":"IL","lat":40.5603,"long":-90.1798},{"zip":"61441","city":"Ipava","state":"IL","lat":40.3594,"long":-90.2967},{"zip":"61459","city":"Marietta","state":"IL","lat":40.4978,"long":-90.3885},{"zip":"61477","city":"Smithfield","state":"IL","lat":40.4855,"long":-90.2856},{"zip":"61482","city":"Table Grove","state":"IL","lat":40.3784,"long":-90.4239},{"zip":"61484","city":"Vermont","state":"IL","lat":40.3062,"long":-90.422},{"zip":"61450","city":"La Harpe","state":"IL","lat":40.5846,"long":-90.9687},{"zip":"61418","city":"Biggsville","state":"IL","lat":40.8531,"long":-90.8561},{"zip":"61425","city":"Carman","state":"IL","lat":40.7551,"long":-91.0564},{"zip":"61437","city":"Gladstone","state":"IL","lat":40.8377,"long":-90.9941},{"zip":"61454","city":"Lomax","state":"IL","lat":40.6761,"long":-91.0391},{"zip":"61460","city":"Media","state":"IL","lat":40.7618,"long":-90.857},{"zip":"61469","city":"Oquawka","state":"IL","lat":40.9442,"long":-90.9302},{"zip":"61471","city":"Raritan","state":"IL","lat":40.6959,"long":-90.8274},{"zip":"61480","city":"Stronghurst","state":"IL","lat":40.7523,"long":-90.9257},{"zip":"61413","city":"Alpha","state":"IL","lat":41.193,"long":-90.3821},{"zip":"61419","city":"Bishop Hill","state":"IL","lat":41.1977,"long":-90.1183},{"zip":"61434","city":"Galva","state":"IL","lat":41.1656,"long":-90.0481},{"zip":"61443","city":"Kewanee","state":"IL","lat":41.2411,"long":-89.9274},{"zip":"61468","city":"Ophiem","state":"IL","lat":41.2525,"long":-90.3876},{"zip":"61490","city":"Woodhull","state":"IL","lat":41.1849,"long":-90.2833},{"zip":"61401","city":"Galesburg","state":"IL","lat":40.9521,"long":-90.3698},{"zip":"61402","city":"Galesburg","state":"IL","lat":40.9478,"long":-90.3712},{"zip":"61410","city":"Abingdon","state":"IL","lat":40.8023,"long":-90.4009},{"zip":"61414","city":"Altona","state":"IL","lat":41.1128,"long":-90.1598},{"zip":"61428","city":"Dahinda","state":"IL","lat":40.9551,"long":-90.1398},{"zip":"61430","city":"East Galesburg","state":"IL","lat":40.9402,"long":-90.3109},{"zip":"61436","city":"Gilson","state":"IL","lat":40.8765,"long":-90.1747},{"zip":"61439","city":"Henderson","state":"IL","lat":41.0276,"long":-90.3575},{"zip":"61448","city":"Knoxville","state":"IL","lat":40.9107,"long":-90.2871},{"zip":"61458","city":"Maquon","state":"IL","lat":40.7849,"long":-90.2008},{"zip":"61467","city":"Oneida","state":"IL","lat":41.0832,"long":-90.2391},{"zip":"61472","city":"Rio","state":"IL","lat":41.1103,"long":-90.39},{"zip":"61474","city":"Saint Augustine","state":"IL","lat":40.7289,"long":-90.3798},{"zip":"61485","city":"Victoria","state":"IL","lat":41.0256,"long":-90.0933},{"zip":"61488","city":"Wataga","state":"IL","lat":41.0224,"long":-90.2723},{"zip":"61489","city":"Williamsfield","state":"IL","lat":40.9277,"long":-90.0267},{"zip":"61411","city":"Adair","state":"IL","lat":40.3852,"long":-90.5037},{"zip":"61416","city":"Bardolph","state":"IL","lat":40.495,"long":-90.5646},{"zip":"61420","city":"Blandinsville","state":"IL","lat":40.5516,"long":-90.8595},{"zip":"61422","city":"Bushnell","state":"IL","lat":40.5539,"long":-90.506},{"zip":"61438","city":"Good Hope","state":"IL","lat":40.5578,"long":-90.6735},{"zip":"61440","city":"Industry","state":"IL","lat":40.3256,"long":-90.6105},{"zip":"61455","city":"Macomb","state":"IL","lat":40.4617,"long":-90.6787},{"zip":"61470","city":"Prairie City","state":"IL","lat":40.618,"long":-90.4727},{"zip":"61475","city":"Sciota","state":"IL","lat":40.5832,"long":-90.7316},{"zip":"61424","city":"Camp Grove","state":"IL","lat":41.078,"long":-89.6332},{"zip":"61412","city":"Alexis","state":"IL","lat":41.0521,"long":-90.5436},{"zip":"61442","city":"Keithsburg","state":"IL","lat":41.1043,"long":-90.9263},{"zip":"61465","city":"New Windsor","state":"IL","lat":41.1987,"long":-90.4598},{"zip":"61466","city":"North Henderson","state":"IL","lat":41.1006,"long":-90.4736},{"zip":"61476","city":"Seaton","state":"IL","lat":41.0732,"long":-90.8257},{"zip":"61486","city":"Viola","state":"IL","lat":41.2024,"long":-90.5936},{"zip":"61451","city":"Laura","state":"IL","lat":40.9335,"long":-89.9349},{"zip":"61452","city":"Littleton","state":"IL","lat":40.2339,"long":-90.619},{"zip":"61421","city":"Bradford","state":"IL","lat":41.1532,"long":-89.6521},{"zip":"61426","city":"Castleton","state":"IL","lat":41.1183,"long":-89.7071},{"zip":"61449","city":"La Fayette","state":"IL","lat":41.1095,"long":-89.9575},{"zip":"61479","city":"Speer","state":"IL","lat":40.9872,"long":-89.652},{"zip":"61483","city":"Toulon","state":"IL","lat":41.1009,"long":-89.8606},{"zip":"61491","city":"Wyoming","state":"IL","lat":41.0599,"long":-89.7782},{"zip":"61417","city":"Berwick","state":"IL","lat":40.7799,"long":-90.5059},{"zip":"61423","city":"Cameron","state":"IL","lat":40.889,"long":-90.5001},{"zip":"61435","city":"Gerlaw","state":"IL","lat":40.9863,"long":-90.5491},{"zip":"61447","city":"Kirkwood","state":"IL","lat":40.8638,"long":-90.7457},{"zip":"61453","city":"Little York","state":"IL","lat":41.0153,"long":-90.7364},{"zip":"61462","city":"Monmouth","state":"IL","lat":40.9107,"long":-90.6448},{"zip":"61473","city":"Roseville","state":"IL","lat":40.7238,"long":-90.6514},{"zip":"61478","city":"Smithshire","state":"IL","lat":40.7579,"long":-90.7606}]
