[{"zip":"61501","city":"Astoria","state":"IL","lat":40.2311,"long":-90.3443},{"zip":"61519","city":"Bryant","state":"IL","lat":40.4663,"long":-90.091},{"zip":"61520","city":"Canton","state":"IL","lat":40.5601,"long":-90.0242},{"zip":"61524","city":"Dunfermline","state":"IL","lat":40.4912,"long":-90.0318},{"zip":"61531","city":"Farmington","state":"IL","lat":40.6832,"long":-90.035},{"zip":"61542","city":"Lewistown","state":"IL","lat":40.383,"long":-90.1563},{"zip":"61543","city":"Liverpool","state":"IL","lat":40.3902,"long":-90.0026},{"zip":"61544","city":"London Mills","state":"IL","lat":40.695,"long":-90.2616},{"zip":"61553","city":"Norris","state":"IL","lat":40.6259,"long":-90.0323},{"zip":"61563","city":"Saint David","state":"IL","lat":40.4912,"long":-90.0505},{"zip":"61572","city":"Yates City","state":"IL","lat":40.7878,"long":-90.0265},{"zip":"61537","city":"Henry","state":"IL","lat":41.1115,"long":-89.3743},{"zip":"61540","city":"Lacon","state":"IL","lat":41.0216,"long":-89.4008},{"zip":"61541","city":"La Rose","state":"IL","lat":40.9823,"long":-89.2354},{"zip":"61565","city":"Sparland","state":"IL","lat":41.0134,"long":-89.4571},{"zip":"61570","city":"Washburn","state":"IL","lat":40.9141,"long":-89.283},{"zip":"61532","city":"Forest City","state":"IL","lat":40.3594,"long":-89.8334},{"zip":"61546","city":"Manito","state":"IL","lat":40.416,"long":-89.7898},{"zip":"61567","city":"Topeka","state":"IL","lat":40.3303,"long":-89.9312},{"zip":"61517","city":"Brimfield","state":"IL","lat":40.8407,"long":-89.897},{"zip":"61523","city":"Chillicothe","state":"IL","lat":40.9013,"long":-89.5068},{"zip":"61525","city":"Dunlap","state":"IL","lat":40.8444,"long":-89.6397},{"zip":"61526","city":"Edelstein","state":"IL","lat":40.9454,"long":-89.5858},{"zip":"61528","city":"Edwards","state":"IL","lat":40.779,"long":-89.723},{"zip":"61529","city":"Elmwood","state":"IL","lat":40.7726,"long":-89.9289},{"zip":"61533","city":"Glasford","state":"IL","lat":40.576,"long":-89.8113},{"zip":"61536","city":"Hanna City","state":"IL","lat":40.6798,"long":-89.7952},{"zip":"61539","city":"Kingston Mines","state":"IL","lat":40.5571,"long":-89.7685},{"zip":"61547","city":"Mapleton","state":"IL","lat":40.6117,"long":-89.7184},{"zip":"61552","city":"Mossville","state":"IL","lat":40.818,"long":-89.568},{"zip":"61562","city":"Rome","state":"IL","lat":40.8743,"long":-89.5067},{"zip":"61569","city":"Trivoli","state":"IL","lat":40.6795,"long":-89.9135},{"zip":"61560","city":"Putnam","state":"IL","lat":41.1949,"long":-89.4409},{"zip":"61559","city":"Princeville","state":"IL","lat":40.9093,"long":-89.7723},{"zip":"61534","city":"Green Valley","state":"IL","lat":40.4198,"long":-89.6549},{"zip":"61535","city":"Groveland","state":"IL","lat":40.5925,"long":-89.5345},{"zip":"61550","city":"Morton","state":"IL","lat":40.6148,"long":-89.4604},{"zip":"61554","city":"Pekin","state":"IL","lat":40.5674,"long":-89.6243},{"zip":"61555","city":"Pekin","state":"IL","lat":40.5607,"long":-89.6502},{"zip":"61558","city":"Pekin","state":"IL","lat":40.5675,"long":-89.6407},{"zip":"61564","city":"South Pekin","state":"IL","lat":40.4945,"long":-89.6518},{"zip":"61568","city":"Tremont","state":"IL","lat":40.5053,"long":-89.4833},{"zip":"61571","city":"Washington","state":"IL","lat":40.7034,"long":-89.4194},{"zip":"61516","city":"Benson","state":"IL","lat":40.8306,"long":-89.1165},{"zip":"61530","city":"Eureka","state":"IL","lat":40.7152,"long":-89.2706},{"zip":"61545","city":"Lowpoint","state":"IL","lat":40.8793,"long":-89.3703},{"zip":"61548","city":"Metamora","state":"IL","lat":40.7844,"long":-89.4309},{"zip":"61561","city":"Roanoke","state":"IL","lat":40.7956,"long":-89.2093}]
