[{"zip":"61601","city":"Peoria","state":"IL","lat":40.6931,"long":-89.5898},{"zip":"61602","city":"Peoria","state":"IL","lat":40.6936,"long":-89.589},{"zip":"61603","city":"Peoria","state":"IL","lat":40.7132,"long":-89.577},{"zip":"61604","city":"Peoria","state":"IL","lat":40.7111,"long":-89.6324},{"zip":"61605","city":"Peoria","state":"IL","lat":40.6775,"long":-89.6263},{"zip":"61606","city":"Peoria","state":"IL","lat":40.6989,"long":-89.6122},{"zip":"61607","city":"Peoria","state":"IL","lat":40.6321,"long":-89.6903},{"zip":"61612","city":"Peoria","state":"IL","lat":40.7442,"long":-89.7184},{"zip":"61613","city":"Peoria","state":"IL","lat":40.7425,"long":-89.6279},{"zip":"61614","city":"Peoria","state":"IL","lat":40.7681,"long":-89.6026},{"zip":"61615","city":"Peoria","state":"IL","lat":40.7661,"long":-89.645},{"zip":"61616","city":"Peoria Heights","state":"IL","lat":40.7473,"long":-89.574},{"zip":"61625","city":"Peoria","state":"IL","lat":40.6963,"long":-89.6166},{"zip":"61629","city":"Peoria","state":"IL","lat":40.692,"long":-89.5887},{"zip":"61630","city":"Peoria","state":"IL","lat":40.7442,"long":-89.7184},{"zip":"61633","city":"Peoria","state":"IL","lat":40.7312,"long":-89.6031},{"zip":"61634","city":"Peoria","state":"IL","lat":40.6896,"long":-89.5926},{"zip":"61636","city":"Peoria","state":"IL","lat":40.6999,"long":-89.5951},{"zip":"61637","city":"Peoria","state":"IL","lat":40.7025,"long":-89.5898},{"zip":"61638","city":"Peoria","state":"IL","lat":40.7969,"long":-89.6111},{"zip":"61639","city":"Peoria","state":"IL","lat":40.7098,"long":-89.5636},{"zip":"61641","city":"Peoria","state":"IL","lat":40.64,"long":-89.652},{"zip":"61643","city":"Peoria","state":"IL","lat":40.7442,"long":-89.7184},{"zip":"61650","city":"Peoria","state":"IL","lat":40.7442,"long":-89.7184},{"zip":"61651","city":"Peoria","state":"IL","lat":40.7442,"long":-89.7184},{"zip":"61652","city":"Peoria","state":"IL","lat":40.8767,"long":-89.5091},{"zip":"61653","city":"Peoria","state":"IL","lat":40.7442,"long":-89.7184},{"zip":"61654","city":"Peoria","state":"IL","lat":40.7442,"long":-89.7184},{"zip":"61655","city":"Peoria","state":"IL","lat":40.7442,"long":-89.7184},{"zip":"61656","city":"Peoria","state":"IL","lat":40.7442,"long":-89.7184},{"zip":"61610","city":"Creve Coeur","state":"IL","lat":40.6428,"long":-89.5988},{"zip":"61611","city":"East Peoria","state":"IL","lat":40.6731,"long":-89.5514},{"zip":"61635","city":"East Peoria","state":"IL","lat":40.6661,"long":-89.5801}]
