[{"zip":"61727","city":"Clinton","state":"IL","lat":40.1487,"long":-88.9627},{"zip":"61735","city":"Dewitt","state":"IL","lat":40.1848,"long":-88.7637},{"zip":"61749","city":"Kenney","state":"IL","lat":40.0967,"long":-89.0859},{"zip":"61750","city":"Lane","state":"IL","lat":40.1235,"long":-88.8597},{"zip":"61777","city":"Wapella","state":"IL","lat":40.2323,"long":-88.9673},{"zip":"61778","city":"Waynesville","state":"IL","lat":40.2437,"long":-89.1143},{"zip":"61773","city":"Sibley","state":"IL","lat":40.5823,"long":-88.3815},{"zip":"61739","city":"Fairbury","state":"IL","lat":40.745,"long":-88.5165},{"zip":"61740","city":"Flanagan","state":"IL","lat":40.879,"long":-88.862},{"zip":"61741","city":"Forrest","state":"IL","lat":40.7513,"long":-88.4111},{"zip":"61743","city":"Graymont","state":"IL","lat":40.8757,"long":-88.7817},{"zip":"61764","city":"Pontiac","state":"IL","lat":40.8764,"long":-88.6328},{"zip":"61769","city":"Saunemin","state":"IL","lat":40.8885,"long":-88.4094},{"zip":"61775","city":"Strawn","state":"IL","lat":40.6476,"long":-88.404},{"zip":"61723","city":"Atlanta","state":"IL","lat":40.2586,"long":-89.23},{"zip":"61751","city":"Lawndale","state":"IL","lat":40.2193,"long":-89.2852},{"zip":"61701","city":"Bloomington","state":"IL","lat":40.4783,"long":-88.9893},{"zip":"61702","city":"Bloomington","state":"IL","lat":40.5192,"long":-88.8643},{"zip":"61704","city":"Bloomington","state":"IL","lat":40.4705,"long":-88.9433},{"zip":"61705","city":"Bloomington","state":"IL","lat":40.44,"long":-89.067},{"zip":"61709","city":"Bloomington","state":"IL","lat":40.4614,"long":-88.953},{"zip":"61710","city":"Bloomington","state":"IL","lat":40.4777,"long":-88.9542},{"zip":"61720","city":"Anchor","state":"IL","lat":40.5441,"long":-88.5266},{"zip":"61722","city":"Arrowsmith","state":"IL","lat":40.412,"long":-88.6296},{"zip":"61724","city":"Bellflower","state":"IL","lat":40.3401,"long":-88.5227},{"zip":"61725","city":"Carlock","state":"IL","lat":40.6029,"long":-89.1098},{"zip":"61726","city":"Chenoa","state":"IL","lat":40.7446,"long":-88.7219},{"zip":"61728","city":"Colfax","state":"IL","lat":40.5704,"long":-88.62},{"zip":"61730","city":"Cooksville","state":"IL","lat":40.536,"long":-88.735},{"zip":"61731","city":"Cropsey","state":"IL","lat":40.603,"long":-88.4943},{"zip":"61732","city":"Danvers","state":"IL","lat":40.5364,"long":-89.1885},{"zip":"61736","city":"Downs","state":"IL","lat":40.3989,"long":-88.8686},{"zip":"61737","city":"Ellsworth","state":"IL","lat":40.4432,"long":-88.7371},{"zip":"61744","city":"Gridley","state":"IL","lat":40.7439,"long":-88.884},{"zip":"61745","city":"Heyworth","state":"IL","lat":40.3307,"long":-88.9776},{"zip":"61748","city":"Hudson","state":"IL","lat":40.6205,"long":-88.9759},{"zip":"61752","city":"Le Roy","state":"IL","lat":40.3468,"long":-88.7598},{"zip":"61753","city":"Lexington","state":"IL","lat":40.6357,"long":-88.8062},{"zip":"61754","city":"Mc Lean","state":"IL","lat":40.3282,"long":-89.1645},{"zip":"61758","city":"Merna","state":"IL","lat":40.5167,"long":-88.8259},{"zip":"61761","city":"Normal","state":"IL","lat":40.5124,"long":-88.9883},{"zip":"61770","city":"Saybrook","state":"IL","lat":40.432,"long":-88.5247},{"zip":"61772","city":"Shirley","state":"IL","lat":40.4174,"long":-89.0822},{"zip":"61774","city":"Stanford","state":"IL","lat":40.4376,"long":-89.2164},{"zip":"61776","city":"Towanda","state":"IL","lat":40.5533,"long":-88.8886},{"zip":"61790","city":"Normal","state":"IL","lat":40.5103,"long":-88.998},{"zip":"61791","city":"Bloomington","state":"IL","lat":40.5192,"long":-88.8643},{"zip":"61799","city":"Bloomington","state":"IL","lat":40.4885,"long":-88.9396},{"zip":"61756","city":"Maroa","state":"IL","lat":40.0342,"long":-88.9578},{"zip":"61721","city":"Armington","state":"IL","lat":40.3613,"long":-89.3231},{"zip":"61733","city":"Deer Creek","state":"IL","lat":40.6224,"long":-89.3323},{"zip":"61734","city":"Delavan","state":"IL","lat":40.369,"long":-89.5321},{"zip":"61747","city":"Hopedale","state":"IL","lat":40.4273,"long":-89.4214},{"zip":"61755","city":"Mackinaw","state":"IL","lat":40.5396,"long":-89.3458},{"zip":"61759","city":"Minier","state":"IL","lat":40.4359,"long":-89.3165},{"zip":"61729","city":"Congerville","state":"IL","lat":40.6208,"long":-89.1994},{"zip":"61738","city":"El Paso","state":"IL","lat":40.7389,"long":-89.012},{"zip":"61742","city":"Goodfield","state":"IL","lat":40.6329,"long":-89.2727},{"zip":"61760","city":"Minonk","state":"IL","lat":40.8985,"long":-89.0349},{"zip":"61771","city":"Secor","state":"IL","lat":40.7224,"long":-89.1271}]
