[{"zip":"61801","city":"Urbana","state":"IL","lat":40.1095,"long":-88.2036},{"zip":"61802","city":"Urbana","state":"IL","lat":40.0746,"long":-88.1691},{"zip":"61803","city":"Urbana","state":"IL","lat":40.1059,"long":-88.2247},{"zip":"61815","city":"Bondville","state":"IL","lat":40.1134,"long":-88.3695},{"zip":"61816","city":"Broadlands","state":"IL","lat":39.9142,"long":-87.9948},{"zip":"61820","city":"Champaign","state":"IL","lat":40.111,"long":-88.2407},{"zip":"61821","city":"Champaign","state":"IL","lat":40.1073,"long":-88.2788},{"zip":"61822","city":"Champaign","state":"IL","lat":40.1317,"long":-88.2854},{"zip":"61824","city":"Champaign","state":"IL","lat":40.1164,"long":-88.2434},{"zip":"61825","city":"Champaign","state":"IL","lat":40.1164,"long":-88.2434},{"zip":"61826","city":"Champaign","state":"IL","lat":40.1131,"long":-88.3613},{"zip":"61840","city":"Dewey","state":"IL","lat":40.3131,"long":-88.277},{"zip":"61843","city":"Fisher","state":"IL","lat":40.2991,"long":-88.356},{"zip":"61845","city":"Foosland","state":"IL","lat":40.3554,"long":-88.4202},{"zip":"61847","city":"Gifford","state":"IL","lat":40.3028,"long":-88.0317},{"zip":"61849","city":"Homer","state":"IL","lat":40.0346,"long":-87.9627},{"zip":"61851","city":"Ivesdale","state":"IL","lat":39.9502,"long":-88.4451},{"zip":"61852","city":"Longview","state":"IL","lat":39.9012,"long":-88.0753},{"zip":"61853","city":"Mahomet","state":"IL","lat":40.1964,"long":-88.3928},{"zip":"61859","city":"Ogden","state":"IL","lat":40.1401,"long":-87.9665},{"zip":"61862","city":"Penfield","state":"IL","lat":40.3101,"long":-87.957},{"zip":"61863","city":"Pesotum","state":"IL","lat":39.9151,"long":-88.2743},{"zip":"61864","city":"Philo","state":"IL","lat":40.0052,"long":-88.1595},{"zip":"61866","city":"Rantoul","state":"IL","lat":40.3107,"long":-88.1462},{"zip":"61871","city":"Royal","state":"IL","lat":40.1924,"long":-87.9742},{"zip":"61872","city":"Sadorus","state":"IL","lat":39.9613,"long":-88.3447},{"zip":"61873","city":"Saint Joseph","state":"IL","lat":40.1207,"long":-88.0472},{"zip":"61874","city":"Savoy","state":"IL","lat":40.0654,"long":-88.2528},{"zip":"61875","city":"Seymour","state":"IL","lat":40.107,"long":-88.4267},{"zip":"61877","city":"Sidney","state":"IL","lat":40.0232,"long":-88.069},{"zip":"61878","city":"Thomasboro","state":"IL","lat":40.2402,"long":-88.183},{"zip":"61880","city":"Tolono","state":"IL","lat":39.985,"long":-88.2596},{"zip":"61842","city":"Farmer City","state":"IL","lat":40.2447,"long":-88.6634},{"zip":"61882","city":"Weldon","state":"IL","lat":40.1177,"long":-88.7531},{"zip":"61813","city":"Bement","state":"IL","lat":39.9222,"long":-88.5688},{"zip":"61818","city":"Cerro Gordo","state":"IL","lat":39.8681,"long":-88.7256},{"zip":"61830","city":"Cisco","state":"IL","lat":39.9972,"long":-88.6962},{"zip":"61839","city":"De Land","state":"IL","lat":40.1107,"long":-88.6392},{"zip":"61854","city":"Mansfield","state":"IL","lat":40.2147,"long":-88.5179},{"zip":"61855","city":"Milmine","state":"IL","lat":39.9238,"long":-88.6599},{"zip":"61856","city":"Monticello","state":"IL","lat":40.0263,"long":-88.5686},{"zip":"61884","city":"White Heath","state":"IL","lat":40.1009,"long":-88.5193},{"zip":"61810","city":"Allerton","state":"IL","lat":39.9188,"long":-87.9312},{"zip":"61811","city":"Alvin","state":"IL","lat":40.3007,"long":-87.608},{"zip":"61812","city":"Armstrong","state":"IL","lat":40.2175,"long":-87.8943},{"zip":"61814","city":"Bismarck","state":"IL","lat":40.2552,"long":-87.6138},{"zip":"61817","city":"Catlin","state":"IL","lat":40.0699,"long":-87.7113},{"zip":"61831","city":"Collison","state":"IL","lat":40.2207,"long":-87.7987},{"zip":"61832","city":"Danville","state":"IL","lat":40.137,"long":-87.6217},{"zip":"61833","city":"Tilton","state":"IL","lat":40.0964,"long":-87.644},{"zip":"61834","city":"Danville","state":"IL","lat":40.1602,"long":-87.6729},{"zip":"61841","city":"Fairmount","state":"IL","lat":40.0373,"long":-87.8365},{"zip":"61844","city":"Fithian","state":"IL","lat":40.1192,"long":-87.8797},{"zip":"61846","city":"Georgetown","state":"IL","lat":39.9792,"long":-87.6365},{"zip":"61848","city":"Henning","state":"IL","lat":40.304,"long":-87.7007},{"zip":"61850","city":"Indianola","state":"IL","lat":39.9268,"long":-87.7388},{"zip":"61857","city":"Muncie","state":"IL","lat":40.1165,"long":-87.8447},{"zip":"61858","city":"Oakwood","state":"IL","lat":40.1167,"long":-87.7825},{"zip":"61865","city":"Potomac","state":"IL","lat":40.309,"long":-87.8232},{"zip":"61870","city":"Ridge Farm","state":"IL","lat":39.9155,"long":-87.6346},{"zip":"61876","city":"Sidell","state":"IL","lat":39.911,"long":-87.8248},{"zip":"61883","city":"Westville","state":"IL","lat":40.0451,"long":-87.636}]
