[{"zip":"61912","city":"Ashmore","state":"IL","lat":39.5254,"long":-88.0341},{"zip":"61920","city":"Charleston","state":"IL","lat":39.4869,"long":-88.1761},{"zip":"61931","city":"Humboldt","state":"IL","lat":39.6012,"long":-88.3141},{"zip":"61938","city":"Mattoon","state":"IL","lat":39.4802,"long":-88.3762},{"zip":"61943","city":"Oakland","state":"IL","lat":39.6516,"long":-88.0253},{"zip":"61910","city":"Arcola","state":"IL","lat":39.687,"long":-88.3037},{"zip":"61911","city":"Arthur","state":"IL","lat":39.7077,"long":-88.4555},{"zip":"61913","city":"Atwood","state":"IL","lat":39.8044,"long":-88.4494},{"zip":"61919","city":"Camargo","state":"IL","lat":39.8,"long":-88.1468},{"zip":"61930","city":"Hindsboro","state":"IL","lat":39.7018,"long":-88.1486},{"zip":"61941","city":"Murdock","state":"IL","lat":39.8009,"long":-88.0784},{"zip":"61942","city":"Newman","state":"IL","lat":39.7848,"long":-88.0001},{"zip":"61953","city":"Tuscola","state":"IL","lat":39.7995,"long":-88.2816},{"zip":"61956","city":"Villa Grove","state":"IL","lat":39.8687,"long":-88.1616},{"zip":"61917","city":"Brocton","state":"IL","lat":39.6923,"long":-87.9263},{"zip":"61924","city":"Chrisman","state":"IL","lat":39.7996,"long":-87.6556},{"zip":"61932","city":"Hume","state":"IL","lat":39.8009,"long":-87.8747},{"zip":"61933","city":"Kansas","state":"IL","lat":39.5525,"long":-87.9352},{"zip":"61940","city":"Metcalf","state":"IL","lat":39.8008,"long":-87.7955},{"zip":"61944","city":"Paris","state":"IL","lat":39.6132,"long":-87.6976},{"zip":"61949","city":"Redmon","state":"IL","lat":39.6453,"long":-87.8617},{"zip":"61955","city":"Vermilion","state":"IL","lat":39.5811,"long":-87.5889},{"zip":"61914","city":"Bethany","state":"IL","lat":39.6348,"long":-88.7543},{"zip":"61925","city":"Dalton City","state":"IL","lat":39.7119,"long":-88.7975},{"zip":"61928","city":"Gays","state":"IL","lat":39.4796,"long":-88.5242},{"zip":"61937","city":"Lovington","state":"IL","lat":39.7192,"long":-88.6417},{"zip":"61951","city":"Sullivan","state":"IL","lat":39.5934,"long":-88.6038},{"zip":"61929","city":"Hammond","state":"IL","lat":39.7946,"long":-88.5793},{"zip":"61936","city":"La Place","state":"IL","lat":39.7983,"long":-88.7272},{"zip":"61957","city":"Windsor","state":"IL","lat":39.4302,"long":-88.5857}]
