[{"zip":"62301","city":"Quincy","state":"IL","lat":39.9307,"long":-91.3763},{"zip":"62305","city":"Quincy","state":"IL","lat":39.9601,"long":-91.3026},{"zip":"62306","city":"Quincy","state":"IL","lat":39.9356,"long":-91.4099},{"zip":"62320","city":"Camp Point","state":"IL","lat":40.0293,"long":-91.0769},{"zip":"62324","city":"Clayton","state":"IL","lat":40.0133,"long":-90.9554},{"zip":"62325","city":"Coatsburg","state":"IL","lat":40.0554,"long":-91.1747},{"zip":"62338","city":"Fowler","state":"IL","lat":39.9925,"long":-91.2452},{"zip":"62339","city":"Golden","state":"IL","lat":40.1203,"long":-91.0296},{"zip":"62346","city":"La Prairie","state":"IL","lat":40.1572,"long":-90.9844},{"zip":"62347","city":"Liberty","state":"IL","lat":39.8892,"long":-91.0869},{"zip":"62348","city":"Lima","state":"IL","lat":40.1775,"long":-91.3785},{"zip":"62349","city":"Loraine","state":"IL","lat":40.1532,"long":-91.213},{"zip":"62351","city":"Mendon","state":"IL","lat":40.0857,"long":-91.2899},{"zip":"62359","city":"Paloma","state":"IL","lat":40.0366,"long":-91.2053},{"zip":"62360","city":"Payson","state":"IL","lat":39.8153,"long":-91.2627},{"zip":"62365","city":"Plainville","state":"IL","lat":39.8004,"long":-91.1436},{"zip":"62376","city":"Ursa","state":"IL","lat":40.0809,"long":-91.3733},{"zip":"62914","city":"Cairo","state":"IL","lat":37.0123,"long":-89.1811},{"zip":"62957","city":"Mc Clure","state":"IL","lat":37.302,"long":-89.4531},{"zip":"62962","city":"Miller City","state":"IL","lat":37.1034,"long":-89.3494},{"zip":"62969","city":"Olive Branch","state":"IL","lat":37.1674,"long":-89.3537},{"zip":"62988","city":"Tamms","state":"IL","lat":37.2345,"long":-89.2763},{"zip":"62990","city":"Thebes","state":"IL","lat":37.221,"long":-89.4599},{"zip":"62993","city":"Unity","state":"IL","lat":37.1528,"long":-89.3256},{"zip":"62019","city":"Donnellson","state":"IL","lat":39.0344,"long":-89.4909},{"zip":"62086","city":"Sorento","state":"IL","lat":38.9693,"long":-89.5653},{"zip":"62246","city":"Greenville","state":"IL","lat":38.8933,"long":-89.4052},{"zip":"62262","city":"Mulberry Grove","state":"IL","lat":38.9311,"long":-89.2463},{"zip":"62273","city":"Pierron","state":"IL","lat":38.8845,"long":-89.4449},{"zip":"62275","city":"Pocahontas","state":"IL","lat":38.7846,"long":-89.5247},{"zip":"62284","city":"Smithboro","state":"IL","lat":38.8739,"long":-89.3266},{"zip":"62353","city":"Mount Sterling","state":"IL","lat":39.9803,"long":-90.7414},{"zip":"62375","city":"Timewell","state":"IL","lat":40.0117,"long":-90.8661},{"zip":"62378","city":"Versailles","state":"IL","lat":39.8883,"long":-90.6741},{"zip":"62006","city":"Batchtown","state":"IL","lat":39.0725,"long":-90.6591},{"zip":"62013","city":"Brussels","state":"IL","lat":38.9495,"long":-90.5887},{"zip":"62036","city":"Golden Eagle","state":"IL","lat":38.8961,"long":-90.5602},{"zip":"62045","city":"Hamburg","state":"IL","lat":39.2235,"long":-90.6995},{"zip":"62047","city":"Hardin","state":"IL","lat":39.1547,"long":-90.624},{"zip":"62053","city":"Kampsville","state":"IL","lat":39.3064,"long":-90.6269},{"zip":"62065","city":"Michael","state":"IL","lat":39.2353,"long":-90.6235},{"zip":"62070","city":"Mozier","state":"IL","lat":39.2925,"long":-90.7493},{"zip":"62611","city":"Arenzville","state":"IL","lat":39.8979,"long":-90.3636},{"zip":"62612","city":"Ashland","state":"IL","lat":39.9386,"long":-90.0792},{"zip":"62618","city":"Beardstown","state":"IL","lat":40.0044,"long":-90.4229},{"zip":"62622","city":"Bluff Springs","state":"IL","lat":39.9796,"long":-90.3524},{"zip":"62627","city":"Chandlerville","state":"IL","lat":40.0374,"long":-90.1163},{"zip":"62691","city":"Virginia","state":"IL","lat":39.9512,"long":-90.2123},{"zip":"62083","city":"Rosamond","state":"IL","lat":39.3743,"long":-89.1983},{"zip":"62510","city":"Assumption","state":"IL","lat":39.5095,"long":-89.0398},{"zip":"62517","city":"Bulpitt","state":"IL","lat":39.5917,"long":-89.424},{"zip":"62531","city":"Edinburg","state":"IL","lat":39.6612,"long":-89.3779},{"zip":"62540","city":"Kincaid","state":"IL","lat":39.5838,"long":-89.4185},{"zip":"62546","city":"Morrisonville","state":"IL","lat":39.4153,"long":-89.4541},{"zip":"62547","city":"Mount Auburn","state":"IL","lat":39.769,"long":-89.2489},{"zip":"62555","city":"Owaneco","state":"IL","lat":39.4775,"long":-89.1951},{"zip":"62556","city":"Palmer","state":"IL","lat":39.4699,"long":-89.3733},{"zip":"62557","city":"Pana","state":"IL","lat":39.3971,"long":-89.1048},{"zip":"62567","city":"Stonington","state":"IL","lat":39.6405,"long":-89.1913},{"zip":"62568","city":"Taylorville","state":"IL","lat":39.5489,"long":-89.2945},{"zip":"62570","city":"Tovey","state":"IL","lat":39.588,"long":-89.4495},{"zip":"62420","city":"Casey","state":"IL","lat":39.3017,"long":-87.9913},{"zip":"62423","city":"Dennison","state":"IL","lat":39.449,"long":-87.5867},{"zip":"62441","city":"Marshall","state":"IL","lat":39.422,"long":-87.6923},{"zip":"62442","city":"Martinsville","state":"IL","lat":39.3174,"long":-87.8707},{"zip":"62474","city":"Westfield","state":"IL","lat":39.4564,"long":-87.9961},{"zip":"62477","city":"West Union","state":"IL","lat":39.2402,"long":-87.6512},{"zip":"62434","city":"Ingraham","state":"IL","lat":38.8284,"long":-88.3204},{"zip":"62824","city":"Clay City","state":"IL","lat":38.6695,"long":-88.3516},{"zip":"62839","city":"Flora","state":"IL","lat":38.6703,"long":-88.4919},{"zip":"62858","city":"Louisville","state":"IL","lat":38.7718,"long":-88.5065},{"zip":"62879","city":"Sailor Springs","state":"IL","lat":38.7573,"long":-88.4736},{"zip":"62899","city":"Xenia","state":"IL","lat":38.6359,"long":-88.6348},{"zip":"62215","city":"Albers","state":"IL","lat":38.532,"long":-89.6202},{"zip":"62216","city":"Aviston","state":"IL","lat":38.6089,"long":-89.6034},{"zip":"62218","city":"Bartelso","state":"IL","lat":38.5385,"long":-89.4578},{"zip":"62219","city":"Beckemeyer","state":"IL","lat":38.6058,"long":-89.4319},{"zip":"62230","city":"Breese","state":"IL","lat":38.6188,"long":-89.5284},{"zip":"62231","city":"Carlyle","state":"IL","lat":38.6066,"long":-89.3805},{"zip":"62245","city":"Germantown","state":"IL","lat":38.5487,"long":-89.5413},{"zip":"62250","city":"Hoffman","state":"IL","lat":38.5408,"long":-89.2661},{"zip":"62252","city":"Huey","state":"IL","lat":38.6018,"long":-89.2915},{"zip":"62253","city":"Keyesport","state":"IL","lat":38.7769,"long":-89.2975},{"zip":"62265","city":"New Baden","state":"IL","lat":38.5315,"long":-89.6922},{"zip":"62266","city":"New Memphis","state":"IL","lat":38.4857,"long":-89.6816},{"zip":"62293","city":"Trenton","state":"IL","lat":38.6191,"long":-89.6447},{"zip":"62440","city":"Lerna","state":"IL","lat":39.3958,"long":-88.253},{"zip":"62469","city":"Trilla","state":"IL","lat":39.3938,"long":-88.3488},{"zip":"62413","city":"Annapolis","state":"IL","lat":39.1179,"long":-87.8029},{"zip":"62427","city":"Flat Rock","state":"IL","lat":38.9096,"long":-87.6837},{"zip":"62433","city":"Hutsonville","state":"IL","lat":39.1064,"long":-87.6695},{"zip":"62449","city":"Oblong","state":"IL","lat":39.001,"long":-87.895},{"zip":"62451","city":"Palestine","state":"IL","lat":39.0028,"long":-87.6157},{"zip":"62454","city":"Robinson","state":"IL","lat":39.007,"long":-87.7484},{"zip":"62464","city":"Stoy","state":"IL","lat":38.9898,"long":-87.8396},{"zip":"62478","city":"West York","state":"IL","lat":39.1938,"long":-87.7131},{"zip":"62428","city":"Greenup","state":"IL","lat":39.274,"long":-88.1246},{"zip":"62435","city":"Janesville","state":"IL","lat":39.3743,"long":-88.2445},{"zip":"62436","city":"Jewett","state":"IL","lat":39.2076,"long":-88.2474},{"zip":"62447","city":"Neoga","state":"IL","lat":39.322,"long":-88.4503},{"zip":"62468","city":"Toledo","state":"IL","lat":39.2772,"long":-88.2468},{"zip":"62476","city":"West Salem","state":"IL","lat":38.5209,"long":-88.0048},{"zip":"62806","city":"Albion","state":"IL","lat":38.374,"long":-88.0636},{"zip":"62815","city":"Bone Gap","state":"IL","lat":38.449,"long":-88.0025},{"zip":"62818","city":"Browns","state":"IL","lat":38.3764,"long":-87.9928},{"zip":"62833","city":"Ellery","state":"IL","lat":38.365,"long":-88.1335},{"zip":"62401","city":"Effingham","state":"IL","lat":39.1217,"long":-88.5611},{"zip":"62411","city":"Altamont","state":"IL","lat":39.0634,"long":-88.7481},{"zip":"62414","city":"Beecher City","state":"IL","lat":39.1835,"long":-88.8038},{"zip":"62424","city":"Dieterich","state":"IL","lat":39.0319,"long":-88.4074},{"zip":"62426","city":"Edgewood","state":"IL","lat":38.9021,"long":-88.6645},{"zip":"62443","city":"Mason","state":"IL","lat":38.9645,"long":-88.6234},{"zip":"62445","city":"Montrose","state":"IL","lat":39.1573,"long":-88.335},{"zip":"62461","city":"Shumway","state":"IL","lat":39.1881,"long":-88.6418},{"zip":"62467","city":"Teutopolis","state":"IL","lat":39.132,"long":-88.4767},{"zip":"62473","city":"Watson","state":"IL","lat":38.9906,"long":-88.5584},{"zip":"62011","city":"Bingham","state":"IL","lat":39.1128,"long":-89.2125},{"zip":"62080","city":"Ramsey","state":"IL","lat":39.1445,"long":-89.1087},{"zip":"62247","city":"Hagarstown","state":"IL","lat":38.9434,"long":-89.1684},{"zip":"62418","city":"Brownstown","state":"IL","lat":38.9891,"long":-88.9494},{"zip":"62458","city":"Saint Elmo","state":"IL","lat":39.0315,"long":-88.8552},{"zip":"62471","city":"Vandalia","state":"IL","lat":38.9439,"long":-89.1041},{"zip":"62838","city":"Farina","state":"IL","lat":38.8469,"long":-88.7614},{"zip":"62880","city":"Saint Peter","state":"IL","lat":38.8697,"long":-88.856},{"zip":"62885","city":"Shobonier","state":"IL","lat":38.8446,"long":-89.079},{"zip":"62812","city":"Benton","state":"IL","lat":38,"long":-88.9227},{"zip":"62819","city":"Buckner","state":"IL","lat":37.9764,"long":-89.0209},{"zip":"62822","city":"Christopher","state":"IL","lat":37.9849,"long":-89.0574},{"zip":"62825","city":"Coello","state":"IL","lat":37.9946,"long":-89.0672},{"zip":"62836","city":"Ewing","state":"IL","lat":38.0702,"long":-88.8504},{"zip":"62840","city":"Frankfort Heights","state":"IL","lat":37.9943,"long":-88.9417},{"zip":"62856","city":"Logan","state":"IL","lat":37.9559,"long":-88.8403},{"zip":"62865","city":"Mulkeytown","state":"IL","lat":37.9687,"long":-89.1159},{"zip":"62874","city":"Orient","state":"IL","lat":37.9182,"long":-88.9767},{"zip":"62884","city":"Sesser","state":"IL","lat":38.0894,"long":-89.0574},{"zip":"62890","city":"Thompsonville","state":"IL","lat":37.8804,"long":-88.7684},{"zip":"62891","city":"Valier","state":"IL","lat":38.0222,"long":-89.0351},{"zip":"62896","city":"West Frankfort","state":"IL","lat":37.8979,"long":-88.9307},{"zip":"62897","city":"Whittington","state":"IL","lat":38.0872,"long":-88.9014},{"zip":"62983","city":"Royalton","state":"IL","lat":37.879,"long":-89.1141},{"zip":"62999","city":"Zeigler","state":"IL","lat":37.8991,"long":-89.0523},{"zip":"62867","city":"New Haven","state":"IL","lat":37.8999,"long":-88.1285},{"zip":"62871","city":"Omaha","state":"IL","lat":37.8904,"long":-88.2865},{"zip":"62934","city":"Equality","state":"IL","lat":37.7278,"long":-88.3445},{"zip":"62954","city":"Junction","state":"IL","lat":37.6952,"long":-88.2491},{"zip":"62979","city":"Ridgway","state":"IL","lat":37.8042,"long":-88.2612},{"zip":"62984","city":"Shawneetown","state":"IL","lat":37.7132,"long":-88.1785},{"zip":"62016","city":"Carrollton","state":"IL","lat":39.3009,"long":-90.4092},{"zip":"62027","city":"Eldred","state":"IL","lat":39.2836,"long":-90.5329},{"zip":"62044","city":"Greenfield","state":"IL","lat":39.3491,"long":-90.2089},{"zip":"62050","city":"Hillview","state":"IL","lat":39.4674,"long":-90.5128},{"zip":"62054","city":"Kane","state":"IL","lat":39.2037,"long":-90.3719},{"zip":"62078","city":"Patterson","state":"IL","lat":39.4806,"long":-90.4829},{"zip":"62081","city":"Rockbridge","state":"IL","lat":39.2831,"long":-90.2558},{"zip":"62082","city":"Roodhouse","state":"IL","lat":39.4846,"long":-90.3498},{"zip":"62092","city":"White Hall","state":"IL","lat":39.4288,"long":-90.4019},{"zip":"62098","city":"Wrights","state":"IL","lat":39.3762,"long":-90.2933},{"zip":"62817","city":"Broughton","state":"IL","lat":37.9546,"long":-88.4678},{"zip":"62828","city":"Dahlgren","state":"IL","lat":38.1975,"long":-88.6363},{"zip":"62829","city":"Dale","state":"IL","lat":37.995,"long":-88.4917},{"zip":"62859","city":"Mc Leansboro","state":"IL","lat":38.0939,"long":-88.5286},{"zip":"62860","city":"Macedonia","state":"IL","lat":38.013,"long":-88.6961},{"zip":"62311","city":"Augusta","state":"IL","lat":40.2341,"long":-90.9554},{"zip":"62313","city":"Basco","state":"IL","lat":40.3283,"long":-91.197},{"zip":"62316","city":"Bowen","state":"IL","lat":40.2341,"long":-91.0705},{"zip":"62321","city":"Carthage","state":"IL","lat":40.4129,"long":-91.1005},{"zip":"62329","city":"Colusa","state":"IL","lat":40.5714,"long":-91.1682},{"zip":"62330","city":"Dallas City","state":"IL","lat":40.572,"long":-91.1255},{"zip":"62334","city":"Elvaston","state":"IL","lat":40.395,"long":-91.2496},{"zip":"62336","city":"Ferris","state":"IL","lat":40.4689,"long":-91.1704},{"zip":"62341","city":"Hamilton","state":"IL","lat":40.3964,"long":-91.339},{"zip":"62354","city":"Nauvoo","state":"IL","lat":40.5261,"long":-91.3318},{"zip":"62358","city":"Niota","state":"IL","lat":40.5978,"long":-91.2991},{"zip":"62367","city":"Plymouth","state":"IL","lat":40.3236,"long":-90.9672},{"zip":"62373","city":"Sutter","state":"IL","lat":40.2865,"long":-91.3726},{"zip":"62379","city":"Warsaw","state":"IL","lat":40.3544,"long":-91.4348},{"zip":"62380","city":"West Point","state":"IL","lat":40.255,"long":-91.1826},{"zip":"62919","city":"Cave In Rock","state":"IL","lat":37.5008,"long":-88.2383},{"zip":"62931","city":"Elizabethtown","state":"IL","lat":37.4665,"long":-88.2867},{"zip":"62955","city":"Karbers Ridge","state":"IL","lat":37.5008,"long":-88.2383},{"zip":"62982","city":"Rosiclare","state":"IL","lat":37.424,"long":-88.3462},{"zip":"62901","city":"Carbondale","state":"IL","lat":37.72,"long":-89.2158},{"zip":"62902","city":"Carbondale","state":"IL","lat":37.6636,"long":-89.1173},{"zip":"62903","city":"Carbondale","state":"IL","lat":37.6704,"long":-89.2778},{"zip":"62907","city":"Ava","state":"IL","lat":37.8793,"long":-89.4654},{"zip":"62916","city":"Campbell Hill","state":"IL","lat":37.9228,"long":-89.5799},{"zip":"62924","city":"De Soto","state":"IL","lat":37.8147,"long":-89.2218},{"zip":"62927","city":"Dowell","state":"IL","lat":37.9398,"long":-89.2379},{"zip":"62932","city":"Elkville","state":"IL","lat":37.9155,"long":-89.2336},{"zip":"62940","city":"Gorham","state":"IL","lat":37.7406,"long":-89.444},{"zip":"62942","city":"Grand Tower","state":"IL","lat":37.6322,"long":-89.4999},{"zip":"62950","city":"Jacob","state":"IL","lat":37.7437,"long":-89.5444},{"zip":"62958","city":"Makanda","state":"IL","lat":37.6176,"long":-89.209},{"zip":"62966","city":"Murphysboro","state":"IL","lat":37.7655,"long":-89.3317},{"zip":"62971","city":"Oraville","state":"IL","lat":37.8651,"long":-89.3834},{"zip":"62975","city":"Pomona","state":"IL","lat":37.6501,"long":-89.3693},{"zip":"62994","city":"Vergennes","state":"IL","lat":37.9051,"long":-89.3269},{"zip":"62432","city":"Hidalgo","state":"IL","lat":39.1228,"long":-88.1397},{"zip":"62448","city":"Newton","state":"IL","lat":38.9847,"long":-88.1704},{"zip":"62459","city":"Sainte Marie","state":"IL","lat":38.928,"long":-88.0291},{"zip":"62475","city":"West Liberty","state":"IL","lat":38.895,"long":-88.0979},{"zip":"62479","city":"Wheeler","state":"IL","lat":39.0182,"long":-88.3175},{"zip":"62480","city":"Willow Hill","state":"IL","lat":38.9757,"long":-88.0172},{"zip":"62481","city":"Yale","state":"IL","lat":39.13,"long":-88.0105},{"zip":"62810","city":"Belle Rive","state":"IL","lat":38.2153,"long":-88.7558},{"zip":"62814","city":"Bluford","state":"IL","lat":38.3531,"long":-88.7587},{"zip":"62816","city":"Bonnie","state":"IL","lat":38.198,"long":-88.9229},{"zip":"62830","city":"Dix","state":"IL","lat":38.4333,"long":-88.9657},{"zip":"62846","city":"Ina","state":"IL","lat":38.1527,"long":-88.8894},{"zip":"62864","city":"Mount Vernon","state":"IL","lat":38.317,"long":-88.9105},{"zip":"62866","city":"Nason","state":"IL","lat":38.1654,"long":-88.9676},{"zip":"62872","city":"Opdyke","state":"IL","lat":38.275,"long":-88.775},{"zip":"62883","city":"Scheller","state":"IL","lat":38.1731,"long":-89.0927},{"zip":"62889","city":"Texico","state":"IL","lat":38.425,"long":-88.8702},{"zip":"62894","city":"Waltonville","state":"IL","lat":38.2089,"long":-89.039},{"zip":"62898","city":"Woodlawn","state":"IL","lat":38.3844,"long":-89.0745},{"zip":"62012","city":"Brighton","state":"IL","lat":39.0361,"long":-90.1443},{"zip":"62022","city":"Dow","state":"IL","lat":39.0312,"long":-90.3011},{"zip":"62028","city":"Elsah","state":"IL","lat":38.9594,"long":-90.3541},{"zip":"62030","city":"Fidelity","state":"IL","lat":39.1546,"long":-90.1642},{"zip":"62031","city":"Fieldon","state":"IL","lat":39.1086,"long":-90.5297},{"zip":"62037","city":"Grafton","state":"IL","lat":39.0021,"long":-90.4323},{"zip":"62052","city":"Jerseyville","state":"IL","lat":39.1213,"long":-90.3338},{"zip":"62063","city":"Medora","state":"IL","lat":39.1986,"long":-90.1542},{"zip":"62908","city":"Belknap","state":"IL","lat":37.3266,"long":-88.9507},{"zip":"62909","city":"Boles","state":"IL","lat":37.4472,"long":-88.8768},{"zip":"62912","city":"Buncombe","state":"IL","lat":37.4637,"long":-88.9806},{"zip":"62923","city":"Cypress","state":"IL","lat":37.365,"long":-88.9747},{"zip":"62939","city":"Goreville","state":"IL","lat":37.575,"long":-88.9655},{"zip":"62943","city":"Grantsburg","state":"IL","lat":37.3794,"long":-88.7583},{"zip":"62967","city":"New Burnside","state":"IL","lat":37.578,"long":-88.7454},{"zip":"62972","city":"Ozark","state":"IL","lat":37.5367,"long":-88.7688},{"zip":"62985","city":"Simpson","state":"IL","lat":37.4673,"long":-88.7551},{"zip":"62995","city":"Vienna","state":"IL","lat":37.4205,"long":-88.8879},{"zip":"62417","city":"Bridgeport","state":"IL","lat":38.7067,"long":-87.7657},{"zip":"62439","city":"Lawrenceville","state":"IL","lat":38.7309,"long":-87.6784},{"zip":"62460","city":"Saint Francisville","state":"IL","lat":38.5921,"long":-87.6487},{"zip":"62466","city":"Sumner","state":"IL","lat":38.7171,"long":-87.8638},{"zip":"62512","city":"Beason","state":"IL","lat":40.1437,"long":-89.1948},{"zip":"62518","city":"Chestnut","state":"IL","lat":40.0582,"long":-89.19},{"zip":"62519","city":"Cornland","state":"IL","lat":39.9374,"long":-89.4023},{"zip":"62541","city":"Lake Fork","state":"IL","lat":39.9706,"long":-89.3505},{"zip":"62543","city":"Latham","state":"IL","lat":39.9711,"long":-89.1725},{"zip":"62548","city":"Mount Pulaski","state":"IL","lat":40.0045,"long":-89.2935},{"zip":"62634","city":"Elkhart","state":"IL","lat":40.0132,"long":-89.452},{"zip":"62635","city":"Emden","state":"IL","lat":40.2967,"long":-89.4714},{"zip":"62643","city":"Hartsburg","state":"IL","lat":40.2451,"long":-89.4519},{"zip":"62656","city":"Lincoln","state":"IL","lat":40.1451,"long":-89.3684},{"zip":"62666","city":"Middletown","state":"IL","lat":40.0967,"long":-89.5818},{"zip":"62671","city":"New Holland","state":"IL","lat":40.1682,"long":-89.5604},{"zip":"62326","city":"Colchester","state":"IL","lat":40.4156,"long":-90.7846},{"zip":"62374","city":"Tennessee","state":"IL","lat":40.414,"long":-90.8556},{"zip":"62501","city":"Argenta","state":"IL","lat":39.934,"long":-88.8052},{"zip":"62513","city":"Blue Mound","state":"IL","lat":39.6978,"long":-89.1136},{"zip":"62514","city":"Boody","state":"IL","lat":39.7624,"long":-89.0507},{"zip":"62521","city":"Decatur","state":"IL","lat":39.8395,"long":-88.9465},{"zip":"62522","city":"Decatur","state":"IL","lat":39.8432,"long":-88.9861},{"zip":"62523","city":"Decatur","state":"IL","lat":39.8417,"long":-88.9534},{"zip":"62524","city":"Decatur","state":"IL","lat":39.854,"long":-88.9815},{"zip":"62525","city":"Decatur","state":"IL","lat":39.854,"long":-88.9815},{"zip":"62526","city":"Decatur","state":"IL","lat":39.8583,"long":-88.9382},{"zip":"62532","city":"Elwin","state":"IL","lat":39.78,"long":-88.9808},{"zip":"62535","city":"Forsyth","state":"IL","lat":39.9248,"long":-88.9691},{"zip":"62537","city":"Harristown","state":"IL","lat":39.8567,"long":-89.085},{"zip":"62544","city":"Macon","state":"IL","lat":39.7041,"long":-88.988},{"zip":"62549","city":"Mt Zion","state":"IL","lat":39.7705,"long":-88.8659},{"zip":"62551","city":"Niantic","state":"IL","lat":39.8582,"long":-89.1701},{"zip":"62554","city":"Oreana","state":"IL","lat":39.9351,"long":-88.8547},{"zip":"62573","city":"Warrensburg","state":"IL","lat":39.9454,"long":-89.0741},{"zip":"62009","city":"Benld","state":"IL","lat":39.0939,"long":-89.8031},{"zip":"62014","city":"Bunker Hill","state":"IL","lat":39.0408,"long":-89.9624},{"zip":"62023","city":"Eagarville","state":"IL","lat":39.1118,"long":-89.7855},{"zip":"62033","city":"Gillespie","state":"IL","lat":39.1341,"long":-89.8442},{"zip":"62069","city":"Mount Olive","state":"IL","lat":39.0705,"long":-89.7448},{"zip":"62079","city":"Piasa","state":"IL","lat":39.1159,"long":-90.1237},{"zip":"62085","city":"Sawyerville","state":"IL","lat":39.0828,"long":-89.8043},{"zip":"62088","city":"Staunton","state":"IL","lat":39.0135,"long":-89.7857},{"zip":"62093","city":"Wilsonville","state":"IL","lat":39.0695,"long":-89.8565},{"zip":"62626","city":"Carlinville","state":"IL","lat":39.2885,"long":-89.8661},{"zip":"62630","city":"Chesterfield","state":"IL","lat":39.2608,"long":-90.0784},{"zip":"62640","city":"Girard","state":"IL","lat":39.3838,"long":-89.8501},{"zip":"62649","city":"Hettick","state":"IL","lat":39.3752,"long":-90.0672},{"zip":"62667","city":"Modesto","state":"IL","lat":39.476,"long":-89.9794},{"zip":"62672","city":"Nilwood","state":"IL","lat":39.398,"long":-89.8045},{"zip":"62674","city":"Palmyra","state":"IL","lat":39.4227,"long":-90.0311},{"zip":"62683","city":"Scottville","state":"IL","lat":39.4803,"long":-90.1048},{"zip":"62685","city":"Shipman","state":"IL","lat":39.1952,"long":-89.9607},{"zip":"62690","city":"Virden","state":"IL","lat":39.5064,"long":-89.7783},{"zip":"62001","city":"Alhambra","state":"IL","lat":38.8822,"long":-89.7441},{"zip":"62002","city":"Alton","state":"IL","lat":38.9087,"long":-90.1568},{"zip":"62010","city":"Bethalto","state":"IL","lat":38.9074,"long":-90.0344},{"zip":"62018","city":"Cottage Hills","state":"IL","lat":38.9124,"long":-90.0826},{"zip":"62021","city":"Dorsey","state":"IL","lat":38.9832,"long":-89.9786},{"zip":"62024","city":"East Alton","state":"IL","lat":38.8803,"long":-90.083},{"zip":"62025","city":"Edwardsville","state":"IL","lat":38.805,"long":-89.9637},{"zip":"62026","city":"Edwardsville","state":"IL","lat":38.8114,"long":-89.9532},{"zip":"62034","city":"Glen Carbon","state":"IL","lat":38.7609,"long":-89.9706},{"zip":"62035","city":"Godfrey","state":"IL","lat":38.946,"long":-90.206},{"zip":"62040","city":"Granite City","state":"IL","lat":38.7261,"long":-90.1106},{"zip":"62046","city":"Hamel","state":"IL","lat":38.8901,"long":-89.8457},{"zip":"62048","city":"Hartford","state":"IL","lat":38.8278,"long":-90.0926},{"zip":"62058","city":"Livingston","state":"IL","lat":38.969,"long":-89.7668},{"zip":"62060","city":"Madison","state":"IL","lat":38.6811,"long":-90.1566},{"zip":"62061","city":"Marine","state":"IL","lat":38.7793,"long":-89.7786},{"zip":"62062","city":"Maryville","state":"IL","lat":38.7138,"long":-89.9658},{"zip":"62067","city":"Moro","state":"IL","lat":38.9318,"long":-89.9618},{"zip":"62074","city":"New Douglas","state":"IL","lat":38.9676,"long":-89.7392},{"zip":"62084","city":"Roxana","state":"IL","lat":38.8482,"long":-90.0798},{"zip":"62087","city":"South Roxana","state":"IL","lat":38.8225,"long":-90.0583},{"zip":"62090","city":"Venice","state":"IL","lat":38.6706,"long":-90.1689},{"zip":"62095","city":"Wood River","state":"IL","lat":38.8643,"long":-90.0875},{"zip":"62097","city":"Worden","state":"IL","lat":38.9449,"long":-89.8532},{"zip":"62234","city":"Collinsville","state":"IL","lat":38.6835,"long":-89.9853},{"zip":"62249","city":"Highland","state":"IL","lat":38.7631,"long":-89.6789},{"zip":"62281","city":"Saint Jacob","state":"IL","lat":38.7059,"long":-89.7925},{"zip":"62294","city":"Troy","state":"IL","lat":38.7243,"long":-89.8708},{"zip":"62801","city":"Centralia","state":"IL","lat":38.5241,"long":-89.1365},{"zip":"62807","city":"Alma","state":"IL","lat":38.7231,"long":-88.9157},{"zip":"62849","city":"Iuka","state":"IL","lat":38.6136,"long":-88.7689},{"zip":"62853","city":"Kell","state":"IL","lat":38.5147,"long":-88.9127},{"zip":"62854","city":"Kinmundy","state":"IL","lat":38.7559,"long":-88.813},{"zip":"62870","city":"Odin","state":"IL","lat":38.6088,"long":-89.0552},{"zip":"62875","city":"Patoka","state":"IL","lat":38.7549,"long":-89.0942},{"zip":"62881","city":"Salem","state":"IL","lat":38.6264,"long":-88.9481},{"zip":"62882","city":"Sandoval","state":"IL","lat":38.6131,"long":-89.114},{"zip":"62892","city":"Vernon","state":"IL","lat":38.8033,"long":-89.083},{"zip":"62893","city":"Walnut Hill","state":"IL","lat":38.467,"long":-89.0328},{"zip":"62617","city":"Bath","state":"IL","lat":40.1536,"long":-90.1661},{"zip":"62633","city":"Easton","state":"IL","lat":40.2279,"long":-89.8903},{"zip":"62644","city":"Havana","state":"IL","lat":40.3,"long":-90.061},{"zip":"62655","city":"Kilbourne","state":"IL","lat":40.1587,"long":-90.0043},{"zip":"62664","city":"Mason City","state":"IL","lat":40.2023,"long":-89.6982},{"zip":"62682","city":"San Jose","state":"IL","lat":40.3011,"long":-89.6872},{"zip":"62910","city":"Brookport","state":"IL","lat":37.1542,"long":-88.5334},{"zip":"62953","city":"Joppa","state":"IL","lat":37.2092,"long":-88.8442},{"zip":"62960","city":"Metropolis","state":"IL","lat":37.1753,"long":-88.7252},{"zip":"62613","city":"Athens","state":"IL","lat":39.9917,"long":-89.6684},{"zip":"62642","city":"Greenview","state":"IL","lat":40.1017,"long":-89.7469},{"zip":"62659","city":"Lincoln'S New Salem","state":"IL","lat":40.0311,"long":-89.7867},{"zip":"62673","city":"Oakford","state":"IL","lat":40.0994,"long":-89.9601},{"zip":"62675","city":"Petersburg","state":"IL","lat":40.0117,"long":-89.8482},{"zip":"62688","city":"Tallula","state":"IL","lat":39.9445,"long":-89.9373},{"zip":"62236","city":"Columbia","state":"IL","lat":38.4325,"long":-90.2027},{"zip":"62244","city":"Fults","state":"IL","lat":38.1797,"long":-90.1974},{"zip":"62248","city":"Hecker","state":"IL","lat":38.3044,"long":-89.9935},{"zip":"62256","city":"Maeystown","state":"IL","lat":38.3043,"long":-90.1356},{"zip":"62279","city":"Renault","state":"IL","lat":38.1521,"long":-90.1346},{"zip":"62295","city":"Valmeyer","state":"IL","lat":38.2805,"long":-90.3122},{"zip":"62298","city":"Waterloo","state":"IL","lat":38.3223,"long":-90.1478},{"zip":"62015","city":"Butler","state":"IL","lat":39.2114,"long":-89.5305},{"zip":"62017","city":"Coffeen","state":"IL","lat":39.0908,"long":-89.3945},{"zip":"62032","city":"Fillmore","state":"IL","lat":39.1039,"long":-89.2946},{"zip":"62049","city":"Hillsboro","state":"IL","lat":39.1494,"long":-89.4881},{"zip":"62051","city":"Irving","state":"IL","lat":39.2089,"long":-89.4104},{"zip":"62056","city":"Litchfield","state":"IL","lat":39.1793,"long":-89.6499},{"zip":"62075","city":"Nokomis","state":"IL","lat":39.3036,"long":-89.2853},{"zip":"62076","city":"Ohlman","state":"IL","lat":39.3434,"long":-89.2191},{"zip":"62077","city":"Panama","state":"IL","lat":39.0317,"long":-89.5237},{"zip":"62089","city":"Taylor Springs","state":"IL","lat":39.1309,"long":-89.492},{"zip":"62091","city":"Walshville","state":"IL","lat":39.0473,"long":-89.635},{"zip":"62094","city":"Witt","state":"IL","lat":39.2469,"long":-89.3414},{"zip":"62533","city":"Farmersville","state":"IL","lat":39.4401,"long":-89.617},{"zip":"62538","city":"Harvel","state":"IL","lat":39.3719,"long":-89.538},{"zip":"62560","city":"Raymond","state":"IL","lat":39.3106,"long":-89.5851},{"zip":"62572","city":"Waggoner","state":"IL","lat":39.3688,"long":-89.6545},{"zip":"62601","city":"Alexander","state":"IL","lat":39.7517,"long":-90.0458},{"zip":"62628","city":"Chapin","state":"IL","lat":39.7716,"long":-90.4113},{"zip":"62631","city":"Concord","state":"IL","lat":39.823,"long":-90.3722},{"zip":"62638","city":"Franklin","state":"IL","lat":39.6222,"long":-90.0889},{"zip":"62650","city":"Jacksonville","state":"IL","lat":39.7339,"long":-90.229},{"zip":"62651","city":"Jacksonville","state":"IL","lat":39.6983,"long":-90.2615},{"zip":"62660","city":"Literberry","state":"IL","lat":39.8589,"long":-90.2007},{"zip":"62665","city":"Meredosia","state":"IL","lat":39.8173,"long":-90.5339},{"zip":"62668","city":"Murrayville","state":"IL","lat":39.5723,"long":-90.2379},{"zip":"62692","city":"Waverly","state":"IL","lat":39.587,"long":-89.9449},{"zip":"62695","city":"Woodson","state":"IL","lat":39.6189,"long":-90.2257},{"zip":"62238","city":"Cutler","state":"IL","lat":38.0427,"long":-89.5661},{"zip":"62274","city":"Pinckneyville","state":"IL","lat":38.0903,"long":-89.3858},{"zip":"62832","city":"Du Quoin","state":"IL","lat":38.0137,"long":-89.2333},{"zip":"62888","city":"Tamaroa","state":"IL","lat":38.138,"long":-89.2231},{"zip":"62997","city":"Willisville","state":"IL","lat":37.9848,"long":-89.5899},{"zip":"62312","city":"Barry","state":"IL","lat":39.7047,"long":-91.0265},{"zip":"62314","city":"Baylis","state":"IL","lat":39.7612,"long":-90.8832},{"zip":"62323","city":"Chambersburg","state":"IL","lat":39.8071,"long":-90.663},{"zip":"62340","city":"Griggsville","state":"IL","lat":39.7084,"long":-90.7249},{"zip":"62343","city":"Hull","state":"IL","lat":39.7186,"long":-91.2338},{"zip":"62345","city":"Kinderhook","state":"IL","lat":39.6953,"long":-91.1637},{"zip":"62352","city":"Milton","state":"IL","lat":39.5645,"long":-90.6504},{"zip":"62355","city":"Nebo","state":"IL","lat":39.4202,"long":-90.7692},{"zip":"62356","city":"New Canton","state":"IL","lat":39.6342,"long":-91.0886},{"zip":"62357","city":"New Salem","state":"IL","lat":39.6996,"long":-90.844},{"zip":"62361","city":"Pearl","state":"IL","lat":39.4441,"long":-90.638},{"zip":"62362","city":"Perry","state":"IL","lat":39.7823,"long":-90.7471},{"zip":"62363","city":"Pittsfield","state":"IL","lat":39.6013,"long":-90.8073},{"zip":"62366","city":"Pleasant Hill","state":"IL","lat":39.4467,"long":-90.877},{"zip":"62370","city":"Rockport","state":"IL","lat":39.5328,"long":-90.9722},{"zip":"62928","city":"Eddyville","state":"IL","lat":37.4829,"long":-88.5791},{"zip":"62938","city":"Golconda","state":"IL","lat":37.3602,"long":-88.4886},{"zip":"62947","city":"Herod","state":"IL","lat":37.5634,"long":-88.44},{"zip":"62941","city":"Grand Chain","state":"IL","lat":37.251,"long":-89.0083},{"zip":"62956","city":"Karnak","state":"IL","lat":37.2911,"long":-88.9739},{"zip":"62963","city":"Mound City","state":"IL","lat":37.0865,"long":-89.1637},{"zip":"62964","city":"Mounds","state":"IL","lat":37.1188,"long":-89.2001},{"zip":"62970","city":"Olmsted","state":"IL","lat":37.1935,"long":-89.0933},{"zip":"62973","city":"Perks","state":"IL","lat":37.3113,"long":-89.0831},{"zip":"62976","city":"Pulaski","state":"IL","lat":37.2146,"long":-89.1968},{"zip":"62992","city":"Ullin","state":"IL","lat":37.277,"long":-89.1834},{"zip":"62996","city":"Villa Ridge","state":"IL","lat":37.1578,"long":-89.1825},{"zip":"62217","city":"Baldwin","state":"IL","lat":38.1754,"long":-89.8414},{"zip":"62233","city":"Chester","state":"IL","lat":37.9188,"long":-89.8218},{"zip":"62237","city":"Coulterville","state":"IL","lat":38.1753,"long":-89.6479},{"zip":"62241","city":"Ellis Grove","state":"IL","lat":38.0054,"long":-89.9008},{"zip":"62242","city":"Evansville","state":"IL","lat":38.0926,"long":-89.917},{"zip":"62259","city":"Menard","state":"IL","lat":37.9101,"long":-89.8398},{"zip":"62261","city":"Modoc","state":"IL","lat":38.0507,"long":-90.0163},{"zip":"62272","city":"Percy","state":"IL","lat":38.0126,"long":-89.617},{"zip":"62277","city":"Prairie Du Rocher","state":"IL","lat":38.0831,"long":-90.0959},{"zip":"62278","city":"Red Bud","state":"IL","lat":38.1907,"long":-89.9884},{"zip":"62280","city":"Rockwood","state":"IL","lat":37.8322,"long":-89.6214},{"zip":"62286","city":"Sparta","state":"IL","lat":38.1318,"long":-89.7035},{"zip":"62288","city":"Steeleville","state":"IL","lat":38.0057,"long":-89.6665},{"zip":"62292","city":"Tilden","state":"IL","lat":38.2122,"long":-89.6895},{"zip":"62297","city":"Walsh","state":"IL","lat":38.0203,"long":-89.8297},{"zip":"62419","city":"Calhoun","state":"IL","lat":38.6351,"long":-88.0037},{"zip":"62421","city":"Claremont","state":"IL","lat":38.7429,"long":-87.9727},{"zip":"62425","city":"Dundas","state":"IL","lat":38.8306,"long":-88.0973},{"zip":"62450","city":"Olney","state":"IL","lat":38.7334,"long":-88.0809},{"zip":"62452","city":"Parkersburg","state":"IL","lat":38.59,"long":-88.0647},{"zip":"62868","city":"Noble","state":"IL","lat":38.7119,"long":-88.219},{"zip":"62059","city":"Lovejoy","state":"IL","lat":38.44,"long":-89.9835},{"zip":"62071","city":"National Stock Yards","state":"IL","lat":38.6516,"long":-90.1639},{"zip":"62201","city":"East Saint Louis","state":"IL","lat":38.6427,"long":-90.1387},{"zip":"62202","city":"East Saint Louis","state":"IL","lat":38.6163,"long":-90.1591},{"zip":"62203","city":"East Saint Louis","state":"IL","lat":38.5992,"long":-90.0744},{"zip":"62204","city":"East Saint Louis","state":"IL","lat":38.6308,"long":-90.095},{"zip":"62205","city":"East Saint Louis","state":"IL","lat":38.6149,"long":-90.1275},{"zip":"62206","city":"East Saint Louis","state":"IL","lat":38.5514,"long":-90.1544},{"zip":"62207","city":"East Saint Louis","state":"IL","lat":38.587,"long":-90.1278},{"zip":"62208","city":"Fairview Heights","state":"IL","lat":38.596,"long":-90.0071},{"zip":"62220","city":"Belleville","state":"IL","lat":38.5127,"long":-89.9847},{"zip":"62221","city":"Belleville","state":"IL","lat":38.5396,"long":-89.9583},{"zip":"62222","city":"Belleville","state":"IL","lat":38.44,"long":-89.9835},{"zip":"62223","city":"Belleville","state":"IL","lat":38.5456,"long":-90.0378},{"zip":"62225","city":"Scott Air Force Base","state":"IL","lat":38.5432,"long":-89.859},{"zip":"62226","city":"Belleville","state":"IL","lat":38.5352,"long":-90.0006},{"zip":"62232","city":"Caseyville","state":"IL","lat":38.6345,"long":-90.0135},{"zip":"62239","city":"Dupo","state":"IL","lat":38.5162,"long":-90.2104},{"zip":"62240","city":"East Carondelet","state":"IL","lat":38.5349,"long":-90.2208},{"zip":"62243","city":"Freeburg","state":"IL","lat":38.408,"long":-89.9181},{"zip":"62254","city":"Lebanon","state":"IL","lat":38.6053,"long":-89.7992},{"zip":"62255","city":"Lenzburg","state":"IL","lat":38.295,"long":-89.7922},{"zip":"62257","city":"Marissa","state":"IL","lat":38.2455,"long":-89.7501},{"zip":"62258","city":"Mascoutah","state":"IL","lat":38.4745,"long":-89.7877},{"zip":"62260","city":"Millstadt","state":"IL","lat":38.4443,"long":-90.0888},{"zip":"62264","city":"New Athens","state":"IL","lat":38.316,"long":-89.8728},{"zip":"62269","city":"O Fallon","state":"IL","lat":38.5718,"long":-89.8957},{"zip":"62282","city":"Saint Libory","state":"IL","lat":38.3632,"long":-89.7139},{"zip":"62285","city":"Smithton","state":"IL","lat":38.4231,"long":-89.9896},{"zip":"62289","city":"Summerfield","state":"IL","lat":38.5967,"long":-89.7512},{"zip":"62917","city":"Carrier Mills","state":"IL","lat":37.6842,"long":-88.6328},{"zip":"62930","city":"Eldorado","state":"IL","lat":37.8139,"long":-88.4434},{"zip":"62935","city":"Galatia","state":"IL","lat":37.8274,"long":-88.6235},{"zip":"62946","city":"Harrisburg","state":"IL","lat":37.7257,"long":-88.544},{"zip":"62965","city":"Muddy","state":"IL","lat":37.765,"long":-88.5167},{"zip":"62977","city":"Raleigh","state":"IL","lat":37.8256,"long":-88.5324},{"zip":"62987","city":"Stonefort","state":"IL","lat":37.6432,"long":-88.6228},{"zip":"62515","city":"Buffalo","state":"IL","lat":39.8499,"long":-89.3879},{"zip":"62520","city":"Dawson","state":"IL","lat":39.8563,"long":-89.4603},{"zip":"62530","city":"Divernon","state":"IL","lat":39.5692,"long":-89.6626},{"zip":"62536","city":"Glenarm","state":"IL","lat":39.6327,"long":-89.6581},{"zip":"62539","city":"Illiopolis","state":"IL","lat":39.8499,"long":-89.2513},{"zip":"62545","city":"Mechanicsburg","state":"IL","lat":39.7778,"long":-89.4064},{"zip":"62558","city":"Pawnee","state":"IL","lat":39.6086,"long":-89.5678},{"zip":"62561","city":"Riverton","state":"IL","lat":39.8663,"long":-89.5087},{"zip":"62563","city":"Rochester","state":"IL","lat":39.7182,"long":-89.5649},{"zip":"62615","city":"Auburn","state":"IL","lat":39.5918,"long":-89.744},{"zip":"62625","city":"Cantrall","state":"IL","lat":39.9169,"long":-89.6891},{"zip":"62629","city":"Chatham","state":"IL","lat":39.6737,"long":-89.7112},{"zip":"62661","city":"Loami","state":"IL","lat":39.6704,"long":-89.8588},{"zip":"62662","city":"Lowder","state":"IL","lat":39.5509,"long":-89.8459},{"zip":"62670","city":"New Berlin","state":"IL","lat":39.7681,"long":-89.855},{"zip":"62677","city":"Pleasant Plains","state":"IL","lat":39.8331,"long":-89.8686},{"zip":"62684","city":"Sherman","state":"IL","lat":39.9121,"long":-89.5877},{"zip":"62689","city":"Thayer","state":"IL","lat":39.5394,"long":-89.7621},{"zip":"62693","city":"Williamsville","state":"IL","lat":39.9542,"long":-89.5487},{"zip":"62701","city":"Springfield","state":"IL","lat":39.8,"long":-89.6495},{"zip":"62702","city":"Springfield","state":"IL","lat":39.8317,"long":-89.6465},{"zip":"62703","city":"Springfield","state":"IL","lat":39.7622,"long":-89.6275},{"zip":"62704","city":"Springfield","state":"IL","lat":39.7725,"long":-89.6889},{"zip":"62705","city":"Springfield","state":"IL","lat":39.8017,"long":-89.6437},{"zip":"62706","city":"Springfield","state":"IL","lat":39.7989,"long":-89.6534},{"zip":"62707","city":"Springfield","state":"IL","lat":39.8544,"long":-89.6544},{"zip":"62708","city":"Springfield","state":"IL","lat":39.8061,"long":-89.5864},{"zip":"62711","city":"Springfield","state":"IL","lat":39.7655,"long":-89.7293},{"zip":"62712","city":"Springfield","state":"IL","lat":39.7533,"long":-89.58},{"zip":"62715","city":"Springfield","state":"IL","lat":39.8017,"long":-89.6437},{"zip":"62716","city":"Springfield","state":"IL","lat":39.8482,"long":-89.5364},{"zip":"62719","city":"Springfield","state":"IL","lat":39.7495,"long":-89.606},{"zip":"62722","city":"Springfield","state":"IL","lat":39.7495,"long":-89.606},{"zip":"62723","city":"Springfield","state":"IL","lat":39.7495,"long":-89.606},{"zip":"62726","city":"Springfield","state":"IL","lat":39.7495,"long":-89.606},{"zip":"62736","city":"Springfield","state":"IL","lat":39.7495,"long":-89.606},{"zip":"62739","city":"Springfield","state":"IL","lat":39.8017,"long":-89.6437},{"zip":"62756","city":"Springfield","state":"IL","lat":39.7495,"long":-89.606},{"zip":"62757","city":"Springfield","state":"IL","lat":39.8017,"long":-89.6437},{"zip":"62761","city":"Springfield","state":"IL","lat":39.8524,"long":-89.541},{"zip":"62762","city":"Springfield","state":"IL","lat":39.7495,"long":-89.606},{"zip":"62763","city":"Springfield","state":"IL","lat":39.7495,"long":-89.606},{"zip":"62764","city":"Springfield","state":"IL","lat":39.7495,"long":-89.606},{"zip":"62765","city":"Springfield","state":"IL","lat":39.8017,"long":-89.6437},{"zip":"62766","city":"Springfield","state":"IL","lat":39.7495,"long":-89.606},{"zip":"62767","city":"Springfield","state":"IL","lat":39.7495,"long":-89.606},{"zip":"62769","city":"Springfield","state":"IL","lat":39.8017,"long":-89.6437},{"zip":"62776","city":"Springfield","state":"IL","lat":39.7495,"long":-89.606},{"zip":"62777","city":"Springfield","state":"IL","lat":39.7495,"long":-89.606},{"zip":"62781","city":"Springfield","state":"IL","lat":39.7495,"long":-89.606},{"zip":"62786","city":"Springfield","state":"IL","lat":39.7495,"long":-89.606},{"zip":"62791","city":"Springfield","state":"IL","lat":39.7495,"long":-89.606},{"zip":"62794","city":"Springfield","state":"IL","lat":39.7495,"long":-89.606},{"zip":"62796","city":"Springfield","state":"IL","lat":39.7495,"long":-89.606},{"zip":"62319","city":"Camden","state":"IL","lat":40.1511,"long":-90.7544},{"zip":"62344","city":"Huntsville","state":"IL","lat":40.1544,"long":-90.8531},{"zip":"62624","city":"Browning","state":"IL","lat":40.1289,"long":-90.3721},{"zip":"62639","city":"Frederick","state":"IL","lat":40.07,"long":-90.429},{"zip":"62681","city":"Rushville","state":"IL","lat":40.1133,"long":-90.5432},{"zip":"62610","city":"Alsey","state":"IL","lat":39.5606,"long":-90.434},{"zip":"62621","city":"Bluffs","state":"IL","lat":39.7296,"long":-90.5313},{"zip":"62663","city":"Manchester","state":"IL","lat":39.5405,"long":-90.3317},{"zip":"62694","city":"Winchester","state":"IL","lat":39.6266,"long":-90.4664},{"zip":"62422","city":"Cowden","state":"IL","lat":39.2326,"long":-88.8868},{"zip":"62431","city":"Herrick","state":"IL","lat":39.2245,"long":-88.9812},{"zip":"62438","city":"Lakewood","state":"IL","lat":39.3134,"long":-88.8715},{"zip":"62444","city":"Mode","state":"IL","lat":39.2664,"long":-88.7337},{"zip":"62462","city":"Sigel","state":"IL","lat":39.2176,"long":-88.4803},{"zip":"62463","city":"Stewardson","state":"IL","lat":39.272,"long":-88.6319},{"zip":"62465","city":"Strasburg","state":"IL","lat":39.3641,"long":-88.6279},{"zip":"62534","city":"Findlay","state":"IL","lat":39.5193,"long":-88.7468},{"zip":"62550","city":"Moweaqua","state":"IL","lat":39.6248,"long":-89.019},{"zip":"62553","city":"Oconee","state":"IL","lat":39.2884,"long":-89.0836},{"zip":"62565","city":"Shelbyville","state":"IL","lat":39.458,"long":-88.8058},{"zip":"62571","city":"Tower Hill","state":"IL","lat":39.39,"long":-88.9597},{"zip":"62905","city":"Alto Pass","state":"IL","lat":37.5681,"long":-89.3172},{"zip":"62906","city":"Anna","state":"IL","lat":37.4668,"long":-89.2207},{"zip":"62920","city":"Cobden","state":"IL","lat":37.5424,"long":-89.2457},{"zip":"62926","city":"Dongola","state":"IL","lat":37.3712,"long":-89.1349},{"zip":"62952","city":"Jonesboro","state":"IL","lat":37.4461,"long":-89.2915},{"zip":"62961","city":"Millcreek","state":"IL","lat":37.3409,"long":-89.2542},{"zip":"62998","city":"Wolf Lake","state":"IL","lat":37.512,"long":-89.4408},{"zip":"62410","city":"Allendale","state":"IL","lat":38.5232,"long":-87.7219},{"zip":"62811","city":"Bellmont","state":"IL","lat":38.3845,"long":-87.9081},{"zip":"62852","city":"Keensburg","state":"IL","lat":38.3514,"long":-87.8661},{"zip":"62855","city":"Lancaster","state":"IL","lat":38.4034,"long":-87.8187},{"zip":"62863","city":"Mount Carmel","state":"IL","lat":38.4147,"long":-87.7911},{"zip":"62214","city":"Addieville","state":"IL","lat":38.3815,"long":-89.5794},{"zip":"62263","city":"Nashville","state":"IL","lat":38.3352,"long":-89.3841},{"zip":"62268","city":"Oakdale","state":"IL","lat":38.2573,"long":-89.596},{"zip":"62271","city":"Okawville","state":"IL","lat":38.4319,"long":-89.523},{"zip":"62803","city":"Hoyleton","state":"IL","lat":38.4455,"long":-89.3069},{"zip":"62808","city":"Ashley","state":"IL","lat":38.306,"long":-89.2311},{"zip":"62831","city":"Du Bois","state":"IL","lat":38.2239,"long":-89.2123},{"zip":"62848","city":"Irvington","state":"IL","lat":38.4366,"long":-89.1648},{"zip":"62876","city":"Radom","state":"IL","lat":38.2607,"long":-89.1989},{"zip":"62877","city":"Richview","state":"IL","lat":38.4082,"long":-89.1756},{"zip":"62446","city":"Mount Erie","state":"IL","lat":38.5222,"long":-88.2185},{"zip":"62809","city":"Barnhill","state":"IL","lat":38.2845,"long":-88.3642},{"zip":"62823","city":"Cisne","state":"IL","lat":38.5159,"long":-88.4375},{"zip":"62837","city":"Fairfield","state":"IL","lat":38.3782,"long":-88.3593},{"zip":"62842","city":"Geff","state":"IL","lat":38.4413,"long":-88.4144},{"zip":"62843","city":"Golden Gate","state":"IL","lat":38.3645,"long":-88.2075},{"zip":"62850","city":"Johnsonville","state":"IL","lat":38.5223,"long":-88.537},{"zip":"62851","city":"Keenes","state":"IL","lat":38.3691,"long":-88.6481},{"zip":"62878","city":"Rinard","state":"IL","lat":38.5806,"long":-88.4641},{"zip":"62886","city":"Sims","state":"IL","lat":38.3923,"long":-88.5306},{"zip":"62895","city":"Wayne City","state":"IL","lat":38.3328,"long":-88.5833},{"zip":"62820","city":"Burnt Prairie","state":"IL","lat":38.2082,"long":-88.2147},{"zip":"62821","city":"Carmi","state":"IL","lat":38.0808,"long":-88.167},{"zip":"62827","city":"Crossville","state":"IL","lat":38.166,"long":-88.0595},{"zip":"62834","city":"Emma","state":"IL","lat":37.9762,"long":-88.1202},{"zip":"62835","city":"Enfield","state":"IL","lat":38.0927,"long":-88.3325},{"zip":"62844","city":"Grayville","state":"IL","lat":38.2627,"long":-88.0035},{"zip":"62861","city":"Maunie","state":"IL","lat":38.0356,"long":-88.0456},{"zip":"62862","city":"Mill Shoals","state":"IL","lat":38.2447,"long":-88.3338},{"zip":"62869","city":"Norris City","state":"IL","lat":37.9773,"long":-88.3243},{"zip":"62887","city":"Springerton","state":"IL","lat":38.1699,"long":-88.3726},{"zip":"62841","city":"Freeman Spur","state":"IL","lat":37.8031,"long":-89.0092},{"zip":"62915","city":"Cambria","state":"IL","lat":37.7814,"long":-89.1192},{"zip":"62918","city":"Carterville","state":"IL","lat":37.7748,"long":-89.0978},{"zip":"62921","city":"Colp","state":"IL","lat":37.8053,"long":-89.0801},{"zip":"62922","city":"Creal Springs","state":"IL","lat":37.6195,"long":-88.8367},{"zip":"62933","city":"Energy","state":"IL","lat":37.7726,"long":-89.025},{"zip":"62948","city":"Herrin","state":"IL","lat":37.8019,"long":-89.0232},{"zip":"62949","city":"Hurst","state":"IL","lat":37.8366,"long":-89.1424},{"zip":"62951","city":"Johnston City","state":"IL","lat":37.8245,"long":-88.9209},{"zip":"62959","city":"Marion","state":"IL","lat":37.7257,"long":-88.9294},{"zip":"62974","city":"Pittsburg","state":"IL","lat":37.8047,"long":-88.8081}]
