[{"zip":"62019","city":"Donnellson","state":"IL","lat":39.0344,"long":-89.4909},{"zip":"62086","city":"Sorento","state":"IL","lat":38.9693,"long":-89.5653},{"zip":"62006","city":"Batchtown","state":"IL","lat":39.0725,"long":-90.6591},{"zip":"62013","city":"Brussels","state":"IL","lat":38.9495,"long":-90.5887},{"zip":"62036","city":"Golden Eagle","state":"IL","lat":38.8961,"long":-90.5602},{"zip":"62045","city":"Hamburg","state":"IL","lat":39.2235,"long":-90.6995},{"zip":"62047","city":"Hardin","state":"IL","lat":39.1547,"long":-90.624},{"zip":"62053","city":"Kampsville","state":"IL","lat":39.3064,"long":-90.6269},{"zip":"62065","city":"Michael","state":"IL","lat":39.2353,"long":-90.6235},{"zip":"62070","city":"Mozier","state":"IL","lat":39.2925,"long":-90.7493},{"zip":"62083","city":"Rosamond","state":"IL","lat":39.3743,"long":-89.1983},{"zip":"62011","city":"Bingham","state":"IL","lat":39.1128,"long":-89.2125},{"zip":"62080","city":"Ramsey","state":"IL","lat":39.1445,"long":-89.1087},{"zip":"62016","city":"Carrollton","state":"IL","lat":39.3009,"long":-90.4092},{"zip":"62027","city":"Eldred","state":"IL","lat":39.2836,"long":-90.5329},{"zip":"62044","city":"Greenfield","state":"IL","lat":39.3491,"long":-90.2089},{"zip":"62050","city":"Hillview","state":"IL","lat":39.4674,"long":-90.5128},{"zip":"62054","city":"Kane","state":"IL","lat":39.2037,"long":-90.3719},{"zip":"62078","city":"Patterson","state":"IL","lat":39.4806,"long":-90.4829},{"zip":"62081","city":"Rockbridge","state":"IL","lat":39.2831,"long":-90.2558},{"zip":"62082","city":"Roodhouse","state":"IL","lat":39.4846,"long":-90.3498},{"zip":"62092","city":"White Hall","state":"IL","lat":39.4288,"long":-90.4019},{"zip":"62098","city":"Wrights","state":"IL","lat":39.3762,"long":-90.2933},{"zip":"62012","city":"Brighton","state":"IL","lat":39.0361,"long":-90.1443},{"zip":"62022","city":"Dow","state":"IL","lat":39.0312,"long":-90.3011},{"zip":"62028","city":"Elsah","state":"IL","lat":38.9594,"long":-90.3541},{"zip":"62030","city":"Fidelity","state":"IL","lat":39.1546,"long":-90.1642},{"zip":"62031","city":"Fieldon","state":"IL","lat":39.1086,"long":-90.5297},{"zip":"62037","city":"Grafton","state":"IL","lat":39.0021,"long":-90.4323},{"zip":"62052","city":"Jerseyville","state":"IL","lat":39.1213,"long":-90.3338},{"zip":"62063","city":"Medora","state":"IL","lat":39.1986,"long":-90.1542},{"zip":"62009","city":"Benld","state":"IL","lat":39.0939,"long":-89.8031},{"zip":"62014","city":"Bunker Hill","state":"IL","lat":39.0408,"long":-89.9624},{"zip":"62023","city":"Eagarville","state":"IL","lat":39.1118,"long":-89.7855},{"zip":"62033","city":"Gillespie","state":"IL","lat":39.1341,"long":-89.8442},{"zip":"62069","city":"Mount Olive","state":"IL","lat":39.0705,"long":-89.7448},{"zip":"62079","city":"Piasa","state":"IL","lat":39.1159,"long":-90.1237},{"zip":"62085","city":"Sawyerville","state":"IL","lat":39.0828,"long":-89.8043},{"zip":"62088","city":"Staunton","state":"IL","lat":39.0135,"long":-89.7857},{"zip":"62093","city":"Wilsonville","state":"IL","lat":39.0695,"long":-89.8565},{"zip":"62001","city":"Alhambra","state":"IL","lat":38.8822,"long":-89.7441},{"zip":"62002","city":"Alton","state":"IL","lat":38.9087,"long":-90.1568},{"zip":"62010","city":"Bethalto","state":"IL","lat":38.9074,"long":-90.0344},{"zip":"62018","city":"Cottage Hills","state":"IL","lat":38.9124,"long":-90.0826},{"zip":"62021","city":"Dorsey","state":"IL","lat":38.9832,"long":-89.9786},{"zip":"62024","city":"East Alton","state":"IL","lat":38.8803,"long":-90.083},{"zip":"62025","city":"Edwardsville","state":"IL","lat":38.805,"long":-89.9637},{"zip":"62026","city":"Edwardsville","state":"IL","lat":38.8114,"long":-89.9532},{"zip":"62034","city":"Glen Carbon","state":"IL","lat":38.7609,"long":-89.9706},{"zip":"62035","city":"Godfrey","state":"IL","lat":38.946,"long":-90.206},{"zip":"62040","city":"Granite City","state":"IL","lat":38.7261,"long":-90.1106},{"zip":"62046","city":"Hamel","state":"IL","lat":38.8901,"long":-89.8457},{"zip":"62048","city":"Hartford","state":"IL","lat":38.8278,"long":-90.0926},{"zip":"62058","city":"Livingston","state":"IL","lat":38.969,"long":-89.7668},{"zip":"62060","city":"Madison","state":"IL","lat":38.6811,"long":-90.1566},{"zip":"62061","city":"Marine","state":"IL","lat":38.7793,"long":-89.7786},{"zip":"62062","city":"Maryville","state":"IL","lat":38.7138,"long":-89.9658},{"zip":"62067","city":"Moro","state":"IL","lat":38.9318,"long":-89.9618},{"zip":"62074","city":"New Douglas","state":"IL","lat":38.9676,"long":-89.7392},{"zip":"62084","city":"Roxana","state":"IL","lat":38.8482,"long":-90.0798},{"zip":"62087","city":"South Roxana","state":"IL","lat":38.8225,"long":-90.0583},{"zip":"62090","city":"Venice","state":"IL","lat":38.6706,"long":-90.1689},{"zip":"62095","city":"Wood River","state":"IL","lat":38.8643,"long":-90.0875},{"zip":"62097","city":"Worden","state":"IL","lat":38.9449,"long":-89.8532},{"zip":"62015","city":"Butler","state":"IL","lat":39.2114,"long":-89.5305},{"zip":"62017","city":"Coffeen","state":"IL","lat":39.0908,"long":-89.3945},{"zip":"62032","city":"Fillmore","state":"IL","lat":39.1039,"long":-89.2946},{"zip":"62049","city":"Hillsboro","state":"IL","lat":39.1494,"long":-89.4881},{"zip":"62051","city":"Irving","state":"IL","lat":39.2089,"long":-89.4104},{"zip":"62056","city":"Litchfield","state":"IL","lat":39.1793,"long":-89.6499},{"zip":"62075","city":"Nokomis","state":"IL","lat":39.3036,"long":-89.2853},{"zip":"62076","city":"Ohlman","state":"IL","lat":39.3434,"long":-89.2191},{"zip":"62077","city":"Panama","state":"IL","lat":39.0317,"long":-89.5237},{"zip":"62089","city":"Taylor Springs","state":"IL","lat":39.1309,"long":-89.492},{"zip":"62091","city":"Walshville","state":"IL","lat":39.0473,"long":-89.635},{"zip":"62094","city":"Witt","state":"IL","lat":39.2469,"long":-89.3414},{"zip":"62059","city":"Lovejoy","state":"IL","lat":38.44,"long":-89.9835},{"zip":"62071","city":"National Stock Yards","state":"IL","lat":38.6516,"long":-90.1639}]
