[{"zip":"62301","city":"Quincy","state":"IL","lat":39.9307,"long":-91.3763},{"zip":"62305","city":"Quincy","state":"IL","lat":39.9601,"long":-91.3026},{"zip":"62306","city":"Quincy","state":"IL","lat":39.9356,"long":-91.4099},{"zip":"62320","city":"Camp Point","state":"IL","lat":40.0293,"long":-91.0769},{"zip":"62324","city":"Clayton","state":"IL","lat":40.0133,"long":-90.9554},{"zip":"62325","city":"Coatsburg","state":"IL","lat":40.0554,"long":-91.1747},{"zip":"62338","city":"Fowler","state":"IL","lat":39.9925,"long":-91.2452},{"zip":"62339","city":"Golden","state":"IL","lat":40.1203,"long":-91.0296},{"zip":"62346","city":"La Prairie","state":"IL","lat":40.1572,"long":-90.9844},{"zip":"62347","city":"Liberty","state":"IL","lat":39.8892,"long":-91.0869},{"zip":"62348","city":"Lima","state":"IL","lat":40.1775,"long":-91.3785},{"zip":"62349","city":"Loraine","state":"IL","lat":40.1532,"long":-91.213},{"zip":"62351","city":"Mendon","state":"IL","lat":40.0857,"long":-91.2899},{"zip":"62359","city":"Paloma","state":"IL","lat":40.0366,"long":-91.2053},{"zip":"62360","city":"Payson","state":"IL","lat":39.8153,"long":-91.2627},{"zip":"62365","city":"Plainville","state":"IL","lat":39.8004,"long":-91.1436},{"zip":"62376","city":"Ursa","state":"IL","lat":40.0809,"long":-91.3733},{"zip":"62353","city":"Mount Sterling","state":"IL","lat":39.9803,"long":-90.7414},{"zip":"62375","city":"Timewell","state":"IL","lat":40.0117,"long":-90.8661},{"zip":"62378","city":"Versailles","state":"IL","lat":39.8883,"long":-90.6741},{"zip":"62311","city":"Augusta","state":"IL","lat":40.2341,"long":-90.9554},{"zip":"62313","city":"Basco","state":"IL","lat":40.3283,"long":-91.197},{"zip":"62316","city":"Bowen","state":"IL","lat":40.2341,"long":-91.0705},{"zip":"62321","city":"Carthage","state":"IL","lat":40.4129,"long":-91.1005},{"zip":"62329","city":"Colusa","state":"IL","lat":40.5714,"long":-91.1682},{"zip":"62330","city":"Dallas City","state":"IL","lat":40.572,"long":-91.1255},{"zip":"62334","city":"Elvaston","state":"IL","lat":40.395,"long":-91.2496},{"zip":"62336","city":"Ferris","state":"IL","lat":40.4689,"long":-91.1704},{"zip":"62341","city":"Hamilton","state":"IL","lat":40.3964,"long":-91.339},{"zip":"62354","city":"Nauvoo","state":"IL","lat":40.5261,"long":-91.3318},{"zip":"62358","city":"Niota","state":"IL","lat":40.5978,"long":-91.2991},{"zip":"62367","city":"Plymouth","state":"IL","lat":40.3236,"long":-90.9672},{"zip":"62373","city":"Sutter","state":"IL","lat":40.2865,"long":-91.3726},{"zip":"62379","city":"Warsaw","state":"IL","lat":40.3544,"long":-91.4348},{"zip":"62380","city":"West Point","state":"IL","lat":40.255,"long":-91.1826},{"zip":"62326","city":"Colchester","state":"IL","lat":40.4156,"long":-90.7846},{"zip":"62374","city":"Tennessee","state":"IL","lat":40.414,"long":-90.8556},{"zip":"62312","city":"Barry","state":"IL","lat":39.7047,"long":-91.0265},{"zip":"62314","city":"Baylis","state":"IL","lat":39.7612,"long":-90.8832},{"zip":"62323","city":"Chambersburg","state":"IL","lat":39.8071,"long":-90.663},{"zip":"62340","city":"Griggsville","state":"IL","lat":39.7084,"long":-90.7249},{"zip":"62343","city":"Hull","state":"IL","lat":39.7186,"long":-91.2338},{"zip":"62345","city":"Kinderhook","state":"IL","lat":39.6953,"long":-91.1637},{"zip":"62352","city":"Milton","state":"IL","lat":39.5645,"long":-90.6504},{"zip":"62355","city":"Nebo","state":"IL","lat":39.4202,"long":-90.7692},{"zip":"62356","city":"New Canton","state":"IL","lat":39.6342,"long":-91.0886},{"zip":"62357","city":"New Salem","state":"IL","lat":39.6996,"long":-90.844},{"zip":"62361","city":"Pearl","state":"IL","lat":39.4441,"long":-90.638},{"zip":"62362","city":"Perry","state":"IL","lat":39.7823,"long":-90.7471},{"zip":"62363","city":"Pittsfield","state":"IL","lat":39.6013,"long":-90.8073},{"zip":"62366","city":"Pleasant Hill","state":"IL","lat":39.4467,"long":-90.877},{"zip":"62370","city":"Rockport","state":"IL","lat":39.5328,"long":-90.9722},{"zip":"62319","city":"Camden","state":"IL","lat":40.1511,"long":-90.7544},{"zip":"62344","city":"Huntsville","state":"IL","lat":40.1544,"long":-90.8531}]
