[{"zip":"62510","city":"Assumption","state":"IL","lat":39.5095,"long":-89.0398},{"zip":"62517","city":"Bulpitt","state":"IL","lat":39.5917,"long":-89.424},{"zip":"62531","city":"Edinburg","state":"IL","lat":39.6612,"long":-89.3779},{"zip":"62540","city":"Kincaid","state":"IL","lat":39.5838,"long":-89.4185},{"zip":"62546","city":"Morrisonville","state":"IL","lat":39.4153,"long":-89.4541},{"zip":"62547","city":"Mount Auburn","state":"IL","lat":39.769,"long":-89.2489},{"zip":"62555","city":"Owaneco","state":"IL","lat":39.4775,"long":-89.1951},{"zip":"62556","city":"Palmer","state":"IL","lat":39.4699,"long":-89.3733},{"zip":"62557","city":"Pana","state":"IL","lat":39.3971,"long":-89.1048},{"zip":"62567","city":"Stonington","state":"IL","lat":39.6405,"long":-89.1913},{"zip":"62568","city":"Taylorville","state":"IL","lat":39.5489,"long":-89.2945},{"zip":"62570","city":"Tovey","state":"IL","lat":39.588,"long":-89.4495},{"zip":"62512","city":"Beason","state":"IL","lat":40.1437,"long":-89.1948},{"zip":"62518","city":"Chestnut","state":"IL","lat":40.0582,"long":-89.19},{"zip":"62519","city":"Cornland","state":"IL","lat":39.9374,"long":-89.4023},{"zip":"62541","city":"Lake Fork","state":"IL","lat":39.9706,"long":-89.3505},{"zip":"62543","city":"Latham","state":"IL","lat":39.9711,"long":-89.1725},{"zip":"62548","city":"Mount Pulaski","state":"IL","lat":40.0045,"long":-89.2935},{"zip":"62501","city":"Argenta","state":"IL","lat":39.934,"long":-88.8052},{"zip":"62513","city":"Blue Mound","state":"IL","lat":39.6978,"long":-89.1136},{"zip":"62514","city":"Boody","state":"IL","lat":39.7624,"long":-89.0507},{"zip":"62521","city":"Decatur","state":"IL","lat":39.8395,"long":-88.9465},{"zip":"62522","city":"Decatur","state":"IL","lat":39.8432,"long":-88.9861},{"zip":"62523","city":"Decatur","state":"IL","lat":39.8417,"long":-88.9534},{"zip":"62524","city":"Decatur","state":"IL","lat":39.854,"long":-88.9815},{"zip":"62525","city":"Decatur","state":"IL","lat":39.854,"long":-88.9815},{"zip":"62526","city":"Decatur","state":"IL","lat":39.8583,"long":-88.9382},{"zip":"62532","city":"Elwin","state":"IL","lat":39.78,"long":-88.9808},{"zip":"62535","city":"Forsyth","state":"IL","lat":39.9248,"long":-88.9691},{"zip":"62537","city":"Harristown","state":"IL","lat":39.8567,"long":-89.085},{"zip":"62544","city":"Macon","state":"IL","lat":39.7041,"long":-88.988},{"zip":"62549","city":"Mt Zion","state":"IL","lat":39.7705,"long":-88.8659},{"zip":"62551","city":"Niantic","state":"IL","lat":39.8582,"long":-89.1701},{"zip":"62554","city":"Oreana","state":"IL","lat":39.9351,"long":-88.8547},{"zip":"62573","city":"Warrensburg","state":"IL","lat":39.9454,"long":-89.0741},{"zip":"62533","city":"Farmersville","state":"IL","lat":39.4401,"long":-89.617},{"zip":"62538","city":"Harvel","state":"IL","lat":39.3719,"long":-89.538},{"zip":"62560","city":"Raymond","state":"IL","lat":39.3106,"long":-89.5851},{"zip":"62572","city":"Waggoner","state":"IL","lat":39.3688,"long":-89.6545},{"zip":"62515","city":"Buffalo","state":"IL","lat":39.8499,"long":-89.3879},{"zip":"62520","city":"Dawson","state":"IL","lat":39.8563,"long":-89.4603},{"zip":"62530","city":"Divernon","state":"IL","lat":39.5692,"long":-89.6626},{"zip":"62536","city":"Glenarm","state":"IL","lat":39.6327,"long":-89.6581},{"zip":"62539","city":"Illiopolis","state":"IL","lat":39.8499,"long":-89.2513},{"zip":"62545","city":"Mechanicsburg","state":"IL","lat":39.7778,"long":-89.4064},{"zip":"62558","city":"Pawnee","state":"IL","lat":39.6086,"long":-89.5678},{"zip":"62561","city":"Riverton","state":"IL","lat":39.8663,"long":-89.5087},{"zip":"62563","city":"Rochester","state":"IL","lat":39.7182,"long":-89.5649},{"zip":"62534","city":"Findlay","state":"IL","lat":39.5193,"long":-88.7468},{"zip":"62550","city":"Moweaqua","state":"IL","lat":39.6248,"long":-89.019},{"zip":"62553","city":"Oconee","state":"IL","lat":39.2884,"long":-89.0836},{"zip":"62565","city":"Shelbyville","state":"IL","lat":39.458,"long":-88.8058},{"zip":"62571","city":"Tower Hill","state":"IL","lat":39.39,"long":-88.9597}]
