[{"zip":"62701","city":"Springfield","state":"IL","lat":39.8,"long":-89.6495},{"zip":"62702","city":"Springfield","state":"IL","lat":39.8317,"long":-89.6465},{"zip":"62703","city":"Springfield","state":"IL","lat":39.7622,"long":-89.6275},{"zip":"62704","city":"Springfield","state":"IL","lat":39.7725,"long":-89.6889},{"zip":"62705","city":"Springfield","state":"IL","lat":39.8017,"long":-89.6437},{"zip":"62706","city":"Springfield","state":"IL","lat":39.7989,"long":-89.6534},{"zip":"62707","city":"Springfield","state":"IL","lat":39.8544,"long":-89.6544},{"zip":"62708","city":"Springfield","state":"IL","lat":39.8061,"long":-89.5864},{"zip":"62711","city":"Springfield","state":"IL","lat":39.7655,"long":-89.7293},{"zip":"62712","city":"Springfield","state":"IL","lat":39.7533,"long":-89.58},{"zip":"62715","city":"Springfield","state":"IL","lat":39.8017,"long":-89.6437},{"zip":"62716","city":"Springfield","state":"IL","lat":39.8482,"long":-89.5364},{"zip":"62719","city":"Springfield","state":"IL","lat":39.7495,"long":-89.606},{"zip":"62722","city":"Springfield","state":"IL","lat":39.7495,"long":-89.606},{"zip":"62723","city":"Springfield","state":"IL","lat":39.7495,"long":-89.606},{"zip":"62726","city":"Springfield","state":"IL","lat":39.7495,"long":-89.606},{"zip":"62736","city":"Springfield","state":"IL","lat":39.7495,"long":-89.606},{"zip":"62739","city":"Springfield","state":"IL","lat":39.8017,"long":-89.6437},{"zip":"62756","city":"Springfield","state":"IL","lat":39.7495,"long":-89.606},{"zip":"62757","city":"Springfield","state":"IL","lat":39.8017,"long":-89.6437},{"zip":"62761","city":"Springfield","state":"IL","lat":39.8524,"long":-89.541},{"zip":"62762","city":"Springfield","state":"IL","lat":39.7495,"long":-89.606},{"zip":"62763","city":"Springfield","state":"IL","lat":39.7495,"long":-89.606},{"zip":"62764","city":"Springfield","state":"IL","lat":39.7495,"long":-89.606},{"zip":"62765","city":"Springfield","state":"IL","lat":39.8017,"long":-89.6437},{"zip":"62766","city":"Springfield","state":"IL","lat":39.7495,"long":-89.606},{"zip":"62767","city":"Springfield","state":"IL","lat":39.7495,"long":-89.606},{"zip":"62769","city":"Springfield","state":"IL","lat":39.8017,"long":-89.6437},{"zip":"62776","city":"Springfield","state":"IL","lat":39.7495,"long":-89.606},{"zip":"62777","city":"Springfield","state":"IL","lat":39.7495,"long":-89.606},{"zip":"62781","city":"Springfield","state":"IL","lat":39.7495,"long":-89.606},{"zip":"62786","city":"Springfield","state":"IL","lat":39.7495,"long":-89.606},{"zip":"62791","city":"Springfield","state":"IL","lat":39.7495,"long":-89.606},{"zip":"62794","city":"Springfield","state":"IL","lat":39.7495,"long":-89.606},{"zip":"62796","city":"Springfield","state":"IL","lat":39.7495,"long":-89.606}]
