[{"zip":"62824","city":"Clay City","state":"IL","lat":38.6695,"long":-88.3516},{"zip":"62839","city":"Flora","state":"IL","lat":38.6703,"long":-88.4919},{"zip":"62858","city":"Louisville","state":"IL","lat":38.7718,"long":-88.5065},{"zip":"62879","city":"Sailor Springs","state":"IL","lat":38.7573,"long":-88.4736},{"zip":"62899","city":"Xenia","state":"IL","lat":38.6359,"long":-88.6348},{"zip":"62806","city":"Albion","state":"IL","lat":38.374,"long":-88.0636},{"zip":"62815","city":"Bone Gap","state":"IL","lat":38.449,"long":-88.0025},{"zip":"62818","city":"Browns","state":"IL","lat":38.3764,"long":-87.9928},{"zip":"62833","city":"Ellery","state":"IL","lat":38.365,"long":-88.1335},{"zip":"62838","city":"Farina","state":"IL","lat":38.8469,"long":-88.7614},{"zip":"62880","city":"Saint Peter","state":"IL","lat":38.8697,"long":-88.856},{"zip":"62885","city":"Shobonier","state":"IL","lat":38.8446,"long":-89.079},{"zip":"62812","city":"Benton","state":"IL","lat":38,"long":-88.9227},{"zip":"62819","city":"Buckner","state":"IL","lat":37.9764,"long":-89.0209},{"zip":"62822","city":"Christopher","state":"IL","lat":37.9849,"long":-89.0574},{"zip":"62825","city":"Coello","state":"IL","lat":37.9946,"long":-89.0672},{"zip":"62836","city":"Ewing","state":"IL","lat":38.0702,"long":-88.8504},{"zip":"62840","city":"Frankfort Heights","state":"IL","lat":37.9943,"long":-88.9417},{"zip":"62856","city":"Logan","state":"IL","lat":37.9559,"long":-88.8403},{"zip":"62865","city":"Mulkeytown","state":"IL","lat":37.9687,"long":-89.1159},{"zip":"62874","city":"Orient","state":"IL","lat":37.9182,"long":-88.9767},{"zip":"62884","city":"Sesser","state":"IL","lat":38.0894,"long":-89.0574},{"zip":"62890","city":"Thompsonville","state":"IL","lat":37.8804,"long":-88.7684},{"zip":"62891","city":"Valier","state":"IL","lat":38.0222,"long":-89.0351},{"zip":"62896","city":"West Frankfort","state":"IL","lat":37.8979,"long":-88.9307},{"zip":"62897","city":"Whittington","state":"IL","lat":38.0872,"long":-88.9014},{"zip":"62867","city":"New Haven","state":"IL","lat":37.8999,"long":-88.1285},{"zip":"62871","city":"Omaha","state":"IL","lat":37.8904,"long":-88.2865},{"zip":"62817","city":"Broughton","state":"IL","lat":37.9546,"long":-88.4678},{"zip":"62828","city":"Dahlgren","state":"IL","lat":38.1975,"long":-88.6363},{"zip":"62829","city":"Dale","state":"IL","lat":37.995,"long":-88.4917},{"zip":"62859","city":"Mc Leansboro","state":"IL","lat":38.0939,"long":-88.5286},{"zip":"62860","city":"Macedonia","state":"IL","lat":38.013,"long":-88.6961},{"zip":"62810","city":"Belle Rive","state":"IL","lat":38.2153,"long":-88.7558},{"zip":"62814","city":"Bluford","state":"IL","lat":38.3531,"long":-88.7587},{"zip":"62816","city":"Bonnie","state":"IL","lat":38.198,"long":-88.9229},{"zip":"62830","city":"Dix","state":"IL","lat":38.4333,"long":-88.9657},{"zip":"62846","city":"Ina","state":"IL","lat":38.1527,"long":-88.8894},{"zip":"62864","city":"Mount Vernon","state":"IL","lat":38.317,"long":-88.9105},{"zip":"62866","city":"Nason","state":"IL","lat":38.1654,"long":-88.9676},{"zip":"62872","city":"Opdyke","state":"IL","lat":38.275,"long":-88.775},{"zip":"62883","city":"Scheller","state":"IL","lat":38.1731,"long":-89.0927},{"zip":"62889","city":"Texico","state":"IL","lat":38.425,"long":-88.8702},{"zip":"62894","city":"Waltonville","state":"IL","lat":38.2089,"long":-89.039},{"zip":"62898","city":"Woodlawn","state":"IL","lat":38.3844,"long":-89.0745},{"zip":"62801","city":"Centralia","state":"IL","lat":38.5241,"long":-89.1365},{"zip":"62807","city":"Alma","state":"IL","lat":38.7231,"long":-88.9157},{"zip":"62849","city":"Iuka","state":"IL","lat":38.6136,"long":-88.7689},{"zip":"62853","city":"Kell","state":"IL","lat":38.5147,"long":-88.9127},{"zip":"62854","city":"Kinmundy","state":"IL","lat":38.7559,"long":-88.813},{"zip":"62870","city":"Odin","state":"IL","lat":38.6088,"long":-89.0552},{"zip":"62875","city":"Patoka","state":"IL","lat":38.7549,"long":-89.0942},{"zip":"62881","city":"Salem","state":"IL","lat":38.6264,"long":-88.9481},{"zip":"62882","city":"Sandoval","state":"IL","lat":38.6131,"long":-89.114},{"zip":"62892","city":"Vernon","state":"IL","lat":38.8033,"long":-89.083},{"zip":"62893","city":"Walnut Hill","state":"IL","lat":38.467,"long":-89.0328},{"zip":"62832","city":"Du Quoin","state":"IL","lat":38.0137,"long":-89.2333},{"zip":"62888","city":"Tamaroa","state":"IL","lat":38.138,"long":-89.2231},{"zip":"62868","city":"Noble","state":"IL","lat":38.7119,"long":-88.219},{"zip":"62811","city":"Bellmont","state":"IL","lat":38.3845,"long":-87.9081},{"zip":"62852","city":"Keensburg","state":"IL","lat":38.3514,"long":-87.8661},{"zip":"62855","city":"Lancaster","state":"IL","lat":38.4034,"long":-87.8187},{"zip":"62863","city":"Mount Carmel","state":"IL","lat":38.4147,"long":-87.7911},{"zip":"62803","city":"Hoyleton","state":"IL","lat":38.4455,"long":-89.3069},{"zip":"62808","city":"Ashley","state":"IL","lat":38.306,"long":-89.2311},{"zip":"62831","city":"Du Bois","state":"IL","lat":38.2239,"long":-89.2123},{"zip":"62848","city":"Irvington","state":"IL","lat":38.4366,"long":-89.1648},{"zip":"62876","city":"Radom","state":"IL","lat":38.2607,"long":-89.1989},{"zip":"62877","city":"Richview","state":"IL","lat":38.4082,"long":-89.1756},{"zip":"62809","city":"Barnhill","state":"IL","lat":38.2845,"long":-88.3642},{"zip":"62823","city":"Cisne","state":"IL","lat":38.5159,"long":-88.4375},{"zip":"62837","city":"Fairfield","state":"IL","lat":38.3782,"long":-88.3593},{"zip":"62842","city":"Geff","state":"IL","lat":38.4413,"long":-88.4144},{"zip":"62843","city":"Golden Gate","state":"IL","lat":38.3645,"long":-88.2075},{"zip":"62850","city":"Johnsonville","state":"IL","lat":38.5223,"long":-88.537},{"zip":"62851","city":"Keenes","state":"IL","lat":38.3691,"long":-88.6481},{"zip":"62878","city":"Rinard","state":"IL","lat":38.5806,"long":-88.4641},{"zip":"62886","city":"Sims","state":"IL","lat":38.3923,"long":-88.5306},{"zip":"62895","city":"Wayne City","state":"IL","lat":38.3328,"long":-88.5833},{"zip":"62820","city":"Burnt Prairie","state":"IL","lat":38.2082,"long":-88.2147},{"zip":"62821","city":"Carmi","state":"IL","lat":38.0808,"long":-88.167},{"zip":"62827","city":"Crossville","state":"IL","lat":38.166,"long":-88.0595},{"zip":"62834","city":"Emma","state":"IL","lat":37.9762,"long":-88.1202},{"zip":"62835","city":"Enfield","state":"IL","lat":38.0927,"long":-88.3325},{"zip":"62844","city":"Grayville","state":"IL","lat":38.2627,"long":-88.0035},{"zip":"62861","city":"Maunie","state":"IL","lat":38.0356,"long":-88.0456},{"zip":"62862","city":"Mill Shoals","state":"IL","lat":38.2447,"long":-88.3338},{"zip":"62869","city":"Norris City","state":"IL","lat":37.9773,"long":-88.3243},{"zip":"62887","city":"Springerton","state":"IL","lat":38.1699,"long":-88.3726},{"zip":"62841","city":"Freeman Spur","state":"IL","lat":37.8031,"long":-89.0092}]
