[{"zip":"63105","city":"Saint Louis","state":"MO","lat":38.6459,"long":-90.3264},{"zip":"63114","city":"Saint Louis","state":"MO","lat":38.7023,"long":-90.3644},{"zip":"63117","city":"Saint Louis","state":"MO","lat":38.6295,"long":-90.3342},{"zip":"63119","city":"Saint Louis","state":"MO","lat":38.5893,"long":-90.3481},{"zip":"63121","city":"Saint Louis","state":"MO","lat":38.7071,"long":-90.3055},{"zip":"63122","city":"Saint Louis","state":"MO","lat":38.5781,"long":-90.4256},{"zip":"63123","city":"Saint Louis","state":"MO","lat":38.5476,"long":-90.3241},{"zip":"63124","city":"Saint Louis","state":"MO","lat":38.6372,"long":-90.3776},{"zip":"63125","city":"Saint Louis","state":"MO","lat":38.5222,"long":-90.3021},{"zip":"63126","city":"Saint Louis","state":"MO","lat":38.5495,"long":-90.3811},{"zip":"63127","city":"Saint Louis","state":"MO","lat":38.5355,"long":-90.407},{"zip":"63128","city":"Saint Louis","state":"MO","lat":38.4915,"long":-90.3772},{"zip":"63129","city":"Saint Louis","state":"MO","lat":38.4566,"long":-90.3282},{"zip":"63130","city":"Saint Louis","state":"MO","lat":38.6669,"long":-90.3225},{"zip":"63131","city":"Saint Louis","state":"MO","lat":38.6171,"long":-90.4504},{"zip":"63132","city":"Saint Louis","state":"MO","lat":38.6746,"long":-90.3747},{"zip":"63133","city":"Saint Louis","state":"MO","lat":38.6779,"long":-90.3033},{"zip":"63134","city":"Saint Louis","state":"MO","lat":38.7435,"long":-90.341},{"zip":"63135","city":"Saint Louis","state":"MO","lat":38.7497,"long":-90.3012},{"zip":"63136","city":"Saint Louis","state":"MO","lat":38.7196,"long":-90.27},{"zip":"63137","city":"Saint Louis","state":"MO","lat":38.7468,"long":-90.2131},{"zip":"63138","city":"Saint Louis","state":"MO","lat":38.8033,"long":-90.2065},{"zip":"63140","city":"Saint Louis","state":"MO","lat":38.7375,"long":-90.3265},{"zip":"63141","city":"Saint Louis","state":"MO","lat":38.6565,"long":-90.4542},{"zip":"63143","city":"Saint Louis","state":"MO","lat":38.6111,"long":-90.3225},{"zip":"63144","city":"Saint Louis","state":"MO","lat":38.6182,"long":-90.3489},{"zip":"63145","city":"Saint Louis","state":"MO","lat":38.6383,"long":-90.4271},{"zip":"63146","city":"Saint Louis","state":"MO","lat":38.7033,"long":-90.4618},{"zip":"63151","city":"Saint Louis","state":"MO","lat":38.6383,"long":-90.4271},{"zip":"63167","city":"Saint Louis","state":"MO","lat":38.6383,"long":-90.4271},{"zip":"63101","city":"Saint Louis","state":"MO","lat":38.6346,"long":-90.1913},{"zip":"63102","city":"Saint Louis","state":"MO","lat":38.6352,"long":-90.1864},{"zip":"63103","city":"Saint Louis","state":"MO","lat":38.6332,"long":-90.2164},{"zip":"63104","city":"Saint Louis","state":"MO","lat":38.6128,"long":-90.2185},{"zip":"63106","city":"Saint Louis","state":"MO","lat":38.6442,"long":-90.2082},{"zip":"63107","city":"Saint Louis","state":"MO","lat":38.6645,"long":-90.2125},{"zip":"63108","city":"Saint Louis","state":"MO","lat":38.6445,"long":-90.2544},{"zip":"63109","city":"Saint Louis","state":"MO","lat":38.5855,"long":-90.2929},{"zip":"63110","city":"Saint Louis","state":"MO","lat":38.6185,"long":-90.2564},{"zip":"63111","city":"Saint Louis","state":"MO","lat":38.5633,"long":-90.2495},{"zip":"63112","city":"Saint Louis","state":"MO","lat":38.6616,"long":-90.2819},{"zip":"63113","city":"Saint Louis","state":"MO","lat":38.659,"long":-90.2496},{"zip":"63115","city":"Saint Louis","state":"MO","lat":38.6756,"long":-90.2385},{"zip":"63116","city":"Saint Louis","state":"MO","lat":38.5814,"long":-90.2625},{"zip":"63118","city":"Saint Louis","state":"MO","lat":38.5943,"long":-90.2309},{"zip":"63120","city":"Saint Louis","state":"MO","lat":38.6909,"long":-90.2595},{"zip":"63139","city":"Saint Louis","state":"MO","lat":38.6108,"long":-90.292},{"zip":"63147","city":"Saint Louis","state":"MO","lat":38.7139,"long":-90.2375},{"zip":"63150","city":"Saint Louis","state":"MO","lat":38.6273,"long":-90.1979},{"zip":"63155","city":"Saint Louis","state":"MO","lat":38.6531,"long":-90.2435},{"zip":"63156","city":"Saint Louis","state":"MO","lat":38.6531,"long":-90.2435},{"zip":"63157","city":"Saint Louis","state":"MO","lat":38.6531,"long":-90.2435},{"zip":"63158","city":"Saint Louis","state":"MO","lat":38.6531,"long":-90.2435},{"zip":"63160","city":"Saint Louis","state":"MO","lat":38.6531,"long":-90.2435},{"zip":"63163","city":"Saint Louis","state":"MO","lat":38.6531,"long":-90.2435},{"zip":"63164","city":"Saint Louis","state":"MO","lat":38.6531,"long":-90.2435},{"zip":"63166","city":"Saint Louis","state":"MO","lat":38.6531,"long":-90.2435},{"zip":"63169","city":"Saint Louis","state":"MO","lat":38.6273,"long":-90.1979},{"zip":"63171","city":"Saint Louis","state":"MO","lat":38.6531,"long":-90.2435},{"zip":"63177","city":"Saint Louis","state":"MO","lat":38.6531,"long":-90.2435},{"zip":"63178","city":"Saint Louis","state":"MO","lat":38.6531,"long":-90.2435},{"zip":"63179","city":"Saint Louis","state":"MO","lat":38.6531,"long":-90.2435},{"zip":"63180","city":"Saint Louis","state":"MO","lat":38.6273,"long":-90.1979},{"zip":"63182","city":"Saint Louis","state":"MO","lat":38.6273,"long":-90.1979},{"zip":"63188","city":"Saint Louis","state":"MO","lat":38.6273,"long":-90.1979},{"zip":"63195","city":"Saint Louis","state":"MO","lat":38.6531,"long":-90.2435},{"zip":"63197","city":"Saint Louis","state":"MO","lat":38.6273,"long":-90.1979},{"zip":"63199","city":"Saint Louis","state":"MO","lat":38.6531,"long":-90.2435}]
