[{"zip":"63345","city":"Farber","state":"MO","lat":39.2742,"long":-91.5798},{"zip":"63352","city":"Laddonia","state":"MO","lat":39.2425,"long":-91.6454},{"zip":"63382","city":"Vandalia","state":"MO","lat":39.2949,"long":-91.4883},{"zip":"63388","city":"Williamsburg","state":"MO","lat":38.8874,"long":-91.7689},{"zip":"63343","city":"Elsberry","state":"MO","lat":39.159,"long":-90.816},{"zip":"63347","city":"Foley","state":"MO","lat":39.053,"long":-90.7775},{"zip":"63349","city":"Hawk Point","state":"MO","lat":38.9766,"long":-91.1211},{"zip":"63362","city":"Moscow Mills","state":"MO","lat":38.9482,"long":-90.9138},{"zip":"63369","city":"Old Monroe","state":"MO","lat":38.9346,"long":-90.7782},{"zip":"63370","city":"Olney","state":"MO","lat":39.0776,"long":-91.2317},{"zip":"63377","city":"Silex","state":"MO","lat":39.1166,"long":-91.037},{"zip":"63379","city":"Troy","state":"MO","lat":39.0012,"long":-90.9624},{"zip":"63381","city":"Truxton","state":"MO","lat":38.967,"long":-91.2126},{"zip":"63387","city":"Whiteside","state":"MO","lat":39.1853,"long":-91.0168},{"zip":"63389","city":"Winfield","state":"MO","lat":38.9897,"long":-90.8213},{"zip":"63333","city":"Bellflower","state":"MO","lat":39.0012,"long":-91.3489},{"zip":"63350","city":"High Hill","state":"MO","lat":38.8902,"long":-91.3715},{"zip":"63351","city":"Jonesburg","state":"MO","lat":38.8717,"long":-91.3019},{"zip":"63359","city":"Middletown","state":"MO","lat":39.1055,"long":-91.3873},{"zip":"63361","city":"Montgomery City","state":"MO","lat":38.9839,"long":-91.5085},{"zip":"63363","city":"New Florence","state":"MO","lat":38.9023,"long":-91.4909},{"zip":"63384","city":"Wellsville","state":"MO","lat":39.0765,"long":-91.5645},{"zip":"63330","city":"Annada","state":"MO","lat":39.2558,"long":-90.8224},{"zip":"63334","city":"Bowling Green","state":"MO","lat":39.3346,"long":-91.1962},{"zip":"63336","city":"Clarksville","state":"MO","lat":39.3465,"long":-90.9362},{"zip":"63339","city":"Curryville","state":"MO","lat":39.3257,"long":-91.3493},{"zip":"63344","city":"Eolia","state":"MO","lat":39.2431,"long":-91.0093},{"zip":"63353","city":"Louisiana","state":"MO","lat":39.4336,"long":-91.0664},{"zip":"63301","city":"Saint Charles","state":"MO","lat":38.8014,"long":-90.5065},{"zip":"63302","city":"Saint Charles","state":"MO","lat":38.7839,"long":-90.4812},{"zip":"63303","city":"Saint Charles","state":"MO","lat":38.7622,"long":-90.5471},{"zip":"63304","city":"Saint Charles","state":"MO","lat":38.7378,"long":-90.6234},{"zip":"63332","city":"Augusta","state":"MO","lat":38.5728,"long":-90.8815},{"zip":"63338","city":"Cottleville","state":"MO","lat":38.7462,"long":-90.654},{"zip":"63341","city":"Defiance","state":"MO","lat":38.6616,"long":-90.8302},{"zip":"63346","city":"Flinthill","state":"MO","lat":38.7509,"long":-90.5368},{"zip":"63348","city":"Foristell","state":"MO","lat":38.7626,"long":-90.9343},{"zip":"63365","city":"New Melle","state":"MO","lat":38.7163,"long":-90.8751},{"zip":"63366","city":"O Fallon","state":"MO","lat":38.8239,"long":-90.7427},{"zip":"63367","city":"Lake Saint Louis","state":"MO","lat":38.7936,"long":-90.7854},{"zip":"63368","city":"O Fallon","state":"MO","lat":38.7513,"long":-90.7296},{"zip":"63373","city":"Portage Des Sioux","state":"MO","lat":38.9259,"long":-90.3863},{"zip":"63376","city":"Saint Peters","state":"MO","lat":38.7802,"long":-90.6228},{"zip":"63385","city":"Wentzville","state":"MO","lat":38.802,"long":-90.8534},{"zip":"63386","city":"West Alton","state":"MO","lat":38.8758,"long":-90.2384},{"zip":"63342","city":"Dutzow","state":"MO","lat":38.606,"long":-90.9962},{"zip":"63357","city":"Marthasville","state":"MO","lat":38.6512,"long":-91.1516},{"zip":"63378","city":"Treloar","state":"MO","lat":38.6445,"long":-91.1879},{"zip":"63380","city":"Truesdale","state":"MO","lat":38.8117,"long":-91.1304},{"zip":"63383","city":"Warrenton","state":"MO","lat":38.805,"long":-91.174},{"zip":"63390","city":"Wright City","state":"MO","lat":38.8097,"long":-91.0329}]
