[{"zip":"63430","city":"Alexandria","state":"MO","lat":40.3445,"long":-91.5154},{"zip":"63445","city":"Kahoka","state":"MO","lat":40.4266,"long":-91.725},{"zip":"63453","city":"Luray","state":"MO","lat":40.4931,"long":-91.8912},{"zip":"63465","city":"Revere","state":"MO","lat":40.5172,"long":-91.6753},{"zip":"63466","city":"Saint Patrick","state":"MO","lat":40.4312,"long":-91.6851},{"zip":"63472","city":"Wayland","state":"MO","lat":40.4001,"long":-91.5842},{"zip":"63474","city":"Wyaconda","state":"MO","lat":40.3721,"long":-91.9071},{"zip":"63446","city":"Knox City","state":"MO","lat":40.1384,"long":-92.0077},{"zip":"63458","city":"Newark","state":"MO","lat":39.9931,"long":-91.973},{"zip":"63460","city":"Novelty","state":"MO","lat":40.0125,"long":-92.2082},{"zip":"63464","city":"Plevna","state":"MO","lat":39.9765,"long":-92.0852},{"zip":"63435","city":"Canton","state":"MO","lat":40.1437,"long":-91.548},{"zip":"63438","city":"Durham","state":"MO","lat":39.9625,"long":-91.6704},{"zip":"63440","city":"Ewing","state":"MO","lat":39.9962,"long":-91.7216},{"zip":"63447","city":"La Belle","state":"MO","lat":40.1164,"long":-91.9171},{"zip":"63448","city":"La Grange","state":"MO","lat":40.0391,"long":-91.5182},{"zip":"63452","city":"Lewistown","state":"MO","lat":40.0867,"long":-91.8157},{"zip":"63457","city":"Monticello","state":"MO","lat":40.1184,"long":-91.7121},{"zip":"63473","city":"Williamstown","state":"MO","lat":40.2491,"long":-91.7852},{"zip":"63431","city":"Anabel","state":"MO","lat":39.7428,"long":-92.328},{"zip":"63401","city":"Hannibal","state":"MO","lat":39.7064,"long":-91.3839},{"zip":"63454","city":"Maywood","state":"MO","lat":39.9333,"long":-91.6148},{"zip":"63461","city":"Palmyra","state":"MO","lat":39.7913,"long":-91.5368},{"zip":"63463","city":"Philadelphia","state":"MO","lat":39.8359,"long":-91.7538},{"zip":"63471","city":"Taylor","state":"MO","lat":39.9145,"long":-91.5278},{"zip":"63456","city":"Monroe City","state":"MO","lat":39.6546,"long":-91.723},{"zip":"63433","city":"Ashburn","state":"MO","lat":39.561,"long":-91.1844},{"zip":"63441","city":"Frankford","state":"MO","lat":39.4892,"long":-91.3031},{"zip":"63436","city":"Center","state":"MO","lat":39.5154,"long":-91.5398},{"zip":"63459","city":"New London","state":"MO","lat":39.5917,"long":-91.396},{"zip":"63462","city":"Perry","state":"MO","lat":39.4207,"long":-91.6641},{"zip":"63467","city":"Saverton","state":"MO","lat":39.65,"long":-91.2705},{"zip":"63432","city":"Arbela","state":"MO","lat":40.4863,"long":-92.0047},{"zip":"63442","city":"Granger","state":"MO","lat":40.4533,"long":-92.1474},{"zip":"63434","city":"Bethel","state":"MO","lat":39.8922,"long":-92.0316},{"zip":"63437","city":"Clarence","state":"MO","lat":39.7366,"long":-92.253},{"zip":"63439","city":"Emden","state":"MO","lat":39.8019,"long":-91.8606},{"zip":"63443","city":"Hunnewell","state":"MO","lat":39.7018,"long":-91.8832},{"zip":"63450","city":"Lentner","state":"MO","lat":39.7123,"long":-92.1489},{"zip":"63451","city":"Leonard","state":"MO","lat":39.9076,"long":-92.1947},{"zip":"63468","city":"Shelbina","state":"MO","lat":39.6947,"long":-92.0371},{"zip":"63469","city":"Shelbyville","state":"MO","lat":39.8108,"long":-92.0498}]
