[{"zip":"63662","city":"Patton","state":"MO","lat":37.4733,"long":-90.05},{"zip":"63620","city":"Annapolis","state":"MO","lat":37.3981,"long":-90.6702},{"zip":"63621","city":"Arcadia","state":"MO","lat":37.4871,"long":-90.6062},{"zip":"63623","city":"Belleview","state":"MO","lat":37.682,"long":-90.7991},{"zip":"63636","city":"Des Arc","state":"MO","lat":37.2955,"long":-90.6279},{"zip":"63650","city":"Ironton","state":"MO","lat":37.6168,"long":-90.5985},{"zip":"63656","city":"Middle Brook","state":"MO","lat":37.5055,"long":-90.845},{"zip":"63663","city":"Pilot Knob","state":"MO","lat":37.625,"long":-90.646},{"zip":"63675","city":"Vulcan","state":"MO","lat":37.306,"long":-90.7106},{"zip":"63645","city":"Fredericktown","state":"MO","lat":37.4906,"long":-90.3362},{"zip":"63655","city":"Marquand","state":"MO","lat":37.4274,"long":-90.1741},{"zip":"63625","city":"Black","state":"MO","lat":37.5473,"long":-90.9917},{"zip":"63629","city":"Bunker","state":"MO","lat":37.4772,"long":-91.1927},{"zip":"63633","city":"Centerville","state":"MO","lat":37.4285,"long":-90.9757},{"zip":"63638","city":"Ellington","state":"MO","lat":37.2398,"long":-90.9589},{"zip":"63654","city":"Lesterville","state":"MO","lat":37.482,"long":-90.8425},{"zip":"63665","city":"Redford","state":"MO","lat":37.32,"long":-90.8985},{"zip":"63666","city":"Reynolds","state":"MO","lat":37.4009,"long":-91.0735},{"zip":"63627","city":"Bloomsdale","state":"MO","lat":38.0451,"long":-90.2805},{"zip":"63670","city":"Sainte Genevieve","state":"MO","lat":37.8655,"long":-90.1752},{"zip":"63673","city":"Saint Mary","state":"MO","lat":37.8325,"long":-89.977},{"zip":"63601","city":"Park Hills","state":"MO","lat":37.8498,"long":-90.4885},{"zip":"63624","city":"Bismarck","state":"MO","lat":37.7539,"long":-90.5984},{"zip":"63626","city":"Blackwell","state":"MO","lat":38.0544,"long":-90.6279},{"zip":"63628","city":"Bonne Terre","state":"MO","lat":37.9231,"long":-90.5554},{"zip":"63637","city":"Doe Run","state":"MO","lat":37.7348,"long":-90.4968},{"zip":"63640","city":"Farmington","state":"MO","lat":37.7773,"long":-90.4094},{"zip":"63651","city":"Knob Lick","state":"MO","lat":37.6754,"long":-90.3677},{"zip":"63653","city":"Leadwood","state":"MO","lat":37.8577,"long":-90.5879},{"zip":"63622","city":"Belgrade","state":"MO","lat":37.7889,"long":-90.8613},{"zip":"63630","city":"Cadet","state":"MO","lat":38.0125,"long":-90.7439},{"zip":"63631","city":"Caledonia","state":"MO","lat":37.7639,"long":-90.7409},{"zip":"63648","city":"Irondale","state":"MO","lat":37.8296,"long":-90.6984},{"zip":"63660","city":"Mineral Point","state":"MO","lat":37.9156,"long":-90.7193},{"zip":"63664","city":"Potosi","state":"MO","lat":37.9549,"long":-90.8415},{"zip":"63674","city":"Tiff","state":"MO","lat":38.0192,"long":-90.6529},{"zip":"63632","city":"Cascade","state":"MO","lat":37.2995,"long":-90.2693}]
