[{"zip":"63750","city":"Gipsy","state":"MO","lat":37.147,"long":-90.1795},{"zip":"63751","city":"Glenallen","state":"MO","lat":37.3231,"long":-90.0515},{"zip":"63760","city":"Leopold","state":"MO","lat":37.2609,"long":-89.9227},{"zip":"63764","city":"Marble Hill","state":"MO","lat":37.3061,"long":-89.9823},{"zip":"63781","city":"Sedgewickville","state":"MO","lat":37.537,"long":-89.9272},{"zip":"63782","city":"Sturdivant","state":"MO","lat":37.071,"long":-90.0092},{"zip":"63787","city":"Zalma","state":"MO","lat":37.1365,"long":-90.0757},{"zip":"63701","city":"Cape Girardeau","state":"MO","lat":37.3169,"long":-89.5459},{"zip":"63702","city":"Cape Girardeau","state":"MO","lat":37.3506,"long":-89.5094},{"zip":"63703","city":"Cape Girardeau","state":"MO","lat":37.2844,"long":-89.5715},{"zip":"63739","city":"Burfordville","state":"MO","lat":37.3632,"long":-89.8206},{"zip":"63743","city":"Daisy","state":"MO","lat":37.5151,"long":-89.8213},{"zip":"63744","city":"Delta","state":"MO","lat":37.1967,"long":-89.7362},{"zip":"63745","city":"Dutchtown","state":"MO","lat":37.2424,"long":-89.6977},{"zip":"63747","city":"Friedheim","state":"MO","lat":37.5669,"long":-89.8376},{"zip":"63752","city":"Gordonville","state":"MO","lat":37.3092,"long":-89.6989},{"zip":"63755","city":"Jackson","state":"MO","lat":37.3879,"long":-89.6519},{"zip":"63766","city":"Millersville","state":"MO","lat":37.4401,"long":-89.795},{"zip":"63769","city":"Oak Ridge","state":"MO","lat":37.5258,"long":-89.7508},{"zip":"63770","city":"Old Appleton","state":"MO","lat":37.5975,"long":-89.703},{"zip":"63779","city":"Pocahontas","state":"MO","lat":37.5007,"long":-89.6396},{"zip":"63785","city":"Whitewater","state":"MO","lat":37.2781,"long":-89.8061},{"zip":"63732","city":"Altenburg","state":"MO","lat":37.6279,"long":-89.5745},{"zip":"63737","city":"Brazeau","state":"MO","lat":37.6633,"long":-89.6529},{"zip":"63746","city":"Farrar","state":"MO","lat":37.7078,"long":-89.6948},{"zip":"63748","city":"Frohna","state":"MO","lat":37.6686,"long":-89.6619},{"zip":"63775","city":"Perryville","state":"MO","lat":37.7174,"long":-89.8737},{"zip":"63776","city":"Mc Bride","state":"MO","lat":37.7348,"long":-89.8116},{"zip":"63783","city":"Uniontown","state":"MO","lat":37.6073,"long":-89.6798},{"zip":"63736","city":"Benton","state":"MO","lat":37.0697,"long":-89.5664},{"zip":"63740","city":"Chaffee","state":"MO","lat":37.1726,"long":-89.6457},{"zip":"63742","city":"Commerce","state":"MO","lat":37.157,"long":-89.4484},{"zip":"63758","city":"Kelso","state":"MO","lat":37.1858,"long":-89.5575},{"zip":"63767","city":"Morley","state":"MO","lat":37.0411,"long":-89.6076},{"zip":"63771","city":"Oran","state":"MO","lat":37.087,"long":-89.6734},{"zip":"63774","city":"Perkins","state":"MO","lat":37.0564,"long":-89.5499},{"zip":"63780","city":"Scott City","state":"MO","lat":37.2077,"long":-89.5181},{"zip":"63784","city":"Vanduser","state":"MO","lat":36.9912,"long":-89.6885},{"zip":"63730","city":"Advance","state":"MO","lat":37.0922,"long":-89.9106},{"zip":"63735","city":"Bell City","state":"MO","lat":37.0116,"long":-89.7984},{"zip":"63738","city":"Brownwood","state":"MO","lat":37.0828,"long":-89.9523},{"zip":"63763","city":"Mc Gee","state":"MO","lat":37.1196,"long":-90.445}]
