[{"zip":"63901","city":"Poplar Bluff","state":"MO","lat":36.7662,"long":-90.4166},{"zip":"63902","city":"Poplar Bluff","state":"MO","lat":36.7125,"long":-90.407},{"zip":"63932","city":"Broseley","state":"MO","lat":36.6899,"long":-90.2508},{"zip":"63938","city":"Fagus","state":"MO","lat":36.5114,"long":-90.267},{"zip":"63940","city":"Fisk","state":"MO","lat":36.7836,"long":-90.2168},{"zip":"63945","city":"Harviell","state":"MO","lat":36.6723,"long":-90.5583},{"zip":"63954","city":"Neelyville","state":"MO","lat":36.571,"long":-90.4995},{"zip":"63961","city":"Qulin","state":"MO","lat":36.5818,"long":-90.2617},{"zip":"63962","city":"Rombauer","state":"MO","lat":36.7125,"long":-90.407},{"zip":"63937","city":"Ellsinore","state":"MO","lat":36.9453,"long":-90.7485},{"zip":"63941","city":"Fremont","state":"MO","lat":36.9172,"long":-91.144},{"zip":"63943","city":"Grandin","state":"MO","lat":36.828,"long":-90.7942},{"zip":"63965","city":"Van Buren","state":"MO","lat":37.0015,"long":-91.0007},{"zip":"63933","city":"Campbell","state":"MO","lat":36.5197,"long":-90.0829},{"zip":"63931","city":"Briar","state":"MO","lat":36.661,"long":-90.8508},{"zip":"63935","city":"Doniphan","state":"MO","lat":36.6501,"long":-90.8106},{"zip":"63939","city":"Fairdealing","state":"MO","lat":36.6704,"long":-90.6335},{"zip":"63942","city":"Gatewood","state":"MO","lat":36.5626,"long":-91.0703},{"zip":"63953","city":"Naylor","state":"MO","lat":36.5843,"long":-90.6124},{"zip":"63955","city":"Oxly","state":"MO","lat":36.5874,"long":-90.692},{"zip":"63936","city":"Dudley","state":"MO","lat":36.811,"long":-90.121},{"zip":"63960","city":"Puxico","state":"MO","lat":36.9422,"long":-90.1623},{"zip":"63934","city":"Clubb","state":"MO","lat":37.1196,"long":-90.445},{"zip":"63944","city":"Greenville","state":"MO","lat":37.1108,"long":-90.4514},{"zip":"63950","city":"Lodi","state":"MO","lat":37.1196,"long":-90.445},{"zip":"63951","city":"Lowndes","state":"MO","lat":37.1343,"long":-90.2544},{"zip":"63952","city":"Mill Spring","state":"MO","lat":37.0675,"long":-90.6746},{"zip":"63956","city":"Patterson","state":"MO","lat":37.1884,"long":-90.5507},{"zip":"63957","city":"Piedmont","state":"MO","lat":37.1573,"long":-90.699},{"zip":"63964","city":"Silva","state":"MO","lat":37.2119,"long":-90.4375},{"zip":"63966","city":"Wappapello","state":"MO","lat":36.9356,"long":-90.2709},{"zip":"63967","city":"Williamsville","state":"MO","lat":36.9638,"long":-90.4879}]
