[{"zip":"64421","city":"Amazonia","state":"MO","lat":39.9092,"long":-94.9113},{"zip":"64427","city":"Bolckow","state":"MO","lat":40.1007,"long":-94.8847},{"zip":"64436","city":"Cosby","state":"MO","lat":39.8555,"long":-94.6977},{"zip":"64449","city":"Fillmore","state":"MO","lat":40.0142,"long":-94.9555},{"zip":"64459","city":"Helena","state":"MO","lat":39.9295,"long":-94.6465},{"zip":"64480","city":"Rea","state":"MO","lat":40.0593,"long":-94.7002},{"zip":"64483","city":"Rosendale","state":"MO","lat":40.0399,"long":-94.8328},{"zip":"64485","city":"Savannah","state":"MO","lat":39.9168,"long":-94.8267},{"zip":"64506","city":"Saint Joseph","state":"MO","lat":39.7893,"long":-94.8043},{"zip":"64446","city":"Fairfax","state":"MO","lat":40.3302,"long":-95.3751},{"zip":"64482","city":"Rock Port","state":"MO","lat":40.4306,"long":-95.5274},{"zip":"64491","city":"Tarkio","state":"MO","lat":40.4418,"long":-95.3786},{"zip":"64496","city":"Watson","state":"MO","lat":40.478,"long":-95.6193},{"zip":"64498","city":"Westboro","state":"MO","lat":40.5357,"long":-95.3134},{"zip":"64874","city":"Wheaton","state":"MO","lat":36.7651,"long":-94.0492},{"zip":"64748","city":"Golden City","state":"MO","lat":37.3995,"long":-94.1027},{"zip":"64759","city":"Lamar","state":"MO","lat":37.5191,"long":-94.3364},{"zip":"64762","city":"Liberal","state":"MO","lat":37.5725,"long":-94.5204},{"zip":"64766","city":"Milford","state":"MO","lat":37.5848,"long":-94.1572},{"zip":"64769","city":"Mindenmines","state":"MO","lat":37.452,"long":-94.5756},{"zip":"64720","city":"Adrian","state":"MO","lat":38.4125,"long":-94.3683},{"zip":"64722","city":"Amoret","state":"MO","lat":38.2605,"long":-94.5734},{"zip":"64723","city":"Amsterdam","state":"MO","lat":38.3954,"long":-94.5763},{"zip":"64730","city":"Butler","state":"MO","lat":38.2712,"long":-94.3137},{"zip":"64742","city":"Drexel","state":"MO","lat":38.4956,"long":-94.5928},{"zip":"64745","city":"Foster","state":"MO","lat":38.1661,"long":-94.5075},{"zip":"64752","city":"Hume","state":"MO","lat":38.09,"long":-94.5838},{"zip":"64779","city":"Rich Hill","state":"MO","lat":38.0944,"long":-94.3635},{"zip":"64780","city":"Rockville","state":"MO","lat":38.0766,"long":-94.1299},{"zip":"64401","city":"Agency","state":"MO","lat":39.6662,"long":-94.717},{"zip":"64440","city":"De Kalb","state":"MO","lat":39.5834,"long":-94.927},{"zip":"64443","city":"Easton","state":"MO","lat":39.7517,"long":-94.6582},{"zip":"64448","city":"Faucett","state":"MO","lat":39.5891,"long":-94.7913},{"zip":"64484","city":"Rushville","state":"MO","lat":39.5653,"long":-95.0413},{"zip":"64501","city":"Saint Joseph","state":"MO","lat":39.7688,"long":-94.8385},{"zip":"64502","city":"Saint Joseph","state":"MO","lat":39.7686,"long":-94.8466},{"zip":"64503","city":"Saint Joseph","state":"MO","lat":39.734,"long":-94.8171},{"zip":"64504","city":"Saint Joseph","state":"MO","lat":39.7076,"long":-94.8677},{"zip":"64505","city":"Saint Joseph","state":"MO","lat":39.7965,"long":-94.8443},{"zip":"64507","city":"Saint Joseph","state":"MO","lat":39.7551,"long":-94.8173},{"zip":"64508","city":"Saint Joseph","state":"MO","lat":39.6763,"long":-94.8574},{"zip":"64624","city":"Braymer","state":"MO","lat":39.5915,"long":-93.7887},{"zip":"64625","city":"Breckenridge","state":"MO","lat":39.7582,"long":-93.8068},{"zip":"64637","city":"Cowgill","state":"MO","lat":39.5643,"long":-93.9295},{"zip":"64644","city":"Hamilton","state":"MO","lat":39.7364,"long":-93.9909},{"zip":"64649","city":"Kidder","state":"MO","lat":39.7803,"long":-94.1024},{"zip":"64650","city":"Kingston","state":"MO","lat":39.6508,"long":-94.0827},{"zip":"64671","city":"Polo","state":"MO","lat":39.5647,"long":-94.0743},{"zip":"64622","city":"Bogard","state":"MO","lat":39.4994,"long":-93.5374},{"zip":"64623","city":"Bosworth","state":"MO","lat":39.4767,"long":-93.3335},{"zip":"64633","city":"Carrollton","state":"MO","lat":39.3673,"long":-93.4926},{"zip":"64639","city":"De Witt","state":"MO","lat":39.384,"long":-93.2238},{"zip":"64643","city":"Hale","state":"MO","lat":39.5953,"long":-93.3445},{"zip":"64668","city":"Norborne","state":"MO","lat":39.3299,"long":-93.6761},{"zip":"64680","city":"Stet","state":"MO","lat":39.4231,"long":-93.7588},{"zip":"64682","city":"Tina","state":"MO","lat":39.5518,"long":-93.4647},{"zip":"64012","city":"Belton","state":"MO","lat":38.8161,"long":-94.5328},{"zip":"64078","city":"Peculiar","state":"MO","lat":38.7165,"long":-94.4405},{"zip":"64080","city":"Pleasant Hill","state":"MO","lat":38.7859,"long":-94.244},{"zip":"64083","city":"Raymore","state":"MO","lat":38.8019,"long":-94.4529},{"zip":"64090","city":"Strasburg","state":"MO","lat":38.7658,"long":-94.1609},{"zip":"64701","city":"Harrisonville","state":"MO","lat":38.6419,"long":-94.3285},{"zip":"64725","city":"Archie","state":"MO","lat":38.4986,"long":-94.363},{"zip":"64734","city":"Cleveland","state":"MO","lat":38.6898,"long":-94.5695},{"zip":"64739","city":"Creighton","state":"MO","lat":38.5078,"long":-94.0926},{"zip":"64743","city":"East Lynne","state":"MO","lat":38.6682,"long":-94.2333},{"zip":"64746","city":"Freeman","state":"MO","lat":38.6245,"long":-94.4956},{"zip":"64747","city":"Garden City","state":"MO","lat":38.5681,"long":-94.1825},{"zip":"64744","city":"El Dorado Springs","state":"MO","lat":37.8652,"long":-94.0124},{"zip":"64756","city":"Jerico Springs","state":"MO","lat":37.6613,"long":-94.0129},{"zip":"64660","city":"Mendon","state":"MO","lat":39.5828,"long":-93.0892},{"zip":"64676","city":"Rothville","state":"MO","lat":39.6627,"long":-93.0467},{"zip":"64681","city":"Sumner","state":"MO","lat":39.655,"long":-93.2241},{"zip":"64024","city":"Excelsior Springs","state":"MO","lat":39.3392,"long":-94.2261},{"zip":"64048","city":"Holt","state":"MO","lat":39.4289,"long":-94.3689},{"zip":"64060","city":"Kearney","state":"MO","lat":39.3652,"long":-94.3621},{"zip":"64068","city":"Liberty","state":"MO","lat":39.2461,"long":-94.4191},{"zip":"64069","city":"Liberty","state":"MO","lat":39.2461,"long":-94.4191},{"zip":"64072","city":"Missouri City","state":"MO","lat":39.2458,"long":-94.2924},{"zip":"64073","city":"Mosby","state":"MO","lat":39.3149,"long":-94.2939},{"zip":"64089","city":"Smithville","state":"MO","lat":39.3917,"long":-94.5592},{"zip":"64116","city":"Kansas City","state":"MO","lat":39.1479,"long":-94.568},{"zip":"64117","city":"Kansas City","state":"MO","lat":39.1651,"long":-94.5256},{"zip":"64118","city":"Kansas City","state":"MO","lat":39.2133,"long":-94.5743},{"zip":"64119","city":"Kansas City","state":"MO","lat":39.1979,"long":-94.5199},{"zip":"64144","city":"Kansas City","state":"MO","lat":39.2829,"long":-94.409},{"zip":"64155","city":"Kansas City","state":"MO","lat":39.2758,"long":-94.5704},{"zip":"64156","city":"Kansas City","state":"MO","lat":39.2901,"long":-94.5336},{"zip":"64157","city":"Kansas City","state":"MO","lat":39.2767,"long":-94.4595},{"zip":"64158","city":"Kansas City","state":"MO","lat":39.2284,"long":-94.472},{"zip":"64161","city":"Kansas City","state":"MO","lat":39.1661,"long":-94.464},{"zip":"64162","city":"Kansas City","state":"MO","lat":39.1562,"long":-94.4797},{"zip":"64165","city":"Kansas City","state":"MO","lat":39.3113,"long":-94.5431},{"zip":"64166","city":"Kansas City","state":"MO","lat":39.3294,"long":-94.5199},{"zip":"64167","city":"Kansas City","state":"MO","lat":39.32,"long":-94.4877},{"zip":"64429","city":"Cameron","state":"MO","lat":39.7309,"long":-94.2437},{"zip":"64454","city":"Gower","state":"MO","lat":39.602,"long":-94.5965},{"zip":"64465","city":"Lathrop","state":"MO","lat":39.5177,"long":-94.3093},{"zip":"64477","city":"Plattsburg","state":"MO","lat":39.5705,"long":-94.4338},{"zip":"64492","city":"Trimble","state":"MO","lat":39.4871,"long":-94.5512},{"zip":"64493","city":"Turney","state":"MO","lat":39.6318,"long":-94.2972},{"zip":"64620","city":"Altamont","state":"MO","lat":39.896,"long":-94.0897},{"zip":"64636","city":"Coffey","state":"MO","lat":40.0999,"long":-94.0252},{"zip":"64640","city":"Gallatin","state":"MO","lat":39.9025,"long":-93.9787},{"zip":"64642","city":"Gilman City","state":"MO","lat":40.145,"long":-93.832},{"zip":"64647","city":"Jameson","state":"MO","lat":40.0046,"long":-93.9597},{"zip":"64648","city":"Jamesport","state":"MO","lat":39.9837,"long":-93.78},{"zip":"64654","city":"Lock Springs","state":"MO","lat":39.8489,"long":-93.7774},{"zip":"64670","city":"Pattonsburg","state":"MO","lat":40.0428,"long":-94.1343},{"zip":"64689","city":"Winston","state":"MO","lat":39.8499,"long":-94.1487},{"zip":"64422","city":"Amity","state":"MO","lat":39.8837,"long":-94.5136},{"zip":"64430","city":"Clarksdale","state":"MO","lat":39.8137,"long":-94.5421},{"zip":"64469","city":"Maysville","state":"MO","lat":39.9112,"long":-94.3548},{"zip":"64474","city":"Osborn","state":"MO","lat":39.7912,"long":-94.3974},{"zip":"64490","city":"Stewartsville","state":"MO","lat":39.7984,"long":-94.5175},{"zip":"64494","city":"Union Star","state":"MO","lat":39.9846,"long":-94.5787},{"zip":"64497","city":"Weatherby","state":"MO","lat":39.9277,"long":-94.2429},{"zip":"64402","city":"Albany","state":"MO","lat":40.2513,"long":-94.327},{"zip":"64438","city":"Darlington","state":"MO","lat":40.1955,"long":-94.4049},{"zip":"64453","city":"Gentry","state":"MO","lat":40.3411,"long":-94.4142},{"zip":"64463","city":"King City","state":"MO","lat":40.0652,"long":-94.5234},{"zip":"64489","city":"Stanberry","state":"MO","lat":40.2293,"long":-94.5387},{"zip":"64657","city":"Mc Fall","state":"MO","lat":40.1051,"long":-94.3003},{"zip":"64641","city":"Galt","state":"MO","lat":40.144,"long":-93.3953},{"zip":"64652","city":"Laredo","state":"MO","lat":40.0144,"long":-93.4407},{"zip":"64679","city":"Spickard","state":"MO","lat":40.2439,"long":-93.5944},{"zip":"64683","city":"Trenton","state":"MO","lat":40.0823,"long":-93.6086},{"zip":"64424","city":"Bethany","state":"MO","lat":40.2601,"long":-94.0189},{"zip":"64426","city":"Blythedale","state":"MO","lat":40.5024,"long":-93.8954},{"zip":"64442","city":"Eagleville","state":"MO","lat":40.4912,"long":-93.9951},{"zip":"64458","city":"Hatfield","state":"MO","lat":40.5219,"long":-94.1691},{"zip":"64467","city":"Martinsville","state":"MO","lat":40.3662,"long":-94.1645},{"zip":"64471","city":"New Hampton","state":"MO","lat":40.2444,"long":-94.1786},{"zip":"64481","city":"Ridgeway","state":"MO","lat":40.3999,"long":-93.9575},{"zip":"64632","city":"Cainsville","state":"MO","lat":40.4578,"long":-93.759},{"zip":"64726","city":"Blairstown","state":"MO","lat":38.5319,"long":-93.9221},{"zip":"64735","city":"Clinton","state":"MO","lat":38.4018,"long":-93.785},{"zip":"64740","city":"Deepwater","state":"MO","lat":38.2432,"long":-93.7303},{"zip":"64770","city":"Montrose","state":"MO","lat":38.2597,"long":-93.9952},{"zip":"64788","city":"Urich","state":"MO","lat":38.4449,"long":-93.9785},{"zip":"64437","city":"Craig","state":"MO","lat":40.1267,"long":-95.3291},{"zip":"64451","city":"Forest City","state":"MO","lat":39.9897,"long":-95.1916},{"zip":"64466","city":"Maitland","state":"MO","lat":40.1991,"long":-95.0927},{"zip":"64470","city":"Mound City","state":"MO","lat":40.1362,"long":-95.2138},{"zip":"64473","city":"Oregon","state":"MO","lat":39.9809,"long":-95.1234},{"zip":"64002","city":"Lees Summit","state":"MO","lat":38.9285,"long":-94.3983},{"zip":"64013","city":"Blue Springs","state":"MO","lat":39.017,"long":-94.2816},{"zip":"64014","city":"Blue Springs","state":"MO","lat":39.0152,"long":-94.2604},{"zip":"64015","city":"Blue Springs","state":"MO","lat":39.015,"long":-94.3118},{"zip":"64016","city":"Buckner","state":"MO","lat":39.1303,"long":-94.2062},{"zip":"64029","city":"Grain Valley","state":"MO","lat":39.0274,"long":-94.2087},{"zip":"64030","city":"Grandview","state":"MO","lat":38.8819,"long":-94.5205},{"zip":"64034","city":"Greenwood","state":"MO","lat":38.8644,"long":-94.2815},{"zip":"64050","city":"Independence","state":"MO","lat":39.0983,"long":-94.4111},{"zip":"64051","city":"Independence","state":"MO","lat":39.0911,"long":-94.4155},{"zip":"64052","city":"Independence","state":"MO","lat":39.075,"long":-94.4499},{"zip":"64053","city":"Independence","state":"MO","lat":39.105,"long":-94.4625},{"zip":"64054","city":"Independence","state":"MO","lat":39.11,"long":-94.4401},{"zip":"64055","city":"Independence","state":"MO","lat":39.0545,"long":-94.4039},{"zip":"64056","city":"Independence","state":"MO","lat":39.1177,"long":-94.3596},{"zip":"64057","city":"Independence","state":"MO","lat":39.0731,"long":-94.3533},{"zip":"64058","city":"Independence","state":"MO","lat":39.1412,"long":-94.3515},{"zip":"64063","city":"Lees Summit","state":"MO","lat":38.912,"long":-94.3517},{"zip":"64064","city":"Lees Summit","state":"MO","lat":38.9953,"long":-94.3652},{"zip":"64065","city":"Lees Summit","state":"MO","lat":38.9529,"long":-94.4058},{"zip":"64066","city":"Levasy","state":"MO","lat":39.1356,"long":-94.133},{"zip":"64070","city":"Lone Jack","state":"MO","lat":38.8918,"long":-94.1615},{"zip":"64075","city":"Oak Grove","state":"MO","lat":38.9985,"long":-94.1399},{"zip":"64081","city":"Lees Summit","state":"MO","lat":38.9142,"long":-94.4073},{"zip":"64082","city":"Lees Summit","state":"MO","lat":38.8518,"long":-94.3944},{"zip":"64086","city":"Lees Summit","state":"MO","lat":38.944,"long":-94.2881},{"zip":"64088","city":"Sibley","state":"MO","lat":39.1584,"long":-94.1844},{"zip":"64101","city":"Kansas City","state":"MO","lat":39.1024,"long":-94.5986},{"zip":"64102","city":"Kansas City","state":"MO","lat":39.0861,"long":-94.6066},{"zip":"64105","city":"Kansas City","state":"MO","lat":39.1025,"long":-94.5901},{"zip":"64106","city":"Kansas City","state":"MO","lat":39.1052,"long":-94.5699},{"zip":"64108","city":"Kansas City","state":"MO","lat":39.0837,"long":-94.5868},{"zip":"64109","city":"Kansas City","state":"MO","lat":39.0663,"long":-94.5674},{"zip":"64110","city":"Kansas City","state":"MO","lat":39.0361,"long":-94.5722},{"zip":"64111","city":"Kansas City","state":"MO","lat":39.0565,"long":-94.5929},{"zip":"64112","city":"Kansas City","state":"MO","lat":39.0382,"long":-94.5929},{"zip":"64113","city":"Kansas City","state":"MO","lat":39.0123,"long":-94.5938},{"zip":"64114","city":"Kansas City","state":"MO","lat":38.9621,"long":-94.5959},{"zip":"64120","city":"Kansas City","state":"MO","lat":39.1222,"long":-94.5487},{"zip":"64121","city":"Kansas City","state":"MO","lat":39.0997,"long":-94.5786},{"zip":"64123","city":"Kansas City","state":"MO","lat":39.1136,"long":-94.5235},{"zip":"64124","city":"Kansas City","state":"MO","lat":39.1068,"long":-94.5394},{"zip":"64125","city":"Kansas City","state":"MO","lat":39.1042,"long":-94.4923},{"zip":"64126","city":"Kansas City","state":"MO","lat":39.0923,"long":-94.5047},{"zip":"64127","city":"Kansas City","state":"MO","lat":39.0883,"long":-94.5366},{"zip":"64128","city":"Kansas City","state":"MO","lat":39.0659,"long":-94.5386},{"zip":"64129","city":"Kansas City","state":"MO","lat":39.0401,"long":-94.4951},{"zip":"64130","city":"Kansas City","state":"MO","lat":39.0351,"long":-94.5467},{"zip":"64131","city":"Kansas City","state":"MO","lat":38.9713,"long":-94.5774},{"zip":"64132","city":"Kansas City","state":"MO","lat":38.9911,"long":-94.5522},{"zip":"64133","city":"Kansas City","state":"MO","lat":39.0323,"long":-94.47},{"zip":"64134","city":"Kansas City","state":"MO","lat":38.9296,"long":-94.5009},{"zip":"64136","city":"Kansas City","state":"MO","lat":39.0187,"long":-94.4008},{"zip":"64137","city":"Kansas City","state":"MO","lat":38.9299,"long":-94.5405},{"zip":"64138","city":"Kansas City","state":"MO","lat":38.9528,"long":-94.4705},{"zip":"64139","city":"Kansas City","state":"MO","lat":38.9659,"long":-94.4061},{"zip":"64141","city":"Kansas City","state":"MO","lat":39.0997,"long":-94.5786},{"zip":"64145","city":"Kansas City","state":"MO","lat":38.8977,"long":-94.5976},{"zip":"64146","city":"Kansas City","state":"MO","lat":38.8973,"long":-94.5764},{"zip":"64147","city":"Kansas City","state":"MO","lat":38.8549,"long":-94.5568},{"zip":"64148","city":"Kansas City","state":"MO","lat":39.0997,"long":-94.5786},{"zip":"64149","city":"Kansas City","state":"MO","lat":38.8606,"long":-94.4636},{"zip":"64170","city":"Kansas City","state":"MO","lat":39.0997,"long":-94.5786},{"zip":"64171","city":"Kansas City","state":"MO","lat":39.0997,"long":-94.5786},{"zip":"64179","city":"Kansas City","state":"MO","lat":39.0997,"long":-94.5786},{"zip":"64180","city":"Kansas City","state":"MO","lat":39.0997,"long":-94.5786},{"zip":"64184","city":"Kansas City","state":"MO","lat":39.0997,"long":-94.5786},{"zip":"64187","city":"Kansas City","state":"MO","lat":39.0997,"long":-94.5786},{"zip":"64188","city":"Kansas City","state":"MO","lat":39.0997,"long":-94.5786},{"zip":"64191","city":"Kansas City","state":"MO","lat":39.0997,"long":-94.5786},{"zip":"64196","city":"Kansas City","state":"MO","lat":39.0997,"long":-94.5786},{"zip":"64197","city":"Kansas City","state":"MO","lat":39.0997,"long":-94.5786},{"zip":"64198","city":"Kansas City","state":"MO","lat":39.0997,"long":-94.5786},{"zip":"64199","city":"Kansas City","state":"MO","lat":39.0997,"long":-94.5786},{"zip":"64999","city":"Kansas City","state":"MO","lat":39.0997,"long":-94.5786},{"zip":"64755","city":"Jasper","state":"MO","lat":37.3362,"long":-94.3013},{"zip":"64801","city":"Joplin","state":"MO","lat":37.0969,"long":-94.5051},{"zip":"64802","city":"Joplin","state":"MO","lat":37.0842,"long":-94.5133},{"zip":"64803","city":"Joplin","state":"MO","lat":37.0842,"long":-94.5133},{"zip":"64804","city":"Joplin","state":"MO","lat":37.0465,"long":-94.5103},{"zip":"64830","city":"Alba","state":"MO","lat":37.2367,"long":-94.418},{"zip":"64832","city":"Asbury","state":"MO","lat":37.2942,"long":-94.5655},{"zip":"64833","city":"Avilla","state":"MO","lat":37.1953,"long":-94.1297},{"zip":"64834","city":"Carl Junction","state":"MO","lat":37.1795,"long":-94.555},{"zip":"64835","city":"Carterville","state":"MO","lat":37.1507,"long":-94.4359},{"zip":"64836","city":"Carthage","state":"MO","lat":37.1597,"long":-94.3112},{"zip":"64841","city":"Duenweg","state":"MO","lat":37.076,"long":-94.4071},{"zip":"64848","city":"La Russell","state":"MO","lat":37.1739,"long":-94.0329},{"zip":"64849","city":"Neck City","state":"MO","lat":37.257,"long":-94.4444},{"zip":"64855","city":"Oronogo","state":"MO","lat":37.2717,"long":-94.4865},{"zip":"64857","city":"Purcell","state":"MO","lat":37.2423,"long":-94.4352},{"zip":"64859","city":"Reeds","state":"MO","lat":37.1225,"long":-94.1613},{"zip":"64862","city":"Sarcoxie","state":"MO","lat":37.0724,"long":-94.1151},{"zip":"64870","city":"Webb City","state":"MO","lat":37.144,"long":-94.4727},{"zip":"64019","city":"Centerview","state":"MO","lat":38.7897,"long":-93.8702},{"zip":"64040","city":"Holden","state":"MO","lat":38.7186,"long":-93.9856},{"zip":"64061","city":"Kingsville","state":"MO","lat":38.8178,"long":-94.0462},{"zip":"64093","city":"Warrensburg","state":"MO","lat":38.7667,"long":-93.7273},{"zip":"64733","city":"Chilhowee","state":"MO","lat":38.6126,"long":-93.8653},{"zip":"64761","city":"Leeton","state":"MO","lat":38.5831,"long":-93.6947},{"zip":"64001","city":"Alma","state":"MO","lat":39.1048,"long":-93.5429},{"zip":"64011","city":"Bates City","state":"MO","lat":39.0219,"long":-94.0798},{"zip":"64020","city":"Concordia","state":"MO","lat":38.9776,"long":-93.5812},{"zip":"64021","city":"Corder","state":"MO","lat":39.1024,"long":-93.6391},{"zip":"64022","city":"Dover","state":"MO","lat":39.1926,"long":-93.6684},{"zip":"64037","city":"Higginsville","state":"MO","lat":39.0705,"long":-93.7133},{"zip":"64067","city":"Lexington","state":"MO","lat":39.1742,"long":-93.8714},{"zip":"64071","city":"Mayview","state":"MO","lat":39.0459,"long":-93.8353},{"zip":"64074","city":"Napoleon","state":"MO","lat":39.114,"long":-94.0709},{"zip":"64076","city":"Odessa","state":"MO","lat":38.9829,"long":-93.9757},{"zip":"64096","city":"Waverly","state":"MO","lat":39.2055,"long":-93.5257},{"zip":"64097","city":"Wellington","state":"MO","lat":39.1258,"long":-93.9855},{"zip":"64628","city":"Brookfield","state":"MO","lat":39.7846,"long":-93.0719},{"zip":"64630","city":"Browning","state":"MO","lat":40.029,"long":-93.1607},{"zip":"64631","city":"Bucklin","state":"MO","lat":39.8006,"long":-92.8928},{"zip":"64651","city":"Laclede","state":"MO","lat":39.7837,"long":-93.168},{"zip":"64653","city":"Linneus","state":"MO","lat":39.9099,"long":-93.1885},{"zip":"64658","city":"Marceline","state":"MO","lat":39.7125,"long":-92.9455},{"zip":"64659","city":"Meadville","state":"MO","lat":39.7795,"long":-93.3014},{"zip":"64674","city":"Purdin","state":"MO","lat":39.9529,"long":-93.17},{"zip":"64601","city":"Chillicothe","state":"MO","lat":39.7966,"long":-93.5509},{"zip":"64635","city":"Chula","state":"MO","lat":39.9226,"long":-93.4841},{"zip":"64638","city":"Dawn","state":"MO","lat":39.6665,"long":-93.5964},{"zip":"64656","city":"Ludlow","state":"MO","lat":39.6551,"long":-93.7046},{"zip":"64664","city":"Mooresville","state":"MO","lat":39.7425,"long":-93.7169},{"zip":"64686","city":"Utica","state":"MO","lat":39.7417,"long":-93.6289},{"zip":"64688","city":"Wheeling","state":"MO","lat":39.8011,"long":-93.3868},{"zip":"64831","city":"Anderson","state":"MO","lat":36.6506,"long":-94.4436},{"zip":"64843","city":"Goodman","state":"MO","lat":36.7323,"long":-94.3986},{"zip":"64847","city":"Lanagan","state":"MO","lat":36.606,"long":-94.4551},{"zip":"64854","city":"Noel","state":"MO","lat":36.5417,"long":-94.4906},{"zip":"64856","city":"Pineville","state":"MO","lat":36.574,"long":-94.377},{"zip":"64861","city":"Rocky Comfort","state":"MO","lat":36.7175,"long":-94.1091},{"zip":"64863","city":"South West City","state":"MO","lat":36.5319,"long":-94.5961},{"zip":"64868","city":"Tiff City","state":"MO","lat":36.6684,"long":-94.6172},{"zip":"64661","city":"Mercer","state":"MO","lat":40.5169,"long":-93.5242},{"zip":"64673","city":"Princeton","state":"MO","lat":40.3855,"long":-93.5774},{"zip":"64840","city":"Diamond","state":"MO","lat":37.006,"long":-94.3204},{"zip":"64842","city":"Fairview","state":"MO","lat":36.8254,"long":-94.0912},{"zip":"64844","city":"Granby","state":"MO","lat":36.9066,"long":-94.2643},{"zip":"64850","city":"Neosho","state":"MO","lat":36.8706,"long":-94.3862},{"zip":"64853","city":"Newtonia","state":"MO","lat":36.8767,"long":-94.1855},{"zip":"64858","city":"Racine","state":"MO","lat":36.901,"long":-94.5321},{"zip":"64864","city":"Saginaw","state":"MO","lat":37.024,"long":-94.4683},{"zip":"64865","city":"Seneca","state":"MO","lat":36.8408,"long":-94.5781},{"zip":"64866","city":"Stark City","state":"MO","lat":36.8785,"long":-94.1548},{"zip":"64867","city":"Stella","state":"MO","lat":36.7516,"long":-94.2086},{"zip":"64873","city":"Wentworth","state":"MO","lat":37.0177,"long":-94.0514},{"zip":"64423","city":"Barnard","state":"MO","lat":40.1862,"long":-94.8056},{"zip":"64428","city":"Burlington Junction","state":"MO","lat":40.4475,"long":-95.063},{"zip":"64431","city":"Clearmont","state":"MO","lat":40.5175,"long":-95.0055},{"zip":"64432","city":"Clyde","state":"MO","lat":40.2635,"long":-94.6687},{"zip":"64433","city":"Conception","state":"MO","lat":40.2428,"long":-94.6869},{"zip":"64434","city":"Conception Junction","state":"MO","lat":40.2659,"long":-94.6915},{"zip":"64445","city":"Elmo","state":"MO","lat":40.5185,"long":-95.1236},{"zip":"64455","city":"Graham","state":"MO","lat":40.2012,"long":-95.0121},{"zip":"64457","city":"Guilford","state":"MO","lat":40.1746,"long":-94.6951},{"zip":"64461","city":"Hopkins","state":"MO","lat":40.5483,"long":-94.8189},{"zip":"64468","city":"Maryville","state":"MO","lat":40.3434,"long":-94.8735},{"zip":"64475","city":"Parnell","state":"MO","lat":40.44,"long":-94.6233},{"zip":"64476","city":"Pickering","state":"MO","lat":40.4591,"long":-94.8411},{"zip":"64479","city":"Ravenwood","state":"MO","lat":40.3579,"long":-94.6805},{"zip":"64487","city":"Skidmore","state":"MO","lat":40.2896,"long":-95.0792},{"zip":"64018","city":"Camden Point","state":"MO","lat":39.4515,"long":-94.7444},{"zip":"64028","city":"Farley","state":"MO","lat":39.2839,"long":-94.8302},{"zip":"64079","city":"Platte City","state":"MO","lat":39.3602,"long":-94.789},{"zip":"64092","city":"Waldron","state":"MO","lat":39.2289,"long":-94.8057},{"zip":"64098","city":"Weston","state":"MO","lat":39.4453,"long":-94.9145},{"zip":"64150","city":"Riverside","state":"MO","lat":39.1776,"long":-94.6321},{"zip":"64151","city":"Kansas City","state":"MO","lat":39.2127,"long":-94.6383},{"zip":"64152","city":"Kansas City","state":"MO","lat":39.2176,"long":-94.7238},{"zip":"64153","city":"Kansas City","state":"MO","lat":39.2627,"long":-94.697},{"zip":"64154","city":"Kansas City","state":"MO","lat":39.2547,"long":-94.6354},{"zip":"64163","city":"Kansas City","state":"MO","lat":39.3402,"long":-94.6908},{"zip":"64164","city":"Kansas City","state":"MO","lat":39.3426,"long":-94.6446},{"zip":"64168","city":"Kansas City","state":"MO","lat":39.3432,"long":-94.8516},{"zip":"64190","city":"Kansas City","state":"MO","lat":39.3432,"long":-94.8516},{"zip":"64195","city":"Kansas City","state":"MO","lat":39.3432,"long":-94.8516},{"zip":"64439","city":"Dearborn","state":"MO","lat":39.5172,"long":-94.7664},{"zip":"64444","city":"Edgerton","state":"MO","lat":39.4742,"long":-94.6352},{"zip":"64655","city":"Lucerne","state":"MO","lat":40.4382,"long":-93.2867},{"zip":"64672","city":"Powersville","state":"MO","lat":40.5492,"long":-93.3002},{"zip":"64017","city":"Camden","state":"MO","lat":39.2048,"long":-94.0259},{"zip":"64035","city":"Hardin","state":"MO","lat":39.3504,"long":-93.8409},{"zip":"64036","city":"Henrietta","state":"MO","lat":39.2367,"long":-93.9369},{"zip":"64062","city":"Lawson","state":"MO","lat":39.4401,"long":-94.1966},{"zip":"64077","city":"Orrick","state":"MO","lat":39.2116,"long":-94.1239},{"zip":"64084","city":"Rayville","state":"MO","lat":39.3853,"long":-94.0284},{"zip":"64085","city":"Richmond","state":"MO","lat":39.2793,"long":-93.9792},{"zip":"64724","city":"Appleton City","state":"MO","lat":38.1848,"long":-94.0229},{"zip":"64738","city":"Collins","state":"MO","lat":37.881,"long":-93.6608},{"zip":"64763","city":"Lowry City","state":"MO","lat":38.1404,"long":-93.7114},{"zip":"64776","city":"Osceola","state":"MO","lat":38.0286,"long":-93.7536},{"zip":"64781","city":"Roscoe","state":"MO","lat":37.9728,"long":-93.8122},{"zip":"64645","city":"Harris","state":"MO","lat":40.3075,"long":-93.3501},{"zip":"64646","city":"Humphreys","state":"MO","lat":40.1144,"long":-93.3015},{"zip":"64667","city":"Newtown","state":"MO","lat":40.3612,"long":-93.3073},{"zip":"64728","city":"Bronaugh","state":"MO","lat":37.69,"long":-94.486},{"zip":"64741","city":"Deerfield","state":"MO","lat":37.8197,"long":-94.5608},{"zip":"64750","city":"Harwood","state":"MO","lat":37.953,"long":-94.1402},{"zip":"64765","city":"Metz","state":"MO","lat":37.9975,"long":-94.4433},{"zip":"64767","city":"Milo","state":"MO","lat":37.7446,"long":-94.3046},{"zip":"64771","city":"Moundville","state":"MO","lat":37.7476,"long":-94.4496},{"zip":"64772","city":"Nevada","state":"MO","lat":37.8409,"long":-94.3571},{"zip":"64778","city":"Richards","state":"MO","lat":37.9061,"long":-94.5592},{"zip":"64783","city":"Schell City","state":"MO","lat":38.0094,"long":-94.1579},{"zip":"64784","city":"Sheldon","state":"MO","lat":37.684,"long":-94.2548},{"zip":"64790","city":"Walker","state":"MO","lat":37.893,"long":-94.2293},{"zip":"64420","city":"Allendale","state":"MO","lat":40.4855,"long":-94.2886},{"zip":"64441","city":"Denver","state":"MO","lat":40.4181,"long":-94.3066},{"zip":"64456","city":"Grant City","state":"MO","lat":40.4924,"long":-94.3979},{"zip":"64486","city":"Sheridan","state":"MO","lat":40.4928,"long":-94.5701},{"zip":"64499","city":"Worth","state":"MO","lat":40.3939,"long":-94.4398}]
