[{"zip":"64012","city":"Belton","state":"MO","lat":38.8161,"long":-94.5328},{"zip":"64078","city":"Peculiar","state":"MO","lat":38.7165,"long":-94.4405},{"zip":"64080","city":"Pleasant Hill","state":"MO","lat":38.7859,"long":-94.244},{"zip":"64083","city":"Raymore","state":"MO","lat":38.8019,"long":-94.4529},{"zip":"64090","city":"Strasburg","state":"MO","lat":38.7658,"long":-94.1609},{"zip":"64024","city":"Excelsior Springs","state":"MO","lat":39.3392,"long":-94.2261},{"zip":"64048","city":"Holt","state":"MO","lat":39.4289,"long":-94.3689},{"zip":"64060","city":"Kearney","state":"MO","lat":39.3652,"long":-94.3621},{"zip":"64068","city":"Liberty","state":"MO","lat":39.2461,"long":-94.4191},{"zip":"64069","city":"Liberty","state":"MO","lat":39.2461,"long":-94.4191},{"zip":"64072","city":"Missouri City","state":"MO","lat":39.2458,"long":-94.2924},{"zip":"64073","city":"Mosby","state":"MO","lat":39.3149,"long":-94.2939},{"zip":"64089","city":"Smithville","state":"MO","lat":39.3917,"long":-94.5592},{"zip":"64002","city":"Lees Summit","state":"MO","lat":38.9285,"long":-94.3983},{"zip":"64013","city":"Blue Springs","state":"MO","lat":39.017,"long":-94.2816},{"zip":"64014","city":"Blue Springs","state":"MO","lat":39.0152,"long":-94.2604},{"zip":"64015","city":"Blue Springs","state":"MO","lat":39.015,"long":-94.3118},{"zip":"64016","city":"Buckner","state":"MO","lat":39.1303,"long":-94.2062},{"zip":"64029","city":"Grain Valley","state":"MO","lat":39.0274,"long":-94.2087},{"zip":"64030","city":"Grandview","state":"MO","lat":38.8819,"long":-94.5205},{"zip":"64034","city":"Greenwood","state":"MO","lat":38.8644,"long":-94.2815},{"zip":"64050","city":"Independence","state":"MO","lat":39.0983,"long":-94.4111},{"zip":"64051","city":"Independence","state":"MO","lat":39.0911,"long":-94.4155},{"zip":"64052","city":"Independence","state":"MO","lat":39.075,"long":-94.4499},{"zip":"64053","city":"Independence","state":"MO","lat":39.105,"long":-94.4625},{"zip":"64054","city":"Independence","state":"MO","lat":39.11,"long":-94.4401},{"zip":"64055","city":"Independence","state":"MO","lat":39.0545,"long":-94.4039},{"zip":"64056","city":"Independence","state":"MO","lat":39.1177,"long":-94.3596},{"zip":"64057","city":"Independence","state":"MO","lat":39.0731,"long":-94.3533},{"zip":"64058","city":"Independence","state":"MO","lat":39.1412,"long":-94.3515},{"zip":"64063","city":"Lees Summit","state":"MO","lat":38.912,"long":-94.3517},{"zip":"64064","city":"Lees Summit","state":"MO","lat":38.9953,"long":-94.3652},{"zip":"64065","city":"Lees Summit","state":"MO","lat":38.9529,"long":-94.4058},{"zip":"64066","city":"Levasy","state":"MO","lat":39.1356,"long":-94.133},{"zip":"64070","city":"Lone Jack","state":"MO","lat":38.8918,"long":-94.1615},{"zip":"64075","city":"Oak Grove","state":"MO","lat":38.9985,"long":-94.1399},{"zip":"64081","city":"Lees Summit","state":"MO","lat":38.9142,"long":-94.4073},{"zip":"64082","city":"Lees Summit","state":"MO","lat":38.8518,"long":-94.3944},{"zip":"64086","city":"Lees Summit","state":"MO","lat":38.944,"long":-94.2881},{"zip":"64088","city":"Sibley","state":"MO","lat":39.1584,"long":-94.1844},{"zip":"64019","city":"Centerview","state":"MO","lat":38.7897,"long":-93.8702},{"zip":"64040","city":"Holden","state":"MO","lat":38.7186,"long":-93.9856},{"zip":"64061","city":"Kingsville","state":"MO","lat":38.8178,"long":-94.0462},{"zip":"64093","city":"Warrensburg","state":"MO","lat":38.7667,"long":-93.7273},{"zip":"64001","city":"Alma","state":"MO","lat":39.1048,"long":-93.5429},{"zip":"64011","city":"Bates City","state":"MO","lat":39.0219,"long":-94.0798},{"zip":"64020","city":"Concordia","state":"MO","lat":38.9776,"long":-93.5812},{"zip":"64021","city":"Corder","state":"MO","lat":39.1024,"long":-93.6391},{"zip":"64022","city":"Dover","state":"MO","lat":39.1926,"long":-93.6684},{"zip":"64037","city":"Higginsville","state":"MO","lat":39.0705,"long":-93.7133},{"zip":"64067","city":"Lexington","state":"MO","lat":39.1742,"long":-93.8714},{"zip":"64071","city":"Mayview","state":"MO","lat":39.0459,"long":-93.8353},{"zip":"64074","city":"Napoleon","state":"MO","lat":39.114,"long":-94.0709},{"zip":"64076","city":"Odessa","state":"MO","lat":38.9829,"long":-93.9757},{"zip":"64096","city":"Waverly","state":"MO","lat":39.2055,"long":-93.5257},{"zip":"64097","city":"Wellington","state":"MO","lat":39.1258,"long":-93.9855},{"zip":"64018","city":"Camden Point","state":"MO","lat":39.4515,"long":-94.7444},{"zip":"64028","city":"Farley","state":"MO","lat":39.2839,"long":-94.8302},{"zip":"64079","city":"Platte City","state":"MO","lat":39.3602,"long":-94.789},{"zip":"64092","city":"Waldron","state":"MO","lat":39.2289,"long":-94.8057},{"zip":"64098","city":"Weston","state":"MO","lat":39.4453,"long":-94.9145},{"zip":"64017","city":"Camden","state":"MO","lat":39.2048,"long":-94.0259},{"zip":"64035","city":"Hardin","state":"MO","lat":39.3504,"long":-93.8409},{"zip":"64036","city":"Henrietta","state":"MO","lat":39.2367,"long":-93.9369},{"zip":"64062","city":"Lawson","state":"MO","lat":39.4401,"long":-94.1966},{"zip":"64077","city":"Orrick","state":"MO","lat":39.2116,"long":-94.1239},{"zip":"64084","city":"Rayville","state":"MO","lat":39.3853,"long":-94.0284},{"zip":"64085","city":"Richmond","state":"MO","lat":39.2793,"long":-93.9792}]
