[{"zip":"64116","city":"Kansas City","state":"MO","lat":39.1479,"long":-94.568},{"zip":"64117","city":"Kansas City","state":"MO","lat":39.1651,"long":-94.5256},{"zip":"64118","city":"Kansas City","state":"MO","lat":39.2133,"long":-94.5743},{"zip":"64119","city":"Kansas City","state":"MO","lat":39.1979,"long":-94.5199},{"zip":"64144","city":"Kansas City","state":"MO","lat":39.2829,"long":-94.409},{"zip":"64155","city":"Kansas City","state":"MO","lat":39.2758,"long":-94.5704},{"zip":"64156","city":"Kansas City","state":"MO","lat":39.2901,"long":-94.5336},{"zip":"64157","city":"Kansas City","state":"MO","lat":39.2767,"long":-94.4595},{"zip":"64158","city":"Kansas City","state":"MO","lat":39.2284,"long":-94.472},{"zip":"64161","city":"Kansas City","state":"MO","lat":39.1661,"long":-94.464},{"zip":"64162","city":"Kansas City","state":"MO","lat":39.1562,"long":-94.4797},{"zip":"64165","city":"Kansas City","state":"MO","lat":39.3113,"long":-94.5431},{"zip":"64166","city":"Kansas City","state":"MO","lat":39.3294,"long":-94.5199},{"zip":"64167","city":"Kansas City","state":"MO","lat":39.32,"long":-94.4877},{"zip":"64101","city":"Kansas City","state":"MO","lat":39.1024,"long":-94.5986},{"zip":"64102","city":"Kansas City","state":"MO","lat":39.0861,"long":-94.6066},{"zip":"64105","city":"Kansas City","state":"MO","lat":39.1025,"long":-94.5901},{"zip":"64106","city":"Kansas City","state":"MO","lat":39.1052,"long":-94.5699},{"zip":"64108","city":"Kansas City","state":"MO","lat":39.0837,"long":-94.5868},{"zip":"64109","city":"Kansas City","state":"MO","lat":39.0663,"long":-94.5674},{"zip":"64110","city":"Kansas City","state":"MO","lat":39.0361,"long":-94.5722},{"zip":"64111","city":"Kansas City","state":"MO","lat":39.0565,"long":-94.5929},{"zip":"64112","city":"Kansas City","state":"MO","lat":39.0382,"long":-94.5929},{"zip":"64113","city":"Kansas City","state":"MO","lat":39.0123,"long":-94.5938},{"zip":"64114","city":"Kansas City","state":"MO","lat":38.9621,"long":-94.5959},{"zip":"64120","city":"Kansas City","state":"MO","lat":39.1222,"long":-94.5487},{"zip":"64121","city":"Kansas City","state":"MO","lat":39.0997,"long":-94.5786},{"zip":"64123","city":"Kansas City","state":"MO","lat":39.1136,"long":-94.5235},{"zip":"64124","city":"Kansas City","state":"MO","lat":39.1068,"long":-94.5394},{"zip":"64125","city":"Kansas City","state":"MO","lat":39.1042,"long":-94.4923},{"zip":"64126","city":"Kansas City","state":"MO","lat":39.0923,"long":-94.5047},{"zip":"64127","city":"Kansas City","state":"MO","lat":39.0883,"long":-94.5366},{"zip":"64128","city":"Kansas City","state":"MO","lat":39.0659,"long":-94.5386},{"zip":"64129","city":"Kansas City","state":"MO","lat":39.0401,"long":-94.4951},{"zip":"64130","city":"Kansas City","state":"MO","lat":39.0351,"long":-94.5467},{"zip":"64131","city":"Kansas City","state":"MO","lat":38.9713,"long":-94.5774},{"zip":"64132","city":"Kansas City","state":"MO","lat":38.9911,"long":-94.5522},{"zip":"64133","city":"Kansas City","state":"MO","lat":39.0323,"long":-94.47},{"zip":"64134","city":"Kansas City","state":"MO","lat":38.9296,"long":-94.5009},{"zip":"64136","city":"Kansas City","state":"MO","lat":39.0187,"long":-94.4008},{"zip":"64137","city":"Kansas City","state":"MO","lat":38.9299,"long":-94.5405},{"zip":"64138","city":"Kansas City","state":"MO","lat":38.9528,"long":-94.4705},{"zip":"64139","city":"Kansas City","state":"MO","lat":38.9659,"long":-94.4061},{"zip":"64141","city":"Kansas City","state":"MO","lat":39.0997,"long":-94.5786},{"zip":"64145","city":"Kansas City","state":"MO","lat":38.8977,"long":-94.5976},{"zip":"64146","city":"Kansas City","state":"MO","lat":38.8973,"long":-94.5764},{"zip":"64147","city":"Kansas City","state":"MO","lat":38.8549,"long":-94.5568},{"zip":"64148","city":"Kansas City","state":"MO","lat":39.0997,"long":-94.5786},{"zip":"64149","city":"Kansas City","state":"MO","lat":38.8606,"long":-94.4636},{"zip":"64170","city":"Kansas City","state":"MO","lat":39.0997,"long":-94.5786},{"zip":"64171","city":"Kansas City","state":"MO","lat":39.0997,"long":-94.5786},{"zip":"64179","city":"Kansas City","state":"MO","lat":39.0997,"long":-94.5786},{"zip":"64180","city":"Kansas City","state":"MO","lat":39.0997,"long":-94.5786},{"zip":"64184","city":"Kansas City","state":"MO","lat":39.0997,"long":-94.5786},{"zip":"64187","city":"Kansas City","state":"MO","lat":39.0997,"long":-94.5786},{"zip":"64188","city":"Kansas City","state":"MO","lat":39.0997,"long":-94.5786},{"zip":"64191","city":"Kansas City","state":"MO","lat":39.0997,"long":-94.5786},{"zip":"64196","city":"Kansas City","state":"MO","lat":39.0997,"long":-94.5786},{"zip":"64197","city":"Kansas City","state":"MO","lat":39.0997,"long":-94.5786},{"zip":"64198","city":"Kansas City","state":"MO","lat":39.0997,"long":-94.5786},{"zip":"64199","city":"Kansas City","state":"MO","lat":39.0997,"long":-94.5786},{"zip":"64150","city":"Riverside","state":"MO","lat":39.1776,"long":-94.6321},{"zip":"64151","city":"Kansas City","state":"MO","lat":39.2127,"long":-94.6383},{"zip":"64152","city":"Kansas City","state":"MO","lat":39.2176,"long":-94.7238},{"zip":"64153","city":"Kansas City","state":"MO","lat":39.2627,"long":-94.697},{"zip":"64154","city":"Kansas City","state":"MO","lat":39.2547,"long":-94.6354},{"zip":"64163","city":"Kansas City","state":"MO","lat":39.3402,"long":-94.6908},{"zip":"64164","city":"Kansas City","state":"MO","lat":39.3426,"long":-94.6446},{"zip":"64168","city":"Kansas City","state":"MO","lat":39.3432,"long":-94.8516},{"zip":"64190","city":"Kansas City","state":"MO","lat":39.3432,"long":-94.8516},{"zip":"64195","city":"Kansas City","state":"MO","lat":39.3432,"long":-94.8516}]
