[{"zip":"64421","city":"Amazonia","state":"MO","lat":39.9092,"long":-94.9113},{"zip":"64427","city":"Bolckow","state":"MO","lat":40.1007,"long":-94.8847},{"zip":"64436","city":"Cosby","state":"MO","lat":39.8555,"long":-94.6977},{"zip":"64449","city":"Fillmore","state":"MO","lat":40.0142,"long":-94.9555},{"zip":"64459","city":"Helena","state":"MO","lat":39.9295,"long":-94.6465},{"zip":"64480","city":"Rea","state":"MO","lat":40.0593,"long":-94.7002},{"zip":"64483","city":"Rosendale","state":"MO","lat":40.0399,"long":-94.8328},{"zip":"64485","city":"Savannah","state":"MO","lat":39.9168,"long":-94.8267},{"zip":"64446","city":"Fairfax","state":"MO","lat":40.3302,"long":-95.3751},{"zip":"64482","city":"Rock Port","state":"MO","lat":40.4306,"long":-95.5274},{"zip":"64491","city":"Tarkio","state":"MO","lat":40.4418,"long":-95.3786},{"zip":"64496","city":"Watson","state":"MO","lat":40.478,"long":-95.6193},{"zip":"64498","city":"Westboro","state":"MO","lat":40.5357,"long":-95.3134},{"zip":"64401","city":"Agency","state":"MO","lat":39.6662,"long":-94.717},{"zip":"64440","city":"De Kalb","state":"MO","lat":39.5834,"long":-94.927},{"zip":"64443","city":"Easton","state":"MO","lat":39.7517,"long":-94.6582},{"zip":"64448","city":"Faucett","state":"MO","lat":39.5891,"long":-94.7913},{"zip":"64484","city":"Rushville","state":"MO","lat":39.5653,"long":-95.0413},{"zip":"64429","city":"Cameron","state":"MO","lat":39.7309,"long":-94.2437},{"zip":"64454","city":"Gower","state":"MO","lat":39.602,"long":-94.5965},{"zip":"64465","city":"Lathrop","state":"MO","lat":39.5177,"long":-94.3093},{"zip":"64477","city":"Plattsburg","state":"MO","lat":39.5705,"long":-94.4338},{"zip":"64492","city":"Trimble","state":"MO","lat":39.4871,"long":-94.5512},{"zip":"64493","city":"Turney","state":"MO","lat":39.6318,"long":-94.2972},{"zip":"64422","city":"Amity","state":"MO","lat":39.8837,"long":-94.5136},{"zip":"64430","city":"Clarksdale","state":"MO","lat":39.8137,"long":-94.5421},{"zip":"64469","city":"Maysville","state":"MO","lat":39.9112,"long":-94.3548},{"zip":"64474","city":"Osborn","state":"MO","lat":39.7912,"long":-94.3974},{"zip":"64490","city":"Stewartsville","state":"MO","lat":39.7984,"long":-94.5175},{"zip":"64494","city":"Union Star","state":"MO","lat":39.9846,"long":-94.5787},{"zip":"64497","city":"Weatherby","state":"MO","lat":39.9277,"long":-94.2429},{"zip":"64402","city":"Albany","state":"MO","lat":40.2513,"long":-94.327},{"zip":"64438","city":"Darlington","state":"MO","lat":40.1955,"long":-94.4049},{"zip":"64453","city":"Gentry","state":"MO","lat":40.3411,"long":-94.4142},{"zip":"64463","city":"King City","state":"MO","lat":40.0652,"long":-94.5234},{"zip":"64489","city":"Stanberry","state":"MO","lat":40.2293,"long":-94.5387},{"zip":"64424","city":"Bethany","state":"MO","lat":40.2601,"long":-94.0189},{"zip":"64426","city":"Blythedale","state":"MO","lat":40.5024,"long":-93.8954},{"zip":"64442","city":"Eagleville","state":"MO","lat":40.4912,"long":-93.9951},{"zip":"64458","city":"Hatfield","state":"MO","lat":40.5219,"long":-94.1691},{"zip":"64467","city":"Martinsville","state":"MO","lat":40.3662,"long":-94.1645},{"zip":"64471","city":"New Hampton","state":"MO","lat":40.2444,"long":-94.1786},{"zip":"64481","city":"Ridgeway","state":"MO","lat":40.3999,"long":-93.9575},{"zip":"64437","city":"Craig","state":"MO","lat":40.1267,"long":-95.3291},{"zip":"64451","city":"Forest City","state":"MO","lat":39.9897,"long":-95.1916},{"zip":"64466","city":"Maitland","state":"MO","lat":40.1991,"long":-95.0927},{"zip":"64470","city":"Mound City","state":"MO","lat":40.1362,"long":-95.2138},{"zip":"64473","city":"Oregon","state":"MO","lat":39.9809,"long":-95.1234},{"zip":"64423","city":"Barnard","state":"MO","lat":40.1862,"long":-94.8056},{"zip":"64428","city":"Burlington Junction","state":"MO","lat":40.4475,"long":-95.063},{"zip":"64431","city":"Clearmont","state":"MO","lat":40.5175,"long":-95.0055},{"zip":"64432","city":"Clyde","state":"MO","lat":40.2635,"long":-94.6687},{"zip":"64433","city":"Conception","state":"MO","lat":40.2428,"long":-94.6869},{"zip":"64434","city":"Conception Junction","state":"MO","lat":40.2659,"long":-94.6915},{"zip":"64445","city":"Elmo","state":"MO","lat":40.5185,"long":-95.1236},{"zip":"64455","city":"Graham","state":"MO","lat":40.2012,"long":-95.0121},{"zip":"64457","city":"Guilford","state":"MO","lat":40.1746,"long":-94.6951},{"zip":"64461","city":"Hopkins","state":"MO","lat":40.5483,"long":-94.8189},{"zip":"64468","city":"Maryville","state":"MO","lat":40.3434,"long":-94.8735},{"zip":"64475","city":"Parnell","state":"MO","lat":40.44,"long":-94.6233},{"zip":"64476","city":"Pickering","state":"MO","lat":40.4591,"long":-94.8411},{"zip":"64479","city":"Ravenwood","state":"MO","lat":40.3579,"long":-94.6805},{"zip":"64487","city":"Skidmore","state":"MO","lat":40.2896,"long":-95.0792},{"zip":"64439","city":"Dearborn","state":"MO","lat":39.5172,"long":-94.7664},{"zip":"64444","city":"Edgerton","state":"MO","lat":39.4742,"long":-94.6352},{"zip":"64420","city":"Allendale","state":"MO","lat":40.4855,"long":-94.2886},{"zip":"64441","city":"Denver","state":"MO","lat":40.4181,"long":-94.3066},{"zip":"64456","city":"Grant City","state":"MO","lat":40.4924,"long":-94.3979},{"zip":"64486","city":"Sheridan","state":"MO","lat":40.4928,"long":-94.5701},{"zip":"64499","city":"Worth","state":"MO","lat":40.3939,"long":-94.4398}]
