[{"zip":"64624","city":"Braymer","state":"MO","lat":39.5915,"long":-93.7887},{"zip":"64625","city":"Breckenridge","state":"MO","lat":39.7582,"long":-93.8068},{"zip":"64637","city":"Cowgill","state":"MO","lat":39.5643,"long":-93.9295},{"zip":"64644","city":"Hamilton","state":"MO","lat":39.7364,"long":-93.9909},{"zip":"64649","city":"Kidder","state":"MO","lat":39.7803,"long":-94.1024},{"zip":"64650","city":"Kingston","state":"MO","lat":39.6508,"long":-94.0827},{"zip":"64671","city":"Polo","state":"MO","lat":39.5647,"long":-94.0743},{"zip":"64622","city":"Bogard","state":"MO","lat":39.4994,"long":-93.5374},{"zip":"64623","city":"Bosworth","state":"MO","lat":39.4767,"long":-93.3335},{"zip":"64633","city":"Carrollton","state":"MO","lat":39.3673,"long":-93.4926},{"zip":"64639","city":"De Witt","state":"MO","lat":39.384,"long":-93.2238},{"zip":"64643","city":"Hale","state":"MO","lat":39.5953,"long":-93.3445},{"zip":"64668","city":"Norborne","state":"MO","lat":39.3299,"long":-93.6761},{"zip":"64680","city":"Stet","state":"MO","lat":39.4231,"long":-93.7588},{"zip":"64682","city":"Tina","state":"MO","lat":39.5518,"long":-93.4647},{"zip":"64660","city":"Mendon","state":"MO","lat":39.5828,"long":-93.0892},{"zip":"64676","city":"Rothville","state":"MO","lat":39.6627,"long":-93.0467},{"zip":"64681","city":"Sumner","state":"MO","lat":39.655,"long":-93.2241},{"zip":"64620","city":"Altamont","state":"MO","lat":39.896,"long":-94.0897},{"zip":"64636","city":"Coffey","state":"MO","lat":40.0999,"long":-94.0252},{"zip":"64640","city":"Gallatin","state":"MO","lat":39.9025,"long":-93.9787},{"zip":"64642","city":"Gilman City","state":"MO","lat":40.145,"long":-93.832},{"zip":"64647","city":"Jameson","state":"MO","lat":40.0046,"long":-93.9597},{"zip":"64648","city":"Jamesport","state":"MO","lat":39.9837,"long":-93.78},{"zip":"64654","city":"Lock Springs","state":"MO","lat":39.8489,"long":-93.7774},{"zip":"64670","city":"Pattonsburg","state":"MO","lat":40.0428,"long":-94.1343},{"zip":"64689","city":"Winston","state":"MO","lat":39.8499,"long":-94.1487},{"zip":"64657","city":"Mc Fall","state":"MO","lat":40.1051,"long":-94.3003},{"zip":"64641","city":"Galt","state":"MO","lat":40.144,"long":-93.3953},{"zip":"64652","city":"Laredo","state":"MO","lat":40.0144,"long":-93.4407},{"zip":"64679","city":"Spickard","state":"MO","lat":40.2439,"long":-93.5944},{"zip":"64683","city":"Trenton","state":"MO","lat":40.0823,"long":-93.6086},{"zip":"64632","city":"Cainsville","state":"MO","lat":40.4578,"long":-93.759},{"zip":"64628","city":"Brookfield","state":"MO","lat":39.7846,"long":-93.0719},{"zip":"64630","city":"Browning","state":"MO","lat":40.029,"long":-93.1607},{"zip":"64631","city":"Bucklin","state":"MO","lat":39.8006,"long":-92.8928},{"zip":"64651","city":"Laclede","state":"MO","lat":39.7837,"long":-93.168},{"zip":"64653","city":"Linneus","state":"MO","lat":39.9099,"long":-93.1885},{"zip":"64658","city":"Marceline","state":"MO","lat":39.7125,"long":-92.9455},{"zip":"64659","city":"Meadville","state":"MO","lat":39.7795,"long":-93.3014},{"zip":"64674","city":"Purdin","state":"MO","lat":39.9529,"long":-93.17},{"zip":"64601","city":"Chillicothe","state":"MO","lat":39.7966,"long":-93.5509},{"zip":"64635","city":"Chula","state":"MO","lat":39.9226,"long":-93.4841},{"zip":"64638","city":"Dawn","state":"MO","lat":39.6665,"long":-93.5964},{"zip":"64656","city":"Ludlow","state":"MO","lat":39.6551,"long":-93.7046},{"zip":"64664","city":"Mooresville","state":"MO","lat":39.7425,"long":-93.7169},{"zip":"64686","city":"Utica","state":"MO","lat":39.7417,"long":-93.6289},{"zip":"64688","city":"Wheeling","state":"MO","lat":39.8011,"long":-93.3868},{"zip":"64661","city":"Mercer","state":"MO","lat":40.5169,"long":-93.5242},{"zip":"64673","city":"Princeton","state":"MO","lat":40.3855,"long":-93.5774},{"zip":"64655","city":"Lucerne","state":"MO","lat":40.4382,"long":-93.2867},{"zip":"64672","city":"Powersville","state":"MO","lat":40.5492,"long":-93.3002},{"zip":"64645","city":"Harris","state":"MO","lat":40.3075,"long":-93.3501},{"zip":"64646","city":"Humphreys","state":"MO","lat":40.1144,"long":-93.3015},{"zip":"64667","city":"Newtown","state":"MO","lat":40.3612,"long":-93.3073}]
