[{"zip":"64748","city":"Golden City","state":"MO","lat":37.3995,"long":-94.1027},{"zip":"64759","city":"Lamar","state":"MO","lat":37.5191,"long":-94.3364},{"zip":"64762","city":"Liberal","state":"MO","lat":37.5725,"long":-94.5204},{"zip":"64766","city":"Milford","state":"MO","lat":37.5848,"long":-94.1572},{"zip":"64769","city":"Mindenmines","state":"MO","lat":37.452,"long":-94.5756},{"zip":"64720","city":"Adrian","state":"MO","lat":38.4125,"long":-94.3683},{"zip":"64722","city":"Amoret","state":"MO","lat":38.2605,"long":-94.5734},{"zip":"64723","city":"Amsterdam","state":"MO","lat":38.3954,"long":-94.5763},{"zip":"64730","city":"Butler","state":"MO","lat":38.2712,"long":-94.3137},{"zip":"64742","city":"Drexel","state":"MO","lat":38.4956,"long":-94.5928},{"zip":"64745","city":"Foster","state":"MO","lat":38.1661,"long":-94.5075},{"zip":"64752","city":"Hume","state":"MO","lat":38.09,"long":-94.5838},{"zip":"64779","city":"Rich Hill","state":"MO","lat":38.0944,"long":-94.3635},{"zip":"64780","city":"Rockville","state":"MO","lat":38.0766,"long":-94.1299},{"zip":"64701","city":"Harrisonville","state":"MO","lat":38.6419,"long":-94.3285},{"zip":"64725","city":"Archie","state":"MO","lat":38.4986,"long":-94.363},{"zip":"64734","city":"Cleveland","state":"MO","lat":38.6898,"long":-94.5695},{"zip":"64739","city":"Creighton","state":"MO","lat":38.5078,"long":-94.0926},{"zip":"64743","city":"East Lynne","state":"MO","lat":38.6682,"long":-94.2333},{"zip":"64746","city":"Freeman","state":"MO","lat":38.6245,"long":-94.4956},{"zip":"64747","city":"Garden City","state":"MO","lat":38.5681,"long":-94.1825},{"zip":"64744","city":"El Dorado Springs","state":"MO","lat":37.8652,"long":-94.0124},{"zip":"64756","city":"Jerico Springs","state":"MO","lat":37.6613,"long":-94.0129},{"zip":"64726","city":"Blairstown","state":"MO","lat":38.5319,"long":-93.9221},{"zip":"64735","city":"Clinton","state":"MO","lat":38.4018,"long":-93.785},{"zip":"64740","city":"Deepwater","state":"MO","lat":38.2432,"long":-93.7303},{"zip":"64770","city":"Montrose","state":"MO","lat":38.2597,"long":-93.9952},{"zip":"64788","city":"Urich","state":"MO","lat":38.4449,"long":-93.9785},{"zip":"64755","city":"Jasper","state":"MO","lat":37.3362,"long":-94.3013},{"zip":"64733","city":"Chilhowee","state":"MO","lat":38.6126,"long":-93.8653},{"zip":"64761","city":"Leeton","state":"MO","lat":38.5831,"long":-93.6947},{"zip":"64724","city":"Appleton City","state":"MO","lat":38.1848,"long":-94.0229},{"zip":"64738","city":"Collins","state":"MO","lat":37.881,"long":-93.6608},{"zip":"64763","city":"Lowry City","state":"MO","lat":38.1404,"long":-93.7114},{"zip":"64776","city":"Osceola","state":"MO","lat":38.0286,"long":-93.7536},{"zip":"64781","city":"Roscoe","state":"MO","lat":37.9728,"long":-93.8122},{"zip":"64728","city":"Bronaugh","state":"MO","lat":37.69,"long":-94.486},{"zip":"64741","city":"Deerfield","state":"MO","lat":37.8197,"long":-94.5608},{"zip":"64750","city":"Harwood","state":"MO","lat":37.953,"long":-94.1402},{"zip":"64765","city":"Metz","state":"MO","lat":37.9975,"long":-94.4433},{"zip":"64767","city":"Milo","state":"MO","lat":37.7446,"long":-94.3046},{"zip":"64771","city":"Moundville","state":"MO","lat":37.7476,"long":-94.4496},{"zip":"64772","city":"Nevada","state":"MO","lat":37.8409,"long":-94.3571},{"zip":"64778","city":"Richards","state":"MO","lat":37.9061,"long":-94.5592},{"zip":"64783","city":"Schell City","state":"MO","lat":38.0094,"long":-94.1579},{"zip":"64784","city":"Sheldon","state":"MO","lat":37.684,"long":-94.2548},{"zip":"64790","city":"Walker","state":"MO","lat":37.893,"long":-94.2293}]
