[{"zip":"64874","city":"Wheaton","state":"MO","lat":36.7651,"long":-94.0492},{"zip":"64801","city":"Joplin","state":"MO","lat":37.0969,"long":-94.5051},{"zip":"64802","city":"Joplin","state":"MO","lat":37.0842,"long":-94.5133},{"zip":"64803","city":"Joplin","state":"MO","lat":37.0842,"long":-94.5133},{"zip":"64804","city":"Joplin","state":"MO","lat":37.0465,"long":-94.5103},{"zip":"64830","city":"Alba","state":"MO","lat":37.2367,"long":-94.418},{"zip":"64832","city":"Asbury","state":"MO","lat":37.2942,"long":-94.5655},{"zip":"64833","city":"Avilla","state":"MO","lat":37.1953,"long":-94.1297},{"zip":"64834","city":"Carl Junction","state":"MO","lat":37.1795,"long":-94.555},{"zip":"64835","city":"Carterville","state":"MO","lat":37.1507,"long":-94.4359},{"zip":"64836","city":"Carthage","state":"MO","lat":37.1597,"long":-94.3112},{"zip":"64841","city":"Duenweg","state":"MO","lat":37.076,"long":-94.4071},{"zip":"64848","city":"La Russell","state":"MO","lat":37.1739,"long":-94.0329},{"zip":"64849","city":"Neck City","state":"MO","lat":37.257,"long":-94.4444},{"zip":"64855","city":"Oronogo","state":"MO","lat":37.2717,"long":-94.4865},{"zip":"64857","city":"Purcell","state":"MO","lat":37.2423,"long":-94.4352},{"zip":"64859","city":"Reeds","state":"MO","lat":37.1225,"long":-94.1613},{"zip":"64862","city":"Sarcoxie","state":"MO","lat":37.0724,"long":-94.1151},{"zip":"64870","city":"Webb City","state":"MO","lat":37.144,"long":-94.4727},{"zip":"64831","city":"Anderson","state":"MO","lat":36.6506,"long":-94.4436},{"zip":"64843","city":"Goodman","state":"MO","lat":36.7323,"long":-94.3986},{"zip":"64847","city":"Lanagan","state":"MO","lat":36.606,"long":-94.4551},{"zip":"64854","city":"Noel","state":"MO","lat":36.5417,"long":-94.4906},{"zip":"64856","city":"Pineville","state":"MO","lat":36.574,"long":-94.377},{"zip":"64861","city":"Rocky Comfort","state":"MO","lat":36.7175,"long":-94.1091},{"zip":"64863","city":"South West City","state":"MO","lat":36.5319,"long":-94.5961},{"zip":"64868","city":"Tiff City","state":"MO","lat":36.6684,"long":-94.6172},{"zip":"64840","city":"Diamond","state":"MO","lat":37.006,"long":-94.3204},{"zip":"64842","city":"Fairview","state":"MO","lat":36.8254,"long":-94.0912},{"zip":"64844","city":"Granby","state":"MO","lat":36.9066,"long":-94.2643},{"zip":"64850","city":"Neosho","state":"MO","lat":36.8706,"long":-94.3862},{"zip":"64853","city":"Newtonia","state":"MO","lat":36.8767,"long":-94.1855},{"zip":"64858","city":"Racine","state":"MO","lat":36.901,"long":-94.5321},{"zip":"64864","city":"Saginaw","state":"MO","lat":37.024,"long":-94.4683},{"zip":"64865","city":"Seneca","state":"MO","lat":36.8408,"long":-94.5781},{"zip":"64866","city":"Stark City","state":"MO","lat":36.8785,"long":-94.1548},{"zip":"64867","city":"Stella","state":"MO","lat":36.7516,"long":-94.2086},{"zip":"64873","city":"Wentworth","state":"MO","lat":37.0177,"long":-94.0514}]
