[{"zip":"65010","city":"Ashland","state":"MO","lat":38.7878,"long":-92.2537},{"zip":"65039","city":"Hartsburg","state":"MO","lat":38.7159,"long":-92.2864},{"zip":"65043","city":"Holts Summit","state":"MO","lat":38.6328,"long":-92.1163},{"zip":"65059","city":"Mokane","state":"MO","lat":38.6998,"long":-91.8868},{"zip":"65063","city":"New Bloomfield","state":"MO","lat":38.71,"long":-92.083},{"zip":"65067","city":"Portland","state":"MO","lat":38.7109,"long":-91.7177},{"zip":"65077","city":"Steedman","state":"MO","lat":38.7566,"long":-91.7888},{"zip":"65080","city":"Tebbetts","state":"MO","lat":38.6402,"long":-91.9673},{"zip":"65020","city":"Camdenton","state":"MO","lat":38.0185,"long":-92.7677},{"zip":"65049","city":"Lake Ozark","state":"MO","lat":38.2003,"long":-92.6684},{"zip":"65052","city":"Linn Creek","state":"MO","lat":38.0605,"long":-92.6831},{"zip":"65065","city":"Osage Beach","state":"MO","lat":38.138,"long":-92.6664},{"zip":"65079","city":"Sunrise Beach","state":"MO","lat":38.1558,"long":-92.7854},{"zip":"65023","city":"Centertown","state":"MO","lat":38.6297,"long":-92.3995},{"zip":"65032","city":"Eugene","state":"MO","lat":38.3424,"long":-92.3823},{"zip":"65040","city":"Henley","state":"MO","lat":38.3445,"long":-92.3224},{"zip":"65053","city":"Lohman","state":"MO","lat":38.5484,"long":-92.3842},{"zip":"65074","city":"Russellville","state":"MO","lat":38.5005,"long":-92.4291},{"zip":"65076","city":"Saint Thomas","state":"MO","lat":38.3912,"long":-92.1894},{"zip":"65068","city":"Prairie Home","state":"MO","lat":38.8253,"long":-92.5974},{"zip":"65014","city":"Bland","state":"MO","lat":38.3074,"long":-91.6263},{"zip":"65036","city":"Gasconade","state":"MO","lat":38.6703,"long":-91.5592},{"zip":"65041","city":"Hermann","state":"MO","lat":38.5876,"long":-91.4991},{"zip":"65061","city":"Morrison","state":"MO","lat":38.606,"long":-91.658},{"zip":"65062","city":"Mount Sterling","state":"MO","lat":38.4956,"long":-91.6515},{"zip":"65066","city":"Owensville","state":"MO","lat":38.3511,"long":-91.4867},{"zip":"65013","city":"Belle","state":"MO","lat":38.2711,"long":-91.7303},{"zip":"65017","city":"Brumley","state":"MO","lat":38.0709,"long":-92.4747},{"zip":"65026","city":"Eldon","state":"MO","lat":38.3401,"long":-92.5736},{"zip":"65047","city":"Kaiser","state":"MO","lat":38.1637,"long":-92.5799},{"zip":"65064","city":"Olean","state":"MO","lat":38.4109,"long":-92.5294},{"zip":"65075","city":"Saint Elizabeth","state":"MO","lat":38.2712,"long":-92.2635},{"zip":"65082","city":"Tuscumbia","state":"MO","lat":38.2181,"long":-92.4461},{"zip":"65083","city":"Ulman","state":"MO","lat":38.1505,"long":-92.433},{"zip":"65018","city":"California","state":"MO","lat":38.6224,"long":-92.5456},{"zip":"65025","city":"Clarksburg","state":"MO","lat":38.6432,"long":-92.6729},{"zip":"65034","city":"Fortuna","state":"MO","lat":38.5667,"long":-92.798},{"zip":"65042","city":"High Point","state":"MO","lat":38.6749,"long":-92.6109},{"zip":"65046","city":"Jamestown","state":"MO","lat":38.7793,"long":-92.4807},{"zip":"65050","city":"Latham","state":"MO","lat":38.5466,"long":-92.6817},{"zip":"65055","city":"Mc Girk","state":"MO","lat":38.6749,"long":-92.6109},{"zip":"65081","city":"Tipton","state":"MO","lat":38.6548,"long":-92.7814},{"zip":"65069","city":"Rhineland","state":"MO","lat":38.7942,"long":-91.5737},{"zip":"65011","city":"Barnett","state":"MO","lat":38.3967,"long":-92.6686},{"zip":"65037","city":"Gravois Mills","state":"MO","lat":38.2584,"long":-92.823},{"zip":"65038","city":"Laurie","state":"MO","lat":38.1992,"long":-92.8335},{"zip":"65072","city":"Rocky Mount","state":"MO","lat":38.2911,"long":-92.7059},{"zip":"65078","city":"Stover","state":"MO","lat":38.4414,"long":-92.9947},{"zip":"65084","city":"Versailles","state":"MO","lat":38.4365,"long":-92.8258},{"zip":"65001","city":"Argyle","state":"MO","lat":38.2986,"long":-92.0155},{"zip":"65016","city":"Bonnots Mill","state":"MO","lat":38.5533,"long":-91.9293},{"zip":"65024","city":"Chamois","state":"MO","lat":38.6527,"long":-91.7697},{"zip":"65035","city":"Freeburg","state":"MO","lat":38.3551,"long":-91.9276},{"zip":"65048","city":"Koeltztown","state":"MO","lat":38.3615,"long":-92.0468},{"zip":"65051","city":"Linn","state":"MO","lat":38.4739,"long":-91.8195},{"zip":"65054","city":"Loose Creek","state":"MO","lat":38.4717,"long":-91.9591},{"zip":"65058","city":"Meta","state":"MO","lat":38.25,"long":-92.1358},{"zip":"65085","city":"Westphalia","state":"MO","lat":38.427,"long":-92.0392}]
