[{"zip":"65232","city":"Benton City","state":"MO","lat":39.1209,"long":-91.7661},{"zip":"65264","city":"Martinsburg","state":"MO","lat":39.0968,"long":-91.6646},{"zip":"65265","city":"Mexico","state":"MO","lat":39.1712,"long":-91.8895},{"zip":"65280","city":"Rush Hill","state":"MO","lat":39.21,"long":-91.7216},{"zip":"65285","city":"Thompson","state":"MO","lat":39.2128,"long":-92.0046},{"zip":"65201","city":"Columbia","state":"MO","lat":38.9382,"long":-92.3049},{"zip":"65202","city":"Columbia","state":"MO","lat":38.995,"long":-92.3112},{"zip":"65203","city":"Columbia","state":"MO","lat":38.9348,"long":-92.3639},{"zip":"65205","city":"Columbia","state":"MO","lat":39.0447,"long":-92.3496},{"zip":"65211","city":"Columbia","state":"MO","lat":38.9517,"long":-92.3341},{"zip":"65212","city":"Columbia","state":"MO","lat":38.9376,"long":-92.3304},{"zip":"65215","city":"Columbia","state":"MO","lat":38.9532,"long":-92.3208},{"zip":"65216","city":"Columbia","state":"MO","lat":38.9517,"long":-92.3341},{"zip":"65217","city":"Columbia","state":"MO","lat":38.9517,"long":-92.3341},{"zip":"65218","city":"Columbia","state":"MO","lat":38.9517,"long":-92.3341},{"zip":"65240","city":"Centralia","state":"MO","lat":39.1961,"long":-92.1472},{"zip":"65255","city":"Hallsville","state":"MO","lat":39.1054,"long":-92.2239},{"zip":"65256","city":"Harrisburg","state":"MO","lat":39.1203,"long":-92.441},{"zip":"65279","city":"Rocheport","state":"MO","lat":38.9756,"long":-92.5079},{"zip":"65284","city":"Sturgeon","state":"MO","lat":39.2057,"long":-92.2953},{"zip":"65299","city":"Mid Missouri","state":"MO","lat":38.9033,"long":-92.1022},{"zip":"65231","city":"Auxvasse","state":"MO","lat":39.0122,"long":-91.8858},{"zip":"65251","city":"Fulton","state":"MO","lat":38.8518,"long":-91.9605},{"zip":"65262","city":"Kingdom City","state":"MO","lat":38.9551,"long":-91.952},{"zip":"65236","city":"Brunswick","state":"MO","lat":39.4374,"long":-93.1187},{"zip":"65246","city":"Dalton","state":"MO","lat":39.4035,"long":-92.9944},{"zip":"65261","city":"Keytesville","state":"MO","lat":39.4794,"long":-92.9302},{"zip":"65281","city":"Salisbury","state":"MO","lat":39.4319,"long":-92.8014},{"zip":"65286","city":"Triplett","state":"MO","lat":39.5011,"long":-93.1928},{"zip":"65233","city":"Boonville","state":"MO","lat":38.9536,"long":-92.745},{"zip":"65237","city":"Bunceton","state":"MO","lat":38.7881,"long":-92.7994},{"zip":"65276","city":"Pilot Grove","state":"MO","lat":38.8712,"long":-92.9305},{"zip":"65287","city":"Wooldridge","state":"MO","lat":38.8983,"long":-92.5667},{"zip":"65230","city":"Armstrong","state":"MO","lat":39.2566,"long":-92.709},{"zip":"65248","city":"Fayette","state":"MO","lat":39.143,"long":-92.6583},{"zip":"65250","city":"Franklin","state":"MO","lat":39.0668,"long":-92.8316},{"zip":"65254","city":"Glasgow","state":"MO","lat":39.2257,"long":-92.8318},{"zip":"65274","city":"New Franklin","state":"MO","lat":39.02,"long":-92.7386},{"zip":"65247","city":"Excello","state":"MO","lat":39.6455,"long":-92.4757},{"zip":"65258","city":"Holliday","state":"MO","lat":39.4904,"long":-92.1318},{"zip":"65263","city":"Madison","state":"MO","lat":39.4615,"long":-92.2287},{"zip":"65275","city":"Paris","state":"MO","lat":39.4932,"long":-92.0113},{"zip":"65282","city":"Santa Fe","state":"MO","lat":39.3989,"long":-91.8294},{"zip":"65283","city":"Stoutsville","state":"MO","lat":39.5594,"long":-91.8297},{"zip":"65239","city":"Cairo","state":"MO","lat":39.5114,"long":-92.44},{"zip":"65243","city":"Clark","state":"MO","lat":39.2811,"long":-92.3427},{"zip":"65244","city":"Clifton Hill","state":"MO","lat":39.426,"long":-92.6677},{"zip":"65257","city":"Higbee","state":"MO","lat":39.3055,"long":-92.5163},{"zip":"65259","city":"Huntsville","state":"MO","lat":39.4354,"long":-92.553},{"zip":"65260","city":"Jacksonville","state":"MO","lat":39.5791,"long":-92.4315},{"zip":"65270","city":"Moberly","state":"MO","lat":39.4202,"long":-92.4358},{"zip":"65278","city":"Renick","state":"MO","lat":39.3414,"long":-92.411}]
