[{"zip":"65441","city":"Bourbon","state":"MO","lat":38.172,"long":-91.2225},{"zip":"65446","city":"Cherryville","state":"MO","lat":37.8066,"long":-91.2348},{"zip":"65449","city":"Cook Sta","state":"MO","lat":37.8242,"long":-91.5623},{"zip":"65453","city":"Cuba","state":"MO","lat":38.0926,"long":-91.4081},{"zip":"65456","city":"Davisville","state":"MO","lat":37.787,"long":-91.2116},{"zip":"65440","city":"Boss","state":"MO","lat":37.6373,"long":-91.2109},{"zip":"65439","city":"Bixby","state":"MO","lat":37.6603,"long":-91.1151},{"zip":"65463","city":"Eldridge","state":"MO","lat":37.8346,"long":-92.7382},{"zip":"65470","city":"Falcon","state":"MO","lat":37.6061,"long":-92.3466},{"zip":"65443","city":"Brinktown","state":"MO","lat":38.1483,"long":-92.1015},{"zip":"65486","city":"Iberia","state":"MO","lat":38.1219,"long":-92.2989},{"zip":"65401","city":"Rolla","state":"MO","lat":37.9485,"long":-91.7603},{"zip":"65402","city":"Rolla","state":"MO","lat":37.9514,"long":-91.7713},{"zip":"65409","city":"Rolla","state":"MO","lat":37.9514,"long":-91.7713},{"zip":"65436","city":"Beulah","state":"MO","lat":37.6158,"long":-91.9064},{"zip":"65461","city":"Duke","state":"MO","lat":37.6603,"long":-92.0107},{"zip":"65462","city":"Edgar Springs","state":"MO","lat":37.7365,"long":-91.8906},{"zip":"65452","city":"Crocker","state":"MO","lat":37.9446,"long":-92.27},{"zip":"65457","city":"Devils Elbow","state":"MO","lat":37.8512,"long":-92.0569},{"zip":"65459","city":"Dixon","state":"MO","lat":37.9848,"long":-92.0897},{"zip":"65473","city":"Fort Leonard Wood","state":"MO","lat":37.7677,"long":-92.112},{"zip":"65438","city":"Birch Tree","state":"MO","lat":36.9476,"long":-91.5008},{"zip":"65466","city":"Eminence","state":"MO","lat":37.1626,"long":-91.4519},{"zip":"65444","city":"Bucyrus","state":"MO","lat":37.3972,"long":-92.0465},{"zip":"65464","city":"Elk Creek","state":"MO","lat":37.1878,"long":-91.9134},{"zip":"65468","city":"Eunice","state":"MO","lat":37.248,"long":-91.7834},{"zip":"65479","city":"Hartshorn","state":"MO","lat":37.2843,"long":-91.6834},{"zip":"65483","city":"Houston","state":"MO","lat":37.3218,"long":-91.953},{"zip":"65484","city":"Huggins","state":"MO","lat":37.3538,"long":-92.2153}]
