[{"zip":"65567","city":"Stoutland","state":"MO","lat":37.8693,"long":-92.5114},{"zip":"65591","city":"Montreal","state":"MO","lat":37.9851,"long":-92.547},{"zip":"65535","city":"Leasburg","state":"MO","lat":38.092,"long":-91.2965},{"zip":"65565","city":"Steelville","state":"MO","lat":37.8904,"long":-91.3032},{"zip":"65586","city":"Wesco","state":"MO","lat":37.8585,"long":-91.4267},{"zip":"65590","city":"Long Lane","state":"MO","lat":37.5808,"long":-92.9309},{"zip":"65501","city":"Jadwin","state":"MO","lat":37.4867,"long":-91.571},{"zip":"65532","city":"Lake Spring","state":"MO","lat":37.7825,"long":-91.6788},{"zip":"65541","city":"Lenox","state":"MO","lat":37.6531,"long":-91.7613},{"zip":"65560","city":"Salem","state":"MO","lat":37.617,"long":-91.5258},{"zip":"65548","city":"Mountain View","state":"MO","lat":36.9892,"long":-91.7099},{"zip":"65566","city":"Viburnum","state":"MO","lat":37.7151,"long":-91.1289},{"zip":"65536","city":"Lebanon","state":"MO","lat":37.685,"long":-92.655},{"zip":"65543","city":"Lynchburg","state":"MO","lat":37.5054,"long":-92.3202},{"zip":"65580","city":"Vichy","state":"MO","lat":38.098,"long":-91.7788},{"zip":"65582","city":"Vienna","state":"MO","lat":38.1919,"long":-91.9422},{"zip":"65529","city":"Jerome","state":"MO","lat":37.9262,"long":-91.9777},{"zip":"65550","city":"Newburg","state":"MO","lat":37.9008,"long":-91.8807},{"zip":"65559","city":"Saint James","state":"MO","lat":38.0056,"long":-91.6076},{"zip":"65534","city":"Laquey","state":"MO","lat":37.6953,"long":-92.2808},{"zip":"65556","city":"Richland","state":"MO","lat":37.8528,"long":-92.3962},{"zip":"65583","city":"Waynesville","state":"MO","lat":37.7676,"long":-92.2105},{"zip":"65584","city":"Saint Robert","state":"MO","lat":37.8283,"long":-92.131},{"zip":"65546","city":"Montier","state":"MO","lat":36.987,"long":-91.5754},{"zip":"65588","city":"Winona","state":"MO","lat":37.0169,"long":-91.3121},{"zip":"65542","city":"Licking","state":"MO","lat":37.5091,"long":-91.8556},{"zip":"65552","city":"Plato","state":"MO","lat":37.5122,"long":-92.1709},{"zip":"65555","city":"Raymondville","state":"MO","lat":37.3569,"long":-91.8131},{"zip":"65557","city":"Roby","state":"MO","lat":37.5156,"long":-92.139},{"zip":"65564","city":"Solo","state":"MO","lat":37.2428,"long":-91.9624},{"zip":"65570","city":"Success","state":"MO","lat":37.4626,"long":-92.0909},{"zip":"65571","city":"Summersville","state":"MO","lat":37.1484,"long":-91.6828},{"zip":"65589","city":"Yukon","state":"MO","lat":37.2311,"long":-91.8244}]
