[{"zip":"65623","city":"Butterfield","state":"MO","lat":36.749,"long":-93.9064},{"zip":"65625","city":"Cassville","state":"MO","lat":36.6784,"long":-93.8467},{"zip":"65641","city":"Eagle Rock","state":"MO","lat":36.548,"long":-93.7336},{"zip":"65647","city":"Exeter","state":"MO","lat":36.6815,"long":-93.9702},{"zip":"65658","city":"Golden","state":"MO","lat":36.5625,"long":-93.623},{"zip":"65607","city":"Caplinger Mills","state":"MO","lat":37.7942,"long":-93.8044},{"zip":"65610","city":"Billings","state":"MO","lat":37.0628,"long":-93.5476},{"zip":"65620","city":"Bruner","state":"MO","lat":36.999,"long":-92.9692},{"zip":"65629","city":"Chadwick","state":"MO","lat":36.922,"long":-93.0451},{"zip":"65630","city":"Chestnutridge","state":"MO","lat":36.8359,"long":-93.2291},{"zip":"65631","city":"Clever","state":"MO","lat":37.0447,"long":-93.4383},{"zip":"65657","city":"Garrison","state":"MO","lat":36.8389,"long":-93.0196},{"zip":"65669","city":"Highlandville","state":"MO","lat":36.9408,"long":-93.268},{"zip":"65603","city":"Arcola","state":"MO","lat":37.5512,"long":-93.8619},{"zip":"65635","city":"Dadeville","state":"MO","lat":37.5105,"long":-93.6956},{"zip":"65646","city":"Everton","state":"MO","lat":37.3425,"long":-93.7024},{"zip":"65661","city":"Greenfield","state":"MO","lat":37.4197,"long":-93.8407},{"zip":"65682","city":"Lockwood","state":"MO","lat":37.386,"long":-93.9541},{"zip":"65622","city":"Buffalo","state":"MO","lat":37.6429,"long":-93.0906},{"zip":"65685","city":"Louisburg","state":"MO","lat":37.7542,"long":-93.1566},{"zip":"65608","city":"Ava","state":"MO","lat":36.9407,"long":-92.6765},{"zip":"65638","city":"Drury","state":"MO","lat":36.9319,"long":-92.3664},{"zip":"65604","city":"Ash Grove","state":"MO","lat":37.316,"long":-93.5781},{"zip":"65612","city":"Bois D Arc","state":"MO","lat":37.2214,"long":-93.5447},{"zip":"65619","city":"Brookline","state":"MO","lat":37.1634,"long":-93.4202},{"zip":"65648","city":"Fair Grove","state":"MO","lat":37.3721,"long":-93.1428},{"zip":"65634","city":"Cross Timbers","state":"MO","lat":38.0239,"long":-93.1978},{"zip":"65668","city":"Hermitage","state":"MO","lat":37.8969,"long":-93.2979},{"zip":"65626","city":"Caulfield","state":"MO","lat":36.6035,"long":-92.0678},{"zip":"65688","city":"Brandsville","state":"MO","lat":36.6488,"long":-91.6976},{"zip":"65632","city":"Conway","state":"MO","lat":37.5085,"long":-92.7891},{"zip":"65605","city":"Aurora","state":"MO","lat":36.9709,"long":-93.718},{"zip":"65654","city":"Freistatt","state":"MO","lat":37.0211,"long":-93.8974},{"zip":"65664","city":"Halltown","state":"MO","lat":37.1944,"long":-93.6275},{"zip":"65606","city":"Alton","state":"MO","lat":36.6929,"long":-91.3971},{"zip":"65690","city":"Couch","state":"MO","lat":36.5853,"long":-91.2724},{"zip":"65692","city":"Koshkonong","state":"MO","lat":36.6056,"long":-91.6304},{"zip":"65609","city":"Bakersfield","state":"MO","lat":36.5332,"long":-92.1507},{"zip":"65618","city":"Brixey","state":"MO","lat":36.759,"long":-92.4026},{"zip":"65637","city":"Dora","state":"MO","lat":36.756,"long":-92.2378},{"zip":"65655","city":"Gainesville","state":"MO","lat":36.5901,"long":-92.4162},{"zip":"65666","city":"Hardenville","state":"MO","lat":36.5892,"long":-92.3713},{"zip":"65676","city":"Isabella","state":"MO","lat":36.5749,"long":-92.6053},{"zip":"65601","city":"Aldrich","state":"MO","lat":37.5057,"long":-93.5576},{"zip":"65613","city":"Bolivar","state":"MO","lat":37.6085,"long":-93.4126},{"zip":"65617","city":"Brighton","state":"MO","lat":37.4728,"long":-93.3603},{"zip":"65640","city":"Dunnegan","state":"MO","lat":37.7031,"long":-93.5216},{"zip":"65645","city":"Eudora","state":"MO","lat":37.4767,"long":-93.5397},{"zip":"65649","city":"Fair Play","state":"MO","lat":37.6335,"long":-93.6064},{"zip":"65650","city":"Flemington","state":"MO","lat":37.7803,"long":-93.4471},{"zip":"65663","city":"Half Way","state":"MO","lat":37.6018,"long":-93.242},{"zip":"65674","city":"Humansville","state":"MO","lat":37.7923,"long":-93.5795},{"zip":"65611","city":"Blue Eye","state":"MO","lat":36.5493,"long":-93.3388},{"zip":"65624","city":"Cape Fair","state":"MO","lat":36.7311,"long":-93.5674},{"zip":"65633","city":"Crane","state":"MO","lat":36.9258,"long":-93.5303},{"zip":"65656","city":"Galena","state":"MO","lat":36.8198,"long":-93.4811},{"zip":"65675","city":"Hurley","state":"MO","lat":36.9305,"long":-93.4965},{"zip":"65681","city":"Lampe","state":"MO","lat":36.5767,"long":-93.4516},{"zip":"65686","city":"Kimberling City","state":"MO","lat":36.6393,"long":-93.4372},{"zip":"65614","city":"Bradleyville","state":"MO","lat":36.7659,"long":-92.9151},{"zip":"65615","city":"Branson","state":"MO","lat":36.661,"long":-93.2358},{"zip":"65616","city":"Branson","state":"MO","lat":36.669,"long":-93.2481},{"zip":"65627","city":"Cedarcreek","state":"MO","lat":36.571,"long":-93.0172},{"zip":"65653","city":"Forsyth","state":"MO","lat":36.6955,"long":-93.115},{"zip":"65672","city":"Hollister","state":"MO","lat":36.6107,"long":-93.2286},{"zip":"65673","city":"Hollister","state":"MO","lat":36.6179,"long":-93.2162},{"zip":"65679","city":"Kirbyville","state":"MO","lat":36.5792,"long":-93.1263},{"zip":"65680","city":"Kissee Mills","state":"MO","lat":36.6704,"long":-93.0377},{"zip":"65689","city":"Cabool","state":"MO","lat":37.1314,"long":-92.1144},{"zip":"65636","city":"Diggins","state":"MO","lat":37.1726,"long":-92.8543},{"zip":"65644","city":"Elkland","state":"MO","lat":37.4336,"long":-93.021},{"zip":"65652","city":"Fordland","state":"MO","lat":37.1447,"long":-92.9111},{"zip":"65660","city":"Graff","state":"MO","lat":37.3262,"long":-92.2647},{"zip":"65662","city":"Grovespring","state":"MO","lat":37.4947,"long":-92.6001},{"zip":"65667","city":"Hartville","state":"MO","lat":37.2735,"long":-92.5181}]
