[{"zip":"65708","city":"Monett","state":"MO","lat":36.9212,"long":-93.9258},{"zip":"65734","city":"Purdy","state":"MO","lat":36.8069,"long":-93.9164},{"zip":"65745","city":"Seligman","state":"MO","lat":36.5276,"long":-93.9359},{"zip":"65747","city":"Shell Knob","state":"MO","lat":36.6167,"long":-93.6249},{"zip":"65772","city":"Washburn","state":"MO","lat":36.5807,"long":-93.992},{"zip":"65786","city":"Macks Creek","state":"MO","lat":37.9616,"long":-92.9603},{"zip":"65787","city":"Roach","state":"MO","lat":38.1025,"long":-92.9148},{"zip":"65785","city":"Stockton","state":"MO","lat":37.7241,"long":-93.796},{"zip":"65714","city":"Nixa","state":"MO","lat":37.0512,"long":-93.2972},{"zip":"65720","city":"Oldfield","state":"MO","lat":36.9404,"long":-92.9528},{"zip":"65721","city":"Ozark","state":"MO","lat":37.0169,"long":-93.2022},{"zip":"65753","city":"Sparta","state":"MO","lat":36.9775,"long":-93.1065},{"zip":"65754","city":"Spokane","state":"MO","lat":36.8636,"long":-93.2754},{"zip":"65752","city":"South Greenfield","state":"MO","lat":37.3743,"long":-93.8445},{"zip":"65764","city":"Tunas","state":"MO","lat":37.8392,"long":-92.9808},{"zip":"65767","city":"Urbana","state":"MO","lat":37.8523,"long":-93.151},{"zip":"65783","city":"Windyville","state":"MO","lat":37.7182,"long":-92.9379},{"zip":"65755","city":"Squires","state":"MO","lat":36.8504,"long":-92.5844},{"zip":"65768","city":"Vanzant","state":"MO","lat":36.9698,"long":-92.3029},{"zip":"65738","city":"Republic","state":"MO","lat":37.123,"long":-93.48},{"zip":"65757","city":"Strafford","state":"MO","lat":37.2797,"long":-93.1066},{"zip":"65765","city":"Turners","state":"MO","lat":37.1809,"long":-93.1555},{"zip":"65770","city":"Walnut Grove","state":"MO","lat":37.3943,"long":-93.5044},{"zip":"65781","city":"Willard","state":"MO","lat":37.2962,"long":-93.4259},{"zip":"65724","city":"Pittsburg","state":"MO","lat":37.8442,"long":-93.3356},{"zip":"65732","city":"Preston","state":"MO","lat":37.939,"long":-93.1713},{"zip":"65735","city":"Quincy","state":"MO","lat":37.9379,"long":-93.3197},{"zip":"65774","city":"Weaubleau","state":"MO","lat":37.8906,"long":-93.5419},{"zip":"65779","city":"Wheatland","state":"MO","lat":37.9103,"long":-93.3981},{"zip":"65775","city":"West Plains","state":"MO","lat":36.7284,"long":-91.8717},{"zip":"65777","city":"Moody","state":"MO","lat":36.533,"long":-91.9898},{"zip":"65788","city":"Peace Valley","state":"MO","lat":36.8091,"long":-91.6938},{"zip":"65789","city":"Pomona","state":"MO","lat":36.8441,"long":-91.9137},{"zip":"65790","city":"Pottersville","state":"MO","lat":36.7068,"long":-92.044},{"zip":"65793","city":"Willow Springs","state":"MO","lat":36.9958,"long":-91.9405},{"zip":"65722","city":"Phillipsburg","state":"MO","lat":37.5832,"long":-92.7416},{"zip":"65705","city":"Marionville","state":"MO","lat":37.0009,"long":-93.6413},{"zip":"65707","city":"Miller","state":"MO","lat":37.2225,"long":-93.8422},{"zip":"65712","city":"Mount Vernon","state":"MO","lat":37.1045,"long":-93.7976},{"zip":"65723","city":"Pierce City","state":"MO","lat":36.973,"long":-94.0024},{"zip":"65756","city":"Stotts City","state":"MO","lat":37.1031,"long":-93.9543},{"zip":"65769","city":"Verona","state":"MO","lat":36.937,"long":-93.8005},{"zip":"65730","city":"Powell","state":"MO","lat":36.6237,"long":-94.1773},{"zip":"65778","city":"Myrtle","state":"MO","lat":36.5217,"long":-91.2706},{"zip":"65791","city":"Thayer","state":"MO","lat":36.5327,"long":-91.5418},{"zip":"65715","city":"Noble","state":"MO","lat":36.7441,"long":-92.5769},{"zip":"65729","city":"Pontiac","state":"MO","lat":36.5156,"long":-92.6038},{"zip":"65741","city":"Rockbridge","state":"MO","lat":36.7895,"long":-92.4091},{"zip":"65760","city":"Tecumseh","state":"MO","lat":36.5875,"long":-92.2598},{"zip":"65761","city":"Theodosia","state":"MO","lat":36.583,"long":-92.6628},{"zip":"65762","city":"Thornfield","state":"MO","lat":36.6875,"long":-92.6534},{"zip":"65766","city":"Udall","state":"MO","lat":36.544,"long":-92.2588},{"zip":"65773","city":"Wasola","state":"MO","lat":36.7573,"long":-92.5093},{"zip":"65784","city":"Zanoni","state":"MO","lat":36.6516,"long":-92.4423},{"zip":"65710","city":"Morrisville","state":"MO","lat":37.4686,"long":-93.4275},{"zip":"65725","city":"Pleasant Hope","state":"MO","lat":37.4615,"long":-93.2617},{"zip":"65727","city":"Polk","state":"MO","lat":37.7292,"long":-93.2994},{"zip":"65728","city":"Ponce De Leon","state":"MO","lat":36.7471,"long":-93.4586},{"zip":"65737","city":"Reeds Spring","state":"MO","lat":36.6907,"long":-93.3447},{"zip":"65726","city":"Point Lookout","state":"MO","lat":36.6165,"long":-93.2418},{"zip":"65731","city":"Powersite","state":"MO","lat":36.6578,"long":-93.1243},{"zip":"65733","city":"Protem","state":"MO","lat":36.5286,"long":-92.8465},{"zip":"65739","city":"Ridgedale","state":"MO","lat":36.5247,"long":-93.2778},{"zip":"65740","city":"Rockaway Beach","state":"MO","lat":36.7137,"long":-93.1715},{"zip":"65744","city":"Rueter","state":"MO","lat":36.6314,"long":-92.9188},{"zip":"65759","city":"Taneyville","state":"MO","lat":36.7405,"long":-93.028},{"zip":"65771","city":"Walnut Shade","state":"MO","lat":36.7704,"long":-93.2148},{"zip":"65706","city":"Marshfield","state":"MO","lat":37.3312,"long":-92.925},{"zip":"65713","city":"Niangua","state":"MO","lat":37.3985,"long":-92.7763},{"zip":"65742","city":"Rogersville","state":"MO","lat":37.131,"long":-93.0964},{"zip":"65746","city":"Seymour","state":"MO","lat":37.1667,"long":-92.7857},{"zip":"65702","city":"Macomb","state":"MO","lat":37.1049,"long":-92.4821},{"zip":"65704","city":"Mansfield","state":"MO","lat":37.1273,"long":-92.5936},{"zip":"65711","city":"Mountain Grove","state":"MO","lat":37.1626,"long":-92.2839},{"zip":"65717","city":"Norwood","state":"MO","lat":37.0687,"long":-92.4082}]
