[{"zip":"66732","city":"Elsmore","state":"KS","lat":37.8035,"long":-95.1546},{"zip":"66742","city":"Gas","state":"KS","lat":37.9232,"long":-95.3467},{"zip":"66748","city":"Humboldt","state":"KS","lat":37.8045,"long":-95.422},{"zip":"66749","city":"Iola","state":"KS","lat":37.9245,"long":-95.4},{"zip":"66751","city":"La Harpe","state":"KS","lat":37.917,"long":-95.2991},{"zip":"66755","city":"Moran","state":"KS","lat":37.9342,"long":-95.1647},{"zip":"66772","city":"Savonburg","state":"KS","lat":37.7517,"long":-95.1545},{"zip":"66015","city":"Colony","state":"KS","lat":38.0761,"long":-95.3287},{"zip":"66032","city":"Garnett","state":"KS","lat":38.2859,"long":-95.2594},{"zip":"66033","city":"Greeley","state":"KS","lat":38.3524,"long":-95.1188},{"zip":"66039","city":"Kincaid","state":"KS","lat":38.1104,"long":-95.1886},{"zip":"66091","city":"Welda","state":"KS","lat":38.1686,"long":-95.3096},{"zip":"66093","city":"Westphalia","state":"KS","lat":38.1718,"long":-95.4665},{"zip":"66002","city":"Atchison","state":"KS","lat":39.5594,"long":-95.1304},{"zip":"66016","city":"Cummings","state":"KS","lat":39.483,"long":-95.2863},{"zip":"66023","city":"Effingham","state":"KS","lat":39.5222,"long":-95.4008},{"zip":"66041","city":"Lancaster","state":"KS","lat":39.5952,"long":-95.3036},{"zip":"66058","city":"Muscotah","state":"KS","lat":39.5388,"long":-95.5175},{"zip":"66701","city":"Fort Scott","state":"KS","lat":37.8216,"long":-94.7148},{"zip":"66716","city":"Bronson","state":"KS","lat":37.9214,"long":-95.0303},{"zip":"66738","city":"Fulton","state":"KS","lat":38.0134,"long":-94.7183},{"zip":"66741","city":"Garland","state":"KS","lat":37.7175,"long":-94.6613},{"zip":"66754","city":"Mapleton","state":"KS","lat":38.0228,"long":-94.8735},{"zip":"66769","city":"Redfield","state":"KS","lat":37.8367,"long":-94.8805},{"zip":"66779","city":"Uniontown","state":"KS","lat":37.8473,"long":-94.9752},{"zip":"66424","city":"Everest","state":"KS","lat":39.688,"long":-95.4138},{"zip":"66425","city":"Fairview","state":"KS","lat":39.8445,"long":-95.711},{"zip":"66434","city":"Hiawatha","state":"KS","lat":39.7914,"long":-95.6004},{"zip":"66439","city":"Horton","state":"KS","lat":39.6789,"long":-95.5299},{"zip":"66515","city":"Morrill","state":"KS","lat":39.9356,"long":-95.712},{"zip":"66527","city":"Powhattan","state":"KS","lat":39.7177,"long":-95.6751},{"zip":"66532","city":"Robinson","state":"KS","lat":39.8182,"long":-95.4567},{"zip":"66842","city":"Cassoday","state":"KS","lat":38.0298,"long":-96.6746},{"zip":"66843","city":"Cedar Point","state":"KS","lat":38.26,"long":-96.8228},{"zip":"66845","city":"Cottonwood Falls","state":"KS","lat":38.3565,"long":-96.5418},{"zip":"66850","city":"Elmdale","state":"KS","lat":38.3779,"long":-96.6675},{"zip":"66862","city":"Matfield Green","state":"KS","lat":38.1448,"long":-96.5541},{"zip":"66869","city":"Strong City","state":"KS","lat":38.4129,"long":-96.5172},{"zip":"66713","city":"Baxter Springs","state":"KS","lat":37.0281,"long":-94.7393},{"zip":"66725","city":"Columbus","state":"KS","lat":37.1699,"long":-94.8899},{"zip":"66728","city":"Crestline","state":"KS","lat":37.1694,"long":-94.7041},{"zip":"66739","city":"Galena","state":"KS","lat":37.0632,"long":-94.6557},{"zip":"66770","city":"Riverton","state":"KS","lat":37.081,"long":-94.7175},{"zip":"66773","city":"Scammon","state":"KS","lat":37.2809,"long":-94.8092},{"zip":"66778","city":"Treece","state":"KS","lat":37.0005,"long":-94.8409},{"zip":"66781","city":"Weir","state":"KS","lat":37.2912,"long":-94.7286},{"zip":"66782","city":"West Mineral","state":"KS","lat":37.2851,"long":-94.9261},{"zip":"66901","city":"Concordia","state":"KS","lat":39.5516,"long":-97.6568},{"zip":"66938","city":"Clyde","state":"KS","lat":39.5758,"long":-97.408},{"zip":"66948","city":"Jamestown","state":"KS","lat":39.6021,"long":-97.8631},{"zip":"66839","city":"Burlington","state":"KS","lat":38.2363,"long":-95.7336},{"zip":"66852","city":"Gridley","state":"KS","lat":38.1012,"long":-95.8874},{"zip":"66856","city":"Lebo","state":"KS","lat":38.4161,"long":-95.8222},{"zip":"66857","city":"Le Roy","state":"KS","lat":38.0874,"long":-95.6227},{"zip":"66871","city":"Waverly","state":"KS","lat":38.3782,"long":-95.5982},{"zip":"66711","city":"Arcadia","state":"KS","lat":37.6341,"long":-94.6548},{"zip":"66712","city":"Arma","state":"KS","lat":37.5573,"long":-94.6949},{"zip":"66724","city":"Cherokee","state":"KS","lat":37.3694,"long":-94.8424},{"zip":"66734","city":"Farlington","state":"KS","lat":37.6163,"long":-94.8479},{"zip":"66735","city":"Franklin","state":"KS","lat":37.5219,"long":-94.7096},{"zip":"66743","city":"Girard","state":"KS","lat":37.5091,"long":-94.8569},{"zip":"66746","city":"Hepler","state":"KS","lat":37.6576,"long":-94.9892},{"zip":"66753","city":"Mc Cune","state":"KS","lat":37.3468,"long":-95.0376},{"zip":"66756","city":"Mulberry","state":"KS","lat":37.5442,"long":-94.6839},{"zip":"66760","city":"Opolis","state":"KS","lat":37.342,"long":-94.6199},{"zip":"66762","city":"Pittsburg","state":"KS","lat":37.3951,"long":-94.7105},{"zip":"66763","city":"Frontenac","state":"KS","lat":37.4466,"long":-94.6916},{"zip":"66780","city":"Walnut","state":"KS","lat":37.5967,"long":-95.0455},{"zip":"66008","city":"Bendena","state":"KS","lat":39.7174,"long":-95.1765},{"zip":"66017","city":"Denton","state":"KS","lat":39.7154,"long":-95.2744},{"zip":"66024","city":"Elwood","state":"KS","lat":39.7573,"long":-94.8824},{"zip":"66035","city":"Highland","state":"KS","lat":39.8608,"long":-95.2583},{"zip":"66087","city":"Troy","state":"KS","lat":39.7906,"long":-95.1434},{"zip":"66090","city":"Wathena","state":"KS","lat":39.7625,"long":-94.9255},{"zip":"66094","city":"White Cloud","state":"KS","lat":39.9627,"long":-95.2982},{"zip":"66006","city":"Baldwin City","state":"KS","lat":38.7953,"long":-95.2276},{"zip":"66025","city":"Eudora","state":"KS","lat":38.933,"long":-95.1022},{"zip":"66044","city":"Lawrence","state":"KS","lat":39.0289,"long":-95.2086},{"zip":"66045","city":"Lawrence","state":"KS","lat":38.959,"long":-95.2499},{"zip":"66046","city":"Lawrence","state":"KS","lat":38.9369,"long":-95.242},{"zip":"66047","city":"Lawrence","state":"KS","lat":38.9407,"long":-95.2779},{"zip":"66049","city":"Lawrence","state":"KS","lat":38.9704,"long":-95.2769},{"zip":"66050","city":"Lecompton","state":"KS","lat":39.0154,"long":-95.4392},{"zip":"66042","city":"Lane","state":"KS","lat":38.4347,"long":-95.0804},{"zip":"66067","city":"Ottawa","state":"KS","lat":38.6142,"long":-95.2745},{"zip":"66076","city":"Pomona","state":"KS","lat":38.6153,"long":-95.4489},{"zip":"66078","city":"Princeton","state":"KS","lat":38.4847,"long":-95.2764},{"zip":"66079","city":"Rantoul","state":"KS","lat":38.5666,"long":-95.1234},{"zip":"66080","city":"Richmond","state":"KS","lat":38.4074,"long":-95.2489},{"zip":"66092","city":"Wellsville","state":"KS","lat":38.7137,"long":-95.0916},{"zip":"66095","city":"Williamsburg","state":"KS","lat":38.4902,"long":-95.4226},{"zip":"66441","city":"Junction City","state":"KS","lat":39.0299,"long":-96.8396},{"zip":"66442","city":"Fort Riley","state":"KS","lat":39.0619,"long":-96.7873},{"zip":"66514","city":"Milford","state":"KS","lat":39.1692,"long":-96.91},{"zip":"66853","city":"Hamilton","state":"KS","lat":37.9791,"long":-96.1691},{"zip":"66855","city":"Lamont","state":"KS","lat":38.1125,"long":-96.0267},{"zip":"66860","city":"Madison","state":"KS","lat":38.1278,"long":-96.1213},{"zip":"66863","city":"Neal","state":"KS","lat":37.8329,"long":-96.0818},{"zip":"66870","city":"Virgil","state":"KS","lat":37.8976,"long":-96.0329},{"zip":"66416","city":"Circleville","state":"KS","lat":39.5155,"long":-95.8517},{"zip":"66418","city":"Delia","state":"KS","lat":39.2655,"long":-95.9608},{"zip":"66419","city":"Denison","state":"KS","lat":39.354,"long":-95.6127},{"zip":"66436","city":"Holton","state":"KS","lat":39.4436,"long":-95.7525},{"zip":"66440","city":"Hoyt","state":"KS","lat":39.2552,"long":-95.6867},{"zip":"66509","city":"Mayetta","state":"KS","lat":39.3489,"long":-95.6928},{"zip":"66516","city":"Netawaka","state":"KS","lat":39.6063,"long":-95.727},{"zip":"66540","city":"Soldier","state":"KS","lat":39.5013,"long":-95.9652},{"zip":"66552","city":"Whiting","state":"KS","lat":39.5974,"long":-95.6158},{"zip":"66054","city":"Mc Louth","state":"KS","lat":39.1668,"long":-95.2183},{"zip":"66060","city":"Nortonville","state":"KS","lat":39.4095,"long":-95.3236},{"zip":"66066","city":"Oskaloosa","state":"KS","lat":39.2152,"long":-95.3135},{"zip":"66070","city":"Ozawkie","state":"KS","lat":39.2136,"long":-95.4404},{"zip":"66073","city":"Perry","state":"KS","lat":39.0875,"long":-95.3731},{"zip":"66088","city":"Valley Falls","state":"KS","lat":39.3484,"long":-95.467},{"zip":"66097","city":"Winchester","state":"KS","lat":39.3245,"long":-95.2696},{"zip":"66429","city":"Grantville","state":"KS","lat":39.0972,"long":-95.5397},{"zip":"66512","city":"Meriden","state":"KS","lat":39.2038,"long":-95.5476},{"zip":"66936","city":"Burr Oak","state":"KS","lat":39.8932,"long":-98.3499},{"zip":"66941","city":"Esbon","state":"KS","lat":39.7562,"long":-98.4462},{"zip":"66942","city":"Formoso","state":"KS","lat":39.7795,"long":-97.9889},{"zip":"66949","city":"Jewell","state":"KS","lat":39.6719,"long":-98.1472},{"zip":"66956","city":"Mankato","state":"KS","lat":39.7833,"long":-98.2152},{"zip":"66963","city":"Randall","state":"KS","lat":39.6286,"long":-98.0661},{"zip":"66970","city":"Webber","state":"KS","lat":39.935,"long":-98.035},{"zip":"66018","city":"De Soto","state":"KS","lat":38.9462,"long":-94.9714},{"zip":"66021","city":"Edgerton","state":"KS","lat":38.7811,"long":-95.0094},{"zip":"66030","city":"Gardner","state":"KS","lat":38.8075,"long":-94.9157},{"zip":"66031","city":"New Century","state":"KS","lat":38.8249,"long":-94.8992},{"zip":"66051","city":"Olathe","state":"KS","lat":38.8999,"long":-94.832},{"zip":"66061","city":"Olathe","state":"KS","lat":38.8865,"long":-94.8204},{"zip":"66062","city":"Olathe","state":"KS","lat":38.8733,"long":-94.7752},{"zip":"66063","city":"Olathe","state":"KS","lat":38.8999,"long":-94.832},{"zip":"66083","city":"Spring Hill","state":"KS","lat":38.7631,"long":-94.8246},{"zip":"66085","city":"Stilwell","state":"KS","lat":38.7902,"long":-94.6643},{"zip":"66201","city":"Mission","state":"KS","lat":39.0278,"long":-94.6558},{"zip":"66202","city":"Mission","state":"KS","lat":39.0278,"long":-94.6558},{"zip":"66203","city":"Shawnee","state":"KS","lat":39.0417,"long":-94.7202},{"zip":"66204","city":"Overland Park","state":"KS","lat":38.9928,"long":-94.6771},{"zip":"66205","city":"Mission","state":"KS","lat":39.0278,"long":-94.6558},{"zip":"66206","city":"Leawood","state":"KS","lat":38.9667,"long":-94.6169},{"zip":"66207","city":"Overland Park","state":"KS","lat":38.9575,"long":-94.6452},{"zip":"66208","city":"Prairie Village","state":"KS","lat":38.9917,"long":-94.6336},{"zip":"66209","city":"Leawood","state":"KS","lat":38.9667,"long":-94.6169},{"zip":"66210","city":"Overland Park","state":"KS","lat":38.9273,"long":-94.7143},{"zip":"66211","city":"Leawood","state":"KS","lat":38.9667,"long":-94.6169},{"zip":"66212","city":"Overland Park","state":"KS","lat":38.9568,"long":-94.6832},{"zip":"66213","city":"Overland Park","state":"KS","lat":38.8982,"long":-94.7049},{"zip":"66214","city":"Overland Park","state":"KS","lat":38.9649,"long":-94.7209},{"zip":"66215","city":"Lenexa","state":"KS","lat":38.9536,"long":-94.7336},{"zip":"66216","city":"Shawnee","state":"KS","lat":39.0417,"long":-94.7202},{"zip":"66217","city":"Shawnee","state":"KS","lat":39.0417,"long":-94.7202},{"zip":"66218","city":"Shawnee","state":"KS","lat":39.0417,"long":-94.7202},{"zip":"66219","city":"Lenexa","state":"KS","lat":38.9536,"long":-94.7336},{"zip":"66220","city":"Lenexa","state":"KS","lat":38.9536,"long":-94.7336},{"zip":"66221","city":"Overland Park","state":"KS","lat":38.8636,"long":-94.7103},{"zip":"66222","city":"Mission","state":"KS","lat":39.0278,"long":-94.6558},{"zip":"66223","city":"Overland Park","state":"KS","lat":38.8619,"long":-94.661},{"zip":"66224","city":"Overland Park","state":"KS","lat":38.8591,"long":-94.6314},{"zip":"66225","city":"Overland Park","state":"KS","lat":38.8999,"long":-94.832},{"zip":"66226","city":"Shawnee","state":"KS","lat":39.0417,"long":-94.7202},{"zip":"66227","city":"Lenexa","state":"KS","lat":38.9536,"long":-94.7336},{"zip":"66250","city":"Lenexa","state":"KS","lat":38.9536,"long":-94.7336},{"zip":"66251","city":"Overland Park","state":"KS","lat":38.8999,"long":-94.832},{"zip":"66276","city":"Shawnee Mission","state":"KS","lat":38.8999,"long":-94.832},{"zip":"66282","city":"Overland Park","state":"KS","lat":38.8999,"long":-94.832},{"zip":"66283","city":"Overland Park","state":"KS","lat":38.8999,"long":-94.832},{"zip":"66285","city":"Lenexa","state":"KS","lat":38.9536,"long":-94.7336},{"zip":"66286","city":"Shawnee","state":"KS","lat":39.0417,"long":-94.7202},{"zip":"66007","city":"Basehor","state":"KS","lat":39.1281,"long":-94.957},{"zip":"66020","city":"Easton","state":"KS","lat":39.3391,"long":-95.0999},{"zip":"66027","city":"Fort Leavenworth","state":"KS","lat":39.3485,"long":-94.9265},{"zip":"66043","city":"Lansing","state":"KS","lat":39.2502,"long":-94.8994},{"zip":"66048","city":"Leavenworth","state":"KS","lat":39.3015,"long":-94.9339},{"zip":"66052","city":"Linwood","state":"KS","lat":39.0014,"long":-95.0391},{"zip":"66086","city":"Tonganoxie","state":"KS","lat":39.1026,"long":-95.1051},{"zip":"66010","city":"Blue Mound","state":"KS","lat":38.0908,"long":-95.0053},{"zip":"66014","city":"Centerville","state":"KS","lat":38.213,"long":-94.9934},{"zip":"66040","city":"Lacygne","state":"KS","lat":39.0478,"long":-95.1538},{"zip":"66056","city":"Mound City","state":"KS","lat":38.156,"long":-94.8186},{"zip":"66072","city":"Parker","state":"KS","lat":38.3303,"long":-94.9871},{"zip":"66075","city":"Pleasanton","state":"KS","lat":38.1823,"long":-94.7057},{"zip":"66767","city":"Prescott","state":"KS","lat":38.0718,"long":-94.7008},{"zip":"66801","city":"Emporia","state":"KS","lat":38.4184,"long":-96.1871},{"zip":"66830","city":"Admire","state":"KS","lat":38.6393,"long":-96.1017},{"zip":"66833","city":"Allen","state":"KS","lat":38.652,"long":-96.1735},{"zip":"66835","city":"Americus","state":"KS","lat":38.5098,"long":-96.2608},{"zip":"66854","city":"Hartford","state":"KS","lat":38.2833,"long":-95.9997},{"zip":"66864","city":"Neosho Rapids","state":"KS","lat":38.3948,"long":-96.0168},{"zip":"66865","city":"Olpe","state":"KS","lat":38.2578,"long":-96.1891},{"zip":"66868","city":"Reading","state":"KS","lat":38.529,"long":-95.9895},{"zip":"66840","city":"Burns","state":"KS","lat":38.1222,"long":-96.8634},{"zip":"66851","city":"Florence","state":"KS","lat":38.2415,"long":-96.9346},{"zip":"66858","city":"Lincolnville","state":"KS","lat":38.4933,"long":-96.9626},{"zip":"66859","city":"Lost Springs","state":"KS","lat":38.5657,"long":-96.9799},{"zip":"66861","city":"Marion","state":"KS","lat":38.3554,"long":-97.0204},{"zip":"66866","city":"Peabody","state":"KS","lat":38.1737,"long":-97.1184},{"zip":"66403","city":"Axtell","state":"KS","lat":39.8707,"long":-96.2676},{"zip":"66406","city":"Beattie","state":"KS","lat":39.8988,"long":-96.4286},{"zip":"66411","city":"Blue Rapids","state":"KS","lat":39.675,"long":-96.6359},{"zip":"66412","city":"Bremen","state":"KS","lat":39.8775,"long":-96.7458},{"zip":"66427","city":"Frankfort","state":"KS","lat":39.7333,"long":-96.5223},{"zip":"66438","city":"Home","state":"KS","lat":39.8488,"long":-96.5063},{"zip":"66508","city":"Marysville","state":"KS","lat":39.8428,"long":-96.6422},{"zip":"66518","city":"Oketo","state":"KS","lat":39.9598,"long":-96.6235},{"zip":"66541","city":"Summerfield","state":"KS","lat":39.9798,"long":-96.3279},{"zip":"66544","city":"Vermillion","state":"KS","lat":39.6946,"long":-96.278},{"zip":"66548","city":"Waterville","state":"KS","lat":39.6971,"long":-96.7498},{"zip":"66013","city":"Bucyrus","state":"KS","lat":38.7283,"long":-94.6887},{"zip":"66026","city":"Fontana","state":"KS","lat":38.4102,"long":-94.8718},{"zip":"66036","city":"Hillsdale","state":"KS","lat":38.6581,"long":-94.8521},{"zip":"66053","city":"Louisburg","state":"KS","lat":38.6073,"long":-94.6829},{"zip":"66064","city":"Osawatomie","state":"KS","lat":38.4888,"long":-94.962},{"zip":"66071","city":"Paola","state":"KS","lat":38.572,"long":-94.8937},{"zip":"66838","city":"Burdick","state":"KS","lat":38.5674,"long":-96.8396},{"zip":"66846","city":"Council Grove","state":"KS","lat":38.6959,"long":-96.5469},{"zip":"66849","city":"Dwight","state":"KS","lat":38.8389,"long":-96.5802},{"zip":"66872","city":"White City","state":"KS","lat":38.789,"long":-96.7637},{"zip":"66873","city":"Wilsey","state":"KS","lat":38.6361,"long":-96.6753},{"zip":"66404","city":"Baileyville","state":"KS","lat":39.8816,"long":-96.1801},{"zip":"66408","city":"Bern","state":"KS","lat":39.9571,"long":-95.961},{"zip":"66415","city":"Centralia","state":"KS","lat":39.7381,"long":-96.1486},{"zip":"66417","city":"Corning","state":"KS","lat":39.6572,"long":-96.0294},{"zip":"66428","city":"Goff","state":"KS","lat":39.6654,"long":-95.9574},{"zip":"66522","city":"Oneida","state":"KS","lat":39.8639,"long":-95.9392},{"zip":"66534","city":"Sabetha","state":"KS","lat":39.8993,"long":-95.8113},{"zip":"66538","city":"Seneca","state":"KS","lat":39.8473,"long":-96.0316},{"zip":"66550","city":"Wetmore","state":"KS","lat":39.6428,"long":-95.8231},{"zip":"66720","city":"Chanute","state":"KS","lat":37.6749,"long":-95.457},{"zip":"66733","city":"Erie","state":"KS","lat":37.6044,"long":-95.2514},{"zip":"66740","city":"Galesburg","state":"KS","lat":37.4724,"long":-95.3707},{"zip":"66771","city":"Saint Paul","state":"KS","lat":37.518,"long":-95.1688},{"zip":"66775","city":"Stark","state":"KS","lat":37.6811,"long":-95.1388},{"zip":"66776","city":"Thayer","state":"KS","lat":37.4527,"long":-95.4671},{"zip":"66413","city":"Burlingame","state":"KS","lat":38.7634,"long":-95.84},{"zip":"66414","city":"Carbondale","state":"KS","lat":38.8206,"long":-95.6871},{"zip":"66451","city":"Lyndon","state":"KS","lat":38.6356,"long":-95.6802},{"zip":"66510","city":"Melvern","state":"KS","lat":38.5027,"long":-95.629},{"zip":"66523","city":"Osage City","state":"KS","lat":38.6269,"long":-95.8303},{"zip":"66524","city":"Overbrook","state":"KS","lat":38.7922,"long":-95.5616},{"zip":"66528","city":"Quenemo","state":"KS","lat":38.5785,"long":-95.5362},{"zip":"66537","city":"Scranton","state":"KS","lat":38.788,"long":-95.748},{"zip":"66543","city":"Vassar","state":"KS","lat":38.6419,"long":-95.6012},{"zip":"66407","city":"Belvue","state":"KS","lat":39.2273,"long":-96.1866},{"zip":"66422","city":"Emmett","state":"KS","lat":39.3048,"long":-96.0593},{"zip":"66426","city":"Fostoria","state":"KS","lat":39.4398,"long":-96.5068},{"zip":"66432","city":"Havensville","state":"KS","lat":39.4942,"long":-96.0769},{"zip":"66520","city":"Olsburg","state":"KS","lat":39.4125,"long":-96.6002},{"zip":"66521","city":"Onaga","state":"KS","lat":39.4889,"long":-96.17},{"zip":"66535","city":"Saint George","state":"KS","lat":39.2108,"long":-96.4345},{"zip":"66536","city":"Saint Marys","state":"KS","lat":39.1987,"long":-96.0683},{"zip":"66547","city":"Wamego","state":"KS","lat":39.21,"long":-96.3153},{"zip":"66549","city":"Westmoreland","state":"KS","lat":39.4138,"long":-96.4374},{"zip":"66930","city":"Agenda","state":"KS","lat":39.7044,"long":-97.4465},{"zip":"66935","city":"Belleville","state":"KS","lat":39.8241,"long":-97.629},{"zip":"66939","city":"Courtland","state":"KS","lat":39.7851,"long":-97.89},{"zip":"66940","city":"Cuba","state":"KS","lat":39.7975,"long":-97.4496},{"zip":"66959","city":"Munden","state":"KS","lat":39.9272,"long":-97.5403},{"zip":"66960","city":"Narka","state":"KS","lat":39.9582,"long":-97.4243},{"zip":"66961","city":"Norway","state":"KS","lat":39.8279,"long":-97.6509},{"zip":"66964","city":"Republic","state":"KS","lat":39.9376,"long":-97.8435},{"zip":"66966","city":"Scandia","state":"KS","lat":39.7939,"long":-97.7786},{"zip":"66449","city":"Leonardville","state":"KS","lat":39.3644,"long":-96.8589},{"zip":"66502","city":"Manhattan","state":"KS","lat":39.1938,"long":-96.5858},{"zip":"66503","city":"Manhattan","state":"KS","lat":39.2458,"long":-96.6336},{"zip":"66505","city":"Manhattan","state":"KS","lat":39.3049,"long":-96.6753},{"zip":"66506","city":"Manhattan","state":"KS","lat":39.196,"long":-96.5839},{"zip":"66517","city":"Ogden","state":"KS","lat":39.1153,"long":-96.7101},{"zip":"66531","city":"Riley","state":"KS","lat":39.3005,"long":-96.8222},{"zip":"66554","city":"Randolph","state":"KS","lat":39.4879,"long":-96.7828},{"zip":"66402","city":"Auburn","state":"KS","lat":38.9167,"long":-95.8199},{"zip":"66409","city":"Berryton","state":"KS","lat":38.9442,"long":-95.5825},{"zip":"66420","city":"Dover","state":"KS","lat":38.9645,"long":-95.9172},{"zip":"66533","city":"Rossville","state":"KS","lat":39.1451,"long":-95.9553},{"zip":"66539","city":"Silver Lake","state":"KS","lat":39.1102,"long":-95.8552},{"zip":"66542","city":"Tecumseh","state":"KS","lat":39.0217,"long":-95.5379},{"zip":"66546","city":"Wakarusa","state":"KS","lat":38.9045,"long":-95.7015},{"zip":"66601","city":"Topeka","state":"KS","lat":39.0483,"long":-95.678},{"zip":"66603","city":"Topeka","state":"KS","lat":39.0553,"long":-95.6802},{"zip":"66604","city":"Topeka","state":"KS","lat":39.0405,"long":-95.7178},{"zip":"66605","city":"Topeka","state":"KS","lat":39.0151,"long":-95.6439},{"zip":"66606","city":"Topeka","state":"KS","lat":39.0583,"long":-95.7095},{"zip":"66607","city":"Topeka","state":"KS","lat":39.0421,"long":-95.6449},{"zip":"66608","city":"Topeka","state":"KS","lat":39.0858,"long":-95.6867},{"zip":"66609","city":"Topeka","state":"KS","lat":38.9919,"long":-95.6681},{"zip":"66610","city":"Topeka","state":"KS","lat":38.9822,"long":-95.7461},{"zip":"66611","city":"Topeka","state":"KS","lat":39.0142,"long":-95.6981},{"zip":"66612","city":"Topeka","state":"KS","lat":39.0427,"long":-95.6818},{"zip":"66614","city":"Topeka","state":"KS","lat":39.0154,"long":-95.7469},{"zip":"66615","city":"Topeka","state":"KS","lat":39.0446,"long":-95.7906},{"zip":"66616","city":"Topeka","state":"KS","lat":39.0645,"long":-95.6413},{"zip":"66617","city":"Topeka","state":"KS","lat":39.1271,"long":-95.6384},{"zip":"66618","city":"Topeka","state":"KS","lat":39.1329,"long":-95.7023},{"zip":"66619","city":"Topeka","state":"KS","lat":38.9536,"long":-95.7236},{"zip":"66620","city":"Topeka","state":"KS","lat":39.0429,"long":-95.7697},{"zip":"66621","city":"Topeka","state":"KS","lat":39.0333,"long":-95.7015},{"zip":"66622","city":"Topeka","state":"KS","lat":39.0429,"long":-95.7697},{"zip":"66624","city":"Topeka","state":"KS","lat":39.0429,"long":-95.7697},{"zip":"66625","city":"Topeka","state":"KS","lat":39.0483,"long":-95.678},{"zip":"66626","city":"Topeka","state":"KS","lat":39.0483,"long":-95.678},{"zip":"66629","city":"Topeka","state":"KS","lat":39.0483,"long":-95.678},{"zip":"66636","city":"Topeka","state":"KS","lat":39.0483,"long":-95.678},{"zip":"66647","city":"Topeka","state":"KS","lat":39.0429,"long":-95.7697},{"zip":"66667","city":"Topeka","state":"KS","lat":39.0429,"long":-95.7697},{"zip":"66675","city":"Topeka","state":"KS","lat":39.0429,"long":-95.7697},{"zip":"66683","city":"Topeka","state":"KS","lat":39.0483,"long":-95.678},{"zip":"66699","city":"Topeka","state":"KS","lat":39.0483,"long":-95.678},{"zip":"66932","city":"Athol","state":"KS","lat":39.7719,"long":-98.9077},{"zip":"66951","city":"Kensington","state":"KS","lat":39.7692,"long":-99.0308},{"zip":"66952","city":"Lebanon","state":"KS","lat":39.8077,"long":-98.556},{"zip":"66967","city":"Smith Center","state":"KS","lat":39.8042,"long":-98.7842},{"zip":"66401","city":"Alma","state":"KS","lat":39.0092,"long":-96.2923},{"zip":"66423","city":"Eskridge","state":"KS","lat":38.8514,"long":-96.1016},{"zip":"66431","city":"Harveyville","state":"KS","lat":38.79,"long":-95.9617},{"zip":"66501","city":"Mc Farland","state":"KS","lat":39.0535,"long":-96.2379},{"zip":"66507","city":"Maple Hill","state":"KS","lat":39.0447,"long":-96.0397},{"zip":"66526","city":"Paxico","state":"KS","lat":39.0803,"long":-96.1818},{"zip":"66834","city":"Alta Vista","state":"KS","lat":38.8636,"long":-96.48},{"zip":"66933","city":"Barnes","state":"KS","lat":39.6841,"long":-96.8676},{"zip":"66937","city":"Clifton","state":"KS","lat":39.6201,"long":-97.2611},{"zip":"66943","city":"Greenleaf","state":"KS","lat":39.7061,"long":-96.9775},{"zip":"66944","city":"Haddam","state":"KS","lat":39.852,"long":-97.3081},{"zip":"66945","city":"Hanover","state":"KS","lat":39.8927,"long":-96.8689},{"zip":"66946","city":"Hollenberg","state":"KS","lat":39.96,"long":-96.9735},{"zip":"66953","city":"Linn","state":"KS","lat":39.6847,"long":-97.0854},{"zip":"66955","city":"Mahaska","state":"KS","lat":39.9845,"long":-97.3453},{"zip":"66958","city":"Morrowville","state":"KS","lat":39.8616,"long":-97.1825},{"zip":"66962","city":"Palmer","state":"KS","lat":39.6192,"long":-97.1122},{"zip":"66968","city":"Washington","state":"KS","lat":39.8223,"long":-97.0484},{"zip":"66710","city":"Altoona","state":"KS","lat":37.5197,"long":-95.6483},{"zip":"66714","city":"Benedict","state":"KS","lat":37.6118,"long":-95.7038},{"zip":"66717","city":"Buffalo","state":"KS","lat":37.7011,"long":-95.7014},{"zip":"66736","city":"Fredonia","state":"KS","lat":37.5717,"long":-95.7484},{"zip":"66757","city":"Neodesha","state":"KS","lat":37.4257,"long":-95.6765},{"zip":"66759","city":"New Albany","state":"KS","lat":37.569,"long":-95.9379},{"zip":"66758","city":"Neosho Falls","state":"KS","lat":37.9669,"long":-95.5497},{"zip":"66761","city":"Piqua","state":"KS","lat":37.9228,"long":-95.5353},{"zip":"66777","city":"Toronto","state":"KS","lat":37.7953,"long":-95.9368},{"zip":"66783","city":"Yates Center","state":"KS","lat":37.8801,"long":-95.7289},{"zip":"66012","city":"Bonner Springs","state":"KS","lat":39.0672,"long":-94.9227},{"zip":"66101","city":"Kansas City","state":"KS","lat":39.1157,"long":-94.6271},{"zip":"66102","city":"Kansas City","state":"KS","lat":39.1132,"long":-94.6693},{"zip":"66103","city":"Kansas City","state":"KS","lat":39.0668,"long":-94.6282},{"zip":"66104","city":"Kansas City","state":"KS","lat":39.1375,"long":-94.6792},{"zip":"66105","city":"Kansas City","state":"KS","lat":39.085,"long":-94.6356},{"zip":"66106","city":"Kansas City","state":"KS","lat":39.0694,"long":-94.7178},{"zip":"66109","city":"Kansas City","state":"KS","lat":39.1434,"long":-94.7856},{"zip":"66110","city":"Kansas City","state":"KS","lat":39.0966,"long":-94.7495},{"zip":"66111","city":"Kansas City","state":"KS","lat":39.0803,"long":-94.7806},{"zip":"66112","city":"Kansas City","state":"KS","lat":39.116,"long":-94.764},{"zip":"66113","city":"Edwardsville","state":"KS","lat":39.0735,"long":-94.7233},{"zip":"66115","city":"Kansas City","state":"KS","lat":39.1364,"long":-94.616},{"zip":"66117","city":"Kansas City","state":"KS","lat":39.1142,"long":-94.6275},{"zip":"66118","city":"Kansas City","state":"KS","lat":39.1011,"long":-94.6144},{"zip":"66119","city":"Kansas City","state":"KS","lat":39.0966,"long":-94.7495},{"zip":"66160","city":"Kansas City","state":"KS","lat":39.0966,"long":-94.7495}]
