[{"zip":"66015","city":"Colony","state":"KS","lat":38.0761,"long":-95.3287},{"zip":"66032","city":"Garnett","state":"KS","lat":38.2859,"long":-95.2594},{"zip":"66033","city":"Greeley","state":"KS","lat":38.3524,"long":-95.1188},{"zip":"66039","city":"Kincaid","state":"KS","lat":38.1104,"long":-95.1886},{"zip":"66091","city":"Welda","state":"KS","lat":38.1686,"long":-95.3096},{"zip":"66093","city":"Westphalia","state":"KS","lat":38.1718,"long":-95.4665},{"zip":"66002","city":"Atchison","state":"KS","lat":39.5594,"long":-95.1304},{"zip":"66016","city":"Cummings","state":"KS","lat":39.483,"long":-95.2863},{"zip":"66023","city":"Effingham","state":"KS","lat":39.5222,"long":-95.4008},{"zip":"66041","city":"Lancaster","state":"KS","lat":39.5952,"long":-95.3036},{"zip":"66058","city":"Muscotah","state":"KS","lat":39.5388,"long":-95.5175},{"zip":"66008","city":"Bendena","state":"KS","lat":39.7174,"long":-95.1765},{"zip":"66017","city":"Denton","state":"KS","lat":39.7154,"long":-95.2744},{"zip":"66024","city":"Elwood","state":"KS","lat":39.7573,"long":-94.8824},{"zip":"66035","city":"Highland","state":"KS","lat":39.8608,"long":-95.2583},{"zip":"66087","city":"Troy","state":"KS","lat":39.7906,"long":-95.1434},{"zip":"66090","city":"Wathena","state":"KS","lat":39.7625,"long":-94.9255},{"zip":"66094","city":"White Cloud","state":"KS","lat":39.9627,"long":-95.2982},{"zip":"66006","city":"Baldwin City","state":"KS","lat":38.7953,"long":-95.2276},{"zip":"66025","city":"Eudora","state":"KS","lat":38.933,"long":-95.1022},{"zip":"66044","city":"Lawrence","state":"KS","lat":39.0289,"long":-95.2086},{"zip":"66045","city":"Lawrence","state":"KS","lat":38.959,"long":-95.2499},{"zip":"66046","city":"Lawrence","state":"KS","lat":38.9369,"long":-95.242},{"zip":"66047","city":"Lawrence","state":"KS","lat":38.9407,"long":-95.2779},{"zip":"66049","city":"Lawrence","state":"KS","lat":38.9704,"long":-95.2769},{"zip":"66050","city":"Lecompton","state":"KS","lat":39.0154,"long":-95.4392},{"zip":"66042","city":"Lane","state":"KS","lat":38.4347,"long":-95.0804},{"zip":"66067","city":"Ottawa","state":"KS","lat":38.6142,"long":-95.2745},{"zip":"66076","city":"Pomona","state":"KS","lat":38.6153,"long":-95.4489},{"zip":"66078","city":"Princeton","state":"KS","lat":38.4847,"long":-95.2764},{"zip":"66079","city":"Rantoul","state":"KS","lat":38.5666,"long":-95.1234},{"zip":"66080","city":"Richmond","state":"KS","lat":38.4074,"long":-95.2489},{"zip":"66092","city":"Wellsville","state":"KS","lat":38.7137,"long":-95.0916},{"zip":"66095","city":"Williamsburg","state":"KS","lat":38.4902,"long":-95.4226},{"zip":"66054","city":"Mc Louth","state":"KS","lat":39.1668,"long":-95.2183},{"zip":"66060","city":"Nortonville","state":"KS","lat":39.4095,"long":-95.3236},{"zip":"66066","city":"Oskaloosa","state":"KS","lat":39.2152,"long":-95.3135},{"zip":"66070","city":"Ozawkie","state":"KS","lat":39.2136,"long":-95.4404},{"zip":"66073","city":"Perry","state":"KS","lat":39.0875,"long":-95.3731},{"zip":"66088","city":"Valley Falls","state":"KS","lat":39.3484,"long":-95.467},{"zip":"66097","city":"Winchester","state":"KS","lat":39.3245,"long":-95.2696},{"zip":"66018","city":"De Soto","state":"KS","lat":38.9462,"long":-94.9714},{"zip":"66021","city":"Edgerton","state":"KS","lat":38.7811,"long":-95.0094},{"zip":"66030","city":"Gardner","state":"KS","lat":38.8075,"long":-94.9157},{"zip":"66031","city":"New Century","state":"KS","lat":38.8249,"long":-94.8992},{"zip":"66051","city":"Olathe","state":"KS","lat":38.8999,"long":-94.832},{"zip":"66061","city":"Olathe","state":"KS","lat":38.8865,"long":-94.8204},{"zip":"66062","city":"Olathe","state":"KS","lat":38.8733,"long":-94.7752},{"zip":"66063","city":"Olathe","state":"KS","lat":38.8999,"long":-94.832},{"zip":"66083","city":"Spring Hill","state":"KS","lat":38.7631,"long":-94.8246},{"zip":"66085","city":"Stilwell","state":"KS","lat":38.7902,"long":-94.6643},{"zip":"66007","city":"Basehor","state":"KS","lat":39.1281,"long":-94.957},{"zip":"66020","city":"Easton","state":"KS","lat":39.3391,"long":-95.0999},{"zip":"66027","city":"Fort Leavenworth","state":"KS","lat":39.3485,"long":-94.9265},{"zip":"66043","city":"Lansing","state":"KS","lat":39.2502,"long":-94.8994},{"zip":"66048","city":"Leavenworth","state":"KS","lat":39.3015,"long":-94.9339},{"zip":"66052","city":"Linwood","state":"KS","lat":39.0014,"long":-95.0391},{"zip":"66086","city":"Tonganoxie","state":"KS","lat":39.1026,"long":-95.1051},{"zip":"66010","city":"Blue Mound","state":"KS","lat":38.0908,"long":-95.0053},{"zip":"66014","city":"Centerville","state":"KS","lat":38.213,"long":-94.9934},{"zip":"66040","city":"Lacygne","state":"KS","lat":39.0478,"long":-95.1538},{"zip":"66056","city":"Mound City","state":"KS","lat":38.156,"long":-94.8186},{"zip":"66072","city":"Parker","state":"KS","lat":38.3303,"long":-94.9871},{"zip":"66075","city":"Pleasanton","state":"KS","lat":38.1823,"long":-94.7057},{"zip":"66013","city":"Bucyrus","state":"KS","lat":38.7283,"long":-94.6887},{"zip":"66026","city":"Fontana","state":"KS","lat":38.4102,"long":-94.8718},{"zip":"66036","city":"Hillsdale","state":"KS","lat":38.6581,"long":-94.8521},{"zip":"66053","city":"Louisburg","state":"KS","lat":38.6073,"long":-94.6829},{"zip":"66064","city":"Osawatomie","state":"KS","lat":38.4888,"long":-94.962},{"zip":"66071","city":"Paola","state":"KS","lat":38.572,"long":-94.8937},{"zip":"66012","city":"Bonner Springs","state":"KS","lat":39.0672,"long":-94.9227}]
