[{"zip":"66101","city":"Kansas City","state":"KS","lat":39.1157,"long":-94.6271},{"zip":"66102","city":"Kansas City","state":"KS","lat":39.1132,"long":-94.6693},{"zip":"66103","city":"Kansas City","state":"KS","lat":39.0668,"long":-94.6282},{"zip":"66104","city":"Kansas City","state":"KS","lat":39.1375,"long":-94.6792},{"zip":"66105","city":"Kansas City","state":"KS","lat":39.085,"long":-94.6356},{"zip":"66106","city":"Kansas City","state":"KS","lat":39.0694,"long":-94.7178},{"zip":"66109","city":"Kansas City","state":"KS","lat":39.1434,"long":-94.7856},{"zip":"66110","city":"Kansas City","state":"KS","lat":39.0966,"long":-94.7495},{"zip":"66111","city":"Kansas City","state":"KS","lat":39.0803,"long":-94.7806},{"zip":"66112","city":"Kansas City","state":"KS","lat":39.116,"long":-94.764},{"zip":"66113","city":"Edwardsville","state":"KS","lat":39.0735,"long":-94.7233},{"zip":"66115","city":"Kansas City","state":"KS","lat":39.1364,"long":-94.616},{"zip":"66117","city":"Kansas City","state":"KS","lat":39.1142,"long":-94.6275},{"zip":"66118","city":"Kansas City","state":"KS","lat":39.1011,"long":-94.6144},{"zip":"66119","city":"Kansas City","state":"KS","lat":39.0966,"long":-94.7495},{"zip":"66160","city":"Kansas City","state":"KS","lat":39.0966,"long":-94.7495}]
