[{"zip":"66201","city":"Mission","state":"KS","lat":39.0278,"long":-94.6558},{"zip":"66202","city":"Mission","state":"KS","lat":39.0278,"long":-94.6558},{"zip":"66203","city":"Shawnee","state":"KS","lat":39.0417,"long":-94.7202},{"zip":"66204","city":"Overland Park","state":"KS","lat":38.9928,"long":-94.6771},{"zip":"66205","city":"Mission","state":"KS","lat":39.0278,"long":-94.6558},{"zip":"66206","city":"Leawood","state":"KS","lat":38.9667,"long":-94.6169},{"zip":"66207","city":"Overland Park","state":"KS","lat":38.9575,"long":-94.6452},{"zip":"66208","city":"Prairie Village","state":"KS","lat":38.9917,"long":-94.6336},{"zip":"66209","city":"Leawood","state":"KS","lat":38.9667,"long":-94.6169},{"zip":"66210","city":"Overland Park","state":"KS","lat":38.9273,"long":-94.7143},{"zip":"66211","city":"Leawood","state":"KS","lat":38.9667,"long":-94.6169},{"zip":"66212","city":"Overland Park","state":"KS","lat":38.9568,"long":-94.6832},{"zip":"66213","city":"Overland Park","state":"KS","lat":38.8982,"long":-94.7049},{"zip":"66214","city":"Overland Park","state":"KS","lat":38.9649,"long":-94.7209},{"zip":"66215","city":"Lenexa","state":"KS","lat":38.9536,"long":-94.7336},{"zip":"66216","city":"Shawnee","state":"KS","lat":39.0417,"long":-94.7202},{"zip":"66217","city":"Shawnee","state":"KS","lat":39.0417,"long":-94.7202},{"zip":"66218","city":"Shawnee","state":"KS","lat":39.0417,"long":-94.7202},{"zip":"66219","city":"Lenexa","state":"KS","lat":38.9536,"long":-94.7336},{"zip":"66220","city":"Lenexa","state":"KS","lat":38.9536,"long":-94.7336},{"zip":"66221","city":"Overland Park","state":"KS","lat":38.8636,"long":-94.7103},{"zip":"66222","city":"Mission","state":"KS","lat":39.0278,"long":-94.6558},{"zip":"66223","city":"Overland Park","state":"KS","lat":38.8619,"long":-94.661},{"zip":"66224","city":"Overland Park","state":"KS","lat":38.8591,"long":-94.6314},{"zip":"66225","city":"Overland Park","state":"KS","lat":38.8999,"long":-94.832},{"zip":"66226","city":"Shawnee","state":"KS","lat":39.0417,"long":-94.7202},{"zip":"66227","city":"Lenexa","state":"KS","lat":38.9536,"long":-94.7336},{"zip":"66250","city":"Lenexa","state":"KS","lat":38.9536,"long":-94.7336},{"zip":"66251","city":"Overland Park","state":"KS","lat":38.8999,"long":-94.832},{"zip":"66276","city":"Shawnee Mission","state":"KS","lat":38.8999,"long":-94.832},{"zip":"66282","city":"Overland Park","state":"KS","lat":38.8999,"long":-94.832},{"zip":"66283","city":"Overland Park","state":"KS","lat":38.8999,"long":-94.832},{"zip":"66285","city":"Lenexa","state":"KS","lat":38.9536,"long":-94.7336},{"zip":"66286","city":"Shawnee","state":"KS","lat":39.0417,"long":-94.7202}]
