[{"zip":"66424","city":"Everest","state":"KS","lat":39.688,"long":-95.4138},{"zip":"66425","city":"Fairview","state":"KS","lat":39.8445,"long":-95.711},{"zip":"66434","city":"Hiawatha","state":"KS","lat":39.7914,"long":-95.6004},{"zip":"66439","city":"Horton","state":"KS","lat":39.6789,"long":-95.5299},{"zip":"66441","city":"Junction City","state":"KS","lat":39.0299,"long":-96.8396},{"zip":"66442","city":"Fort Riley","state":"KS","lat":39.0619,"long":-96.7873},{"zip":"66416","city":"Circleville","state":"KS","lat":39.5155,"long":-95.8517},{"zip":"66418","city":"Delia","state":"KS","lat":39.2655,"long":-95.9608},{"zip":"66419","city":"Denison","state":"KS","lat":39.354,"long":-95.6127},{"zip":"66436","city":"Holton","state":"KS","lat":39.4436,"long":-95.7525},{"zip":"66440","city":"Hoyt","state":"KS","lat":39.2552,"long":-95.6867},{"zip":"66429","city":"Grantville","state":"KS","lat":39.0972,"long":-95.5397},{"zip":"66403","city":"Axtell","state":"KS","lat":39.8707,"long":-96.2676},{"zip":"66406","city":"Beattie","state":"KS","lat":39.8988,"long":-96.4286},{"zip":"66411","city":"Blue Rapids","state":"KS","lat":39.675,"long":-96.6359},{"zip":"66412","city":"Bremen","state":"KS","lat":39.8775,"long":-96.7458},{"zip":"66427","city":"Frankfort","state":"KS","lat":39.7333,"long":-96.5223},{"zip":"66438","city":"Home","state":"KS","lat":39.8488,"long":-96.5063},{"zip":"66404","city":"Baileyville","state":"KS","lat":39.8816,"long":-96.1801},{"zip":"66408","city":"Bern","state":"KS","lat":39.9571,"long":-95.961},{"zip":"66415","city":"Centralia","state":"KS","lat":39.7381,"long":-96.1486},{"zip":"66417","city":"Corning","state":"KS","lat":39.6572,"long":-96.0294},{"zip":"66428","city":"Goff","state":"KS","lat":39.6654,"long":-95.9574},{"zip":"66413","city":"Burlingame","state":"KS","lat":38.7634,"long":-95.84},{"zip":"66414","city":"Carbondale","state":"KS","lat":38.8206,"long":-95.6871},{"zip":"66451","city":"Lyndon","state":"KS","lat":38.6356,"long":-95.6802},{"zip":"66407","city":"Belvue","state":"KS","lat":39.2273,"long":-96.1866},{"zip":"66422","city":"Emmett","state":"KS","lat":39.3048,"long":-96.0593},{"zip":"66426","city":"Fostoria","state":"KS","lat":39.4398,"long":-96.5068},{"zip":"66432","city":"Havensville","state":"KS","lat":39.4942,"long":-96.0769},{"zip":"66449","city":"Leonardville","state":"KS","lat":39.3644,"long":-96.8589},{"zip":"66402","city":"Auburn","state":"KS","lat":38.9167,"long":-95.8199},{"zip":"66409","city":"Berryton","state":"KS","lat":38.9442,"long":-95.5825},{"zip":"66420","city":"Dover","state":"KS","lat":38.9645,"long":-95.9172},{"zip":"66401","city":"Alma","state":"KS","lat":39.0092,"long":-96.2923},{"zip":"66423","city":"Eskridge","state":"KS","lat":38.8514,"long":-96.1016},{"zip":"66431","city":"Harveyville","state":"KS","lat":38.79,"long":-95.9617}]
