[{"zip":"66515","city":"Morrill","state":"KS","lat":39.9356,"long":-95.712},{"zip":"66527","city":"Powhattan","state":"KS","lat":39.7177,"long":-95.6751},{"zip":"66532","city":"Robinson","state":"KS","lat":39.8182,"long":-95.4567},{"zip":"66514","city":"Milford","state":"KS","lat":39.1692,"long":-96.91},{"zip":"66509","city":"Mayetta","state":"KS","lat":39.3489,"long":-95.6928},{"zip":"66516","city":"Netawaka","state":"KS","lat":39.6063,"long":-95.727},{"zip":"66540","city":"Soldier","state":"KS","lat":39.5013,"long":-95.9652},{"zip":"66552","city":"Whiting","state":"KS","lat":39.5974,"long":-95.6158},{"zip":"66512","city":"Meriden","state":"KS","lat":39.2038,"long":-95.5476},{"zip":"66508","city":"Marysville","state":"KS","lat":39.8428,"long":-96.6422},{"zip":"66518","city":"Oketo","state":"KS","lat":39.9598,"long":-96.6235},{"zip":"66541","city":"Summerfield","state":"KS","lat":39.9798,"long":-96.3279},{"zip":"66544","city":"Vermillion","state":"KS","lat":39.6946,"long":-96.278},{"zip":"66548","city":"Waterville","state":"KS","lat":39.6971,"long":-96.7498},{"zip":"66522","city":"Oneida","state":"KS","lat":39.8639,"long":-95.9392},{"zip":"66534","city":"Sabetha","state":"KS","lat":39.8993,"long":-95.8113},{"zip":"66538","city":"Seneca","state":"KS","lat":39.8473,"long":-96.0316},{"zip":"66550","city":"Wetmore","state":"KS","lat":39.6428,"long":-95.8231},{"zip":"66510","city":"Melvern","state":"KS","lat":38.5027,"long":-95.629},{"zip":"66523","city":"Osage City","state":"KS","lat":38.6269,"long":-95.8303},{"zip":"66524","city":"Overbrook","state":"KS","lat":38.7922,"long":-95.5616},{"zip":"66528","city":"Quenemo","state":"KS","lat":38.5785,"long":-95.5362},{"zip":"66537","city":"Scranton","state":"KS","lat":38.788,"long":-95.748},{"zip":"66543","city":"Vassar","state":"KS","lat":38.6419,"long":-95.6012},{"zip":"66520","city":"Olsburg","state":"KS","lat":39.4125,"long":-96.6002},{"zip":"66521","city":"Onaga","state":"KS","lat":39.4889,"long":-96.17},{"zip":"66535","city":"Saint George","state":"KS","lat":39.2108,"long":-96.4345},{"zip":"66536","city":"Saint Marys","state":"KS","lat":39.1987,"long":-96.0683},{"zip":"66547","city":"Wamego","state":"KS","lat":39.21,"long":-96.3153},{"zip":"66549","city":"Westmoreland","state":"KS","lat":39.4138,"long":-96.4374},{"zip":"66502","city":"Manhattan","state":"KS","lat":39.1938,"long":-96.5858},{"zip":"66503","city":"Manhattan","state":"KS","lat":39.2458,"long":-96.6336},{"zip":"66505","city":"Manhattan","state":"KS","lat":39.3049,"long":-96.6753},{"zip":"66506","city":"Manhattan","state":"KS","lat":39.196,"long":-96.5839},{"zip":"66517","city":"Ogden","state":"KS","lat":39.1153,"long":-96.7101},{"zip":"66531","city":"Riley","state":"KS","lat":39.3005,"long":-96.8222},{"zip":"66554","city":"Randolph","state":"KS","lat":39.4879,"long":-96.7828},{"zip":"66533","city":"Rossville","state":"KS","lat":39.1451,"long":-95.9553},{"zip":"66539","city":"Silver Lake","state":"KS","lat":39.1102,"long":-95.8552},{"zip":"66542","city":"Tecumseh","state":"KS","lat":39.0217,"long":-95.5379},{"zip":"66546","city":"Wakarusa","state":"KS","lat":38.9045,"long":-95.7015},{"zip":"66501","city":"Mc Farland","state":"KS","lat":39.0535,"long":-96.2379},{"zip":"66507","city":"Maple Hill","state":"KS","lat":39.0447,"long":-96.0397},{"zip":"66526","city":"Paxico","state":"KS","lat":39.0803,"long":-96.1818}]
