[{"zip":"66732","city":"Elsmore","state":"KS","lat":37.8035,"long":-95.1546},{"zip":"66742","city":"Gas","state":"KS","lat":37.9232,"long":-95.3467},{"zip":"66748","city":"Humboldt","state":"KS","lat":37.8045,"long":-95.422},{"zip":"66749","city":"Iola","state":"KS","lat":37.9245,"long":-95.4},{"zip":"66751","city":"La Harpe","state":"KS","lat":37.917,"long":-95.2991},{"zip":"66755","city":"Moran","state":"KS","lat":37.9342,"long":-95.1647},{"zip":"66772","city":"Savonburg","state":"KS","lat":37.7517,"long":-95.1545},{"zip":"66701","city":"Fort Scott","state":"KS","lat":37.8216,"long":-94.7148},{"zip":"66716","city":"Bronson","state":"KS","lat":37.9214,"long":-95.0303},{"zip":"66738","city":"Fulton","state":"KS","lat":38.0134,"long":-94.7183},{"zip":"66741","city":"Garland","state":"KS","lat":37.7175,"long":-94.6613},{"zip":"66754","city":"Mapleton","state":"KS","lat":38.0228,"long":-94.8735},{"zip":"66769","city":"Redfield","state":"KS","lat":37.8367,"long":-94.8805},{"zip":"66779","city":"Uniontown","state":"KS","lat":37.8473,"long":-94.9752},{"zip":"66713","city":"Baxter Springs","state":"KS","lat":37.0281,"long":-94.7393},{"zip":"66725","city":"Columbus","state":"KS","lat":37.1699,"long":-94.8899},{"zip":"66728","city":"Crestline","state":"KS","lat":37.1694,"long":-94.7041},{"zip":"66739","city":"Galena","state":"KS","lat":37.0632,"long":-94.6557},{"zip":"66770","city":"Riverton","state":"KS","lat":37.081,"long":-94.7175},{"zip":"66773","city":"Scammon","state":"KS","lat":37.2809,"long":-94.8092},{"zip":"66778","city":"Treece","state":"KS","lat":37.0005,"long":-94.8409},{"zip":"66781","city":"Weir","state":"KS","lat":37.2912,"long":-94.7286},{"zip":"66782","city":"West Mineral","state":"KS","lat":37.2851,"long":-94.9261},{"zip":"66711","city":"Arcadia","state":"KS","lat":37.6341,"long":-94.6548},{"zip":"66712","city":"Arma","state":"KS","lat":37.5573,"long":-94.6949},{"zip":"66724","city":"Cherokee","state":"KS","lat":37.3694,"long":-94.8424},{"zip":"66734","city":"Farlington","state":"KS","lat":37.6163,"long":-94.8479},{"zip":"66735","city":"Franklin","state":"KS","lat":37.5219,"long":-94.7096},{"zip":"66743","city":"Girard","state":"KS","lat":37.5091,"long":-94.8569},{"zip":"66746","city":"Hepler","state":"KS","lat":37.6576,"long":-94.9892},{"zip":"66753","city":"Mc Cune","state":"KS","lat":37.3468,"long":-95.0376},{"zip":"66756","city":"Mulberry","state":"KS","lat":37.5442,"long":-94.6839},{"zip":"66760","city":"Opolis","state":"KS","lat":37.342,"long":-94.6199},{"zip":"66762","city":"Pittsburg","state":"KS","lat":37.3951,"long":-94.7105},{"zip":"66763","city":"Frontenac","state":"KS","lat":37.4466,"long":-94.6916},{"zip":"66780","city":"Walnut","state":"KS","lat":37.5967,"long":-95.0455},{"zip":"66767","city":"Prescott","state":"KS","lat":38.0718,"long":-94.7008},{"zip":"66720","city":"Chanute","state":"KS","lat":37.6749,"long":-95.457},{"zip":"66733","city":"Erie","state":"KS","lat":37.6044,"long":-95.2514},{"zip":"66740","city":"Galesburg","state":"KS","lat":37.4724,"long":-95.3707},{"zip":"66771","city":"Saint Paul","state":"KS","lat":37.518,"long":-95.1688},{"zip":"66775","city":"Stark","state":"KS","lat":37.6811,"long":-95.1388},{"zip":"66776","city":"Thayer","state":"KS","lat":37.4527,"long":-95.4671},{"zip":"66710","city":"Altoona","state":"KS","lat":37.5197,"long":-95.6483},{"zip":"66714","city":"Benedict","state":"KS","lat":37.6118,"long":-95.7038},{"zip":"66717","city":"Buffalo","state":"KS","lat":37.7011,"long":-95.7014},{"zip":"66736","city":"Fredonia","state":"KS","lat":37.5717,"long":-95.7484},{"zip":"66757","city":"Neodesha","state":"KS","lat":37.4257,"long":-95.6765},{"zip":"66759","city":"New Albany","state":"KS","lat":37.569,"long":-95.9379},{"zip":"66758","city":"Neosho Falls","state":"KS","lat":37.9669,"long":-95.5497},{"zip":"66761","city":"Piqua","state":"KS","lat":37.9228,"long":-95.5353},{"zip":"66777","city":"Toronto","state":"KS","lat":37.7953,"long":-95.9368},{"zip":"66783","city":"Yates Center","state":"KS","lat":37.8801,"long":-95.7289}]
