[{"zip":"66901","city":"Concordia","state":"KS","lat":39.5516,"long":-97.6568},{"zip":"66938","city":"Clyde","state":"KS","lat":39.5758,"long":-97.408},{"zip":"66948","city":"Jamestown","state":"KS","lat":39.6021,"long":-97.8631},{"zip":"66936","city":"Burr Oak","state":"KS","lat":39.8932,"long":-98.3499},{"zip":"66941","city":"Esbon","state":"KS","lat":39.7562,"long":-98.4462},{"zip":"66942","city":"Formoso","state":"KS","lat":39.7795,"long":-97.9889},{"zip":"66949","city":"Jewell","state":"KS","lat":39.6719,"long":-98.1472},{"zip":"66956","city":"Mankato","state":"KS","lat":39.7833,"long":-98.2152},{"zip":"66963","city":"Randall","state":"KS","lat":39.6286,"long":-98.0661},{"zip":"66970","city":"Webber","state":"KS","lat":39.935,"long":-98.035},{"zip":"66930","city":"Agenda","state":"KS","lat":39.7044,"long":-97.4465},{"zip":"66935","city":"Belleville","state":"KS","lat":39.8241,"long":-97.629},{"zip":"66939","city":"Courtland","state":"KS","lat":39.7851,"long":-97.89},{"zip":"66940","city":"Cuba","state":"KS","lat":39.7975,"long":-97.4496},{"zip":"66959","city":"Munden","state":"KS","lat":39.9272,"long":-97.5403},{"zip":"66960","city":"Narka","state":"KS","lat":39.9582,"long":-97.4243},{"zip":"66961","city":"Norway","state":"KS","lat":39.8279,"long":-97.6509},{"zip":"66964","city":"Republic","state":"KS","lat":39.9376,"long":-97.8435},{"zip":"66966","city":"Scandia","state":"KS","lat":39.7939,"long":-97.7786},{"zip":"66932","city":"Athol","state":"KS","lat":39.7719,"long":-98.9077},{"zip":"66951","city":"Kensington","state":"KS","lat":39.7692,"long":-99.0308},{"zip":"66952","city":"Lebanon","state":"KS","lat":39.8077,"long":-98.556},{"zip":"66967","city":"Smith Center","state":"KS","lat":39.8042,"long":-98.7842},{"zip":"66933","city":"Barnes","state":"KS","lat":39.6841,"long":-96.8676},{"zip":"66937","city":"Clifton","state":"KS","lat":39.6201,"long":-97.2611},{"zip":"66943","city":"Greenleaf","state":"KS","lat":39.7061,"long":-96.9775},{"zip":"66944","city":"Haddam","state":"KS","lat":39.852,"long":-97.3081},{"zip":"66945","city":"Hanover","state":"KS","lat":39.8927,"long":-96.8689},{"zip":"66946","city":"Hollenberg","state":"KS","lat":39.96,"long":-96.9735},{"zip":"66953","city":"Linn","state":"KS","lat":39.6847,"long":-97.0854},{"zip":"66955","city":"Mahaska","state":"KS","lat":39.9845,"long":-97.3453},{"zip":"66958","city":"Morrowville","state":"KS","lat":39.8616,"long":-97.1825},{"zip":"66962","city":"Palmer","state":"KS","lat":39.6192,"long":-97.1122},{"zip":"66968","city":"Washington","state":"KS","lat":39.8223,"long":-97.0484}]
