[{"zip":"67057","city":"Hardtner","state":"KS","lat":37.03,"long":-98.6547},{"zip":"67061","city":"Hazelton","state":"KS","lat":37.0984,"long":-98.4003},{"zip":"67065","city":"Isabel","state":"KS","lat":37.4485,"long":-98.5351},{"zip":"67070","city":"Kiowa","state":"KS","lat":37.0172,"long":-98.4859},{"zip":"67071","city":"Lake City","state":"KS","lat":37.3569,"long":-98.8098},{"zip":"67104","city":"Medicine Lodge","state":"KS","lat":37.2845,"long":-98.5848},{"zip":"67138","city":"Sharon","state":"KS","lat":37.2492,"long":-98.4142},{"zip":"67143","city":"Sun City","state":"KS","lat":37.3574,"long":-98.9127},{"zip":"67511","city":"Albert","state":"KS","lat":38.4528,"long":-99.0115},{"zip":"67525","city":"Claflin","state":"KS","lat":38.5409,"long":-98.5372},{"zip":"67526","city":"Ellinwood","state":"KS","lat":38.3565,"long":-98.5849},{"zip":"67530","city":"Great Bend","state":"KS","lat":38.3936,"long":-98.7751},{"zip":"67544","city":"Hoisington","state":"KS","lat":38.4789,"long":-98.7565},{"zip":"67564","city":"Olmitz","state":"KS","lat":38.5167,"long":-98.9365},{"zip":"67567","city":"Pawnee Rock","state":"KS","lat":38.2782,"long":-98.9814},{"zip":"67002","city":"Andover","state":"KS","lat":37.6985,"long":-97.1179},{"zip":"67010","city":"Augusta","state":"KS","lat":37.6836,"long":-96.9648},{"zip":"67012","city":"Beaumont","state":"KS","lat":37.658,"long":-96.5329},{"zip":"67017","city":"Benton","state":"KS","lat":37.7946,"long":-97.0971},{"zip":"67039","city":"Douglass","state":"KS","lat":37.5195,"long":-96.9948},{"zip":"67041","city":"Elbing","state":"KS","lat":38.0545,"long":-97.1284},{"zip":"67042","city":"El Dorado","state":"KS","lat":37.8226,"long":-96.8543},{"zip":"67072","city":"Latham","state":"KS","lat":37.531,"long":-96.6791},{"zip":"67074","city":"Leon","state":"KS","lat":37.6813,"long":-96.7526},{"zip":"67123","city":"Potwin","state":"KS","lat":37.9389,"long":-97.0198},{"zip":"67132","city":"Rosalia","state":"KS","lat":37.796,"long":-96.6482},{"zip":"67133","city":"Rose Hill","state":"KS","lat":37.5784,"long":-97.1173},{"zip":"67144","city":"Towanda","state":"KS","lat":37.8005,"long":-96.9918},{"zip":"67154","city":"Whitewater","state":"KS","lat":37.9612,"long":-97.1308},{"zip":"67024","city":"Cedar Vale","state":"KS","lat":37.1265,"long":-96.4701},{"zip":"67334","city":"Chautauqua","state":"KS","lat":37.0262,"long":-96.1783},{"zip":"67355","city":"Niotaze","state":"KS","lat":37.037,"long":-96.0121},{"zip":"67360","city":"Peru","state":"KS","lat":37.0568,"long":-96.1404},{"zip":"67361","city":"Sedan","state":"KS","lat":37.1297,"long":-96.1732},{"zip":"67731","city":"Bird City","state":"KS","lat":39.7579,"long":-101.5319},{"zip":"67756","city":"Saint Francis","state":"KS","lat":39.6804,"long":-101.9093},{"zip":"67831","city":"Ashland","state":"KS","lat":37.1823,"long":-99.759},{"zip":"67840","city":"Englewood","state":"KS","lat":37.0384,"long":-99.9835},{"zip":"67865","city":"Minneola","state":"KS","lat":37.4425,"long":-100.0088},{"zip":"67432","city":"Clay Center","state":"KS","lat":39.3844,"long":-97.1278},{"zip":"67447","city":"Green","state":"KS","lat":39.4803,"long":-97.0149},{"zip":"67458","city":"Longford","state":"KS","lat":39.1834,"long":-97.2499},{"zip":"67468","city":"Morganville","state":"KS","lat":39.4607,"long":-97.2467},{"zip":"67487","city":"Wakefield","state":"KS","lat":39.2249,"long":-97.0229},{"zip":"67417","city":"Aurora","state":"KS","lat":39.4472,"long":-97.5304},{"zip":"67445","city":"Glasco","state":"KS","lat":39.3621,"long":-97.8418},{"zip":"67466","city":"Miltonvale","state":"KS","lat":39.3481,"long":-97.4579},{"zip":"67029","city":"Coldwater","state":"KS","lat":37.2479,"long":-99.3115},{"zip":"67127","city":"Protection","state":"KS","lat":37.1968,"long":-99.4816},{"zip":"67155","city":"Wilmore","state":"KS","lat":37.3318,"long":-99.1846},{"zip":"67005","city":"Arkansas City","state":"KS","lat":37.0676,"long":-97.0357},{"zip":"67008","city":"Atlanta","state":"KS","lat":37.4343,"long":-96.7661},{"zip":"67019","city":"Burden","state":"KS","lat":37.3209,"long":-96.757},{"zip":"67023","city":"Cambridge","state":"KS","lat":37.3161,"long":-96.6645},{"zip":"67038","city":"Dexter","state":"KS","lat":37.1641,"long":-96.6917},{"zip":"67102","city":"Maple City","state":"KS","lat":37.2377,"long":-96.8389},{"zip":"67131","city":"Rock","state":"KS","lat":37.4413,"long":-97.0059},{"zip":"67146","city":"Udall","state":"KS","lat":37.3939,"long":-97.1108},{"zip":"67156","city":"Winfield","state":"KS","lat":37.2416,"long":-96.98},{"zip":"67635","city":"Dresden","state":"KS","lat":39.6094,"long":-100.4112},{"zip":"67643","city":"Jennings","state":"KS","lat":39.6762,"long":-100.2834},{"zip":"67653","city":"Norcatur","state":"KS","lat":39.8447,"long":-100.2007},{"zip":"67749","city":"Oberlin","state":"KS","lat":39.8275,"long":-100.5314},{"zip":"67410","city":"Abilene","state":"KS","lat":38.9371,"long":-97.2063},{"zip":"67431","city":"Chapman","state":"KS","lat":38.9722,"long":-97.017},{"zip":"67441","city":"Enterprise","state":"KS","lat":38.9063,"long":-97.1122},{"zip":"67449","city":"Herington","state":"KS","lat":38.6767,"long":-96.8941},{"zip":"67451","city":"Hope","state":"KS","lat":38.6776,"long":-97.1061},{"zip":"67480","city":"Solomon","state":"KS","lat":38.9194,"long":-97.3518},{"zip":"67482","city":"Talmage","state":"KS","lat":39.0269,"long":-97.2597},{"zip":"67492","city":"Woodbine","state":"KS","lat":38.8131,"long":-96.9619},{"zip":"67519","city":"Belpre","state":"KS","lat":37.9347,"long":-99.0936},{"zip":"67547","city":"Kinsley","state":"KS","lat":37.9247,"long":-99.4116},{"zip":"67552","city":"Lewis","state":"KS","lat":37.9062,"long":-99.248},{"zip":"67563","city":"Offerle","state":"KS","lat":37.8828,"long":-99.5498},{"zip":"67345","city":"Elk Falls","state":"KS","lat":37.3745,"long":-96.1959},{"zip":"67346","city":"Grenola","state":"KS","lat":37.3668,"long":-96.4396},{"zip":"67349","city":"Howard","state":"KS","lat":37.4809,"long":-96.2563},{"zip":"67352","city":"Longton","state":"KS","lat":37.3905,"long":-96.0814},{"zip":"67353","city":"Moline","state":"KS","lat":37.3649,"long":-96.3069},{"zip":"67601","city":"Hays","state":"KS","lat":38.8782,"long":-99.3348},{"zip":"67627","city":"Catharine","state":"KS","lat":38.9276,"long":-99.2161},{"zip":"67637","city":"Ellis","state":"KS","lat":38.9471,"long":-99.5285},{"zip":"67660","city":"Pfeifer","state":"KS","lat":38.7153,"long":-99.1718},{"zip":"67667","city":"Schoenchen","state":"KS","lat":38.7128,"long":-99.3322},{"zip":"67671","city":"Victoria","state":"KS","lat":38.8589,"long":-99.1391},{"zip":"67674","city":"Walker","state":"KS","lat":38.8672,"long":-99.0759},{"zip":"67439","city":"Ellsworth","state":"KS","lat":38.7312,"long":-98.2057},{"zip":"67450","city":"Holyrood","state":"KS","lat":38.59,"long":-98.4159},{"zip":"67454","city":"Kanopolis","state":"KS","lat":38.7091,"long":-98.1575},{"zip":"67459","city":"Lorraine","state":"KS","lat":38.5652,"long":-98.29},{"zip":"67490","city":"Wilson","state":"KS","lat":38.8134,"long":-98.4432},{"zip":"67846","city":"Garden City","state":"KS","lat":37.9769,"long":-100.8621},{"zip":"67851","city":"Holcomb","state":"KS","lat":37.9931,"long":-100.9893},{"zip":"67868","city":"Pierceville","state":"KS","lat":37.906,"long":-100.7523},{"zip":"67801","city":"Dodge City","state":"KS","lat":37.7569,"long":-100.0241},{"zip":"67834","city":"Bucklin","state":"KS","lat":37.553,"long":-99.6325},{"zip":"67842","city":"Ford","state":"KS","lat":37.6323,"long":-99.7642},{"zip":"67843","city":"Fort Dodge","state":"KS","lat":37.7303,"long":-99.937},{"zip":"67876","city":"Spearville","state":"KS","lat":37.8235,"long":-99.737},{"zip":"67882","city":"Wright","state":"KS","lat":37.7806,"long":-99.8921},{"zip":"67736","city":"Gove","state":"KS","lat":38.887,"long":-100.4867},{"zip":"67737","city":"Grainfield","state":"KS","lat":39.103,"long":-100.468},{"zip":"67738","city":"Grinnell","state":"KS","lat":39.0851,"long":-100.6621},{"zip":"67751","city":"Park","state":"KS","lat":39.0788,"long":-100.3469},{"zip":"67752","city":"Quinter","state":"KS","lat":39.0363,"long":-100.2337},{"zip":"67625","city":"Bogue","state":"KS","lat":39.3782,"long":-99.6788},{"zip":"67642","city":"Hill City","state":"KS","lat":39.3566,"long":-99.8429},{"zip":"67650","city":"Morland","state":"KS","lat":39.3229,"long":-100.0733},{"zip":"67659","city":"Penokee","state":"KS","lat":39.3482,"long":-99.9719},{"zip":"67880","city":"Ulysses","state":"KS","lat":37.5792,"long":-101.3488},{"zip":"67835","city":"Cimarron","state":"KS","lat":37.8127,"long":-100.3438},{"zip":"67837","city":"Copeland","state":"KS","lat":37.568,"long":-100.6148},{"zip":"67841","city":"Ensign","state":"KS","lat":37.6414,"long":-100.2496},{"zip":"67853","city":"Ingalls","state":"KS","lat":37.8293,"long":-100.5143},{"zip":"67867","city":"Montezuma","state":"KS","lat":37.6016,"long":-100.4461},{"zip":"67879","city":"Tribune","state":"KS","lat":38.4962,"long":-101.7656},{"zip":"67045","city":"Eureka","state":"KS","lat":37.8265,"long":-96.2959},{"zip":"67047","city":"Fall River","state":"KS","lat":37.621,"long":-96.0435},{"zip":"67122","city":"Piedmont","state":"KS","lat":37.6372,"long":-96.3695},{"zip":"67137","city":"Severy","state":"KS","lat":37.617,"long":-96.2252},{"zip":"67836","city":"Coolidge","state":"KS","lat":38.0215,"long":-102.007},{"zip":"67857","city":"Kendall","state":"KS","lat":37.9347,"long":-101.546},{"zip":"67878","city":"Syracuse","state":"KS","lat":37.9826,"long":-101.7687},{"zip":"67003","city":"Anthony","state":"KS","lat":37.1512,"long":-98.0285},{"zip":"67009","city":"Attica","state":"KS","lat":37.2528,"long":-98.2264},{"zip":"67018","city":"Bluff City","state":"KS","lat":37.0838,"long":-97.8754},{"zip":"67036","city":"Danville","state":"KS","lat":37.2674,"long":-97.8689},{"zip":"67049","city":"Freeport","state":"KS","lat":37.1903,"long":-97.8634},{"zip":"67058","city":"Harper","state":"KS","lat":37.2909,"long":-98.018},{"zip":"67150","city":"Waldron","state":"KS","lat":37.0022,"long":-98.1826},{"zip":"67020","city":"Burrton","state":"KS","lat":38.0261,"long":-97.6666},{"zip":"67056","city":"Halstead","state":"KS","lat":38.0064,"long":-97.5118},{"zip":"67062","city":"Hesston","state":"KS","lat":38.136,"long":-97.4495},{"zip":"67114","city":"Newton","state":"KS","lat":38.0451,"long":-97.3435},{"zip":"67117","city":"North Newton","state":"KS","lat":38.0743,"long":-97.3473},{"zip":"67135","city":"Sedgwick","state":"KS","lat":37.9167,"long":-97.4225},{"zip":"67151","city":"Walton","state":"KS","lat":38.1239,"long":-97.2361},{"zip":"67870","city":"Satanta","state":"KS","lat":37.4409,"long":-100.9691},{"zip":"67877","city":"Sublette","state":"KS","lat":37.5221,"long":-100.8208},{"zip":"67849","city":"Hanston","state":"KS","lat":38.109,"long":-99.6928},{"zip":"67854","city":"Jetmore","state":"KS","lat":38.0738,"long":-99.9327},{"zip":"67838","city":"Deerfield","state":"KS","lat":38.0068,"long":-101.1431},{"zip":"67860","city":"Lakin","state":"KS","lat":37.9382,"long":-101.2713},{"zip":"67035","city":"Cunningham","state":"KS","lat":37.6309,"long":-98.3564},{"zip":"67068","city":"Kingman","state":"KS","lat":37.5964,"long":-98.1304},{"zip":"67111","city":"Murdock","state":"KS","lat":37.6099,"long":-97.9503},{"zip":"67112","city":"Nashville","state":"KS","lat":37.4344,"long":-98.4171},{"zip":"67118","city":"Norwich","state":"KS","lat":37.4501,"long":-97.8662},{"zip":"67142","city":"Spivey","state":"KS","lat":37.441,"long":-98.1751},{"zip":"67159","city":"Zenda","state":"KS","lat":37.4373,"long":-98.2874},{"zip":"67054","city":"Greensburg","state":"KS","lat":37.6084,"long":-99.3011},{"zip":"67059","city":"Haviland","state":"KS","lat":37.6096,"long":-99.134},{"zip":"67109","city":"Mullinville","state":"KS","lat":37.5716,"long":-99.4639},{"zip":"67330","city":"Altamont","state":"KS","lat":37.1873,"long":-95.2983},{"zip":"67332","city":"Bartlett","state":"KS","lat":37.0601,"long":-95.2115},{"zip":"67336","city":"Chetopa","state":"KS","lat":37.0418,"long":-95.0796},{"zip":"67341","city":"Dennis","state":"KS","lat":37.3243,"long":-95.4116},{"zip":"67342","city":"Edna","state":"KS","lat":37.0561,"long":-95.3442},{"zip":"67354","city":"Mound Valley","state":"KS","lat":37.2091,"long":-95.4247},{"zip":"67356","city":"Oswego","state":"KS","lat":37.1823,"long":-95.1335},{"zip":"67357","city":"Parsons","state":"KS","lat":37.3389,"long":-95.2693},{"zip":"67839","city":"Dighton","state":"KS","lat":38.4742,"long":-100.4647},{"zip":"67850","city":"Healy","state":"KS","lat":38.5664,"long":-100.6159},{"zip":"67418","city":"Barnard","state":"KS","lat":39.1816,"long":-98.0711},{"zip":"67423","city":"Beverly","state":"KS","lat":38.9844,"long":-97.9818},{"zip":"67455","city":"Lincoln","state":"KS","lat":39.1027,"long":-98.2149},{"zip":"67481","city":"Sylvan Grove","state":"KS","lat":39.0324,"long":-98.373},{"zip":"67747","city":"Monument","state":"KS","lat":39.079,"long":-101.035},{"zip":"67748","city":"Oakley","state":"KS","lat":39.1121,"long":-100.858},{"zip":"67764","city":"Winona","state":"KS","lat":39.061,"long":-101.2216},{"zip":"67107","city":"Moundridge","state":"KS","lat":38.206,"long":-97.5088},{"zip":"67428","city":"Canton","state":"KS","lat":38.3858,"long":-97.4291},{"zip":"67443","city":"Galva","state":"KS","lat":38.3824,"long":-97.5359},{"zip":"67456","city":"Lindsborg","state":"KS","lat":38.5761,"long":-97.6739},{"zip":"67460","city":"Mcpherson","state":"KS","lat":38.3763,"long":-97.6702},{"zip":"67464","city":"Marquette","state":"KS","lat":38.556,"long":-97.8381},{"zip":"67476","city":"Roxbury","state":"KS","lat":38.5508,"long":-97.4303},{"zip":"67491","city":"Windom","state":"KS","lat":38.3845,"long":-97.8965},{"zip":"67546","city":"Inman","state":"KS","lat":38.2232,"long":-97.7951},{"zip":"67053","city":"Goessel","state":"KS","lat":38.2468,"long":-97.3463},{"zip":"67063","city":"Hillsboro","state":"KS","lat":38.3449,"long":-97.2122},{"zip":"67073","city":"Lehigh","state":"KS","lat":38.3771,"long":-97.3043},{"zip":"67438","city":"Durham","state":"KS","lat":38.5038,"long":-97.2555},{"zip":"67475","city":"Ramona","state":"KS","lat":38.5777,"long":-97.0759},{"zip":"67483","city":"Tampa","state":"KS","lat":38.5534,"long":-97.1774},{"zip":"67844","city":"Fowler","state":"KS","lat":37.3542,"long":-100.1981},{"zip":"67864","city":"Meade","state":"KS","lat":37.2821,"long":-100.3364},{"zip":"67869","city":"Plains","state":"KS","lat":37.2701,"long":-100.5732},{"zip":"67420","city":"Beloit","state":"KS","lat":39.4416,"long":-98.1192},{"zip":"67430","city":"Cawker City","state":"KS","lat":39.5115,"long":-98.4335},{"zip":"67446","city":"Glen Elder","state":"KS","lat":39.4958,"long":-98.3155},{"zip":"67452","city":"Hunter","state":"KS","lat":39.243,"long":-98.4017},{"zip":"67478","city":"Simpson","state":"KS","lat":39.3851,"long":-97.9328},{"zip":"67485","city":"Tipton","state":"KS","lat":39.3436,"long":-98.4644},{"zip":"67301","city":"Independence","state":"KS","lat":37.2292,"long":-95.7165},{"zip":"67333","city":"Caney","state":"KS","lat":37.0224,"long":-95.9091},{"zip":"67335","city":"Cherryvale","state":"KS","lat":37.2668,"long":-95.559},{"zip":"67337","city":"Coffeyville","state":"KS","lat":37.0441,"long":-95.6328},{"zip":"67340","city":"Dearing","state":"KS","lat":37.0596,"long":-95.7131},{"zip":"67344","city":"Elk City","state":"KS","lat":37.3146,"long":-95.9135},{"zip":"67347","city":"Havana","state":"KS","lat":37.0917,"long":-95.9414},{"zip":"67351","city":"Liberty","state":"KS","lat":37.1576,"long":-95.6017},{"zip":"67363","city":"Sycamore","state":"KS","lat":37.3281,"long":-95.717},{"zip":"67364","city":"Tyro","state":"KS","lat":37.037,"long":-95.8237},{"zip":"67950","city":"Elkhart","state":"KS","lat":37.0154,"long":-101.9012},{"zip":"67953","city":"Richfield","state":"KS","lat":37.2834,"long":-101.7004},{"zip":"67954","city":"Rolla","state":"KS","lat":37.1089,"long":-101.6447},{"zip":"67515","city":"Arnold","state":"KS","lat":38.6403,"long":-100.0462},{"zip":"67516","city":"Bazine","state":"KS","lat":38.4565,"long":-99.7016},{"zip":"67518","city":"Beeler","state":"KS","lat":38.4445,"long":-100.1949},{"zip":"67521","city":"Brownell","state":"KS","lat":38.6239,"long":-99.7328},{"zip":"67560","city":"Ness City","state":"KS","lat":38.4388,"long":-99.9029},{"zip":"67572","city":"Ransom","state":"KS","lat":38.64,"long":-99.9267},{"zip":"67584","city":"Utica","state":"KS","lat":38.6411,"long":-100.138},{"zip":"67622","city":"Almena","state":"KS","lat":39.8891,"long":-99.7042},{"zip":"67629","city":"Clayton","state":"KS","lat":39.7375,"long":-100.1776},{"zip":"67645","city":"Lenora","state":"KS","lat":39.6105,"long":-100.0028},{"zip":"67654","city":"Norton","state":"KS","lat":39.8407,"long":-99.8878},{"zip":"67437","city":"Downs","state":"KS","lat":39.5028,"long":-98.5441},{"zip":"67473","city":"Osborne","state":"KS","lat":39.4194,"long":-98.6961},{"zip":"67474","city":"Portis","state":"KS","lat":39.5455,"long":-98.6904},{"zip":"67623","city":"Alton","state":"KS","lat":39.4514,"long":-98.9539},{"zip":"67651","city":"Natoma","state":"KS","lat":39.2013,"long":-98.9829},{"zip":"67422","city":"Bennington","state":"KS","lat":39.0224,"long":-97.6031},{"zip":"67436","city":"Delphos","state":"KS","lat":39.2731,"long":-97.7717},{"zip":"67467","city":"Minneapolis","state":"KS","lat":39.1295,"long":-97.6688},{"zip":"67484","city":"Tescott","state":"KS","lat":38.9916,"long":-97.8319},{"zip":"67523","city":"Burdett","state":"KS","lat":38.2104,"long":-99.5275},{"zip":"67529","city":"Garfield","state":"KS","lat":38.0649,"long":-99.2374},{"zip":"67550","city":"Larned","state":"KS","lat":38.1946,"long":-99.101},{"zip":"67574","city":"Rozel","state":"KS","lat":38.2148,"long":-99.4048},{"zip":"67621","city":"Agra","state":"KS","lat":39.8037,"long":-99.1255},{"zip":"67639","city":"Glade","state":"KS","lat":39.6704,"long":-99.2996},{"zip":"67644","city":"Kirwin","state":"KS","lat":39.6717,"long":-99.1204},{"zip":"67646","city":"Logan","state":"KS","lat":39.6611,"long":-99.5687},{"zip":"67647","city":"Long Island","state":"KS","lat":39.9517,"long":-99.5391},{"zip":"67661","city":"Phillipsburg","state":"KS","lat":39.7623,"long":-99.3328},{"zip":"67664","city":"Prairie View","state":"KS","lat":39.837,"long":-99.5683},{"zip":"67021","city":"Byers","state":"KS","lat":37.7847,"long":-98.9017},{"zip":"67028","city":"Coats","state":"KS","lat":37.5125,"long":-98.8504},{"zip":"67066","city":"Iuka","state":"KS","lat":37.7397,"long":-98.7361},{"zip":"67124","city":"Pratt","state":"KS","lat":37.6502,"long":-98.73},{"zip":"67134","city":"Sawyer","state":"KS","lat":37.5101,"long":-98.6642},{"zip":"67730","city":"Atwood","state":"KS","lat":39.7926,"long":-101.0318},{"zip":"67739","city":"Herndon","state":"KS","lat":39.9036,"long":-100.8139},{"zip":"67744","city":"Ludell","state":"KS","lat":39.863,"long":-100.9604},{"zip":"67745","city":"Mc Donald","state":"KS","lat":39.7923,"long":-101.3227},{"zip":"67501","city":"Hutchinson","state":"KS","lat":38.055,"long":-97.9311},{"zip":"67502","city":"Hutchinson","state":"KS","lat":38.1156,"long":-97.8937},{"zip":"67504","city":"Hutchinson","state":"KS","lat":37.9532,"long":-98.0859},{"zip":"67505","city":"South Hutchinson","state":"KS","lat":38.0282,"long":-97.9431},{"zip":"67510","city":"Abbyville","state":"KS","lat":37.9626,"long":-98.2071},{"zip":"67514","city":"Arlington","state":"KS","lat":37.8598,"long":-98.159},{"zip":"67522","city":"Buhler","state":"KS","lat":38.1309,"long":-97.7691},{"zip":"67543","city":"Haven","state":"KS","lat":37.8989,"long":-97.7828},{"zip":"67561","city":"Nickerson","state":"KS","lat":38.1412,"long":-98.0674},{"zip":"67566","city":"Partridge","state":"KS","lat":37.9671,"long":-98.0798},{"zip":"67568","city":"Plevna","state":"KS","lat":37.9658,"long":-98.2988},{"zip":"67570","city":"Pretty Prairie","state":"KS","lat":37.7783,"long":-97.9886},{"zip":"67581","city":"Sylvia","state":"KS","lat":37.9557,"long":-98.4068},{"zip":"67583","city":"Turon","state":"KS","lat":37.8224,"long":-98.3591},{"zip":"67585","city":"Yoder","state":"KS","lat":37.9412,"long":-97.8711},{"zip":"67427","city":"Bushton","state":"KS","lat":38.5018,"long":-98.4016},{"zip":"67444","city":"Geneseo","state":"KS","lat":38.5037,"long":-98.1858},{"zip":"67457","city":"Little River","state":"KS","lat":38.4079,"long":-98.0113},{"zip":"67512","city":"Alden","state":"KS","lat":38.2343,"long":-98.3112},{"zip":"67524","city":"Chase","state":"KS","lat":38.3635,"long":-98.3556},{"zip":"67554","city":"Lyons","state":"KS","lat":38.3349,"long":-98.1831},{"zip":"67573","city":"Raymond","state":"KS","lat":38.2877,"long":-98.4119},{"zip":"67579","city":"Sterling","state":"KS","lat":38.2126,"long":-98.2055},{"zip":"67632","city":"Damar","state":"KS","lat":39.3242,"long":-99.5811},{"zip":"67657","city":"Palco","state":"KS","lat":39.2531,"long":-99.5593},{"zip":"67663","city":"Plainville","state":"KS","lat":39.2308,"long":-99.3008},{"zip":"67669","city":"Stockton","state":"KS","lat":39.4376,"long":-99.2871},{"zip":"67675","city":"Woodston","state":"KS","lat":39.4431,"long":-99.1037},{"zip":"67513","city":"Alexander","state":"KS","lat":38.457,"long":-99.5378},{"zip":"67520","city":"Bison","state":"KS","lat":38.5193,"long":-99.1986},{"zip":"67548","city":"La Crosse","state":"KS","lat":38.5311,"long":-99.3097},{"zip":"67553","city":"Liebenthal","state":"KS","lat":38.6557,"long":-99.3203},{"zip":"67556","city":"Mc Cracken","state":"KS","lat":38.5957,"long":-99.554},{"zip":"67559","city":"Nekoma","state":"KS","lat":38.4372,"long":-99.4234},{"zip":"67565","city":"Otis","state":"KS","lat":38.5353,"long":-99.0534},{"zip":"67575","city":"Rush Center","state":"KS","lat":38.4533,"long":-99.3079},{"zip":"67626","city":"Bunker Hill","state":"KS","lat":38.8758,"long":-98.704},{"zip":"67634","city":"Dorrance","state":"KS","lat":38.8348,"long":-98.5695},{"zip":"67640","city":"Gorham","state":"KS","lat":38.8722,"long":-99.0112},{"zip":"67648","city":"Lucas","state":"KS","lat":39.0581,"long":-98.5352},{"zip":"67649","city":"Luray","state":"KS","lat":39.1039,"long":-98.6851},{"zip":"67658","city":"Paradise","state":"KS","lat":39.0756,"long":-98.9207},{"zip":"67665","city":"Russell","state":"KS","lat":38.8806,"long":-98.8595},{"zip":"67673","city":"Waldo","state":"KS","lat":39.0877,"long":-98.7785},{"zip":"67401","city":"Salina","state":"KS","lat":38.8237,"long":-97.6421},{"zip":"67402","city":"Salina","state":"KS","lat":38.8403,"long":-97.6114},{"zip":"67416","city":"Assaria","state":"KS","lat":38.6676,"long":-97.6203},{"zip":"67425","city":"Brookville","state":"KS","lat":38.7858,"long":-97.863},{"zip":"67442","city":"Falun","state":"KS","lat":38.6648,"long":-97.7554},{"zip":"67448","city":"Gypsum","state":"KS","lat":38.7047,"long":-97.4338},{"zip":"67470","city":"New Cambria","state":"KS","lat":38.896,"long":-97.523},{"zip":"67871","city":"Scott City","state":"KS","lat":38.4823,"long":-100.9064},{"zip":"67001","city":"Andale","state":"KS","lat":37.7797,"long":-97.6366},{"zip":"67016","city":"Bentley","state":"KS","lat":37.8866,"long":-97.5166},{"zip":"67025","city":"Cheney","state":"KS","lat":37.6353,"long":-97.7686},{"zip":"67026","city":"Clearwater","state":"KS","lat":37.5076,"long":-97.5082},{"zip":"67030","city":"Colwich","state":"KS","lat":37.7782,"long":-97.5405},{"zip":"67037","city":"Derby","state":"KS","lat":37.553,"long":-97.2549},{"zip":"67050","city":"Garden Plain","state":"KS","lat":37.6767,"long":-97.66},{"zip":"67052","city":"Goddard","state":"KS","lat":37.6597,"long":-97.5753},{"zip":"67055","city":"Greenwich","state":"KS","lat":37.7833,"long":-97.2054},{"zip":"67060","city":"Haysville","state":"KS","lat":37.5647,"long":-97.3553},{"zip":"67067","city":"Kechi","state":"KS","lat":37.7934,"long":-97.2737},{"zip":"67101","city":"Maize","state":"KS","lat":37.7747,"long":-97.4689},{"zip":"67108","city":"Mount Hope","state":"KS","lat":37.8684,"long":-97.6591},{"zip":"67120","city":"Peck","state":"KS","lat":37.5054,"long":-97.3408},{"zip":"67147","city":"Valley Center","state":"KS","lat":37.8616,"long":-97.2621},{"zip":"67149","city":"Viola","state":"KS","lat":37.5696,"long":-97.6306},{"zip":"67201","city":"Wichita","state":"KS","lat":37.6922,"long":-97.3375},{"zip":"67202","city":"Wichita","state":"KS","lat":37.6899,"long":-97.3355},{"zip":"67203","city":"Wichita","state":"KS","lat":37.7048,"long":-97.3638},{"zip":"67204","city":"Wichita","state":"KS","lat":37.7488,"long":-97.3566},{"zip":"67205","city":"Wichita","state":"KS","lat":37.7639,"long":-97.4269},{"zip":"67206","city":"Wichita","state":"KS","lat":37.7038,"long":-97.2253},{"zip":"67207","city":"Wichita","state":"KS","lat":37.671,"long":-97.2179},{"zip":"67208","city":"Wichita","state":"KS","lat":37.7024,"long":-97.2811},{"zip":"67209","city":"Wichita","state":"KS","lat":37.6779,"long":-97.4235},{"zip":"67210","city":"Wichita","state":"KS","lat":37.6379,"long":-97.2613},{"zip":"67211","city":"Wichita","state":"KS","lat":37.6662,"long":-97.3165},{"zip":"67212","city":"Wichita","state":"KS","lat":37.7007,"long":-97.4383},{"zip":"67213","city":"Wichita","state":"KS","lat":37.668,"long":-97.3591},{"zip":"67214","city":"Wichita","state":"KS","lat":37.7051,"long":-97.3133},{"zip":"67215","city":"Wichita","state":"KS","lat":37.6333,"long":-97.425},{"zip":"67216","city":"Wichita","state":"KS","lat":37.6223,"long":-97.3136},{"zip":"67217","city":"Wichita","state":"KS","lat":37.6266,"long":-97.3581},{"zip":"67218","city":"Wichita","state":"KS","lat":37.669,"long":-97.2802},{"zip":"67219","city":"Wichita","state":"KS","lat":37.7719,"long":-97.3175},{"zip":"67220","city":"Wichita","state":"KS","lat":37.7667,"long":-97.2805},{"zip":"67221","city":"Mcconnell Afb","state":"KS","lat":37.6066,"long":-97.2979},{"zip":"67223","city":"Wichita","state":"KS","lat":37.7367,"long":-97.499},{"zip":"67226","city":"Wichita","state":"KS","lat":37.7379,"long":-97.2479},{"zip":"67227","city":"Wichita","state":"KS","lat":37.6281,"long":-97.4916},{"zip":"67228","city":"Wichita","state":"KS","lat":37.7742,"long":-97.1711},{"zip":"67230","city":"Wichita","state":"KS","lat":37.6808,"long":-97.1558},{"zip":"67232","city":"Wichita","state":"KS","lat":37.6395,"long":-97.1714},{"zip":"67235","city":"Wichita","state":"KS","lat":37.7149,"long":-97.499},{"zip":"67260","city":"Wichita","state":"KS","lat":37.7194,"long":-97.2936},{"zip":"67275","city":"Wichita","state":"KS","lat":37.6936,"long":-97.4804},{"zip":"67276","city":"Wichita","state":"KS","lat":37.6936,"long":-97.4804},{"zip":"67277","city":"Wichita","state":"KS","lat":37.6936,"long":-97.4804},{"zip":"67278","city":"Wichita","state":"KS","lat":37.6922,"long":-97.3375},{"zip":"67859","city":"Kismet","state":"KS","lat":37.2042,"long":-100.7014},{"zip":"67901","city":"Liberal","state":"KS","lat":37.0438,"long":-100.9286},{"zip":"67905","city":"Liberal","state":"KS","lat":37.0216,"long":-100.938},{"zip":"67740","city":"Hoxie","state":"KS","lat":39.3322,"long":-100.4758},{"zip":"67757","city":"Selden","state":"KS","lat":39.5216,"long":-100.5257},{"zip":"67733","city":"Edson","state":"KS","lat":39.3579,"long":-101.521},{"zip":"67735","city":"Goodland","state":"KS","lat":39.3491,"long":-101.7164},{"zip":"67741","city":"Kanorado","state":"KS","lat":39.3438,"long":-102.0015},{"zip":"67628","city":"Cedar","state":"KS","lat":39.6602,"long":-98.9369},{"zip":"67638","city":"Gaylord","state":"KS","lat":39.6439,"long":-98.8476},{"zip":"67545","city":"Hudson","state":"KS","lat":38.1485,"long":-98.6408},{"zip":"67557","city":"Macksville","state":"KS","lat":37.9433,"long":-98.9481},{"zip":"67576","city":"St John","state":"KS","lat":38.0022,"long":-98.7601},{"zip":"67578","city":"Stafford","state":"KS","lat":37.9554,"long":-98.5929},{"zip":"67855","city":"Johnson","state":"KS","lat":37.5694,"long":-101.7194},{"zip":"67862","city":"Manter","state":"KS","lat":37.5451,"long":-101.9109},{"zip":"67951","city":"Hugoton","state":"KS","lat":37.1682,"long":-101.3346},{"zip":"67952","city":"Moscow","state":"KS","lat":37.3172,"long":-101.2427},{"zip":"67004","city":"Argonia","state":"KS","lat":37.284,"long":-97.7557},{"zip":"67013","city":"Belle Plaine","state":"KS","lat":37.4052,"long":-97.2852},{"zip":"67022","city":"Caldwell","state":"KS","lat":37.0452,"long":-97.6247},{"zip":"67031","city":"Conway Springs","state":"KS","lat":37.3903,"long":-97.6284},{"zip":"67051","city":"Geuda Springs","state":"KS","lat":37.0809,"long":-97.1795},{"zip":"67103","city":"Mayfield","state":"KS","lat":37.2518,"long":-97.5416},{"zip":"67105","city":"Milan","state":"KS","lat":37.2578,"long":-97.6521},{"zip":"67106","city":"Milton","state":"KS","lat":37.4401,"long":-97.7592},{"zip":"67110","city":"Mulvane","state":"KS","lat":37.4764,"long":-97.232},{"zip":"67119","city":"Oxford","state":"KS","lat":37.2653,"long":-97.1761},{"zip":"67140","city":"South Haven","state":"KS","lat":37.05,"long":-97.4042},{"zip":"67152","city":"Wellington","state":"KS","lat":37.2778,"long":-97.391},{"zip":"67701","city":"Colby","state":"KS","lat":39.383,"long":-101.0442},{"zip":"67732","city":"Brewster","state":"KS","lat":39.3655,"long":-101.373},{"zip":"67734","city":"Gem","state":"KS","lat":39.4296,"long":-100.8948},{"zip":"67743","city":"Levant","state":"KS","lat":39.3841,"long":-101.2096},{"zip":"67753","city":"Rexford","state":"KS","lat":39.4267,"long":-100.7461},{"zip":"67631","city":"Collyer","state":"KS","lat":39.0038,"long":-100.0862},{"zip":"67656","city":"Ogallah","state":"KS","lat":38.9914,"long":-99.7323},{"zip":"67672","city":"Wakeeney","state":"KS","lat":39.025,"long":-99.8796},{"zip":"67758","city":"Sharon Springs","state":"KS","lat":38.8857,"long":-101.7431},{"zip":"67761","city":"Wallace","state":"KS","lat":38.8747,"long":-101.5735},{"zip":"67762","city":"Weskan","state":"KS","lat":38.8649,"long":-101.9512},{"zip":"67861","city":"Leoti","state":"KS","lat":38.4987,"long":-101.3589},{"zip":"67863","city":"Marienthal","state":"KS","lat":38.4875,"long":-101.2129}]
