[{"zip":"67057","city":"Hardtner","state":"KS","lat":37.03,"long":-98.6547},{"zip":"67061","city":"Hazelton","state":"KS","lat":37.0984,"long":-98.4003},{"zip":"67065","city":"Isabel","state":"KS","lat":37.4485,"long":-98.5351},{"zip":"67070","city":"Kiowa","state":"KS","lat":37.0172,"long":-98.4859},{"zip":"67071","city":"Lake City","state":"KS","lat":37.3569,"long":-98.8098},{"zip":"67002","city":"Andover","state":"KS","lat":37.6985,"long":-97.1179},{"zip":"67010","city":"Augusta","state":"KS","lat":37.6836,"long":-96.9648},{"zip":"67012","city":"Beaumont","state":"KS","lat":37.658,"long":-96.5329},{"zip":"67017","city":"Benton","state":"KS","lat":37.7946,"long":-97.0971},{"zip":"67039","city":"Douglass","state":"KS","lat":37.5195,"long":-96.9948},{"zip":"67041","city":"Elbing","state":"KS","lat":38.0545,"long":-97.1284},{"zip":"67042","city":"El Dorado","state":"KS","lat":37.8226,"long":-96.8543},{"zip":"67072","city":"Latham","state":"KS","lat":37.531,"long":-96.6791},{"zip":"67074","city":"Leon","state":"KS","lat":37.6813,"long":-96.7526},{"zip":"67024","city":"Cedar Vale","state":"KS","lat":37.1265,"long":-96.4701},{"zip":"67029","city":"Coldwater","state":"KS","lat":37.2479,"long":-99.3115},{"zip":"67005","city":"Arkansas City","state":"KS","lat":37.0676,"long":-97.0357},{"zip":"67008","city":"Atlanta","state":"KS","lat":37.4343,"long":-96.7661},{"zip":"67019","city":"Burden","state":"KS","lat":37.3209,"long":-96.757},{"zip":"67023","city":"Cambridge","state":"KS","lat":37.3161,"long":-96.6645},{"zip":"67038","city":"Dexter","state":"KS","lat":37.1641,"long":-96.6917},{"zip":"67045","city":"Eureka","state":"KS","lat":37.8265,"long":-96.2959},{"zip":"67047","city":"Fall River","state":"KS","lat":37.621,"long":-96.0435},{"zip":"67003","city":"Anthony","state":"KS","lat":37.1512,"long":-98.0285},{"zip":"67009","city":"Attica","state":"KS","lat":37.2528,"long":-98.2264},{"zip":"67018","city":"Bluff City","state":"KS","lat":37.0838,"long":-97.8754},{"zip":"67036","city":"Danville","state":"KS","lat":37.2674,"long":-97.8689},{"zip":"67049","city":"Freeport","state":"KS","lat":37.1903,"long":-97.8634},{"zip":"67058","city":"Harper","state":"KS","lat":37.2909,"long":-98.018},{"zip":"67020","city":"Burrton","state":"KS","lat":38.0261,"long":-97.6666},{"zip":"67056","city":"Halstead","state":"KS","lat":38.0064,"long":-97.5118},{"zip":"67062","city":"Hesston","state":"KS","lat":38.136,"long":-97.4495},{"zip":"67035","city":"Cunningham","state":"KS","lat":37.6309,"long":-98.3564},{"zip":"67068","city":"Kingman","state":"KS","lat":37.5964,"long":-98.1304},{"zip":"67054","city":"Greensburg","state":"KS","lat":37.6084,"long":-99.3011},{"zip":"67059","city":"Haviland","state":"KS","lat":37.6096,"long":-99.134},{"zip":"67053","city":"Goessel","state":"KS","lat":38.2468,"long":-97.3463},{"zip":"67063","city":"Hillsboro","state":"KS","lat":38.3449,"long":-97.2122},{"zip":"67073","city":"Lehigh","state":"KS","lat":38.3771,"long":-97.3043},{"zip":"67021","city":"Byers","state":"KS","lat":37.7847,"long":-98.9017},{"zip":"67028","city":"Coats","state":"KS","lat":37.5125,"long":-98.8504},{"zip":"67066","city":"Iuka","state":"KS","lat":37.7397,"long":-98.7361},{"zip":"67001","city":"Andale","state":"KS","lat":37.7797,"long":-97.6366},{"zip":"67016","city":"Bentley","state":"KS","lat":37.8866,"long":-97.5166},{"zip":"67025","city":"Cheney","state":"KS","lat":37.6353,"long":-97.7686},{"zip":"67026","city":"Clearwater","state":"KS","lat":37.5076,"long":-97.5082},{"zip":"67030","city":"Colwich","state":"KS","lat":37.7782,"long":-97.5405},{"zip":"67037","city":"Derby","state":"KS","lat":37.553,"long":-97.2549},{"zip":"67050","city":"Garden Plain","state":"KS","lat":37.6767,"long":-97.66},{"zip":"67052","city":"Goddard","state":"KS","lat":37.6597,"long":-97.5753},{"zip":"67055","city":"Greenwich","state":"KS","lat":37.7833,"long":-97.2054},{"zip":"67060","city":"Haysville","state":"KS","lat":37.5647,"long":-97.3553},{"zip":"67067","city":"Kechi","state":"KS","lat":37.7934,"long":-97.2737},{"zip":"67004","city":"Argonia","state":"KS","lat":37.284,"long":-97.7557},{"zip":"67013","city":"Belle Plaine","state":"KS","lat":37.4052,"long":-97.2852},{"zip":"67022","city":"Caldwell","state":"KS","lat":37.0452,"long":-97.6247},{"zip":"67031","city":"Conway Springs","state":"KS","lat":37.3903,"long":-97.6284},{"zip":"67051","city":"Geuda Springs","state":"KS","lat":37.0809,"long":-97.1795}]
