[{"zip":"67104","city":"Medicine Lodge","state":"KS","lat":37.2845,"long":-98.5848},{"zip":"67138","city":"Sharon","state":"KS","lat":37.2492,"long":-98.4142},{"zip":"67143","city":"Sun City","state":"KS","lat":37.3574,"long":-98.9127},{"zip":"67123","city":"Potwin","state":"KS","lat":37.9389,"long":-97.0198},{"zip":"67132","city":"Rosalia","state":"KS","lat":37.796,"long":-96.6482},{"zip":"67133","city":"Rose Hill","state":"KS","lat":37.5784,"long":-97.1173},{"zip":"67144","city":"Towanda","state":"KS","lat":37.8005,"long":-96.9918},{"zip":"67154","city":"Whitewater","state":"KS","lat":37.9612,"long":-97.1308},{"zip":"67127","city":"Protection","state":"KS","lat":37.1968,"long":-99.4816},{"zip":"67155","city":"Wilmore","state":"KS","lat":37.3318,"long":-99.1846},{"zip":"67102","city":"Maple City","state":"KS","lat":37.2377,"long":-96.8389},{"zip":"67131","city":"Rock","state":"KS","lat":37.4413,"long":-97.0059},{"zip":"67146","city":"Udall","state":"KS","lat":37.3939,"long":-97.1108},{"zip":"67156","city":"Winfield","state":"KS","lat":37.2416,"long":-96.98},{"zip":"67122","city":"Piedmont","state":"KS","lat":37.6372,"long":-96.3695},{"zip":"67137","city":"Severy","state":"KS","lat":37.617,"long":-96.2252},{"zip":"67150","city":"Waldron","state":"KS","lat":37.0022,"long":-98.1826},{"zip":"67114","city":"Newton","state":"KS","lat":38.0451,"long":-97.3435},{"zip":"67117","city":"North Newton","state":"KS","lat":38.0743,"long":-97.3473},{"zip":"67135","city":"Sedgwick","state":"KS","lat":37.9167,"long":-97.4225},{"zip":"67151","city":"Walton","state":"KS","lat":38.1239,"long":-97.2361},{"zip":"67111","city":"Murdock","state":"KS","lat":37.6099,"long":-97.9503},{"zip":"67112","city":"Nashville","state":"KS","lat":37.4344,"long":-98.4171},{"zip":"67118","city":"Norwich","state":"KS","lat":37.4501,"long":-97.8662},{"zip":"67142","city":"Spivey","state":"KS","lat":37.441,"long":-98.1751},{"zip":"67159","city":"Zenda","state":"KS","lat":37.4373,"long":-98.2874},{"zip":"67109","city":"Mullinville","state":"KS","lat":37.5716,"long":-99.4639},{"zip":"67107","city":"Moundridge","state":"KS","lat":38.206,"long":-97.5088},{"zip":"67124","city":"Pratt","state":"KS","lat":37.6502,"long":-98.73},{"zip":"67134","city":"Sawyer","state":"KS","lat":37.5101,"long":-98.6642},{"zip":"67101","city":"Maize","state":"KS","lat":37.7747,"long":-97.4689},{"zip":"67108","city":"Mount Hope","state":"KS","lat":37.8684,"long":-97.6591},{"zip":"67120","city":"Peck","state":"KS","lat":37.5054,"long":-97.3408},{"zip":"67147","city":"Valley Center","state":"KS","lat":37.8616,"long":-97.2621},{"zip":"67149","city":"Viola","state":"KS","lat":37.5696,"long":-97.6306},{"zip":"67103","city":"Mayfield","state":"KS","lat":37.2518,"long":-97.5416},{"zip":"67105","city":"Milan","state":"KS","lat":37.2578,"long":-97.6521},{"zip":"67106","city":"Milton","state":"KS","lat":37.4401,"long":-97.7592},{"zip":"67110","city":"Mulvane","state":"KS","lat":37.4764,"long":-97.232},{"zip":"67119","city":"Oxford","state":"KS","lat":37.2653,"long":-97.1761},{"zip":"67140","city":"South Haven","state":"KS","lat":37.05,"long":-97.4042},{"zip":"67152","city":"Wellington","state":"KS","lat":37.2778,"long":-97.391}]
