[{"zip":"67201","city":"Wichita","state":"KS","lat":37.6922,"long":-97.3375},{"zip":"67202","city":"Wichita","state":"KS","lat":37.6899,"long":-97.3355},{"zip":"67203","city":"Wichita","state":"KS","lat":37.7048,"long":-97.3638},{"zip":"67204","city":"Wichita","state":"KS","lat":37.7488,"long":-97.3566},{"zip":"67205","city":"Wichita","state":"KS","lat":37.7639,"long":-97.4269},{"zip":"67206","city":"Wichita","state":"KS","lat":37.7038,"long":-97.2253},{"zip":"67207","city":"Wichita","state":"KS","lat":37.671,"long":-97.2179},{"zip":"67208","city":"Wichita","state":"KS","lat":37.7024,"long":-97.2811},{"zip":"67209","city":"Wichita","state":"KS","lat":37.6779,"long":-97.4235},{"zip":"67210","city":"Wichita","state":"KS","lat":37.6379,"long":-97.2613},{"zip":"67211","city":"Wichita","state":"KS","lat":37.6662,"long":-97.3165},{"zip":"67212","city":"Wichita","state":"KS","lat":37.7007,"long":-97.4383},{"zip":"67213","city":"Wichita","state":"KS","lat":37.668,"long":-97.3591},{"zip":"67214","city":"Wichita","state":"KS","lat":37.7051,"long":-97.3133},{"zip":"67215","city":"Wichita","state":"KS","lat":37.6333,"long":-97.425},{"zip":"67216","city":"Wichita","state":"KS","lat":37.6223,"long":-97.3136},{"zip":"67217","city":"Wichita","state":"KS","lat":37.6266,"long":-97.3581},{"zip":"67218","city":"Wichita","state":"KS","lat":37.669,"long":-97.2802},{"zip":"67219","city":"Wichita","state":"KS","lat":37.7719,"long":-97.3175},{"zip":"67220","city":"Wichita","state":"KS","lat":37.7667,"long":-97.2805},{"zip":"67221","city":"Mcconnell Afb","state":"KS","lat":37.6066,"long":-97.2979},{"zip":"67223","city":"Wichita","state":"KS","lat":37.7367,"long":-97.499},{"zip":"67226","city":"Wichita","state":"KS","lat":37.7379,"long":-97.2479},{"zip":"67227","city":"Wichita","state":"KS","lat":37.6281,"long":-97.4916},{"zip":"67228","city":"Wichita","state":"KS","lat":37.7742,"long":-97.1711},{"zip":"67230","city":"Wichita","state":"KS","lat":37.6808,"long":-97.1558},{"zip":"67232","city":"Wichita","state":"KS","lat":37.6395,"long":-97.1714},{"zip":"67235","city":"Wichita","state":"KS","lat":37.7149,"long":-97.499},{"zip":"67260","city":"Wichita","state":"KS","lat":37.7194,"long":-97.2936},{"zip":"67275","city":"Wichita","state":"KS","lat":37.6936,"long":-97.4804},{"zip":"67276","city":"Wichita","state":"KS","lat":37.6936,"long":-97.4804},{"zip":"67277","city":"Wichita","state":"KS","lat":37.6936,"long":-97.4804},{"zip":"67278","city":"Wichita","state":"KS","lat":37.6922,"long":-97.3375}]
