[{"zip":"67334","city":"Chautauqua","state":"KS","lat":37.0262,"long":-96.1783},{"zip":"67355","city":"Niotaze","state":"KS","lat":37.037,"long":-96.0121},{"zip":"67360","city":"Peru","state":"KS","lat":37.0568,"long":-96.1404},{"zip":"67361","city":"Sedan","state":"KS","lat":37.1297,"long":-96.1732},{"zip":"67345","city":"Elk Falls","state":"KS","lat":37.3745,"long":-96.1959},{"zip":"67346","city":"Grenola","state":"KS","lat":37.3668,"long":-96.4396},{"zip":"67349","city":"Howard","state":"KS","lat":37.4809,"long":-96.2563},{"zip":"67352","city":"Longton","state":"KS","lat":37.3905,"long":-96.0814},{"zip":"67353","city":"Moline","state":"KS","lat":37.3649,"long":-96.3069},{"zip":"67330","city":"Altamont","state":"KS","lat":37.1873,"long":-95.2983},{"zip":"67332","city":"Bartlett","state":"KS","lat":37.0601,"long":-95.2115},{"zip":"67336","city":"Chetopa","state":"KS","lat":37.0418,"long":-95.0796},{"zip":"67341","city":"Dennis","state":"KS","lat":37.3243,"long":-95.4116},{"zip":"67342","city":"Edna","state":"KS","lat":37.0561,"long":-95.3442},{"zip":"67354","city":"Mound Valley","state":"KS","lat":37.2091,"long":-95.4247},{"zip":"67356","city":"Oswego","state":"KS","lat":37.1823,"long":-95.1335},{"zip":"67357","city":"Parsons","state":"KS","lat":37.3389,"long":-95.2693},{"zip":"67301","city":"Independence","state":"KS","lat":37.2292,"long":-95.7165},{"zip":"67333","city":"Caney","state":"KS","lat":37.0224,"long":-95.9091},{"zip":"67335","city":"Cherryvale","state":"KS","lat":37.2668,"long":-95.559},{"zip":"67337","city":"Coffeyville","state":"KS","lat":37.0441,"long":-95.6328},{"zip":"67340","city":"Dearing","state":"KS","lat":37.0596,"long":-95.7131},{"zip":"67344","city":"Elk City","state":"KS","lat":37.3146,"long":-95.9135},{"zip":"67347","city":"Havana","state":"KS","lat":37.0917,"long":-95.9414},{"zip":"67351","city":"Liberty","state":"KS","lat":37.1576,"long":-95.6017},{"zip":"67363","city":"Sycamore","state":"KS","lat":37.3281,"long":-95.717},{"zip":"67364","city":"Tyro","state":"KS","lat":37.037,"long":-95.8237}]
