[{"zip":"67432","city":"Clay Center","state":"KS","lat":39.3844,"long":-97.1278},{"zip":"67447","city":"Green","state":"KS","lat":39.4803,"long":-97.0149},{"zip":"67458","city":"Longford","state":"KS","lat":39.1834,"long":-97.2499},{"zip":"67468","city":"Morganville","state":"KS","lat":39.4607,"long":-97.2467},{"zip":"67487","city":"Wakefield","state":"KS","lat":39.2249,"long":-97.0229},{"zip":"67417","city":"Aurora","state":"KS","lat":39.4472,"long":-97.5304},{"zip":"67445","city":"Glasco","state":"KS","lat":39.3621,"long":-97.8418},{"zip":"67466","city":"Miltonvale","state":"KS","lat":39.3481,"long":-97.4579},{"zip":"67410","city":"Abilene","state":"KS","lat":38.9371,"long":-97.2063},{"zip":"67431","city":"Chapman","state":"KS","lat":38.9722,"long":-97.017},{"zip":"67441","city":"Enterprise","state":"KS","lat":38.9063,"long":-97.1122},{"zip":"67449","city":"Herington","state":"KS","lat":38.6767,"long":-96.8941},{"zip":"67451","city":"Hope","state":"KS","lat":38.6776,"long":-97.1061},{"zip":"67480","city":"Solomon","state":"KS","lat":38.9194,"long":-97.3518},{"zip":"67482","city":"Talmage","state":"KS","lat":39.0269,"long":-97.2597},{"zip":"67492","city":"Woodbine","state":"KS","lat":38.8131,"long":-96.9619},{"zip":"67439","city":"Ellsworth","state":"KS","lat":38.7312,"long":-98.2057},{"zip":"67450","city":"Holyrood","state":"KS","lat":38.59,"long":-98.4159},{"zip":"67454","city":"Kanopolis","state":"KS","lat":38.7091,"long":-98.1575},{"zip":"67459","city":"Lorraine","state":"KS","lat":38.5652,"long":-98.29},{"zip":"67490","city":"Wilson","state":"KS","lat":38.8134,"long":-98.4432},{"zip":"67418","city":"Barnard","state":"KS","lat":39.1816,"long":-98.0711},{"zip":"67423","city":"Beverly","state":"KS","lat":38.9844,"long":-97.9818},{"zip":"67455","city":"Lincoln","state":"KS","lat":39.1027,"long":-98.2149},{"zip":"67481","city":"Sylvan Grove","state":"KS","lat":39.0324,"long":-98.373},{"zip":"67428","city":"Canton","state":"KS","lat":38.3858,"long":-97.4291},{"zip":"67443","city":"Galva","state":"KS","lat":38.3824,"long":-97.5359},{"zip":"67456","city":"Lindsborg","state":"KS","lat":38.5761,"long":-97.6739},{"zip":"67460","city":"Mcpherson","state":"KS","lat":38.3763,"long":-97.6702},{"zip":"67464","city":"Marquette","state":"KS","lat":38.556,"long":-97.8381},{"zip":"67476","city":"Roxbury","state":"KS","lat":38.5508,"long":-97.4303},{"zip":"67491","city":"Windom","state":"KS","lat":38.3845,"long":-97.8965},{"zip":"67438","city":"Durham","state":"KS","lat":38.5038,"long":-97.2555},{"zip":"67475","city":"Ramona","state":"KS","lat":38.5777,"long":-97.0759},{"zip":"67483","city":"Tampa","state":"KS","lat":38.5534,"long":-97.1774},{"zip":"67420","city":"Beloit","state":"KS","lat":39.4416,"long":-98.1192},{"zip":"67430","city":"Cawker City","state":"KS","lat":39.5115,"long":-98.4335},{"zip":"67446","city":"Glen Elder","state":"KS","lat":39.4958,"long":-98.3155},{"zip":"67452","city":"Hunter","state":"KS","lat":39.243,"long":-98.4017},{"zip":"67478","city":"Simpson","state":"KS","lat":39.3851,"long":-97.9328},{"zip":"67485","city":"Tipton","state":"KS","lat":39.3436,"long":-98.4644},{"zip":"67437","city":"Downs","state":"KS","lat":39.5028,"long":-98.5441},{"zip":"67473","city":"Osborne","state":"KS","lat":39.4194,"long":-98.6961},{"zip":"67474","city":"Portis","state":"KS","lat":39.5455,"long":-98.6904},{"zip":"67422","city":"Bennington","state":"KS","lat":39.0224,"long":-97.6031},{"zip":"67436","city":"Delphos","state":"KS","lat":39.2731,"long":-97.7717},{"zip":"67467","city":"Minneapolis","state":"KS","lat":39.1295,"long":-97.6688},{"zip":"67484","city":"Tescott","state":"KS","lat":38.9916,"long":-97.8319},{"zip":"67427","city":"Bushton","state":"KS","lat":38.5018,"long":-98.4016},{"zip":"67444","city":"Geneseo","state":"KS","lat":38.5037,"long":-98.1858},{"zip":"67457","city":"Little River","state":"KS","lat":38.4079,"long":-98.0113},{"zip":"67401","city":"Salina","state":"KS","lat":38.8237,"long":-97.6421},{"zip":"67402","city":"Salina","state":"KS","lat":38.8403,"long":-97.6114},{"zip":"67416","city":"Assaria","state":"KS","lat":38.6676,"long":-97.6203},{"zip":"67425","city":"Brookville","state":"KS","lat":38.7858,"long":-97.863},{"zip":"67442","city":"Falun","state":"KS","lat":38.6648,"long":-97.7554},{"zip":"67448","city":"Gypsum","state":"KS","lat":38.7047,"long":-97.4338},{"zip":"67470","city":"New Cambria","state":"KS","lat":38.896,"long":-97.523}]
