[{"zip":"67511","city":"Albert","state":"KS","lat":38.4528,"long":-99.0115},{"zip":"67525","city":"Claflin","state":"KS","lat":38.5409,"long":-98.5372},{"zip":"67526","city":"Ellinwood","state":"KS","lat":38.3565,"long":-98.5849},{"zip":"67530","city":"Great Bend","state":"KS","lat":38.3936,"long":-98.7751},{"zip":"67544","city":"Hoisington","state":"KS","lat":38.4789,"long":-98.7565},{"zip":"67564","city":"Olmitz","state":"KS","lat":38.5167,"long":-98.9365},{"zip":"67567","city":"Pawnee Rock","state":"KS","lat":38.2782,"long":-98.9814},{"zip":"67519","city":"Belpre","state":"KS","lat":37.9347,"long":-99.0936},{"zip":"67547","city":"Kinsley","state":"KS","lat":37.9247,"long":-99.4116},{"zip":"67552","city":"Lewis","state":"KS","lat":37.9062,"long":-99.248},{"zip":"67563","city":"Offerle","state":"KS","lat":37.8828,"long":-99.5498},{"zip":"67546","city":"Inman","state":"KS","lat":38.2232,"long":-97.7951},{"zip":"67515","city":"Arnold","state":"KS","lat":38.6403,"long":-100.0462},{"zip":"67516","city":"Bazine","state":"KS","lat":38.4565,"long":-99.7016},{"zip":"67518","city":"Beeler","state":"KS","lat":38.4445,"long":-100.1949},{"zip":"67521","city":"Brownell","state":"KS","lat":38.6239,"long":-99.7328},{"zip":"67560","city":"Ness City","state":"KS","lat":38.4388,"long":-99.9029},{"zip":"67572","city":"Ransom","state":"KS","lat":38.64,"long":-99.9267},{"zip":"67584","city":"Utica","state":"KS","lat":38.6411,"long":-100.138},{"zip":"67523","city":"Burdett","state":"KS","lat":38.2104,"long":-99.5275},{"zip":"67529","city":"Garfield","state":"KS","lat":38.0649,"long":-99.2374},{"zip":"67550","city":"Larned","state":"KS","lat":38.1946,"long":-99.101},{"zip":"67574","city":"Rozel","state":"KS","lat":38.2148,"long":-99.4048},{"zip":"67501","city":"Hutchinson","state":"KS","lat":38.055,"long":-97.9311},{"zip":"67502","city":"Hutchinson","state":"KS","lat":38.1156,"long":-97.8937},{"zip":"67504","city":"Hutchinson","state":"KS","lat":37.9532,"long":-98.0859},{"zip":"67505","city":"South Hutchinson","state":"KS","lat":38.0282,"long":-97.9431},{"zip":"67510","city":"Abbyville","state":"KS","lat":37.9626,"long":-98.2071},{"zip":"67514","city":"Arlington","state":"KS","lat":37.8598,"long":-98.159},{"zip":"67522","city":"Buhler","state":"KS","lat":38.1309,"long":-97.7691},{"zip":"67543","city":"Haven","state":"KS","lat":37.8989,"long":-97.7828},{"zip":"67561","city":"Nickerson","state":"KS","lat":38.1412,"long":-98.0674},{"zip":"67566","city":"Partridge","state":"KS","lat":37.9671,"long":-98.0798},{"zip":"67568","city":"Plevna","state":"KS","lat":37.9658,"long":-98.2988},{"zip":"67570","city":"Pretty Prairie","state":"KS","lat":37.7783,"long":-97.9886},{"zip":"67581","city":"Sylvia","state":"KS","lat":37.9557,"long":-98.4068},{"zip":"67583","city":"Turon","state":"KS","lat":37.8224,"long":-98.3591},{"zip":"67585","city":"Yoder","state":"KS","lat":37.9412,"long":-97.8711},{"zip":"67512","city":"Alden","state":"KS","lat":38.2343,"long":-98.3112},{"zip":"67524","city":"Chase","state":"KS","lat":38.3635,"long":-98.3556},{"zip":"67554","city":"Lyons","state":"KS","lat":38.3349,"long":-98.1831},{"zip":"67573","city":"Raymond","state":"KS","lat":38.2877,"long":-98.4119},{"zip":"67579","city":"Sterling","state":"KS","lat":38.2126,"long":-98.2055},{"zip":"67513","city":"Alexander","state":"KS","lat":38.457,"long":-99.5378},{"zip":"67520","city":"Bison","state":"KS","lat":38.5193,"long":-99.1986},{"zip":"67548","city":"La Crosse","state":"KS","lat":38.5311,"long":-99.3097},{"zip":"67553","city":"Liebenthal","state":"KS","lat":38.6557,"long":-99.3203},{"zip":"67556","city":"Mc Cracken","state":"KS","lat":38.5957,"long":-99.554},{"zip":"67559","city":"Nekoma","state":"KS","lat":38.4372,"long":-99.4234},{"zip":"67565","city":"Otis","state":"KS","lat":38.5353,"long":-99.0534},{"zip":"67575","city":"Rush Center","state":"KS","lat":38.4533,"long":-99.3079},{"zip":"67545","city":"Hudson","state":"KS","lat":38.1485,"long":-98.6408},{"zip":"67557","city":"Macksville","state":"KS","lat":37.9433,"long":-98.9481},{"zip":"67576","city":"St John","state":"KS","lat":38.0022,"long":-98.7601},{"zip":"67578","city":"Stafford","state":"KS","lat":37.9554,"long":-98.5929}]
