[{"zip":"67635","city":"Dresden","state":"KS","lat":39.6094,"long":-100.4112},{"zip":"67643","city":"Jennings","state":"KS","lat":39.6762,"long":-100.2834},{"zip":"67653","city":"Norcatur","state":"KS","lat":39.8447,"long":-100.2007},{"zip":"67601","city":"Hays","state":"KS","lat":38.8782,"long":-99.3348},{"zip":"67627","city":"Catharine","state":"KS","lat":38.9276,"long":-99.2161},{"zip":"67637","city":"Ellis","state":"KS","lat":38.9471,"long":-99.5285},{"zip":"67660","city":"Pfeifer","state":"KS","lat":38.7153,"long":-99.1718},{"zip":"67667","city":"Schoenchen","state":"KS","lat":38.7128,"long":-99.3322},{"zip":"67671","city":"Victoria","state":"KS","lat":38.8589,"long":-99.1391},{"zip":"67674","city":"Walker","state":"KS","lat":38.8672,"long":-99.0759},{"zip":"67625","city":"Bogue","state":"KS","lat":39.3782,"long":-99.6788},{"zip":"67642","city":"Hill City","state":"KS","lat":39.3566,"long":-99.8429},{"zip":"67650","city":"Morland","state":"KS","lat":39.3229,"long":-100.0733},{"zip":"67659","city":"Penokee","state":"KS","lat":39.3482,"long":-99.9719},{"zip":"67622","city":"Almena","state":"KS","lat":39.8891,"long":-99.7042},{"zip":"67629","city":"Clayton","state":"KS","lat":39.7375,"long":-100.1776},{"zip":"67645","city":"Lenora","state":"KS","lat":39.6105,"long":-100.0028},{"zip":"67654","city":"Norton","state":"KS","lat":39.8407,"long":-99.8878},{"zip":"67623","city":"Alton","state":"KS","lat":39.4514,"long":-98.9539},{"zip":"67651","city":"Natoma","state":"KS","lat":39.2013,"long":-98.9829},{"zip":"67621","city":"Agra","state":"KS","lat":39.8037,"long":-99.1255},{"zip":"67639","city":"Glade","state":"KS","lat":39.6704,"long":-99.2996},{"zip":"67644","city":"Kirwin","state":"KS","lat":39.6717,"long":-99.1204},{"zip":"67646","city":"Logan","state":"KS","lat":39.6611,"long":-99.5687},{"zip":"67647","city":"Long Island","state":"KS","lat":39.9517,"long":-99.5391},{"zip":"67661","city":"Phillipsburg","state":"KS","lat":39.7623,"long":-99.3328},{"zip":"67664","city":"Prairie View","state":"KS","lat":39.837,"long":-99.5683},{"zip":"67632","city":"Damar","state":"KS","lat":39.3242,"long":-99.5811},{"zip":"67657","city":"Palco","state":"KS","lat":39.2531,"long":-99.5593},{"zip":"67663","city":"Plainville","state":"KS","lat":39.2308,"long":-99.3008},{"zip":"67669","city":"Stockton","state":"KS","lat":39.4376,"long":-99.2871},{"zip":"67675","city":"Woodston","state":"KS","lat":39.4431,"long":-99.1037},{"zip":"67626","city":"Bunker Hill","state":"KS","lat":38.8758,"long":-98.704},{"zip":"67634","city":"Dorrance","state":"KS","lat":38.8348,"long":-98.5695},{"zip":"67640","city":"Gorham","state":"KS","lat":38.8722,"long":-99.0112},{"zip":"67648","city":"Lucas","state":"KS","lat":39.0581,"long":-98.5352},{"zip":"67649","city":"Luray","state":"KS","lat":39.1039,"long":-98.6851},{"zip":"67658","city":"Paradise","state":"KS","lat":39.0756,"long":-98.9207},{"zip":"67665","city":"Russell","state":"KS","lat":38.8806,"long":-98.8595},{"zip":"67673","city":"Waldo","state":"KS","lat":39.0877,"long":-98.7785},{"zip":"67628","city":"Cedar","state":"KS","lat":39.6602,"long":-98.9369},{"zip":"67638","city":"Gaylord","state":"KS","lat":39.6439,"long":-98.8476},{"zip":"67631","city":"Collyer","state":"KS","lat":39.0038,"long":-100.0862},{"zip":"67656","city":"Ogallah","state":"KS","lat":38.9914,"long":-99.7323},{"zip":"67672","city":"Wakeeney","state":"KS","lat":39.025,"long":-99.8796}]
