[{"zip":"67731","city":"Bird City","state":"KS","lat":39.7579,"long":-101.5319},{"zip":"67756","city":"Saint Francis","state":"KS","lat":39.6804,"long":-101.9093},{"zip":"67749","city":"Oberlin","state":"KS","lat":39.8275,"long":-100.5314},{"zip":"67736","city":"Gove","state":"KS","lat":38.887,"long":-100.4867},{"zip":"67737","city":"Grainfield","state":"KS","lat":39.103,"long":-100.468},{"zip":"67738","city":"Grinnell","state":"KS","lat":39.0851,"long":-100.6621},{"zip":"67751","city":"Park","state":"KS","lat":39.0788,"long":-100.3469},{"zip":"67752","city":"Quinter","state":"KS","lat":39.0363,"long":-100.2337},{"zip":"67747","city":"Monument","state":"KS","lat":39.079,"long":-101.035},{"zip":"67748","city":"Oakley","state":"KS","lat":39.1121,"long":-100.858},{"zip":"67764","city":"Winona","state":"KS","lat":39.061,"long":-101.2216},{"zip":"67730","city":"Atwood","state":"KS","lat":39.7926,"long":-101.0318},{"zip":"67739","city":"Herndon","state":"KS","lat":39.9036,"long":-100.8139},{"zip":"67744","city":"Ludell","state":"KS","lat":39.863,"long":-100.9604},{"zip":"67745","city":"Mc Donald","state":"KS","lat":39.7923,"long":-101.3227},{"zip":"67740","city":"Hoxie","state":"KS","lat":39.3322,"long":-100.4758},{"zip":"67757","city":"Selden","state":"KS","lat":39.5216,"long":-100.5257},{"zip":"67733","city":"Edson","state":"KS","lat":39.3579,"long":-101.521},{"zip":"67735","city":"Goodland","state":"KS","lat":39.3491,"long":-101.7164},{"zip":"67741","city":"Kanorado","state":"KS","lat":39.3438,"long":-102.0015},{"zip":"67701","city":"Colby","state":"KS","lat":39.383,"long":-101.0442},{"zip":"67732","city":"Brewster","state":"KS","lat":39.3655,"long":-101.373},{"zip":"67734","city":"Gem","state":"KS","lat":39.4296,"long":-100.8948},{"zip":"67743","city":"Levant","state":"KS","lat":39.3841,"long":-101.2096},{"zip":"67753","city":"Rexford","state":"KS","lat":39.4267,"long":-100.7461},{"zip":"67758","city":"Sharon Springs","state":"KS","lat":38.8857,"long":-101.7431},{"zip":"67761","city":"Wallace","state":"KS","lat":38.8747,"long":-101.5735},{"zip":"67762","city":"Weskan","state":"KS","lat":38.8649,"long":-101.9512}]
