[{"zip":"67831","city":"Ashland","state":"KS","lat":37.1823,"long":-99.759},{"zip":"67840","city":"Englewood","state":"KS","lat":37.0384,"long":-99.9835},{"zip":"67865","city":"Minneola","state":"KS","lat":37.4425,"long":-100.0088},{"zip":"67846","city":"Garden City","state":"KS","lat":37.9769,"long":-100.8621},{"zip":"67851","city":"Holcomb","state":"KS","lat":37.9931,"long":-100.9893},{"zip":"67868","city":"Pierceville","state":"KS","lat":37.906,"long":-100.7523},{"zip":"67801","city":"Dodge City","state":"KS","lat":37.7569,"long":-100.0241},{"zip":"67834","city":"Bucklin","state":"KS","lat":37.553,"long":-99.6325},{"zip":"67842","city":"Ford","state":"KS","lat":37.6323,"long":-99.7642},{"zip":"67843","city":"Fort Dodge","state":"KS","lat":37.7303,"long":-99.937},{"zip":"67876","city":"Spearville","state":"KS","lat":37.8235,"long":-99.737},{"zip":"67882","city":"Wright","state":"KS","lat":37.7806,"long":-99.8921},{"zip":"67880","city":"Ulysses","state":"KS","lat":37.5792,"long":-101.3488},{"zip":"67835","city":"Cimarron","state":"KS","lat":37.8127,"long":-100.3438},{"zip":"67837","city":"Copeland","state":"KS","lat":37.568,"long":-100.6148},{"zip":"67841","city":"Ensign","state":"KS","lat":37.6414,"long":-100.2496},{"zip":"67853","city":"Ingalls","state":"KS","lat":37.8293,"long":-100.5143},{"zip":"67867","city":"Montezuma","state":"KS","lat":37.6016,"long":-100.4461},{"zip":"67879","city":"Tribune","state":"KS","lat":38.4962,"long":-101.7656},{"zip":"67836","city":"Coolidge","state":"KS","lat":38.0215,"long":-102.007},{"zip":"67857","city":"Kendall","state":"KS","lat":37.9347,"long":-101.546},{"zip":"67878","city":"Syracuse","state":"KS","lat":37.9826,"long":-101.7687},{"zip":"67870","city":"Satanta","state":"KS","lat":37.4409,"long":-100.9691},{"zip":"67877","city":"Sublette","state":"KS","lat":37.5221,"long":-100.8208},{"zip":"67849","city":"Hanston","state":"KS","lat":38.109,"long":-99.6928},{"zip":"67854","city":"Jetmore","state":"KS","lat":38.0738,"long":-99.9327},{"zip":"67838","city":"Deerfield","state":"KS","lat":38.0068,"long":-101.1431},{"zip":"67860","city":"Lakin","state":"KS","lat":37.9382,"long":-101.2713},{"zip":"67839","city":"Dighton","state":"KS","lat":38.4742,"long":-100.4647},{"zip":"67850","city":"Healy","state":"KS","lat":38.5664,"long":-100.6159},{"zip":"67844","city":"Fowler","state":"KS","lat":37.3542,"long":-100.1981},{"zip":"67864","city":"Meade","state":"KS","lat":37.2821,"long":-100.3364},{"zip":"67869","city":"Plains","state":"KS","lat":37.2701,"long":-100.5732},{"zip":"67871","city":"Scott City","state":"KS","lat":38.4823,"long":-100.9064},{"zip":"67859","city":"Kismet","state":"KS","lat":37.2042,"long":-100.7014},{"zip":"67855","city":"Johnson","state":"KS","lat":37.5694,"long":-101.7194},{"zip":"67862","city":"Manter","state":"KS","lat":37.5451,"long":-101.9109},{"zip":"67861","city":"Leoti","state":"KS","lat":38.4987,"long":-101.3589},{"zip":"67863","city":"Marienthal","state":"KS","lat":38.4875,"long":-101.2129}]
