[{"zip":"68901","city":"Hastings","state":"NE","lat":40.5877,"long":-98.3911},{"zip":"68902","city":"Hastings","state":"NE","lat":40.5896,"long":-98.3972},{"zip":"68925","city":"Ayr","state":"NE","lat":40.4411,"long":-98.439},{"zip":"68950","city":"Holstein","state":"NE","lat":40.4542,"long":-98.6538},{"zip":"68955","city":"Juniata","state":"NE","lat":40.5867,"long":-98.515},{"zip":"68956","city":"Kenesaw","state":"NE","lat":40.6165,"long":-98.6572},{"zip":"68973","city":"Roseland","state":"NE","lat":40.4591,"long":-98.5551},{"zip":"68636","city":"Elgin","state":"NE","lat":41.9732,"long":-98.0751},{"zip":"68720","city":"Brunswick","state":"NE","lat":42.3459,"long":-98.0123},{"zip":"68726","city":"Clearwater","state":"NE","lat":42.1266,"long":-98.1868},{"zip":"68756","city":"Neligh","state":"NE","lat":42.1389,"long":-98.0151},{"zip":"68761","city":"Oakdale","state":"NE","lat":42.0697,"long":-97.9692},{"zip":"68764","city":"Orchard","state":"NE","lat":42.3399,"long":-98.2409},{"zip":"68773","city":"Royal","state":"NE","lat":42.3648,"long":-98.1235},{"zip":"68821","city":"Brewster","state":"NE","lat":41.9467,"long":-99.8292},{"zip":"68833","city":"Dunning","state":"NE","lat":41.8131,"long":-100.0873},{"zip":"68620","city":"Albion","state":"NE","lat":41.7049,"long":-97.9991},{"zip":"68627","city":"Cedar Rapids","state":"NE","lat":41.5564,"long":-98.1554},{"zip":"68652","city":"Petersburg","state":"NE","lat":41.859,"long":-98.0848},{"zip":"68655","city":"Primrose","state":"NE","lat":41.6405,"long":-98.2355},{"zip":"68660","city":"Saint Edward","state":"NE","lat":41.5708,"long":-97.8801},{"zip":"68719","city":"Bristow","state":"NE","lat":42.9484,"long":-98.5721},{"zip":"68722","city":"Butte","state":"NE","lat":42.9124,"long":-98.8459},{"zip":"68746","city":"Lynch","state":"NE","lat":42.8373,"long":-98.4504},{"zip":"68755","city":"Naper","state":"NE","lat":42.9521,"long":-99.071},{"zip":"68777","city":"Spencer","state":"NE","lat":42.8849,"long":-98.7059},{"zip":"68812","city":"Amherst","state":"NE","lat":40.8495,"long":-99.2609},{"zip":"68836","city":"Elm Creek","state":"NE","lat":40.7301,"long":-99.3728},{"zip":"68840","city":"Gibbon","state":"NE","lat":40.7444,"long":-98.8543},{"zip":"68845","city":"Kearney","state":"NE","lat":40.7514,"long":-99.1291},{"zip":"68847","city":"Kearney","state":"NE","lat":40.7136,"long":-99.0779},{"zip":"68848","city":"Kearney","state":"NE","lat":40.6861,"long":-99.0693},{"zip":"68849","city":"Kearney","state":"NE","lat":40.8497,"long":-99.0741},{"zip":"68858","city":"Miller","state":"NE","lat":40.9422,"long":-99.374},{"zip":"68861","city":"Odessa","state":"NE","lat":40.7017,"long":-99.2568},{"zip":"68866","city":"Pleasanton","state":"NE","lat":40.9818,"long":-99.1283},{"zip":"68869","city":"Ravenna","state":"NE","lat":41.0233,"long":-98.9041},{"zip":"68870","city":"Riverdale","state":"NE","lat":40.8524,"long":-99.1611},{"zip":"68876","city":"Shelton","state":"NE","lat":40.7717,"long":-98.7435},{"zip":"68019","city":"Craig","state":"NE","lat":41.7715,"long":-96.3924},{"zip":"68020","city":"Decatur","state":"NE","lat":41.9966,"long":-96.2595},{"zip":"68038","city":"Lyons","state":"NE","lat":41.9442,"long":-96.4661},{"zip":"68045","city":"Oakland","state":"NE","lat":41.8384,"long":-96.4671},{"zip":"68061","city":"Tekamah","state":"NE","lat":41.7819,"long":-96.2281},{"zip":"68001","city":"Abie","state":"NE","lat":41.3479,"long":-96.9563},{"zip":"68014","city":"Bruno","state":"NE","lat":41.2718,"long":-96.9646},{"zip":"68036","city":"Linwood","state":"NE","lat":41.4129,"long":-96.9399},{"zip":"68624","city":"Bellwood","state":"NE","lat":41.3474,"long":-97.2747},{"zip":"68626","city":"Brainard","state":"NE","lat":41.1832,"long":-96.9882},{"zip":"68632","city":"David City","state":"NE","lat":41.2528,"long":-97.13},{"zip":"68635","city":"Dwight","state":"NE","lat":41.0894,"long":-96.9931},{"zip":"68658","city":"Rising City","state":"NE","lat":41.2082,"long":-97.3032},{"zip":"68667","city":"Surprise","state":"NE","lat":41.1086,"long":-97.3112},{"zip":"68669","city":"Ulysses","state":"NE","lat":41.0791,"long":-97.1984},{"zip":"68016","city":"Cedar Creek","state":"NE","lat":41.0425,"long":-96.1044},{"zip":"68037","city":"Louisville","state":"NE","lat":40.9967,"long":-96.1948},{"zip":"68048","city":"Plattsmouth","state":"NE","lat":40.9992,"long":-95.9139},{"zip":"68058","city":"South Bend","state":"NE","lat":41.0067,"long":-96.2462},{"zip":"68304","city":"Alvo","state":"NE","lat":40.8992,"long":-96.4036},{"zip":"68307","city":"Avoca","state":"NE","lat":40.8159,"long":-96.0957},{"zip":"68347","city":"Eagle","state":"NE","lat":40.8169,"long":-96.429},{"zip":"68349","city":"Elmwood","state":"NE","lat":40.8378,"long":-96.2944},{"zip":"68366","city":"Greenwood","state":"NE","lat":40.9706,"long":-96.4258},{"zip":"68403","city":"Manley","state":"NE","lat":40.9207,"long":-96.168},{"zip":"68407","city":"Murdock","state":"NE","lat":40.919,"long":-96.2848},{"zip":"68409","city":"Murray","state":"NE","lat":40.92,"long":-95.9227},{"zip":"68413","city":"Nehawka","state":"NE","lat":40.833,"long":-95.993},{"zip":"68455","city":"Union","state":"NE","lat":40.8245,"long":-95.9037},{"zip":"68463","city":"Weeping Water","state":"NE","lat":40.8731,"long":-96.1528},{"zip":"68717","city":"Belden","state":"NE","lat":42.4022,"long":-97.1956},{"zip":"68727","city":"Coleridge","state":"NE","lat":42.5061,"long":-97.2037},{"zip":"68736","city":"Fordyce","state":"NE","lat":42.7309,"long":-97.3567},{"zip":"68739","city":"Hartington","state":"NE","lat":42.6235,"long":-97.2837},{"zip":"68745","city":"Laurel","state":"NE","lat":42.427,"long":-97.0874},{"zip":"68749","city":"Magnet","state":"NE","lat":42.455,"long":-97.4701},{"zip":"68771","city":"Randolph","state":"NE","lat":42.3798,"long":-97.3464},{"zip":"68774","city":"Saint Helena","state":"NE","lat":42.8046,"long":-97.3047},{"zip":"68792","city":"Wynot","state":"NE","lat":42.7393,"long":-97.1678},{"zip":"68452","city":"Ong","state":"NE","lat":40.3968,"long":-97.861},{"zip":"68933","city":"Clay Center","state":"NE","lat":40.5113,"long":-98.0386},{"zip":"68934","city":"Deweese","state":"NE","lat":40.354,"long":-98.14},{"zip":"68935","city":"Edgar","state":"NE","lat":40.3652,"long":-97.9727},{"zip":"68938","city":"Fairfield","state":"NE","lat":40.4285,"long":-98.1063},{"zip":"68941","city":"Glenvil","state":"NE","lat":40.4931,"long":-98.2465},{"zip":"68944","city":"Harvard","state":"NE","lat":40.6265,"long":-98.0846},{"zip":"68954","city":"Inland","state":"NE","lat":40.5899,"long":-98.2234},{"zip":"68975","city":"Saronville","state":"NE","lat":40.6021,"long":-97.9388},{"zip":"68979","city":"Sutton","state":"NE","lat":40.6056,"long":-97.8592},{"zip":"68980","city":"Trumbull","state":"NE","lat":40.6795,"long":-98.2734},{"zip":"68629","city":"Clarkson","state":"NE","lat":41.6961,"long":-97.1051},{"zip":"68641","city":"Howells","state":"NE","lat":41.725,"long":-97.0028},{"zip":"68643","city":"Leigh","state":"NE","lat":41.7053,"long":-97.2381},{"zip":"68659","city":"Rogers","state":"NE","lat":41.4653,"long":-96.915},{"zip":"68661","city":"Schuyler","state":"NE","lat":41.4591,"long":-97.0628},{"zip":"68004","city":"Bancroft","state":"NE","lat":42.0267,"long":-96.6171},{"zip":"68716","city":"Beemer","state":"NE","lat":41.9374,"long":-96.815},{"zip":"68788","city":"West Point","state":"NE","lat":41.845,"long":-96.7318},{"zip":"68791","city":"Wisner","state":"NE","lat":41.998,"long":-96.917},{"zip":"68813","city":"Anselmo","state":"NE","lat":41.6208,"long":-99.8644},{"zip":"68814","city":"Ansley","state":"NE","lat":41.3019,"long":-99.3645},{"zip":"68822","city":"Broken Bow","state":"NE","lat":41.4126,"long":-99.6355},{"zip":"68825","city":"Callaway","state":"NE","lat":41.2485,"long":-99.9932},{"zip":"68828","city":"Comstock","state":"NE","lat":41.5606,"long":-99.2504},{"zip":"68855","city":"Mason City","state":"NE","lat":41.1853,"long":-99.3049},{"zip":"68856","city":"Merna","state":"NE","lat":41.4435,"long":-99.8036},{"zip":"68860","city":"Oconto","state":"NE","lat":41.1411,"long":-99.7632},{"zip":"68874","city":"Sargent","state":"NE","lat":41.6508,"long":-99.3816},{"zip":"68881","city":"Westerville","state":"NE","lat":41.4193,"long":-99.3844},{"zip":"68030","city":"Homer","state":"NE","lat":42.3322,"long":-96.4656},{"zip":"68731","city":"Dakota City","state":"NE","lat":42.3807,"long":-96.4536},{"zip":"68733","city":"Emerson","state":"NE","lat":42.2852,"long":-96.7159},{"zip":"68741","city":"Hubbard","state":"NE","lat":42.3576,"long":-96.6031},{"zip":"68743","city":"Jackson","state":"NE","lat":42.4529,"long":-96.5743},{"zip":"68776","city":"South Sioux City","state":"NE","lat":42.4656,"long":-96.4182},{"zip":"68834","city":"Eddyville","state":"NE","lat":41.0079,"long":-99.681},{"zip":"68850","city":"Lexington","state":"NE","lat":40.785,"long":-99.7515},{"zip":"68863","city":"Overton","state":"NE","lat":40.7519,"long":-99.5278},{"zip":"68878","city":"Sumner","state":"NE","lat":40.9504,"long":-99.52},{"zip":"68710","city":"Allen","state":"NE","lat":42.4437,"long":-96.8574},{"zip":"68728","city":"Concord","state":"NE","lat":42.382,"long":-96.981},{"zip":"68732","city":"Dixon","state":"NE","lat":42.4185,"long":-96.9774},{"zip":"68751","city":"Maskell","state":"NE","lat":42.6905,"long":-96.9809},{"zip":"68757","city":"Newcastle","state":"NE","lat":42.6207,"long":-96.8709},{"zip":"68770","city":"Ponca","state":"NE","lat":42.5693,"long":-96.7128},{"zip":"68784","city":"Wakefield","state":"NE","lat":42.2733,"long":-96.8776},{"zip":"68785","city":"Waterbury","state":"NE","lat":42.4604,"long":-96.7448},{"zip":"68025","city":"Fremont","state":"NE","lat":41.4416,"long":-96.4945},{"zip":"68026","city":"Fremont","state":"NE","lat":41.4333,"long":-96.4981},{"zip":"68031","city":"Hooper","state":"NE","lat":41.6414,"long":-96.5232},{"zip":"68044","city":"Nickerson","state":"NE","lat":41.5491,"long":-96.4441},{"zip":"68057","city":"Scribner","state":"NE","lat":41.663,"long":-96.6441},{"zip":"68063","city":"Uehling","state":"NE","lat":41.7369,"long":-96.5037},{"zip":"68072","city":"Winslow","state":"NE","lat":41.6102,"long":-96.5033},{"zip":"68621","city":"Ames","state":"NE","lat":41.4613,"long":-96.6463},{"zip":"68633","city":"Dodge","state":"NE","lat":41.7052,"long":-96.8969},{"zip":"68649","city":"North Bend","state":"NE","lat":41.4689,"long":-96.7813},{"zip":"68664","city":"Snyder","state":"NE","lat":41.7039,"long":-96.7886},{"zip":"68007","city":"Bennington","state":"NE","lat":41.3623,"long":-96.1575},{"zip":"68010","city":"Boys Town","state":"NE","lat":41.2587,"long":-96.133},{"zip":"68022","city":"Elkhorn","state":"NE","lat":41.2756,"long":-96.2431},{"zip":"68064","city":"Valley","state":"NE","lat":41.3186,"long":-96.3463},{"zip":"68069","city":"Waterloo","state":"NE","lat":41.2702,"long":-96.3063},{"zip":"68101","city":"Omaha","state":"NE","lat":41.2586,"long":-95.9378},{"zip":"68102","city":"Omaha","state":"NE","lat":41.259,"long":-95.9409},{"zip":"68103","city":"Omaha","state":"NE","lat":41.2586,"long":-95.9378},{"zip":"68104","city":"Omaha","state":"NE","lat":41.2919,"long":-95.9999},{"zip":"68105","city":"Omaha","state":"NE","lat":41.2435,"long":-95.9629},{"zip":"68106","city":"Omaha","state":"NE","lat":41.2403,"long":-95.998},{"zip":"68107","city":"Omaha","state":"NE","lat":41.2068,"long":-95.9559},{"zip":"68108","city":"Omaha","state":"NE","lat":41.2382,"long":-95.9336},{"zip":"68109","city":"Omaha","state":"NE","lat":41.2586,"long":-95.9378},{"zip":"68110","city":"Omaha","state":"NE","lat":41.2933,"long":-95.9361},{"zip":"68111","city":"Omaha","state":"NE","lat":41.2962,"long":-95.965},{"zip":"68112","city":"Omaha","state":"NE","lat":41.3296,"long":-95.9597},{"zip":"68114","city":"Omaha","state":"NE","lat":41.2656,"long":-96.0493},{"zip":"68116","city":"Omaha","state":"NE","lat":41.2879,"long":-96.1495},{"zip":"68117","city":"Omaha","state":"NE","lat":41.2064,"long":-95.9953},{"zip":"68118","city":"Omaha","state":"NE","lat":41.2606,"long":-96.1661},{"zip":"68119","city":"Omaha","state":"NE","lat":41.2586,"long":-95.9378},{"zip":"68120","city":"Omaha","state":"NE","lat":41.2586,"long":-95.9378},{"zip":"68122","city":"Omaha","state":"NE","lat":41.3333,"long":-96.0458},{"zip":"68124","city":"Omaha","state":"NE","lat":41.2338,"long":-96.0495},{"zip":"68127","city":"Omaha","state":"NE","lat":41.2074,"long":-96.0612},{"zip":"68130","city":"Omaha","state":"NE","lat":41.2355,"long":-96.1688},{"zip":"68131","city":"Omaha","state":"NE","lat":41.2647,"long":-95.9639},{"zip":"68132","city":"Omaha","state":"NE","lat":41.2657,"long":-95.996},{"zip":"68134","city":"Omaha","state":"NE","lat":41.2949,"long":-96.0546},{"zip":"68135","city":"Omaha","state":"NE","lat":41.2104,"long":-96.1698},{"zip":"68137","city":"Omaha","state":"NE","lat":41.2075,"long":-96.1147},{"zip":"68139","city":"Omaha","state":"NE","lat":41.2586,"long":-95.9378},{"zip":"68142","city":"Omaha","state":"NE","lat":41.3359,"long":-96.0901},{"zip":"68144","city":"Omaha","state":"NE","lat":41.2335,"long":-96.1188},{"zip":"68145","city":"Omaha","state":"NE","lat":41.2586,"long":-95.9378},{"zip":"68152","city":"Omaha","state":"NE","lat":41.3346,"long":-96.0003},{"zip":"68154","city":"Omaha","state":"NE","lat":41.2642,"long":-96.1206},{"zip":"68155","city":"Omaha","state":"NE","lat":41.2586,"long":-95.9378},{"zip":"68164","city":"Omaha","state":"NE","lat":41.2955,"long":-96.1008},{"zip":"68172","city":"Omaha","state":"NE","lat":41.2586,"long":-95.9378},{"zip":"68175","city":"Omaha","state":"NE","lat":41.2586,"long":-95.9378},{"zip":"68176","city":"Omaha","state":"NE","lat":41.2586,"long":-95.9378},{"zip":"68178","city":"Omaha","state":"NE","lat":41.2657,"long":-95.9477},{"zip":"68179","city":"Omaha","state":"NE","lat":41.2586,"long":-95.9378},{"zip":"68180","city":"Omaha","state":"NE","lat":41.2586,"long":-95.9378},{"zip":"68182","city":"Omaha","state":"NE","lat":41.2586,"long":-95.9378},{"zip":"68183","city":"Omaha","state":"NE","lat":41.2586,"long":-95.9378},{"zip":"68197","city":"Omaha","state":"NE","lat":41.2563,"long":-95.9404},{"zip":"68198","city":"Omaha","state":"NE","lat":41.2586,"long":-95.9378},{"zip":"68351","city":"Exeter","state":"NE","lat":40.6341,"long":-97.4424},{"zip":"68354","city":"Fairmont","state":"NE","lat":40.6404,"long":-97.5873},{"zip":"68361","city":"Geneva","state":"NE","lat":40.5277,"long":-97.6096},{"zip":"68365","city":"Grafton","state":"NE","lat":40.6402,"long":-97.7403},{"zip":"68406","city":"Milligan","state":"NE","lat":40.4952,"long":-97.3997},{"zip":"68416","city":"Ohiowa","state":"NE","lat":40.4065,"long":-97.4427},{"zip":"68436","city":"Shickley","state":"NE","lat":40.4077,"long":-97.7143},{"zip":"68444","city":"Strang","state":"NE","lat":40.4156,"long":-97.587},{"zip":"68929","city":"Bloomington","state":"NE","lat":40.1383,"long":-99.0094},{"zip":"68932","city":"Campbell","state":"NE","lat":40.2967,"long":-98.737},{"zip":"68939","city":"Franklin","state":"NE","lat":40.1052,"long":-98.9469},{"zip":"68947","city":"Hildreth","state":"NE","lat":40.3217,"long":-99.0571},{"zip":"68960","city":"Naponee","state":"NE","lat":40.1258,"long":-99.1277},{"zip":"68972","city":"Riverton","state":"NE","lat":40.1016,"long":-98.7858},{"zip":"68981","city":"Upland","state":"NE","lat":40.3171,"long":-98.8966},{"zip":"68922","city":"Arapahoe","state":"NE","lat":40.3027,"long":-99.8997},{"zip":"68926","city":"Beaver City","state":"NE","lat":40.129,"long":-99.8065},{"zip":"68936","city":"Edison","state":"NE","lat":40.2802,"long":-99.786},{"zip":"68946","city":"Hendley","state":"NE","lat":40.1063,"long":-99.9715},{"zip":"68948","city":"Holbrook","state":"NE","lat":40.3019,"long":-100.0136},{"zip":"68967","city":"Oxford","state":"NE","lat":40.256,"long":-99.6302},{"zip":"68301","city":"Adams","state":"NE","lat":40.4576,"long":-96.5396},{"zip":"68309","city":"Barneston","state":"NE","lat":40.0483,"long":-96.577},{"zip":"68310","city":"Beatrice","state":"NE","lat":40.2705,"long":-96.7435},{"zip":"68318","city":"Blue Springs","state":"NE","lat":40.1407,"long":-96.659},{"zip":"68328","city":"Clatonia","state":"NE","lat":40.4724,"long":-96.8555},{"zip":"68331","city":"Cortland","state":"NE","lat":40.4976,"long":-96.7166},{"zip":"68357","city":"Filley","state":"NE","lat":40.2946,"long":-96.5301},{"zip":"68381","city":"Liberty","state":"NE","lat":40.0801,"long":-96.4804},{"zip":"68415","city":"Odell","state":"NE","lat":40.0451,"long":-96.8019},{"zip":"68422","city":"Pickrell","state":"NE","lat":40.3821,"long":-96.7344},{"zip":"68458","city":"Virginia","state":"NE","lat":40.2309,"long":-96.5121},{"zip":"68466","city":"Wymore","state":"NE","lat":40.113,"long":-96.6613},{"zip":"68823","city":"Burwell","state":"NE","lat":41.808,"long":-99.0995},{"zip":"68937","city":"Elwood","state":"NE","lat":40.5747,"long":-99.8258},{"zip":"68976","city":"Smithfield","state":"NE","lat":40.5832,"long":-99.7285},{"zip":"68665","city":"Spalding","state":"NE","lat":41.6874,"long":-98.3715},{"zip":"68842","city":"Greeley","state":"NE","lat":41.5526,"long":-98.53},{"zip":"68875","city":"Scotia","state":"NE","lat":41.4837,"long":-98.6893},{"zip":"68882","city":"Wolbach","state":"NE","lat":41.4244,"long":-98.3995},{"zip":"68801","city":"Grand Island","state":"NE","lat":40.9219,"long":-98.3411},{"zip":"68802","city":"Grand Island","state":"NE","lat":40.8725,"long":-98.5021},{"zip":"68803","city":"Grand Island","state":"NE","lat":40.9286,"long":-98.3873},{"zip":"68810","city":"Alda","state":"NE","lat":40.8711,"long":-98.4681},{"zip":"68824","city":"Cairo","state":"NE","lat":41.0002,"long":-98.6165},{"zip":"68832","city":"Doniphan","state":"NE","lat":40.77,"long":-98.379},{"zip":"68883","city":"Wood River","state":"NE","lat":40.8106,"long":-98.6065},{"zip":"68818","city":"Aurora","state":"NE","lat":40.8528,"long":-98.0201},{"zip":"68841","city":"Giltner","state":"NE","lat":40.7654,"long":-98.1434},{"zip":"68843","city":"Hampton","state":"NE","lat":40.9236,"long":-97.8841},{"zip":"68846","city":"Hordville","state":"NE","lat":41.0813,"long":-97.8881},{"zip":"68854","city":"Marquette","state":"NE","lat":41.01,"long":-98},{"zip":"68865","city":"Phillips","state":"NE","lat":40.8982,"long":-98.2129},{"zip":"68920","city":"Alma","state":"NE","lat":40.1189,"long":-99.3601},{"zip":"68966","city":"Orleans","state":"NE","lat":40.1484,"long":-99.4572},{"zip":"68969","city":"Ragan","state":"NE","lat":40.3103,"long":-99.2898},{"zip":"68971","city":"Republican City","state":"NE","lat":40.1034,"long":-99.2322},{"zip":"68977","city":"Stamford","state":"NE","lat":40.1163,"long":-99.5814},{"zip":"68711","city":"Amelia","state":"NE","lat":42.1809,"long":-99.008},{"zip":"68713","city":"Atkinson","state":"NE","lat":42.5483,"long":-98.9761},{"zip":"68725","city":"Chambers","state":"NE","lat":42.1916,"long":-98.7378},{"zip":"68734","city":"Emmet","state":"NE","lat":42.4747,"long":-98.8238},{"zip":"68735","city":"Ewing","state":"NE","lat":42.1851,"long":-98.3981},{"zip":"68742","city":"Inman","state":"NE","lat":42.3761,"long":-98.5384},{"zip":"68763","city":"Oneill","state":"NE","lat":42.4857,"long":-98.6456},{"zip":"68766","city":"Page","state":"NE","lat":42.4119,"long":-98.3964},{"zip":"68780","city":"Stuart","state":"NE","lat":42.5713,"long":-99.1396},{"zip":"68820","city":"Boelus","state":"NE","lat":41.1003,"long":-98.6976},{"zip":"68831","city":"Dannebrog","state":"NE","lat":41.1192,"long":-98.5546},{"zip":"68835","city":"Elba","state":"NE","lat":41.2864,"long":-98.5756},{"zip":"68838","city":"Farwell","state":"NE","lat":41.2204,"long":-98.6481},{"zip":"68872","city":"Saint Libory","state":"NE","lat":41.0867,"long":-98.3589},{"zip":"68873","city":"Saint Paul","state":"NE","lat":41.2242,"long":-98.444},{"zip":"68338","city":"Daykin","state":"NE","lat":40.3192,"long":-97.3043},{"zip":"68342","city":"Diller","state":"NE","lat":40.1192,"long":-96.9495},{"zip":"68350","city":"Endicott","state":"NE","lat":40.0496,"long":-97.0813},{"zip":"68352","city":"Fairbury","state":"NE","lat":40.1488,"long":-97.1839},{"zip":"68377","city":"Jansen","state":"NE","lat":40.2074,"long":-97.0244},{"zip":"68424","city":"Plymouth","state":"NE","lat":40.3039,"long":-97.0012},{"zip":"68440","city":"Steele City","state":"NE","lat":40.0378,"long":-97.0248},{"zip":"68329","city":"Cook","state":"NE","lat":40.4986,"long":-96.1526},{"zip":"68332","city":"Crab Orchard","state":"NE","lat":40.3166,"long":-96.4116},{"zip":"68348","city":"Elk Creek","state":"NE","lat":40.2977,"long":-96.1421},{"zip":"68443","city":"Sterling","state":"NE","lat":40.4637,"long":-96.3867},{"zip":"68450","city":"Tecumseh","state":"NE","lat":40.3697,"long":-96.205},{"zip":"68924","city":"Axtell","state":"NE","lat":40.5269,"long":-99.1169},{"zip":"68945","city":"Heartwell","state":"NE","lat":40.5716,"long":-98.7851},{"zip":"68959","city":"Minden","state":"NE","lat":40.5091,"long":-98.9383},{"zip":"68982","city":"Wilcox","state":"NE","lat":40.3735,"long":-99.1539},{"zip":"68753","city":"Mills","state":"NE","lat":42.9225,"long":-99.4466},{"zip":"68759","city":"Newport","state":"NE","lat":42.6001,"long":-99.3359},{"zip":"68778","city":"Springview","state":"NE","lat":42.8488,"long":-99.8061},{"zip":"68718","city":"Bloomfield","state":"NE","lat":42.5978,"long":-97.6545},{"zip":"68724","city":"Center","state":"NE","lat":42.5973,"long":-97.867},{"zip":"68729","city":"Creighton","state":"NE","lat":42.4681,"long":-97.8932},{"zip":"68730","city":"Crofton","state":"NE","lat":42.737,"long":-97.5406},{"zip":"68760","city":"Niobrara","state":"NE","lat":42.7391,"long":-97.9248},{"zip":"68783","city":"Verdigre","state":"NE","lat":42.6101,"long":-98.0793},{"zip":"68786","city":"Wausa","state":"NE","lat":42.4973,"long":-97.5576},{"zip":"68789","city":"Winnetoon","state":"NE","lat":42.5334,"long":-98.005},{"zip":"68317","city":"Bennet","state":"NE","lat":40.68,"long":-96.5064},{"zip":"68336","city":"Davey","state":"NE","lat":40.9639,"long":-96.688},{"zip":"68339","city":"Denton","state":"NE","lat":40.7378,"long":-96.8445},{"zip":"68358","city":"Firth","state":"NE","lat":40.5586,"long":-96.614},{"zip":"68368","city":"Hallam","state":"NE","lat":40.5739,"long":-96.7998},{"zip":"68372","city":"Hickman","state":"NE","lat":40.6119,"long":-96.6247},{"zip":"68402","city":"Malcolm","state":"NE","lat":40.9091,"long":-96.86},{"zip":"68404","city":"Martell","state":"NE","lat":40.6514,"long":-96.7442},{"zip":"68419","city":"Panama","state":"NE","lat":40.5998,"long":-96.5129},{"zip":"68428","city":"Raymond","state":"NE","lat":40.9342,"long":-96.7866},{"zip":"68430","city":"Roca","state":"NE","lat":40.6702,"long":-96.6391},{"zip":"68438","city":"Sprague","state":"NE","lat":40.6267,"long":-96.7456},{"zip":"68461","city":"Walton","state":"NE","lat":40.7975,"long":-96.5359},{"zip":"68462","city":"Waverly","state":"NE","lat":40.9222,"long":-96.526},{"zip":"68501","city":"Lincoln","state":"NE","lat":40.8651,"long":-96.8231},{"zip":"68502","city":"Lincoln","state":"NE","lat":40.7893,"long":-96.6938},{"zip":"68503","city":"Lincoln","state":"NE","lat":40.8233,"long":-96.6766},{"zip":"68504","city":"Lincoln","state":"NE","lat":40.8392,"long":-96.6532},{"zip":"68505","city":"Lincoln","state":"NE","lat":40.8247,"long":-96.6252},{"zip":"68506","city":"Lincoln","state":"NE","lat":40.7848,"long":-96.6431},{"zip":"68507","city":"Lincoln","state":"NE","lat":40.8473,"long":-96.6289},{"zip":"68508","city":"Lincoln","state":"NE","lat":40.8145,"long":-96.7009},{"zip":"68509","city":"Lincoln","state":"NE","lat":40.7845,"long":-96.6888},{"zip":"68510","city":"Lincoln","state":"NE","lat":40.8063,"long":-96.6545},{"zip":"68512","city":"Lincoln","state":"NE","lat":40.7565,"long":-96.6946},{"zip":"68514","city":"Lincoln","state":"NE","lat":40.9401,"long":-96.6621},{"zip":"68516","city":"Lincoln","state":"NE","lat":40.7568,"long":-96.6523},{"zip":"68517","city":"Lincoln","state":"NE","lat":40.9317,"long":-96.6045},{"zip":"68520","city":"Lincoln","state":"NE","lat":40.7744,"long":-96.5693},{"zip":"68521","city":"Lincoln","state":"NE","lat":40.851,"long":-96.711},{"zip":"68522","city":"Lincoln","state":"NE","lat":40.7934,"long":-96.7479},{"zip":"68523","city":"Lincoln","state":"NE","lat":40.7408,"long":-96.7583},{"zip":"68524","city":"Lincoln","state":"NE","lat":40.8529,"long":-96.7943},{"zip":"68526","city":"Lincoln","state":"NE","lat":40.7314,"long":-96.5878},{"zip":"68527","city":"Lincoln","state":"NE","lat":40.8347,"long":-96.5401},{"zip":"68528","city":"Lincoln","state":"NE","lat":40.8195,"long":-96.7545},{"zip":"68529","city":"Lincoln","state":"NE","lat":40.8798,"long":-96.7798},{"zip":"68531","city":"Lincoln","state":"NE","lat":40.9008,"long":-96.7201},{"zip":"68532","city":"Lincoln","state":"NE","lat":40.7922,"long":-96.8551},{"zip":"68542","city":"Lincoln","state":"NE","lat":40.7845,"long":-96.6888},{"zip":"68544","city":"Lincoln","state":"NE","lat":40.7845,"long":-96.6888},{"zip":"68583","city":"Lincoln","state":"NE","lat":40.7845,"long":-96.6888},{"zip":"68588","city":"Lincoln","state":"NE","lat":40.8206,"long":-96.6928},{"zip":"68879","city":"Taylor","state":"NE","lat":41.9141,"long":-99.4543},{"zip":"68701","city":"Norfolk","state":"NE","lat":42.0329,"long":-97.4229},{"zip":"68702","city":"Norfolk","state":"NE","lat":42.0283,"long":-97.417},{"zip":"68715","city":"Battle Creek","state":"NE","lat":41.9943,"long":-97.5982},{"zip":"68748","city":"Madison","state":"NE","lat":41.8308,"long":-97.472},{"zip":"68752","city":"Meadow Grove","state":"NE","lat":42.0102,"long":-97.7334},{"zip":"68758","city":"Newman Grove","state":"NE","lat":41.7498,"long":-97.774},{"zip":"68781","city":"Tilden","state":"NE","lat":42.0496,"long":-97.8223},{"zip":"68628","city":"Clarks","state":"NE","lat":41.2328,"long":-97.8461},{"zip":"68663","city":"Silver Creek","state":"NE","lat":41.319,"long":-97.6671},{"zip":"68816","city":"Archer","state":"NE","lat":41.1782,"long":-98.1182},{"zip":"68826","city":"Central City","state":"NE","lat":41.1213,"long":-98.0017},{"zip":"68827","city":"Chapman","state":"NE","lat":40.9856,"long":-98.2217},{"zip":"68864","city":"Palmer","state":"NE","lat":41.1788,"long":-98.2411},{"zip":"68623","city":"Belgrade","state":"NE","lat":41.4611,"long":-98.0866},{"zip":"68638","city":"Fullerton","state":"NE","lat":41.3633,"long":-97.9692},{"zip":"68640","city":"Genoa","state":"NE","lat":41.4468,"long":-97.764},{"zip":"68305","city":"Auburn","state":"NE","lat":40.3789,"long":-95.8526},{"zip":"68320","city":"Brock","state":"NE","lat":40.4772,"long":-95.9801},{"zip":"68321","city":"Brownville","state":"NE","lat":40.3994,"long":-95.6935},{"zip":"68378","city":"Johnson","state":"NE","lat":40.4016,"long":-95.9883},{"zip":"68379","city":"Julian","state":"NE","lat":40.5199,"long":-95.8674},{"zip":"68414","city":"Nemaha","state":"NE","lat":40.3198,"long":-95.6913},{"zip":"68421","city":"Peru","state":"NE","lat":40.4766,"long":-95.7312},{"zip":"68943","city":"Hardy","state":"NE","lat":40.0285,"long":-97.9271},{"zip":"68957","city":"Lawrence","state":"NE","lat":40.2767,"long":-98.2402},{"zip":"68961","city":"Nelson","state":"NE","lat":40.2011,"long":-98.0684},{"zip":"68964","city":"Oak","state":"NE","lat":40.2378,"long":-97.903},{"zip":"68974","city":"Ruskin","state":"NE","lat":40.1383,"long":-97.872},{"zip":"68978","city":"Superior","state":"NE","lat":40.0315,"long":-98.0779},{"zip":"68324","city":"Burr","state":"NE","lat":40.5601,"long":-96.2384},{"zip":"68344","city":"Douglas","state":"NE","lat":40.5838,"long":-96.397},{"zip":"68346","city":"Dunbar","state":"NE","lat":40.6592,"long":-96.0136},{"zip":"68382","city":"Lorton","state":"NE","lat":40.5973,"long":-96.0241},{"zip":"68410","city":"Nebraska City","state":"NE","lat":40.6747,"long":-95.8619},{"zip":"68417","city":"Otoe","state":"NE","lat":40.7355,"long":-96.1329},{"zip":"68418","city":"Palmyra","state":"NE","lat":40.705,"long":-96.3999},{"zip":"68446","city":"Syracuse","state":"NE","lat":40.6614,"long":-96.1824},{"zip":"68448","city":"Talmage","state":"NE","lat":40.5586,"long":-96.0138},{"zip":"68454","city":"Unadilla","state":"NE","lat":40.6917,"long":-96.2825},{"zip":"68323","city":"Burchard","state":"NE","lat":40.1475,"long":-96.3503},{"zip":"68345","city":"Du Bois","state":"NE","lat":40.0375,"long":-96.0575},{"zip":"68380","city":"Lewiston","state":"NE","lat":40.2309,"long":-96.4049},{"zip":"68420","city":"Pawnee City","state":"NE","lat":40.1093,"long":-96.1509},{"zip":"68441","city":"Steinauer","state":"NE","lat":40.2169,"long":-96.2302},{"zip":"68447","city":"Table Rock","state":"NE","lat":40.1874,"long":-96.0818},{"zip":"68923","city":"Atlanta","state":"NE","lat":40.3667,"long":-99.4732},{"zip":"68927","city":"Bertrand","state":"NE","lat":40.5608,"long":-99.5759},{"zip":"68940","city":"Funk","state":"NE","lat":40.502,"long":-99.245},{"zip":"68949","city":"Holdrege","state":"NE","lat":40.4475,"long":-99.3672},{"zip":"68958","city":"Loomis","state":"NE","lat":40.4792,"long":-99.4979},{"zip":"68738","city":"Hadar","state":"NE","lat":42.105,"long":-97.4492},{"zip":"68747","city":"Mclean","state":"NE","lat":42.3921,"long":-97.4751},{"zip":"68765","city":"Osmond","state":"NE","lat":42.3539,"long":-97.582},{"zip":"68767","city":"Pierce","state":"NE","lat":42.1943,"long":-97.5256},{"zip":"68769","city":"Plainview","state":"NE","lat":42.3467,"long":-97.7786},{"zip":"68601","city":"Columbus","state":"NE","lat":41.4297,"long":-97.3684},{"zip":"68602","city":"Columbus","state":"NE","lat":41.4297,"long":-97.3684},{"zip":"68631","city":"Creston","state":"NE","lat":41.7067,"long":-97.3625},{"zip":"68634","city":"Duncan","state":"NE","lat":41.3895,"long":-97.4948},{"zip":"68642","city":"Humphrey","state":"NE","lat":41.6702,"long":-97.4986},{"zip":"68644","city":"Lindsay","state":"NE","lat":41.6926,"long":-97.6711},{"zip":"68647","city":"Monroe","state":"NE","lat":41.4783,"long":-97.6061},{"zip":"68653","city":"Platte Center","state":"NE","lat":41.5375,"long":-97.4884},{"zip":"68651","city":"Osceola","state":"NE","lat":41.1966,"long":-97.5571},{"zip":"68654","city":"Polk","state":"NE","lat":41.0767,"long":-97.7839},{"zip":"68662","city":"Shelby","state":"NE","lat":41.1922,"long":-97.4253},{"zip":"68666","city":"Stromsburg","state":"NE","lat":41.1118,"long":-97.5742},{"zip":"68337","city":"Dawson","state":"NE","lat":40.1377,"long":-95.8341},{"zip":"68355","city":"Falls City","state":"NE","lat":40.0742,"long":-95.5931},{"zip":"68376","city":"Humboldt","state":"NE","lat":40.1566,"long":-95.9311},{"zip":"68431","city":"Rulo","state":"NE","lat":40.0536,"long":-95.4292},{"zip":"68433","city":"Salem","state":"NE","lat":40.062,"long":-95.7273},{"zip":"68437","city":"Shubert","state":"NE","lat":40.2325,"long":-95.6895},{"zip":"68442","city":"Stella","state":"NE","lat":40.2303,"long":-95.768},{"zip":"68457","city":"Verdon","state":"NE","lat":40.1425,"long":-95.7162},{"zip":"68714","city":"Bassett","state":"NE","lat":42.5763,"long":-99.5387},{"zip":"68333","city":"Crete","state":"NE","lat":40.6193,"long":-96.9567},{"zip":"68341","city":"De Witt","state":"NE","lat":40.3944,"long":-96.9338},{"zip":"68343","city":"Dorchester","state":"NE","lat":40.6499,"long":-97.1056},{"zip":"68359","city":"Friend","state":"NE","lat":40.6368,"long":-97.2739},{"zip":"68445","city":"Swanton","state":"NE","lat":40.3844,"long":-97.0806},{"zip":"68453","city":"Tobias","state":"NE","lat":40.4262,"long":-97.3184},{"zip":"68464","city":"Western","state":"NE","lat":40.4152,"long":-97.1976},{"zip":"68465","city":"Wilber","state":"NE","lat":40.4821,"long":-96.9757},{"zip":"68005","city":"Bellevue","state":"NE","lat":41.1497,"long":-95.9099},{"zip":"68028","city":"Gretna","state":"NE","lat":41.1345,"long":-96.2458},{"zip":"68046","city":"Papillion","state":"NE","lat":41.1523,"long":-96.0371},{"zip":"68056","city":"St Columbans","state":"NE","lat":41.0927,"long":-96.0905},{"zip":"68059","city":"Springfield","state":"NE","lat":41.0765,"long":-96.1438},{"zip":"68113","city":"Offutt Afb","state":"NE","lat":41.2563,"long":-95.9404},{"zip":"68123","city":"Bellevue","state":"NE","lat":41.1156,"long":-95.9393},{"zip":"68128","city":"La Vista","state":"NE","lat":41.1814,"long":-96.0658},{"zip":"68133","city":"Papillion","state":"NE","lat":41.1416,"long":-96.0131},{"zip":"68136","city":"Omaha","state":"NE","lat":41.1683,"long":-96.2096},{"zip":"68138","city":"Omaha","state":"NE","lat":41.1549,"long":-96.1376},{"zip":"68147","city":"Bellevue","state":"NE","lat":41.1758,"long":-95.9553},{"zip":"68157","city":"Omaha","state":"NE","lat":41.181,"long":-95.9909},{"zip":"68003","city":"Ashland","state":"NE","lat":41.0541,"long":-96.3904},{"zip":"68015","city":"Cedar Bluffs","state":"NE","lat":41.3835,"long":-96.5691},{"zip":"68017","city":"Ceresco","state":"NE","lat":41.0681,"long":-96.6398},{"zip":"68018","city":"Colon","state":"NE","lat":41.2883,"long":-96.6141},{"zip":"68033","city":"Ithaca","state":"NE","lat":41.1748,"long":-96.5298},{"zip":"68040","city":"Malmo","state":"NE","lat":41.2984,"long":-96.7327},{"zip":"68041","city":"Mead","state":"NE","lat":41.2393,"long":-96.4961},{"zip":"68042","city":"Memphis","state":"NE","lat":41.0946,"long":-96.4306},{"zip":"68050","city":"Prague","state":"NE","lat":41.3036,"long":-96.8301},{"zip":"68065","city":"Valparaiso","state":"NE","lat":41.0843,"long":-96.8091},{"zip":"68066","city":"Wahoo","state":"NE","lat":41.2117,"long":-96.6219},{"zip":"68070","city":"Weston","state":"NE","lat":41.1811,"long":-96.7691},{"zip":"68073","city":"Yutan","state":"NE","lat":41.234,"long":-96.3932},{"zip":"68648","city":"Morse Bluff","state":"NE","lat":41.4178,"long":-96.7862},{"zip":"68313","city":"Beaver Crossing","state":"NE","lat":40.7887,"long":-97.2914},{"zip":"68314","city":"Bee","state":"NE","lat":41.0007,"long":-97.0745},{"zip":"68330","city":"Cordova","state":"NE","lat":40.7185,"long":-97.3407},{"zip":"68360","city":"Garland","state":"NE","lat":40.9412,"long":-96.9702},{"zip":"68364","city":"Goehner","state":"NE","lat":40.8322,"long":-97.2212},{"zip":"68405","city":"Milford","state":"NE","lat":40.7632,"long":-97.0576},{"zip":"68423","city":"Pleasant Dale","state":"NE","lat":40.8133,"long":-96.9513},{"zip":"68434","city":"Seward","state":"NE","lat":40.9066,"long":-97.0966},{"zip":"68439","city":"Staplehurst","state":"NE","lat":40.9845,"long":-97.1859},{"zip":"68456","city":"Utica","state":"NE","lat":40.9168,"long":-97.3344},{"zip":"68817","city":"Ashton","state":"NE","lat":41.2672,"long":-98.8034},{"zip":"68844","city":"Hazard","state":"NE","lat":41.0934,"long":-99.0719},{"zip":"68852","city":"Litchfield","state":"NE","lat":41.1686,"long":-99.1415},{"zip":"68853","city":"Loup City","state":"NE","lat":41.2845,"long":-98.9751},{"zip":"68871","city":"Rockville","state":"NE","lat":41.1108,"long":-98.8578},{"zip":"68768","city":"Pilger","state":"NE","lat":41.9761,"long":-97.0779},{"zip":"68779","city":"Stanton","state":"NE","lat":41.9076,"long":-97.214},{"zip":"68303","city":"Alexandria","state":"NE","lat":40.2614,"long":-97.4039},{"zip":"68315","city":"Belvidere","state":"NE","lat":40.251,"long":-97.5554},{"zip":"68322","city":"Bruning","state":"NE","lat":40.3302,"long":-97.5573},{"zip":"68325","city":"Byron","state":"NE","lat":40.0269,"long":-97.7612},{"zip":"68326","city":"Carleton","state":"NE","lat":40.3005,"long":-97.6719},{"zip":"68327","city":"Chester","state":"NE","lat":40.029,"long":-97.6197},{"zip":"68335","city":"Davenport","state":"NE","lat":40.3108,"long":-97.805},{"zip":"68340","city":"Deshler","state":"NE","lat":40.1387,"long":-97.73},{"zip":"68362","city":"Gilead","state":"NE","lat":40.147,"long":-97.4271},{"zip":"68370","city":"Hebron","state":"NE","lat":40.1728,"long":-97.6052},{"zip":"68375","city":"Hubbell","state":"NE","lat":40.0456,"long":-97.4735},{"zip":"68429","city":"Reynolds","state":"NE","lat":40.0598,"long":-97.3806},{"zip":"68039","city":"Macy","state":"NE","lat":42.1177,"long":-96.3589},{"zip":"68047","city":"Pender","state":"NE","lat":42.1177,"long":-96.7189},{"zip":"68055","city":"Rosalie","state":"NE","lat":42.0574,"long":-96.4929},{"zip":"68062","city":"Thurston","state":"NE","lat":42.1882,"long":-96.6904},{"zip":"68067","city":"Walthill","state":"NE","lat":42.1485,"long":-96.4803},{"zip":"68071","city":"Winnebago","state":"NE","lat":42.2339,"long":-96.4685},{"zip":"68815","city":"Arcadia","state":"NE","lat":41.4293,"long":-99.1205},{"zip":"68837","city":"Elyria","state":"NE","lat":41.6808,"long":-99.0062},{"zip":"68859","city":"North Loup","state":"NE","lat":41.4972,"long":-98.7858},{"zip":"68862","city":"Ord","state":"NE","lat":41.5962,"long":-98.9418},{"zip":"68002","city":"Arlington","state":"NE","lat":41.4417,"long":-96.307},{"zip":"68008","city":"Blair","state":"NE","lat":41.5454,"long":-96.1617},{"zip":"68009","city":"Blair","state":"NE","lat":41.5383,"long":-96.1823},{"zip":"68023","city":"Fort Calhoun","state":"NE","lat":41.4373,"long":-96.0324},{"zip":"68029","city":"Herman","state":"NE","lat":41.6524,"long":-96.2869},{"zip":"68034","city":"Kennard","state":"NE","lat":41.4526,"long":-96.1903},{"zip":"68068","city":"Washington","state":"NE","lat":41.3975,"long":-96.2081},{"zip":"68723","city":"Carroll","state":"NE","lat":42.277,"long":-97.1926},{"zip":"68740","city":"Hoskins","state":"NE","lat":42.1408,"long":-97.3084},{"zip":"68787","city":"Wayne","state":"NE","lat":42.2304,"long":-97.0186},{"zip":"68790","city":"Winside","state":"NE","lat":42.1678,"long":-97.1825},{"zip":"68928","city":"Bladen","state":"NE","lat":40.299,"long":-98.6046},{"zip":"68930","city":"Blue Hill","state":"NE","lat":40.311,"long":-98.427},{"zip":"68942","city":"Guide Rock","state":"NE","lat":40.0812,"long":-98.3391},{"zip":"68952","city":"Inavale","state":"NE","lat":40.0959,"long":-98.6612},{"zip":"68970","city":"Red Cloud","state":"NE","lat":40.0952,"long":-98.5187},{"zip":"68622","city":"Bartlett","state":"NE","lat":41.8697,"long":-98.5567},{"zip":"68637","city":"Ericson","state":"NE","lat":41.7828,"long":-98.6453},{"zip":"68316","city":"Benedict","state":"NE","lat":41.0033,"long":-97.6029},{"zip":"68319","city":"Bradshaw","state":"NE","lat":40.9207,"long":-97.7607},{"zip":"68367","city":"Gresham","state":"NE","lat":41.021,"long":-97.4079},{"zip":"68371","city":"Henderson","state":"NE","lat":40.7814,"long":-97.7979},{"zip":"68401","city":"Mc Cool Junction","state":"NE","lat":40.7442,"long":-97.5937},{"zip":"68460","city":"Waco","state":"NE","lat":40.9198,"long":-97.4534},{"zip":"68467","city":"York","state":"NE","lat":40.8667,"long":-97.5825}]
