[{"zip":"68019","city":"Craig","state":"NE","lat":41.7715,"long":-96.3924},{"zip":"68020","city":"Decatur","state":"NE","lat":41.9966,"long":-96.2595},{"zip":"68038","city":"Lyons","state":"NE","lat":41.9442,"long":-96.4661},{"zip":"68045","city":"Oakland","state":"NE","lat":41.8384,"long":-96.4671},{"zip":"68061","city":"Tekamah","state":"NE","lat":41.7819,"long":-96.2281},{"zip":"68001","city":"Abie","state":"NE","lat":41.3479,"long":-96.9563},{"zip":"68014","city":"Bruno","state":"NE","lat":41.2718,"long":-96.9646},{"zip":"68036","city":"Linwood","state":"NE","lat":41.4129,"long":-96.9399},{"zip":"68016","city":"Cedar Creek","state":"NE","lat":41.0425,"long":-96.1044},{"zip":"68037","city":"Louisville","state":"NE","lat":40.9967,"long":-96.1948},{"zip":"68048","city":"Plattsmouth","state":"NE","lat":40.9992,"long":-95.9139},{"zip":"68058","city":"South Bend","state":"NE","lat":41.0067,"long":-96.2462},{"zip":"68004","city":"Bancroft","state":"NE","lat":42.0267,"long":-96.6171},{"zip":"68030","city":"Homer","state":"NE","lat":42.3322,"long":-96.4656},{"zip":"68025","city":"Fremont","state":"NE","lat":41.4416,"long":-96.4945},{"zip":"68026","city":"Fremont","state":"NE","lat":41.4333,"long":-96.4981},{"zip":"68031","city":"Hooper","state":"NE","lat":41.6414,"long":-96.5232},{"zip":"68044","city":"Nickerson","state":"NE","lat":41.5491,"long":-96.4441},{"zip":"68057","city":"Scribner","state":"NE","lat":41.663,"long":-96.6441},{"zip":"68063","city":"Uehling","state":"NE","lat":41.7369,"long":-96.5037},{"zip":"68072","city":"Winslow","state":"NE","lat":41.6102,"long":-96.5033},{"zip":"68007","city":"Bennington","state":"NE","lat":41.3623,"long":-96.1575},{"zip":"68010","city":"Boys Town","state":"NE","lat":41.2587,"long":-96.133},{"zip":"68022","city":"Elkhorn","state":"NE","lat":41.2756,"long":-96.2431},{"zip":"68064","city":"Valley","state":"NE","lat":41.3186,"long":-96.3463},{"zip":"68069","city":"Waterloo","state":"NE","lat":41.2702,"long":-96.3063},{"zip":"68005","city":"Bellevue","state":"NE","lat":41.1497,"long":-95.9099},{"zip":"68028","city":"Gretna","state":"NE","lat":41.1345,"long":-96.2458},{"zip":"68046","city":"Papillion","state":"NE","lat":41.1523,"long":-96.0371},{"zip":"68056","city":"St Columbans","state":"NE","lat":41.0927,"long":-96.0905},{"zip":"68059","city":"Springfield","state":"NE","lat":41.0765,"long":-96.1438},{"zip":"68003","city":"Ashland","state":"NE","lat":41.0541,"long":-96.3904},{"zip":"68015","city":"Cedar Bluffs","state":"NE","lat":41.3835,"long":-96.5691},{"zip":"68017","city":"Ceresco","state":"NE","lat":41.0681,"long":-96.6398},{"zip":"68018","city":"Colon","state":"NE","lat":41.2883,"long":-96.6141},{"zip":"68033","city":"Ithaca","state":"NE","lat":41.1748,"long":-96.5298},{"zip":"68040","city":"Malmo","state":"NE","lat":41.2984,"long":-96.7327},{"zip":"68041","city":"Mead","state":"NE","lat":41.2393,"long":-96.4961},{"zip":"68042","city":"Memphis","state":"NE","lat":41.0946,"long":-96.4306},{"zip":"68050","city":"Prague","state":"NE","lat":41.3036,"long":-96.8301},{"zip":"68065","city":"Valparaiso","state":"NE","lat":41.0843,"long":-96.8091},{"zip":"68066","city":"Wahoo","state":"NE","lat":41.2117,"long":-96.6219},{"zip":"68070","city":"Weston","state":"NE","lat":41.1811,"long":-96.7691},{"zip":"68073","city":"Yutan","state":"NE","lat":41.234,"long":-96.3932},{"zip":"68039","city":"Macy","state":"NE","lat":42.1177,"long":-96.3589},{"zip":"68047","city":"Pender","state":"NE","lat":42.1177,"long":-96.7189},{"zip":"68055","city":"Rosalie","state":"NE","lat":42.0574,"long":-96.4929},{"zip":"68062","city":"Thurston","state":"NE","lat":42.1882,"long":-96.6904},{"zip":"68067","city":"Walthill","state":"NE","lat":42.1485,"long":-96.4803},{"zip":"68071","city":"Winnebago","state":"NE","lat":42.2339,"long":-96.4685},{"zip":"68002","city":"Arlington","state":"NE","lat":41.4417,"long":-96.307},{"zip":"68008","city":"Blair","state":"NE","lat":41.5454,"long":-96.1617},{"zip":"68009","city":"Blair","state":"NE","lat":41.5383,"long":-96.1823},{"zip":"68023","city":"Fort Calhoun","state":"NE","lat":41.4373,"long":-96.0324},{"zip":"68029","city":"Herman","state":"NE","lat":41.6524,"long":-96.2869},{"zip":"68034","city":"Kennard","state":"NE","lat":41.4526,"long":-96.1903},{"zip":"68068","city":"Washington","state":"NE","lat":41.3975,"long":-96.2081}]
