[{"zip":"68101","city":"Omaha","state":"NE","lat":41.2586,"long":-95.9378},{"zip":"68102","city":"Omaha","state":"NE","lat":41.259,"long":-95.9409},{"zip":"68103","city":"Omaha","state":"NE","lat":41.2586,"long":-95.9378},{"zip":"68104","city":"Omaha","state":"NE","lat":41.2919,"long":-95.9999},{"zip":"68105","city":"Omaha","state":"NE","lat":41.2435,"long":-95.9629},{"zip":"68106","city":"Omaha","state":"NE","lat":41.2403,"long":-95.998},{"zip":"68107","city":"Omaha","state":"NE","lat":41.2068,"long":-95.9559},{"zip":"68108","city":"Omaha","state":"NE","lat":41.2382,"long":-95.9336},{"zip":"68109","city":"Omaha","state":"NE","lat":41.2586,"long":-95.9378},{"zip":"68110","city":"Omaha","state":"NE","lat":41.2933,"long":-95.9361},{"zip":"68111","city":"Omaha","state":"NE","lat":41.2962,"long":-95.965},{"zip":"68112","city":"Omaha","state":"NE","lat":41.3296,"long":-95.9597},{"zip":"68114","city":"Omaha","state":"NE","lat":41.2656,"long":-96.0493},{"zip":"68116","city":"Omaha","state":"NE","lat":41.2879,"long":-96.1495},{"zip":"68117","city":"Omaha","state":"NE","lat":41.2064,"long":-95.9953},{"zip":"68118","city":"Omaha","state":"NE","lat":41.2606,"long":-96.1661},{"zip":"68119","city":"Omaha","state":"NE","lat":41.2586,"long":-95.9378},{"zip":"68120","city":"Omaha","state":"NE","lat":41.2586,"long":-95.9378},{"zip":"68122","city":"Omaha","state":"NE","lat":41.3333,"long":-96.0458},{"zip":"68124","city":"Omaha","state":"NE","lat":41.2338,"long":-96.0495},{"zip":"68127","city":"Omaha","state":"NE","lat":41.2074,"long":-96.0612},{"zip":"68130","city":"Omaha","state":"NE","lat":41.2355,"long":-96.1688},{"zip":"68131","city":"Omaha","state":"NE","lat":41.2647,"long":-95.9639},{"zip":"68132","city":"Omaha","state":"NE","lat":41.2657,"long":-95.996},{"zip":"68134","city":"Omaha","state":"NE","lat":41.2949,"long":-96.0546},{"zip":"68135","city":"Omaha","state":"NE","lat":41.2104,"long":-96.1698},{"zip":"68137","city":"Omaha","state":"NE","lat":41.2075,"long":-96.1147},{"zip":"68139","city":"Omaha","state":"NE","lat":41.2586,"long":-95.9378},{"zip":"68142","city":"Omaha","state":"NE","lat":41.3359,"long":-96.0901},{"zip":"68144","city":"Omaha","state":"NE","lat":41.2335,"long":-96.1188},{"zip":"68145","city":"Omaha","state":"NE","lat":41.2586,"long":-95.9378},{"zip":"68152","city":"Omaha","state":"NE","lat":41.3346,"long":-96.0003},{"zip":"68154","city":"Omaha","state":"NE","lat":41.2642,"long":-96.1206},{"zip":"68155","city":"Omaha","state":"NE","lat":41.2586,"long":-95.9378},{"zip":"68164","city":"Omaha","state":"NE","lat":41.2955,"long":-96.1008},{"zip":"68172","city":"Omaha","state":"NE","lat":41.2586,"long":-95.9378},{"zip":"68175","city":"Omaha","state":"NE","lat":41.2586,"long":-95.9378},{"zip":"68176","city":"Omaha","state":"NE","lat":41.2586,"long":-95.9378},{"zip":"68178","city":"Omaha","state":"NE","lat":41.2657,"long":-95.9477},{"zip":"68179","city":"Omaha","state":"NE","lat":41.2586,"long":-95.9378},{"zip":"68180","city":"Omaha","state":"NE","lat":41.2586,"long":-95.9378},{"zip":"68182","city":"Omaha","state":"NE","lat":41.2586,"long":-95.9378},{"zip":"68183","city":"Omaha","state":"NE","lat":41.2586,"long":-95.9378},{"zip":"68197","city":"Omaha","state":"NE","lat":41.2563,"long":-95.9404},{"zip":"68198","city":"Omaha","state":"NE","lat":41.2586,"long":-95.9378},{"zip":"68113","city":"Offutt Afb","state":"NE","lat":41.2563,"long":-95.9404},{"zip":"68123","city":"Bellevue","state":"NE","lat":41.1156,"long":-95.9393},{"zip":"68128","city":"La Vista","state":"NE","lat":41.1814,"long":-96.0658},{"zip":"68133","city":"Papillion","state":"NE","lat":41.1416,"long":-96.0131},{"zip":"68136","city":"Omaha","state":"NE","lat":41.1683,"long":-96.2096},{"zip":"68138","city":"Omaha","state":"NE","lat":41.1549,"long":-96.1376},{"zip":"68147","city":"Bellevue","state":"NE","lat":41.1758,"long":-95.9553},{"zip":"68157","city":"Omaha","state":"NE","lat":41.181,"long":-95.9909}]
