[{"zip":"68304","city":"Alvo","state":"NE","lat":40.8992,"long":-96.4036},{"zip":"68307","city":"Avoca","state":"NE","lat":40.8159,"long":-96.0957},{"zip":"68347","city":"Eagle","state":"NE","lat":40.8169,"long":-96.429},{"zip":"68349","city":"Elmwood","state":"NE","lat":40.8378,"long":-96.2944},{"zip":"68366","city":"Greenwood","state":"NE","lat":40.9706,"long":-96.4258},{"zip":"68351","city":"Exeter","state":"NE","lat":40.6341,"long":-97.4424},{"zip":"68354","city":"Fairmont","state":"NE","lat":40.6404,"long":-97.5873},{"zip":"68361","city":"Geneva","state":"NE","lat":40.5277,"long":-97.6096},{"zip":"68365","city":"Grafton","state":"NE","lat":40.6402,"long":-97.7403},{"zip":"68301","city":"Adams","state":"NE","lat":40.4576,"long":-96.5396},{"zip":"68309","city":"Barneston","state":"NE","lat":40.0483,"long":-96.577},{"zip":"68310","city":"Beatrice","state":"NE","lat":40.2705,"long":-96.7435},{"zip":"68318","city":"Blue Springs","state":"NE","lat":40.1407,"long":-96.659},{"zip":"68328","city":"Clatonia","state":"NE","lat":40.4724,"long":-96.8555},{"zip":"68331","city":"Cortland","state":"NE","lat":40.4976,"long":-96.7166},{"zip":"68357","city":"Filley","state":"NE","lat":40.2946,"long":-96.5301},{"zip":"68381","city":"Liberty","state":"NE","lat":40.0801,"long":-96.4804},{"zip":"68338","city":"Daykin","state":"NE","lat":40.3192,"long":-97.3043},{"zip":"68342","city":"Diller","state":"NE","lat":40.1192,"long":-96.9495},{"zip":"68350","city":"Endicott","state":"NE","lat":40.0496,"long":-97.0813},{"zip":"68352","city":"Fairbury","state":"NE","lat":40.1488,"long":-97.1839},{"zip":"68377","city":"Jansen","state":"NE","lat":40.2074,"long":-97.0244},{"zip":"68329","city":"Cook","state":"NE","lat":40.4986,"long":-96.1526},{"zip":"68332","city":"Crab Orchard","state":"NE","lat":40.3166,"long":-96.4116},{"zip":"68348","city":"Elk Creek","state":"NE","lat":40.2977,"long":-96.1421},{"zip":"68317","city":"Bennet","state":"NE","lat":40.68,"long":-96.5064},{"zip":"68336","city":"Davey","state":"NE","lat":40.9639,"long":-96.688},{"zip":"68339","city":"Denton","state":"NE","lat":40.7378,"long":-96.8445},{"zip":"68358","city":"Firth","state":"NE","lat":40.5586,"long":-96.614},{"zip":"68368","city":"Hallam","state":"NE","lat":40.5739,"long":-96.7998},{"zip":"68372","city":"Hickman","state":"NE","lat":40.6119,"long":-96.6247},{"zip":"68305","city":"Auburn","state":"NE","lat":40.3789,"long":-95.8526},{"zip":"68320","city":"Brock","state":"NE","lat":40.4772,"long":-95.9801},{"zip":"68321","city":"Brownville","state":"NE","lat":40.3994,"long":-95.6935},{"zip":"68378","city":"Johnson","state":"NE","lat":40.4016,"long":-95.9883},{"zip":"68379","city":"Julian","state":"NE","lat":40.5199,"long":-95.8674},{"zip":"68324","city":"Burr","state":"NE","lat":40.5601,"long":-96.2384},{"zip":"68344","city":"Douglas","state":"NE","lat":40.5838,"long":-96.397},{"zip":"68346","city":"Dunbar","state":"NE","lat":40.6592,"long":-96.0136},{"zip":"68382","city":"Lorton","state":"NE","lat":40.5973,"long":-96.0241},{"zip":"68323","city":"Burchard","state":"NE","lat":40.1475,"long":-96.3503},{"zip":"68345","city":"Du Bois","state":"NE","lat":40.0375,"long":-96.0575},{"zip":"68380","city":"Lewiston","state":"NE","lat":40.2309,"long":-96.4049},{"zip":"68337","city":"Dawson","state":"NE","lat":40.1377,"long":-95.8341},{"zip":"68355","city":"Falls City","state":"NE","lat":40.0742,"long":-95.5931},{"zip":"68376","city":"Humboldt","state":"NE","lat":40.1566,"long":-95.9311},{"zip":"68333","city":"Crete","state":"NE","lat":40.6193,"long":-96.9567},{"zip":"68341","city":"De Witt","state":"NE","lat":40.3944,"long":-96.9338},{"zip":"68343","city":"Dorchester","state":"NE","lat":40.6499,"long":-97.1056},{"zip":"68359","city":"Friend","state":"NE","lat":40.6368,"long":-97.2739},{"zip":"68313","city":"Beaver Crossing","state":"NE","lat":40.7887,"long":-97.2914},{"zip":"68314","city":"Bee","state":"NE","lat":41.0007,"long":-97.0745},{"zip":"68330","city":"Cordova","state":"NE","lat":40.7185,"long":-97.3407},{"zip":"68360","city":"Garland","state":"NE","lat":40.9412,"long":-96.9702},{"zip":"68364","city":"Goehner","state":"NE","lat":40.8322,"long":-97.2212},{"zip":"68303","city":"Alexandria","state":"NE","lat":40.2614,"long":-97.4039},{"zip":"68315","city":"Belvidere","state":"NE","lat":40.251,"long":-97.5554},{"zip":"68322","city":"Bruning","state":"NE","lat":40.3302,"long":-97.5573},{"zip":"68325","city":"Byron","state":"NE","lat":40.0269,"long":-97.7612},{"zip":"68326","city":"Carleton","state":"NE","lat":40.3005,"long":-97.6719},{"zip":"68327","city":"Chester","state":"NE","lat":40.029,"long":-97.6197},{"zip":"68335","city":"Davenport","state":"NE","lat":40.3108,"long":-97.805},{"zip":"68340","city":"Deshler","state":"NE","lat":40.1387,"long":-97.73},{"zip":"68362","city":"Gilead","state":"NE","lat":40.147,"long":-97.4271},{"zip":"68370","city":"Hebron","state":"NE","lat":40.1728,"long":-97.6052},{"zip":"68375","city":"Hubbell","state":"NE","lat":40.0456,"long":-97.4735},{"zip":"68316","city":"Benedict","state":"NE","lat":41.0033,"long":-97.6029},{"zip":"68319","city":"Bradshaw","state":"NE","lat":40.9207,"long":-97.7607},{"zip":"68367","city":"Gresham","state":"NE","lat":41.021,"long":-97.4079},{"zip":"68371","city":"Henderson","state":"NE","lat":40.7814,"long":-97.7979}]
