[{"zip":"68403","city":"Manley","state":"NE","lat":40.9207,"long":-96.168},{"zip":"68407","city":"Murdock","state":"NE","lat":40.919,"long":-96.2848},{"zip":"68409","city":"Murray","state":"NE","lat":40.92,"long":-95.9227},{"zip":"68413","city":"Nehawka","state":"NE","lat":40.833,"long":-95.993},{"zip":"68455","city":"Union","state":"NE","lat":40.8245,"long":-95.9037},{"zip":"68463","city":"Weeping Water","state":"NE","lat":40.8731,"long":-96.1528},{"zip":"68452","city":"Ong","state":"NE","lat":40.3968,"long":-97.861},{"zip":"68406","city":"Milligan","state":"NE","lat":40.4952,"long":-97.3997},{"zip":"68416","city":"Ohiowa","state":"NE","lat":40.4065,"long":-97.4427},{"zip":"68436","city":"Shickley","state":"NE","lat":40.4077,"long":-97.7143},{"zip":"68444","city":"Strang","state":"NE","lat":40.4156,"long":-97.587},{"zip":"68415","city":"Odell","state":"NE","lat":40.0451,"long":-96.8019},{"zip":"68422","city":"Pickrell","state":"NE","lat":40.3821,"long":-96.7344},{"zip":"68458","city":"Virginia","state":"NE","lat":40.2309,"long":-96.5121},{"zip":"68466","city":"Wymore","state":"NE","lat":40.113,"long":-96.6613},{"zip":"68424","city":"Plymouth","state":"NE","lat":40.3039,"long":-97.0012},{"zip":"68440","city":"Steele City","state":"NE","lat":40.0378,"long":-97.0248},{"zip":"68443","city":"Sterling","state":"NE","lat":40.4637,"long":-96.3867},{"zip":"68450","city":"Tecumseh","state":"NE","lat":40.3697,"long":-96.205},{"zip":"68402","city":"Malcolm","state":"NE","lat":40.9091,"long":-96.86},{"zip":"68404","city":"Martell","state":"NE","lat":40.6514,"long":-96.7442},{"zip":"68419","city":"Panama","state":"NE","lat":40.5998,"long":-96.5129},{"zip":"68428","city":"Raymond","state":"NE","lat":40.9342,"long":-96.7866},{"zip":"68430","city":"Roca","state":"NE","lat":40.6702,"long":-96.6391},{"zip":"68438","city":"Sprague","state":"NE","lat":40.6267,"long":-96.7456},{"zip":"68461","city":"Walton","state":"NE","lat":40.7975,"long":-96.5359},{"zip":"68462","city":"Waverly","state":"NE","lat":40.9222,"long":-96.526},{"zip":"68414","city":"Nemaha","state":"NE","lat":40.3198,"long":-95.6913},{"zip":"68421","city":"Peru","state":"NE","lat":40.4766,"long":-95.7312},{"zip":"68410","city":"Nebraska City","state":"NE","lat":40.6747,"long":-95.8619},{"zip":"68417","city":"Otoe","state":"NE","lat":40.7355,"long":-96.1329},{"zip":"68418","city":"Palmyra","state":"NE","lat":40.705,"long":-96.3999},{"zip":"68446","city":"Syracuse","state":"NE","lat":40.6614,"long":-96.1824},{"zip":"68448","city":"Talmage","state":"NE","lat":40.5586,"long":-96.0138},{"zip":"68454","city":"Unadilla","state":"NE","lat":40.6917,"long":-96.2825},{"zip":"68420","city":"Pawnee City","state":"NE","lat":40.1093,"long":-96.1509},{"zip":"68441","city":"Steinauer","state":"NE","lat":40.2169,"long":-96.2302},{"zip":"68447","city":"Table Rock","state":"NE","lat":40.1874,"long":-96.0818},{"zip":"68431","city":"Rulo","state":"NE","lat":40.0536,"long":-95.4292},{"zip":"68433","city":"Salem","state":"NE","lat":40.062,"long":-95.7273},{"zip":"68437","city":"Shubert","state":"NE","lat":40.2325,"long":-95.6895},{"zip":"68442","city":"Stella","state":"NE","lat":40.2303,"long":-95.768},{"zip":"68457","city":"Verdon","state":"NE","lat":40.1425,"long":-95.7162},{"zip":"68445","city":"Swanton","state":"NE","lat":40.3844,"long":-97.0806},{"zip":"68453","city":"Tobias","state":"NE","lat":40.4262,"long":-97.3184},{"zip":"68464","city":"Western","state":"NE","lat":40.4152,"long":-97.1976},{"zip":"68465","city":"Wilber","state":"NE","lat":40.4821,"long":-96.9757},{"zip":"68405","city":"Milford","state":"NE","lat":40.7632,"long":-97.0576},{"zip":"68423","city":"Pleasant Dale","state":"NE","lat":40.8133,"long":-96.9513},{"zip":"68434","city":"Seward","state":"NE","lat":40.9066,"long":-97.0966},{"zip":"68439","city":"Staplehurst","state":"NE","lat":40.9845,"long":-97.1859},{"zip":"68456","city":"Utica","state":"NE","lat":40.9168,"long":-97.3344},{"zip":"68429","city":"Reynolds","state":"NE","lat":40.0598,"long":-97.3806},{"zip":"68401","city":"Mc Cool Junction","state":"NE","lat":40.7442,"long":-97.5937},{"zip":"68460","city":"Waco","state":"NE","lat":40.9198,"long":-97.4534},{"zip":"68467","city":"York","state":"NE","lat":40.8667,"long":-97.5825}]
