[{"zip":"68501","city":"Lincoln","state":"NE","lat":40.8651,"long":-96.8231},{"zip":"68502","city":"Lincoln","state":"NE","lat":40.7893,"long":-96.6938},{"zip":"68503","city":"Lincoln","state":"NE","lat":40.8233,"long":-96.6766},{"zip":"68504","city":"Lincoln","state":"NE","lat":40.8392,"long":-96.6532},{"zip":"68505","city":"Lincoln","state":"NE","lat":40.8247,"long":-96.6252},{"zip":"68506","city":"Lincoln","state":"NE","lat":40.7848,"long":-96.6431},{"zip":"68507","city":"Lincoln","state":"NE","lat":40.8473,"long":-96.6289},{"zip":"68508","city":"Lincoln","state":"NE","lat":40.8145,"long":-96.7009},{"zip":"68509","city":"Lincoln","state":"NE","lat":40.7845,"long":-96.6888},{"zip":"68510","city":"Lincoln","state":"NE","lat":40.8063,"long":-96.6545},{"zip":"68512","city":"Lincoln","state":"NE","lat":40.7565,"long":-96.6946},{"zip":"68514","city":"Lincoln","state":"NE","lat":40.9401,"long":-96.6621},{"zip":"68516","city":"Lincoln","state":"NE","lat":40.7568,"long":-96.6523},{"zip":"68517","city":"Lincoln","state":"NE","lat":40.9317,"long":-96.6045},{"zip":"68520","city":"Lincoln","state":"NE","lat":40.7744,"long":-96.5693},{"zip":"68521","city":"Lincoln","state":"NE","lat":40.851,"long":-96.711},{"zip":"68522","city":"Lincoln","state":"NE","lat":40.7934,"long":-96.7479},{"zip":"68523","city":"Lincoln","state":"NE","lat":40.7408,"long":-96.7583},{"zip":"68524","city":"Lincoln","state":"NE","lat":40.8529,"long":-96.7943},{"zip":"68526","city":"Lincoln","state":"NE","lat":40.7314,"long":-96.5878},{"zip":"68527","city":"Lincoln","state":"NE","lat":40.8347,"long":-96.5401},{"zip":"68528","city":"Lincoln","state":"NE","lat":40.8195,"long":-96.7545},{"zip":"68529","city":"Lincoln","state":"NE","lat":40.8798,"long":-96.7798},{"zip":"68531","city":"Lincoln","state":"NE","lat":40.9008,"long":-96.7201},{"zip":"68532","city":"Lincoln","state":"NE","lat":40.7922,"long":-96.8551},{"zip":"68542","city":"Lincoln","state":"NE","lat":40.7845,"long":-96.6888},{"zip":"68544","city":"Lincoln","state":"NE","lat":40.7845,"long":-96.6888},{"zip":"68583","city":"Lincoln","state":"NE","lat":40.7845,"long":-96.6888},{"zip":"68588","city":"Lincoln","state":"NE","lat":40.8206,"long":-96.6928}]
