[{"zip":"68636","city":"Elgin","state":"NE","lat":41.9732,"long":-98.0751},{"zip":"68620","city":"Albion","state":"NE","lat":41.7049,"long":-97.9991},{"zip":"68627","city":"Cedar Rapids","state":"NE","lat":41.5564,"long":-98.1554},{"zip":"68652","city":"Petersburg","state":"NE","lat":41.859,"long":-98.0848},{"zip":"68655","city":"Primrose","state":"NE","lat":41.6405,"long":-98.2355},{"zip":"68660","city":"Saint Edward","state":"NE","lat":41.5708,"long":-97.8801},{"zip":"68624","city":"Bellwood","state":"NE","lat":41.3474,"long":-97.2747},{"zip":"68626","city":"Brainard","state":"NE","lat":41.1832,"long":-96.9882},{"zip":"68632","city":"David City","state":"NE","lat":41.2528,"long":-97.13},{"zip":"68635","city":"Dwight","state":"NE","lat":41.0894,"long":-96.9931},{"zip":"68658","city":"Rising City","state":"NE","lat":41.2082,"long":-97.3032},{"zip":"68667","city":"Surprise","state":"NE","lat":41.1086,"long":-97.3112},{"zip":"68669","city":"Ulysses","state":"NE","lat":41.0791,"long":-97.1984},{"zip":"68629","city":"Clarkson","state":"NE","lat":41.6961,"long":-97.1051},{"zip":"68641","city":"Howells","state":"NE","lat":41.725,"long":-97.0028},{"zip":"68643","city":"Leigh","state":"NE","lat":41.7053,"long":-97.2381},{"zip":"68659","city":"Rogers","state":"NE","lat":41.4653,"long":-96.915},{"zip":"68661","city":"Schuyler","state":"NE","lat":41.4591,"long":-97.0628},{"zip":"68621","city":"Ames","state":"NE","lat":41.4613,"long":-96.6463},{"zip":"68633","city":"Dodge","state":"NE","lat":41.7052,"long":-96.8969},{"zip":"68649","city":"North Bend","state":"NE","lat":41.4689,"long":-96.7813},{"zip":"68664","city":"Snyder","state":"NE","lat":41.7039,"long":-96.7886},{"zip":"68665","city":"Spalding","state":"NE","lat":41.6874,"long":-98.3715},{"zip":"68628","city":"Clarks","state":"NE","lat":41.2328,"long":-97.8461},{"zip":"68663","city":"Silver Creek","state":"NE","lat":41.319,"long":-97.6671},{"zip":"68623","city":"Belgrade","state":"NE","lat":41.4611,"long":-98.0866},{"zip":"68638","city":"Fullerton","state":"NE","lat":41.3633,"long":-97.9692},{"zip":"68640","city":"Genoa","state":"NE","lat":41.4468,"long":-97.764},{"zip":"68601","city":"Columbus","state":"NE","lat":41.4297,"long":-97.3684},{"zip":"68602","city":"Columbus","state":"NE","lat":41.4297,"long":-97.3684},{"zip":"68631","city":"Creston","state":"NE","lat":41.7067,"long":-97.3625},{"zip":"68634","city":"Duncan","state":"NE","lat":41.3895,"long":-97.4948},{"zip":"68642","city":"Humphrey","state":"NE","lat":41.6702,"long":-97.4986},{"zip":"68644","city":"Lindsay","state":"NE","lat":41.6926,"long":-97.6711},{"zip":"68647","city":"Monroe","state":"NE","lat":41.4783,"long":-97.6061},{"zip":"68653","city":"Platte Center","state":"NE","lat":41.5375,"long":-97.4884},{"zip":"68651","city":"Osceola","state":"NE","lat":41.1966,"long":-97.5571},{"zip":"68654","city":"Polk","state":"NE","lat":41.0767,"long":-97.7839},{"zip":"68662","city":"Shelby","state":"NE","lat":41.1922,"long":-97.4253},{"zip":"68666","city":"Stromsburg","state":"NE","lat":41.1118,"long":-97.5742},{"zip":"68648","city":"Morse Bluff","state":"NE","lat":41.4178,"long":-96.7862},{"zip":"68622","city":"Bartlett","state":"NE","lat":41.8697,"long":-98.5567},{"zip":"68637","city":"Ericson","state":"NE","lat":41.7828,"long":-98.6453}]
