[{"zip":"68821","city":"Brewster","state":"NE","lat":41.9467,"long":-99.8292},{"zip":"68833","city":"Dunning","state":"NE","lat":41.8131,"long":-100.0873},{"zip":"68812","city":"Amherst","state":"NE","lat":40.8495,"long":-99.2609},{"zip":"68836","city":"Elm Creek","state":"NE","lat":40.7301,"long":-99.3728},{"zip":"68840","city":"Gibbon","state":"NE","lat":40.7444,"long":-98.8543},{"zip":"68845","city":"Kearney","state":"NE","lat":40.7514,"long":-99.1291},{"zip":"68847","city":"Kearney","state":"NE","lat":40.7136,"long":-99.0779},{"zip":"68848","city":"Kearney","state":"NE","lat":40.6861,"long":-99.0693},{"zip":"68849","city":"Kearney","state":"NE","lat":40.8497,"long":-99.0741},{"zip":"68858","city":"Miller","state":"NE","lat":40.9422,"long":-99.374},{"zip":"68861","city":"Odessa","state":"NE","lat":40.7017,"long":-99.2568},{"zip":"68866","city":"Pleasanton","state":"NE","lat":40.9818,"long":-99.1283},{"zip":"68869","city":"Ravenna","state":"NE","lat":41.0233,"long":-98.9041},{"zip":"68870","city":"Riverdale","state":"NE","lat":40.8524,"long":-99.1611},{"zip":"68876","city":"Shelton","state":"NE","lat":40.7717,"long":-98.7435},{"zip":"68813","city":"Anselmo","state":"NE","lat":41.6208,"long":-99.8644},{"zip":"68814","city":"Ansley","state":"NE","lat":41.3019,"long":-99.3645},{"zip":"68822","city":"Broken Bow","state":"NE","lat":41.4126,"long":-99.6355},{"zip":"68825","city":"Callaway","state":"NE","lat":41.2485,"long":-99.9932},{"zip":"68828","city":"Comstock","state":"NE","lat":41.5606,"long":-99.2504},{"zip":"68855","city":"Mason City","state":"NE","lat":41.1853,"long":-99.3049},{"zip":"68856","city":"Merna","state":"NE","lat":41.4435,"long":-99.8036},{"zip":"68860","city":"Oconto","state":"NE","lat":41.1411,"long":-99.7632},{"zip":"68874","city":"Sargent","state":"NE","lat":41.6508,"long":-99.3816},{"zip":"68881","city":"Westerville","state":"NE","lat":41.4193,"long":-99.3844},{"zip":"68834","city":"Eddyville","state":"NE","lat":41.0079,"long":-99.681},{"zip":"68850","city":"Lexington","state":"NE","lat":40.785,"long":-99.7515},{"zip":"68863","city":"Overton","state":"NE","lat":40.7519,"long":-99.5278},{"zip":"68878","city":"Sumner","state":"NE","lat":40.9504,"long":-99.52},{"zip":"68823","city":"Burwell","state":"NE","lat":41.808,"long":-99.0995},{"zip":"68842","city":"Greeley","state":"NE","lat":41.5526,"long":-98.53},{"zip":"68875","city":"Scotia","state":"NE","lat":41.4837,"long":-98.6893},{"zip":"68882","city":"Wolbach","state":"NE","lat":41.4244,"long":-98.3995},{"zip":"68801","city":"Grand Island","state":"NE","lat":40.9219,"long":-98.3411},{"zip":"68802","city":"Grand Island","state":"NE","lat":40.8725,"long":-98.5021},{"zip":"68803","city":"Grand Island","state":"NE","lat":40.9286,"long":-98.3873},{"zip":"68810","city":"Alda","state":"NE","lat":40.8711,"long":-98.4681},{"zip":"68824","city":"Cairo","state":"NE","lat":41.0002,"long":-98.6165},{"zip":"68832","city":"Doniphan","state":"NE","lat":40.77,"long":-98.379},{"zip":"68883","city":"Wood River","state":"NE","lat":40.8106,"long":-98.6065},{"zip":"68818","city":"Aurora","state":"NE","lat":40.8528,"long":-98.0201},{"zip":"68841","city":"Giltner","state":"NE","lat":40.7654,"long":-98.1434},{"zip":"68843","city":"Hampton","state":"NE","lat":40.9236,"long":-97.8841},{"zip":"68846","city":"Hordville","state":"NE","lat":41.0813,"long":-97.8881},{"zip":"68854","city":"Marquette","state":"NE","lat":41.01,"long":-98},{"zip":"68865","city":"Phillips","state":"NE","lat":40.8982,"long":-98.2129},{"zip":"68820","city":"Boelus","state":"NE","lat":41.1003,"long":-98.6976},{"zip":"68831","city":"Dannebrog","state":"NE","lat":41.1192,"long":-98.5546},{"zip":"68835","city":"Elba","state":"NE","lat":41.2864,"long":-98.5756},{"zip":"68838","city":"Farwell","state":"NE","lat":41.2204,"long":-98.6481},{"zip":"68872","city":"Saint Libory","state":"NE","lat":41.0867,"long":-98.3589},{"zip":"68873","city":"Saint Paul","state":"NE","lat":41.2242,"long":-98.444},{"zip":"68879","city":"Taylor","state":"NE","lat":41.9141,"long":-99.4543},{"zip":"68816","city":"Archer","state":"NE","lat":41.1782,"long":-98.1182},{"zip":"68826","city":"Central City","state":"NE","lat":41.1213,"long":-98.0017},{"zip":"68827","city":"Chapman","state":"NE","lat":40.9856,"long":-98.2217},{"zip":"68864","city":"Palmer","state":"NE","lat":41.1788,"long":-98.2411},{"zip":"68817","city":"Ashton","state":"NE","lat":41.2672,"long":-98.8034},{"zip":"68844","city":"Hazard","state":"NE","lat":41.0934,"long":-99.0719},{"zip":"68852","city":"Litchfield","state":"NE","lat":41.1686,"long":-99.1415},{"zip":"68853","city":"Loup City","state":"NE","lat":41.2845,"long":-98.9751},{"zip":"68871","city":"Rockville","state":"NE","lat":41.1108,"long":-98.8578},{"zip":"68815","city":"Arcadia","state":"NE","lat":41.4293,"long":-99.1205},{"zip":"68837","city":"Elyria","state":"NE","lat":41.6808,"long":-99.0062},{"zip":"68859","city":"North Loup","state":"NE","lat":41.4972,"long":-98.7858},{"zip":"68862","city":"Ord","state":"NE","lat":41.5962,"long":-98.9418}]
