[{"zip":"68901","city":"Hastings","state":"NE","lat":40.5877,"long":-98.3911},{"zip":"68902","city":"Hastings","state":"NE","lat":40.5896,"long":-98.3972},{"zip":"68925","city":"Ayr","state":"NE","lat":40.4411,"long":-98.439},{"zip":"68950","city":"Holstein","state":"NE","lat":40.4542,"long":-98.6538},{"zip":"68955","city":"Juniata","state":"NE","lat":40.5867,"long":-98.515},{"zip":"68956","city":"Kenesaw","state":"NE","lat":40.6165,"long":-98.6572},{"zip":"68973","city":"Roseland","state":"NE","lat":40.4591,"long":-98.5551},{"zip":"68933","city":"Clay Center","state":"NE","lat":40.5113,"long":-98.0386},{"zip":"68934","city":"Deweese","state":"NE","lat":40.354,"long":-98.14},{"zip":"68935","city":"Edgar","state":"NE","lat":40.3652,"long":-97.9727},{"zip":"68938","city":"Fairfield","state":"NE","lat":40.4285,"long":-98.1063},{"zip":"68941","city":"Glenvil","state":"NE","lat":40.4931,"long":-98.2465},{"zip":"68944","city":"Harvard","state":"NE","lat":40.6265,"long":-98.0846},{"zip":"68954","city":"Inland","state":"NE","lat":40.5899,"long":-98.2234},{"zip":"68975","city":"Saronville","state":"NE","lat":40.6021,"long":-97.9388},{"zip":"68979","city":"Sutton","state":"NE","lat":40.6056,"long":-97.8592},{"zip":"68980","city":"Trumbull","state":"NE","lat":40.6795,"long":-98.2734},{"zip":"68929","city":"Bloomington","state":"NE","lat":40.1383,"long":-99.0094},{"zip":"68932","city":"Campbell","state":"NE","lat":40.2967,"long":-98.737},{"zip":"68939","city":"Franklin","state":"NE","lat":40.1052,"long":-98.9469},{"zip":"68947","city":"Hildreth","state":"NE","lat":40.3217,"long":-99.0571},{"zip":"68960","city":"Naponee","state":"NE","lat":40.1258,"long":-99.1277},{"zip":"68972","city":"Riverton","state":"NE","lat":40.1016,"long":-98.7858},{"zip":"68981","city":"Upland","state":"NE","lat":40.3171,"long":-98.8966},{"zip":"68922","city":"Arapahoe","state":"NE","lat":40.3027,"long":-99.8997},{"zip":"68926","city":"Beaver City","state":"NE","lat":40.129,"long":-99.8065},{"zip":"68936","city":"Edison","state":"NE","lat":40.2802,"long":-99.786},{"zip":"68946","city":"Hendley","state":"NE","lat":40.1063,"long":-99.9715},{"zip":"68948","city":"Holbrook","state":"NE","lat":40.3019,"long":-100.0136},{"zip":"68967","city":"Oxford","state":"NE","lat":40.256,"long":-99.6302},{"zip":"68937","city":"Elwood","state":"NE","lat":40.5747,"long":-99.8258},{"zip":"68976","city":"Smithfield","state":"NE","lat":40.5832,"long":-99.7285},{"zip":"68920","city":"Alma","state":"NE","lat":40.1189,"long":-99.3601},{"zip":"68966","city":"Orleans","state":"NE","lat":40.1484,"long":-99.4572},{"zip":"68969","city":"Ragan","state":"NE","lat":40.3103,"long":-99.2898},{"zip":"68971","city":"Republican City","state":"NE","lat":40.1034,"long":-99.2322},{"zip":"68977","city":"Stamford","state":"NE","lat":40.1163,"long":-99.5814},{"zip":"68924","city":"Axtell","state":"NE","lat":40.5269,"long":-99.1169},{"zip":"68945","city":"Heartwell","state":"NE","lat":40.5716,"long":-98.7851},{"zip":"68959","city":"Minden","state":"NE","lat":40.5091,"long":-98.9383},{"zip":"68982","city":"Wilcox","state":"NE","lat":40.3735,"long":-99.1539},{"zip":"68943","city":"Hardy","state":"NE","lat":40.0285,"long":-97.9271},{"zip":"68957","city":"Lawrence","state":"NE","lat":40.2767,"long":-98.2402},{"zip":"68961","city":"Nelson","state":"NE","lat":40.2011,"long":-98.0684},{"zip":"68964","city":"Oak","state":"NE","lat":40.2378,"long":-97.903},{"zip":"68974","city":"Ruskin","state":"NE","lat":40.1383,"long":-97.872},{"zip":"68978","city":"Superior","state":"NE","lat":40.0315,"long":-98.0779},{"zip":"68923","city":"Atlanta","state":"NE","lat":40.3667,"long":-99.4732},{"zip":"68927","city":"Bertrand","state":"NE","lat":40.5608,"long":-99.5759},{"zip":"68940","city":"Funk","state":"NE","lat":40.502,"long":-99.245},{"zip":"68949","city":"Holdrege","state":"NE","lat":40.4475,"long":-99.3672},{"zip":"68958","city":"Loomis","state":"NE","lat":40.4792,"long":-99.4979},{"zip":"68928","city":"Bladen","state":"NE","lat":40.299,"long":-98.6046},{"zip":"68930","city":"Blue Hill","state":"NE","lat":40.311,"long":-98.427},{"zip":"68942","city":"Guide Rock","state":"NE","lat":40.0812,"long":-98.3391},{"zip":"68952","city":"Inavale","state":"NE","lat":40.0959,"long":-98.6612},{"zip":"68970","city":"Red Cloud","state":"NE","lat":40.0952,"long":-98.5187}]
