[{"zip":"69121","city":"Arthur","state":"NE","lat":41.574,"long":-101.6931},{"zip":"69157","city":"Purdum","state":"NE","lat":41.9123,"long":-99.9771},{"zip":"69135","city":"Elsmere","state":"NE","lat":42.2403,"long":-100.2595},{"zip":"69131","city":"Dalton","state":"NE","lat":41.4068,"long":-102.9726},{"zip":"69141","city":"Gurley","state":"NE","lat":41.315,"long":-102.9835},{"zip":"69149","city":"Lodgepole","state":"NE","lat":41.1697,"long":-102.657},{"zip":"69156","city":"Potter","state":"NE","lat":41.2347,"long":-103.3061},{"zip":"69160","city":"Sidney","state":"NE","lat":41.2205,"long":-102.9959},{"zip":"69162","city":"Sidney","state":"NE","lat":41.138,"long":-102.9856},{"zip":"69120","city":"Arnold","state":"NE","lat":41.4456,"long":-100.1567},{"zip":"69130","city":"Cozad","state":"NE","lat":40.8619,"long":-99.9921},{"zip":"69138","city":"Gothenburg","state":"NE","lat":40.94,"long":-100.1547},{"zip":"69171","city":"Willow Island","state":"NE","lat":40.8925,"long":-100.0703},{"zip":"69122","city":"Big Springs","state":"NE","lat":41.0696,"long":-102.0933},{"zip":"69129","city":"Chappell","state":"NE","lat":41.0966,"long":-102.4523},{"zip":"69147","city":"Lewellen","state":"NE","lat":41.3435,"long":-102.1396},{"zip":"69148","city":"Lisco","state":"NE","lat":41.5114,"long":-102.5498},{"zip":"69154","city":"Oshkosh","state":"NE","lat":41.405,"long":-102.3444},{"zip":"69190","city":"Oshkosh","state":"NE","lat":41.405,"long":-102.3444},{"zip":"69152","city":"Mullen","state":"NE","lat":42.0163,"long":-101.0542},{"zip":"69127","city":"Brule","state":"NE","lat":41.1002,"long":-101.9099},{"zip":"69144","city":"Keystone","state":"NE","lat":41.2621,"long":-101.6282},{"zip":"69146","city":"Lemoyne","state":"NE","lat":41.3236,"long":-101.7673},{"zip":"69153","city":"Ogallala","state":"NE","lat":41.1275,"long":-101.7107},{"zip":"69155","city":"Paxton","state":"NE","lat":41.1268,"long":-101.3585},{"zip":"69128","city":"Bushnell","state":"NE","lat":41.2139,"long":-103.9075},{"zip":"69133","city":"Dix","state":"NE","lat":41.227,"long":-103.4796},{"zip":"69145","city":"Kimball","state":"NE","lat":41.2321,"long":-103.6602},{"zip":"69101","city":"North Platte","state":"NE","lat":41.1326,"long":-100.7746},{"zip":"69103","city":"North Platte","state":"NE","lat":41.0464,"long":-100.7469},{"zip":"69123","city":"Brady","state":"NE","lat":41.0515,"long":-100.3736},{"zip":"69132","city":"Dickens","state":"NE","lat":40.8041,"long":-101.0149},{"zip":"69143","city":"Hershey","state":"NE","lat":41.2102,"long":-101.0392},{"zip":"69151","city":"Maxwell","state":"NE","lat":41.0588,"long":-100.527},{"zip":"69165","city":"Sutherland","state":"NE","lat":41.1557,"long":-101.136},{"zip":"69169","city":"Wallace","state":"NE","lat":40.8304,"long":-101.1738},{"zip":"69170","city":"Wellfleet","state":"NE","lat":40.7988,"long":-100.7119},{"zip":"69163","city":"Stapleton","state":"NE","lat":41.4888,"long":-100.4831},{"zip":"69167","city":"Tryon","state":"NE","lat":41.5732,"long":-101.0175},{"zip":"69125","city":"Broadwater","state":"NE","lat":41.5825,"long":-102.8225},{"zip":"69134","city":"Elsie","state":"NE","lat":40.8596,"long":-101.37},{"zip":"69140","city":"Grant","state":"NE","lat":40.8511,"long":-101.7196},{"zip":"69150","city":"Madrid","state":"NE","lat":40.8544,"long":-101.5371},{"zip":"69168","city":"Venango","state":"NE","lat":40.8073,"long":-101.9839},{"zip":"69142","city":"Halsey","state":"NE","lat":41.9291,"long":-100.2955},{"zip":"69161","city":"Seneca","state":"NE","lat":41.9901,"long":-100.8073},{"zip":"69166","city":"Thedford","state":"NE","lat":41.9794,"long":-100.5574}]
