[{"zip":"69345","city":"Harrisburg","state":"NE","lat":41.5531,"long":-103.7111},{"zip":"69301","city":"Alliance","state":"NE","lat":42.1149,"long":-102.888},{"zip":"69348","city":"Hemingford","state":"NE","lat":42.3312,"long":-103.0644},{"zip":"69337","city":"Chadron","state":"NE","lat":42.8193,"long":-102.9953},{"zip":"69339","city":"Crawford","state":"NE","lat":42.6758,"long":-103.4053},{"zip":"69354","city":"Marsland","state":"NE","lat":42.5244,"long":-103.2564},{"zip":"69367","city":"Whitney","state":"NE","lat":42.7559,"long":-103.2396},{"zip":"69333","city":"Ashby","state":"NE","lat":41.9776,"long":-101.9636},{"zip":"69350","city":"Hyannis","state":"NE","lat":42.007,"long":-101.7483},{"zip":"69366","city":"Whitman","state":"NE","lat":41.9584,"long":-101.5216},{"zip":"69331","city":"Angora","state":"NE","lat":41.8934,"long":-103.085},{"zip":"69334","city":"Bayard","state":"NE","lat":41.7579,"long":-103.3019},{"zip":"69336","city":"Bridgeport","state":"NE","lat":41.6766,"long":-103.0701},{"zip":"69341","city":"Gering","state":"NE","lat":41.822,"long":-103.6629},{"zip":"69352","city":"Lyman","state":"NE","lat":41.8918,"long":-104.0066},{"zip":"69353","city":"Mcgrew","state":"NE","lat":41.7469,"long":-103.4164},{"zip":"69355","city":"Melbeta","state":"NE","lat":41.7816,"long":-103.5177},{"zip":"69356","city":"Minatare","state":"NE","lat":41.8493,"long":-103.489},{"zip":"69357","city":"Mitchell","state":"NE","lat":41.9459,"long":-103.796},{"zip":"69358","city":"Morrill","state":"NE","lat":41.9681,"long":-103.9182},{"zip":"69361","city":"Scottsbluff","state":"NE","lat":41.872,"long":-103.6619},{"zip":"69363","city":"Scottsbluff","state":"NE","lat":41.8666,"long":-103.6672},{"zip":"69335","city":"Bingham","state":"NE","lat":42.0211,"long":-102.0885},{"zip":"69340","city":"Ellsworth","state":"NE","lat":42.0586,"long":-102.2807},{"zip":"69343","city":"Gordon","state":"NE","lat":42.8068,"long":-102.2049},{"zip":"69347","city":"Hay Springs","state":"NE","lat":42.6401,"long":-102.6756},{"zip":"69351","city":"Lakeside","state":"NE","lat":42.0496,"long":-102.4437},{"zip":"69360","city":"Rushville","state":"NE","lat":42.7379,"long":-102.4657},{"zip":"69365","city":"Whiteclay","state":"NE","lat":42.9969,"long":-102.5546},{"zip":"69346","city":"Harrison","state":"NE","lat":42.6872,"long":-103.8827}]
