[{"zip":"70516","city":"Branch","state":"LA","lat":30.3446,"long":-92.3459},{"zip":"70525","city":"Church Point","state":"LA","lat":30.4013,"long":-92.224},{"zip":"70526","city":"Crowley","state":"LA","lat":30.2148,"long":-92.3777},{"zip":"70527","city":"Crowley","state":"LA","lat":30.2284,"long":-92.3018},{"zip":"70531","city":"Egan","state":"LA","lat":30.251,"long":-92.5002},{"zip":"70534","city":"Estherwood","state":"LA","lat":30.1808,"long":-92.4643},{"zip":"70537","city":"Evangeline","state":"LA","lat":30.2683,"long":-92.5532},{"zip":"70543","city":"Iota","state":"LA","lat":30.3313,"long":-92.4957},{"zip":"70556","city":"Mermentau","state":"LA","lat":30.1861,"long":-92.5722},{"zip":"70559","city":"Morse","state":"LA","lat":30.1298,"long":-92.4767},{"zip":"70578","city":"Rayne","state":"LA","lat":30.2349,"long":-92.2685},{"zip":"70638","city":"Elizabeth","state":"LA","lat":30.8547,"long":-92.7815},{"zip":"70644","city":"Grant","state":"LA","lat":30.7962,"long":-92.9517},{"zip":"70648","city":"Kinder","state":"LA","lat":30.4607,"long":-92.8693},{"zip":"70651","city":"Leblanc","state":"LA","lat":30.5648,"long":-92.9583},{"zip":"70654","city":"Mittie","state":"LA","lat":30.7144,"long":-92.9068},{"zip":"70655","city":"Oberlin","state":"LA","lat":30.6162,"long":-92.7527},{"zip":"70658","city":"Reeves","state":"LA","lat":30.521,"long":-93.0477},{"zip":"70346","city":"Donaldsonville","state":"LA","lat":30.1018,"long":-90.997},{"zip":"70707","city":"Gonzales","state":"LA","lat":30.2047,"long":-90.8695},{"zip":"70718","city":"Brittany","state":"LA","lat":30.201,"long":-90.8689},{"zip":"70725","city":"Darrow","state":"LA","lat":30.13,"long":-90.9651},{"zip":"70728","city":"Duplessis","state":"LA","lat":30.2954,"long":-90.9458},{"zip":"70734","city":"Geismar","state":"LA","lat":30.2196,"long":-91.0079},{"zip":"70737","city":"Gonzales","state":"LA","lat":30.2473,"long":-90.918},{"zip":"70738","city":"Burnside","state":"LA","lat":30.1388,"long":-90.924},{"zip":"70769","city":"Prairieville","state":"LA","lat":30.3073,"long":-90.9405},{"zip":"70774","city":"Saint Amant","state":"LA","lat":30.2385,"long":-90.8435},{"zip":"70778","city":"Sorrento","state":"LA","lat":30.1854,"long":-90.8631},{"zip":"70339","city":"Pierre Part","state":"LA","lat":29.9476,"long":-91.1885},{"zip":"70341","city":"Belle Rose","state":"LA","lat":30.026,"long":-91.0444},{"zip":"70372","city":"Labadieville","state":"LA","lat":29.8345,"long":-90.9613},{"zip":"70390","city":"Napoleonville","state":"LA","lat":29.9288,"long":-91.0266},{"zip":"70391","city":"Paincourtville","state":"LA","lat":29.9902,"long":-91.0588},{"zip":"70393","city":"Plattenville","state":"LA","lat":29.9974,"long":-91.0232},{"zip":"70634","city":"Deridder","state":"LA","lat":30.8287,"long":-93.2685},{"zip":"70637","city":"Dry Creek","state":"LA","lat":30.6859,"long":-92.9843},{"zip":"70652","city":"Longville","state":"LA","lat":30.58,"long":-93.2548},{"zip":"70653","city":"Merryville","state":"LA","lat":30.6716,"long":-93.5613},{"zip":"70657","city":"Ragley","state":"LA","lat":30.4703,"long":-93.2337},{"zip":"70660","city":"Singer","state":"LA","lat":30.5329,"long":-93.465},{"zip":"70662","city":"Sugartown","state":"LA","lat":30.8277,"long":-93.017},{"zip":"70601","city":"Lake Charles","state":"LA","lat":30.2285,"long":-93.188},{"zip":"70602","city":"Lake Charles","state":"LA","lat":30.2642,"long":-93.3265},{"zip":"70605","city":"Lake Charles","state":"LA","lat":30.1693,"long":-93.2218},{"zip":"70606","city":"Lake Charles","state":"LA","lat":30.2642,"long":-93.3265},{"zip":"70607","city":"Lake Charles","state":"LA","lat":30.1244,"long":-93.1835},{"zip":"70609","city":"Lake Charles","state":"LA","lat":30.2642,"long":-93.3265},{"zip":"70611","city":"Lake Charles","state":"LA","lat":30.322,"long":-93.2111},{"zip":"70612","city":"Lake Charles","state":"LA","lat":30.2642,"long":-93.3265},{"zip":"70615","city":"Lake Charles","state":"LA","lat":30.2585,"long":-93.1146},{"zip":"70616","city":"Lake Charles","state":"LA","lat":30.2642,"long":-93.3265},{"zip":"70629","city":"Lake Charles","state":"LA","lat":30.2642,"long":-93.3265},{"zip":"70630","city":"Bell City","state":"LA","lat":30.1054,"long":-93.0372},{"zip":"70633","city":"Dequincy","state":"LA","lat":30.4211,"long":-93.4151},{"zip":"70646","city":"Hayes","state":"LA","lat":30.097,"long":-92.9146},{"zip":"70647","city":"Iowa","state":"LA","lat":30.2219,"long":-93.0259},{"zip":"70661","city":"Starks","state":"LA","lat":30.3085,"long":-93.6615},{"zip":"70663","city":"Sulphur","state":"LA","lat":30.219,"long":-93.3639},{"zip":"70664","city":"Sulphur","state":"LA","lat":30.2642,"long":-93.3265},{"zip":"70665","city":"Sulphur","state":"LA","lat":30.2009,"long":-93.4437},{"zip":"70668","city":"Vinton","state":"LA","lat":30.2015,"long":-93.5728},{"zip":"70669","city":"Westlake","state":"LA","lat":30.2613,"long":-93.2688},{"zip":"70631","city":"Cameron","state":"LA","lat":29.7911,"long":-93.438},{"zip":"70632","city":"Creole","state":"LA","lat":29.8646,"long":-93.0033},{"zip":"70643","city":"Grand Chenier","state":"LA","lat":29.7644,"long":-92.9261},{"zip":"70645","city":"Hackberry","state":"LA","lat":29.9822,"long":-93.375},{"zip":"70704","city":"Baker","state":"LA","lat":30.5159,"long":-91.0804},{"zip":"70714","city":"Baker","state":"LA","lat":30.5814,"long":-91.1429},{"zip":"70739","city":"Greenwell Springs","state":"LA","lat":30.5984,"long":-90.9705},{"zip":"70770","city":"Pride","state":"LA","lat":30.6133,"long":-90.9943},{"zip":"70791","city":"Zachary","state":"LA","lat":30.6561,"long":-91.1358},{"zip":"70801","city":"Baton Rouge","state":"LA","lat":30.4492,"long":-91.1856},{"zip":"70802","city":"Baton Rouge","state":"LA","lat":30.4438,"long":-91.1775},{"zip":"70803","city":"Baton Rouge","state":"LA","lat":30.405,"long":-91.1868},{"zip":"70804","city":"Baton Rouge","state":"LA","lat":30.3863,"long":-91.1339},{"zip":"70805","city":"Baton Rouge","state":"LA","lat":30.486,"long":-91.1481},{"zip":"70806","city":"Baton Rouge","state":"LA","lat":30.4485,"long":-91.13},{"zip":"70807","city":"Baton Rouge","state":"LA","lat":30.5768,"long":-91.2246},{"zip":"70808","city":"Baton Rouge","state":"LA","lat":30.4066,"long":-91.1468},{"zip":"70809","city":"Baton Rouge","state":"LA","lat":30.4089,"long":-91.0842},{"zip":"70810","city":"Baton Rouge","state":"LA","lat":30.3633,"long":-91.0919},{"zip":"70811","city":"Baton Rouge","state":"LA","lat":30.5317,"long":-91.1167},{"zip":"70812","city":"Baton Rouge","state":"LA","lat":30.5052,"long":-91.1181},{"zip":"70813","city":"Baton Rouge","state":"LA","lat":30.5201,"long":-91.1949},{"zip":"70814","city":"Baton Rouge","state":"LA","lat":30.4848,"long":-91.0689},{"zip":"70815","city":"Baton Rouge","state":"LA","lat":30.4558,"long":-91.0596},{"zip":"70816","city":"Baton Rouge","state":"LA","lat":30.4273,"long":-91.0356},{"zip":"70817","city":"Baton Rouge","state":"LA","lat":30.3904,"long":-91.0021},{"zip":"70818","city":"Baton Rouge","state":"LA","lat":30.5408,"long":-91.05},{"zip":"70819","city":"Baton Rouge","state":"LA","lat":30.4668,"long":-91.0156},{"zip":"70820","city":"Baton Rouge","state":"LA","lat":30.3795,"long":-91.1671},{"zip":"70821","city":"Baton Rouge","state":"LA","lat":30.4613,"long":-91.0447},{"zip":"70822","city":"Baton Rouge","state":"LA","lat":30.5159,"long":-91.0804},{"zip":"70823","city":"Baton Rouge","state":"LA","lat":30.5159,"long":-91.0804},{"zip":"70825","city":"Baton Rouge","state":"LA","lat":30.5159,"long":-91.0804},{"zip":"70826","city":"Baton Rouge","state":"LA","lat":30.5159,"long":-91.0804},{"zip":"70827","city":"Baton Rouge","state":"LA","lat":30.4338,"long":-91.0825},{"zip":"70831","city":"Baton Rouge","state":"LA","lat":30.5159,"long":-91.0804},{"zip":"70833","city":"Baton Rouge","state":"LA","lat":30.5159,"long":-91.0804},{"zip":"70835","city":"Baton Rouge","state":"LA","lat":30.5159,"long":-91.0804},{"zip":"70836","city":"Baton Rouge","state":"LA","lat":30.392,"long":-91.0892},{"zip":"70837","city":"Baton Rouge","state":"LA","lat":30.5159,"long":-91.0804},{"zip":"70873","city":"Baton Rouge","state":"LA","lat":30.5305,"long":-91.1163},{"zip":"70874","city":"Baton Rouge","state":"LA","lat":30.5902,"long":-91.2054},{"zip":"70879","city":"Baton Rouge","state":"LA","lat":30.5159,"long":-91.0804},{"zip":"70884","city":"Baton Rouge","state":"LA","lat":30.5159,"long":-91.0804},{"zip":"70891","city":"Baton Rouge","state":"LA","lat":30.4492,"long":-91.1547},{"zip":"70892","city":"Baton Rouge","state":"LA","lat":30.4507,"long":-91.1546},{"zip":"70893","city":"Baton Rouge","state":"LA","lat":30.413,"long":-91.1715},{"zip":"70894","city":"Baton Rouge","state":"LA","lat":30.5159,"long":-91.0804},{"zip":"70895","city":"Baton Rouge","state":"LA","lat":30.5159,"long":-91.0804},{"zip":"70896","city":"Baton Rouge","state":"LA","lat":30.5159,"long":-91.0804},{"zip":"70898","city":"Baton Rouge","state":"LA","lat":30.5159,"long":-91.0804},{"zip":"70722","city":"Clinton","state":"LA","lat":30.8249,"long":-90.9331},{"zip":"70730","city":"Ethel","state":"LA","lat":30.8131,"long":-91.11},{"zip":"70748","city":"Jackson","state":"LA","lat":30.8087,"long":-91.1987},{"zip":"70761","city":"Norwood","state":"LA","lat":30.9518,"long":-91.0629},{"zip":"70777","city":"Slaughter","state":"LA","lat":30.7383,"long":-91.07},{"zip":"70789","city":"Wilson","state":"LA","lat":30.9473,"long":-91.0655},{"zip":"70515","city":"Basile","state":"LA","lat":30.4978,"long":-92.5736},{"zip":"70524","city":"Chataignier","state":"LA","lat":30.5709,"long":-92.3202},{"zip":"70554","city":"Mamou","state":"LA","lat":30.6496,"long":-92.4196},{"zip":"70576","city":"Pine Prairie","state":"LA","lat":30.7831,"long":-92.4163},{"zip":"70580","city":"Reddell","state":"LA","lat":30.675,"long":-92.4265},{"zip":"70585","city":"Turkey Creek","state":"LA","lat":30.8707,"long":-92.404},{"zip":"70586","city":"Ville Platte","state":"LA","lat":30.6924,"long":-92.2737},{"zip":"70513","city":"Avery Island","state":"LA","lat":29.8981,"long":-91.9062},{"zip":"70544","city":"Jeanerette","state":"LA","lat":29.9032,"long":-91.6544},{"zip":"70552","city":"Loreauville","state":"LA","lat":30.0683,"long":-91.6596},{"zip":"70560","city":"New Iberia","state":"LA","lat":30.001,"long":-91.82},{"zip":"70562","city":"New Iberia","state":"LA","lat":30.0035,"long":-91.8187},{"zip":"70563","city":"New Iberia","state":"LA","lat":30.0245,"long":-91.7496},{"zip":"70569","city":"Lydia","state":"LA","lat":29.9239,"long":-91.7831},{"zip":"70721","city":"Carville","state":"LA","lat":30.2184,"long":-91.0925},{"zip":"70740","city":"Grosse Tete","state":"LA","lat":30.3879,"long":-91.4383},{"zip":"70757","city":"Maringouin","state":"LA","lat":30.4626,"long":-91.5099},{"zip":"70764","city":"Plaquemine","state":"LA","lat":30.2684,"long":-91.2524},{"zip":"70765","city":"Plaquemine","state":"LA","lat":30.2891,"long":-91.2343},{"zip":"70772","city":"Rosedale","state":"LA","lat":30.4408,"long":-91.4562},{"zip":"70776","city":"Saint Gabriel","state":"LA","lat":30.2528,"long":-91.0857},{"zip":"70780","city":"Sunshine","state":"LA","lat":30.2982,"long":-91.1799},{"zip":"70788","city":"White Castle","state":"LA","lat":30.1545,"long":-91.1773},{"zip":"70001","city":"Metairie","state":"LA","lat":29.9871,"long":-90.1695},{"zip":"70002","city":"Metairie","state":"LA","lat":30.0098,"long":-90.163},{"zip":"70003","city":"Metairie","state":"LA","lat":29.9975,"long":-90.2146},{"zip":"70004","city":"Metairie","state":"LA","lat":29.9841,"long":-90.1529},{"zip":"70005","city":"Metairie","state":"LA","lat":30.0005,"long":-90.1331},{"zip":"70006","city":"Metairie","state":"LA","lat":30.0129,"long":-90.1915},{"zip":"70009","city":"Metairie","state":"LA","lat":29.9841,"long":-90.1529},{"zip":"70010","city":"Metairie","state":"LA","lat":29.9841,"long":-90.1529},{"zip":"70011","city":"Metairie","state":"LA","lat":29.9841,"long":-90.1529},{"zip":"70033","city":"Metairie","state":"LA","lat":29.9841,"long":-90.1529},{"zip":"70036","city":"Barataria","state":"LA","lat":29.6964,"long":-90.1122},{"zip":"70053","city":"Gretna","state":"LA","lat":29.9108,"long":-90.0531},{"zip":"70054","city":"Gretna","state":"LA","lat":29.9146,"long":-90.054},{"zip":"70055","city":"Metairie","state":"LA","lat":29.9841,"long":-90.1529},{"zip":"70056","city":"Gretna","state":"LA","lat":29.8872,"long":-90.0331},{"zip":"70058","city":"Harvey","state":"LA","lat":29.8725,"long":-90.0673},{"zip":"70059","city":"Harvey","state":"LA","lat":29.9035,"long":-90.0773},{"zip":"70060","city":"Metairie","state":"LA","lat":29.9841,"long":-90.1529},{"zip":"70062","city":"Kenner","state":"LA","lat":29.9912,"long":-90.2479},{"zip":"70063","city":"Kenner","state":"LA","lat":29.9941,"long":-90.2417},{"zip":"70064","city":"Kenner","state":"LA","lat":29.9941,"long":-90.2417},{"zip":"70065","city":"Kenner","state":"LA","lat":30.0252,"long":-90.2522},{"zip":"70067","city":"Lafitte","state":"LA","lat":29.7143,"long":-90.1052},{"zip":"70072","city":"Marrero","state":"LA","lat":29.8598,"long":-90.1105},{"zip":"70073","city":"Marrero","state":"LA","lat":29.8994,"long":-90.1004},{"zip":"70094","city":"Westwego","state":"LA","lat":29.8973,"long":-90.2033},{"zip":"70096","city":"Westwego","state":"LA","lat":29.906,"long":-90.1423},{"zip":"70097","city":"Kenner","state":"LA","lat":29.9565,"long":-90.2635},{"zip":"70121","city":"New Orleans","state":"LA","lat":29.9614,"long":-90.1577},{"zip":"70123","city":"New Orleans","state":"LA","lat":29.9511,"long":-90.206},{"zip":"70141","city":"New Orleans","state":"LA","lat":29.9546,"long":-90.0751},{"zip":"70181","city":"New Orleans","state":"LA","lat":29.6779,"long":-90.0901},{"zip":"70183","city":"New Orleans","state":"LA","lat":29.9546,"long":-90.0751},{"zip":"70358","city":"Grand Isle","state":"LA","lat":29.2297,"long":-90.0088},{"zip":"70532","city":"Elton","state":"LA","lat":30.4715,"long":-92.6996},{"zip":"70546","city":"Jennings","state":"LA","lat":30.2201,"long":-92.6574},{"zip":"70549","city":"Lake Arthur","state":"LA","lat":30.091,"long":-92.6825},{"zip":"70581","city":"Roanoke","state":"LA","lat":30.2464,"long":-92.7421},{"zip":"70591","city":"Welsh","state":"LA","lat":30.2363,"long":-92.819},{"zip":"70640","city":"Fenton","state":"LA","lat":30.3655,"long":-92.9122},{"zip":"70650","city":"Lacassine","state":"LA","lat":30.2374,"long":-92.9232},{"zip":"70501","city":"Lafayette","state":"LA","lat":30.2361,"long":-92.0083},{"zip":"70502","city":"Lafayette","state":"LA","lat":30.2241,"long":-92.0198},{"zip":"70503","city":"Lafayette","state":"LA","lat":30.1843,"long":-92.0497},{"zip":"70504","city":"Lafayette","state":"LA","lat":30.2139,"long":-92.0187},{"zip":"70505","city":"Lafayette","state":"LA","lat":30.2023,"long":-92.0188},{"zip":"70506","city":"Lafayette","state":"LA","lat":30.2077,"long":-92.0656},{"zip":"70507","city":"Lafayette","state":"LA","lat":30.2813,"long":-92.016},{"zip":"70508","city":"Lafayette","state":"LA","lat":30.1582,"long":-92.0236},{"zip":"70509","city":"Lafayette","state":"LA","lat":30.1565,"long":-92},{"zip":"70518","city":"Broussard","state":"LA","lat":30.1219,"long":-91.9502},{"zip":"70520","city":"Carencro","state":"LA","lat":30.3244,"long":-92.0423},{"zip":"70529","city":"Duson","state":"LA","lat":30.1912,"long":-92.1525},{"zip":"70558","city":"Milton","state":"LA","lat":30.1038,"long":-92.0765},{"zip":"70583","city":"Scott","state":"LA","lat":30.2504,"long":-92.0981},{"zip":"70592","city":"Youngsville","state":"LA","lat":30.0975,"long":-92.0096},{"zip":"70593","city":"Lafayette","state":"LA","lat":30.2081,"long":-92.0951},{"zip":"70596","city":"Lafayette","state":"LA","lat":30.2241,"long":-92.0198},{"zip":"70598","city":"Lafayette","state":"LA","lat":30.2081,"long":-92.0951},{"zip":"70301","city":"Thibodaux","state":"LA","lat":29.7992,"long":-90.8096},{"zip":"70302","city":"Thibodaux","state":"LA","lat":29.7958,"long":-90.8229},{"zip":"70310","city":"Thibodaux","state":"LA","lat":29.8033,"long":-90.8169},{"zip":"70345","city":"Cut Off","state":"LA","lat":29.5232,"long":-90.3393},{"zip":"70354","city":"Galliano","state":"LA","lat":29.4311,"long":-90.2981},{"zip":"70355","city":"Gheens","state":"LA","lat":29.7076,"long":-90.4849},{"zip":"70357","city":"Golden Meadow","state":"LA","lat":29.3821,"long":-90.2639},{"zip":"70371","city":"Kraemer","state":"LA","lat":29.8652,"long":-90.5962},{"zip":"70373","city":"Larose","state":"LA","lat":29.5724,"long":-90.3817},{"zip":"70374","city":"Lockport","state":"LA","lat":29.6155,"long":-90.4442},{"zip":"70375","city":"Mathews","state":"LA","lat":29.6938,"long":-90.5496},{"zip":"70394","city":"Raceland","state":"LA","lat":29.7178,"long":-90.5999},{"zip":"70449","city":"Maurepas","state":"LA","lat":30.2716,"long":-90.7043},{"zip":"70462","city":"Springfield","state":"LA","lat":30.4157,"long":-90.5775},{"zip":"70706","city":"Denham Springs","state":"LA","lat":30.6085,"long":-90.9038},{"zip":"70711","city":"Albany","state":"LA","lat":30.5149,"long":-90.5964},{"zip":"70726","city":"Denham Springs","state":"LA","lat":30.459,"long":-90.9027},{"zip":"70727","city":"Denham Springs","state":"LA","lat":30.3375,"long":-90.8434},{"zip":"70733","city":"French Settlement","state":"LA","lat":30.2952,"long":-90.7951},{"zip":"70744","city":"Holden","state":"LA","lat":30.5556,"long":-90.6652},{"zip":"70754","city":"Livingston","state":"LA","lat":30.4741,"long":-90.7673},{"zip":"70785","city":"Walker","state":"LA","lat":30.5247,"long":-90.8557},{"zip":"70786","city":"Watson","state":"LA","lat":30.5502,"long":-90.9582},{"zip":"70112","city":"New Orleans","state":"LA","lat":29.9605,"long":-90.0753},{"zip":"70113","city":"New Orleans","state":"LA","lat":29.9405,"long":-90.0848},{"zip":"70114","city":"New Orleans","state":"LA","lat":29.9379,"long":-90.0331},{"zip":"70115","city":"New Orleans","state":"LA","lat":29.9289,"long":-90.1005},{"zip":"70116","city":"New Orleans","state":"LA","lat":29.9686,"long":-90.0646},{"zip":"70117","city":"New Orleans","state":"LA","lat":29.9703,"long":-90.0312},{"zip":"70118","city":"New Orleans","state":"LA","lat":29.9504,"long":-90.1236},{"zip":"70119","city":"New Orleans","state":"LA","lat":29.9746,"long":-90.0852},{"zip":"70122","city":"New Orleans","state":"LA","lat":30.0056,"long":-90.0644},{"zip":"70124","city":"New Orleans","state":"LA","lat":30.0071,"long":-90.1094},{"zip":"70125","city":"New Orleans","state":"LA","lat":29.9512,"long":-90.1028},{"zip":"70126","city":"New Orleans","state":"LA","lat":29.9987,"long":-90.0446},{"zip":"70127","city":"New Orleans","state":"LA","lat":30.0313,"long":-89.9758},{"zip":"70128","city":"New Orleans","state":"LA","lat":30.0487,"long":-89.9585},{"zip":"70129","city":"New Orleans","state":"LA","lat":30.0877,"long":-89.8462},{"zip":"70130","city":"New Orleans","state":"LA","lat":29.9324,"long":-90.0739},{"zip":"70131","city":"New Orleans","state":"LA","lat":29.9168,"long":-89.996},{"zip":"70139","city":"New Orleans","state":"LA","lat":30.033,"long":-89.8826},{"zip":"70142","city":"New Orleans","state":"LA","lat":29.9546,"long":-90.0751},{"zip":"70143","city":"New Orleans","state":"LA","lat":29.9546,"long":-90.0751},{"zip":"70145","city":"New Orleans","state":"LA","lat":29.9546,"long":-90.0751},{"zip":"70146","city":"New Orleans","state":"LA","lat":29.9546,"long":-90.0751},{"zip":"70148","city":"New Orleans","state":"LA","lat":30.0309,"long":-90.068},{"zip":"70150","city":"New Orleans","state":"LA","lat":29.9546,"long":-90.0751},{"zip":"70151","city":"New Orleans","state":"LA","lat":29.9546,"long":-90.0751},{"zip":"70152","city":"New Orleans","state":"LA","lat":29.9546,"long":-90.0751},{"zip":"70153","city":"New Orleans","state":"LA","lat":29.9546,"long":-90.0751},{"zip":"70154","city":"New Orleans","state":"LA","lat":29.9546,"long":-90.0751},{"zip":"70156","city":"New Orleans","state":"LA","lat":29.9546,"long":-90.0751},{"zip":"70157","city":"New Orleans","state":"LA","lat":29.9546,"long":-90.0751},{"zip":"70158","city":"New Orleans","state":"LA","lat":29.9229,"long":-90.0709},{"zip":"70159","city":"New Orleans","state":"LA","lat":29.9546,"long":-90.0751},{"zip":"70160","city":"New Orleans","state":"LA","lat":29.9546,"long":-90.0751},{"zip":"70161","city":"New Orleans","state":"LA","lat":29.9546,"long":-90.0751},{"zip":"70162","city":"New Orleans","state":"LA","lat":29.9546,"long":-90.0751},{"zip":"70163","city":"New Orleans","state":"LA","lat":29.95,"long":-90.0755},{"zip":"70164","city":"New Orleans","state":"LA","lat":29.9546,"long":-90.0751},{"zip":"70165","city":"New Orleans","state":"LA","lat":29.9546,"long":-90.0751},{"zip":"70166","city":"New Orleans","state":"LA","lat":29.9546,"long":-90.0751},{"zip":"70167","city":"New Orleans","state":"LA","lat":29.9546,"long":-90.0751},{"zip":"70170","city":"New Orleans","state":"LA","lat":29.9546,"long":-90.0751},{"zip":"70172","city":"New Orleans","state":"LA","lat":29.9546,"long":-90.0751},{"zip":"70174","city":"New Orleans","state":"LA","lat":29.9546,"long":-90.0751},{"zip":"70175","city":"New Orleans","state":"LA","lat":29.9546,"long":-90.0751},{"zip":"70176","city":"New Orleans","state":"LA","lat":29.9546,"long":-90.0751},{"zip":"70177","city":"New Orleans","state":"LA","lat":29.9546,"long":-90.0751},{"zip":"70178","city":"New Orleans","state":"LA","lat":29.9546,"long":-90.0751},{"zip":"70179","city":"New Orleans","state":"LA","lat":29.9546,"long":-90.0751},{"zip":"70182","city":"New Orleans","state":"LA","lat":29.9546,"long":-90.0751},{"zip":"70184","city":"New Orleans","state":"LA","lat":29.9546,"long":-90.0751},{"zip":"70185","city":"New Orleans","state":"LA","lat":29.9546,"long":-90.0751},{"zip":"70186","city":"New Orleans","state":"LA","lat":29.9546,"long":-90.0751},{"zip":"70187","city":"New Orleans","state":"LA","lat":29.9546,"long":-90.0751},{"zip":"70189","city":"New Orleans","state":"LA","lat":29.9546,"long":-90.0751},{"zip":"70190","city":"New Orleans","state":"LA","lat":29.9546,"long":-90.0751},{"zip":"70195","city":"New Orleans","state":"LA","lat":29.9546,"long":-90.0751},{"zip":"70037","city":"Belle Chasse","state":"LA","lat":29.8345,"long":-90.0042},{"zip":"70038","city":"Boothville","state":"LA","lat":29.3079,"long":-89.3814},{"zip":"70040","city":"Braithwaite","state":"LA","lat":29.7361,"long":-89.9197},{"zip":"70041","city":"Buras","state":"LA","lat":29.3519,"long":-89.5242},{"zip":"70050","city":"Empire","state":"LA","lat":29.3814,"long":-89.5926},{"zip":"70081","city":"Pilottown","state":"LA","lat":29.1816,"long":-89.2576},{"zip":"70082","city":"Pointe A La Hache","state":"LA","lat":29.542,"long":-89.7512},{"zip":"70083","city":"Port Sulphur","state":"LA","lat":29.47,"long":-89.6847},{"zip":"70091","city":"Venice","state":"LA","lat":29.2659,"long":-89.3761},{"zip":"70093","city":"Belle Chasse","state":"LA","lat":29.8549,"long":-89.9906},{"zip":"70715","city":"Batchelor","state":"LA","lat":30.8298,"long":-91.6944},{"zip":"70732","city":"Fordoche","state":"LA","lat":30.596,"long":-91.6165},{"zip":"70736","city":"Glynn","state":"LA","lat":30.6376,"long":-91.3423},{"zip":"70747","city":"Innis","state":"LA","lat":30.8736,"long":-91.6766},{"zip":"70749","city":"Jarreau","state":"LA","lat":30.6326,"long":-91.4332},{"zip":"70752","city":"Lakeland","state":"LA","lat":30.5799,"long":-91.4217},{"zip":"70753","city":"Lettsworth","state":"LA","lat":30.9324,"long":-91.7403},{"zip":"70755","city":"Livonia","state":"LA","lat":30.5524,"long":-91.5332},{"zip":"70756","city":"Lottie","state":"LA","lat":30.5563,"long":-91.6418},{"zip":"70759","city":"Morganza","state":"LA","lat":30.7245,"long":-91.5959},{"zip":"70760","city":"New Roads","state":"LA","lat":30.7014,"long":-91.4421},{"zip":"70762","city":"Oscar","state":"LA","lat":30.5983,"long":-91.4577},{"zip":"70773","city":"Rougon","state":"LA","lat":30.6035,"long":-91.3813},{"zip":"70783","city":"Ventress","state":"LA","lat":30.6814,"long":-91.4033},{"zip":"70032","city":"Arabi","state":"LA","lat":29.9612,"long":-89.9965},{"zip":"70043","city":"Chalmette","state":"LA","lat":29.9466,"long":-89.9611},{"zip":"70044","city":"Chalmette","state":"LA","lat":29.9676,"long":-89.9514},{"zip":"70075","city":"Meraux","state":"LA","lat":29.9335,"long":-89.9214},{"zip":"70085","city":"Saint Bernard","state":"LA","lat":29.8611,"long":-89.8364},{"zip":"70092","city":"Violet","state":"LA","lat":29.9043,"long":-89.896},{"zip":"70030","city":"Des Allemands","state":"LA","lat":29.8134,"long":-90.4407},{"zip":"70031","city":"Ama","state":"LA","lat":29.9435,"long":-90.2925},{"zip":"70039","city":"Boutte","state":"LA","lat":29.8973,"long":-90.3934},{"zip":"70047","city":"Destrehan","state":"LA","lat":29.9642,"long":-90.3682},{"zip":"70057","city":"Hahnville","state":"LA","lat":29.9668,"long":-90.4082},{"zip":"70070","city":"Luling","state":"LA","lat":29.9251,"long":-90.3693},{"zip":"70078","city":"New Sarpy","state":"LA","lat":29.9817,"long":-90.3859},{"zip":"70079","city":"Norco","state":"LA","lat":30.0057,"long":-90.4198},{"zip":"70080","city":"Paradis","state":"LA","lat":29.877,"long":-90.4352},{"zip":"70087","city":"Saint Rose","state":"LA","lat":29.9581,"long":-90.3124},{"zip":"70441","city":"Greensburg","state":"LA","lat":30.8647,"long":-90.7256},{"zip":"70453","city":"Pine Grove","state":"LA","lat":30.7032,"long":-90.7672},{"zip":"70052","city":"Gramercy","state":"LA","lat":30.0527,"long":-90.6902},{"zip":"70071","city":"Lutcher","state":"LA","lat":30.0447,"long":-90.7008},{"zip":"70086","city":"Saint James","state":"LA","lat":30.0276,"long":-90.8605},{"zip":"70090","city":"Vacherie","state":"LA","lat":29.9694,"long":-90.7097},{"zip":"70723","city":"Convent","state":"LA","lat":30.0208,"long":-90.8298},{"zip":"70743","city":"Hester","state":"LA","lat":30.0206,"long":-90.7814},{"zip":"70763","city":"Paulina","state":"LA","lat":30.0352,"long":-90.7374},{"zip":"70792","city":"Uncle Sam","state":"LA","lat":30.0279,"long":-90.8028},{"zip":"70049","city":"Edgard","state":"LA","lat":30.0319,"long":-90.5817},{"zip":"70051","city":"Garyville","state":"LA","lat":30.0535,"long":-90.6201},{"zip":"70068","city":"La Place","state":"LA","lat":30.0777,"long":-90.4895},{"zip":"70069","city":"La Place","state":"LA","lat":30.0912,"long":-90.4832},{"zip":"70076","city":"Mount Airy","state":"LA","lat":30.0575,"long":-90.6369},{"zip":"70084","city":"Reserve","state":"LA","lat":30.0603,"long":-90.5518},{"zip":"70512","city":"Arnaudville","state":"LA","lat":30.3981,"long":-91.9263},{"zip":"70535","city":"Eunice","state":"LA","lat":30.5116,"long":-92.3985},{"zip":"70541","city":"Grand Coteau","state":"LA","lat":30.4201,"long":-92.0462},{"zip":"70550","city":"Lawtell","state":"LA","lat":30.5165,"long":-92.1841},{"zip":"70551","city":"Leonville","state":"LA","lat":30.4752,"long":-91.9737},{"zip":"70570","city":"Opelousas","state":"LA","lat":30.5144,"long":-92.0897},{"zip":"70571","city":"Opelousas","state":"LA","lat":30.5335,"long":-92.0815},{"zip":"70577","city":"Port Barre","state":"LA","lat":30.5478,"long":-91.9286},{"zip":"70584","city":"Sunset","state":"LA","lat":30.3884,"long":-92.0934},{"zip":"70589","city":"Washington","state":"LA","lat":30.6839,"long":-92.0252},{"zip":"70750","city":"Krotz Springs","state":"LA","lat":30.5379,"long":-91.7563},{"zip":"70517","city":"Breaux Bridge","state":"LA","lat":30.2948,"long":-91.8296},{"zip":"70519","city":"Cade","state":"LA","lat":30.0797,"long":-91.9114},{"zip":"70521","city":"Cecilia","state":"LA","lat":30.3364,"long":-91.8492},{"zip":"70582","city":"Saint Martinville","state":"LA","lat":30.2237,"long":-91.7794},{"zip":"70340","city":"Amelia","state":"LA","lat":29.6884,"long":-91.2208},{"zip":"70342","city":"Berwick","state":"LA","lat":29.6929,"long":-91.2518},{"zip":"70380","city":"Morgan City","state":"LA","lat":29.6977,"long":-91.2654},{"zip":"70381","city":"Morgan City","state":"LA","lat":29.6946,"long":-91.2593},{"zip":"70392","city":"Patterson","state":"LA","lat":29.6967,"long":-91.2812},{"zip":"70514","city":"Baldwin","state":"LA","lat":29.8488,"long":-91.5458},{"zip":"70522","city":"Centerville","state":"LA","lat":29.7523,"long":-91.4397},{"zip":"70523","city":"Charenton","state":"LA","lat":29.8796,"long":-91.5337},{"zip":"70538","city":"Franklin","state":"LA","lat":29.7857,"long":-91.5026},{"zip":"70540","city":"Garden City","state":"LA","lat":29.7633,"long":-91.467},{"zip":"70420","city":"Abita Springs","state":"LA","lat":30.4837,"long":-90.0041},{"zip":"70431","city":"Bush","state":"LA","lat":30.6134,"long":-89.9557},{"zip":"70433","city":"Covington","state":"LA","lat":30.4876,"long":-90.0959},{"zip":"70434","city":"Covington","state":"LA","lat":30.4755,"long":-90.1004},{"zip":"70435","city":"Covington","state":"LA","lat":30.5661,"long":-90.1098},{"zip":"70437","city":"Folsom","state":"LA","lat":30.6145,"long":-90.1879},{"zip":"70445","city":"Lacombe","state":"LA","lat":30.322,"long":-89.9297},{"zip":"70447","city":"Madisonville","state":"LA","lat":30.4287,"long":-90.1773},{"zip":"70448","city":"Mandeville","state":"LA","lat":30.3666,"long":-90.0487},{"zip":"70452","city":"Pearl River","state":"LA","lat":30.3944,"long":-89.7732},{"zip":"70457","city":"Saint Benedict","state":"LA","lat":30.5269,"long":-90.1126},{"zip":"70458","city":"Slidell","state":"LA","lat":30.2784,"long":-89.7712},{"zip":"70459","city":"Slidell","state":"LA","lat":30.4255,"long":-89.8813},{"zip":"70460","city":"Slidell","state":"LA","lat":30.2916,"long":-89.8129},{"zip":"70461","city":"Slidell","state":"LA","lat":30.2726,"long":-89.729},{"zip":"70463","city":"Sun","state":"LA","lat":30.6571,"long":-89.9079},{"zip":"70464","city":"Talisheek","state":"LA","lat":30.5347,"long":-89.8859},{"zip":"70469","city":"Slidell","state":"LA","lat":30.2752,"long":-89.7812},{"zip":"70470","city":"Mandeville","state":"LA","lat":30.4255,"long":-89.8813},{"zip":"70471","city":"Mandeville","state":"LA","lat":30.4207,"long":-90.0589},{"zip":"70401","city":"Hammond","state":"LA","lat":30.5191,"long":-90.4879},{"zip":"70402","city":"Hammond","state":"LA","lat":30.514,"long":-90.4804},{"zip":"70403","city":"Hammond","state":"LA","lat":30.4911,"long":-90.4697},{"zip":"70404","city":"Hammond","state":"LA","lat":30.5046,"long":-90.4629},{"zip":"70421","city":"Akers","state":"LA","lat":30.2902,"long":-90.4018},{"zip":"70422","city":"Amite","state":"LA","lat":30.7266,"long":-90.509},{"zip":"70436","city":"Fluker","state":"LA","lat":30.8128,"long":-90.5207},{"zip":"70442","city":"Husser","state":"LA","lat":30.692,"long":-90.339},{"zip":"70443","city":"Independence","state":"LA","lat":30.6351,"long":-90.5277},{"zip":"70444","city":"Kentwood","state":"LA","lat":30.8892,"long":-90.4728},{"zip":"70446","city":"Loranger","state":"LA","lat":30.5884,"long":-90.3567},{"zip":"70451","city":"Natalbany","state":"LA","lat":30.5519,"long":-90.4859},{"zip":"70454","city":"Ponchatoula","state":"LA","lat":30.4406,"long":-90.4422},{"zip":"70455","city":"Robert","state":"LA","lat":30.5063,"long":-90.3352},{"zip":"70456","city":"Roseland","state":"LA","lat":30.7717,"long":-90.5243},{"zip":"70465","city":"Tangipahoa","state":"LA","lat":30.8764,"long":-90.5089},{"zip":"70466","city":"Tickfaw","state":"LA","lat":30.5668,"long":-90.482},{"zip":"70343","city":"Bourg","state":"LA","lat":29.5485,"long":-90.6087},{"zip":"70344","city":"Chauvin","state":"LA","lat":29.4634,"long":-90.598},{"zip":"70352","city":"Donner","state":"LA","lat":29.6964,"long":-90.9444},{"zip":"70353","city":"Dulac","state":"LA","lat":29.3695,"long":-90.697},{"zip":"70356","city":"Gibson","state":"LA","lat":29.6625,"long":-90.9776},{"zip":"70359","city":"Gray","state":"LA","lat":29.6903,"long":-90.7807},{"zip":"70360","city":"Houma","state":"LA","lat":29.5943,"long":-90.7548},{"zip":"70361","city":"Houma","state":"LA","lat":29.5958,"long":-90.7195},{"zip":"70363","city":"Houma","state":"LA","lat":29.5601,"long":-90.6917},{"zip":"70364","city":"Houma","state":"LA","lat":29.6299,"long":-90.7268},{"zip":"70377","city":"Montegut","state":"LA","lat":29.4744,"long":-90.544},{"zip":"70395","city":"Schriever","state":"LA","lat":29.7123,"long":-90.8513},{"zip":"70397","city":"Theriot","state":"LA","lat":29.4516,"long":-90.7651},{"zip":"70510","city":"Abbeville","state":"LA","lat":29.9466,"long":-92.2416},{"zip":"70511","city":"Abbeville","state":"LA","lat":29.9747,"long":-92.1343},{"zip":"70528","city":"Delcambre","state":"LA","lat":29.9474,"long":-91.9889},{"zip":"70533","city":"Erath","state":"LA","lat":29.9522,"long":-92.0343},{"zip":"70542","city":"Gueydan","state":"LA","lat":30.0255,"long":-92.5338},{"zip":"70548","city":"Kaplan","state":"LA","lat":29.9771,"long":-92.3025},{"zip":"70555","city":"Maurice","state":"LA","lat":30.0722,"long":-92.107},{"zip":"70575","city":"Perry","state":"LA","lat":29.9485,"long":-92.1571},{"zip":"70639","city":"Evans","state":"LA","lat":30.9684,"long":-93.5203},{"zip":"70656","city":"Pitkin","state":"LA","lat":30.933,"long":-92.9548},{"zip":"70659","city":"Rosepine","state":"LA","lat":30.9243,"long":-93.2749},{"zip":"70426","city":"Angie","state":"LA","lat":30.9224,"long":-89.8567},{"zip":"70427","city":"Bogalusa","state":"LA","lat":30.7733,"long":-89.8653},{"zip":"70429","city":"Bogalusa","state":"LA","lat":30.791,"long":-89.8487},{"zip":"70438","city":"Franklinton","state":"LA","lat":30.8577,"long":-90.1155},{"zip":"70450","city":"Mount Hermon","state":"LA","lat":30.9536,"long":-90.2769},{"zip":"70467","city":"Varnado","state":"LA","lat":30.8938,"long":-89.8295},{"zip":"70710","city":"Addis","state":"LA","lat":30.3557,"long":-91.2613},{"zip":"70719","city":"Brusly","state":"LA","lat":30.3877,"long":-91.2526},{"zip":"70729","city":"Erwinville","state":"LA","lat":30.548,"long":-91.4187},{"zip":"70767","city":"Port Allen","state":"LA","lat":30.472,"long":-91.2541},{"zip":"70712","city":"Angola","state":"LA","lat":30.9656,"long":-91.5979},{"zip":"70775","city":"Saint Francisville","state":"LA","lat":30.8694,"long":-91.4186},{"zip":"70782","city":"Tunica","state":"LA","lat":30.9601,"long":-91.5396},{"zip":"70784","city":"Wakefield","state":"LA","lat":30.9175,"long":-91.3581},{"zip":"70787","city":"Weyanoke","state":"LA","lat":30.9362,"long":-91.4562}]
