[{"zip":"70001","city":"Metairie","state":"LA","lat":29.9871,"long":-90.1695},{"zip":"70002","city":"Metairie","state":"LA","lat":30.0098,"long":-90.163},{"zip":"70003","city":"Metairie","state":"LA","lat":29.9975,"long":-90.2146},{"zip":"70004","city":"Metairie","state":"LA","lat":29.9841,"long":-90.1529},{"zip":"70005","city":"Metairie","state":"LA","lat":30.0005,"long":-90.1331},{"zip":"70006","city":"Metairie","state":"LA","lat":30.0129,"long":-90.1915},{"zip":"70009","city":"Metairie","state":"LA","lat":29.9841,"long":-90.1529},{"zip":"70010","city":"Metairie","state":"LA","lat":29.9841,"long":-90.1529},{"zip":"70011","city":"Metairie","state":"LA","lat":29.9841,"long":-90.1529},{"zip":"70033","city":"Metairie","state":"LA","lat":29.9841,"long":-90.1529},{"zip":"70036","city":"Barataria","state":"LA","lat":29.6964,"long":-90.1122},{"zip":"70053","city":"Gretna","state":"LA","lat":29.9108,"long":-90.0531},{"zip":"70054","city":"Gretna","state":"LA","lat":29.9146,"long":-90.054},{"zip":"70055","city":"Metairie","state":"LA","lat":29.9841,"long":-90.1529},{"zip":"70056","city":"Gretna","state":"LA","lat":29.8872,"long":-90.0331},{"zip":"70058","city":"Harvey","state":"LA","lat":29.8725,"long":-90.0673},{"zip":"70059","city":"Harvey","state":"LA","lat":29.9035,"long":-90.0773},{"zip":"70060","city":"Metairie","state":"LA","lat":29.9841,"long":-90.1529},{"zip":"70062","city":"Kenner","state":"LA","lat":29.9912,"long":-90.2479},{"zip":"70063","city":"Kenner","state":"LA","lat":29.9941,"long":-90.2417},{"zip":"70064","city":"Kenner","state":"LA","lat":29.9941,"long":-90.2417},{"zip":"70065","city":"Kenner","state":"LA","lat":30.0252,"long":-90.2522},{"zip":"70067","city":"Lafitte","state":"LA","lat":29.7143,"long":-90.1052},{"zip":"70072","city":"Marrero","state":"LA","lat":29.8598,"long":-90.1105},{"zip":"70073","city":"Marrero","state":"LA","lat":29.8994,"long":-90.1004},{"zip":"70094","city":"Westwego","state":"LA","lat":29.8973,"long":-90.2033},{"zip":"70096","city":"Westwego","state":"LA","lat":29.906,"long":-90.1423},{"zip":"70097","city":"Kenner","state":"LA","lat":29.9565,"long":-90.2635},{"zip":"70037","city":"Belle Chasse","state":"LA","lat":29.8345,"long":-90.0042},{"zip":"70038","city":"Boothville","state":"LA","lat":29.3079,"long":-89.3814},{"zip":"70040","city":"Braithwaite","state":"LA","lat":29.7361,"long":-89.9197},{"zip":"70041","city":"Buras","state":"LA","lat":29.3519,"long":-89.5242},{"zip":"70050","city":"Empire","state":"LA","lat":29.3814,"long":-89.5926},{"zip":"70081","city":"Pilottown","state":"LA","lat":29.1816,"long":-89.2576},{"zip":"70082","city":"Pointe A La Hache","state":"LA","lat":29.542,"long":-89.7512},{"zip":"70083","city":"Port Sulphur","state":"LA","lat":29.47,"long":-89.6847},{"zip":"70091","city":"Venice","state":"LA","lat":29.2659,"long":-89.3761},{"zip":"70093","city":"Belle Chasse","state":"LA","lat":29.8549,"long":-89.9906},{"zip":"70032","city":"Arabi","state":"LA","lat":29.9612,"long":-89.9965},{"zip":"70043","city":"Chalmette","state":"LA","lat":29.9466,"long":-89.9611},{"zip":"70044","city":"Chalmette","state":"LA","lat":29.9676,"long":-89.9514},{"zip":"70075","city":"Meraux","state":"LA","lat":29.9335,"long":-89.9214},{"zip":"70085","city":"Saint Bernard","state":"LA","lat":29.8611,"long":-89.8364},{"zip":"70092","city":"Violet","state":"LA","lat":29.9043,"long":-89.896},{"zip":"70030","city":"Des Allemands","state":"LA","lat":29.8134,"long":-90.4407},{"zip":"70031","city":"Ama","state":"LA","lat":29.9435,"long":-90.2925},{"zip":"70039","city":"Boutte","state":"LA","lat":29.8973,"long":-90.3934},{"zip":"70047","city":"Destrehan","state":"LA","lat":29.9642,"long":-90.3682},{"zip":"70057","city":"Hahnville","state":"LA","lat":29.9668,"long":-90.4082},{"zip":"70070","city":"Luling","state":"LA","lat":29.9251,"long":-90.3693},{"zip":"70078","city":"New Sarpy","state":"LA","lat":29.9817,"long":-90.3859},{"zip":"70079","city":"Norco","state":"LA","lat":30.0057,"long":-90.4198},{"zip":"70080","city":"Paradis","state":"LA","lat":29.877,"long":-90.4352},{"zip":"70087","city":"Saint Rose","state":"LA","lat":29.9581,"long":-90.3124},{"zip":"70052","city":"Gramercy","state":"LA","lat":30.0527,"long":-90.6902},{"zip":"70071","city":"Lutcher","state":"LA","lat":30.0447,"long":-90.7008},{"zip":"70086","city":"Saint James","state":"LA","lat":30.0276,"long":-90.8605},{"zip":"70090","city":"Vacherie","state":"LA","lat":29.9694,"long":-90.7097},{"zip":"70049","city":"Edgard","state":"LA","lat":30.0319,"long":-90.5817},{"zip":"70051","city":"Garyville","state":"LA","lat":30.0535,"long":-90.6201},{"zip":"70068","city":"La Place","state":"LA","lat":30.0777,"long":-90.4895},{"zip":"70069","city":"La Place","state":"LA","lat":30.0912,"long":-90.4832},{"zip":"70076","city":"Mount Airy","state":"LA","lat":30.0575,"long":-90.6369},{"zip":"70084","city":"Reserve","state":"LA","lat":30.0603,"long":-90.5518}]
