[{"zip":"70121","city":"New Orleans","state":"LA","lat":29.9614,"long":-90.1577},{"zip":"70123","city":"New Orleans","state":"LA","lat":29.9511,"long":-90.206},{"zip":"70141","city":"New Orleans","state":"LA","lat":29.9546,"long":-90.0751},{"zip":"70181","city":"New Orleans","state":"LA","lat":29.6779,"long":-90.0901},{"zip":"70183","city":"New Orleans","state":"LA","lat":29.9546,"long":-90.0751},{"zip":"70112","city":"New Orleans","state":"LA","lat":29.9605,"long":-90.0753},{"zip":"70113","city":"New Orleans","state":"LA","lat":29.9405,"long":-90.0848},{"zip":"70114","city":"New Orleans","state":"LA","lat":29.9379,"long":-90.0331},{"zip":"70115","city":"New Orleans","state":"LA","lat":29.9289,"long":-90.1005},{"zip":"70116","city":"New Orleans","state":"LA","lat":29.9686,"long":-90.0646},{"zip":"70117","city":"New Orleans","state":"LA","lat":29.9703,"long":-90.0312},{"zip":"70118","city":"New Orleans","state":"LA","lat":29.9504,"long":-90.1236},{"zip":"70119","city":"New Orleans","state":"LA","lat":29.9746,"long":-90.0852},{"zip":"70122","city":"New Orleans","state":"LA","lat":30.0056,"long":-90.0644},{"zip":"70124","city":"New Orleans","state":"LA","lat":30.0071,"long":-90.1094},{"zip":"70125","city":"New Orleans","state":"LA","lat":29.9512,"long":-90.1028},{"zip":"70126","city":"New Orleans","state":"LA","lat":29.9987,"long":-90.0446},{"zip":"70127","city":"New Orleans","state":"LA","lat":30.0313,"long":-89.9758},{"zip":"70128","city":"New Orleans","state":"LA","lat":30.0487,"long":-89.9585},{"zip":"70129","city":"New Orleans","state":"LA","lat":30.0877,"long":-89.8462},{"zip":"70130","city":"New Orleans","state":"LA","lat":29.9324,"long":-90.0739},{"zip":"70131","city":"New Orleans","state":"LA","lat":29.9168,"long":-89.996},{"zip":"70139","city":"New Orleans","state":"LA","lat":30.033,"long":-89.8826},{"zip":"70142","city":"New Orleans","state":"LA","lat":29.9546,"long":-90.0751},{"zip":"70143","city":"New Orleans","state":"LA","lat":29.9546,"long":-90.0751},{"zip":"70145","city":"New Orleans","state":"LA","lat":29.9546,"long":-90.0751},{"zip":"70146","city":"New Orleans","state":"LA","lat":29.9546,"long":-90.0751},{"zip":"70148","city":"New Orleans","state":"LA","lat":30.0309,"long":-90.068},{"zip":"70150","city":"New Orleans","state":"LA","lat":29.9546,"long":-90.0751},{"zip":"70151","city":"New Orleans","state":"LA","lat":29.9546,"long":-90.0751},{"zip":"70152","city":"New Orleans","state":"LA","lat":29.9546,"long":-90.0751},{"zip":"70153","city":"New Orleans","state":"LA","lat":29.9546,"long":-90.0751},{"zip":"70154","city":"New Orleans","state":"LA","lat":29.9546,"long":-90.0751},{"zip":"70156","city":"New Orleans","state":"LA","lat":29.9546,"long":-90.0751},{"zip":"70157","city":"New Orleans","state":"LA","lat":29.9546,"long":-90.0751},{"zip":"70158","city":"New Orleans","state":"LA","lat":29.9229,"long":-90.0709},{"zip":"70159","city":"New Orleans","state":"LA","lat":29.9546,"long":-90.0751},{"zip":"70160","city":"New Orleans","state":"LA","lat":29.9546,"long":-90.0751},{"zip":"70161","city":"New Orleans","state":"LA","lat":29.9546,"long":-90.0751},{"zip":"70162","city":"New Orleans","state":"LA","lat":29.9546,"long":-90.0751},{"zip":"70163","city":"New Orleans","state":"LA","lat":29.95,"long":-90.0755},{"zip":"70164","city":"New Orleans","state":"LA","lat":29.9546,"long":-90.0751},{"zip":"70165","city":"New Orleans","state":"LA","lat":29.9546,"long":-90.0751},{"zip":"70166","city":"New Orleans","state":"LA","lat":29.9546,"long":-90.0751},{"zip":"70167","city":"New Orleans","state":"LA","lat":29.9546,"long":-90.0751},{"zip":"70170","city":"New Orleans","state":"LA","lat":29.9546,"long":-90.0751},{"zip":"70172","city":"New Orleans","state":"LA","lat":29.9546,"long":-90.0751},{"zip":"70174","city":"New Orleans","state":"LA","lat":29.9546,"long":-90.0751},{"zip":"70175","city":"New Orleans","state":"LA","lat":29.9546,"long":-90.0751},{"zip":"70176","city":"New Orleans","state":"LA","lat":29.9546,"long":-90.0751},{"zip":"70177","city":"New Orleans","state":"LA","lat":29.9546,"long":-90.0751},{"zip":"70178","city":"New Orleans","state":"LA","lat":29.9546,"long":-90.0751},{"zip":"70179","city":"New Orleans","state":"LA","lat":29.9546,"long":-90.0751},{"zip":"70182","city":"New Orleans","state":"LA","lat":29.9546,"long":-90.0751},{"zip":"70184","city":"New Orleans","state":"LA","lat":29.9546,"long":-90.0751},{"zip":"70185","city":"New Orleans","state":"LA","lat":29.9546,"long":-90.0751},{"zip":"70186","city":"New Orleans","state":"LA","lat":29.9546,"long":-90.0751},{"zip":"70187","city":"New Orleans","state":"LA","lat":29.9546,"long":-90.0751},{"zip":"70189","city":"New Orleans","state":"LA","lat":29.9546,"long":-90.0751},{"zip":"70190","city":"New Orleans","state":"LA","lat":29.9546,"long":-90.0751},{"zip":"70195","city":"New Orleans","state":"LA","lat":29.9546,"long":-90.0751}]
