[{"zip":"70346","city":"Donaldsonville","state":"LA","lat":30.1018,"long":-90.997},{"zip":"70339","city":"Pierre Part","state":"LA","lat":29.9476,"long":-91.1885},{"zip":"70341","city":"Belle Rose","state":"LA","lat":30.026,"long":-91.0444},{"zip":"70372","city":"Labadieville","state":"LA","lat":29.8345,"long":-90.9613},{"zip":"70390","city":"Napoleonville","state":"LA","lat":29.9288,"long":-91.0266},{"zip":"70391","city":"Paincourtville","state":"LA","lat":29.9902,"long":-91.0588},{"zip":"70393","city":"Plattenville","state":"LA","lat":29.9974,"long":-91.0232},{"zip":"70358","city":"Grand Isle","state":"LA","lat":29.2297,"long":-90.0088},{"zip":"70301","city":"Thibodaux","state":"LA","lat":29.7992,"long":-90.8096},{"zip":"70302","city":"Thibodaux","state":"LA","lat":29.7958,"long":-90.8229},{"zip":"70310","city":"Thibodaux","state":"LA","lat":29.8033,"long":-90.8169},{"zip":"70345","city":"Cut Off","state":"LA","lat":29.5232,"long":-90.3393},{"zip":"70354","city":"Galliano","state":"LA","lat":29.4311,"long":-90.2981},{"zip":"70355","city":"Gheens","state":"LA","lat":29.7076,"long":-90.4849},{"zip":"70357","city":"Golden Meadow","state":"LA","lat":29.3821,"long":-90.2639},{"zip":"70371","city":"Kraemer","state":"LA","lat":29.8652,"long":-90.5962},{"zip":"70373","city":"Larose","state":"LA","lat":29.5724,"long":-90.3817},{"zip":"70374","city":"Lockport","state":"LA","lat":29.6155,"long":-90.4442},{"zip":"70375","city":"Mathews","state":"LA","lat":29.6938,"long":-90.5496},{"zip":"70394","city":"Raceland","state":"LA","lat":29.7178,"long":-90.5999},{"zip":"70340","city":"Amelia","state":"LA","lat":29.6884,"long":-91.2208},{"zip":"70342","city":"Berwick","state":"LA","lat":29.6929,"long":-91.2518},{"zip":"70380","city":"Morgan City","state":"LA","lat":29.6977,"long":-91.2654},{"zip":"70381","city":"Morgan City","state":"LA","lat":29.6946,"long":-91.2593},{"zip":"70392","city":"Patterson","state":"LA","lat":29.6967,"long":-91.2812},{"zip":"70343","city":"Bourg","state":"LA","lat":29.5485,"long":-90.6087},{"zip":"70344","city":"Chauvin","state":"LA","lat":29.4634,"long":-90.598},{"zip":"70352","city":"Donner","state":"LA","lat":29.6964,"long":-90.9444},{"zip":"70353","city":"Dulac","state":"LA","lat":29.3695,"long":-90.697},{"zip":"70356","city":"Gibson","state":"LA","lat":29.6625,"long":-90.9776},{"zip":"70359","city":"Gray","state":"LA","lat":29.6903,"long":-90.7807},{"zip":"70360","city":"Houma","state":"LA","lat":29.5943,"long":-90.7548},{"zip":"70361","city":"Houma","state":"LA","lat":29.5958,"long":-90.7195},{"zip":"70363","city":"Houma","state":"LA","lat":29.5601,"long":-90.6917},{"zip":"70364","city":"Houma","state":"LA","lat":29.6299,"long":-90.7268},{"zip":"70377","city":"Montegut","state":"LA","lat":29.4744,"long":-90.544},{"zip":"70395","city":"Schriever","state":"LA","lat":29.7123,"long":-90.8513},{"zip":"70397","city":"Theriot","state":"LA","lat":29.4516,"long":-90.7651}]
