[{"zip":"70516","city":"Branch","state":"LA","lat":30.3446,"long":-92.3459},{"zip":"70525","city":"Church Point","state":"LA","lat":30.4013,"long":-92.224},{"zip":"70526","city":"Crowley","state":"LA","lat":30.2148,"long":-92.3777},{"zip":"70527","city":"Crowley","state":"LA","lat":30.2284,"long":-92.3018},{"zip":"70531","city":"Egan","state":"LA","lat":30.251,"long":-92.5002},{"zip":"70534","city":"Estherwood","state":"LA","lat":30.1808,"long":-92.4643},{"zip":"70537","city":"Evangeline","state":"LA","lat":30.2683,"long":-92.5532},{"zip":"70543","city":"Iota","state":"LA","lat":30.3313,"long":-92.4957},{"zip":"70556","city":"Mermentau","state":"LA","lat":30.1861,"long":-92.5722},{"zip":"70559","city":"Morse","state":"LA","lat":30.1298,"long":-92.4767},{"zip":"70578","city":"Rayne","state":"LA","lat":30.2349,"long":-92.2685},{"zip":"70515","city":"Basile","state":"LA","lat":30.4978,"long":-92.5736},{"zip":"70524","city":"Chataignier","state":"LA","lat":30.5709,"long":-92.3202},{"zip":"70554","city":"Mamou","state":"LA","lat":30.6496,"long":-92.4196},{"zip":"70576","city":"Pine Prairie","state":"LA","lat":30.7831,"long":-92.4163},{"zip":"70580","city":"Reddell","state":"LA","lat":30.675,"long":-92.4265},{"zip":"70585","city":"Turkey Creek","state":"LA","lat":30.8707,"long":-92.404},{"zip":"70586","city":"Ville Platte","state":"LA","lat":30.6924,"long":-92.2737},{"zip":"70513","city":"Avery Island","state":"LA","lat":29.8981,"long":-91.9062},{"zip":"70544","city":"Jeanerette","state":"LA","lat":29.9032,"long":-91.6544},{"zip":"70552","city":"Loreauville","state":"LA","lat":30.0683,"long":-91.6596},{"zip":"70560","city":"New Iberia","state":"LA","lat":30.001,"long":-91.82},{"zip":"70562","city":"New Iberia","state":"LA","lat":30.0035,"long":-91.8187},{"zip":"70563","city":"New Iberia","state":"LA","lat":30.0245,"long":-91.7496},{"zip":"70569","city":"Lydia","state":"LA","lat":29.9239,"long":-91.7831},{"zip":"70532","city":"Elton","state":"LA","lat":30.4715,"long":-92.6996},{"zip":"70546","city":"Jennings","state":"LA","lat":30.2201,"long":-92.6574},{"zip":"70549","city":"Lake Arthur","state":"LA","lat":30.091,"long":-92.6825},{"zip":"70581","city":"Roanoke","state":"LA","lat":30.2464,"long":-92.7421},{"zip":"70591","city":"Welsh","state":"LA","lat":30.2363,"long":-92.819},{"zip":"70501","city":"Lafayette","state":"LA","lat":30.2361,"long":-92.0083},{"zip":"70502","city":"Lafayette","state":"LA","lat":30.2241,"long":-92.0198},{"zip":"70503","city":"Lafayette","state":"LA","lat":30.1843,"long":-92.0497},{"zip":"70504","city":"Lafayette","state":"LA","lat":30.2139,"long":-92.0187},{"zip":"70505","city":"Lafayette","state":"LA","lat":30.2023,"long":-92.0188},{"zip":"70506","city":"Lafayette","state":"LA","lat":30.2077,"long":-92.0656},{"zip":"70507","city":"Lafayette","state":"LA","lat":30.2813,"long":-92.016},{"zip":"70508","city":"Lafayette","state":"LA","lat":30.1582,"long":-92.0236},{"zip":"70509","city":"Lafayette","state":"LA","lat":30.1565,"long":-92},{"zip":"70518","city":"Broussard","state":"LA","lat":30.1219,"long":-91.9502},{"zip":"70520","city":"Carencro","state":"LA","lat":30.3244,"long":-92.0423},{"zip":"70529","city":"Duson","state":"LA","lat":30.1912,"long":-92.1525},{"zip":"70558","city":"Milton","state":"LA","lat":30.1038,"long":-92.0765},{"zip":"70583","city":"Scott","state":"LA","lat":30.2504,"long":-92.0981},{"zip":"70592","city":"Youngsville","state":"LA","lat":30.0975,"long":-92.0096},{"zip":"70593","city":"Lafayette","state":"LA","lat":30.2081,"long":-92.0951},{"zip":"70596","city":"Lafayette","state":"LA","lat":30.2241,"long":-92.0198},{"zip":"70598","city":"Lafayette","state":"LA","lat":30.2081,"long":-92.0951},{"zip":"70512","city":"Arnaudville","state":"LA","lat":30.3981,"long":-91.9263},{"zip":"70535","city":"Eunice","state":"LA","lat":30.5116,"long":-92.3985},{"zip":"70541","city":"Grand Coteau","state":"LA","lat":30.4201,"long":-92.0462},{"zip":"70550","city":"Lawtell","state":"LA","lat":30.5165,"long":-92.1841},{"zip":"70551","city":"Leonville","state":"LA","lat":30.4752,"long":-91.9737},{"zip":"70570","city":"Opelousas","state":"LA","lat":30.5144,"long":-92.0897},{"zip":"70571","city":"Opelousas","state":"LA","lat":30.5335,"long":-92.0815},{"zip":"70577","city":"Port Barre","state":"LA","lat":30.5478,"long":-91.9286},{"zip":"70584","city":"Sunset","state":"LA","lat":30.3884,"long":-92.0934},{"zip":"70589","city":"Washington","state":"LA","lat":30.6839,"long":-92.0252},{"zip":"70517","city":"Breaux Bridge","state":"LA","lat":30.2948,"long":-91.8296},{"zip":"70519","city":"Cade","state":"LA","lat":30.0797,"long":-91.9114},{"zip":"70521","city":"Cecilia","state":"LA","lat":30.3364,"long":-91.8492},{"zip":"70582","city":"Saint Martinville","state":"LA","lat":30.2237,"long":-91.7794},{"zip":"70514","city":"Baldwin","state":"LA","lat":29.8488,"long":-91.5458},{"zip":"70522","city":"Centerville","state":"LA","lat":29.7523,"long":-91.4397},{"zip":"70523","city":"Charenton","state":"LA","lat":29.8796,"long":-91.5337},{"zip":"70538","city":"Franklin","state":"LA","lat":29.7857,"long":-91.5026},{"zip":"70540","city":"Garden City","state":"LA","lat":29.7633,"long":-91.467},{"zip":"70510","city":"Abbeville","state":"LA","lat":29.9466,"long":-92.2416},{"zip":"70511","city":"Abbeville","state":"LA","lat":29.9747,"long":-92.1343},{"zip":"70528","city":"Delcambre","state":"LA","lat":29.9474,"long":-91.9889},{"zip":"70533","city":"Erath","state":"LA","lat":29.9522,"long":-92.0343},{"zip":"70542","city":"Gueydan","state":"LA","lat":30.0255,"long":-92.5338},{"zip":"70548","city":"Kaplan","state":"LA","lat":29.9771,"long":-92.3025},{"zip":"70555","city":"Maurice","state":"LA","lat":30.0722,"long":-92.107},{"zip":"70575","city":"Perry","state":"LA","lat":29.9485,"long":-92.1571}]
