[{"zip":"70638","city":"Elizabeth","state":"LA","lat":30.8547,"long":-92.7815},{"zip":"70644","city":"Grant","state":"LA","lat":30.7962,"long":-92.9517},{"zip":"70648","city":"Kinder","state":"LA","lat":30.4607,"long":-92.8693},{"zip":"70651","city":"Leblanc","state":"LA","lat":30.5648,"long":-92.9583},{"zip":"70654","city":"Mittie","state":"LA","lat":30.7144,"long":-92.9068},{"zip":"70655","city":"Oberlin","state":"LA","lat":30.6162,"long":-92.7527},{"zip":"70658","city":"Reeves","state":"LA","lat":30.521,"long":-93.0477},{"zip":"70634","city":"Deridder","state":"LA","lat":30.8287,"long":-93.2685},{"zip":"70637","city":"Dry Creek","state":"LA","lat":30.6859,"long":-92.9843},{"zip":"70652","city":"Longville","state":"LA","lat":30.58,"long":-93.2548},{"zip":"70653","city":"Merryville","state":"LA","lat":30.6716,"long":-93.5613},{"zip":"70657","city":"Ragley","state":"LA","lat":30.4703,"long":-93.2337},{"zip":"70660","city":"Singer","state":"LA","lat":30.5329,"long":-93.465},{"zip":"70662","city":"Sugartown","state":"LA","lat":30.8277,"long":-93.017},{"zip":"70601","city":"Lake Charles","state":"LA","lat":30.2285,"long":-93.188},{"zip":"70602","city":"Lake Charles","state":"LA","lat":30.2642,"long":-93.3265},{"zip":"70605","city":"Lake Charles","state":"LA","lat":30.1693,"long":-93.2218},{"zip":"70606","city":"Lake Charles","state":"LA","lat":30.2642,"long":-93.3265},{"zip":"70607","city":"Lake Charles","state":"LA","lat":30.1244,"long":-93.1835},{"zip":"70609","city":"Lake Charles","state":"LA","lat":30.2642,"long":-93.3265},{"zip":"70611","city":"Lake Charles","state":"LA","lat":30.322,"long":-93.2111},{"zip":"70612","city":"Lake Charles","state":"LA","lat":30.2642,"long":-93.3265},{"zip":"70615","city":"Lake Charles","state":"LA","lat":30.2585,"long":-93.1146},{"zip":"70616","city":"Lake Charles","state":"LA","lat":30.2642,"long":-93.3265},{"zip":"70629","city":"Lake Charles","state":"LA","lat":30.2642,"long":-93.3265},{"zip":"70630","city":"Bell City","state":"LA","lat":30.1054,"long":-93.0372},{"zip":"70633","city":"Dequincy","state":"LA","lat":30.4211,"long":-93.4151},{"zip":"70646","city":"Hayes","state":"LA","lat":30.097,"long":-92.9146},{"zip":"70647","city":"Iowa","state":"LA","lat":30.2219,"long":-93.0259},{"zip":"70661","city":"Starks","state":"LA","lat":30.3085,"long":-93.6615},{"zip":"70663","city":"Sulphur","state":"LA","lat":30.219,"long":-93.3639},{"zip":"70664","city":"Sulphur","state":"LA","lat":30.2642,"long":-93.3265},{"zip":"70665","city":"Sulphur","state":"LA","lat":30.2009,"long":-93.4437},{"zip":"70668","city":"Vinton","state":"LA","lat":30.2015,"long":-93.5728},{"zip":"70669","city":"Westlake","state":"LA","lat":30.2613,"long":-93.2688},{"zip":"70631","city":"Cameron","state":"LA","lat":29.7911,"long":-93.438},{"zip":"70632","city":"Creole","state":"LA","lat":29.8646,"long":-93.0033},{"zip":"70643","city":"Grand Chenier","state":"LA","lat":29.7644,"long":-92.9261},{"zip":"70645","city":"Hackberry","state":"LA","lat":29.9822,"long":-93.375},{"zip":"70640","city":"Fenton","state":"LA","lat":30.3655,"long":-92.9122},{"zip":"70650","city":"Lacassine","state":"LA","lat":30.2374,"long":-92.9232},{"zip":"70639","city":"Evans","state":"LA","lat":30.9684,"long":-93.5203},{"zip":"70656","city":"Pitkin","state":"LA","lat":30.933,"long":-92.9548},{"zip":"70659","city":"Rosepine","state":"LA","lat":30.9243,"long":-93.2749}]
