[{"zip":"70801","city":"Baton Rouge","state":"LA","lat":30.4492,"long":-91.1856},{"zip":"70802","city":"Baton Rouge","state":"LA","lat":30.4438,"long":-91.1775},{"zip":"70803","city":"Baton Rouge","state":"LA","lat":30.405,"long":-91.1868},{"zip":"70804","city":"Baton Rouge","state":"LA","lat":30.3863,"long":-91.1339},{"zip":"70805","city":"Baton Rouge","state":"LA","lat":30.486,"long":-91.1481},{"zip":"70806","city":"Baton Rouge","state":"LA","lat":30.4485,"long":-91.13},{"zip":"70807","city":"Baton Rouge","state":"LA","lat":30.5768,"long":-91.2246},{"zip":"70808","city":"Baton Rouge","state":"LA","lat":30.4066,"long":-91.1468},{"zip":"70809","city":"Baton Rouge","state":"LA","lat":30.4089,"long":-91.0842},{"zip":"70810","city":"Baton Rouge","state":"LA","lat":30.3633,"long":-91.0919},{"zip":"70811","city":"Baton Rouge","state":"LA","lat":30.5317,"long":-91.1167},{"zip":"70812","city":"Baton Rouge","state":"LA","lat":30.5052,"long":-91.1181},{"zip":"70813","city":"Baton Rouge","state":"LA","lat":30.5201,"long":-91.1949},{"zip":"70814","city":"Baton Rouge","state":"LA","lat":30.4848,"long":-91.0689},{"zip":"70815","city":"Baton Rouge","state":"LA","lat":30.4558,"long":-91.0596},{"zip":"70816","city":"Baton Rouge","state":"LA","lat":30.4273,"long":-91.0356},{"zip":"70817","city":"Baton Rouge","state":"LA","lat":30.3904,"long":-91.0021},{"zip":"70818","city":"Baton Rouge","state":"LA","lat":30.5408,"long":-91.05},{"zip":"70819","city":"Baton Rouge","state":"LA","lat":30.4668,"long":-91.0156},{"zip":"70820","city":"Baton Rouge","state":"LA","lat":30.3795,"long":-91.1671},{"zip":"70821","city":"Baton Rouge","state":"LA","lat":30.4613,"long":-91.0447},{"zip":"70822","city":"Baton Rouge","state":"LA","lat":30.5159,"long":-91.0804},{"zip":"70823","city":"Baton Rouge","state":"LA","lat":30.5159,"long":-91.0804},{"zip":"70825","city":"Baton Rouge","state":"LA","lat":30.5159,"long":-91.0804},{"zip":"70826","city":"Baton Rouge","state":"LA","lat":30.5159,"long":-91.0804},{"zip":"70827","city":"Baton Rouge","state":"LA","lat":30.4338,"long":-91.0825},{"zip":"70831","city":"Baton Rouge","state":"LA","lat":30.5159,"long":-91.0804},{"zip":"70833","city":"Baton Rouge","state":"LA","lat":30.5159,"long":-91.0804},{"zip":"70835","city":"Baton Rouge","state":"LA","lat":30.5159,"long":-91.0804},{"zip":"70836","city":"Baton Rouge","state":"LA","lat":30.392,"long":-91.0892},{"zip":"70837","city":"Baton Rouge","state":"LA","lat":30.5159,"long":-91.0804},{"zip":"70873","city":"Baton Rouge","state":"LA","lat":30.5305,"long":-91.1163},{"zip":"70874","city":"Baton Rouge","state":"LA","lat":30.5902,"long":-91.2054},{"zip":"70879","city":"Baton Rouge","state":"LA","lat":30.5159,"long":-91.0804},{"zip":"70884","city":"Baton Rouge","state":"LA","lat":30.5159,"long":-91.0804},{"zip":"70891","city":"Baton Rouge","state":"LA","lat":30.4492,"long":-91.1547},{"zip":"70892","city":"Baton Rouge","state":"LA","lat":30.4507,"long":-91.1546},{"zip":"70893","city":"Baton Rouge","state":"LA","lat":30.413,"long":-91.1715},{"zip":"70894","city":"Baton Rouge","state":"LA","lat":30.5159,"long":-91.0804},{"zip":"70895","city":"Baton Rouge","state":"LA","lat":30.5159,"long":-91.0804},{"zip":"70896","city":"Baton Rouge","state":"LA","lat":30.5159,"long":-91.0804},{"zip":"70898","city":"Baton Rouge","state":"LA","lat":30.5159,"long":-91.0804}]
