[{"zip":"71635","city":"Crossett","state":"AR","lat":33.156,"long":-91.9975},{"zip":"71642","city":"Fountain Hill","state":"AR","lat":33.3631,"long":-91.9088},{"zip":"71646","city":"Hamburg","state":"AR","lat":33.2058,"long":-91.8023},{"zip":"71658","city":"Montrose","state":"AR","lat":33.3075,"long":-91.5228},{"zip":"71661","city":"Parkdale","state":"AR","lat":33.1213,"long":-91.5428},{"zip":"71663","city":"Portland","state":"AR","lat":33.2318,"long":-91.5139},{"zip":"71676","city":"Wilmot","state":"AR","lat":33.0576,"long":-91.5723},{"zip":"71631","city":"Banks","state":"AR","lat":33.5497,"long":-92.2604},{"zip":"71647","city":"Hermitage","state":"AR","lat":33.39,"long":-92.156},{"zip":"71651","city":"Jersey","state":"AR","lat":33.3889,"long":-92.2966},{"zip":"71671","city":"Warren","state":"AR","lat":33.614,"long":-92.0778},{"zip":"71744","city":"Hampton","state":"AR","lat":33.5376,"long":-92.5295},{"zip":"71745","city":"Harrell","state":"AR","lat":33.5101,"long":-92.3988},{"zip":"71766","city":"Thornton","state":"AR","lat":33.7768,"long":-92.4862},{"zip":"71638","city":"Dermott","state":"AR","lat":33.5241,"long":-91.4394},{"zip":"71640","city":"Eudora","state":"AR","lat":33.1213,"long":-91.2716},{"zip":"71653","city":"Lake Village","state":"AR","lat":33.3274,"long":-91.2825},{"zip":"71721","city":"Beirne","state":"AR","lat":33.8887,"long":-93.2041},{"zip":"71728","city":"Curtis","state":"AR","lat":34.0103,"long":-93.0976},{"zip":"71743","city":"Gurdon","state":"AR","lat":33.9125,"long":-93.1417},{"zip":"71772","city":"Whelen Springs","state":"AR","lat":33.8309,"long":-93.1263},{"zip":"71920","city":"Alpine","state":"AR","lat":34.229,"long":-93.3791},{"zip":"71921","city":"Amity","state":"AR","lat":34.2594,"long":-93.4206},{"zip":"71923","city":"Arkadelphia","state":"AR","lat":34.1153,"long":-93.069},{"zip":"71962","city":"Okolona","state":"AR","lat":34.0551,"long":-93.2897},{"zip":"71998","city":"Arkadelphia","state":"AR","lat":34.0555,"long":-93.1894},{"zip":"71999","city":"Arkadelphia","state":"AR","lat":34.0555,"long":-93.1894},{"zip":"71652","city":"Kingsland","state":"AR","lat":33.86,"long":-92.3014},{"zip":"71660","city":"New Edinburg","state":"AR","lat":33.7588,"long":-92.1939},{"zip":"71665","city":"Rison","state":"AR","lat":33.9453,"long":-92.1188},{"zip":"71740","city":"Emerson","state":"AR","lat":33.0891,"long":-93.1987},{"zip":"71752","city":"Mc Neil","state":"AR","lat":33.3622,"long":-93.193},{"zip":"71753","city":"Magnolia","state":"AR","lat":33.2647,"long":-93.2392},{"zip":"71754","city":"Magnolia","state":"AR","lat":33.2426,"long":-93.23},{"zip":"71770","city":"Waldo","state":"AR","lat":33.36,"long":-93.2949},{"zip":"71861","city":"Taylor","state":"AR","lat":33.108,"long":-93.446},{"zip":"71725","city":"Carthage","state":"AR","lat":34.0751,"long":-92.5554},{"zip":"71742","city":"Fordyce","state":"AR","lat":33.8176,"long":-92.4225},{"zip":"71748","city":"Ivan","state":"AR","lat":33.9118,"long":-92.4246},{"zip":"71763","city":"Sparkman","state":"AR","lat":33.9143,"long":-92.8532},{"zip":"71630","city":"Arkansas City","state":"AR","lat":33.6143,"long":-91.2325},{"zip":"71639","city":"Dumas","state":"AR","lat":33.8921,"long":-91.4861},{"zip":"71654","city":"Mc Gehee","state":"AR","lat":33.6297,"long":-91.3928},{"zip":"71662","city":"Pickens","state":"AR","lat":33.842,"long":-91.5022},{"zip":"71666","city":"Rohwer","state":"AR","lat":33.7609,"long":-91.2757},{"zip":"71670","city":"Tillar","state":"AR","lat":33.6981,"long":-91.4433},{"zip":"71674","city":"Watson","state":"AR","lat":33.8907,"long":-91.2815},{"zip":"71655","city":"Monticello","state":"AR","lat":33.625,"long":-91.7948},{"zip":"71656","city":"Monticello","state":"AR","lat":33.629,"long":-91.791},{"zip":"71657","city":"Monticello","state":"AR","lat":33.629,"long":-91.791},{"zip":"71675","city":"Wilmar","state":"AR","lat":33.6213,"long":-91.9257},{"zip":"71677","city":"Winchester","state":"AR","lat":33.7471,"long":-91.4649},{"zip":"71901","city":"Hot Springs National Park","state":"AR","lat":34.5268,"long":-92.9587},{"zip":"71902","city":"Hot Springs National Park","state":"AR","lat":34.5814,"long":-93.0994},{"zip":"71903","city":"Hot Springs National Park","state":"AR","lat":34.5814,"long":-93.0994},{"zip":"71909","city":"Hot Springs Village","state":"AR","lat":34.6484,"long":-92.983},{"zip":"71910","city":"Hot Springs Village","state":"AR","lat":34.672,"long":-92.9988},{"zip":"71913","city":"Hot Springs National Park","state":"AR","lat":34.4689,"long":-93.043},{"zip":"71914","city":"Hot Springs National Park","state":"AR","lat":34.5137,"long":-92.9685},{"zip":"71949","city":"Jessieville","state":"AR","lat":34.7094,"long":-93.0382},{"zip":"71956","city":"Mountain Pine","state":"AR","lat":34.5976,"long":-93.1539},{"zip":"71964","city":"Pearcy","state":"AR","lat":34.4351,"long":-93.242},{"zip":"71968","city":"Royal","state":"AR","lat":34.515,"long":-93.2897},{"zip":"71801","city":"Hope","state":"AR","lat":33.6736,"long":-93.6068},{"zip":"71802","city":"Hope","state":"AR","lat":33.6671,"long":-93.5916},{"zip":"71825","city":"Blevins","state":"AR","lat":33.8718,"long":-93.5771},{"zip":"71831","city":"Columbus","state":"AR","lat":33.7935,"long":-93.807},{"zip":"71838","city":"Fulton","state":"AR","lat":33.6299,"long":-93.8086},{"zip":"71847","city":"Mc Caskill","state":"AR","lat":33.923,"long":-93.6266},{"zip":"71855","city":"Ozan","state":"AR","lat":33.9028,"long":-93.7714},{"zip":"71862","city":"Washington","state":"AR","lat":33.7546,"long":-93.6735},{"zip":"71929","city":"Bismarck","state":"AR","lat":34.311,"long":-93.1872},{"zip":"71933","city":"Bonnerdale","state":"AR","lat":34.3498,"long":-93.3194},{"zip":"71941","city":"Donaldson","state":"AR","lat":34.2212,"long":-92.9094},{"zip":"71942","city":"Friendship","state":"AR","lat":34.2235,"long":-93.0024},{"zip":"71833","city":"Dierks","state":"AR","lat":34.1323,"long":-94.0152},{"zip":"71851","city":"Mineral Springs","state":"AR","lat":33.8639,"long":-93.9188},{"zip":"71852","city":"Nashville","state":"AR","lat":33.9576,"long":-93.8707},{"zip":"71859","city":"Saratoga","state":"AR","lat":33.7599,"long":-93.8767},{"zip":"71971","city":"Umpire","state":"AR","lat":34.2921,"long":-94.0314},{"zip":"71601","city":"Pine Bluff","state":"AR","lat":34.209,"long":-91.9859},{"zip":"71602","city":"White Hall","state":"AR","lat":34.274,"long":-92.091},{"zip":"71603","city":"Pine Bluff","state":"AR","lat":34.1897,"long":-92.0448},{"zip":"71611","city":"Pine Bluff","state":"AR","lat":34.2615,"long":-91.9551},{"zip":"71612","city":"White Hall","state":"AR","lat":34.274,"long":-92.091},{"zip":"71613","city":"Pine Bluff","state":"AR","lat":34.1579,"long":-92.0713},{"zip":"71659","city":"Moscow","state":"AR","lat":34.1537,"long":-91.8112},{"zip":"71826","city":"Bradley","state":"AR","lat":33.107,"long":-93.6275},{"zip":"71827","city":"Buckner","state":"AR","lat":33.3753,"long":-93.447},{"zip":"71839","city":"Garland City","state":"AR","lat":33.3352,"long":-93.7316},{"zip":"71845","city":"Lewisville","state":"AR","lat":33.3736,"long":-93.5953},{"zip":"71860","city":"Stamps","state":"AR","lat":33.3569,"long":-93.5013},{"zip":"71643","city":"Gould","state":"AR","lat":34.0345,"long":-91.5768},{"zip":"71644","city":"Grady","state":"AR","lat":34.1032,"long":-91.7057},{"zip":"71667","city":"Star City","state":"AR","lat":33.9405,"long":-91.8653},{"zip":"71678","city":"Yorktown","state":"AR","lat":33.9787,"long":-91.6991},{"zip":"71820","city":"Alleene","state":"AR","lat":33.7944,"long":-94.2681},{"zip":"71822","city":"Ashdown","state":"AR","lat":33.6787,"long":-94.1351},{"zip":"71836","city":"Foreman","state":"AR","lat":33.7176,"long":-94.3881},{"zip":"71853","city":"Ogden","state":"AR","lat":33.5826,"long":-94.0427},{"zip":"71865","city":"Wilton","state":"AR","lat":33.7475,"long":-94.1518},{"zip":"71866","city":"Winthrop","state":"AR","lat":33.8583,"long":-94.3952},{"zip":"71834","city":"Doddridge","state":"AR","lat":33.1054,"long":-93.9543},{"zip":"71837","city":"Fouke","state":"AR","lat":33.3025,"long":-93.901},{"zip":"71840","city":"Genoa","state":"AR","lat":33.3837,"long":-93.9096},{"zip":"71854","city":"Texarkana","state":"AR","lat":33.431,"long":-93.8765},{"zip":"71935","city":"Caddo Gap","state":"AR","lat":34.3913,"long":-93.7637},{"zip":"71957","city":"Mount Ida","state":"AR","lat":34.5612,"long":-93.5749},{"zip":"71960","city":"Norman","state":"AR","lat":34.4596,"long":-93.6743},{"zip":"71961","city":"Oden","state":"AR","lat":34.6113,"long":-93.8211},{"zip":"71965","city":"Pencil Bluff","state":"AR","lat":34.6399,"long":-93.7429},{"zip":"71966","city":"Oden","state":"AR","lat":34.619,"long":-93.7769},{"zip":"71969","city":"Sims","state":"AR","lat":34.6462,"long":-93.6741},{"zip":"71970","city":"Story","state":"AR","lat":34.6687,"long":-93.5376},{"zip":"71722","city":"Bluff City","state":"AR","lat":33.7038,"long":-93.1588},{"zip":"71828","city":"Cale","state":"AR","lat":33.7008,"long":-93.2941},{"zip":"71835","city":"Emmet","state":"AR","lat":33.6929,"long":-93.4232},{"zip":"71857","city":"Prescott","state":"AR","lat":33.804,"long":-93.3725},{"zip":"71858","city":"Rosston","state":"AR","lat":33.5926,"long":-93.2766},{"zip":"71864","city":"Willisville","state":"AR","lat":33.7008,"long":-93.2941},{"zip":"71701","city":"Camden","state":"AR","lat":33.5948,"long":-92.8513},{"zip":"71711","city":"Camden","state":"AR","lat":33.589,"long":-92.8426},{"zip":"71720","city":"Bearden","state":"AR","lat":33.7298,"long":-92.618},{"zip":"71726","city":"Chidester","state":"AR","lat":33.6652,"long":-92.9969},{"zip":"71751","city":"Louann","state":"AR","lat":33.4169,"long":-92.777},{"zip":"71764","city":"Stephens","state":"AR","lat":33.455,"long":-93.0214},{"zip":"71922","city":"Antoine","state":"AR","lat":34.0362,"long":-93.4207},{"zip":"71940","city":"Delight","state":"AR","lat":34.0238,"long":-93.5247},{"zip":"71943","city":"Glenwood","state":"AR","lat":34.3192,"long":-93.5559},{"zip":"71950","city":"Kirby","state":"AR","lat":34.2513,"long":-93.741},{"zip":"71952","city":"Langley","state":"AR","lat":34.314,"long":-93.8509},{"zip":"71958","city":"Murfreesboro","state":"AR","lat":34.1017,"long":-93.7109},{"zip":"71959","city":"Newhope","state":"AR","lat":34.2273,"long":-93.8905},{"zip":"71932","city":"Board Camp","state":"AR","lat":34.5372,"long":-94.0972},{"zip":"71937","city":"Cove","state":"AR","lat":34.4192,"long":-94.3923},{"zip":"71944","city":"Grannis","state":"AR","lat":34.237,"long":-94.3255},{"zip":"71945","city":"Hatfield","state":"AR","lat":34.4877,"long":-94.3714},{"zip":"71953","city":"Mena","state":"AR","lat":34.5814,"long":-94.221},{"zip":"71972","city":"Vandervoort","state":"AR","lat":34.3941,"long":-94.2535},{"zip":"71973","city":"Wickes","state":"AR","lat":34.3088,"long":-94.3403},{"zip":"71823","city":"Ben Lomond","state":"AR","lat":33.8115,"long":-94.1251},{"zip":"71832","city":"De Queen","state":"AR","lat":34.0442,"long":-94.3386},{"zip":"71841","city":"Gillham","state":"AR","lat":34.157,"long":-94.3165},{"zip":"71842","city":"Horatio","state":"AR","lat":33.9392,"long":-94.2959},{"zip":"71846","city":"Lockesburg","state":"AR","lat":33.9306,"long":-94.1276},{"zip":"71724","city":"Calion","state":"AR","lat":33.3261,"long":-92.5464},{"zip":"71730","city":"El Dorado","state":"AR","lat":33.2073,"long":-92.6629},{"zip":"71731","city":"El Dorado","state":"AR","lat":33.2076,"long":-92.6663},{"zip":"71747","city":"Huttig","state":"AR","lat":33.0459,"long":-92.1942},{"zip":"71749","city":"Junction City","state":"AR","lat":33.0163,"long":-92.7243},{"zip":"71750","city":"Lawson","state":"AR","lat":33.1968,"long":-92.4829},{"zip":"71758","city":"Mount Holly","state":"AR","lat":33.3085,"long":-92.9443},{"zip":"71759","city":"Norphlet","state":"AR","lat":33.316,"long":-92.6629},{"zip":"71762","city":"Smackover","state":"AR","lat":33.3398,"long":-92.7442},{"zip":"71765","city":"Strong","state":"AR","lat":33.1195,"long":-92.3621},{"zip":"71463","city":"Oakdale","state":"LA","lat":30.8172,"long":-92.664},{"zip":"71320","city":"Bordelonville","state":"LA","lat":31.1055,"long":-91.9073},{"zip":"71322","city":"Bunkie","state":"LA","lat":30.8641,"long":-92.1466},{"zip":"71323","city":"Center Point","state":"LA","lat":31.2482,"long":-92.2099},{"zip":"71327","city":"Cottonport","state":"LA","lat":30.9862,"long":-92.0581},{"zip":"71329","city":"Dupont","state":"LA","lat":30.9294,"long":-91.9479},{"zip":"71331","city":"Effie","state":"LA","lat":31.2275,"long":-92.0967},{"zip":"71333","city":"Evergreen","state":"LA","lat":30.9161,"long":-92.067},{"zip":"71339","city":"Hamburg","state":"LA","lat":31.0307,"long":-91.9315},{"zip":"71341","city":"Hessmer","state":"LA","lat":31.0534,"long":-92.1399},{"zip":"71350","city":"Mansura","state":"LA","lat":31.0615,"long":-92.0543},{"zip":"71351","city":"Marksville","state":"LA","lat":31.1396,"long":-92.0831},{"zip":"71355","city":"Moreauville","state":"LA","lat":31.0988,"long":-91.8748},{"zip":"71362","city":"Plaucheville","state":"LA","lat":30.9365,"long":-91.9847},{"zip":"71369","city":"Simmesport","state":"LA","lat":30.9771,"long":-91.8259},{"zip":"71001","city":"Arcadia","state":"LA","lat":32.5556,"long":-92.9245},{"zip":"71008","city":"Bienville","state":"LA","lat":32.2523,"long":-92.9084},{"zip":"71016","city":"Castor","state":"LA","lat":32.2452,"long":-93.0936},{"zip":"71028","city":"Gibsland","state":"LA","lat":32.5299,"long":-93.0706},{"zip":"71045","city":"Jamestown","state":"LA","lat":32.3613,"long":-93.1848},{"zip":"71068","city":"Ringgold","state":"LA","lat":32.3263,"long":-93.2982},{"zip":"71070","city":"Saline","state":"LA","lat":32.197,"long":-92.917},{"zip":"71080","city":"Taylor","state":"LA","lat":32.366,"long":-93.1011},{"zip":"71006","city":"Benton","state":"LA","lat":32.6976,"long":-93.691},{"zip":"71037","city":"Haughton","state":"LA","lat":32.5507,"long":-93.5657},{"zip":"71051","city":"Elm Grove","state":"LA","lat":32.3886,"long":-93.5026},{"zip":"71064","city":"Plain Dealing","state":"LA","lat":32.9074,"long":-93.6905},{"zip":"71067","city":"Princeton","state":"LA","lat":32.5791,"long":-93.5226},{"zip":"71110","city":"Barksdale Afb","state":"LA","lat":32.5137,"long":-93.6404},{"zip":"71111","city":"Bossier City","state":"LA","lat":32.5449,"long":-93.7038},{"zip":"71112","city":"Bossier City","state":"LA","lat":32.486,"long":-93.6767},{"zip":"71113","city":"Bossier City","state":"LA","lat":32.6276,"long":-93.609},{"zip":"71171","city":"Bossier City","state":"LA","lat":32.516,"long":-93.7321},{"zip":"71172","city":"Bossier City","state":"LA","lat":32.6276,"long":-93.609},{"zip":"71004","city":"Belcher","state":"LA","lat":32.7544,"long":-93.8508},{"zip":"71007","city":"Bethany","state":"LA","lat":32.3662,"long":-94.0034},{"zip":"71009","city":"Blanchard","state":"LA","lat":32.5719,"long":-93.8871},{"zip":"71029","city":"Gilliam","state":"LA","lat":32.8251,"long":-93.8293},{"zip":"71033","city":"Greenwood","state":"LA","lat":32.4429,"long":-93.973},{"zip":"71043","city":"Hosston","state":"LA","lat":32.8967,"long":-93.8834},{"zip":"71044","city":"Ida","state":"LA","lat":32.9934,"long":-93.9022},{"zip":"71047","city":"Keithville","state":"LA","lat":32.3161,"long":-93.8881},{"zip":"71060","city":"Mooringsport","state":"LA","lat":32.6626,"long":-93.973},{"zip":"71061","city":"Oil City","state":"LA","lat":32.7451,"long":-93.9838},{"zip":"71069","city":"Rodessa","state":"LA","lat":32.9701,"long":-93.9885},{"zip":"71082","city":"Vivian","state":"LA","lat":32.8423,"long":-93.9504},{"zip":"71101","city":"Shreveport","state":"LA","lat":32.5037,"long":-93.7487},{"zip":"71102","city":"Shreveport","state":"LA","lat":32.6076,"long":-93.7526},{"zip":"71103","city":"Shreveport","state":"LA","lat":32.4945,"long":-93.7727},{"zip":"71104","city":"Shreveport","state":"LA","lat":32.483,"long":-93.7349},{"zip":"71105","city":"Shreveport","state":"LA","lat":32.4589,"long":-93.7143},{"zip":"71106","city":"Shreveport","state":"LA","lat":32.3912,"long":-93.7116},{"zip":"71107","city":"Shreveport","state":"LA","lat":32.6016,"long":-93.8738},{"zip":"71108","city":"Shreveport","state":"LA","lat":32.4486,"long":-93.7814},{"zip":"71109","city":"Shreveport","state":"LA","lat":32.474,"long":-93.8013},{"zip":"71115","city":"Shreveport","state":"LA","lat":32.3401,"long":-93.6092},{"zip":"71118","city":"Shreveport","state":"LA","lat":32.3977,"long":-93.8025},{"zip":"71119","city":"Shreveport","state":"LA","lat":32.4771,"long":-93.8726},{"zip":"71120","city":"Shreveport","state":"LA","lat":32.6076,"long":-93.7526},{"zip":"71129","city":"Shreveport","state":"LA","lat":32.4141,"long":-93.8742},{"zip":"71130","city":"Shreveport","state":"LA","lat":32.6076,"long":-93.7526},{"zip":"71133","city":"Shreveport","state":"LA","lat":32.6076,"long":-93.7526},{"zip":"71134","city":"Shreveport","state":"LA","lat":32.6076,"long":-93.7526},{"zip":"71135","city":"Shreveport","state":"LA","lat":32.6076,"long":-93.7526},{"zip":"71136","city":"Shreveport","state":"LA","lat":32.6076,"long":-93.7526},{"zip":"71137","city":"Shreveport","state":"LA","lat":32.6076,"long":-93.7526},{"zip":"71138","city":"Shreveport","state":"LA","lat":32.6076,"long":-93.7526},{"zip":"71148","city":"Shreveport","state":"LA","lat":32.6076,"long":-93.7526},{"zip":"71149","city":"Shreveport","state":"LA","lat":32.6076,"long":-93.7526},{"zip":"71150","city":"Shreveport","state":"LA","lat":32.5056,"long":-93.7434},{"zip":"71151","city":"Shreveport","state":"LA","lat":32.6076,"long":-93.7526},{"zip":"71152","city":"Shreveport","state":"LA","lat":32.6076,"long":-93.7526},{"zip":"71153","city":"Shreveport","state":"LA","lat":32.6076,"long":-93.7526},{"zip":"71154","city":"Shreveport","state":"LA","lat":32.6076,"long":-93.7526},{"zip":"71156","city":"Shreveport","state":"LA","lat":32.6076,"long":-93.7526},{"zip":"71161","city":"Shreveport","state":"LA","lat":32.6076,"long":-93.7526},{"zip":"71162","city":"Shreveport","state":"LA","lat":32.6076,"long":-93.7526},{"zip":"71163","city":"Shreveport","state":"LA","lat":32.6076,"long":-93.7526},{"zip":"71164","city":"Shreveport","state":"LA","lat":32.6076,"long":-93.7526},{"zip":"71165","city":"Shreveport","state":"LA","lat":32.6076,"long":-93.7526},{"zip":"71166","city":"Shreveport","state":"LA","lat":32.6076,"long":-93.7526},{"zip":"71415","city":"Clarks","state":"LA","lat":32.0344,"long":-92.1381},{"zip":"71418","city":"Columbia","state":"LA","lat":32.1022,"long":-92.1177},{"zip":"71435","city":"Grayson","state":"LA","lat":32.067,"long":-92.1698},{"zip":"71441","city":"Kelly","state":"LA","lat":31.9648,"long":-92.1825},{"zip":"71340","city":"Harrisonburg","state":"LA","lat":31.7779,"long":-91.8133},{"zip":"71343","city":"Jonesville","state":"LA","lat":31.6862,"long":-91.8678},{"zip":"71363","city":"Rhinehart","state":"LA","lat":31.6377,"long":-92.0068},{"zip":"71368","city":"Sicily Island","state":"LA","lat":31.8507,"long":-91.6807},{"zip":"71401","city":"Aimwell","state":"LA","lat":31.7835,"long":-91.9935},{"zip":"71425","city":"Enterprise","state":"LA","lat":31.9064,"long":-91.8751},{"zip":"71003","city":"Athens","state":"LA","lat":32.6451,"long":-93.0239},{"zip":"71038","city":"Haynesville","state":"LA","lat":32.9278,"long":-93.0691},{"zip":"71040","city":"Homer","state":"LA","lat":32.7749,"long":-93.0288},{"zip":"71048","city":"Lisbon","state":"LA","lat":32.8452,"long":-92.8878},{"zip":"71079","city":"Summerfield","state":"LA","lat":32.9238,"long":-92.8215},{"zip":"71316","city":"Acme","state":"LA","lat":31.3016,"long":-91.8216},{"zip":"71326","city":"Clayton","state":"LA","lat":31.7158,"long":-91.5163},{"zip":"71334","city":"Ferriday","state":"LA","lat":31.6602,"long":-91.5502},{"zip":"71354","city":"Monterey","state":"LA","lat":31.4499,"long":-91.7182},{"zip":"71373","city":"Vidalia","state":"LA","lat":31.5782,"long":-91.4695},{"zip":"71377","city":"Wildsville","state":"LA","lat":31.6094,"long":-91.7808},{"zip":"71027","city":"Frierson","state":"LA","lat":32.245,"long":-93.6915},{"zip":"71030","city":"Gloster","state":"LA","lat":32.1858,"long":-93.801},{"zip":"71032","city":"Grand Cane","state":"LA","lat":32.105,"long":-93.7941},{"zip":"71046","city":"Keatchie","state":"LA","lat":32.1622,"long":-93.951},{"zip":"71049","city":"Logansport","state":"LA","lat":31.9943,"long":-93.9627},{"zip":"71050","city":"Longstreet","state":"LA","lat":32.0977,"long":-93.9521},{"zip":"71052","city":"Mansfield","state":"LA","lat":32.0239,"long":-93.698},{"zip":"71063","city":"Pelican","state":"LA","lat":31.8966,"long":-93.5634},{"zip":"71078","city":"Stonewall","state":"LA","lat":32.2848,"long":-93.8003},{"zip":"71254","city":"Lake Providence","state":"LA","lat":32.8071,"long":-91.1906},{"zip":"71276","city":"Sondheimer","state":"LA","lat":32.5756,"long":-91.1496},{"zip":"71286","city":"Transylvania","state":"LA","lat":32.6705,"long":-91.2288},{"zip":"71367","city":"Saint Landry","state":"LA","lat":30.8998,"long":-92.2964},{"zip":"71219","city":"Baskin","state":"LA","lat":32.2897,"long":-91.7132},{"zip":"71230","city":"Crowville","state":"LA","lat":32.2407,"long":-91.5901},{"zip":"71243","city":"Fort Necessity","state":"LA","lat":32.0434,"long":-91.8257},{"zip":"71249","city":"Jigger","state":"LA","lat":32.0349,"long":-91.7468},{"zip":"71295","city":"Winnsboro","state":"LA","lat":32.1592,"long":-91.7108},{"zip":"71324","city":"Chase","state":"LA","lat":32.0971,"long":-91.699},{"zip":"71336","city":"Gilbert","state":"LA","lat":32.0349,"long":-91.592},{"zip":"71378","city":"Wisner","state":"LA","lat":31.9913,"long":-91.6768},{"zip":"71407","city":"Bentley","state":"LA","lat":31.5157,"long":-92.4882},{"zip":"71417","city":"Colfax","state":"LA","lat":31.5079,"long":-92.6568},{"zip":"71423","city":"Dry Prong","state":"LA","lat":31.5979,"long":-92.5665},{"zip":"71432","city":"Georgetown","state":"LA","lat":31.745,"long":-92.3952},{"zip":"71454","city":"Montgomery","state":"LA","lat":31.6674,"long":-92.8412},{"zip":"71467","city":"Pollock","state":"LA","lat":31.5,"long":-92.4005},{"zip":"71226","city":"Chatham","state":"LA","lat":32.2922,"long":-92.4374},{"zip":"71238","city":"Eros","state":"LA","lat":32.3988,"long":-92.3479},{"zip":"71247","city":"Hodge","state":"LA","lat":32.2768,"long":-92.7235},{"zip":"71251","city":"Jonesboro","state":"LA","lat":32.2483,"long":-92.6944},{"zip":"71268","city":"Quitman","state":"LA","lat":32.3564,"long":-92.7085},{"zip":"71342","city":"Jena","state":"LA","lat":31.6748,"long":-92.1137},{"zip":"71371","city":"Trout","state":"LA","lat":31.6531,"long":-92.1993},{"zip":"71465","city":"Olla","state":"LA","lat":31.8734,"long":-92.2214},{"zip":"71479","city":"Tullos","state":"LA","lat":31.8569,"long":-92.374},{"zip":"71480","city":"Urania","state":"LA","lat":31.865,"long":-92.2915},{"zip":"71227","city":"Choudrant","state":"LA","lat":32.5556,"long":-92.5224},{"zip":"71235","city":"Dubach","state":"LA","lat":32.6949,"long":-92.6785},{"zip":"71245","city":"Grambling","state":"LA","lat":32.5244,"long":-92.7158},{"zip":"71270","city":"Ruston","state":"LA","lat":32.5308,"long":-92.6439},{"zip":"71272","city":"Ruston","state":"LA","lat":32.5258,"long":-92.6493},{"zip":"71273","city":"Ruston","state":"LA","lat":32.6065,"long":-92.6484},{"zip":"71275","city":"Simsboro","state":"LA","lat":32.5384,"long":-92.7995},{"zip":"71233","city":"Delta","state":"LA","lat":32.3257,"long":-90.927},{"zip":"71282","city":"Tallulah","state":"LA","lat":32.4326,"long":-91.0645},{"zip":"71284","city":"Tallulah","state":"LA","lat":32.4085,"long":-91.1868},{"zip":"71220","city":"Bastrop","state":"LA","lat":32.7894,"long":-91.9078},{"zip":"71221","city":"Bastrop","state":"LA","lat":32.7562,"long":-91.8723},{"zip":"71223","city":"Bonita","state":"LA","lat":32.9123,"long":-91.6822},{"zip":"71229","city":"Collinston","state":"LA","lat":32.6971,"long":-91.8634},{"zip":"71250","city":"Jones","state":"LA","lat":32.9663,"long":-91.5965},{"zip":"71261","city":"Mer Rouge","state":"LA","lat":32.7718,"long":-91.7716},{"zip":"71264","city":"Oak Ridge","state":"LA","lat":32.6243,"long":-91.7618},{"zip":"71002","city":"Ashland","state":"LA","lat":32.1378,"long":-93.0906},{"zip":"71031","city":"Goldonna","state":"LA","lat":32,"long":-92.9611},{"zip":"71066","city":"Powhatan","state":"LA","lat":31.8741,"long":-93.1966},{"zip":"71411","city":"Campti","state":"LA","lat":31.8959,"long":-93.0936},{"zip":"71414","city":"Clarence","state":"LA","lat":31.8158,"long":-93.0171},{"zip":"71416","city":"Cloutierville","state":"LA","lat":31.5432,"long":-92.9182},{"zip":"71428","city":"Flora","state":"LA","lat":31.6124,"long":-93.098},{"zip":"71434","city":"Gorum","state":"LA","lat":31.433,"long":-92.9435},{"zip":"71450","city":"Marthaville","state":"LA","lat":31.7726,"long":-93.3954},{"zip":"71452","city":"Melrose","state":"LA","lat":31.6104,"long":-92.9745},{"zip":"71455","city":"Mora","state":"LA","lat":31.4016,"long":-92.974},{"zip":"71456","city":"Natchez","state":"LA","lat":31.6615,"long":-93.0241},{"zip":"71457","city":"Natchitoches","state":"LA","lat":31.7617,"long":-93.0916},{"zip":"71458","city":"Natchitoches","state":"LA","lat":31.7476,"long":-93.0791},{"zip":"71468","city":"Provencal","state":"LA","lat":31.5157,"long":-93.1488},{"zip":"71469","city":"Robeline","state":"LA","lat":31.7715,"long":-93.321},{"zip":"71497","city":"Natchitoches","state":"LA","lat":31.7476,"long":-93.0791},{"zip":"71201","city":"Monroe","state":"LA","lat":32.5286,"long":-92.1061},{"zip":"71202","city":"Monroe","state":"LA","lat":32.3868,"long":-92.0722},{"zip":"71203","city":"Monroe","state":"LA","lat":32.553,"long":-92.0422},{"zip":"71207","city":"Monroe","state":"LA","lat":32.5093,"long":-92.1193},{"zip":"71209","city":"Monroe","state":"LA","lat":32.5277,"long":-92.0756},{"zip":"71210","city":"Monroe","state":"LA","lat":32.4908,"long":-92.1594},{"zip":"71211","city":"Monroe","state":"LA","lat":32.4908,"long":-92.1594},{"zip":"71212","city":"Monroe","state":"LA","lat":32.5093,"long":-92.1193},{"zip":"71213","city":"Monroe","state":"LA","lat":32.4908,"long":-92.1594},{"zip":"71217","city":"Monroe","state":"LA","lat":32.5116,"long":-92.0849},{"zip":"71225","city":"Calhoun","state":"LA","lat":32.5248,"long":-92.3299},{"zip":"71240","city":"Fairbanks","state":"LA","lat":32.6443,"long":-92.0365},{"zip":"71280","city":"Sterlington","state":"LA","lat":32.7119,"long":-92.0981},{"zip":"71281","city":"Swartz","state":"LA","lat":32.4908,"long":-92.1594},{"zip":"71291","city":"West Monroe","state":"LA","lat":32.5317,"long":-92.176},{"zip":"71292","city":"West Monroe","state":"LA","lat":32.4566,"long":-92.1854},{"zip":"71294","city":"West Monroe","state":"LA","lat":32.4908,"long":-92.1594},{"zip":"71301","city":"Alexandria","state":"LA","lat":31.2885,"long":-92.4633},{"zip":"71302","city":"Alexandria","state":"LA","lat":31.2683,"long":-92.4242},{"zip":"71303","city":"Alexandria","state":"LA","lat":31.3048,"long":-92.5089},{"zip":"71306","city":"Alexandria","state":"LA","lat":31.3113,"long":-92.4451},{"zip":"71307","city":"Alexandria","state":"LA","lat":31.2034,"long":-92.5269},{"zip":"71309","city":"Alexandria","state":"LA","lat":31.3047,"long":-92.6196},{"zip":"71315","city":"Alexandria","state":"LA","lat":31.1397,"long":-92.3984},{"zip":"71325","city":"Cheneyville","state":"LA","lat":31.0201,"long":-92.2951},{"zip":"71328","city":"Deville","state":"LA","lat":31.3574,"long":-92.1654},{"zip":"71330","city":"Echo","state":"LA","lat":31.1093,"long":-92.2395},{"zip":"71346","city":"Lecompte","state":"LA","lat":31.106,"long":-92.389},{"zip":"71348","city":"Libuse","state":"LA","lat":31.3541,"long":-92.3335},{"zip":"71359","city":"Pineville","state":"LA","lat":31.3224,"long":-92.4343},{"zip":"71360","city":"Pineville","state":"LA","lat":31.2232,"long":-92.3203},{"zip":"71361","city":"Pineville","state":"LA","lat":31.3692,"long":-92.4198},{"zip":"71365","city":"Ruby","state":"LA","lat":31.1894,"long":-92.2487},{"zip":"71405","city":"Ball","state":"LA","lat":31.4151,"long":-92.3945},{"zip":"71409","city":"Boyce","state":"LA","lat":31.3216,"long":-92.6867},{"zip":"71424","city":"Elmer","state":"LA","lat":31.1465,"long":-92.7171},{"zip":"71427","city":"Flatwoods","state":"LA","lat":31.3849,"long":-92.8812},{"zip":"71430","city":"Forest Hill","state":"LA","lat":31.0243,"long":-92.5108},{"zip":"71431","city":"Gardner","state":"LA","lat":31.2587,"long":-92.6775},{"zip":"71433","city":"Glenmora","state":"LA","lat":31.0262,"long":-92.616},{"zip":"71438","city":"Hineston","state":"LA","lat":31.1669,"long":-92.7375},{"zip":"71447","city":"Lena","state":"LA","lat":31.4207,"long":-92.8312},{"zip":"71448","city":"Longleaf","state":"LA","lat":31.0066,"long":-92.5526},{"zip":"71466","city":"Otis","state":"LA","lat":31.2077,"long":-92.7392},{"zip":"71472","city":"Sieper","state":"LA","lat":31.1976,"long":-92.7858},{"zip":"71477","city":"Tioga","state":"LA","lat":31.3999,"long":-92.6042},{"zip":"71485","city":"Woodworth","state":"LA","lat":31.1635,"long":-92.5322},{"zip":"71019","city":"Coushatta","state":"LA","lat":32.0231,"long":-93.2648},{"zip":"71034","city":"Hall Summit","state":"LA","lat":32.1752,"long":-93.3047},{"zip":"71218","city":"Archibald","state":"LA","lat":32.3632,"long":-91.7693},{"zip":"71232","city":"Delhi","state":"LA","lat":32.3929,"long":-91.4714},{"zip":"71259","city":"Mangham","state":"LA","lat":32.3331,"long":-91.7976},{"zip":"71269","city":"Rayville","state":"LA","lat":32.4456,"long":-91.7433},{"zip":"71279","city":"Start","state":"LA","lat":32.4865,"long":-91.8593},{"zip":"71065","city":"Pleasant Hill","state":"LA","lat":31.8086,"long":-93.5136},{"zip":"71406","city":"Belmont","state":"LA","lat":31.71,"long":-93.4959},{"zip":"71419","city":"Converse","state":"LA","lat":31.7339,"long":-93.6902},{"zip":"71426","city":"Fisher","state":"LA","lat":31.4937,"long":-93.4602},{"zip":"71429","city":"Florien","state":"LA","lat":31.4275,"long":-93.5179},{"zip":"71449","city":"Many","state":"LA","lat":31.5851,"long":-93.4641},{"zip":"71460","city":"Negreet","state":"LA","lat":31.4693,"long":-93.5749},{"zip":"71462","city":"Noble","state":"LA","lat":31.6938,"long":-93.7167},{"zip":"71486","city":"Zwolle","state":"LA","lat":31.6138,"long":-93.6636},{"zip":"71345","city":"Lebeau","state":"LA","lat":30.7292,"long":-91.9755},{"zip":"71353","city":"Melville","state":"LA","lat":30.6626,"long":-91.7565},{"zip":"71356","city":"Morrow","state":"LA","lat":30.8299,"long":-92.0426},{"zip":"71358","city":"Palmetto","state":"LA","lat":30.7065,"long":-91.9114},{"zip":"71357","city":"Newellton","state":"LA","lat":32.0656,"long":-91.2578},{"zip":"71366","city":"Saint Joseph","state":"LA","lat":31.9248,"long":-91.2784},{"zip":"71375","city":"Waterproof","state":"LA","lat":31.8076,"long":-91.3872},{"zip":"71222","city":"Bernice","state":"LA","lat":32.8221,"long":-92.6579},{"zip":"71234","city":"Downsville","state":"LA","lat":32.6525,"long":-92.3745},{"zip":"71241","city":"Farmerville","state":"LA","lat":32.7534,"long":-92.318},{"zip":"71256","city":"Lillie","state":"LA","lat":32.9529,"long":-92.6858},{"zip":"71260","city":"Marion","state":"LA","lat":32.8716,"long":-92.2862},{"zip":"71277","city":"Spearsville","state":"LA","lat":32.955,"long":-92.587},{"zip":"71403","city":"Anacoco","state":"LA","lat":31.2149,"long":-93.3829},{"zip":"71439","city":"Hornbeck","state":"LA","lat":31.3226,"long":-93.3683},{"zip":"71443","city":"Kurthwood","state":"LA","lat":31.3374,"long":-93.1657},{"zip":"71446","city":"Leesville","state":"LA","lat":31.1256,"long":-93.1736},{"zip":"71459","city":"Fort Polk","state":"LA","lat":31.0466,"long":-93.2054},{"zip":"71461","city":"New Llano","state":"LA","lat":31.1149,"long":-93.2716},{"zip":"71474","city":"Simpson","state":"LA","lat":31.257,"long":-93.017},{"zip":"71475","city":"Slagle","state":"LA","lat":31.2024,"long":-93.1274},{"zip":"71496","city":"Leesville","state":"LA","lat":31.1435,"long":-93.261},{"zip":"71018","city":"Cotton Valley","state":"LA","lat":32.819,"long":-93.4259},{"zip":"71021","city":"Cullen","state":"LA","lat":32.9721,"long":-93.4492},{"zip":"71023","city":"Doyline","state":"LA","lat":32.49,"long":-93.3996},{"zip":"71024","city":"Dubberly","state":"LA","lat":32.5192,"long":-93.2142},{"zip":"71039","city":"Heflin","state":"LA","lat":32.447,"long":-93.2852},{"zip":"71055","city":"Minden","state":"LA","lat":32.6323,"long":-93.2886},{"zip":"71058","city":"Minden","state":"LA","lat":32.6154,"long":-93.2868},{"zip":"71071","city":"Sarepta","state":"LA","lat":32.9434,"long":-93.4404},{"zip":"71072","city":"Shongaloo","state":"LA","lat":32.9713,"long":-93.2963},{"zip":"71073","city":"Sibley","state":"LA","lat":32.5095,"long":-93.3009},{"zip":"71075","city":"Springhill","state":"LA","lat":33.0005,"long":-93.4596},{"zip":"71237","city":"Epps","state":"LA","lat":32.6161,"long":-91.4913},{"zip":"71242","city":"Forest","state":"LA","lat":32.8239,"long":-91.3989},{"zip":"71253","city":"Kilbourne","state":"LA","lat":32.9946,"long":-91.3162},{"zip":"71263","city":"Oak Grove","state":"LA","lat":32.8731,"long":-91.4302},{"zip":"71266","city":"Pioneer","state":"LA","lat":32.7154,"long":-91.4648},{"zip":"71404","city":"Atlanta","state":"LA","lat":31.776,"long":-92.7958},{"zip":"71410","city":"Calvin","state":"LA","lat":31.9657,"long":-92.7757},{"zip":"71422","city":"Dodson","state":"LA","lat":32.0701,"long":-92.6783},{"zip":"71440","city":"Joyce","state":"LA","lat":31.9393,"long":-92.5988},{"zip":"71471","city":"Saint Maurice","state":"LA","lat":31.7596,"long":-92.959},{"zip":"71473","city":"Sikes","state":"LA","lat":32.0686,"long":-92.4429},{"zip":"71483","city":"Winnfield","state":"LA","lat":31.9214,"long":-92.6366}]
