[{"zip":"71001","city":"Arcadia","state":"LA","lat":32.5556,"long":-92.9245},{"zip":"71008","city":"Bienville","state":"LA","lat":32.2523,"long":-92.9084},{"zip":"71016","city":"Castor","state":"LA","lat":32.2452,"long":-93.0936},{"zip":"71028","city":"Gibsland","state":"LA","lat":32.5299,"long":-93.0706},{"zip":"71045","city":"Jamestown","state":"LA","lat":32.3613,"long":-93.1848},{"zip":"71068","city":"Ringgold","state":"LA","lat":32.3263,"long":-93.2982},{"zip":"71070","city":"Saline","state":"LA","lat":32.197,"long":-92.917},{"zip":"71080","city":"Taylor","state":"LA","lat":32.366,"long":-93.1011},{"zip":"71006","city":"Benton","state":"LA","lat":32.6976,"long":-93.691},{"zip":"71037","city":"Haughton","state":"LA","lat":32.5507,"long":-93.5657},{"zip":"71051","city":"Elm Grove","state":"LA","lat":32.3886,"long":-93.5026},{"zip":"71064","city":"Plain Dealing","state":"LA","lat":32.9074,"long":-93.6905},{"zip":"71067","city":"Princeton","state":"LA","lat":32.5791,"long":-93.5226},{"zip":"71004","city":"Belcher","state":"LA","lat":32.7544,"long":-93.8508},{"zip":"71007","city":"Bethany","state":"LA","lat":32.3662,"long":-94.0034},{"zip":"71009","city":"Blanchard","state":"LA","lat":32.5719,"long":-93.8871},{"zip":"71029","city":"Gilliam","state":"LA","lat":32.8251,"long":-93.8293},{"zip":"71033","city":"Greenwood","state":"LA","lat":32.4429,"long":-93.973},{"zip":"71043","city":"Hosston","state":"LA","lat":32.8967,"long":-93.8834},{"zip":"71044","city":"Ida","state":"LA","lat":32.9934,"long":-93.9022},{"zip":"71047","city":"Keithville","state":"LA","lat":32.3161,"long":-93.8881},{"zip":"71060","city":"Mooringsport","state":"LA","lat":32.6626,"long":-93.973},{"zip":"71061","city":"Oil City","state":"LA","lat":32.7451,"long":-93.9838},{"zip":"71069","city":"Rodessa","state":"LA","lat":32.9701,"long":-93.9885},{"zip":"71082","city":"Vivian","state":"LA","lat":32.8423,"long":-93.9504},{"zip":"71003","city":"Athens","state":"LA","lat":32.6451,"long":-93.0239},{"zip":"71038","city":"Haynesville","state":"LA","lat":32.9278,"long":-93.0691},{"zip":"71040","city":"Homer","state":"LA","lat":32.7749,"long":-93.0288},{"zip":"71048","city":"Lisbon","state":"LA","lat":32.8452,"long":-92.8878},{"zip":"71079","city":"Summerfield","state":"LA","lat":32.9238,"long":-92.8215},{"zip":"71027","city":"Frierson","state":"LA","lat":32.245,"long":-93.6915},{"zip":"71030","city":"Gloster","state":"LA","lat":32.1858,"long":-93.801},{"zip":"71032","city":"Grand Cane","state":"LA","lat":32.105,"long":-93.7941},{"zip":"71046","city":"Keatchie","state":"LA","lat":32.1622,"long":-93.951},{"zip":"71049","city":"Logansport","state":"LA","lat":31.9943,"long":-93.9627},{"zip":"71050","city":"Longstreet","state":"LA","lat":32.0977,"long":-93.9521},{"zip":"71052","city":"Mansfield","state":"LA","lat":32.0239,"long":-93.698},{"zip":"71063","city":"Pelican","state":"LA","lat":31.8966,"long":-93.5634},{"zip":"71078","city":"Stonewall","state":"LA","lat":32.2848,"long":-93.8003},{"zip":"71002","city":"Ashland","state":"LA","lat":32.1378,"long":-93.0906},{"zip":"71031","city":"Goldonna","state":"LA","lat":32,"long":-92.9611},{"zip":"71066","city":"Powhatan","state":"LA","lat":31.8741,"long":-93.1966},{"zip":"71019","city":"Coushatta","state":"LA","lat":32.0231,"long":-93.2648},{"zip":"71034","city":"Hall Summit","state":"LA","lat":32.1752,"long":-93.3047},{"zip":"71065","city":"Pleasant Hill","state":"LA","lat":31.8086,"long":-93.5136},{"zip":"71018","city":"Cotton Valley","state":"LA","lat":32.819,"long":-93.4259},{"zip":"71021","city":"Cullen","state":"LA","lat":32.9721,"long":-93.4492},{"zip":"71023","city":"Doyline","state":"LA","lat":32.49,"long":-93.3996},{"zip":"71024","city":"Dubberly","state":"LA","lat":32.5192,"long":-93.2142},{"zip":"71039","city":"Heflin","state":"LA","lat":32.447,"long":-93.2852},{"zip":"71055","city":"Minden","state":"LA","lat":32.6323,"long":-93.2886},{"zip":"71058","city":"Minden","state":"LA","lat":32.6154,"long":-93.2868},{"zip":"71071","city":"Sarepta","state":"LA","lat":32.9434,"long":-93.4404},{"zip":"71072","city":"Shongaloo","state":"LA","lat":32.9713,"long":-93.2963},{"zip":"71073","city":"Sibley","state":"LA","lat":32.5095,"long":-93.3009},{"zip":"71075","city":"Springhill","state":"LA","lat":33.0005,"long":-93.4596}]
