[{"zip":"71110","city":"Barksdale Afb","state":"LA","lat":32.5137,"long":-93.6404},{"zip":"71111","city":"Bossier City","state":"LA","lat":32.5449,"long":-93.7038},{"zip":"71112","city":"Bossier City","state":"LA","lat":32.486,"long":-93.6767},{"zip":"71113","city":"Bossier City","state":"LA","lat":32.6276,"long":-93.609},{"zip":"71171","city":"Bossier City","state":"LA","lat":32.516,"long":-93.7321},{"zip":"71172","city":"Bossier City","state":"LA","lat":32.6276,"long":-93.609},{"zip":"71101","city":"Shreveport","state":"LA","lat":32.5037,"long":-93.7487},{"zip":"71102","city":"Shreveport","state":"LA","lat":32.6076,"long":-93.7526},{"zip":"71103","city":"Shreveport","state":"LA","lat":32.4945,"long":-93.7727},{"zip":"71104","city":"Shreveport","state":"LA","lat":32.483,"long":-93.7349},{"zip":"71105","city":"Shreveport","state":"LA","lat":32.4589,"long":-93.7143},{"zip":"71106","city":"Shreveport","state":"LA","lat":32.3912,"long":-93.7116},{"zip":"71107","city":"Shreveport","state":"LA","lat":32.6016,"long":-93.8738},{"zip":"71108","city":"Shreveport","state":"LA","lat":32.4486,"long":-93.7814},{"zip":"71109","city":"Shreveport","state":"LA","lat":32.474,"long":-93.8013},{"zip":"71115","city":"Shreveport","state":"LA","lat":32.3401,"long":-93.6092},{"zip":"71118","city":"Shreveport","state":"LA","lat":32.3977,"long":-93.8025},{"zip":"71119","city":"Shreveport","state":"LA","lat":32.4771,"long":-93.8726},{"zip":"71120","city":"Shreveport","state":"LA","lat":32.6076,"long":-93.7526},{"zip":"71129","city":"Shreveport","state":"LA","lat":32.4141,"long":-93.8742},{"zip":"71130","city":"Shreveport","state":"LA","lat":32.6076,"long":-93.7526},{"zip":"71133","city":"Shreveport","state":"LA","lat":32.6076,"long":-93.7526},{"zip":"71134","city":"Shreveport","state":"LA","lat":32.6076,"long":-93.7526},{"zip":"71135","city":"Shreveport","state":"LA","lat":32.6076,"long":-93.7526},{"zip":"71136","city":"Shreveport","state":"LA","lat":32.6076,"long":-93.7526},{"zip":"71137","city":"Shreveport","state":"LA","lat":32.6076,"long":-93.7526},{"zip":"71138","city":"Shreveport","state":"LA","lat":32.6076,"long":-93.7526},{"zip":"71148","city":"Shreveport","state":"LA","lat":32.6076,"long":-93.7526},{"zip":"71149","city":"Shreveport","state":"LA","lat":32.6076,"long":-93.7526},{"zip":"71150","city":"Shreveport","state":"LA","lat":32.5056,"long":-93.7434},{"zip":"71151","city":"Shreveport","state":"LA","lat":32.6076,"long":-93.7526},{"zip":"71152","city":"Shreveport","state":"LA","lat":32.6076,"long":-93.7526},{"zip":"71153","city":"Shreveport","state":"LA","lat":32.6076,"long":-93.7526},{"zip":"71154","city":"Shreveport","state":"LA","lat":32.6076,"long":-93.7526},{"zip":"71156","city":"Shreveport","state":"LA","lat":32.6076,"long":-93.7526},{"zip":"71161","city":"Shreveport","state":"LA","lat":32.6076,"long":-93.7526},{"zip":"71162","city":"Shreveport","state":"LA","lat":32.6076,"long":-93.7526},{"zip":"71163","city":"Shreveport","state":"LA","lat":32.6076,"long":-93.7526},{"zip":"71164","city":"Shreveport","state":"LA","lat":32.6076,"long":-93.7526},{"zip":"71165","city":"Shreveport","state":"LA","lat":32.6076,"long":-93.7526},{"zip":"71166","city":"Shreveport","state":"LA","lat":32.6076,"long":-93.7526}]
