[{"zip":"71254","city":"Lake Providence","state":"LA","lat":32.8071,"long":-91.1906},{"zip":"71276","city":"Sondheimer","state":"LA","lat":32.5756,"long":-91.1496},{"zip":"71286","city":"Transylvania","state":"LA","lat":32.6705,"long":-91.2288},{"zip":"71219","city":"Baskin","state":"LA","lat":32.2897,"long":-91.7132},{"zip":"71230","city":"Crowville","state":"LA","lat":32.2407,"long":-91.5901},{"zip":"71243","city":"Fort Necessity","state":"LA","lat":32.0434,"long":-91.8257},{"zip":"71249","city":"Jigger","state":"LA","lat":32.0349,"long":-91.7468},{"zip":"71295","city":"Winnsboro","state":"LA","lat":32.1592,"long":-91.7108},{"zip":"71226","city":"Chatham","state":"LA","lat":32.2922,"long":-92.4374},{"zip":"71238","city":"Eros","state":"LA","lat":32.3988,"long":-92.3479},{"zip":"71247","city":"Hodge","state":"LA","lat":32.2768,"long":-92.7235},{"zip":"71251","city":"Jonesboro","state":"LA","lat":32.2483,"long":-92.6944},{"zip":"71268","city":"Quitman","state":"LA","lat":32.3564,"long":-92.7085},{"zip":"71227","city":"Choudrant","state":"LA","lat":32.5556,"long":-92.5224},{"zip":"71235","city":"Dubach","state":"LA","lat":32.6949,"long":-92.6785},{"zip":"71245","city":"Grambling","state":"LA","lat":32.5244,"long":-92.7158},{"zip":"71270","city":"Ruston","state":"LA","lat":32.5308,"long":-92.6439},{"zip":"71272","city":"Ruston","state":"LA","lat":32.5258,"long":-92.6493},{"zip":"71273","city":"Ruston","state":"LA","lat":32.6065,"long":-92.6484},{"zip":"71275","city":"Simsboro","state":"LA","lat":32.5384,"long":-92.7995},{"zip":"71233","city":"Delta","state":"LA","lat":32.3257,"long":-90.927},{"zip":"71282","city":"Tallulah","state":"LA","lat":32.4326,"long":-91.0645},{"zip":"71284","city":"Tallulah","state":"LA","lat":32.4085,"long":-91.1868},{"zip":"71220","city":"Bastrop","state":"LA","lat":32.7894,"long":-91.9078},{"zip":"71221","city":"Bastrop","state":"LA","lat":32.7562,"long":-91.8723},{"zip":"71223","city":"Bonita","state":"LA","lat":32.9123,"long":-91.6822},{"zip":"71229","city":"Collinston","state":"LA","lat":32.6971,"long":-91.8634},{"zip":"71250","city":"Jones","state":"LA","lat":32.9663,"long":-91.5965},{"zip":"71261","city":"Mer Rouge","state":"LA","lat":32.7718,"long":-91.7716},{"zip":"71264","city":"Oak Ridge","state":"LA","lat":32.6243,"long":-91.7618},{"zip":"71201","city":"Monroe","state":"LA","lat":32.5286,"long":-92.1061},{"zip":"71202","city":"Monroe","state":"LA","lat":32.3868,"long":-92.0722},{"zip":"71203","city":"Monroe","state":"LA","lat":32.553,"long":-92.0422},{"zip":"71207","city":"Monroe","state":"LA","lat":32.5093,"long":-92.1193},{"zip":"71209","city":"Monroe","state":"LA","lat":32.5277,"long":-92.0756},{"zip":"71210","city":"Monroe","state":"LA","lat":32.4908,"long":-92.1594},{"zip":"71211","city":"Monroe","state":"LA","lat":32.4908,"long":-92.1594},{"zip":"71212","city":"Monroe","state":"LA","lat":32.5093,"long":-92.1193},{"zip":"71213","city":"Monroe","state":"LA","lat":32.4908,"long":-92.1594},{"zip":"71217","city":"Monroe","state":"LA","lat":32.5116,"long":-92.0849},{"zip":"71225","city":"Calhoun","state":"LA","lat":32.5248,"long":-92.3299},{"zip":"71240","city":"Fairbanks","state":"LA","lat":32.6443,"long":-92.0365},{"zip":"71280","city":"Sterlington","state":"LA","lat":32.7119,"long":-92.0981},{"zip":"71281","city":"Swartz","state":"LA","lat":32.4908,"long":-92.1594},{"zip":"71291","city":"West Monroe","state":"LA","lat":32.5317,"long":-92.176},{"zip":"71292","city":"West Monroe","state":"LA","lat":32.4566,"long":-92.1854},{"zip":"71294","city":"West Monroe","state":"LA","lat":32.4908,"long":-92.1594},{"zip":"71218","city":"Archibald","state":"LA","lat":32.3632,"long":-91.7693},{"zip":"71232","city":"Delhi","state":"LA","lat":32.3929,"long":-91.4714},{"zip":"71259","city":"Mangham","state":"LA","lat":32.3331,"long":-91.7976},{"zip":"71269","city":"Rayville","state":"LA","lat":32.4456,"long":-91.7433},{"zip":"71279","city":"Start","state":"LA","lat":32.4865,"long":-91.8593},{"zip":"71222","city":"Bernice","state":"LA","lat":32.8221,"long":-92.6579},{"zip":"71234","city":"Downsville","state":"LA","lat":32.6525,"long":-92.3745},{"zip":"71241","city":"Farmerville","state":"LA","lat":32.7534,"long":-92.318},{"zip":"71256","city":"Lillie","state":"LA","lat":32.9529,"long":-92.6858},{"zip":"71260","city":"Marion","state":"LA","lat":32.8716,"long":-92.2862},{"zip":"71277","city":"Spearsville","state":"LA","lat":32.955,"long":-92.587},{"zip":"71237","city":"Epps","state":"LA","lat":32.6161,"long":-91.4913},{"zip":"71242","city":"Forest","state":"LA","lat":32.8239,"long":-91.3989},{"zip":"71253","city":"Kilbourne","state":"LA","lat":32.9946,"long":-91.3162},{"zip":"71263","city":"Oak Grove","state":"LA","lat":32.8731,"long":-91.4302},{"zip":"71266","city":"Pioneer","state":"LA","lat":32.7154,"long":-91.4648}]
