[{"zip":"71320","city":"Bordelonville","state":"LA","lat":31.1055,"long":-91.9073},{"zip":"71322","city":"Bunkie","state":"LA","lat":30.8641,"long":-92.1466},{"zip":"71323","city":"Center Point","state":"LA","lat":31.2482,"long":-92.2099},{"zip":"71327","city":"Cottonport","state":"LA","lat":30.9862,"long":-92.0581},{"zip":"71329","city":"Dupont","state":"LA","lat":30.9294,"long":-91.9479},{"zip":"71331","city":"Effie","state":"LA","lat":31.2275,"long":-92.0967},{"zip":"71333","city":"Evergreen","state":"LA","lat":30.9161,"long":-92.067},{"zip":"71339","city":"Hamburg","state":"LA","lat":31.0307,"long":-91.9315},{"zip":"71341","city":"Hessmer","state":"LA","lat":31.0534,"long":-92.1399},{"zip":"71350","city":"Mansura","state":"LA","lat":31.0615,"long":-92.0543},{"zip":"71351","city":"Marksville","state":"LA","lat":31.1396,"long":-92.0831},{"zip":"71355","city":"Moreauville","state":"LA","lat":31.0988,"long":-91.8748},{"zip":"71362","city":"Plaucheville","state":"LA","lat":30.9365,"long":-91.9847},{"zip":"71369","city":"Simmesport","state":"LA","lat":30.9771,"long":-91.8259},{"zip":"71340","city":"Harrisonburg","state":"LA","lat":31.7779,"long":-91.8133},{"zip":"71343","city":"Jonesville","state":"LA","lat":31.6862,"long":-91.8678},{"zip":"71363","city":"Rhinehart","state":"LA","lat":31.6377,"long":-92.0068},{"zip":"71368","city":"Sicily Island","state":"LA","lat":31.8507,"long":-91.6807},{"zip":"71316","city":"Acme","state":"LA","lat":31.3016,"long":-91.8216},{"zip":"71326","city":"Clayton","state":"LA","lat":31.7158,"long":-91.5163},{"zip":"71334","city":"Ferriday","state":"LA","lat":31.6602,"long":-91.5502},{"zip":"71354","city":"Monterey","state":"LA","lat":31.4499,"long":-91.7182},{"zip":"71373","city":"Vidalia","state":"LA","lat":31.5782,"long":-91.4695},{"zip":"71377","city":"Wildsville","state":"LA","lat":31.6094,"long":-91.7808},{"zip":"71367","city":"Saint Landry","state":"LA","lat":30.8998,"long":-92.2964},{"zip":"71324","city":"Chase","state":"LA","lat":32.0971,"long":-91.699},{"zip":"71336","city":"Gilbert","state":"LA","lat":32.0349,"long":-91.592},{"zip":"71378","city":"Wisner","state":"LA","lat":31.9913,"long":-91.6768},{"zip":"71342","city":"Jena","state":"LA","lat":31.6748,"long":-92.1137},{"zip":"71371","city":"Trout","state":"LA","lat":31.6531,"long":-92.1993},{"zip":"71301","city":"Alexandria","state":"LA","lat":31.2885,"long":-92.4633},{"zip":"71302","city":"Alexandria","state":"LA","lat":31.2683,"long":-92.4242},{"zip":"71303","city":"Alexandria","state":"LA","lat":31.3048,"long":-92.5089},{"zip":"71306","city":"Alexandria","state":"LA","lat":31.3113,"long":-92.4451},{"zip":"71307","city":"Alexandria","state":"LA","lat":31.2034,"long":-92.5269},{"zip":"71309","city":"Alexandria","state":"LA","lat":31.3047,"long":-92.6196},{"zip":"71315","city":"Alexandria","state":"LA","lat":31.1397,"long":-92.3984},{"zip":"71325","city":"Cheneyville","state":"LA","lat":31.0201,"long":-92.2951},{"zip":"71328","city":"Deville","state":"LA","lat":31.3574,"long":-92.1654},{"zip":"71330","city":"Echo","state":"LA","lat":31.1093,"long":-92.2395},{"zip":"71346","city":"Lecompte","state":"LA","lat":31.106,"long":-92.389},{"zip":"71348","city":"Libuse","state":"LA","lat":31.3541,"long":-92.3335},{"zip":"71359","city":"Pineville","state":"LA","lat":31.3224,"long":-92.4343},{"zip":"71360","city":"Pineville","state":"LA","lat":31.2232,"long":-92.3203},{"zip":"71361","city":"Pineville","state":"LA","lat":31.3692,"long":-92.4198},{"zip":"71365","city":"Ruby","state":"LA","lat":31.1894,"long":-92.2487},{"zip":"71345","city":"Lebeau","state":"LA","lat":30.7292,"long":-91.9755},{"zip":"71353","city":"Melville","state":"LA","lat":30.6626,"long":-91.7565},{"zip":"71356","city":"Morrow","state":"LA","lat":30.8299,"long":-92.0426},{"zip":"71358","city":"Palmetto","state":"LA","lat":30.7065,"long":-91.9114},{"zip":"71357","city":"Newellton","state":"LA","lat":32.0656,"long":-91.2578},{"zip":"71366","city":"Saint Joseph","state":"LA","lat":31.9248,"long":-91.2784},{"zip":"71375","city":"Waterproof","state":"LA","lat":31.8076,"long":-91.3872}]
