[{"zip":"71463","city":"Oakdale","state":"LA","lat":30.8172,"long":-92.664},{"zip":"71415","city":"Clarks","state":"LA","lat":32.0344,"long":-92.1381},{"zip":"71418","city":"Columbia","state":"LA","lat":32.1022,"long":-92.1177},{"zip":"71435","city":"Grayson","state":"LA","lat":32.067,"long":-92.1698},{"zip":"71441","city":"Kelly","state":"LA","lat":31.9648,"long":-92.1825},{"zip":"71401","city":"Aimwell","state":"LA","lat":31.7835,"long":-91.9935},{"zip":"71425","city":"Enterprise","state":"LA","lat":31.9064,"long":-91.8751},{"zip":"71407","city":"Bentley","state":"LA","lat":31.5157,"long":-92.4882},{"zip":"71417","city":"Colfax","state":"LA","lat":31.5079,"long":-92.6568},{"zip":"71423","city":"Dry Prong","state":"LA","lat":31.5979,"long":-92.5665},{"zip":"71432","city":"Georgetown","state":"LA","lat":31.745,"long":-92.3952},{"zip":"71454","city":"Montgomery","state":"LA","lat":31.6674,"long":-92.8412},{"zip":"71467","city":"Pollock","state":"LA","lat":31.5,"long":-92.4005},{"zip":"71465","city":"Olla","state":"LA","lat":31.8734,"long":-92.2214},{"zip":"71479","city":"Tullos","state":"LA","lat":31.8569,"long":-92.374},{"zip":"71480","city":"Urania","state":"LA","lat":31.865,"long":-92.2915},{"zip":"71411","city":"Campti","state":"LA","lat":31.8959,"long":-93.0936},{"zip":"71414","city":"Clarence","state":"LA","lat":31.8158,"long":-93.0171},{"zip":"71416","city":"Cloutierville","state":"LA","lat":31.5432,"long":-92.9182},{"zip":"71428","city":"Flora","state":"LA","lat":31.6124,"long":-93.098},{"zip":"71434","city":"Gorum","state":"LA","lat":31.433,"long":-92.9435},{"zip":"71450","city":"Marthaville","state":"LA","lat":31.7726,"long":-93.3954},{"zip":"71452","city":"Melrose","state":"LA","lat":31.6104,"long":-92.9745},{"zip":"71455","city":"Mora","state":"LA","lat":31.4016,"long":-92.974},{"zip":"71456","city":"Natchez","state":"LA","lat":31.6615,"long":-93.0241},{"zip":"71457","city":"Natchitoches","state":"LA","lat":31.7617,"long":-93.0916},{"zip":"71458","city":"Natchitoches","state":"LA","lat":31.7476,"long":-93.0791},{"zip":"71468","city":"Provencal","state":"LA","lat":31.5157,"long":-93.1488},{"zip":"71469","city":"Robeline","state":"LA","lat":31.7715,"long":-93.321},{"zip":"71497","city":"Natchitoches","state":"LA","lat":31.7476,"long":-93.0791},{"zip":"71405","city":"Ball","state":"LA","lat":31.4151,"long":-92.3945},{"zip":"71409","city":"Boyce","state":"LA","lat":31.3216,"long":-92.6867},{"zip":"71424","city":"Elmer","state":"LA","lat":31.1465,"long":-92.7171},{"zip":"71427","city":"Flatwoods","state":"LA","lat":31.3849,"long":-92.8812},{"zip":"71430","city":"Forest Hill","state":"LA","lat":31.0243,"long":-92.5108},{"zip":"71431","city":"Gardner","state":"LA","lat":31.2587,"long":-92.6775},{"zip":"71433","city":"Glenmora","state":"LA","lat":31.0262,"long":-92.616},{"zip":"71438","city":"Hineston","state":"LA","lat":31.1669,"long":-92.7375},{"zip":"71447","city":"Lena","state":"LA","lat":31.4207,"long":-92.8312},{"zip":"71448","city":"Longleaf","state":"LA","lat":31.0066,"long":-92.5526},{"zip":"71466","city":"Otis","state":"LA","lat":31.2077,"long":-92.7392},{"zip":"71472","city":"Sieper","state":"LA","lat":31.1976,"long":-92.7858},{"zip":"71477","city":"Tioga","state":"LA","lat":31.3999,"long":-92.6042},{"zip":"71485","city":"Woodworth","state":"LA","lat":31.1635,"long":-92.5322},{"zip":"71406","city":"Belmont","state":"LA","lat":31.71,"long":-93.4959},{"zip":"71419","city":"Converse","state":"LA","lat":31.7339,"long":-93.6902},{"zip":"71426","city":"Fisher","state":"LA","lat":31.4937,"long":-93.4602},{"zip":"71429","city":"Florien","state":"LA","lat":31.4275,"long":-93.5179},{"zip":"71449","city":"Many","state":"LA","lat":31.5851,"long":-93.4641},{"zip":"71460","city":"Negreet","state":"LA","lat":31.4693,"long":-93.5749},{"zip":"71462","city":"Noble","state":"LA","lat":31.6938,"long":-93.7167},{"zip":"71486","city":"Zwolle","state":"LA","lat":31.6138,"long":-93.6636},{"zip":"71403","city":"Anacoco","state":"LA","lat":31.2149,"long":-93.3829},{"zip":"71439","city":"Hornbeck","state":"LA","lat":31.3226,"long":-93.3683},{"zip":"71443","city":"Kurthwood","state":"LA","lat":31.3374,"long":-93.1657},{"zip":"71446","city":"Leesville","state":"LA","lat":31.1256,"long":-93.1736},{"zip":"71459","city":"Fort Polk","state":"LA","lat":31.0466,"long":-93.2054},{"zip":"71461","city":"New Llano","state":"LA","lat":31.1149,"long":-93.2716},{"zip":"71474","city":"Simpson","state":"LA","lat":31.257,"long":-93.017},{"zip":"71475","city":"Slagle","state":"LA","lat":31.2024,"long":-93.1274},{"zip":"71496","city":"Leesville","state":"LA","lat":31.1435,"long":-93.261},{"zip":"71404","city":"Atlanta","state":"LA","lat":31.776,"long":-92.7958},{"zip":"71410","city":"Calvin","state":"LA","lat":31.9657,"long":-92.7757},{"zip":"71422","city":"Dodson","state":"LA","lat":32.0701,"long":-92.6783},{"zip":"71440","city":"Joyce","state":"LA","lat":31.9393,"long":-92.5988},{"zip":"71471","city":"Saint Maurice","state":"LA","lat":31.7596,"long":-92.959},{"zip":"71473","city":"Sikes","state":"LA","lat":32.0686,"long":-92.4429},{"zip":"71483","city":"Winnfield","state":"LA","lat":31.9214,"long":-92.6366}]
