[{"zip":"71635","city":"Crossett","state":"AR","lat":33.156,"long":-91.9975},{"zip":"71642","city":"Fountain Hill","state":"AR","lat":33.3631,"long":-91.9088},{"zip":"71646","city":"Hamburg","state":"AR","lat":33.2058,"long":-91.8023},{"zip":"71658","city":"Montrose","state":"AR","lat":33.3075,"long":-91.5228},{"zip":"71661","city":"Parkdale","state":"AR","lat":33.1213,"long":-91.5428},{"zip":"71663","city":"Portland","state":"AR","lat":33.2318,"long":-91.5139},{"zip":"71676","city":"Wilmot","state":"AR","lat":33.0576,"long":-91.5723},{"zip":"71631","city":"Banks","state":"AR","lat":33.5497,"long":-92.2604},{"zip":"71647","city":"Hermitage","state":"AR","lat":33.39,"long":-92.156},{"zip":"71651","city":"Jersey","state":"AR","lat":33.3889,"long":-92.2966},{"zip":"71671","city":"Warren","state":"AR","lat":33.614,"long":-92.0778},{"zip":"71638","city":"Dermott","state":"AR","lat":33.5241,"long":-91.4394},{"zip":"71640","city":"Eudora","state":"AR","lat":33.1213,"long":-91.2716},{"zip":"71653","city":"Lake Village","state":"AR","lat":33.3274,"long":-91.2825},{"zip":"71652","city":"Kingsland","state":"AR","lat":33.86,"long":-92.3014},{"zip":"71660","city":"New Edinburg","state":"AR","lat":33.7588,"long":-92.1939},{"zip":"71665","city":"Rison","state":"AR","lat":33.9453,"long":-92.1188},{"zip":"71630","city":"Arkansas City","state":"AR","lat":33.6143,"long":-91.2325},{"zip":"71639","city":"Dumas","state":"AR","lat":33.8921,"long":-91.4861},{"zip":"71654","city":"Mc Gehee","state":"AR","lat":33.6297,"long":-91.3928},{"zip":"71662","city":"Pickens","state":"AR","lat":33.842,"long":-91.5022},{"zip":"71666","city":"Rohwer","state":"AR","lat":33.7609,"long":-91.2757},{"zip":"71670","city":"Tillar","state":"AR","lat":33.6981,"long":-91.4433},{"zip":"71674","city":"Watson","state":"AR","lat":33.8907,"long":-91.2815},{"zip":"71655","city":"Monticello","state":"AR","lat":33.625,"long":-91.7948},{"zip":"71656","city":"Monticello","state":"AR","lat":33.629,"long":-91.791},{"zip":"71657","city":"Monticello","state":"AR","lat":33.629,"long":-91.791},{"zip":"71675","city":"Wilmar","state":"AR","lat":33.6213,"long":-91.9257},{"zip":"71677","city":"Winchester","state":"AR","lat":33.7471,"long":-91.4649},{"zip":"71601","city":"Pine Bluff","state":"AR","lat":34.209,"long":-91.9859},{"zip":"71602","city":"White Hall","state":"AR","lat":34.274,"long":-92.091},{"zip":"71603","city":"Pine Bluff","state":"AR","lat":34.1897,"long":-92.0448},{"zip":"71611","city":"Pine Bluff","state":"AR","lat":34.2615,"long":-91.9551},{"zip":"71612","city":"White Hall","state":"AR","lat":34.274,"long":-92.091},{"zip":"71613","city":"Pine Bluff","state":"AR","lat":34.1579,"long":-92.0713},{"zip":"71659","city":"Moscow","state":"AR","lat":34.1537,"long":-91.8112},{"zip":"71643","city":"Gould","state":"AR","lat":34.0345,"long":-91.5768},{"zip":"71644","city":"Grady","state":"AR","lat":34.1032,"long":-91.7057},{"zip":"71667","city":"Star City","state":"AR","lat":33.9405,"long":-91.8653},{"zip":"71678","city":"Yorktown","state":"AR","lat":33.9787,"long":-91.6991}]
