[{"zip":"71744","city":"Hampton","state":"AR","lat":33.5376,"long":-92.5295},{"zip":"71745","city":"Harrell","state":"AR","lat":33.5101,"long":-92.3988},{"zip":"71766","city":"Thornton","state":"AR","lat":33.7768,"long":-92.4862},{"zip":"71721","city":"Beirne","state":"AR","lat":33.8887,"long":-93.2041},{"zip":"71728","city":"Curtis","state":"AR","lat":34.0103,"long":-93.0976},{"zip":"71743","city":"Gurdon","state":"AR","lat":33.9125,"long":-93.1417},{"zip":"71772","city":"Whelen Springs","state":"AR","lat":33.8309,"long":-93.1263},{"zip":"71740","city":"Emerson","state":"AR","lat":33.0891,"long":-93.1987},{"zip":"71752","city":"Mc Neil","state":"AR","lat":33.3622,"long":-93.193},{"zip":"71753","city":"Magnolia","state":"AR","lat":33.2647,"long":-93.2392},{"zip":"71754","city":"Magnolia","state":"AR","lat":33.2426,"long":-93.23},{"zip":"71770","city":"Waldo","state":"AR","lat":33.36,"long":-93.2949},{"zip":"71725","city":"Carthage","state":"AR","lat":34.0751,"long":-92.5554},{"zip":"71742","city":"Fordyce","state":"AR","lat":33.8176,"long":-92.4225},{"zip":"71748","city":"Ivan","state":"AR","lat":33.9118,"long":-92.4246},{"zip":"71763","city":"Sparkman","state":"AR","lat":33.9143,"long":-92.8532},{"zip":"71722","city":"Bluff City","state":"AR","lat":33.7038,"long":-93.1588},{"zip":"71701","city":"Camden","state":"AR","lat":33.5948,"long":-92.8513},{"zip":"71711","city":"Camden","state":"AR","lat":33.589,"long":-92.8426},{"zip":"71720","city":"Bearden","state":"AR","lat":33.7298,"long":-92.618},{"zip":"71726","city":"Chidester","state":"AR","lat":33.6652,"long":-92.9969},{"zip":"71751","city":"Louann","state":"AR","lat":33.4169,"long":-92.777},{"zip":"71764","city":"Stephens","state":"AR","lat":33.455,"long":-93.0214},{"zip":"71724","city":"Calion","state":"AR","lat":33.3261,"long":-92.5464},{"zip":"71730","city":"El Dorado","state":"AR","lat":33.2073,"long":-92.6629},{"zip":"71731","city":"El Dorado","state":"AR","lat":33.2076,"long":-92.6663},{"zip":"71747","city":"Huttig","state":"AR","lat":33.0459,"long":-92.1942},{"zip":"71749","city":"Junction City","state":"AR","lat":33.0163,"long":-92.7243},{"zip":"71750","city":"Lawson","state":"AR","lat":33.1968,"long":-92.4829},{"zip":"71758","city":"Mount Holly","state":"AR","lat":33.3085,"long":-92.9443},{"zip":"71759","city":"Norphlet","state":"AR","lat":33.316,"long":-92.6629},{"zip":"71762","city":"Smackover","state":"AR","lat":33.3398,"long":-92.7442},{"zip":"71765","city":"Strong","state":"AR","lat":33.1195,"long":-92.3621}]
