[{"zip":"71861","city":"Taylor","state":"AR","lat":33.108,"long":-93.446},{"zip":"71801","city":"Hope","state":"AR","lat":33.6736,"long":-93.6068},{"zip":"71802","city":"Hope","state":"AR","lat":33.6671,"long":-93.5916},{"zip":"71825","city":"Blevins","state":"AR","lat":33.8718,"long":-93.5771},{"zip":"71831","city":"Columbus","state":"AR","lat":33.7935,"long":-93.807},{"zip":"71838","city":"Fulton","state":"AR","lat":33.6299,"long":-93.8086},{"zip":"71847","city":"Mc Caskill","state":"AR","lat":33.923,"long":-93.6266},{"zip":"71855","city":"Ozan","state":"AR","lat":33.9028,"long":-93.7714},{"zip":"71862","city":"Washington","state":"AR","lat":33.7546,"long":-93.6735},{"zip":"71833","city":"Dierks","state":"AR","lat":34.1323,"long":-94.0152},{"zip":"71851","city":"Mineral Springs","state":"AR","lat":33.8639,"long":-93.9188},{"zip":"71852","city":"Nashville","state":"AR","lat":33.9576,"long":-93.8707},{"zip":"71859","city":"Saratoga","state":"AR","lat":33.7599,"long":-93.8767},{"zip":"71826","city":"Bradley","state":"AR","lat":33.107,"long":-93.6275},{"zip":"71827","city":"Buckner","state":"AR","lat":33.3753,"long":-93.447},{"zip":"71839","city":"Garland City","state":"AR","lat":33.3352,"long":-93.7316},{"zip":"71845","city":"Lewisville","state":"AR","lat":33.3736,"long":-93.5953},{"zip":"71860","city":"Stamps","state":"AR","lat":33.3569,"long":-93.5013},{"zip":"71820","city":"Alleene","state":"AR","lat":33.7944,"long":-94.2681},{"zip":"71822","city":"Ashdown","state":"AR","lat":33.6787,"long":-94.1351},{"zip":"71836","city":"Foreman","state":"AR","lat":33.7176,"long":-94.3881},{"zip":"71853","city":"Ogden","state":"AR","lat":33.5826,"long":-94.0427},{"zip":"71865","city":"Wilton","state":"AR","lat":33.7475,"long":-94.1518},{"zip":"71866","city":"Winthrop","state":"AR","lat":33.8583,"long":-94.3952},{"zip":"71834","city":"Doddridge","state":"AR","lat":33.1054,"long":-93.9543},{"zip":"71837","city":"Fouke","state":"AR","lat":33.3025,"long":-93.901},{"zip":"71840","city":"Genoa","state":"AR","lat":33.3837,"long":-93.9096},{"zip":"71854","city":"Texarkana","state":"AR","lat":33.431,"long":-93.8765},{"zip":"71828","city":"Cale","state":"AR","lat":33.7008,"long":-93.2941},{"zip":"71835","city":"Emmet","state":"AR","lat":33.6929,"long":-93.4232},{"zip":"71857","city":"Prescott","state":"AR","lat":33.804,"long":-93.3725},{"zip":"71858","city":"Rosston","state":"AR","lat":33.5926,"long":-93.2766},{"zip":"71864","city":"Willisville","state":"AR","lat":33.7008,"long":-93.2941},{"zip":"71823","city":"Ben Lomond","state":"AR","lat":33.8115,"long":-94.1251},{"zip":"71832","city":"De Queen","state":"AR","lat":34.0442,"long":-94.3386},{"zip":"71841","city":"Gillham","state":"AR","lat":34.157,"long":-94.3165},{"zip":"71842","city":"Horatio","state":"AR","lat":33.9392,"long":-94.2959},{"zip":"71846","city":"Lockesburg","state":"AR","lat":33.9306,"long":-94.1276}]
