[{"zip":"71920","city":"Alpine","state":"AR","lat":34.229,"long":-93.3791},{"zip":"71921","city":"Amity","state":"AR","lat":34.2594,"long":-93.4206},{"zip":"71923","city":"Arkadelphia","state":"AR","lat":34.1153,"long":-93.069},{"zip":"71962","city":"Okolona","state":"AR","lat":34.0551,"long":-93.2897},{"zip":"71998","city":"Arkadelphia","state":"AR","lat":34.0555,"long":-93.1894},{"zip":"71999","city":"Arkadelphia","state":"AR","lat":34.0555,"long":-93.1894},{"zip":"71901","city":"Hot Springs National Park","state":"AR","lat":34.5268,"long":-92.9587},{"zip":"71902","city":"Hot Springs National Park","state":"AR","lat":34.5814,"long":-93.0994},{"zip":"71903","city":"Hot Springs National Park","state":"AR","lat":34.5814,"long":-93.0994},{"zip":"71909","city":"Hot Springs Village","state":"AR","lat":34.6484,"long":-92.983},{"zip":"71910","city":"Hot Springs Village","state":"AR","lat":34.672,"long":-92.9988},{"zip":"71913","city":"Hot Springs National Park","state":"AR","lat":34.4689,"long":-93.043},{"zip":"71914","city":"Hot Springs National Park","state":"AR","lat":34.5137,"long":-92.9685},{"zip":"71949","city":"Jessieville","state":"AR","lat":34.7094,"long":-93.0382},{"zip":"71956","city":"Mountain Pine","state":"AR","lat":34.5976,"long":-93.1539},{"zip":"71964","city":"Pearcy","state":"AR","lat":34.4351,"long":-93.242},{"zip":"71968","city":"Royal","state":"AR","lat":34.515,"long":-93.2897},{"zip":"71929","city":"Bismarck","state":"AR","lat":34.311,"long":-93.1872},{"zip":"71933","city":"Bonnerdale","state":"AR","lat":34.3498,"long":-93.3194},{"zip":"71941","city":"Donaldson","state":"AR","lat":34.2212,"long":-92.9094},{"zip":"71942","city":"Friendship","state":"AR","lat":34.2235,"long":-93.0024},{"zip":"71971","city":"Umpire","state":"AR","lat":34.2921,"long":-94.0314},{"zip":"71935","city":"Caddo Gap","state":"AR","lat":34.3913,"long":-93.7637},{"zip":"71957","city":"Mount Ida","state":"AR","lat":34.5612,"long":-93.5749},{"zip":"71960","city":"Norman","state":"AR","lat":34.4596,"long":-93.6743},{"zip":"71961","city":"Oden","state":"AR","lat":34.6113,"long":-93.8211},{"zip":"71965","city":"Pencil Bluff","state":"AR","lat":34.6399,"long":-93.7429},{"zip":"71966","city":"Oden","state":"AR","lat":34.619,"long":-93.7769},{"zip":"71969","city":"Sims","state":"AR","lat":34.6462,"long":-93.6741},{"zip":"71970","city":"Story","state":"AR","lat":34.6687,"long":-93.5376},{"zip":"71922","city":"Antoine","state":"AR","lat":34.0362,"long":-93.4207},{"zip":"71940","city":"Delight","state":"AR","lat":34.0238,"long":-93.5247},{"zip":"71943","city":"Glenwood","state":"AR","lat":34.3192,"long":-93.5559},{"zip":"71950","city":"Kirby","state":"AR","lat":34.2513,"long":-93.741},{"zip":"71952","city":"Langley","state":"AR","lat":34.314,"long":-93.8509},{"zip":"71958","city":"Murfreesboro","state":"AR","lat":34.1017,"long":-93.7109},{"zip":"71959","city":"Newhope","state":"AR","lat":34.2273,"long":-93.8905},{"zip":"71932","city":"Board Camp","state":"AR","lat":34.5372,"long":-94.0972},{"zip":"71937","city":"Cove","state":"AR","lat":34.4192,"long":-94.3923},{"zip":"71944","city":"Grannis","state":"AR","lat":34.237,"long":-94.3255},{"zip":"71945","city":"Hatfield","state":"AR","lat":34.4877,"long":-94.3714},{"zip":"71953","city":"Mena","state":"AR","lat":34.5814,"long":-94.221},{"zip":"71972","city":"Vandervoort","state":"AR","lat":34.3941,"long":-94.2535},{"zip":"71973","city":"Wickes","state":"AR","lat":34.3088,"long":-94.3403}]
