[{"zip":"72003","city":"Almyra","state":"AR","lat":34.4146,"long":-91.431},{"zip":"72026","city":"Casscoe","state":"AR","lat":34.5095,"long":-91.299},{"zip":"72038","city":"Crocketts Bluff","state":"AR","lat":34.4528,"long":-91.2692},{"zip":"72042","city":"De Witt","state":"AR","lat":34.2853,"long":-91.3336},{"zip":"72048","city":"Ethel","state":"AR","lat":34.2435,"long":-91.1398},{"zip":"72055","city":"Gillett","state":"AR","lat":34.1218,"long":-91.38},{"zip":"72073","city":"Humphrey","state":"AR","lat":34.4034,"long":-91.679},{"zip":"72140","city":"Saint Charles","state":"AR","lat":34.3878,"long":-91.1463},{"zip":"72160","city":"Stuttgart","state":"AR","lat":34.4854,"long":-91.5487},{"zip":"72166","city":"Tichnor","state":"AR","lat":34.0893,"long":-91.2437},{"zip":"72537","city":"Gamaliel","state":"AR","lat":36.4618,"long":-92.2284},{"zip":"72544","city":"Henderson","state":"AR","lat":36.4105,"long":-92.1951},{"zip":"72617","city":"Big Flat","state":"AR","lat":36.0068,"long":-92.3917},{"zip":"72623","city":"Clarkridge","state":"AR","lat":36.4724,"long":-92.3296},{"zip":"72626","city":"Cotter","state":"AR","lat":36.2712,"long":-92.5354},{"zip":"72635","city":"Gassville","state":"AR","lat":36.3175,"long":-92.4736},{"zip":"72642","city":"Lakeview","state":"AR","lat":36.373,"long":-92.5422},{"zip":"72651","city":"Midway","state":"AR","lat":36.3933,"long":-92.4881},{"zip":"72653","city":"Mountain Home","state":"AR","lat":36.3312,"long":-92.3753},{"zip":"72654","city":"Mountain Home","state":"AR","lat":36.3353,"long":-92.3852},{"zip":"72658","city":"Norfork","state":"AR","lat":36.2066,"long":-92.273},{"zip":"72659","city":"Norfork","state":"AR","lat":36.2095,"long":-92.2843},{"zip":"72711","city":"Avoca","state":"AR","lat":36.4047,"long":-94.0713},{"zip":"72712","city":"Bentonville","state":"AR","lat":36.3577,"long":-94.2224},{"zip":"72714","city":"Bella Vista","state":"AR","lat":36.4676,"long":-94.2166},{"zip":"72715","city":"Bella Vista","state":"AR","lat":36.4677,"long":-94.3209},{"zip":"72716","city":"Bentonville","state":"AR","lat":36.3729,"long":-94.2088},{"zip":"72718","city":"Cave Springs","state":"AR","lat":36.2738,"long":-94.2183},{"zip":"72719","city":"Centerton","state":"AR","lat":36.367,"long":-94.3089},{"zip":"72722","city":"Decatur","state":"AR","lat":36.3347,"long":-94.4534},{"zip":"72732","city":"Garfield","state":"AR","lat":36.4288,"long":-93.9512},{"zip":"72733","city":"Gateway","state":"AR","lat":36.4864,"long":-93.9277},{"zip":"72734","city":"Gentry","state":"AR","lat":36.2652,"long":-94.4751},{"zip":"72736","city":"Gravette","state":"AR","lat":36.4155,"long":-94.4779},{"zip":"72739","city":"Hiwasse","state":"AR","lat":36.4416,"long":-94.339},{"zip":"72745","city":"Lowell","state":"AR","lat":36.2554,"long":-94.1308},{"zip":"72747","city":"Maysville","state":"AR","lat":36.3811,"long":-94.5783},{"zip":"72751","city":"Pea Ridge","state":"AR","lat":36.4539,"long":-94.118},{"zip":"72756","city":"Rogers","state":"AR","lat":36.3363,"long":-94.1148},{"zip":"72757","city":"Rogers","state":"AR","lat":36.332,"long":-94.1185},{"zip":"72758","city":"Rogers","state":"AR","lat":36.3169,"long":-94.1545},{"zip":"72761","city":"Siloam Springs","state":"AR","lat":36.18,"long":-94.528},{"zip":"72768","city":"Sulphur Springs","state":"AR","lat":36.4794,"long":-94.4521},{"zip":"72260","city":"Little Rock","state":"AR","lat":34.7399,"long":-92.34},{"zip":"72601","city":"Harrison","state":"AR","lat":36.2417,"long":-93.1062},{"zip":"72602","city":"Harrison","state":"AR","lat":36.2298,"long":-93.1077},{"zip":"72611","city":"Alpena","state":"AR","lat":36.2998,"long":-93.2792},{"zip":"72615","city":"Bergman","state":"AR","lat":36.3083,"long":-93.0321},{"zip":"72630","city":"Diamond City","state":"AR","lat":36.4645,"long":-92.9202},{"zip":"72633","city":"Everton","state":"AR","lat":36.1534,"long":-92.915},{"zip":"72644","city":"Lead Hill","state":"AR","lat":36.3848,"long":-93.0039},{"zip":"72662","city":"Omaha","state":"AR","lat":36.4612,"long":-93.1888},{"zip":"72682","city":"Valley Springs","state":"AR","lat":36.1351,"long":-92.7541},{"zip":"72613","city":"Beaver","state":"AR","lat":36.4311,"long":-93.6994},{"zip":"72616","city":"Berryville","state":"AR","lat":36.3519,"long":-93.5587},{"zip":"72631","city":"Eureka Springs","state":"AR","lat":36.435,"long":-93.7673},{"zip":"72632","city":"Eureka Springs","state":"AR","lat":36.4175,"long":-93.7379},{"zip":"72638","city":"Green Forest","state":"AR","lat":36.3224,"long":-93.4059},{"zip":"72660","city":"Oak Grove","state":"AR","lat":36.4613,"long":-93.4321},{"zip":"72422","city":"Corning","state":"AR","lat":36.4155,"long":-90.587},{"zip":"72424","city":"Datto","state":"AR","lat":36.3897,"long":-90.7231},{"zip":"72430","city":"Greenway","state":"AR","lat":36.3348,"long":-90.2253},{"zip":"72435","city":"Knobel","state":"AR","lat":36.3176,"long":-90.599},{"zip":"72441","city":"Mc Dougal","state":"AR","lat":36.437,"long":-90.3837},{"zip":"72453","city":"Peach Orchard","state":"AR","lat":36.283,"long":-90.6702},{"zip":"72454","city":"Piggott","state":"AR","lat":36.387,"long":-90.1926},{"zip":"72456","city":"Pollard","state":"AR","lat":36.4317,"long":-90.2751},{"zip":"72461","city":"Rector","state":"AR","lat":36.2672,"long":-90.2702},{"zip":"72464","city":"Saint Francis","state":"AR","lat":36.4534,"long":-90.1454},{"zip":"72470","city":"Success","state":"AR","lat":36.4536,"long":-90.7281},{"zip":"72044","city":"Edgemont","state":"AR","lat":35.6321,"long":-92.157},{"zip":"72067","city":"Higden","state":"AR","lat":35.5685,"long":-92.1341},{"zip":"72130","city":"Prim","state":"AR","lat":35.6674,"long":-92.0933},{"zip":"72131","city":"Quitman","state":"AR","lat":35.405,"long":-92.1333},{"zip":"72179","city":"Wilburn","state":"AR","lat":35.5106,"long":-91.8648},{"zip":"72523","city":"Concord","state":"AR","lat":35.6414,"long":-91.8333},{"zip":"72530","city":"Drasco","state":"AR","lat":35.6616,"long":-91.9398},{"zip":"72543","city":"Heber Springs","state":"AR","lat":35.5103,"long":-92.0392},{"zip":"72545","city":"Heber Springs","state":"AR","lat":35.5352,"long":-92.0213},{"zip":"72546","city":"Ida","state":"AR","lat":35.5816,"long":-91.9305},{"zip":"72581","city":"Tumbling Shoals","state":"AR","lat":35.547,"long":-91.9704},{"zip":"72027","city":"Center Ridge","state":"AR","lat":35.3981,"long":-92.5582},{"zip":"72030","city":"Cleveland","state":"AR","lat":35.3955,"long":-92.702},{"zip":"72063","city":"Hattieville","state":"AR","lat":35.2907,"long":-92.7783},{"zip":"72080","city":"Jerusalem","state":"AR","lat":35.5699,"long":-92.8251},{"zip":"72107","city":"Menifee","state":"AR","lat":35.1356,"long":-92.5498},{"zip":"72110","city":"Morrilton","state":"AR","lat":35.1692,"long":-92.7354},{"zip":"72127","city":"Plumerville","state":"AR","lat":35.1575,"long":-92.6204},{"zip":"72156","city":"Solgohachia","state":"AR","lat":35.2701,"long":-92.6754},{"zip":"72157","city":"Springfield","state":"AR","lat":35.2749,"long":-92.5457},{"zip":"72401","city":"Jonesboro","state":"AR","lat":35.833,"long":-90.6965},{"zip":"72402","city":"Jonesboro","state":"AR","lat":35.8088,"long":-90.6529},{"zip":"72403","city":"Jonesboro","state":"AR","lat":35.8305,"long":-90.7039},{"zip":"72404","city":"Jonesboro","state":"AR","lat":35.7792,"long":-90.766},{"zip":"72411","city":"Bay","state":"AR","lat":35.7456,"long":-90.5507},{"zip":"72414","city":"Black Oak","state":"AR","lat":35.8368,"long":-90.4005},{"zip":"72416","city":"Bono","state":"AR","lat":35.9086,"long":-90.7848},{"zip":"72417","city":"Brookland","state":"AR","lat":35.9165,"long":-90.5762},{"zip":"72419","city":"Caraway","state":"AR","lat":35.759,"long":-90.3358},{"zip":"72421","city":"Cash","state":"AR","lat":35.8301,"long":-90.941},{"zip":"72427","city":"Egypt","state":"AR","lat":35.864,"long":-90.9428},{"zip":"72437","city":"Lake City","state":"AR","lat":35.8171,"long":-90.4423},{"zip":"72447","city":"Monette","state":"AR","lat":35.9002,"long":-90.3437},{"zip":"72467","city":"State University","state":"AR","lat":35.8422,"long":-90.6735},{"zip":"72921","city":"Alma","state":"AR","lat":35.5,"long":-94.2073},{"zip":"72932","city":"Cedarville","state":"AR","lat":35.603,"long":-94.3749},{"zip":"72934","city":"Chester","state":"AR","lat":35.6898,"long":-94.202},{"zip":"72935","city":"Dyer","state":"AR","lat":35.4923,"long":-94.1377},{"zip":"72946","city":"Mountainburg","state":"AR","lat":35.6464,"long":-94.1497},{"zip":"72947","city":"Mulberry","state":"AR","lat":35.5172,"long":-93.9885},{"zip":"72948","city":"Natural Dam","state":"AR","lat":35.6743,"long":-94.4124},{"zip":"72952","city":"Rudy","state":"AR","lat":35.5468,"long":-94.2913},{"zip":"72955","city":"Uniontown","state":"AR","lat":35.5748,"long":-94.4349},{"zip":"72956","city":"Van Buren","state":"AR","lat":35.454,"long":-94.3278},{"zip":"72957","city":"Van Buren","state":"AR","lat":35.4368,"long":-94.3483},{"zip":"72301","city":"West Memphis","state":"AR","lat":35.1484,"long":-90.1779},{"zip":"72303","city":"West Memphis","state":"AR","lat":35.1465,"long":-90.1845},{"zip":"72325","city":"Clarkedale","state":"AR","lat":35.3093,"long":-90.2362},{"zip":"72327","city":"Crawfordsville","state":"AR","lat":35.2119,"long":-90.3351},{"zip":"72331","city":"Earle","state":"AR","lat":35.2799,"long":-90.4503},{"zip":"72332","city":"Edmondson","state":"AR","lat":35.1042,"long":-90.3133},{"zip":"72339","city":"Gilmore","state":"AR","lat":35.4057,"long":-90.2714},{"zip":"72364","city":"Marion","state":"AR","lat":35.2077,"long":-90.1989},{"zip":"72376","city":"Proctor","state":"AR","lat":35.0834,"long":-90.255},{"zip":"72384","city":"Turrell","state":"AR","lat":35.3439,"long":-90.2978},{"zip":"72324","city":"Cherry Valley","state":"AR","lat":35.3991,"long":-90.7613},{"zip":"72347","city":"Hickory Ridge","state":"AR","lat":35.3995,"long":-90.9823},{"zip":"72373","city":"Parkin","state":"AR","lat":35.2586,"long":-90.5564},{"zip":"72387","city":"Vanndale","state":"AR","lat":35.3245,"long":-90.7712},{"zip":"72396","city":"Wynne","state":"AR","lat":35.233,"long":-90.793},{"zip":"72379","city":"Snow Lake","state":"AR","lat":34.0665,"long":-91.0071},{"zip":"72032","city":"Conway","state":"AR","lat":35.0842,"long":-92.4236},{"zip":"72033","city":"Conway","state":"AR","lat":35.1053,"long":-92.3549},{"zip":"72034","city":"Conway","state":"AR","lat":35.0823,"long":-92.4683},{"zip":"72035","city":"Conway","state":"AR","lat":35.1053,"long":-92.3549},{"zip":"72039","city":"Damascus","state":"AR","lat":35.3673,"long":-92.4096},{"zip":"72047","city":"Enola","state":"AR","lat":35.2087,"long":-92.2123},{"zip":"72058","city":"Greenbrier","state":"AR","lat":35.2295,"long":-92.3578},{"zip":"72061","city":"Guy","state":"AR","lat":35.3239,"long":-92.2878},{"zip":"72106","city":"Mayflower","state":"AR","lat":34.9669,"long":-92.4001},{"zip":"72111","city":"Mount Vernon","state":"AR","lat":35.2265,"long":-92.124},{"zip":"72173","city":"Vilonia","state":"AR","lat":35.0719,"long":-92.1832},{"zip":"72181","city":"Wooster","state":"AR","lat":35.1645,"long":-92.453},{"zip":"72820","city":"Alix","state":"AR","lat":35.41,"long":-93.7286},{"zip":"72821","city":"Altus","state":"AR","lat":35.4346,"long":-93.7598},{"zip":"72928","city":"Branch","state":"AR","lat":35.2971,"long":-93.9454},{"zip":"72930","city":"Cecil","state":"AR","lat":35.4252,"long":-94.0409},{"zip":"72933","city":"Charleston","state":"AR","lat":35.3115,"long":-94.0337},{"zip":"72949","city":"Ozark","state":"AR","lat":35.5246,"long":-93.8374},{"zip":"72515","city":"Bexar","state":"AR","lat":36.2901,"long":-92.055},{"zip":"72520","city":"Camp","state":"AR","lat":36.4025,"long":-91.7262},{"zip":"72531","city":"Elizabeth","state":"AR","lat":36.3238,"long":-92.0934},{"zip":"72538","city":"Gepp","state":"AR","lat":36.4364,"long":-92.0995},{"zip":"72539","city":"Glencoe","state":"AR","lat":36.2942,"long":-91.7474},{"zip":"72554","city":"Mammoth Spring","state":"AR","lat":36.4076,"long":-91.5757},{"zip":"72576","city":"Salem","state":"AR","lat":36.3766,"long":-91.8759},{"zip":"72578","city":"Sturkie","state":"AR","lat":36.4747,"long":-91.8891},{"zip":"72583","city":"Viola","state":"AR","lat":36.3924,"long":-91.9932},{"zip":"72087","city":"Lonsdale","state":"AR","lat":34.5562,"long":-92.834},{"zip":"72057","city":"Grapevine","state":"AR","lat":34.1309,"long":-92.3109},{"zip":"72084","city":"Leola","state":"AR","lat":34.1856,"long":-92.5979},{"zip":"72128","city":"Poyen","state":"AR","lat":34.3023,"long":-92.6095},{"zip":"72129","city":"Prattsville","state":"AR","lat":34.3079,"long":-92.5131},{"zip":"72150","city":"Sheridan","state":"AR","lat":34.3165,"long":-92.3657},{"zip":"72412","city":"Beech Grove","state":"AR","lat":36.1281,"long":-90.6914},{"zip":"72425","city":"Delaplaine","state":"AR","lat":36.1995,"long":-90.7345},{"zip":"72436","city":"Lafe","state":"AR","lat":36.2359,"long":-90.4811},{"zip":"72443","city":"Marmaduke","state":"AR","lat":36.1951,"long":-90.3837},{"zip":"72450","city":"Paragould","state":"AR","lat":36.06,"long":-90.5251},{"zip":"72451","city":"Paragould","state":"AR","lat":36.0584,"long":-90.4973},{"zip":"72474","city":"Walcott","state":"AR","lat":36.0413,"long":-90.6718},{"zip":"72019","city":"Benton","state":"AR","lat":34.604,"long":-92.6259},{"zip":"72104","city":"Malvern","state":"AR","lat":34.3557,"long":-92.8292},{"zip":"72105","city":"Jones Mill","state":"AR","lat":34.4374,"long":-92.8943},{"zip":"72165","city":"Thida","state":"AR","lat":35.5762,"long":-91.4539},{"zip":"72501","city":"Batesville","state":"AR","lat":35.7826,"long":-91.6352},{"zip":"72503","city":"Batesville","state":"AR","lat":35.7346,"long":-91.5343},{"zip":"72522","city":"Charlotte","state":"AR","lat":35.8184,"long":-91.4387},{"zip":"72524","city":"Cord","state":"AR","lat":35.8184,"long":-91.3375},{"zip":"72526","city":"Cushman","state":"AR","lat":35.8729,"long":-91.754},{"zip":"72527","city":"Desha","state":"AR","lat":35.7411,"long":-91.6985},{"zip":"72534","city":"Floral","state":"AR","lat":35.6023,"long":-91.7341},{"zip":"72550","city":"Locust Grove","state":"AR","lat":35.7177,"long":-91.7414},{"zip":"72553","city":"Magness","state":"AR","lat":35.6941,"long":-91.4753},{"zip":"72562","city":"Newark","state":"AR","lat":35.7118,"long":-91.4394},{"zip":"72564","city":"Oil Trough","state":"AR","lat":35.6131,"long":-91.4703},{"zip":"72568","city":"Pleasant Plains","state":"AR","lat":35.5893,"long":-91.632},{"zip":"72571","city":"Rosie","state":"AR","lat":35.6638,"long":-91.534},{"zip":"72575","city":"Salado","state":"AR","lat":35.6919,"long":-91.5989},{"zip":"72579","city":"Sulphur Rock","state":"AR","lat":35.7545,"long":-91.5073},{"zip":"72512","city":"Horseshoe Bend","state":"AR","lat":36.2025,"long":-91.7553},{"zip":"72517","city":"Brockwell","state":"AR","lat":36.1358,"long":-91.9513},{"zip":"72519","city":"Calico Rock","state":"AR","lat":36.1202,"long":-92.1867},{"zip":"72528","city":"Dolph","state":"AR","lat":36.2229,"long":-92.1177},{"zip":"72536","city":"Franklin","state":"AR","lat":36.1703,"long":-91.776},{"zip":"72540","city":"Guion","state":"AR","lat":35.9266,"long":-91.9103},{"zip":"72556","city":"Melbourne","state":"AR","lat":36.0635,"long":-91.9079},{"zip":"72561","city":"Mount Pleasant","state":"AR","lat":35.9759,"long":-91.785},{"zip":"72565","city":"Oxford","state":"AR","lat":36.2114,"long":-91.9258},{"zip":"72566","city":"Pineville","state":"AR","lat":36.1677,"long":-92.1073},{"zip":"72573","city":"Sage","state":"AR","lat":36.0688,"long":-91.791},{"zip":"72584","city":"Violet Hill","state":"AR","lat":36.163,"long":-91.8471},{"zip":"72585","city":"Wideman","state":"AR","lat":36.1865,"long":-92.0088},{"zip":"72587","city":"Wiseman","state":"AR","lat":36.2345,"long":-91.8154},{"zip":"72005","city":"Amagon","state":"AR","lat":35.562,"long":-91.1104},{"zip":"72014","city":"Beedeville","state":"AR","lat":35.4291,"long":-91.1057},{"zip":"72043","city":"Diaz","state":"AR","lat":35.6336,"long":-91.2592},{"zip":"72075","city":"Jacksonport","state":"AR","lat":35.6414,"long":-91.3072},{"zip":"72112","city":"Newport","state":"AR","lat":35.5988,"long":-91.2571},{"zip":"72169","city":"Tupelo","state":"AR","lat":35.3844,"long":-91.2232},{"zip":"72431","city":"Grubbs","state":"AR","lat":35.6498,"long":-91.074},{"zip":"72471","city":"Swifton","state":"AR","lat":35.8274,"long":-91.1264},{"zip":"72473","city":"Tuckerman","state":"AR","lat":35.7307,"long":-91.2003},{"zip":"72004","city":"Altheimer","state":"AR","lat":34.3062,"long":-91.8289},{"zip":"72079","city":"Jefferson","state":"AR","lat":34.3934,"long":-92.2029},{"zip":"72132","city":"Redfield","state":"AR","lat":34.4526,"long":-92.1758},{"zip":"72133","city":"Reydell","state":"AR","lat":34.1715,"long":-91.5656},{"zip":"72152","city":"Sherrill","state":"AR","lat":34.3581,"long":-91.9933},{"zip":"72168","city":"Tucker","state":"AR","lat":34.4414,"long":-91.9163},{"zip":"72175","city":"Wabbaseka","state":"AR","lat":34.3936,"long":-91.7549},{"zip":"72182","city":"Wright","state":"AR","lat":34.4291,"long":-92.0599},{"zip":"72830","city":"Clarksville","state":"AR","lat":35.4908,"long":-93.4911},{"zip":"72832","city":"Coal Hill","state":"AR","lat":35.4371,"long":-93.672},{"zip":"72839","city":"Hagarville","state":"AR","lat":35.6155,"long":-93.2726},{"zip":"72840","city":"Hartman","state":"AR","lat":35.4436,"long":-93.6142},{"zip":"72845","city":"Knoxville","state":"AR","lat":35.3749,"long":-93.3618},{"zip":"72846","city":"Lamar","state":"AR","lat":35.4349,"long":-93.3552},{"zip":"72852","city":"Oark","state":"AR","lat":35.7095,"long":-93.5585},{"zip":"72854","city":"Ozone","state":"AR","lat":35.6575,"long":-93.4311},{"zip":"72410","city":"Alicia","state":"AR","lat":35.9423,"long":-91.081},{"zip":"72415","city":"Black Rock","state":"AR","lat":36.1149,"long":-91.1176},{"zip":"72433","city":"Hoxie","state":"AR","lat":36.0326,"long":-90.9715},{"zip":"72434","city":"Imboden","state":"AR","lat":36.1976,"long":-91.1854},{"zip":"72440","city":"Lynn","state":"AR","lat":35.9813,"long":-91.2676},{"zip":"72445","city":"Minturn","state":"AR","lat":35.9728,"long":-91.0235},{"zip":"72457","city":"Portia","state":"AR","lat":36.0865,"long":-91.0673},{"zip":"72458","city":"Powhatan","state":"AR","lat":36.08,"long":-91.1482},{"zip":"72459","city":"Ravenden","state":"AR","lat":36.2029,"long":-91.2593},{"zip":"72465","city":"Sedgwick","state":"AR","lat":35.9643,"long":-90.8954},{"zip":"72466","city":"Smithville","state":"AR","lat":36.0908,"long":-91.2745},{"zip":"72469","city":"Strawberry","state":"AR","lat":35.9673,"long":-91.2935},{"zip":"72476","city":"Walnut Ridge","state":"AR","lat":36.0244,"long":-90.9288},{"zip":"72572","city":"Saffell","state":"AR","lat":35.8781,"long":-91.3004},{"zip":"72311","city":"Aubrey","state":"AR","lat":34.7195,"long":-90.8969},{"zip":"72320","city":"Brickeys","state":"AR","lat":34.8548,"long":-90.5377},{"zip":"72341","city":"Haynes","state":"AR","lat":34.8838,"long":-90.7666},{"zip":"72352","city":"La Grange","state":"AR","lat":34.7697,"long":-90.7552},{"zip":"72360","city":"Marianna","state":"AR","lat":34.7759,"long":-90.7785},{"zip":"72368","city":"Moro","state":"AR","lat":34.803,"long":-91.006},{"zip":"72826","city":"Blue Mountain","state":"AR","lat":35.1602,"long":-93.6183},{"zip":"72835","city":"Delaware","state":"AR","lat":35.278,"long":-93.3462},{"zip":"72851","city":"New Blaine","state":"AR","lat":35.3189,"long":-93.4446},{"zip":"72855","city":"Paris","state":"AR","lat":35.2941,"long":-93.7265},{"zip":"72863","city":"Scranton","state":"AR","lat":35.3585,"long":-93.5454},{"zip":"72865","city":"Subiaco","state":"AR","lat":35.3153,"long":-93.5991},{"zip":"72927","city":"Booneville","state":"AR","lat":35.1364,"long":-93.9274},{"zip":"72943","city":"Magazine","state":"AR","lat":35.1587,"long":-93.8003},{"zip":"72951","city":"Ratcliff","state":"AR","lat":35.2917,"long":-93.8899},{"zip":"72007","city":"Austin","state":"AR","lat":34.9921,"long":-91.9798},{"zip":"72023","city":"Cabot","state":"AR","lat":34.9457,"long":-92.0318},{"zip":"72024","city":"Carlisle","state":"AR","lat":34.7933,"long":-91.7459},{"zip":"72037","city":"Coy","state":"AR","lat":34.5387,"long":-91.874},{"zip":"72046","city":"England","state":"AR","lat":34.5575,"long":-91.9484},{"zip":"72072","city":"Humnoke","state":"AR","lat":34.4857,"long":-91.7624},{"zip":"72083","city":"Keo","state":"AR","lat":34.6041,"long":-92.0078},{"zip":"72086","city":"Lonoke","state":"AR","lat":34.7832,"long":-91.9214},{"zip":"72176","city":"Ward","state":"AR","lat":34.9532,"long":-91.9004},{"zip":"72721","city":"Combs","state":"AR","lat":35.8607,"long":-93.8112},{"zip":"72738","city":"Hindsville","state":"AR","lat":36.1422,"long":-93.8633},{"zip":"72740","city":"Huntsville","state":"AR","lat":36.1043,"long":-93.7279},{"zip":"72742","city":"Kingston","state":"AR","lat":36.0485,"long":-93.5044},{"zip":"72752","city":"Pettigrew","state":"AR","lat":35.8346,"long":-93.6181},{"zip":"72760","city":"Saint Paul","state":"AR","lat":35.8496,"long":-93.7347},{"zip":"72773","city":"Wesley","state":"AR","lat":36.0114,"long":-93.8526},{"zip":"72776","city":"Witter","state":"AR","lat":35.9356,"long":-93.621},{"zip":"72619","city":"Bull Shoals","state":"AR","lat":36.371,"long":-92.5938},{"zip":"72634","city":"Flippin","state":"AR","lat":36.2682,"long":-92.578},{"zip":"72661","city":"Oakland","state":"AR","lat":36.4442,"long":-92.5832},{"zip":"72668","city":"Peel","state":"AR","lat":36.435,"long":-92.7615},{"zip":"72672","city":"Pyatt","state":"AR","lat":36.2486,"long":-92.8416},{"zip":"72677","city":"Summit","state":"AR","lat":36.2523,"long":-92.6907},{"zip":"72687","city":"Yellville","state":"AR","lat":36.2253,"long":-92.7245},{"zip":"72310","city":"Armorel","state":"AR","lat":35.9201,"long":-89.7981},{"zip":"72313","city":"Bassett","state":"AR","lat":35.5365,"long":-90.1268},{"zip":"72315","city":"Blytheville","state":"AR","lat":35.9273,"long":-89.919},{"zip":"72316","city":"Blytheville","state":"AR","lat":35.9273,"long":-89.919},{"zip":"72319","city":"Gosnell","state":"AR","lat":35.9598,"long":-89.972},{"zip":"72321","city":"Burdette","state":"AR","lat":35.8173,"long":-89.9393},{"zip":"72329","city":"Driver","state":"AR","lat":35.6253,"long":-90.0138},{"zip":"72330","city":"Dyess","state":"AR","lat":35.5954,"long":-90.2157},{"zip":"72338","city":"Frenchmans Bayou","state":"AR","lat":35.4591,"long":-90.1884},{"zip":"72350","city":"Joiner","state":"AR","lat":35.5052,"long":-90.1478},{"zip":"72351","city":"Keiser","state":"AR","lat":35.6737,"long":-90.0963},{"zip":"72358","city":"Luxora","state":"AR","lat":35.7608,"long":-89.922},{"zip":"72370","city":"Osceola","state":"AR","lat":35.7019,"long":-89.9798},{"zip":"72391","city":"West Ridge","state":"AR","lat":35.6831,"long":-90.2626},{"zip":"72395","city":"Wilson","state":"AR","lat":35.566,"long":-90.0427},{"zip":"72426","city":"Dell","state":"AR","lat":35.8554,"long":-90.0418},{"zip":"72428","city":"Etowah","state":"AR","lat":35.7337,"long":-90.1838},{"zip":"72438","city":"Leachville","state":"AR","lat":35.9332,"long":-90.1955},{"zip":"72442","city":"Manila","state":"AR","lat":35.8439,"long":-90.1806},{"zip":"72021","city":"Brinkley","state":"AR","lat":34.8781,"long":-91.1886},{"zip":"72029","city":"Clarendon","state":"AR","lat":34.6601,"long":-91.2564},{"zip":"72069","city":"Holly Grove","state":"AR","lat":34.5993,"long":-91.1844},{"zip":"72108","city":"Monroe","state":"AR","lat":34.7348,"long":-91.1046},{"zip":"72134","city":"Roe","state":"AR","lat":34.6286,"long":-91.3771},{"zip":"72624","city":"Compton","state":"AR","lat":36.0979,"long":-93.3099},{"zip":"72628","city":"Deer","state":"AR","lat":35.853,"long":-93.3174},{"zip":"72640","city":"Hasty","state":"AR","lat":36.0152,"long":-93.046},{"zip":"72641","city":"Jasper","state":"AR","lat":36.0038,"long":-93.2048},{"zip":"72648","city":"Marble Falls","state":"AR","lat":36.0695,"long":-93.1566},{"zip":"72655","city":"Mount Judea","state":"AR","lat":35.9407,"long":-93.0654},{"zip":"72666","city":"Parthenon","state":"AR","lat":35.9451,"long":-93.2677},{"zip":"72670","city":"Ponca","state":"AR","lat":36.0242,"long":-93.3646},{"zip":"72683","city":"Vendor","state":"AR","lat":35.9473,"long":-93.0774},{"zip":"72685","city":"Western Grove","state":"AR","lat":36.083,"long":-92.9716},{"zip":"72001","city":"Adona","state":"AR","lat":35.047,"long":-92.9033},{"zip":"72016","city":"Bigelow","state":"AR","lat":34.9847,"long":-92.6308},{"zip":"72025","city":"Casa","state":"AR","lat":35.0322,"long":-93.047},{"zip":"72070","city":"Houston","state":"AR","lat":35.0362,"long":-92.6913},{"zip":"72125","city":"Perry","state":"AR","lat":35.0443,"long":-92.7958},{"zip":"72126","city":"Perryville","state":"AR","lat":34.9701,"long":-92.8472},{"zip":"72312","city":"Barton","state":"AR","lat":34.5467,"long":-90.7679},{"zip":"72328","city":"Crumrod","state":"AR","lat":34.1335,"long":-90.9751},{"zip":"72333","city":"Elaine","state":"AR","lat":34.3118,"long":-90.8939},{"zip":"72342","city":"Helena","state":"AR","lat":34.5325,"long":-90.6298},{"zip":"72353","city":"Lambrook","state":"AR","lat":34.3286,"long":-90.9652},{"zip":"72355","city":"Lexa","state":"AR","lat":34.5979,"long":-90.7523},{"zip":"72366","city":"Marvell","state":"AR","lat":34.5485,"long":-90.9413},{"zip":"72367","city":"Mellwood","state":"AR","lat":34.2198,"long":-90.9504},{"zip":"72369","city":"Oneida","state":"AR","lat":34.4542,"long":-90.7684},{"zip":"72374","city":"Poplar Grove","state":"AR","lat":34.5394,"long":-90.8813},{"zip":"72383","city":"Turner","state":"AR","lat":34.4762,"long":-91.0187},{"zip":"72389","city":"Wabash","state":"AR","lat":34.3466,"long":-90.8869},{"zip":"72390","city":"West Helena","state":"AR","lat":34.5496,"long":-90.6545},{"zip":"72354","city":"Lepanto","state":"AR","lat":35.6069,"long":-90.3359},{"zip":"72365","city":"Marked Tree","state":"AR","lat":35.5349,"long":-90.4194},{"zip":"72377","city":"Rivervale","state":"AR","lat":35.674,"long":-90.3401},{"zip":"72386","city":"Tyronza","state":"AR","lat":35.4865,"long":-90.3519},{"zip":"72429","city":"Fisher","state":"AR","lat":35.514,"long":-90.955},{"zip":"72432","city":"Harrisburg","state":"AR","lat":35.5722,"long":-90.7038},{"zip":"72472","city":"Trumann","state":"AR","lat":35.5882,"long":-90.562},{"zip":"72475","city":"Waldenburg","state":"AR","lat":35.5631,"long":-90.9207},{"zip":"72479","city":"Weiner","state":"AR","lat":35.6291,"long":-90.9289},{"zip":"72679","city":"Tilly","state":"AR","lat":35.7341,"long":-92.8391},{"zip":"72801","city":"Russellville","state":"AR","lat":35.2842,"long":-93.1315},{"zip":"72802","city":"Russellville","state":"AR","lat":35.3067,"long":-93.0712},{"zip":"72811","city":"Russellville","state":"AR","lat":35.2784,"long":-93.1338},{"zip":"72812","city":"Russellville","state":"AR","lat":35.4231,"long":-93.0544},{"zip":"72823","city":"Atkins","state":"AR","lat":35.2449,"long":-92.9507},{"zip":"72837","city":"Dover","state":"AR","lat":35.4074,"long":-93.1355},{"zip":"72843","city":"Hector","state":"AR","lat":35.5499,"long":-92.9616},{"zip":"72847","city":"London","state":"AR","lat":35.3744,"long":-93.2736},{"zip":"72856","city":"Pelsor","state":"AR","lat":35.7854,"long":-93.0812},{"zip":"72858","city":"Pottsville","state":"AR","lat":35.2398,"long":-93.0564},{"zip":"72017","city":"Biscoe","state":"AR","lat":34.8733,"long":-91.3945},{"zip":"72040","city":"Des Arc","state":"AR","lat":34.9751,"long":-91.5113},{"zip":"72041","city":"De Valls Bluff","state":"AR","lat":34.7447,"long":-91.4982},{"zip":"72064","city":"Hazen","state":"AR","lat":34.7838,"long":-91.5767},{"zip":"72066","city":"Hickory Plains","state":"AR","lat":34.9901,"long":-91.7368},{"zip":"72170","city":"Ulm","state":"AR","lat":34.5772,"long":-91.4633},{"zip":"72002","city":"Alexander","state":"AR","lat":34.6313,"long":-92.4727},{"zip":"72053","city":"College Station","state":"AR","lat":34.7093,"long":-92.2283},{"zip":"72065","city":"Hensley","state":"AR","lat":34.5208,"long":-92.2758},{"zip":"72076","city":"Jacksonville","state":"AR","lat":34.919,"long":-92.1419},{"zip":"72078","city":"Jacksonville","state":"AR","lat":34.8662,"long":-92.1101},{"zip":"72099","city":"Little Rock Air Force Base","state":"AR","lat":34.9074,"long":-92.1397},{"zip":"72103","city":"Mabelvale","state":"AR","lat":34.6478,"long":-92.3849},{"zip":"72113","city":"Maumelle","state":"AR","lat":34.8491,"long":-92.4059},{"zip":"72114","city":"North Little Rock","state":"AR","lat":34.7666,"long":-92.2629},{"zip":"72115","city":"North Little Rock","state":"AR","lat":34.7695,"long":-92.2671},{"zip":"72116","city":"North Little Rock","state":"AR","lat":34.8059,"long":-92.2305},{"zip":"72117","city":"North Little Rock","state":"AR","lat":34.7658,"long":-92.1524},{"zip":"72118","city":"North Little Rock","state":"AR","lat":34.8337,"long":-92.3289},{"zip":"72119","city":"North Little Rock","state":"AR","lat":34.8017,"long":-92.2598},{"zip":"72120","city":"Sherwood","state":"AR","lat":34.8807,"long":-92.2303},{"zip":"72124","city":"North Little Rock","state":"AR","lat":34.7519,"long":-92.3925},{"zip":"72135","city":"Roland","state":"AR","lat":34.8829,"long":-92.5192},{"zip":"72142","city":"Scott","state":"AR","lat":34.6942,"long":-92.1157},{"zip":"72164","city":"Sweet Home","state":"AR","lat":34.6873,"long":-92.2399},{"zip":"72180","city":"Woodson","state":"AR","lat":34.5338,"long":-92.2089},{"zip":"72183","city":"Wrightsville","state":"AR","lat":34.6012,"long":-92.1938},{"zip":"72190","city":"North Little Rock","state":"AR","lat":34.7519,"long":-92.3925},{"zip":"72199","city":"North Little Rock","state":"AR","lat":34.8272,"long":-92.2847},{"zip":"72201","city":"Little Rock","state":"AR","lat":34.7483,"long":-92.2819},{"zip":"72202","city":"Little Rock","state":"AR","lat":34.7363,"long":-92.2741},{"zip":"72203","city":"Little Rock","state":"AR","lat":34.8835,"long":-92.3908},{"zip":"72204","city":"Little Rock","state":"AR","lat":34.7269,"long":-92.344},{"zip":"72205","city":"Little Rock","state":"AR","lat":34.751,"long":-92.3455},{"zip":"72206","city":"Little Rock","state":"AR","lat":34.6836,"long":-92.2776},{"zip":"72207","city":"Little Rock","state":"AR","lat":34.7721,"long":-92.3565},{"zip":"72209","city":"Little Rock","state":"AR","lat":34.6725,"long":-92.3529},{"zip":"72210","city":"Little Rock","state":"AR","lat":34.7076,"long":-92.466},{"zip":"72211","city":"Little Rock","state":"AR","lat":34.7413,"long":-92.4222},{"zip":"72212","city":"Little Rock","state":"AR","lat":34.7871,"long":-92.4222},{"zip":"72214","city":"Little Rock","state":"AR","lat":34.7621,"long":-92.2282},{"zip":"72215","city":"Little Rock","state":"AR","lat":34.7519,"long":-92.3925},{"zip":"72216","city":"Little Rock","state":"AR","lat":34.8178,"long":-92.2357},{"zip":"72217","city":"Little Rock","state":"AR","lat":34.8302,"long":-92.1702},{"zip":"72219","city":"Little Rock","state":"AR","lat":34.7519,"long":-92.3925},{"zip":"72221","city":"Little Rock","state":"AR","lat":34.7519,"long":-92.3925},{"zip":"72222","city":"Little Rock","state":"AR","lat":34.7519,"long":-92.3925},{"zip":"72223","city":"Little Rock","state":"AR","lat":34.7902,"long":-92.5044},{"zip":"72225","city":"Little Rock","state":"AR","lat":34.7519,"long":-92.3925},{"zip":"72227","city":"Little Rock","state":"AR","lat":34.7757,"long":-92.3724},{"zip":"72231","city":"Little Rock","state":"AR","lat":34.8019,"long":-92.1894},{"zip":"72295","city":"Little Rock","state":"AR","lat":34.7519,"long":-92.3925},{"zip":"72413","city":"Biggers","state":"AR","lat":36.2844,"long":-90.8538},{"zip":"72444","city":"Maynard","state":"AR","lat":36.4386,"long":-90.8749},{"zip":"72449","city":"O Kean","state":"AR","lat":36.1797,"long":-90.8241},{"zip":"72455","city":"Pocahontas","state":"AR","lat":36.2829,"long":-90.9968},{"zip":"72460","city":"Ravenden Springs","state":"AR","lat":36.3104,"long":-91.2094},{"zip":"72462","city":"Reyno","state":"AR","lat":36.3744,"long":-90.7676},{"zip":"72478","city":"Warm Springs","state":"AR","lat":36.4803,"long":-91.0515},{"zip":"72322","city":"Caldwell","state":"AR","lat":35.0562,"long":-90.8288},{"zip":"72326","city":"Colt","state":"AR","lat":35.0881,"long":-90.8895},{"zip":"72335","city":"Forrest City","state":"AR","lat":35.0091,"long":-90.7886},{"zip":"72336","city":"Forrest City","state":"AR","lat":35.0081,"long":-90.7898},{"zip":"72340","city":"Goodwin","state":"AR","lat":34.9358,"long":-91.0292},{"zip":"72346","city":"Heth","state":"AR","lat":35.0973,"long":-90.4586},{"zip":"72348","city":"Hughes","state":"AR","lat":34.9454,"long":-90.4741},{"zip":"72359","city":"Madison","state":"AR","lat":35.0252,"long":-90.7086},{"zip":"72372","city":"Palestine","state":"AR","lat":34.9663,"long":-90.9049},{"zip":"72392","city":"Wheatley","state":"AR","lat":34.9207,"long":-91.1086},{"zip":"72394","city":"Widener","state":"AR","lat":35.0592,"long":-90.6293},{"zip":"72011","city":"Bauxite","state":"AR","lat":34.5091,"long":-92.4828},{"zip":"72015","city":"Benton","state":"AR","lat":34.4933,"long":-92.5896},{"zip":"72018","city":"Benton","state":"AR","lat":34.5645,"long":-92.5868},{"zip":"72022","city":"Bryant","state":"AR","lat":34.6068,"long":-92.492},{"zip":"72089","city":"Bryant","state":"AR","lat":34.5959,"long":-92.489},{"zip":"72122","city":"Paron","state":"AR","lat":34.7853,"long":-92.7482},{"zip":"72158","city":"Benton","state":"AR","lat":34.635,"long":-92.6597},{"zip":"72167","city":"Traskwood","state":"AR","lat":34.4508,"long":-92.6547},{"zip":"72841","city":"Harvey","state":"AR","lat":34.8762,"long":-93.764},{"zip":"72926","city":"Boles","state":"AR","lat":34.7654,"long":-94.0629},{"zip":"72944","city":"Mansfield","state":"AR","lat":35.0432,"long":-94.2204},{"zip":"72950","city":"Parks","state":"AR","lat":34.8003,"long":-93.9509},{"zip":"72958","city":"Waldron","state":"AR","lat":34.9026,"long":-94.0772},{"zip":"72636","city":"Gilbert","state":"AR","lat":35.9879,"long":-92.7163},{"zip":"72639","city":"Harriet","state":"AR","lat":35.9991,"long":-92.5042},{"zip":"72645","city":"Leslie","state":"AR","lat":35.8272,"long":-92.5663},{"zip":"72650","city":"Marshall","state":"AR","lat":35.9267,"long":-92.6402},{"zip":"72669","city":"Pindall","state":"AR","lat":36.0675,"long":-92.8864},{"zip":"72675","city":"Saint Joe","state":"AR","lat":35.9877,"long":-92.7928},{"zip":"72686","city":"Witts Springs","state":"AR","lat":35.7681,"long":-92.8668},{"zip":"72901","city":"Fort Smith","state":"AR","lat":35.3653,"long":-94.411},{"zip":"72902","city":"Fort Smith","state":"AR","lat":35.3862,"long":-94.4091},{"zip":"72903","city":"Fort Smith","state":"AR","lat":35.3427,"long":-94.3784},{"zip":"72904","city":"Fort Smith","state":"AR","lat":35.4051,"long":-94.3872},{"zip":"72905","city":"Fort Smith","state":"AR","lat":35.3859,"long":-94.3985},{"zip":"72906","city":"Fort Smith","state":"AR","lat":35.3859,"long":-94.3985},{"zip":"72908","city":"Fort Smith","state":"AR","lat":35.3219,"long":-94.4028},{"zip":"72913","city":"Fort Smith","state":"AR","lat":35.3859,"long":-94.3985},{"zip":"72914","city":"Fort Smith","state":"AR","lat":35.3859,"long":-94.3985},{"zip":"72916","city":"Fort Smith","state":"AR","lat":35.2502,"long":-94.3703},{"zip":"72917","city":"Fort Smith","state":"AR","lat":35.3859,"long":-94.3985},{"zip":"72918","city":"Fort Smith","state":"AR","lat":35.3859,"long":-94.3985},{"zip":"72919","city":"Fort Smith","state":"AR","lat":35.3859,"long":-94.3985},{"zip":"72923","city":"Barling","state":"AR","lat":35.333,"long":-94.3082},{"zip":"72936","city":"Greenwood","state":"AR","lat":35.1955,"long":-94.253},{"zip":"72937","city":"Hackett","state":"AR","lat":35.1945,"long":-94.3983},{"zip":"72938","city":"Hartford","state":"AR","lat":35.0222,"long":-94.3819},{"zip":"72940","city":"Huntington","state":"AR","lat":35.0963,"long":-94.3313},{"zip":"72941","city":"Lavaca","state":"AR","lat":35.3661,"long":-94.1917},{"zip":"72945","city":"Midland","state":"AR","lat":35.0932,"long":-94.3533},{"zip":"72482","city":"Williford","state":"AR","lat":36.2453,"long":-91.3792},{"zip":"72513","city":"Ash Flat","state":"AR","lat":36.2201,"long":-91.6421},{"zip":"72521","city":"Cave City","state":"AR","lat":35.9517,"long":-91.5444},{"zip":"72525","city":"Cherokee Village","state":"AR","lat":36.311,"long":-91.597},{"zip":"72529","city":"Cherokee Village","state":"AR","lat":36.3011,"long":-91.5281},{"zip":"72532","city":"Evening Shade","state":"AR","lat":36.0855,"long":-91.598},{"zip":"72542","city":"Hardy","state":"AR","lat":36.3227,"long":-91.411},{"zip":"72569","city":"Poughkeepsie","state":"AR","lat":36.0767,"long":-91.4793},{"zip":"72577","city":"Sidney","state":"AR","lat":36.0664,"long":-91.642},{"zip":"72051","city":"Fox","state":"AR","lat":35.7682,"long":-92.3043},{"zip":"72533","city":"Fifty Six","state":"AR","lat":35.992,"long":-92.2182},{"zip":"72555","city":"Marcella","state":"AR","lat":35.7756,"long":-91.8718},{"zip":"72560","city":"Mountain View","state":"AR","lat":35.8208,"long":-92.0389},{"zip":"72567","city":"Pleasant Grove","state":"AR","lat":35.8265,"long":-91.8958},{"zip":"72657","city":"Timbo","state":"AR","lat":35.919,"long":-92.1272},{"zip":"72663","city":"Onia","state":"AR","lat":35.9403,"long":-92.3459},{"zip":"72680","city":"Timbo","state":"AR","lat":35.8845,"long":-92.2913},{"zip":"72013","city":"Bee Branch","state":"AR","lat":35.4683,"long":-92.3779},{"zip":"72028","city":"Choctaw","state":"AR","lat":35.5773,"long":-92.5456},{"zip":"72031","city":"Clinton","state":"AR","lat":35.6045,"long":-92.4758},{"zip":"72088","city":"Fairfield Bay","state":"AR","lat":35.6027,"long":-92.2742},{"zip":"72141","city":"Scotland","state":"AR","lat":35.508,"long":-92.5867},{"zip":"72153","city":"Shirley","state":"AR","lat":35.6498,"long":-92.3143},{"zip":"72629","city":"Dennard","state":"AR","lat":35.7252,"long":-92.5575},{"zip":"72701","city":"Fayetteville","state":"AR","lat":36.052,"long":-94.1534},{"zip":"72702","city":"Fayetteville","state":"AR","lat":36.0626,"long":-94.1574},{"zip":"72703","city":"Fayetteville","state":"AR","lat":36.0992,"long":-94.1716},{"zip":"72704","city":"Fayetteville","state":"AR","lat":36.0877,"long":-94.3093},{"zip":"72717","city":"Canehill","state":"AR","lat":35.8477,"long":-94.4441},{"zip":"72727","city":"Elkins","state":"AR","lat":36.0177,"long":-94.0073},{"zip":"72728","city":"Elm Springs","state":"AR","lat":36.21,"long":-94.2546},{"zip":"72729","city":"Evansville","state":"AR","lat":35.7823,"long":-94.4638},{"zip":"72730","city":"Farmington","state":"AR","lat":36.0436,"long":-94.2539},{"zip":"72735","city":"Goshen","state":"AR","lat":36.0876,"long":-93.9666},{"zip":"72737","city":"Greenland","state":"AR","lat":35.9942,"long":-94.1752},{"zip":"72741","city":"Johnson","state":"AR","lat":36.1329,"long":-94.1655},{"zip":"72744","city":"Lincoln","state":"AR","lat":35.9569,"long":-94.4272},{"zip":"72749","city":"Morrow","state":"AR","lat":35.8654,"long":-94.4432},{"zip":"72753","city":"Prairie Grove","state":"AR","lat":35.9918,"long":-94.3169},{"zip":"72762","city":"Springdale","state":"AR","lat":36.1835,"long":-94.1762},{"zip":"72764","city":"Springdale","state":"AR","lat":36.1716,"long":-94.0428},{"zip":"72765","city":"Springdale","state":"AR","lat":36.1725,"long":-94.1535},{"zip":"72766","city":"Springdale","state":"AR","lat":36.1867,"long":-94.1288},{"zip":"72769","city":"Summers","state":"AR","lat":36.0138,"long":-94.5},{"zip":"72770","city":"Tontitown","state":"AR","lat":36.15,"long":-94.2429},{"zip":"72774","city":"West Fork","state":"AR","lat":35.9082,"long":-94.2304},{"zip":"72959","city":"Winslow","state":"AR","lat":35.8312,"long":-94.1187},{"zip":"72010","city":"Bald Knob","state":"AR","lat":35.3113,"long":-91.5502},{"zip":"72012","city":"Beebe","state":"AR","lat":35.0937,"long":-91.9074},{"zip":"72020","city":"Bradford","state":"AR","lat":35.4277,"long":-91.519},{"zip":"72045","city":"El Paso","state":"AR","lat":35.1142,"long":-92.0901},{"zip":"72052","city":"Garner","state":"AR","lat":35.1443,"long":-91.7772},{"zip":"72060","city":"Griffithville","state":"AR","lat":35.1144,"long":-91.6242},{"zip":"72068","city":"Higginson","state":"AR","lat":35.1903,"long":-91.7108},{"zip":"72081","city":"Judsonia","state":"AR","lat":35.325,"long":-91.6491},{"zip":"72082","city":"Kensett","state":"AR","lat":35.2388,"long":-91.6731},{"zip":"72085","city":"Letona","state":"AR","lat":35.3617,"long":-91.8293},{"zip":"72102","city":"Mc Rae","state":"AR","lat":35.1132,"long":-91.8216},{"zip":"72121","city":"Pangburn","state":"AR","lat":35.4216,"long":-91.796},{"zip":"72136","city":"Romance","state":"AR","lat":35.2155,"long":-92.0699},{"zip":"72137","city":"Rose Bud","state":"AR","lat":35.3214,"long":-92.062},{"zip":"72139","city":"Russell","state":"AR","lat":35.3609,"long":-91.5071},{"zip":"72143","city":"Searcy","state":"AR","lat":35.2436,"long":-91.7317},{"zip":"72145","city":"Searcy","state":"AR","lat":35.2774,"long":-91.7326},{"zip":"72149","city":"Searcy","state":"AR","lat":35.2474,"long":-91.7314},{"zip":"72178","city":"West Point","state":"AR","lat":35.2032,"long":-91.6064},{"zip":"72006","city":"Augusta","state":"AR","lat":35.2788,"long":-91.3527},{"zip":"72036","city":"Cotton Plant","state":"AR","lat":35.0178,"long":-91.229},{"zip":"72059","city":"Gregory","state":"AR","lat":35.1554,"long":-91.3432},{"zip":"72074","city":"Hunter","state":"AR","lat":35.0529,"long":-91.1262},{"zip":"72101","city":"Mc Crory","state":"AR","lat":35.2473,"long":-91.1793},{"zip":"72123","city":"Patterson","state":"AR","lat":35.2588,"long":-91.237},{"zip":"72824","city":"Belleville","state":"AR","lat":35.1038,"long":-93.4518},{"zip":"72827","city":"Bluffton","state":"AR","lat":34.9016,"long":-93.5919},{"zip":"72828","city":"Briggsville","state":"AR","lat":34.9161,"long":-93.5157},{"zip":"72829","city":"Centerville","state":"AR","lat":35.1018,"long":-93.1773},{"zip":"72833","city":"Danville","state":"AR","lat":35.0495,"long":-93.3929},{"zip":"72834","city":"Dardanelle","state":"AR","lat":35.1955,"long":-93.1873},{"zip":"72838","city":"Gravelly","state":"AR","lat":34.8881,"long":-93.6802},{"zip":"72842","city":"Havana","state":"AR","lat":35.0832,"long":-93.5955},{"zip":"72853","city":"Ola","state":"AR","lat":35.0309,"long":-93.2136},{"zip":"72857","city":"Plainview","state":"AR","lat":34.9668,"long":-93.3099},{"zip":"72860","city":"Rover","state":"AR","lat":34.9475,"long":-93.4017}]
