[{"zip":"72003","city":"Almyra","state":"AR","lat":34.4146,"long":-91.431},{"zip":"72026","city":"Casscoe","state":"AR","lat":34.5095,"long":-91.299},{"zip":"72038","city":"Crocketts Bluff","state":"AR","lat":34.4528,"long":-91.2692},{"zip":"72042","city":"De Witt","state":"AR","lat":34.2853,"long":-91.3336},{"zip":"72048","city":"Ethel","state":"AR","lat":34.2435,"long":-91.1398},{"zip":"72055","city":"Gillett","state":"AR","lat":34.1218,"long":-91.38},{"zip":"72073","city":"Humphrey","state":"AR","lat":34.4034,"long":-91.679},{"zip":"72044","city":"Edgemont","state":"AR","lat":35.6321,"long":-92.157},{"zip":"72067","city":"Higden","state":"AR","lat":35.5685,"long":-92.1341},{"zip":"72027","city":"Center Ridge","state":"AR","lat":35.3981,"long":-92.5582},{"zip":"72030","city":"Cleveland","state":"AR","lat":35.3955,"long":-92.702},{"zip":"72063","city":"Hattieville","state":"AR","lat":35.2907,"long":-92.7783},{"zip":"72080","city":"Jerusalem","state":"AR","lat":35.5699,"long":-92.8251},{"zip":"72032","city":"Conway","state":"AR","lat":35.0842,"long":-92.4236},{"zip":"72033","city":"Conway","state":"AR","lat":35.1053,"long":-92.3549},{"zip":"72034","city":"Conway","state":"AR","lat":35.0823,"long":-92.4683},{"zip":"72035","city":"Conway","state":"AR","lat":35.1053,"long":-92.3549},{"zip":"72039","city":"Damascus","state":"AR","lat":35.3673,"long":-92.4096},{"zip":"72047","city":"Enola","state":"AR","lat":35.2087,"long":-92.2123},{"zip":"72058","city":"Greenbrier","state":"AR","lat":35.2295,"long":-92.3578},{"zip":"72061","city":"Guy","state":"AR","lat":35.3239,"long":-92.2878},{"zip":"72087","city":"Lonsdale","state":"AR","lat":34.5562,"long":-92.834},{"zip":"72057","city":"Grapevine","state":"AR","lat":34.1309,"long":-92.3109},{"zip":"72084","city":"Leola","state":"AR","lat":34.1856,"long":-92.5979},{"zip":"72019","city":"Benton","state":"AR","lat":34.604,"long":-92.6259},{"zip":"72005","city":"Amagon","state":"AR","lat":35.562,"long":-91.1104},{"zip":"72014","city":"Beedeville","state":"AR","lat":35.4291,"long":-91.1057},{"zip":"72043","city":"Diaz","state":"AR","lat":35.6336,"long":-91.2592},{"zip":"72075","city":"Jacksonport","state":"AR","lat":35.6414,"long":-91.3072},{"zip":"72004","city":"Altheimer","state":"AR","lat":34.3062,"long":-91.8289},{"zip":"72079","city":"Jefferson","state":"AR","lat":34.3934,"long":-92.2029},{"zip":"72007","city":"Austin","state":"AR","lat":34.9921,"long":-91.9798},{"zip":"72023","city":"Cabot","state":"AR","lat":34.9457,"long":-92.0318},{"zip":"72024","city":"Carlisle","state":"AR","lat":34.7933,"long":-91.7459},{"zip":"72037","city":"Coy","state":"AR","lat":34.5387,"long":-91.874},{"zip":"72046","city":"England","state":"AR","lat":34.5575,"long":-91.9484},{"zip":"72072","city":"Humnoke","state":"AR","lat":34.4857,"long":-91.7624},{"zip":"72083","city":"Keo","state":"AR","lat":34.6041,"long":-92.0078},{"zip":"72086","city":"Lonoke","state":"AR","lat":34.7832,"long":-91.9214},{"zip":"72021","city":"Brinkley","state":"AR","lat":34.8781,"long":-91.1886},{"zip":"72029","city":"Clarendon","state":"AR","lat":34.6601,"long":-91.2564},{"zip":"72069","city":"Holly Grove","state":"AR","lat":34.5993,"long":-91.1844},{"zip":"72001","city":"Adona","state":"AR","lat":35.047,"long":-92.9033},{"zip":"72016","city":"Bigelow","state":"AR","lat":34.9847,"long":-92.6308},{"zip":"72025","city":"Casa","state":"AR","lat":35.0322,"long":-93.047},{"zip":"72070","city":"Houston","state":"AR","lat":35.0362,"long":-92.6913},{"zip":"72017","city":"Biscoe","state":"AR","lat":34.8733,"long":-91.3945},{"zip":"72040","city":"Des Arc","state":"AR","lat":34.9751,"long":-91.5113},{"zip":"72041","city":"De Valls Bluff","state":"AR","lat":34.7447,"long":-91.4982},{"zip":"72064","city":"Hazen","state":"AR","lat":34.7838,"long":-91.5767},{"zip":"72066","city":"Hickory Plains","state":"AR","lat":34.9901,"long":-91.7368},{"zip":"72002","city":"Alexander","state":"AR","lat":34.6313,"long":-92.4727},{"zip":"72053","city":"College Station","state":"AR","lat":34.7093,"long":-92.2283},{"zip":"72065","city":"Hensley","state":"AR","lat":34.5208,"long":-92.2758},{"zip":"72076","city":"Jacksonville","state":"AR","lat":34.919,"long":-92.1419},{"zip":"72078","city":"Jacksonville","state":"AR","lat":34.8662,"long":-92.1101},{"zip":"72099","city":"Little Rock Air Force Base","state":"AR","lat":34.9074,"long":-92.1397},{"zip":"72011","city":"Bauxite","state":"AR","lat":34.5091,"long":-92.4828},{"zip":"72015","city":"Benton","state":"AR","lat":34.4933,"long":-92.5896},{"zip":"72018","city":"Benton","state":"AR","lat":34.5645,"long":-92.5868},{"zip":"72022","city":"Bryant","state":"AR","lat":34.6068,"long":-92.492},{"zip":"72089","city":"Bryant","state":"AR","lat":34.5959,"long":-92.489},{"zip":"72051","city":"Fox","state":"AR","lat":35.7682,"long":-92.3043},{"zip":"72013","city":"Bee Branch","state":"AR","lat":35.4683,"long":-92.3779},{"zip":"72028","city":"Choctaw","state":"AR","lat":35.5773,"long":-92.5456},{"zip":"72031","city":"Clinton","state":"AR","lat":35.6045,"long":-92.4758},{"zip":"72088","city":"Fairfield Bay","state":"AR","lat":35.6027,"long":-92.2742},{"zip":"72010","city":"Bald Knob","state":"AR","lat":35.3113,"long":-91.5502},{"zip":"72012","city":"Beebe","state":"AR","lat":35.0937,"long":-91.9074},{"zip":"72020","city":"Bradford","state":"AR","lat":35.4277,"long":-91.519},{"zip":"72045","city":"El Paso","state":"AR","lat":35.1142,"long":-92.0901},{"zip":"72052","city":"Garner","state":"AR","lat":35.1443,"long":-91.7772},{"zip":"72060","city":"Griffithville","state":"AR","lat":35.1144,"long":-91.6242},{"zip":"72068","city":"Higginson","state":"AR","lat":35.1903,"long":-91.7108},{"zip":"72081","city":"Judsonia","state":"AR","lat":35.325,"long":-91.6491},{"zip":"72082","city":"Kensett","state":"AR","lat":35.2388,"long":-91.6731},{"zip":"72085","city":"Letona","state":"AR","lat":35.3617,"long":-91.8293},{"zip":"72006","city":"Augusta","state":"AR","lat":35.2788,"long":-91.3527},{"zip":"72036","city":"Cotton Plant","state":"AR","lat":35.0178,"long":-91.229},{"zip":"72059","city":"Gregory","state":"AR","lat":35.1554,"long":-91.3432},{"zip":"72074","city":"Hunter","state":"AR","lat":35.0529,"long":-91.1262}]
