[{"zip":"72140","city":"Saint Charles","state":"AR","lat":34.3878,"long":-91.1463},{"zip":"72160","city":"Stuttgart","state":"AR","lat":34.4854,"long":-91.5487},{"zip":"72166","city":"Tichnor","state":"AR","lat":34.0893,"long":-91.2437},{"zip":"72130","city":"Prim","state":"AR","lat":35.6674,"long":-92.0933},{"zip":"72131","city":"Quitman","state":"AR","lat":35.405,"long":-92.1333},{"zip":"72179","city":"Wilburn","state":"AR","lat":35.5106,"long":-91.8648},{"zip":"72107","city":"Menifee","state":"AR","lat":35.1356,"long":-92.5498},{"zip":"72110","city":"Morrilton","state":"AR","lat":35.1692,"long":-92.7354},{"zip":"72127","city":"Plumerville","state":"AR","lat":35.1575,"long":-92.6204},{"zip":"72156","city":"Solgohachia","state":"AR","lat":35.2701,"long":-92.6754},{"zip":"72157","city":"Springfield","state":"AR","lat":35.2749,"long":-92.5457},{"zip":"72106","city":"Mayflower","state":"AR","lat":34.9669,"long":-92.4001},{"zip":"72111","city":"Mount Vernon","state":"AR","lat":35.2265,"long":-92.124},{"zip":"72173","city":"Vilonia","state":"AR","lat":35.0719,"long":-92.1832},{"zip":"72181","city":"Wooster","state":"AR","lat":35.1645,"long":-92.453},{"zip":"72128","city":"Poyen","state":"AR","lat":34.3023,"long":-92.6095},{"zip":"72129","city":"Prattsville","state":"AR","lat":34.3079,"long":-92.5131},{"zip":"72150","city":"Sheridan","state":"AR","lat":34.3165,"long":-92.3657},{"zip":"72104","city":"Malvern","state":"AR","lat":34.3557,"long":-92.8292},{"zip":"72105","city":"Jones Mill","state":"AR","lat":34.4374,"long":-92.8943},{"zip":"72165","city":"Thida","state":"AR","lat":35.5762,"long":-91.4539},{"zip":"72112","city":"Newport","state":"AR","lat":35.5988,"long":-91.2571},{"zip":"72169","city":"Tupelo","state":"AR","lat":35.3844,"long":-91.2232},{"zip":"72132","city":"Redfield","state":"AR","lat":34.4526,"long":-92.1758},{"zip":"72133","city":"Reydell","state":"AR","lat":34.1715,"long":-91.5656},{"zip":"72152","city":"Sherrill","state":"AR","lat":34.3581,"long":-91.9933},{"zip":"72168","city":"Tucker","state":"AR","lat":34.4414,"long":-91.9163},{"zip":"72175","city":"Wabbaseka","state":"AR","lat":34.3936,"long":-91.7549},{"zip":"72182","city":"Wright","state":"AR","lat":34.4291,"long":-92.0599},{"zip":"72176","city":"Ward","state":"AR","lat":34.9532,"long":-91.9004},{"zip":"72108","city":"Monroe","state":"AR","lat":34.7348,"long":-91.1046},{"zip":"72134","city":"Roe","state":"AR","lat":34.6286,"long":-91.3771},{"zip":"72125","city":"Perry","state":"AR","lat":35.0443,"long":-92.7958},{"zip":"72126","city":"Perryville","state":"AR","lat":34.9701,"long":-92.8472},{"zip":"72170","city":"Ulm","state":"AR","lat":34.5772,"long":-91.4633},{"zip":"72103","city":"Mabelvale","state":"AR","lat":34.6478,"long":-92.3849},{"zip":"72113","city":"Maumelle","state":"AR","lat":34.8491,"long":-92.4059},{"zip":"72114","city":"North Little Rock","state":"AR","lat":34.7666,"long":-92.2629},{"zip":"72115","city":"North Little Rock","state":"AR","lat":34.7695,"long":-92.2671},{"zip":"72116","city":"North Little Rock","state":"AR","lat":34.8059,"long":-92.2305},{"zip":"72117","city":"North Little Rock","state":"AR","lat":34.7658,"long":-92.1524},{"zip":"72118","city":"North Little Rock","state":"AR","lat":34.8337,"long":-92.3289},{"zip":"72119","city":"North Little Rock","state":"AR","lat":34.8017,"long":-92.2598},{"zip":"72120","city":"Sherwood","state":"AR","lat":34.8807,"long":-92.2303},{"zip":"72124","city":"North Little Rock","state":"AR","lat":34.7519,"long":-92.3925},{"zip":"72135","city":"Roland","state":"AR","lat":34.8829,"long":-92.5192},{"zip":"72142","city":"Scott","state":"AR","lat":34.6942,"long":-92.1157},{"zip":"72164","city":"Sweet Home","state":"AR","lat":34.6873,"long":-92.2399},{"zip":"72180","city":"Woodson","state":"AR","lat":34.5338,"long":-92.2089},{"zip":"72183","city":"Wrightsville","state":"AR","lat":34.6012,"long":-92.1938},{"zip":"72190","city":"North Little Rock","state":"AR","lat":34.7519,"long":-92.3925},{"zip":"72199","city":"North Little Rock","state":"AR","lat":34.8272,"long":-92.2847},{"zip":"72122","city":"Paron","state":"AR","lat":34.7853,"long":-92.7482},{"zip":"72158","city":"Benton","state":"AR","lat":34.635,"long":-92.6597},{"zip":"72167","city":"Traskwood","state":"AR","lat":34.4508,"long":-92.6547},{"zip":"72141","city":"Scotland","state":"AR","lat":35.508,"long":-92.5867},{"zip":"72153","city":"Shirley","state":"AR","lat":35.6498,"long":-92.3143},{"zip":"72102","city":"Mc Rae","state":"AR","lat":35.1132,"long":-91.8216},{"zip":"72121","city":"Pangburn","state":"AR","lat":35.4216,"long":-91.796},{"zip":"72136","city":"Romance","state":"AR","lat":35.2155,"long":-92.0699},{"zip":"72137","city":"Rose Bud","state":"AR","lat":35.3214,"long":-92.062},{"zip":"72139","city":"Russell","state":"AR","lat":35.3609,"long":-91.5071},{"zip":"72143","city":"Searcy","state":"AR","lat":35.2436,"long":-91.7317},{"zip":"72145","city":"Searcy","state":"AR","lat":35.2774,"long":-91.7326},{"zip":"72149","city":"Searcy","state":"AR","lat":35.2474,"long":-91.7314},{"zip":"72178","city":"West Point","state":"AR","lat":35.2032,"long":-91.6064},{"zip":"72101","city":"Mc Crory","state":"AR","lat":35.2473,"long":-91.1793},{"zip":"72123","city":"Patterson","state":"AR","lat":35.2588,"long":-91.237}]
