[{"zip":"72260","city":"Little Rock","state":"AR","lat":34.7399,"long":-92.34},{"zip":"72201","city":"Little Rock","state":"AR","lat":34.7483,"long":-92.2819},{"zip":"72202","city":"Little Rock","state":"AR","lat":34.7363,"long":-92.2741},{"zip":"72203","city":"Little Rock","state":"AR","lat":34.8835,"long":-92.3908},{"zip":"72204","city":"Little Rock","state":"AR","lat":34.7269,"long":-92.344},{"zip":"72205","city":"Little Rock","state":"AR","lat":34.751,"long":-92.3455},{"zip":"72206","city":"Little Rock","state":"AR","lat":34.6836,"long":-92.2776},{"zip":"72207","city":"Little Rock","state":"AR","lat":34.7721,"long":-92.3565},{"zip":"72209","city":"Little Rock","state":"AR","lat":34.6725,"long":-92.3529},{"zip":"72210","city":"Little Rock","state":"AR","lat":34.7076,"long":-92.466},{"zip":"72211","city":"Little Rock","state":"AR","lat":34.7413,"long":-92.4222},{"zip":"72212","city":"Little Rock","state":"AR","lat":34.7871,"long":-92.4222},{"zip":"72214","city":"Little Rock","state":"AR","lat":34.7621,"long":-92.2282},{"zip":"72215","city":"Little Rock","state":"AR","lat":34.7519,"long":-92.3925},{"zip":"72216","city":"Little Rock","state":"AR","lat":34.8178,"long":-92.2357},{"zip":"72217","city":"Little Rock","state":"AR","lat":34.8302,"long":-92.1702},{"zip":"72219","city":"Little Rock","state":"AR","lat":34.7519,"long":-92.3925},{"zip":"72221","city":"Little Rock","state":"AR","lat":34.7519,"long":-92.3925},{"zip":"72222","city":"Little Rock","state":"AR","lat":34.7519,"long":-92.3925},{"zip":"72223","city":"Little Rock","state":"AR","lat":34.7902,"long":-92.5044},{"zip":"72225","city":"Little Rock","state":"AR","lat":34.7519,"long":-92.3925},{"zip":"72227","city":"Little Rock","state":"AR","lat":34.7757,"long":-92.3724},{"zip":"72231","city":"Little Rock","state":"AR","lat":34.8019,"long":-92.1894},{"zip":"72295","city":"Little Rock","state":"AR","lat":34.7519,"long":-92.3925}]
