[{"zip":"72301","city":"West Memphis","state":"AR","lat":35.1484,"long":-90.1779},{"zip":"72303","city":"West Memphis","state":"AR","lat":35.1465,"long":-90.1845},{"zip":"72325","city":"Clarkedale","state":"AR","lat":35.3093,"long":-90.2362},{"zip":"72327","city":"Crawfordsville","state":"AR","lat":35.2119,"long":-90.3351},{"zip":"72331","city":"Earle","state":"AR","lat":35.2799,"long":-90.4503},{"zip":"72332","city":"Edmondson","state":"AR","lat":35.1042,"long":-90.3133},{"zip":"72339","city":"Gilmore","state":"AR","lat":35.4057,"long":-90.2714},{"zip":"72364","city":"Marion","state":"AR","lat":35.2077,"long":-90.1989},{"zip":"72376","city":"Proctor","state":"AR","lat":35.0834,"long":-90.255},{"zip":"72384","city":"Turrell","state":"AR","lat":35.3439,"long":-90.2978},{"zip":"72324","city":"Cherry Valley","state":"AR","lat":35.3991,"long":-90.7613},{"zip":"72347","city":"Hickory Ridge","state":"AR","lat":35.3995,"long":-90.9823},{"zip":"72373","city":"Parkin","state":"AR","lat":35.2586,"long":-90.5564},{"zip":"72387","city":"Vanndale","state":"AR","lat":35.3245,"long":-90.7712},{"zip":"72396","city":"Wynne","state":"AR","lat":35.233,"long":-90.793},{"zip":"72379","city":"Snow Lake","state":"AR","lat":34.0665,"long":-91.0071},{"zip":"72311","city":"Aubrey","state":"AR","lat":34.7195,"long":-90.8969},{"zip":"72320","city":"Brickeys","state":"AR","lat":34.8548,"long":-90.5377},{"zip":"72341","city":"Haynes","state":"AR","lat":34.8838,"long":-90.7666},{"zip":"72352","city":"La Grange","state":"AR","lat":34.7697,"long":-90.7552},{"zip":"72360","city":"Marianna","state":"AR","lat":34.7759,"long":-90.7785},{"zip":"72368","city":"Moro","state":"AR","lat":34.803,"long":-91.006},{"zip":"72310","city":"Armorel","state":"AR","lat":35.9201,"long":-89.7981},{"zip":"72313","city":"Bassett","state":"AR","lat":35.5365,"long":-90.1268},{"zip":"72315","city":"Blytheville","state":"AR","lat":35.9273,"long":-89.919},{"zip":"72316","city":"Blytheville","state":"AR","lat":35.9273,"long":-89.919},{"zip":"72319","city":"Gosnell","state":"AR","lat":35.9598,"long":-89.972},{"zip":"72321","city":"Burdette","state":"AR","lat":35.8173,"long":-89.9393},{"zip":"72329","city":"Driver","state":"AR","lat":35.6253,"long":-90.0138},{"zip":"72330","city":"Dyess","state":"AR","lat":35.5954,"long":-90.2157},{"zip":"72338","city":"Frenchmans Bayou","state":"AR","lat":35.4591,"long":-90.1884},{"zip":"72350","city":"Joiner","state":"AR","lat":35.5052,"long":-90.1478},{"zip":"72351","city":"Keiser","state":"AR","lat":35.6737,"long":-90.0963},{"zip":"72358","city":"Luxora","state":"AR","lat":35.7608,"long":-89.922},{"zip":"72370","city":"Osceola","state":"AR","lat":35.7019,"long":-89.9798},{"zip":"72391","city":"West Ridge","state":"AR","lat":35.6831,"long":-90.2626},{"zip":"72395","city":"Wilson","state":"AR","lat":35.566,"long":-90.0427},{"zip":"72312","city":"Barton","state":"AR","lat":34.5467,"long":-90.7679},{"zip":"72328","city":"Crumrod","state":"AR","lat":34.1335,"long":-90.9751},{"zip":"72333","city":"Elaine","state":"AR","lat":34.3118,"long":-90.8939},{"zip":"72342","city":"Helena","state":"AR","lat":34.5325,"long":-90.6298},{"zip":"72353","city":"Lambrook","state":"AR","lat":34.3286,"long":-90.9652},{"zip":"72355","city":"Lexa","state":"AR","lat":34.5979,"long":-90.7523},{"zip":"72366","city":"Marvell","state":"AR","lat":34.5485,"long":-90.9413},{"zip":"72367","city":"Mellwood","state":"AR","lat":34.2198,"long":-90.9504},{"zip":"72369","city":"Oneida","state":"AR","lat":34.4542,"long":-90.7684},{"zip":"72374","city":"Poplar Grove","state":"AR","lat":34.5394,"long":-90.8813},{"zip":"72383","city":"Turner","state":"AR","lat":34.4762,"long":-91.0187},{"zip":"72389","city":"Wabash","state":"AR","lat":34.3466,"long":-90.8869},{"zip":"72390","city":"West Helena","state":"AR","lat":34.5496,"long":-90.6545},{"zip":"72354","city":"Lepanto","state":"AR","lat":35.6069,"long":-90.3359},{"zip":"72365","city":"Marked Tree","state":"AR","lat":35.5349,"long":-90.4194},{"zip":"72377","city":"Rivervale","state":"AR","lat":35.674,"long":-90.3401},{"zip":"72386","city":"Tyronza","state":"AR","lat":35.4865,"long":-90.3519},{"zip":"72322","city":"Caldwell","state":"AR","lat":35.0562,"long":-90.8288},{"zip":"72326","city":"Colt","state":"AR","lat":35.0881,"long":-90.8895},{"zip":"72335","city":"Forrest City","state":"AR","lat":35.0091,"long":-90.7886},{"zip":"72336","city":"Forrest City","state":"AR","lat":35.0081,"long":-90.7898},{"zip":"72340","city":"Goodwin","state":"AR","lat":34.9358,"long":-91.0292},{"zip":"72346","city":"Heth","state":"AR","lat":35.0973,"long":-90.4586},{"zip":"72348","city":"Hughes","state":"AR","lat":34.9454,"long":-90.4741},{"zip":"72359","city":"Madison","state":"AR","lat":35.0252,"long":-90.7086},{"zip":"72372","city":"Palestine","state":"AR","lat":34.9663,"long":-90.9049},{"zip":"72392","city":"Wheatley","state":"AR","lat":34.9207,"long":-91.1086},{"zip":"72394","city":"Widener","state":"AR","lat":35.0592,"long":-90.6293}]
