[{"zip":"72422","city":"Corning","state":"AR","lat":36.4155,"long":-90.587},{"zip":"72424","city":"Datto","state":"AR","lat":36.3897,"long":-90.7231},{"zip":"72430","city":"Greenway","state":"AR","lat":36.3348,"long":-90.2253},{"zip":"72435","city":"Knobel","state":"AR","lat":36.3176,"long":-90.599},{"zip":"72441","city":"Mc Dougal","state":"AR","lat":36.437,"long":-90.3837},{"zip":"72453","city":"Peach Orchard","state":"AR","lat":36.283,"long":-90.6702},{"zip":"72454","city":"Piggott","state":"AR","lat":36.387,"long":-90.1926},{"zip":"72456","city":"Pollard","state":"AR","lat":36.4317,"long":-90.2751},{"zip":"72461","city":"Rector","state":"AR","lat":36.2672,"long":-90.2702},{"zip":"72464","city":"Saint Francis","state":"AR","lat":36.4534,"long":-90.1454},{"zip":"72470","city":"Success","state":"AR","lat":36.4536,"long":-90.7281},{"zip":"72401","city":"Jonesboro","state":"AR","lat":35.833,"long":-90.6965},{"zip":"72402","city":"Jonesboro","state":"AR","lat":35.8088,"long":-90.6529},{"zip":"72403","city":"Jonesboro","state":"AR","lat":35.8305,"long":-90.7039},{"zip":"72404","city":"Jonesboro","state":"AR","lat":35.7792,"long":-90.766},{"zip":"72411","city":"Bay","state":"AR","lat":35.7456,"long":-90.5507},{"zip":"72414","city":"Black Oak","state":"AR","lat":35.8368,"long":-90.4005},{"zip":"72416","city":"Bono","state":"AR","lat":35.9086,"long":-90.7848},{"zip":"72417","city":"Brookland","state":"AR","lat":35.9165,"long":-90.5762},{"zip":"72419","city":"Caraway","state":"AR","lat":35.759,"long":-90.3358},{"zip":"72421","city":"Cash","state":"AR","lat":35.8301,"long":-90.941},{"zip":"72427","city":"Egypt","state":"AR","lat":35.864,"long":-90.9428},{"zip":"72437","city":"Lake City","state":"AR","lat":35.8171,"long":-90.4423},{"zip":"72447","city":"Monette","state":"AR","lat":35.9002,"long":-90.3437},{"zip":"72467","city":"State University","state":"AR","lat":35.8422,"long":-90.6735},{"zip":"72412","city":"Beech Grove","state":"AR","lat":36.1281,"long":-90.6914},{"zip":"72425","city":"Delaplaine","state":"AR","lat":36.1995,"long":-90.7345},{"zip":"72436","city":"Lafe","state":"AR","lat":36.2359,"long":-90.4811},{"zip":"72443","city":"Marmaduke","state":"AR","lat":36.1951,"long":-90.3837},{"zip":"72450","city":"Paragould","state":"AR","lat":36.06,"long":-90.5251},{"zip":"72451","city":"Paragould","state":"AR","lat":36.0584,"long":-90.4973},{"zip":"72474","city":"Walcott","state":"AR","lat":36.0413,"long":-90.6718},{"zip":"72431","city":"Grubbs","state":"AR","lat":35.6498,"long":-91.074},{"zip":"72471","city":"Swifton","state":"AR","lat":35.8274,"long":-91.1264},{"zip":"72473","city":"Tuckerman","state":"AR","lat":35.7307,"long":-91.2003},{"zip":"72410","city":"Alicia","state":"AR","lat":35.9423,"long":-91.081},{"zip":"72415","city":"Black Rock","state":"AR","lat":36.1149,"long":-91.1176},{"zip":"72433","city":"Hoxie","state":"AR","lat":36.0326,"long":-90.9715},{"zip":"72434","city":"Imboden","state":"AR","lat":36.1976,"long":-91.1854},{"zip":"72440","city":"Lynn","state":"AR","lat":35.9813,"long":-91.2676},{"zip":"72445","city":"Minturn","state":"AR","lat":35.9728,"long":-91.0235},{"zip":"72457","city":"Portia","state":"AR","lat":36.0865,"long":-91.0673},{"zip":"72458","city":"Powhatan","state":"AR","lat":36.08,"long":-91.1482},{"zip":"72459","city":"Ravenden","state":"AR","lat":36.2029,"long":-91.2593},{"zip":"72465","city":"Sedgwick","state":"AR","lat":35.9643,"long":-90.8954},{"zip":"72466","city":"Smithville","state":"AR","lat":36.0908,"long":-91.2745},{"zip":"72469","city":"Strawberry","state":"AR","lat":35.9673,"long":-91.2935},{"zip":"72476","city":"Walnut Ridge","state":"AR","lat":36.0244,"long":-90.9288},{"zip":"72426","city":"Dell","state":"AR","lat":35.8554,"long":-90.0418},{"zip":"72428","city":"Etowah","state":"AR","lat":35.7337,"long":-90.1838},{"zip":"72438","city":"Leachville","state":"AR","lat":35.9332,"long":-90.1955},{"zip":"72442","city":"Manila","state":"AR","lat":35.8439,"long":-90.1806},{"zip":"72429","city":"Fisher","state":"AR","lat":35.514,"long":-90.955},{"zip":"72432","city":"Harrisburg","state":"AR","lat":35.5722,"long":-90.7038},{"zip":"72472","city":"Trumann","state":"AR","lat":35.5882,"long":-90.562},{"zip":"72475","city":"Waldenburg","state":"AR","lat":35.5631,"long":-90.9207},{"zip":"72479","city":"Weiner","state":"AR","lat":35.6291,"long":-90.9289},{"zip":"72413","city":"Biggers","state":"AR","lat":36.2844,"long":-90.8538},{"zip":"72444","city":"Maynard","state":"AR","lat":36.4386,"long":-90.8749},{"zip":"72449","city":"O Kean","state":"AR","lat":36.1797,"long":-90.8241},{"zip":"72455","city":"Pocahontas","state":"AR","lat":36.2829,"long":-90.9968},{"zip":"72460","city":"Ravenden Springs","state":"AR","lat":36.3104,"long":-91.2094},{"zip":"72462","city":"Reyno","state":"AR","lat":36.3744,"long":-90.7676},{"zip":"72478","city":"Warm Springs","state":"AR","lat":36.4803,"long":-91.0515},{"zip":"72482","city":"Williford","state":"AR","lat":36.2453,"long":-91.3792}]
