[{"zip":"72537","city":"Gamaliel","state":"AR","lat":36.4618,"long":-92.2284},{"zip":"72544","city":"Henderson","state":"AR","lat":36.4105,"long":-92.1951},{"zip":"72523","city":"Concord","state":"AR","lat":35.6414,"long":-91.8333},{"zip":"72530","city":"Drasco","state":"AR","lat":35.6616,"long":-91.9398},{"zip":"72543","city":"Heber Springs","state":"AR","lat":35.5103,"long":-92.0392},{"zip":"72545","city":"Heber Springs","state":"AR","lat":35.5352,"long":-92.0213},{"zip":"72546","city":"Ida","state":"AR","lat":35.5816,"long":-91.9305},{"zip":"72581","city":"Tumbling Shoals","state":"AR","lat":35.547,"long":-91.9704},{"zip":"72515","city":"Bexar","state":"AR","lat":36.2901,"long":-92.055},{"zip":"72520","city":"Camp","state":"AR","lat":36.4025,"long":-91.7262},{"zip":"72531","city":"Elizabeth","state":"AR","lat":36.3238,"long":-92.0934},{"zip":"72538","city":"Gepp","state":"AR","lat":36.4364,"long":-92.0995},{"zip":"72539","city":"Glencoe","state":"AR","lat":36.2942,"long":-91.7474},{"zip":"72554","city":"Mammoth Spring","state":"AR","lat":36.4076,"long":-91.5757},{"zip":"72576","city":"Salem","state":"AR","lat":36.3766,"long":-91.8759},{"zip":"72578","city":"Sturkie","state":"AR","lat":36.4747,"long":-91.8891},{"zip":"72583","city":"Viola","state":"AR","lat":36.3924,"long":-91.9932},{"zip":"72501","city":"Batesville","state":"AR","lat":35.7826,"long":-91.6352},{"zip":"72503","city":"Batesville","state":"AR","lat":35.7346,"long":-91.5343},{"zip":"72522","city":"Charlotte","state":"AR","lat":35.8184,"long":-91.4387},{"zip":"72524","city":"Cord","state":"AR","lat":35.8184,"long":-91.3375},{"zip":"72526","city":"Cushman","state":"AR","lat":35.8729,"long":-91.754},{"zip":"72527","city":"Desha","state":"AR","lat":35.7411,"long":-91.6985},{"zip":"72534","city":"Floral","state":"AR","lat":35.6023,"long":-91.7341},{"zip":"72550","city":"Locust Grove","state":"AR","lat":35.7177,"long":-91.7414},{"zip":"72553","city":"Magness","state":"AR","lat":35.6941,"long":-91.4753},{"zip":"72562","city":"Newark","state":"AR","lat":35.7118,"long":-91.4394},{"zip":"72564","city":"Oil Trough","state":"AR","lat":35.6131,"long":-91.4703},{"zip":"72568","city":"Pleasant Plains","state":"AR","lat":35.5893,"long":-91.632},{"zip":"72571","city":"Rosie","state":"AR","lat":35.6638,"long":-91.534},{"zip":"72575","city":"Salado","state":"AR","lat":35.6919,"long":-91.5989},{"zip":"72579","city":"Sulphur Rock","state":"AR","lat":35.7545,"long":-91.5073},{"zip":"72512","city":"Horseshoe Bend","state":"AR","lat":36.2025,"long":-91.7553},{"zip":"72517","city":"Brockwell","state":"AR","lat":36.1358,"long":-91.9513},{"zip":"72519","city":"Calico Rock","state":"AR","lat":36.1202,"long":-92.1867},{"zip":"72528","city":"Dolph","state":"AR","lat":36.2229,"long":-92.1177},{"zip":"72536","city":"Franklin","state":"AR","lat":36.1703,"long":-91.776},{"zip":"72540","city":"Guion","state":"AR","lat":35.9266,"long":-91.9103},{"zip":"72556","city":"Melbourne","state":"AR","lat":36.0635,"long":-91.9079},{"zip":"72561","city":"Mount Pleasant","state":"AR","lat":35.9759,"long":-91.785},{"zip":"72565","city":"Oxford","state":"AR","lat":36.2114,"long":-91.9258},{"zip":"72566","city":"Pineville","state":"AR","lat":36.1677,"long":-92.1073},{"zip":"72573","city":"Sage","state":"AR","lat":36.0688,"long":-91.791},{"zip":"72584","city":"Violet Hill","state":"AR","lat":36.163,"long":-91.8471},{"zip":"72585","city":"Wideman","state":"AR","lat":36.1865,"long":-92.0088},{"zip":"72587","city":"Wiseman","state":"AR","lat":36.2345,"long":-91.8154},{"zip":"72572","city":"Saffell","state":"AR","lat":35.8781,"long":-91.3004},{"zip":"72513","city":"Ash Flat","state":"AR","lat":36.2201,"long":-91.6421},{"zip":"72521","city":"Cave City","state":"AR","lat":35.9517,"long":-91.5444},{"zip":"72525","city":"Cherokee Village","state":"AR","lat":36.311,"long":-91.597},{"zip":"72529","city":"Cherokee Village","state":"AR","lat":36.3011,"long":-91.5281},{"zip":"72532","city":"Evening Shade","state":"AR","lat":36.0855,"long":-91.598},{"zip":"72542","city":"Hardy","state":"AR","lat":36.3227,"long":-91.411},{"zip":"72569","city":"Poughkeepsie","state":"AR","lat":36.0767,"long":-91.4793},{"zip":"72577","city":"Sidney","state":"AR","lat":36.0664,"long":-91.642},{"zip":"72533","city":"Fifty Six","state":"AR","lat":35.992,"long":-92.2182},{"zip":"72555","city":"Marcella","state":"AR","lat":35.7756,"long":-91.8718},{"zip":"72560","city":"Mountain View","state":"AR","lat":35.8208,"long":-92.0389},{"zip":"72567","city":"Pleasant Grove","state":"AR","lat":35.8265,"long":-91.8958}]
