[{"zip":"72617","city":"Big Flat","state":"AR","lat":36.0068,"long":-92.3917},{"zip":"72623","city":"Clarkridge","state":"AR","lat":36.4724,"long":-92.3296},{"zip":"72626","city":"Cotter","state":"AR","lat":36.2712,"long":-92.5354},{"zip":"72635","city":"Gassville","state":"AR","lat":36.3175,"long":-92.4736},{"zip":"72642","city":"Lakeview","state":"AR","lat":36.373,"long":-92.5422},{"zip":"72651","city":"Midway","state":"AR","lat":36.3933,"long":-92.4881},{"zip":"72653","city":"Mountain Home","state":"AR","lat":36.3312,"long":-92.3753},{"zip":"72654","city":"Mountain Home","state":"AR","lat":36.3353,"long":-92.3852},{"zip":"72658","city":"Norfork","state":"AR","lat":36.2066,"long":-92.273},{"zip":"72659","city":"Norfork","state":"AR","lat":36.2095,"long":-92.2843},{"zip":"72601","city":"Harrison","state":"AR","lat":36.2417,"long":-93.1062},{"zip":"72602","city":"Harrison","state":"AR","lat":36.2298,"long":-93.1077},{"zip":"72611","city":"Alpena","state":"AR","lat":36.2998,"long":-93.2792},{"zip":"72615","city":"Bergman","state":"AR","lat":36.3083,"long":-93.0321},{"zip":"72630","city":"Diamond City","state":"AR","lat":36.4645,"long":-92.9202},{"zip":"72633","city":"Everton","state":"AR","lat":36.1534,"long":-92.915},{"zip":"72644","city":"Lead Hill","state":"AR","lat":36.3848,"long":-93.0039},{"zip":"72662","city":"Omaha","state":"AR","lat":36.4612,"long":-93.1888},{"zip":"72682","city":"Valley Springs","state":"AR","lat":36.1351,"long":-92.7541},{"zip":"72613","city":"Beaver","state":"AR","lat":36.4311,"long":-93.6994},{"zip":"72616","city":"Berryville","state":"AR","lat":36.3519,"long":-93.5587},{"zip":"72631","city":"Eureka Springs","state":"AR","lat":36.435,"long":-93.7673},{"zip":"72632","city":"Eureka Springs","state":"AR","lat":36.4175,"long":-93.7379},{"zip":"72638","city":"Green Forest","state":"AR","lat":36.3224,"long":-93.4059},{"zip":"72660","city":"Oak Grove","state":"AR","lat":36.4613,"long":-93.4321},{"zip":"72619","city":"Bull Shoals","state":"AR","lat":36.371,"long":-92.5938},{"zip":"72634","city":"Flippin","state":"AR","lat":36.2682,"long":-92.578},{"zip":"72661","city":"Oakland","state":"AR","lat":36.4442,"long":-92.5832},{"zip":"72668","city":"Peel","state":"AR","lat":36.435,"long":-92.7615},{"zip":"72672","city":"Pyatt","state":"AR","lat":36.2486,"long":-92.8416},{"zip":"72677","city":"Summit","state":"AR","lat":36.2523,"long":-92.6907},{"zip":"72687","city":"Yellville","state":"AR","lat":36.2253,"long":-92.7245},{"zip":"72624","city":"Compton","state":"AR","lat":36.0979,"long":-93.3099},{"zip":"72628","city":"Deer","state":"AR","lat":35.853,"long":-93.3174},{"zip":"72640","city":"Hasty","state":"AR","lat":36.0152,"long":-93.046},{"zip":"72641","city":"Jasper","state":"AR","lat":36.0038,"long":-93.2048},{"zip":"72648","city":"Marble Falls","state":"AR","lat":36.0695,"long":-93.1566},{"zip":"72655","city":"Mount Judea","state":"AR","lat":35.9407,"long":-93.0654},{"zip":"72666","city":"Parthenon","state":"AR","lat":35.9451,"long":-93.2677},{"zip":"72670","city":"Ponca","state":"AR","lat":36.0242,"long":-93.3646},{"zip":"72683","city":"Vendor","state":"AR","lat":35.9473,"long":-93.0774},{"zip":"72685","city":"Western Grove","state":"AR","lat":36.083,"long":-92.9716},{"zip":"72679","city":"Tilly","state":"AR","lat":35.7341,"long":-92.8391},{"zip":"72636","city":"Gilbert","state":"AR","lat":35.9879,"long":-92.7163},{"zip":"72639","city":"Harriet","state":"AR","lat":35.9991,"long":-92.5042},{"zip":"72645","city":"Leslie","state":"AR","lat":35.8272,"long":-92.5663},{"zip":"72650","city":"Marshall","state":"AR","lat":35.9267,"long":-92.6402},{"zip":"72669","city":"Pindall","state":"AR","lat":36.0675,"long":-92.8864},{"zip":"72675","city":"Saint Joe","state":"AR","lat":35.9877,"long":-92.7928},{"zip":"72686","city":"Witts Springs","state":"AR","lat":35.7681,"long":-92.8668},{"zip":"72657","city":"Timbo","state":"AR","lat":35.919,"long":-92.1272},{"zip":"72663","city":"Onia","state":"AR","lat":35.9403,"long":-92.3459},{"zip":"72680","city":"Timbo","state":"AR","lat":35.8845,"long":-92.2913},{"zip":"72629","city":"Dennard","state":"AR","lat":35.7252,"long":-92.5575}]
