[{"zip":"72711","city":"Avoca","state":"AR","lat":36.4047,"long":-94.0713},{"zip":"72712","city":"Bentonville","state":"AR","lat":36.3577,"long":-94.2224},{"zip":"72714","city":"Bella Vista","state":"AR","lat":36.4676,"long":-94.2166},{"zip":"72715","city":"Bella Vista","state":"AR","lat":36.4677,"long":-94.3209},{"zip":"72716","city":"Bentonville","state":"AR","lat":36.3729,"long":-94.2088},{"zip":"72718","city":"Cave Springs","state":"AR","lat":36.2738,"long":-94.2183},{"zip":"72719","city":"Centerton","state":"AR","lat":36.367,"long":-94.3089},{"zip":"72722","city":"Decatur","state":"AR","lat":36.3347,"long":-94.4534},{"zip":"72732","city":"Garfield","state":"AR","lat":36.4288,"long":-93.9512},{"zip":"72733","city":"Gateway","state":"AR","lat":36.4864,"long":-93.9277},{"zip":"72734","city":"Gentry","state":"AR","lat":36.2652,"long":-94.4751},{"zip":"72736","city":"Gravette","state":"AR","lat":36.4155,"long":-94.4779},{"zip":"72739","city":"Hiwasse","state":"AR","lat":36.4416,"long":-94.339},{"zip":"72745","city":"Lowell","state":"AR","lat":36.2554,"long":-94.1308},{"zip":"72747","city":"Maysville","state":"AR","lat":36.3811,"long":-94.5783},{"zip":"72751","city":"Pea Ridge","state":"AR","lat":36.4539,"long":-94.118},{"zip":"72756","city":"Rogers","state":"AR","lat":36.3363,"long":-94.1148},{"zip":"72757","city":"Rogers","state":"AR","lat":36.332,"long":-94.1185},{"zip":"72758","city":"Rogers","state":"AR","lat":36.3169,"long":-94.1545},{"zip":"72761","city":"Siloam Springs","state":"AR","lat":36.18,"long":-94.528},{"zip":"72768","city":"Sulphur Springs","state":"AR","lat":36.4794,"long":-94.4521},{"zip":"72721","city":"Combs","state":"AR","lat":35.8607,"long":-93.8112},{"zip":"72738","city":"Hindsville","state":"AR","lat":36.1422,"long":-93.8633},{"zip":"72740","city":"Huntsville","state":"AR","lat":36.1043,"long":-93.7279},{"zip":"72742","city":"Kingston","state":"AR","lat":36.0485,"long":-93.5044},{"zip":"72752","city":"Pettigrew","state":"AR","lat":35.8346,"long":-93.6181},{"zip":"72760","city":"Saint Paul","state":"AR","lat":35.8496,"long":-93.7347},{"zip":"72773","city":"Wesley","state":"AR","lat":36.0114,"long":-93.8526},{"zip":"72776","city":"Witter","state":"AR","lat":35.9356,"long":-93.621},{"zip":"72701","city":"Fayetteville","state":"AR","lat":36.052,"long":-94.1534},{"zip":"72702","city":"Fayetteville","state":"AR","lat":36.0626,"long":-94.1574},{"zip":"72703","city":"Fayetteville","state":"AR","lat":36.0992,"long":-94.1716},{"zip":"72704","city":"Fayetteville","state":"AR","lat":36.0877,"long":-94.3093},{"zip":"72717","city":"Canehill","state":"AR","lat":35.8477,"long":-94.4441},{"zip":"72727","city":"Elkins","state":"AR","lat":36.0177,"long":-94.0073},{"zip":"72728","city":"Elm Springs","state":"AR","lat":36.21,"long":-94.2546},{"zip":"72729","city":"Evansville","state":"AR","lat":35.7823,"long":-94.4638},{"zip":"72730","city":"Farmington","state":"AR","lat":36.0436,"long":-94.2539},{"zip":"72735","city":"Goshen","state":"AR","lat":36.0876,"long":-93.9666},{"zip":"72737","city":"Greenland","state":"AR","lat":35.9942,"long":-94.1752},{"zip":"72741","city":"Johnson","state":"AR","lat":36.1329,"long":-94.1655},{"zip":"72744","city":"Lincoln","state":"AR","lat":35.9569,"long":-94.4272},{"zip":"72749","city":"Morrow","state":"AR","lat":35.8654,"long":-94.4432},{"zip":"72753","city":"Prairie Grove","state":"AR","lat":35.9918,"long":-94.3169},{"zip":"72762","city":"Springdale","state":"AR","lat":36.1835,"long":-94.1762},{"zip":"72764","city":"Springdale","state":"AR","lat":36.1716,"long":-94.0428},{"zip":"72765","city":"Springdale","state":"AR","lat":36.1725,"long":-94.1535},{"zip":"72766","city":"Springdale","state":"AR","lat":36.1867,"long":-94.1288},{"zip":"72769","city":"Summers","state":"AR","lat":36.0138,"long":-94.5},{"zip":"72770","city":"Tontitown","state":"AR","lat":36.15,"long":-94.2429},{"zip":"72774","city":"West Fork","state":"AR","lat":35.9082,"long":-94.2304}]
