[{"zip":"72820","city":"Alix","state":"AR","lat":35.41,"long":-93.7286},{"zip":"72821","city":"Altus","state":"AR","lat":35.4346,"long":-93.7598},{"zip":"72830","city":"Clarksville","state":"AR","lat":35.4908,"long":-93.4911},{"zip":"72832","city":"Coal Hill","state":"AR","lat":35.4371,"long":-93.672},{"zip":"72839","city":"Hagarville","state":"AR","lat":35.6155,"long":-93.2726},{"zip":"72840","city":"Hartman","state":"AR","lat":35.4436,"long":-93.6142},{"zip":"72845","city":"Knoxville","state":"AR","lat":35.3749,"long":-93.3618},{"zip":"72846","city":"Lamar","state":"AR","lat":35.4349,"long":-93.3552},{"zip":"72852","city":"Oark","state":"AR","lat":35.7095,"long":-93.5585},{"zip":"72854","city":"Ozone","state":"AR","lat":35.6575,"long":-93.4311},{"zip":"72826","city":"Blue Mountain","state":"AR","lat":35.1602,"long":-93.6183},{"zip":"72835","city":"Delaware","state":"AR","lat":35.278,"long":-93.3462},{"zip":"72851","city":"New Blaine","state":"AR","lat":35.3189,"long":-93.4446},{"zip":"72855","city":"Paris","state":"AR","lat":35.2941,"long":-93.7265},{"zip":"72863","city":"Scranton","state":"AR","lat":35.3585,"long":-93.5454},{"zip":"72865","city":"Subiaco","state":"AR","lat":35.3153,"long":-93.5991},{"zip":"72801","city":"Russellville","state":"AR","lat":35.2842,"long":-93.1315},{"zip":"72802","city":"Russellville","state":"AR","lat":35.3067,"long":-93.0712},{"zip":"72811","city":"Russellville","state":"AR","lat":35.2784,"long":-93.1338},{"zip":"72812","city":"Russellville","state":"AR","lat":35.4231,"long":-93.0544},{"zip":"72823","city":"Atkins","state":"AR","lat":35.2449,"long":-92.9507},{"zip":"72837","city":"Dover","state":"AR","lat":35.4074,"long":-93.1355},{"zip":"72843","city":"Hector","state":"AR","lat":35.5499,"long":-92.9616},{"zip":"72847","city":"London","state":"AR","lat":35.3744,"long":-93.2736},{"zip":"72856","city":"Pelsor","state":"AR","lat":35.7854,"long":-93.0812},{"zip":"72858","city":"Pottsville","state":"AR","lat":35.2398,"long":-93.0564},{"zip":"72841","city":"Harvey","state":"AR","lat":34.8762,"long":-93.764},{"zip":"72824","city":"Belleville","state":"AR","lat":35.1038,"long":-93.4518},{"zip":"72827","city":"Bluffton","state":"AR","lat":34.9016,"long":-93.5919},{"zip":"72828","city":"Briggsville","state":"AR","lat":34.9161,"long":-93.5157},{"zip":"72829","city":"Centerville","state":"AR","lat":35.1018,"long":-93.1773},{"zip":"72833","city":"Danville","state":"AR","lat":35.0495,"long":-93.3929},{"zip":"72834","city":"Dardanelle","state":"AR","lat":35.1955,"long":-93.1873},{"zip":"72838","city":"Gravelly","state":"AR","lat":34.8881,"long":-93.6802},{"zip":"72842","city":"Havana","state":"AR","lat":35.0832,"long":-93.5955},{"zip":"72853","city":"Ola","state":"AR","lat":35.0309,"long":-93.2136},{"zip":"72857","city":"Plainview","state":"AR","lat":34.9668,"long":-93.3099},{"zip":"72860","city":"Rover","state":"AR","lat":34.9475,"long":-93.4017}]
