[{"zip":"72921","city":"Alma","state":"AR","lat":35.5,"long":-94.2073},{"zip":"72932","city":"Cedarville","state":"AR","lat":35.603,"long":-94.3749},{"zip":"72934","city":"Chester","state":"AR","lat":35.6898,"long":-94.202},{"zip":"72935","city":"Dyer","state":"AR","lat":35.4923,"long":-94.1377},{"zip":"72946","city":"Mountainburg","state":"AR","lat":35.6464,"long":-94.1497},{"zip":"72947","city":"Mulberry","state":"AR","lat":35.5172,"long":-93.9885},{"zip":"72948","city":"Natural Dam","state":"AR","lat":35.6743,"long":-94.4124},{"zip":"72952","city":"Rudy","state":"AR","lat":35.5468,"long":-94.2913},{"zip":"72955","city":"Uniontown","state":"AR","lat":35.5748,"long":-94.4349},{"zip":"72956","city":"Van Buren","state":"AR","lat":35.454,"long":-94.3278},{"zip":"72957","city":"Van Buren","state":"AR","lat":35.4368,"long":-94.3483},{"zip":"72928","city":"Branch","state":"AR","lat":35.2971,"long":-93.9454},{"zip":"72930","city":"Cecil","state":"AR","lat":35.4252,"long":-94.0409},{"zip":"72933","city":"Charleston","state":"AR","lat":35.3115,"long":-94.0337},{"zip":"72949","city":"Ozark","state":"AR","lat":35.5246,"long":-93.8374},{"zip":"72927","city":"Booneville","state":"AR","lat":35.1364,"long":-93.9274},{"zip":"72943","city":"Magazine","state":"AR","lat":35.1587,"long":-93.8003},{"zip":"72951","city":"Ratcliff","state":"AR","lat":35.2917,"long":-93.8899},{"zip":"72926","city":"Boles","state":"AR","lat":34.7654,"long":-94.0629},{"zip":"72944","city":"Mansfield","state":"AR","lat":35.0432,"long":-94.2204},{"zip":"72950","city":"Parks","state":"AR","lat":34.8003,"long":-93.9509},{"zip":"72958","city":"Waldron","state":"AR","lat":34.9026,"long":-94.0772},{"zip":"72901","city":"Fort Smith","state":"AR","lat":35.3653,"long":-94.411},{"zip":"72902","city":"Fort Smith","state":"AR","lat":35.3862,"long":-94.4091},{"zip":"72903","city":"Fort Smith","state":"AR","lat":35.3427,"long":-94.3784},{"zip":"72904","city":"Fort Smith","state":"AR","lat":35.4051,"long":-94.3872},{"zip":"72905","city":"Fort Smith","state":"AR","lat":35.3859,"long":-94.3985},{"zip":"72906","city":"Fort Smith","state":"AR","lat":35.3859,"long":-94.3985},{"zip":"72908","city":"Fort Smith","state":"AR","lat":35.3219,"long":-94.4028},{"zip":"72913","city":"Fort Smith","state":"AR","lat":35.3859,"long":-94.3985},{"zip":"72914","city":"Fort Smith","state":"AR","lat":35.3859,"long":-94.3985},{"zip":"72916","city":"Fort Smith","state":"AR","lat":35.2502,"long":-94.3703},{"zip":"72917","city":"Fort Smith","state":"AR","lat":35.3859,"long":-94.3985},{"zip":"72918","city":"Fort Smith","state":"AR","lat":35.3859,"long":-94.3985},{"zip":"72919","city":"Fort Smith","state":"AR","lat":35.3859,"long":-94.3985},{"zip":"72923","city":"Barling","state":"AR","lat":35.333,"long":-94.3082},{"zip":"72936","city":"Greenwood","state":"AR","lat":35.1955,"long":-94.253},{"zip":"72937","city":"Hackett","state":"AR","lat":35.1945,"long":-94.3983},{"zip":"72938","city":"Hartford","state":"AR","lat":35.0222,"long":-94.3819},{"zip":"72940","city":"Huntington","state":"AR","lat":35.0963,"long":-94.3313},{"zip":"72941","city":"Lavaca","state":"AR","lat":35.3661,"long":-94.1917},{"zip":"72945","city":"Midland","state":"AR","lat":35.0932,"long":-94.3533},{"zip":"72959","city":"Winslow","state":"AR","lat":35.8312,"long":-94.1187}]
