[{"zip":"73040","city":"Geary","state":"OK","lat":35.6217,"long":-98.3905},{"zip":"73043","city":"Greenfield","state":"OK","lat":35.7333,"long":-98.3841},{"zip":"73001","city":"Albert","state":"OK","lat":35.2032,"long":-98.3574},{"zip":"73005","city":"Anadarko","state":"OK","lat":35.0728,"long":-98.2429},{"zip":"73006","city":"Apache","state":"OK","lat":34.9034,"long":-98.3695},{"zip":"73009","city":"Binger","state":"OK","lat":35.3106,"long":-98.3148},{"zip":"73015","city":"Carnegie","state":"OK","lat":35.1235,"long":-98.5755},{"zip":"73017","city":"Cement","state":"OK","lat":34.9321,"long":-98.1466},{"zip":"73029","city":"Cyril","state":"OK","lat":34.8959,"long":-98.2083},{"zip":"73033","city":"Eakly","state":"OK","lat":35.3053,"long":-98.5578},{"zip":"73038","city":"Fort Cobb","state":"OK","lat":35.1161,"long":-98.4303},{"zip":"73042","city":"Gracemont","state":"OK","lat":35.1875,"long":-98.2835},{"zip":"73047","city":"Hinton","state":"OK","lat":35.4675,"long":-98.3313},{"zip":"73048","city":"Hydro","state":"OK","lat":35.452,"long":-98.5604},{"zip":"73053","city":"Lookeba","state":"OK","lat":35.3679,"long":-98.3898},{"zip":"73014","city":"Calumet","state":"OK","lat":35.5476,"long":-98.1512},{"zip":"73022","city":"Concho","state":"OK","lat":35.6193,"long":-97.9796},{"zip":"73036","city":"El Reno","state":"OK","lat":35.5335,"long":-97.9591},{"zip":"73064","city":"Mustang","state":"OK","lat":35.3885,"long":-97.7309},{"zip":"73078","city":"Piedmont","state":"OK","lat":35.6695,"long":-97.7431},{"zip":"73085","city":"Yukon","state":"OK","lat":35.4895,"long":-97.75},{"zip":"73090","city":"Union City","state":"OK","lat":35.3913,"long":-97.9398},{"zip":"73099","city":"Yukon","state":"OK","lat":35.4977,"long":-97.7323},{"zip":"73019","city":"Norman","state":"OK","lat":35.2086,"long":-97.4445},{"zip":"73026","city":"Norman","state":"OK","lat":35.2343,"long":-97.2914},{"zip":"73051","city":"Lexington","state":"OK","lat":35.0377,"long":-97.2609},{"zip":"73068","city":"Noble","state":"OK","lat":35.1417,"long":-97.3409},{"zip":"73069","city":"Norman","state":"OK","lat":35.2204,"long":-97.4577},{"zip":"73070","city":"Norman","state":"OK","lat":35.1876,"long":-97.3975},{"zip":"73071","city":"Norman","state":"OK","lat":35.233,"long":-97.4067},{"zip":"73072","city":"Norman","state":"OK","lat":35.199,"long":-97.4841},{"zip":"73096","city":"Weatherford","state":"OK","lat":35.535,"long":-98.6996},{"zip":"73052","city":"Lindsay","state":"OK","lat":34.8211,"long":-97.5998},{"zip":"73057","city":"Maysville","state":"OK","lat":34.8113,"long":-97.4131},{"zip":"73074","city":"Paoli","state":"OK","lat":34.8285,"long":-97.2608},{"zip":"73075","city":"Pauls Valley","state":"OK","lat":34.7385,"long":-97.2195},{"zip":"73098","city":"Wynnewood","state":"OK","lat":34.6385,"long":-97.177},{"zip":"73002","city":"Alex","state":"OK","lat":34.9612,"long":-97.7571},{"zip":"73004","city":"Amber","state":"OK","lat":35.1526,"long":-97.8532},{"zip":"73011","city":"Bradley","state":"OK","lat":34.8741,"long":-97.7118},{"zip":"73018","city":"Chickasha","state":"OK","lat":35.0268,"long":-97.9518},{"zip":"73023","city":"Chickasha","state":"OK","lat":35.0526,"long":-97.9364},{"zip":"73059","city":"Minco","state":"OK","lat":35.3067,"long":-97.9664},{"zip":"73067","city":"Ninnekah","state":"OK","lat":34.9143,"long":-97.9333},{"zip":"73079","city":"Pocasset","state":"OK","lat":35.1544,"long":-97.979},{"zip":"73082","city":"Rush Springs","state":"OK","lat":34.7708,"long":-97.9431},{"zip":"73089","city":"Tuttle","state":"OK","lat":35.2674,"long":-97.7446},{"zip":"73092","city":"Verden","state":"OK","lat":35.0836,"long":-98.0792},{"zip":"73016","city":"Cashion","state":"OK","lat":35.8,"long":-97.6795},{"zip":"73041","city":"Gotebo","state":"OK","lat":35.0759,"long":-98.876},{"zip":"73062","city":"Mountain View","state":"OK","lat":35.0654,"long":-98.7307},{"zip":"73027","city":"Coyle","state":"OK","lat":35.8985,"long":-97.2607},{"zip":"73028","city":"Crescent","state":"OK","lat":35.942,"long":-97.5969},{"zip":"73044","city":"Guthrie","state":"OK","lat":35.833,"long":-97.436},{"zip":"73050","city":"Langston","state":"OK","lat":35.9419,"long":-97.2557},{"zip":"73056","city":"Marshall","state":"OK","lat":36.1485,"long":-97.6171},{"zip":"73058","city":"Meridian","state":"OK","lat":35.8451,"long":-97.2462},{"zip":"73063","city":"Mulhall","state":"OK","lat":36.0537,"long":-97.4098},{"zip":"73073","city":"Orlando","state":"OK","lat":36.142,"long":-97.396},{"zip":"73010","city":"Blanchard","state":"OK","lat":35.1192,"long":-97.6401},{"zip":"73031","city":"Dibble","state":"OK","lat":35.009,"long":-97.6318},{"zip":"73065","city":"Newcastle","state":"OK","lat":35.2453,"long":-97.6216},{"zip":"73080","city":"Purcell","state":"OK","lat":35.0103,"long":-97.4255},{"zip":"73093","city":"Washington","state":"OK","lat":35.1324,"long":-97.487},{"zip":"73095","city":"Wayne","state":"OK","lat":34.9154,"long":-97.329},{"zip":"73030","city":"Davis","state":"OK","lat":34.4953,"long":-97.1084},{"zip":"73032","city":"Dougherty","state":"OK","lat":34.402,"long":-97.051},{"zip":"73086","city":"Sulphur","state":"OK","lat":34.5116,"long":-96.9797},{"zip":"73061","city":"Morrison","state":"OK","lat":36.2902,"long":-97.0228},{"zip":"73077","city":"Perry","state":"OK","lat":36.2875,"long":-97.2842},{"zip":"73003","city":"Edmond","state":"OK","lat":35.6748,"long":-97.4997},{"zip":"73007","city":"Arcadia","state":"OK","lat":35.6543,"long":-97.3243},{"zip":"73008","city":"Bethany","state":"OK","lat":35.5043,"long":-97.6399},{"zip":"73012","city":"Edmond","state":"OK","lat":35.6215,"long":-97.4733},{"zip":"73013","city":"Edmond","state":"OK","lat":35.6215,"long":-97.4733},{"zip":"73020","city":"Choctaw","state":"OK","lat":35.4718,"long":-97.2726},{"zip":"73025","city":"Edmond","state":"OK","lat":35.722,"long":-97.5133},{"zip":"73034","city":"Edmond","state":"OK","lat":35.6665,"long":-97.4798},{"zip":"73039","city":"Davis","state":"OK","lat":34.506,"long":-97.1131},{"zip":"73045","city":"Harrah","state":"OK","lat":35.4833,"long":-97.1734},{"zip":"73049","city":"Jones","state":"OK","lat":35.5753,"long":-97.2891},{"zip":"73054","city":"Luther","state":"OK","lat":35.6617,"long":-97.1956},{"zip":"73066","city":"Nicoma Park","state":"OK","lat":35.4928,"long":-97.3276},{"zip":"73083","city":"Edmond","state":"OK","lat":35.6665,"long":-97.4654},{"zip":"73084","city":"Spencer","state":"OK","lat":35.5183,"long":-97.3488},{"zip":"73097","city":"Wheatland","state":"OK","lat":35.397,"long":-97.6519},{"zip":"73055","city":"Marlow","state":"OK","lat":34.6387,"long":-97.941},{"zip":"73021","city":"Colony","state":"OK","lat":35.3448,"long":-98.6707},{"zip":"73024","city":"Corn","state":"OK","lat":35.3784,"long":-98.7818}]
