[{"zip":"73139","city":"Oklahoma City","state":"OK","lat":35.3792,"long":-97.5362},{"zip":"73160","city":"Oklahoma City","state":"OK","lat":35.334,"long":-97.4768},{"zip":"73165","city":"Oklahoma City","state":"OK","lat":35.3267,"long":-97.3534},{"zip":"73170","city":"Oklahoma City","state":"OK","lat":35.327,"long":-97.5556},{"zip":"73173","city":"Oklahoma City","state":"OK","lat":35.3425,"long":-97.6317},{"zip":"73101","city":"Oklahoma City","state":"OK","lat":35.4916,"long":-97.5628},{"zip":"73102","city":"Oklahoma City","state":"OK","lat":35.4726,"long":-97.5199},{"zip":"73103","city":"Oklahoma City","state":"OK","lat":35.491,"long":-97.5196},{"zip":"73104","city":"Oklahoma City","state":"OK","lat":35.4794,"long":-97.5017},{"zip":"73105","city":"Oklahoma City","state":"OK","lat":35.5108,"long":-97.5003},{"zip":"73106","city":"Oklahoma City","state":"OK","lat":35.4853,"long":-97.5372},{"zip":"73107","city":"Oklahoma City","state":"OK","lat":35.4874,"long":-97.574},{"zip":"73108","city":"Oklahoma City","state":"OK","lat":35.4445,"long":-97.5619},{"zip":"73109","city":"Oklahoma City","state":"OK","lat":35.4259,"long":-97.5261},{"zip":"73110","city":"Oklahoma City","state":"OK","lat":35.4605,"long":-97.3974},{"zip":"73111","city":"Oklahoma City","state":"OK","lat":35.5042,"long":-97.4806},{"zip":"73112","city":"Oklahoma City","state":"OK","lat":35.5184,"long":-97.5746},{"zip":"73113","city":"Oklahoma City","state":"OK","lat":35.5514,"long":-97.4075},{"zip":"73114","city":"Oklahoma City","state":"OK","lat":35.5704,"long":-97.5257},{"zip":"73115","city":"Oklahoma City","state":"OK","lat":35.4449,"long":-97.446},{"zip":"73116","city":"Oklahoma City","state":"OK","lat":35.5463,"long":-97.5642},{"zip":"73117","city":"Oklahoma City","state":"OK","lat":35.4797,"long":-97.4722},{"zip":"73118","city":"Oklahoma City","state":"OK","lat":35.5136,"long":-97.5319},{"zip":"73119","city":"Oklahoma City","state":"OK","lat":35.421,"long":-97.5616},{"zip":"73120","city":"Oklahoma City","state":"OK","lat":35.5835,"long":-97.5638},{"zip":"73121","city":"Oklahoma City","state":"OK","lat":35.5062,"long":-97.4452},{"zip":"73122","city":"Oklahoma City","state":"OK","lat":35.5184,"long":-97.6167},{"zip":"73123","city":"Oklahoma City","state":"OK","lat":35.4676,"long":-97.5164},{"zip":"73124","city":"Oklahoma City","state":"OK","lat":35.5514,"long":-97.4075},{"zip":"73125","city":"Oklahoma City","state":"OK","lat":35.4654,"long":-97.5218},{"zip":"73126","city":"Oklahoma City","state":"OK","lat":35.5514,"long":-97.4075},{"zip":"73127","city":"Oklahoma City","state":"OK","lat":35.4834,"long":-97.6299},{"zip":"73128","city":"Oklahoma City","state":"OK","lat":35.4444,"long":-97.6164},{"zip":"73129","city":"Oklahoma City","state":"OK","lat":35.4312,"long":-97.4913},{"zip":"73130","city":"Oklahoma City","state":"OK","lat":35.4604,"long":-97.3419},{"zip":"73131","city":"Oklahoma City","state":"OK","lat":35.5797,"long":-97.4691},{"zip":"73132","city":"Oklahoma City","state":"OK","lat":35.5583,"long":-97.6375},{"zip":"73134","city":"Oklahoma City","state":"OK","lat":35.6174,"long":-97.5583},{"zip":"73135","city":"Oklahoma City","state":"OK","lat":35.411,"long":-97.4388},{"zip":"73136","city":"Oklahoma City","state":"OK","lat":35.4676,"long":-97.5164},{"zip":"73137","city":"Oklahoma City","state":"OK","lat":35.5514,"long":-97.4075},{"zip":"73140","city":"Oklahoma City","state":"OK","lat":35.5185,"long":-97.4275},{"zip":"73141","city":"Oklahoma City","state":"OK","lat":35.4918,"long":-97.3666},{"zip":"73142","city":"Oklahoma City","state":"OK","lat":35.599,"long":-97.6251},{"zip":"73143","city":"Oklahoma City","state":"OK","lat":35.5514,"long":-97.4075},{"zip":"73144","city":"Oklahoma City","state":"OK","lat":35.5514,"long":-97.4075},{"zip":"73145","city":"Oklahoma City","state":"OK","lat":35.4304,"long":-97.3962},{"zip":"73146","city":"Oklahoma City","state":"OK","lat":35.5514,"long":-97.4075},{"zip":"73147","city":"Oklahoma City","state":"OK","lat":35.5514,"long":-97.4075},{"zip":"73148","city":"Oklahoma City","state":"OK","lat":35.5514,"long":-97.4075},{"zip":"73149","city":"Oklahoma City","state":"OK","lat":35.395,"long":-97.4972},{"zip":"73150","city":"Oklahoma City","state":"OK","lat":35.4123,"long":-97.3331},{"zip":"73151","city":"Oklahoma City","state":"OK","lat":35.5676,"long":-97.4111},{"zip":"73152","city":"Oklahoma City","state":"OK","lat":35.5514,"long":-97.4075},{"zip":"73153","city":"Oklahoma City","state":"OK","lat":35.5514,"long":-97.4075},{"zip":"73154","city":"Oklahoma City","state":"OK","lat":35.5238,"long":-97.5255},{"zip":"73155","city":"Oklahoma City","state":"OK","lat":35.5514,"long":-97.4075},{"zip":"73156","city":"Oklahoma City","state":"OK","lat":35.5514,"long":-97.4075},{"zip":"73157","city":"Oklahoma City","state":"OK","lat":35.5514,"long":-97.4075},{"zip":"73159","city":"Oklahoma City","state":"OK","lat":35.3922,"long":-97.5567},{"zip":"73162","city":"Oklahoma City","state":"OK","lat":35.5806,"long":-97.6419},{"zip":"73163","city":"Oklahoma City","state":"OK","lat":35.5514,"long":-97.4075},{"zip":"73164","city":"Oklahoma City","state":"OK","lat":35.5514,"long":-97.4075},{"zip":"73167","city":"Oklahoma City","state":"OK","lat":35.4676,"long":-97.5164},{"zip":"73169","city":"Oklahoma City","state":"OK","lat":35.3882,"long":-97.6587},{"zip":"73172","city":"Oklahoma City","state":"OK","lat":35.5175,"long":-97.6218},{"zip":"73178","city":"Oklahoma City","state":"OK","lat":35.5514,"long":-97.4075},{"zip":"73179","city":"Oklahoma City","state":"OK","lat":35.4242,"long":-97.6547},{"zip":"73184","city":"Oklahoma City","state":"OK","lat":35.5514,"long":-97.4075},{"zip":"73185","city":"Oklahoma City","state":"OK","lat":35.4676,"long":-97.5164},{"zip":"73189","city":"Oklahoma City","state":"OK","lat":35.5514,"long":-97.4075},{"zip":"73190","city":"Oklahoma City","state":"OK","lat":35.4676,"long":-97.5164},{"zip":"73194","city":"Oklahoma City","state":"OK","lat":35.5514,"long":-97.4075},{"zip":"73195","city":"Oklahoma City","state":"OK","lat":35.474,"long":-97.5227},{"zip":"73196","city":"Oklahoma City","state":"OK","lat":35.5514,"long":-97.4075}]
