[{"zip":"73449","city":"Mead","state":"OK","lat":33.9944,"long":-96.5299},{"zip":"73401","city":"Ardmore","state":"OK","lat":34.1566,"long":-97.1792},{"zip":"73402","city":"Ardmore","state":"OK","lat":34.2889,"long":-97.2481},{"zip":"73403","city":"Ardmore","state":"OK","lat":34.1743,"long":-97.1436},{"zip":"73435","city":"Fox","state":"OK","lat":34.3488,"long":-97.4924},{"zip":"73436","city":"Gene Autry","state":"OK","lat":34.2939,"long":-97.0339},{"zip":"73437","city":"Graham","state":"OK","lat":34.3762,"long":-97.4255},{"zip":"73438","city":"Healdton","state":"OK","lat":34.229,"long":-97.4889},{"zip":"73443","city":"Lone Grove","state":"OK","lat":34.1774,"long":-97.2685},{"zip":"73458","city":"Springer","state":"OK","lat":34.3038,"long":-97.1223},{"zip":"73463","city":"Wilson","state":"OK","lat":34.1364,"long":-97.4273},{"zip":"73481","city":"Ratliff City","state":"OK","lat":34.449,"long":-97.5095},{"zip":"73487","city":"Tatums","state":"OK","lat":34.4777,"long":-97.457},{"zip":"73488","city":"Tussy","state":"OK","lat":34.4852,"long":-97.5423},{"zip":"73433","city":"Elmore City","state":"OK","lat":34.6265,"long":-97.4142},{"zip":"73444","city":"Hennepin","state":"OK","lat":34.4719,"long":-97.3879},{"zip":"73456","city":"Ringling","state":"OK","lat":34.1679,"long":-97.6029},{"zip":"73432","city":"Coleman","state":"OK","lat":34.2625,"long":-96.4588},{"zip":"73447","city":"Mannsville","state":"OK","lat":34.1899,"long":-96.8778},{"zip":"73450","city":"Milburn","state":"OK","lat":34.1952,"long":-96.5429},{"zip":"73455","city":"Ravia","state":"OK","lat":34.244,"long":-96.7529},{"zip":"73460","city":"Tishomingo","state":"OK","lat":34.2643,"long":-96.6675},{"zip":"73461","city":"Wapanucka","state":"OK","lat":34.3866,"long":-96.4532},{"zip":"73430","city":"Burneyville","state":"OK","lat":33.9515,"long":-97.3249},{"zip":"73441","city":"Leon","state":"OK","lat":33.8793,"long":-97.4292},{"zip":"73448","city":"Marietta","state":"OK","lat":33.9431,"long":-97.1148},{"zip":"73453","city":"Overbrook","state":"OK","lat":34.0539,"long":-97.1324},{"zip":"73459","city":"Thackerville","state":"OK","lat":33.7882,"long":-97.1363},{"zip":"73439","city":"Kingston","state":"OK","lat":33.9517,"long":-96.712},{"zip":"73440","city":"Lebanon","state":"OK","lat":33.9687,"long":-96.9064},{"zip":"73446","city":"Madill","state":"OK","lat":34.0784,"long":-96.7597},{"zip":"73425","city":"Countyline","state":"OK","lat":34.4487,"long":-97.5628},{"zip":"73434","city":"Foster","state":"OK","lat":34.6379,"long":-97.5455},{"zip":"73442","city":"Loco","state":"OK","lat":34.3214,"long":-97.6658},{"zip":"73491","city":"Velma","state":"OK","lat":34.4565,"long":-97.6689}]
