[{"zip":"73627","city":"Carter","state":"OK","lat":35.2208,"long":-99.4822},{"zip":"73644","city":"Elk City","state":"OK","lat":35.4104,"long":-99.4211},{"zip":"73645","city":"Erick","state":"OK","lat":35.2286,"long":-99.8635},{"zip":"73648","city":"Elk City","state":"OK","lat":35.412,"long":-99.4043},{"zip":"73662","city":"Sayre","state":"OK","lat":35.3047,"long":-99.6429},{"zip":"73668","city":"Texola","state":"OK","lat":35.2161,"long":-99.9915},{"zip":"73601","city":"Clinton","state":"OK","lat":35.5115,"long":-98.9795},{"zip":"73620","city":"Arapaho","state":"OK","lat":35.5789,"long":-98.9595},{"zip":"73625","city":"Butler","state":"OK","lat":35.6336,"long":-99.2427},{"zip":"73639","city":"Custer City","state":"OK","lat":35.6894,"long":-98.912},{"zip":"73669","city":"Thomas","state":"OK","lat":35.7382,"long":-98.7388},{"zip":"73646","city":"Fay","state":"OK","lat":35.8204,"long":-98.6587},{"zip":"73654","city":"Leedey","state":"OK","lat":35.8698,"long":-99.3491},{"zip":"73658","city":"Oakwood","state":"OK","lat":35.9328,"long":-98.7065},{"zip":"73659","city":"Putnam","state":"OK","lat":35.8539,"long":-98.9638},{"zip":"73663","city":"Seiling","state":"OK","lat":36.1278,"long":-98.8875},{"zip":"73667","city":"Taloga","state":"OK","lat":35.9972,"long":-98.9825},{"zip":"73673","city":"Willow","state":"OK","lat":35.0702,"long":-99.5421},{"zip":"73651","city":"Hobart","state":"OK","lat":35.0255,"long":-99.0944},{"zip":"73655","city":"Lone Wolf","state":"OK","lat":34.9806,"long":-99.2502},{"zip":"73628","city":"Cheyenne","state":"OK","lat":35.6081,"long":-99.6725},{"zip":"73638","city":"Crawford","state":"OK","lat":35.8368,"long":-99.8064},{"zip":"73642","city":"Durham","state":"OK","lat":35.8364,"long":-99.9088},{"zip":"73650","city":"Hammon","state":"OK","lat":35.6461,"long":-99.4027},{"zip":"73660","city":"Reydon","state":"OK","lat":35.6576,"long":-99.9166},{"zip":"73666","city":"Sweetwater","state":"OK","lat":35.4488,"long":-99.9006},{"zip":"73622","city":"Bessie","state":"OK","lat":35.3854,"long":-98.9896},{"zip":"73624","city":"Burns Flat","state":"OK","lat":35.3492,"long":-99.188},{"zip":"73626","city":"Canute","state":"OK","lat":35.4037,"long":-99.2816},{"zip":"73632","city":"Cordell","state":"OK","lat":35.2788,"long":-98.9511},{"zip":"73641","city":"Dill City","state":"OK","lat":35.2787,"long":-99.1537},{"zip":"73647","city":"Foss","state":"OK","lat":35.4545,"long":-99.1698},{"zip":"73661","city":"Rocky","state":"OK","lat":35.1526,"long":-99.048},{"zip":"73664","city":"Sentinel","state":"OK","lat":35.1617,"long":-99.1706}]
