[{"zip":"73716","city":"Aline","state":"OK","lat":36.5056,"long":-98.4574},{"zip":"73719","city":"Amorita","state":"OK","lat":36.9412,"long":-98.2458},{"zip":"73722","city":"Burlington","state":"OK","lat":36.9036,"long":-98.4215},{"zip":"73726","city":"Carmen","state":"OK","lat":36.5842,"long":-98.4578},{"zip":"73728","city":"Cherokee","state":"OK","lat":36.7564,"long":-98.3594},{"zip":"73739","city":"Goltry","state":"OK","lat":36.5314,"long":-98.154},{"zip":"73741","city":"Helena","state":"OK","lat":36.5438,"long":-98.2778},{"zip":"73749","city":"Jet","state":"OK","lat":36.6929,"long":-98.1721},{"zip":"73724","city":"Canton","state":"OK","lat":36.0372,"long":-98.5778},{"zip":"73744","city":"Hitchcock","state":"OK","lat":35.9712,"long":-98.3315},{"zip":"73755","city":"Longdale","state":"OK","lat":36.1212,"long":-98.55},{"zip":"73763","city":"Okeene","state":"OK","lat":36.1165,"long":-98.3254},{"zip":"73770","city":"Southard","state":"OK","lat":36.0581,"long":-98.5884},{"zip":"73772","city":"Watonga","state":"OK","lat":35.8538,"long":-98.4175},{"zip":"73701","city":"Enid","state":"OK","lat":36.4028,"long":-97.8623},{"zip":"73702","city":"Enid","state":"OK","lat":36.3956,"long":-97.8784},{"zip":"73703","city":"Enid","state":"OK","lat":36.3975,"long":-97.9157},{"zip":"73705","city":"Enid","state":"OK","lat":36.3382,"long":-97.9026},{"zip":"73706","city":"Enid","state":"OK","lat":36.3791,"long":-97.7826},{"zip":"73720","city":"Bison","state":"OK","lat":36.1962,"long":-97.8805},{"zip":"73727","city":"Carrier","state":"OK","lat":36.4922,"long":-98.0422},{"zip":"73730","city":"Covington","state":"OK","lat":36.3099,"long":-97.5752},{"zip":"73733","city":"Douglas","state":"OK","lat":36.2481,"long":-97.6896},{"zip":"73735","city":"Drummond","state":"OK","lat":36.2841,"long":-98.0358},{"zip":"73736","city":"Fairmont","state":"OK","lat":36.34,"long":-97.6848},{"zip":"73738","city":"Garber","state":"OK","lat":36.4392,"long":-97.5789},{"zip":"73743","city":"Hillsdale","state":"OK","lat":36.5631,"long":-97.9915},{"zip":"73753","city":"Kremlin","state":"OK","lat":36.5207,"long":-97.8542},{"zip":"73754","city":"Lahoma","state":"OK","lat":36.385,"long":-98.0727},{"zip":"73773","city":"Waukomis","state":"OK","lat":36.2781,"long":-97.8996},{"zip":"73758","city":"Manchester","state":"OK","lat":36.9744,"long":-98.0383},{"zip":"73759","city":"Medford","state":"OK","lat":36.8142,"long":-97.7202},{"zip":"73761","city":"Nash","state":"OK","lat":36.6961,"long":-98.0258},{"zip":"73766","city":"Pond Creek","state":"OK","lat":36.6643,"long":-97.8019},{"zip":"73771","city":"Wakita","state":"OK","lat":36.8753,"long":-97.9427},{"zip":"73734","city":"Dover","state":"OK","lat":35.9848,"long":-97.9067},{"zip":"73742","city":"Hennessey","state":"OK","lat":36.0868,"long":-97.8926},{"zip":"73750","city":"Kingfisher","state":"OK","lat":35.8636,"long":-97.9473},{"zip":"73756","city":"Loyal","state":"OK","lat":35.9705,"long":-98.1155},{"zip":"73762","city":"Okarche","state":"OK","lat":35.7502,"long":-97.93},{"zip":"73764","city":"Omega","state":"OK","lat":35.8507,"long":-98.1863},{"zip":"73718","city":"Ames","state":"OK","lat":36.2423,"long":-98.182},{"zip":"73729","city":"Cleo Springs","state":"OK","lat":36.409,"long":-98.4423},{"zip":"73737","city":"Fairview","state":"OK","lat":36.2871,"long":-98.604},{"zip":"73747","city":"Isabella","state":"OK","lat":36.2341,"long":-98.3374},{"zip":"73760","city":"Meno","state":"OK","lat":36.3815,"long":-98.1635},{"zip":"73768","city":"Ringwood","state":"OK","lat":36.3753,"long":-98.2706},{"zip":"73757","city":"Lucien","state":"OK","lat":36.2753,"long":-97.4526},{"zip":"73717","city":"Alva","state":"OK","lat":36.8016,"long":-98.6722},{"zip":"73731","city":"Dacoma","state":"OK","lat":36.6606,"long":-98.5942},{"zip":"73746","city":"Hopeton","state":"OK","lat":36.6881,"long":-98.6659}]
