[{"zip":"73844","city":"Gate","state":"OK","lat":36.8757,"long":-100.0734},{"zip":"73835","city":"Camargo","state":"OK","lat":36.0212,"long":-99.2781},{"zip":"73859","city":"Vici","state":"OK","lat":36.1372,"long":-99.267},{"zip":"73832","city":"Arnett","state":"OK","lat":36.0522,"long":-99.6514},{"zip":"73840","city":"Fargo","state":"OK","lat":36.3761,"long":-99.6237},{"zip":"73843","city":"Gage","state":"OK","lat":36.318,"long":-99.76},{"zip":"73858","city":"Shattuck","state":"OK","lat":36.2889,"long":-99.8793},{"zip":"73834","city":"Buffalo","state":"OK","lat":36.8523,"long":-99.5538},{"zip":"73848","city":"Laverne","state":"OK","lat":36.7062,"long":-99.8918},{"zip":"73851","city":"May","state":"OK","lat":36.6226,"long":-99.7858},{"zip":"73855","city":"Rosston","state":"OK","lat":36.8789,"long":-99.9003},{"zip":"73838","city":"Chester","state":"OK","lat":36.2621,"long":-98.8838},{"zip":"73842","city":"Freedom","state":"OK","lat":36.809,"long":-99.1319},{"zip":"73860","city":"Waynoka","state":"OK","lat":36.5858,"long":-98.8487},{"zip":"73801","city":"Woodward","state":"OK","lat":36.4268,"long":-99.402},{"zip":"73802","city":"Woodward","state":"OK","lat":36.544,"long":-99.3003},{"zip":"73841","city":"Fort Supply","state":"OK","lat":36.5722,"long":-99.5738},{"zip":"73852","city":"Mooreland","state":"OK","lat":36.4428,"long":-99.1832},{"zip":"73853","city":"Mutual","state":"OK","lat":36.214,"long":-99.1145},{"zip":"73857","city":"Sharon","state":"OK","lat":36.2699,"long":-99.3587}]
