[{"zip":"73931","city":"Balko","state":"OK","lat":36.5996,"long":-100.7103},{"zip":"73932","city":"Beaver","state":"OK","lat":36.8341,"long":-100.5177},{"zip":"73938","city":"Forgan","state":"OK","lat":36.9086,"long":-100.5409},{"zip":"73950","city":"Turpin","state":"OK","lat":36.8664,"long":-100.8779},{"zip":"73933","city":"Boise City","state":"OK","lat":36.7283,"long":-102.5355},{"zip":"73937","city":"Felt","state":"OK","lat":36.5666,"long":-102.7974},{"zip":"73946","city":"Kenton","state":"OK","lat":36.9031,"long":-102.9653},{"zip":"73947","city":"Keyes","state":"OK","lat":36.8003,"long":-102.2361},{"zip":"73901","city":"Adams","state":"OK","lat":36.755,"long":-101.078},{"zip":"73939","city":"Goodwell","state":"OK","lat":36.6744,"long":-101.7137},{"zip":"73942","city":"Guymon","state":"OK","lat":36.6961,"long":-101.4778},{"zip":"73944","city":"Hardesty","state":"OK","lat":36.6018,"long":-101.1539},{"zip":"73945","city":"Hooker","state":"OK","lat":36.8109,"long":-101.2163},{"zip":"73949","city":"Texhoma","state":"OK","lat":36.5253,"long":-101.8394},{"zip":"73951","city":"Tyrone","state":"OK","lat":36.9558,"long":-101.0594},{"zip":"73960","city":"Texhoma","state":"TX","lat":36.5055,"long":-101.7829}]
