[{"zip":"74457","city":"Proctor","state":"OK","lat":36.0308,"long":-94.7613},{"zip":"74931","city":"Bunch","state":"OK","lat":35.6826,"long":-94.7611},{"zip":"74960","city":"Stilwell","state":"OK","lat":35.8107,"long":-94.6313},{"zip":"74964","city":"Watts","state":"OK","lat":36.1152,"long":-94.6345},{"zip":"74965","city":"Westville","state":"OK","lat":35.9912,"long":-94.5926},{"zip":"74525","city":"Atoka","state":"OK","lat":34.3445,"long":-96.1418},{"zip":"74533","city":"Caney","state":"OK","lat":34.2221,"long":-96.2584},{"zip":"74540","city":"Daisy","state":"OK","lat":34.5384,"long":-95.7088},{"zip":"74555","city":"Lane","state":"OK","lat":34.2691,"long":-95.9685},{"zip":"74569","city":"Stringtown","state":"OK","lat":34.4676,"long":-96.0002},{"zip":"74701","city":"Durant","state":"OK","lat":34.0061,"long":-96.3847},{"zip":"74702","city":"Durant","state":"OK","lat":33.922,"long":-96.1918},{"zip":"74720","city":"Achille","state":"OK","lat":33.8396,"long":-96.3648},{"zip":"74721","city":"Albany","state":"OK","lat":33.8815,"long":-96.1628},{"zip":"74723","city":"Bennington","state":"OK","lat":33.9771,"long":-96.0188},{"zip":"74726","city":"Bokchito","state":"OK","lat":33.9859,"long":-96.1621},{"zip":"74729","city":"Caddo","state":"OK","lat":34.1157,"long":-96.26},{"zip":"74730","city":"Calera","state":"OK","lat":33.9322,"long":-96.4308},{"zip":"74731","city":"Cartwright","state":"OK","lat":33.8668,"long":-96.5672},{"zip":"74733","city":"Colbert","state":"OK","lat":33.8575,"long":-96.4953},{"zip":"74741","city":"Hendrix","state":"OK","lat":33.8016,"long":-96.3581},{"zip":"74747","city":"Kemp","state":"OK","lat":33.773,"long":-96.3555},{"zip":"74748","city":"Kenefic","state":"OK","lat":34.1481,"long":-96.3622},{"zip":"74753","city":"Platter","state":"OK","lat":33.9171,"long":-96.5501},{"zip":"74427","city":"Cookson","state":"OK","lat":35.7116,"long":-94.9132},{"zip":"74441","city":"Hulbert","state":"OK","lat":35.9254,"long":-95.1651},{"zip":"74444","city":"Moodys","state":"OK","lat":36.0458,"long":-94.9669},{"zip":"74451","city":"Park Hill","state":"OK","lat":35.7977,"long":-94.9822},{"zip":"74452","city":"Peggs","state":"OK","lat":36.1154,"long":-95.1199},{"zip":"74464","city":"Tahlequah","state":"OK","lat":35.9094,"long":-94.9787},{"zip":"74465","city":"Tahlequah","state":"OK","lat":35.9001,"long":-95.04},{"zip":"74471","city":"Welling","state":"OK","lat":35.8819,"long":-94.8653},{"zip":"74727","city":"Boswell","state":"OK","lat":34.0245,"long":-95.8403},{"zip":"74735","city":"Fort Towson","state":"OK","lat":34.052,"long":-95.253},{"zip":"74738","city":"Grant","state":"OK","lat":33.9302,"long":-95.4893},{"zip":"74743","city":"Hugo","state":"OK","lat":34.0113,"long":-95.5139},{"zip":"74756","city":"Sawyer","state":"OK","lat":34.0277,"long":-95.3558},{"zip":"74759","city":"Soper","state":"OK","lat":34.0366,"long":-95.6916},{"zip":"74760","city":"Spencerville","state":"OK","lat":34.1508,"long":-95.3771},{"zip":"74761","city":"Swink","state":"OK","lat":34.0179,"long":-95.2022},{"zip":"74534","city":"Centrahoma","state":"OK","lat":34.6066,"long":-96.3386},{"zip":"74535","city":"Clarita","state":"OK","lat":34.4829,"long":-96.4333},{"zip":"74538","city":"Coalgate","state":"OK","lat":34.5344,"long":-96.2167},{"zip":"74556","city":"Lehigh","state":"OK","lat":34.4756,"long":-96.1889},{"zip":"74572","city":"Tupelo","state":"OK","lat":34.5598,"long":-96.4274},{"zip":"74301","city":"Vinita","state":"OK","lat":36.6334,"long":-95.1382},{"zip":"74332","city":"Big Cabin","state":"OK","lat":36.534,"long":-95.2246},{"zip":"74333","city":"Bluejacket","state":"OK","lat":36.7975,"long":-95.1018},{"zip":"74369","city":"Welch","state":"OK","lat":36.902,"long":-95.1295},{"zip":"74010","city":"Bristow","state":"OK","lat":35.8209,"long":-96.3758},{"zip":"74028","city":"Depew","state":"OK","lat":35.7561,"long":-96.4897},{"zip":"74030","city":"Drumright","state":"OK","lat":35.9931,"long":-96.5198},{"zip":"74039","city":"Kellyville","state":"OK","lat":35.9171,"long":-96.218},{"zip":"74041","city":"Kiefer","state":"OK","lat":35.9528,"long":-96.061},{"zip":"74044","city":"Mannford","state":"OK","lat":36.0927,"long":-96.3576},{"zip":"74046","city":"Milfay","state":"OK","lat":35.7551,"long":-96.5658},{"zip":"74047","city":"Mounds","state":"OK","lat":35.8896,"long":-96.0887},{"zip":"74052","city":"Oilton","state":"OK","lat":36.0685,"long":-96.5958},{"zip":"74066","city":"Sapulpa","state":"OK","lat":36.003,"long":-96.1106},{"zip":"74067","city":"Sapulpa","state":"OK","lat":36.0196,"long":-96.0937},{"zip":"74068","city":"Shamrock","state":"OK","lat":35.9124,"long":-96.578},{"zip":"74071","city":"Slick","state":"OK","lat":35.7861,"long":-96.2806},{"zip":"74131","city":"Tulsa","state":"OK","lat":36.0557,"long":-96.0602},{"zip":"74338","city":"Colcord","state":"OK","lat":36.2333,"long":-94.6547},{"zip":"74342","city":"Eucha","state":"OK","lat":36.4063,"long":-94.9157},{"zip":"74344","city":"Grove","state":"OK","lat":36.5929,"long":-94.7565},{"zip":"74345","city":"Grove","state":"OK","lat":36.6036,"long":-94.7297},{"zip":"74346","city":"Jay","state":"OK","lat":36.4363,"long":-94.7763},{"zip":"74347","city":"Kansas","state":"OK","lat":36.2161,"long":-94.8114},{"zip":"74359","city":"Oaks","state":"OK","lat":36.1662,"long":-94.8547},{"zip":"74368","city":"Twin Oaks","state":"OK","lat":36.2054,"long":-94.8513},{"zip":"74640","city":"Hunter","state":"OK","lat":36.5603,"long":-97.6425},{"zip":"74872","city":"Stratford","state":"OK","lat":34.7714,"long":-96.9763},{"zip":"74636","city":"Deer Creek","state":"OK","lat":36.8048,"long":-97.5136},{"zip":"74643","city":"Lamont","state":"OK","lat":36.6939,"long":-97.5601},{"zip":"74440","city":"Hoyt","state":"OK","lat":35.2685,"long":-95.2994},{"zip":"74462","city":"Stigler","state":"OK","lat":35.2686,"long":-95.1071},{"zip":"74472","city":"Whitefield","state":"OK","lat":35.2646,"long":-95.2645},{"zip":"74552","city":"Kinta","state":"OK","lat":35.1193,"long":-95.2377},{"zip":"74941","city":"Keota","state":"OK","lat":35.2645,"long":-94.9028},{"zip":"74943","city":"Lequire","state":"OK","lat":35.0867,"long":-95.0974},{"zip":"74944","city":"Mccurtain","state":"OK","lat":35.1404,"long":-95.0127},{"zip":"74531","city":"Calvin","state":"OK","lat":34.878,"long":-96.271},{"zip":"74570","city":"Stuart","state":"OK","lat":34.8826,"long":-96.1381},{"zip":"74827","city":"Atwood","state":"OK","lat":34.9562,"long":-96.3386},{"zip":"74839","city":"Dustin","state":"OK","lat":35.2519,"long":-96.0573},{"zip":"74848","city":"Holdenville","state":"OK","lat":35.0839,"long":-96.377},{"zip":"74850","city":"Lamar","state":"OK","lat":35.0836,"long":-96.1142},{"zip":"74883","city":"Wetumka","state":"OK","lat":35.2396,"long":-96.2421},{"zip":"74530","city":"Bromide","state":"OK","lat":34.4233,"long":-96.4867},{"zip":"74836","city":"Connerville","state":"OK","lat":34.4194,"long":-96.6291},{"zip":"74856","city":"Mill Creek","state":"OK","lat":34.3098,"long":-96.7884},{"zip":"74601","city":"Ponca City","state":"OK","lat":36.7031,"long":-97.0784},{"zip":"74602","city":"Ponca City","state":"OK","lat":36.6954,"long":-97.1377},{"zip":"74604","city":"Ponca City","state":"OK","lat":36.7299,"long":-97.0454},{"zip":"74631","city":"Blackwell","state":"OK","lat":36.8006,"long":-97.2867},{"zip":"74632","city":"Braman","state":"OK","lat":36.9331,"long":-97.3082},{"zip":"74641","city":"Kaw City","state":"OK","lat":36.8382,"long":-96.8833},{"zip":"74646","city":"Nardin","state":"OK","lat":36.8155,"long":-97.4325},{"zip":"74647","city":"Newkirk","state":"OK","lat":36.84,"long":-97.0561},{"zip":"74653","city":"Tonkawa","state":"OK","lat":36.6806,"long":-97.3063},{"zip":"74545","city":"Gowen","state":"OK","lat":34.8724,"long":-95.469},{"zip":"74559","city":"Panola","state":"OK","lat":34.9287,"long":-95.2133},{"zip":"74563","city":"Red Oak","state":"OK","lat":34.9422,"long":-95.0904},{"zip":"74578","city":"Wilburton","state":"OK","lat":34.9128,"long":-95.3389},{"zip":"74549","city":"Honobia","state":"OK","lat":34.5519,"long":-94.9428},{"zip":"74571","city":"Talihina","state":"OK","lat":34.7381,"long":-94.9978},{"zip":"74577","city":"Whitesboro","state":"OK","lat":34.6926,"long":-94.8852},{"zip":"74901","city":"Arkoma","state":"OK","lat":35.3434,"long":-94.4403},{"zip":"74902","city":"Pocola","state":"OK","lat":35.2436,"long":-94.476},{"zip":"74930","city":"Bokoshe","state":"OK","lat":35.1865,"long":-94.7858},{"zip":"74932","city":"Cameron","state":"OK","lat":35.1494,"long":-94.506},{"zip":"74935","city":"Fanshawe","state":"OK","lat":34.9537,"long":-94.8998},{"zip":"74937","city":"Heavener","state":"OK","lat":34.8353,"long":-94.6185},{"zip":"74939","city":"Hodgen","state":"OK","lat":34.7538,"long":-94.6391},{"zip":"74940","city":"Howe","state":"OK","lat":34.9512,"long":-94.6372},{"zip":"74942","city":"Leflore","state":"OK","lat":34.8979,"long":-94.9758},{"zip":"74947","city":"Monroe","state":"OK","lat":34.9906,"long":-94.515},{"zip":"74949","city":"Muse","state":"OK","lat":34.6641,"long":-94.719},{"zip":"74951","city":"Panama","state":"OK","lat":35.1535,"long":-94.6709},{"zip":"74953","city":"Poteau","state":"OK","lat":35.0606,"long":-94.6096},{"zip":"74956","city":"Shady Point","state":"OK","lat":35.1293,"long":-94.6665},{"zip":"74959","city":"Spiro","state":"OK","lat":35.2492,"long":-94.6265},{"zip":"74966","city":"Wister","state":"OK","lat":34.9556,"long":-94.7832},{"zip":"74026","city":"Davenport","state":"OK","lat":35.7089,"long":-96.767},{"zip":"74079","city":"Stroud","state":"OK","lat":35.7398,"long":-96.6719},{"zip":"74824","city":"Agra","state":"OK","lat":35.909,"long":-96.8738},{"zip":"74832","city":"Carney","state":"OK","lat":35.8054,"long":-97.0159},{"zip":"74834","city":"Chandler","state":"OK","lat":35.7017,"long":-96.8809},{"zip":"74855","city":"Meeker","state":"OK","lat":35.5211,"long":-96.9981},{"zip":"74864","city":"Prague","state":"OK","lat":35.5105,"long":-96.7009},{"zip":"74869","city":"Sparks","state":"OK","lat":35.6138,"long":-96.8163},{"zip":"74875","city":"Tryon","state":"OK","lat":35.8759,"long":-96.9623},{"zip":"74881","city":"Wellston","state":"OK","lat":35.6757,"long":-97.0597},{"zip":"74831","city":"Byars","state":"OK","lat":34.8904,"long":-97.0997},{"zip":"74722","city":"Battiest","state":"OK","lat":34.3934,"long":-94.9249},{"zip":"74724","city":"Bethel","state":"OK","lat":34.3598,"long":-94.8374},{"zip":"74728","city":"Broken Bow","state":"OK","lat":34.027,"long":-94.7623},{"zip":"74734","city":"Eagletown","state":"OK","lat":34.0364,"long":-94.5596},{"zip":"74736","city":"Garvin","state":"OK","lat":33.9192,"long":-94.986},{"zip":"74737","city":"Golden","state":"OK","lat":34.0303,"long":-94.8986},{"zip":"74740","city":"Haworth","state":"OK","lat":33.785,"long":-94.633},{"zip":"74745","city":"Idabel","state":"OK","lat":33.8851,"long":-94.802},{"zip":"74750","city":"Millerton","state":"OK","lat":33.9801,"long":-95.0025},{"zip":"74752","city":"Pickens","state":"OK","lat":34.3965,"long":-95.0119},{"zip":"74754","city":"Ringold","state":"OK","lat":34.1799,"long":-95.0704},{"zip":"74755","city":"Rufe","state":"OK","lat":34.1272,"long":-95.1174},{"zip":"74764","city":"Valliant","state":"OK","lat":34.0091,"long":-95.0686},{"zip":"74766","city":"Wright City","state":"OK","lat":34.0799,"long":-94.9929},{"zip":"74957","city":"Smithville","state":"OK","lat":34.4954,"long":-94.6981},{"zip":"74963","city":"Watson","state":"OK","lat":34.4193,"long":-94.5562},{"zip":"74426","city":"Checotah","state":"OK","lat":35.4358,"long":-95.535},{"zip":"74432","city":"Eufaula","state":"OK","lat":35.2911,"long":-95.6472},{"zip":"74438","city":"Hitchita","state":"OK","lat":35.5297,"long":-95.7596},{"zip":"74459","city":"Rentiesville","state":"OK","lat":35.5214,"long":-95.495},{"zip":"74461","city":"Stidham","state":"OK","lat":35.3814,"long":-95.7056},{"zip":"74845","city":"Hanna","state":"OK","lat":35.2604,"long":-95.8675},{"zip":"74330","city":"Adair","state":"OK","lat":36.4115,"long":-95.2732},{"zip":"74337","city":"Chouteau","state":"OK","lat":36.1669,"long":-95.3416},{"zip":"74340","city":"Disney","state":"OK","lat":36.4759,"long":-95.024},{"zip":"74349","city":"Ketchum","state":"OK","lat":36.5245,"long":-95.0239},{"zip":"74350","city":"Langley","state":"OK","lat":36.4645,"long":-95.0478},{"zip":"74352","city":"Locust Grove","state":"OK","lat":36.1819,"long":-95.1689},{"zip":"74361","city":"Pryor","state":"OK","lat":36.2921,"long":-95.3129},{"zip":"74362","city":"Pryor","state":"OK","lat":36.2925,"long":-95.2228},{"zip":"74364","city":"Rose","state":"OK","lat":36.1951,"long":-94.9643},{"zip":"74365","city":"Salina","state":"OK","lat":36.3116,"long":-95.1158},{"zip":"74366","city":"Spavinaw","state":"OK","lat":36.3912,"long":-95.0466},{"zip":"74367","city":"Strang","state":"OK","lat":36.4141,"long":-95.0773},{"zip":"74401","city":"Muskogee","state":"OK","lat":35.7058,"long":-95.5002},{"zip":"74402","city":"Muskogee","state":"OK","lat":35.7642,"long":-95.3069},{"zip":"74403","city":"Muskogee","state":"OK","lat":35.7411,"long":-95.3449},{"zip":"74422","city":"Boynton","state":"OK","lat":35.6577,"long":-95.66},{"zip":"74423","city":"Braggs","state":"OK","lat":35.6574,"long":-95.2033},{"zip":"74428","city":"Council Hill","state":"OK","lat":35.5556,"long":-95.6514},{"zip":"74434","city":"Fort Gibson","state":"OK","lat":35.7943,"long":-95.2297},{"zip":"74436","city":"Haskell","state":"OK","lat":35.8108,"long":-95.684},{"zip":"74439","city":"Braggs","state":"OK","lat":35.6767,"long":-95.1775},{"zip":"74450","city":"Oktaha","state":"OK","lat":35.625,"long":-95.4856},{"zip":"74455","city":"Porum","state":"OK","lat":35.3631,"long":-95.2607},{"zip":"74463","city":"Taft","state":"OK","lat":35.7581,"long":-95.5494},{"zip":"74468","city":"Wainwright","state":"OK","lat":35.6126,"long":-95.5644},{"zip":"74469","city":"Warner","state":"OK","lat":35.4945,"long":-95.3064},{"zip":"74470","city":"Webbers Falls","state":"OK","lat":35.5138,"long":-95.1659},{"zip":"74630","city":"Billings","state":"OK","lat":36.5246,"long":-97.4189},{"zip":"74644","city":"Marland","state":"OK","lat":36.5609,"long":-97.1512},{"zip":"74651","city":"Red Rock","state":"OK","lat":36.4748,"long":-97.164},{"zip":"74027","city":"Delaware","state":"OK","lat":36.7804,"long":-95.6181},{"zip":"74042","city":"Lenapah","state":"OK","lat":36.8801,"long":-95.6233},{"zip":"74048","city":"Nowata","state":"OK","lat":36.6946,"long":-95.6404},{"zip":"74072","city":"S Coffeyville","state":"OK","lat":36.9837,"long":-95.6065},{"zip":"74083","city":"Wann","state":"OK","lat":36.9402,"long":-95.7768},{"zip":"74829","city":"Boley","state":"OK","lat":35.4913,"long":-96.4704},{"zip":"74833","city":"Castle","state":"OK","lat":35.4732,"long":-96.3791},{"zip":"74859","city":"Okemah","state":"OK","lat":35.4647,"long":-96.3287},{"zip":"74860","city":"Paden","state":"OK","lat":35.5182,"long":-96.5719},{"zip":"74880","city":"Weleetka","state":"OK","lat":35.3416,"long":-96.1136},{"zip":"74857","city":"Newalla","state":"OK","lat":35.3734,"long":-97.1971},{"zip":"74421","city":"Beggs","state":"OK","lat":35.7896,"long":-96.0264},{"zip":"74431","city":"Dewar","state":"OK","lat":35.4551,"long":-95.9498},{"zip":"74437","city":"Henryetta","state":"OK","lat":35.4622,"long":-96.0122},{"zip":"74445","city":"Morris","state":"OK","lat":35.6619,"long":-95.8319},{"zip":"74447","city":"Okmulgee","state":"OK","lat":35.6288,"long":-95.9697},{"zip":"74456","city":"Preston","state":"OK","lat":35.7115,"long":-95.9917},{"zip":"74460","city":"Schulter","state":"OK","lat":35.5145,"long":-95.9567},{"zip":"74001","city":"Avant","state":"OK","lat":36.4901,"long":-96.0616},{"zip":"74002","city":"Barnsdall","state":"OK","lat":36.5429,"long":-96.1318},{"zip":"74035","city":"Hominy","state":"OK","lat":36.4111,"long":-96.3878},{"zip":"74054","city":"Osage","state":"OK","lat":36.2832,"long":-96.3774},{"zip":"74056","city":"Pawhuska","state":"OK","lat":36.6904,"long":-96.3121},{"zip":"74060","city":"Prue","state":"OK","lat":36.2501,"long":-96.2701},{"zip":"74070","city":"Skiatook","state":"OK","lat":36.3725,"long":-96.0123},{"zip":"74084","city":"Wynona","state":"OK","lat":36.5462,"long":-96.3272},{"zip":"74127","city":"Tulsa","state":"OK","lat":36.1576,"long":-96.0311},{"zip":"74633","city":"Burbank","state":"OK","lat":36.6966,"long":-96.7869},{"zip":"74637","city":"Fairfax","state":"OK","lat":36.5577,"long":-96.6997},{"zip":"74652","city":"Shidler","state":"OK","lat":36.7819,"long":-96.6607},{"zip":"74331","city":"Afton","state":"OK","lat":36.6296,"long":-94.9432},{"zip":"74335","city":"Cardin","state":"OK","lat":36.9795,"long":-94.8557},{"zip":"74339","city":"Commerce","state":"OK","lat":36.9331,"long":-94.873},{"zip":"74343","city":"Fairland","state":"OK","lat":36.7418,"long":-94.8279},{"zip":"74354","city":"Miami","state":"OK","lat":36.8764,"long":-94.8719},{"zip":"74355","city":"Miami","state":"OK","lat":36.8341,"long":-94.877},{"zip":"74358","city":"North Miami","state":"OK","lat":36.9173,"long":-94.8797},{"zip":"74360","city":"Picher","state":"OK","lat":36.98,"long":-94.8173},{"zip":"74363","city":"Quapaw","state":"OK","lat":36.9282,"long":-94.743},{"zip":"74370","city":"Wyandotte","state":"OK","lat":36.7796,"long":-94.7002},{"zip":"74020","city":"Cleveland","state":"OK","lat":36.2553,"long":-96.423},{"zip":"74034","city":"Hallett","state":"OK","lat":36.2319,"long":-96.562},{"zip":"74038","city":"Jennings","state":"OK","lat":36.1863,"long":-96.5732},{"zip":"74045","city":"Maramec","state":"OK","lat":36.242,"long":-96.6803},{"zip":"74058","city":"Pawnee","state":"OK","lat":36.3362,"long":-96.7923},{"zip":"74081","city":"Terlton","state":"OK","lat":36.1889,"long":-96.4876},{"zip":"74650","city":"Ralston","state":"OK","lat":36.4992,"long":-96.7755},{"zip":"74023","city":"Cushing","state":"OK","lat":35.9822,"long":-96.7526},{"zip":"74032","city":"Glencoe","state":"OK","lat":36.2158,"long":-96.9138},{"zip":"74059","city":"Perkins","state":"OK","lat":35.9768,"long":-97.0441},{"zip":"74062","city":"Ripley","state":"OK","lat":35.9985,"long":-96.8967},{"zip":"74074","city":"Stillwater","state":"OK","lat":36.1043,"long":-97.0609},{"zip":"74075","city":"Stillwater","state":"OK","lat":36.1396,"long":-97.063},{"zip":"74076","city":"Stillwater","state":"OK","lat":36.0724,"long":-97.0551},{"zip":"74077","city":"Stillwater","state":"OK","lat":36.1156,"long":-97.0584},{"zip":"74078","city":"Stillwater","state":"OK","lat":36.1241,"long":-97.0705},{"zip":"74085","city":"Yale","state":"OK","lat":36.1101,"long":-96.7022},{"zip":"74425","city":"Canadian","state":"OK","lat":35.1571,"long":-95.6215},{"zip":"74430","city":"Crowder","state":"OK","lat":35.1334,"long":-95.6602},{"zip":"74442","city":"Indianola","state":"OK","lat":35.1314,"long":-95.8158},{"zip":"74501","city":"Mcalester","state":"OK","lat":34.9262,"long":-95.7592},{"zip":"74502","city":"Mcalester","state":"OK","lat":34.9334,"long":-95.7697},{"zip":"74522","city":"Alderson","state":"OK","lat":34.9001,"long":-95.6919},{"zip":"74528","city":"Blanco","state":"OK","lat":34.7276,"long":-95.7283},{"zip":"74529","city":"Blocker","state":"OK","lat":35.0615,"long":-95.5683},{"zip":"74546","city":"Haileyville","state":"OK","lat":34.85,"long":-95.5777},{"zip":"74547","city":"Hartshorne","state":"OK","lat":34.8452,"long":-95.574},{"zip":"74553","city":"Kiowa","state":"OK","lat":34.7278,"long":-95.9328},{"zip":"74554","city":"Krebs","state":"OK","lat":34.9255,"long":-95.7216},{"zip":"74560","city":"Pittsburg","state":"OK","lat":34.6975,"long":-95.8439},{"zip":"74561","city":"Quinton","state":"OK","lat":35.1547,"long":-95.4671},{"zip":"74565","city":"Savanna","state":"OK","lat":34.8354,"long":-95.838},{"zip":"74576","city":"Wardville","state":"OK","lat":34.6695,"long":-96.0258},{"zip":"74820","city":"Ada","state":"OK","lat":34.78,"long":-96.6924},{"zip":"74821","city":"Ada","state":"OK","lat":34.7745,"long":-96.6783},{"zip":"74825","city":"Allen","state":"OK","lat":34.8691,"long":-96.4151},{"zip":"74842","city":"Fittstown","state":"OK","lat":34.6148,"long":-96.6345},{"zip":"74843","city":"Fitzhugh","state":"OK","lat":34.6615,"long":-96.7745},{"zip":"74844","city":"Francis","state":"OK","lat":34.8737,"long":-96.5956},{"zip":"74865","city":"Roff","state":"OK","lat":34.6153,"long":-96.8423},{"zip":"74871","city":"Stonewall","state":"OK","lat":34.6511,"long":-96.5273},{"zip":"74801","city":"Shawnee","state":"OK","lat":35.2958,"long":-96.9601},{"zip":"74802","city":"Shawnee","state":"OK","lat":35.3273,"long":-96.9253},{"zip":"74804","city":"Shawnee","state":"OK","lat":35.3868,"long":-96.9331},{"zip":"74826","city":"Asher","state":"OK","lat":34.9849,"long":-96.8763},{"zip":"74840","city":"Earlsboro","state":"OK","lat":35.2628,"long":-96.8041},{"zip":"74851","city":"Mcloud","state":"OK","lat":35.4262,"long":-97.079},{"zip":"74852","city":"Macomb","state":"OK","lat":35.1205,"long":-97.034},{"zip":"74854","city":"Maud","state":"OK","lat":35.1292,"long":-96.7627},{"zip":"74866","city":"Saint Louis","state":"OK","lat":35.0588,"long":-96.8444},{"zip":"74873","city":"Tecumseh","state":"OK","lat":35.2502,"long":-96.9667},{"zip":"74878","city":"Wanette","state":"OK","lat":34.9983,"long":-97.0419},{"zip":"74521","city":"Albion","state":"OK","lat":34.6516,"long":-95.0924},{"zip":"74523","city":"Antlers","state":"OK","lat":34.2349,"long":-95.6254},{"zip":"74536","city":"Clayton","state":"OK","lat":34.5906,"long":-95.38},{"zip":"74543","city":"Finley","state":"OK","lat":34.3407,"long":-95.5385},{"zip":"74557","city":"Moyers","state":"OK","lat":34.3386,"long":-95.6639},{"zip":"74558","city":"Nashoba","state":"OK","lat":34.5072,"long":-95.2075},{"zip":"74562","city":"Rattan","state":"OK","lat":34.2454,"long":-95.3442},{"zip":"74567","city":"Snow","state":"OK","lat":34.4419,"long":-95.4622},{"zip":"74574","city":"Tuskahoma","state":"OK","lat":34.6622,"long":-95.2362},{"zip":"74015","city":"Catoosa","state":"OK","lat":36.1721,"long":-95.7273},{"zip":"74016","city":"Chelsea","state":"OK","lat":36.5356,"long":-95.4489},{"zip":"74017","city":"Claremore","state":"OK","lat":36.3242,"long":-95.5985},{"zip":"74018","city":"Claremore","state":"OK","lat":36.3436,"long":-95.606},{"zip":"74031","city":"Foyil","state":"OK","lat":36.4348,"long":-95.5194},{"zip":"74036","city":"Inola","state":"OK","lat":36.1503,"long":-95.5205},{"zip":"74053","city":"Oologah","state":"OK","lat":36.4482,"long":-95.7047},{"zip":"74080","city":"Talala","state":"OK","lat":36.5429,"long":-95.7142},{"zip":"74818","city":"Seminole","state":"OK","lat":35.2245,"long":-96.6706},{"zip":"74830","city":"Bowlegs","state":"OK","lat":35.1462,"long":-96.67},{"zip":"74837","city":"Cromwell","state":"OK","lat":35.3405,"long":-96.4546},{"zip":"74849","city":"Konawa","state":"OK","lat":34.9708,"long":-96.7343},{"zip":"74867","city":"Sasakwa","state":"OK","lat":34.951,"long":-96.5387},{"zip":"74868","city":"Seminole","state":"OK","lat":35.2521,"long":-96.6683},{"zip":"74884","city":"Wewoka","state":"OK","lat":35.1463,"long":-96.628},{"zip":"74435","city":"Gore","state":"OK","lat":35.5418,"long":-95.1095},{"zip":"74936","city":"Gans","state":"OK","lat":35.3946,"long":-94.6901},{"zip":"74945","city":"Marble City","state":"OK","lat":35.5972,"long":-94.8094},{"zip":"74946","city":"Moffett","state":"OK","lat":35.3898,"long":-94.4462},{"zip":"74948","city":"Muldrow","state":"OK","lat":35.402,"long":-94.6332},{"zip":"74954","city":"Roland","state":"OK","lat":35.4538,"long":-94.5291},{"zip":"74955","city":"Sallisaw","state":"OK","lat":35.4852,"long":-94.779},{"zip":"74962","city":"Vian","state":"OK","lat":35.5404,"long":-94.9888},{"zip":"74008","city":"Bixby","state":"OK","lat":35.942,"long":-95.8833},{"zip":"74011","city":"Broken Arrow","state":"OK","lat":35.9908,"long":-95.8143},{"zip":"74012","city":"Broken Arrow","state":"OK","lat":36.0447,"long":-95.8079},{"zip":"74013","city":"Broken Arrow","state":"OK","lat":36.0526,"long":-95.7908},{"zip":"74021","city":"Collinsville","state":"OK","lat":36.3701,"long":-95.8469},{"zip":"74033","city":"Glenpool","state":"OK","lat":35.9591,"long":-95.9997},{"zip":"74037","city":"Jenks","state":"OK","lat":36.0148,"long":-95.9797},{"zip":"74043","city":"Leonard","state":"OK","lat":35.9183,"long":-95.7988},{"zip":"74050","city":"Oakhurst","state":"OK","lat":36.0731,"long":-96.0621},{"zip":"74055","city":"Owasso","state":"OK","lat":36.2863,"long":-95.8222},{"zip":"74063","city":"Sand Springs","state":"OK","lat":36.1341,"long":-96.1426},{"zip":"74073","city":"Sperry","state":"OK","lat":36.2955,"long":-95.9804},{"zip":"74101","city":"Tulsa","state":"OK","lat":36.0391,"long":-95.8687},{"zip":"74102","city":"Tulsa","state":"OK","lat":36.154,"long":-95.9928},{"zip":"74103","city":"Tulsa","state":"OK","lat":36.1539,"long":-95.9954},{"zip":"74104","city":"Tulsa","state":"OK","lat":36.1464,"long":-95.9526},{"zip":"74105","city":"Tulsa","state":"OK","lat":36.0948,"long":-95.9655},{"zip":"74106","city":"Tulsa","state":"OK","lat":36.1883,"long":-95.986},{"zip":"74107","city":"Tulsa","state":"OK","lat":36.1042,"long":-96.0244},{"zip":"74108","city":"Tulsa","state":"OK","lat":36.1499,"long":-95.7923},{"zip":"74110","city":"Tulsa","state":"OK","lat":36.1803,"long":-95.9525},{"zip":"74112","city":"Tulsa","state":"OK","lat":36.147,"long":-95.907},{"zip":"74114","city":"Tulsa","state":"OK","lat":36.1262,"long":-95.9408},{"zip":"74115","city":"Tulsa","state":"OK","lat":36.1754,"long":-95.9112},{"zip":"74116","city":"Tulsa","state":"OK","lat":36.175,"long":-95.8477},{"zip":"74117","city":"Tulsa","state":"OK","lat":36.2393,"long":-95.8979},{"zip":"74119","city":"Tulsa","state":"OK","lat":36.1407,"long":-95.9902},{"zip":"74120","city":"Tulsa","state":"OK","lat":36.1442,"long":-95.9734},{"zip":"74121","city":"Tulsa","state":"OK","lat":36.1398,"long":-96.0297},{"zip":"74126","city":"Tulsa","state":"OK","lat":36.2383,"long":-95.9931},{"zip":"74128","city":"Tulsa","state":"OK","lat":36.1459,"long":-95.8514},{"zip":"74129","city":"Tulsa","state":"OK","lat":36.1259,"long":-95.8654},{"zip":"74130","city":"Tulsa","state":"OK","lat":36.2395,"long":-95.9596},{"zip":"74132","city":"Tulsa","state":"OK","lat":36.064,"long":-96.0251},{"zip":"74133","city":"Tulsa","state":"OK","lat":36.0467,"long":-95.8841},{"zip":"74134","city":"Tulsa","state":"OK","lat":36.1162,"long":-95.8225},{"zip":"74135","city":"Tulsa","state":"OK","lat":36.0976,"long":-95.9228},{"zip":"74136","city":"Tulsa","state":"OK","lat":36.0605,"long":-95.9452},{"zip":"74137","city":"Tulsa","state":"OK","lat":36.0284,"long":-95.9306},{"zip":"74141","city":"Tulsa","state":"OK","lat":36.1398,"long":-96.0297},{"zip":"74145","city":"Tulsa","state":"OK","lat":36.0934,"long":-95.8856},{"zip":"74146","city":"Tulsa","state":"OK","lat":36.1093,"long":-95.8506},{"zip":"74147","city":"Tulsa","state":"OK","lat":36.1398,"long":-96.0297},{"zip":"74148","city":"Tulsa","state":"OK","lat":36.1398,"long":-96.0297},{"zip":"74149","city":"Tulsa","state":"OK","lat":36.1398,"long":-96.0297},{"zip":"74150","city":"Tulsa","state":"OK","lat":36.1398,"long":-96.0297},{"zip":"74152","city":"Tulsa","state":"OK","lat":36.1398,"long":-96.0297},{"zip":"74153","city":"Tulsa","state":"OK","lat":36.1398,"long":-96.0297},{"zip":"74155","city":"Tulsa","state":"OK","lat":36.1398,"long":-96.0297},{"zip":"74156","city":"Tulsa","state":"OK","lat":36.3024,"long":-95.9605},{"zip":"74157","city":"Tulsa","state":"OK","lat":36.1398,"long":-96.0297},{"zip":"74158","city":"Tulsa","state":"OK","lat":36.1398,"long":-96.0297},{"zip":"74159","city":"Tulsa","state":"OK","lat":36.0772,"long":-96.0835},{"zip":"74169","city":"Tulsa","state":"OK","lat":36.1398,"long":-96.0297},{"zip":"74170","city":"Tulsa","state":"OK","lat":36.1398,"long":-96.0297},{"zip":"74171","city":"Tulsa","state":"OK","lat":36.154,"long":-95.9928},{"zip":"74172","city":"Tulsa","state":"OK","lat":36.1543,"long":-95.9923},{"zip":"74182","city":"Tulsa","state":"OK","lat":36.154,"long":-95.9928},{"zip":"74186","city":"Tulsa","state":"OK","lat":36.154,"long":-95.9928},{"zip":"74187","city":"Tulsa","state":"OK","lat":36.154,"long":-95.9928},{"zip":"74192","city":"Tulsa","state":"OK","lat":36.154,"long":-95.9928},{"zip":"74193","city":"Tulsa","state":"OK","lat":36.1398,"long":-96.0297},{"zip":"74014","city":"Broken Arrow","state":"OK","lat":36.0544,"long":-95.7223},{"zip":"74019","city":"Claremore","state":"OK","lat":36.2806,"long":-95.6039},{"zip":"74429","city":"Coweta","state":"OK","lat":35.9578,"long":-95.6526},{"zip":"74446","city":"Okay","state":"OK","lat":35.8507,"long":-95.3183},{"zip":"74454","city":"Porter","state":"OK","lat":35.8567,"long":-95.5082},{"zip":"74458","city":"Redbird","state":"OK","lat":35.8836,"long":-95.5917},{"zip":"74467","city":"Wagoner","state":"OK","lat":35.9549,"long":-95.354},{"zip":"74477","city":"Wagoner","state":"OK","lat":35.9636,"long":-95.5139},{"zip":"74003","city":"Bartlesville","state":"OK","lat":36.744,"long":-95.9921},{"zip":"74004","city":"Bartlesville","state":"OK","lat":36.7114,"long":-95.894},{"zip":"74005","city":"Bartlesville","state":"OK","lat":36.7473,"long":-95.9808},{"zip":"74006","city":"Bartlesville","state":"OK","lat":36.7366,"long":-95.9251},{"zip":"74022","city":"Copan","state":"OK","lat":36.9062,"long":-95.913},{"zip":"74029","city":"Dewey","state":"OK","lat":36.8013,"long":-95.9345},{"zip":"74051","city":"Ochelata","state":"OK","lat":36.5947,"long":-95.9691},{"zip":"74061","city":"Ramona","state":"OK","lat":36.5752,"long":-95.8962},{"zip":"74082","city":"Vera","state":"OK","lat":36.4501,"long":-95.8814}]
