[{"zip":"74010","city":"Bristow","state":"OK","lat":35.8209,"long":-96.3758},{"zip":"74028","city":"Depew","state":"OK","lat":35.7561,"long":-96.4897},{"zip":"74030","city":"Drumright","state":"OK","lat":35.9931,"long":-96.5198},{"zip":"74039","city":"Kellyville","state":"OK","lat":35.9171,"long":-96.218},{"zip":"74041","city":"Kiefer","state":"OK","lat":35.9528,"long":-96.061},{"zip":"74044","city":"Mannford","state":"OK","lat":36.0927,"long":-96.3576},{"zip":"74046","city":"Milfay","state":"OK","lat":35.7551,"long":-96.5658},{"zip":"74047","city":"Mounds","state":"OK","lat":35.8896,"long":-96.0887},{"zip":"74052","city":"Oilton","state":"OK","lat":36.0685,"long":-96.5958},{"zip":"74066","city":"Sapulpa","state":"OK","lat":36.003,"long":-96.1106},{"zip":"74067","city":"Sapulpa","state":"OK","lat":36.0196,"long":-96.0937},{"zip":"74068","city":"Shamrock","state":"OK","lat":35.9124,"long":-96.578},{"zip":"74071","city":"Slick","state":"OK","lat":35.7861,"long":-96.2806},{"zip":"74026","city":"Davenport","state":"OK","lat":35.7089,"long":-96.767},{"zip":"74079","city":"Stroud","state":"OK","lat":35.7398,"long":-96.6719},{"zip":"74027","city":"Delaware","state":"OK","lat":36.7804,"long":-95.6181},{"zip":"74042","city":"Lenapah","state":"OK","lat":36.8801,"long":-95.6233},{"zip":"74048","city":"Nowata","state":"OK","lat":36.6946,"long":-95.6404},{"zip":"74072","city":"S Coffeyville","state":"OK","lat":36.9837,"long":-95.6065},{"zip":"74083","city":"Wann","state":"OK","lat":36.9402,"long":-95.7768},{"zip":"74001","city":"Avant","state":"OK","lat":36.4901,"long":-96.0616},{"zip":"74002","city":"Barnsdall","state":"OK","lat":36.5429,"long":-96.1318},{"zip":"74035","city":"Hominy","state":"OK","lat":36.4111,"long":-96.3878},{"zip":"74054","city":"Osage","state":"OK","lat":36.2832,"long":-96.3774},{"zip":"74056","city":"Pawhuska","state":"OK","lat":36.6904,"long":-96.3121},{"zip":"74060","city":"Prue","state":"OK","lat":36.2501,"long":-96.2701},{"zip":"74070","city":"Skiatook","state":"OK","lat":36.3725,"long":-96.0123},{"zip":"74084","city":"Wynona","state":"OK","lat":36.5462,"long":-96.3272},{"zip":"74020","city":"Cleveland","state":"OK","lat":36.2553,"long":-96.423},{"zip":"74034","city":"Hallett","state":"OK","lat":36.2319,"long":-96.562},{"zip":"74038","city":"Jennings","state":"OK","lat":36.1863,"long":-96.5732},{"zip":"74045","city":"Maramec","state":"OK","lat":36.242,"long":-96.6803},{"zip":"74058","city":"Pawnee","state":"OK","lat":36.3362,"long":-96.7923},{"zip":"74081","city":"Terlton","state":"OK","lat":36.1889,"long":-96.4876},{"zip":"74023","city":"Cushing","state":"OK","lat":35.9822,"long":-96.7526},{"zip":"74032","city":"Glencoe","state":"OK","lat":36.2158,"long":-96.9138},{"zip":"74059","city":"Perkins","state":"OK","lat":35.9768,"long":-97.0441},{"zip":"74062","city":"Ripley","state":"OK","lat":35.9985,"long":-96.8967},{"zip":"74074","city":"Stillwater","state":"OK","lat":36.1043,"long":-97.0609},{"zip":"74075","city":"Stillwater","state":"OK","lat":36.1396,"long":-97.063},{"zip":"74076","city":"Stillwater","state":"OK","lat":36.0724,"long":-97.0551},{"zip":"74077","city":"Stillwater","state":"OK","lat":36.1156,"long":-97.0584},{"zip":"74078","city":"Stillwater","state":"OK","lat":36.1241,"long":-97.0705},{"zip":"74085","city":"Yale","state":"OK","lat":36.1101,"long":-96.7022},{"zip":"74015","city":"Catoosa","state":"OK","lat":36.1721,"long":-95.7273},{"zip":"74016","city":"Chelsea","state":"OK","lat":36.5356,"long":-95.4489},{"zip":"74017","city":"Claremore","state":"OK","lat":36.3242,"long":-95.5985},{"zip":"74018","city":"Claremore","state":"OK","lat":36.3436,"long":-95.606},{"zip":"74031","city":"Foyil","state":"OK","lat":36.4348,"long":-95.5194},{"zip":"74036","city":"Inola","state":"OK","lat":36.1503,"long":-95.5205},{"zip":"74053","city":"Oologah","state":"OK","lat":36.4482,"long":-95.7047},{"zip":"74080","city":"Talala","state":"OK","lat":36.5429,"long":-95.7142},{"zip":"74008","city":"Bixby","state":"OK","lat":35.942,"long":-95.8833},{"zip":"74011","city":"Broken Arrow","state":"OK","lat":35.9908,"long":-95.8143},{"zip":"74012","city":"Broken Arrow","state":"OK","lat":36.0447,"long":-95.8079},{"zip":"74013","city":"Broken Arrow","state":"OK","lat":36.0526,"long":-95.7908},{"zip":"74021","city":"Collinsville","state":"OK","lat":36.3701,"long":-95.8469},{"zip":"74033","city":"Glenpool","state":"OK","lat":35.9591,"long":-95.9997},{"zip":"74037","city":"Jenks","state":"OK","lat":36.0148,"long":-95.9797},{"zip":"74043","city":"Leonard","state":"OK","lat":35.9183,"long":-95.7988},{"zip":"74050","city":"Oakhurst","state":"OK","lat":36.0731,"long":-96.0621},{"zip":"74055","city":"Owasso","state":"OK","lat":36.2863,"long":-95.8222},{"zip":"74063","city":"Sand Springs","state":"OK","lat":36.1341,"long":-96.1426},{"zip":"74073","city":"Sperry","state":"OK","lat":36.2955,"long":-95.9804},{"zip":"74014","city":"Broken Arrow","state":"OK","lat":36.0544,"long":-95.7223},{"zip":"74019","city":"Claremore","state":"OK","lat":36.2806,"long":-95.6039},{"zip":"74003","city":"Bartlesville","state":"OK","lat":36.744,"long":-95.9921},{"zip":"74004","city":"Bartlesville","state":"OK","lat":36.7114,"long":-95.894},{"zip":"74005","city":"Bartlesville","state":"OK","lat":36.7473,"long":-95.9808},{"zip":"74006","city":"Bartlesville","state":"OK","lat":36.7366,"long":-95.9251},{"zip":"74022","city":"Copan","state":"OK","lat":36.9062,"long":-95.913},{"zip":"74029","city":"Dewey","state":"OK","lat":36.8013,"long":-95.9345},{"zip":"74051","city":"Ochelata","state":"OK","lat":36.5947,"long":-95.9691},{"zip":"74061","city":"Ramona","state":"OK","lat":36.5752,"long":-95.8962},{"zip":"74082","city":"Vera","state":"OK","lat":36.4501,"long":-95.8814}]
