[{"zip":"74301","city":"Vinita","state":"OK","lat":36.6334,"long":-95.1382},{"zip":"74332","city":"Big Cabin","state":"OK","lat":36.534,"long":-95.2246},{"zip":"74333","city":"Bluejacket","state":"OK","lat":36.7975,"long":-95.1018},{"zip":"74369","city":"Welch","state":"OK","lat":36.902,"long":-95.1295},{"zip":"74338","city":"Colcord","state":"OK","lat":36.2333,"long":-94.6547},{"zip":"74342","city":"Eucha","state":"OK","lat":36.4063,"long":-94.9157},{"zip":"74344","city":"Grove","state":"OK","lat":36.5929,"long":-94.7565},{"zip":"74345","city":"Grove","state":"OK","lat":36.6036,"long":-94.7297},{"zip":"74346","city":"Jay","state":"OK","lat":36.4363,"long":-94.7763},{"zip":"74347","city":"Kansas","state":"OK","lat":36.2161,"long":-94.8114},{"zip":"74359","city":"Oaks","state":"OK","lat":36.1662,"long":-94.8547},{"zip":"74368","city":"Twin Oaks","state":"OK","lat":36.2054,"long":-94.8513},{"zip":"74330","city":"Adair","state":"OK","lat":36.4115,"long":-95.2732},{"zip":"74337","city":"Chouteau","state":"OK","lat":36.1669,"long":-95.3416},{"zip":"74340","city":"Disney","state":"OK","lat":36.4759,"long":-95.024},{"zip":"74349","city":"Ketchum","state":"OK","lat":36.5245,"long":-95.0239},{"zip":"74350","city":"Langley","state":"OK","lat":36.4645,"long":-95.0478},{"zip":"74352","city":"Locust Grove","state":"OK","lat":36.1819,"long":-95.1689},{"zip":"74361","city":"Pryor","state":"OK","lat":36.2921,"long":-95.3129},{"zip":"74362","city":"Pryor","state":"OK","lat":36.2925,"long":-95.2228},{"zip":"74364","city":"Rose","state":"OK","lat":36.1951,"long":-94.9643},{"zip":"74365","city":"Salina","state":"OK","lat":36.3116,"long":-95.1158},{"zip":"74366","city":"Spavinaw","state":"OK","lat":36.3912,"long":-95.0466},{"zip":"74367","city":"Strang","state":"OK","lat":36.4141,"long":-95.0773},{"zip":"74331","city":"Afton","state":"OK","lat":36.6296,"long":-94.9432},{"zip":"74335","city":"Cardin","state":"OK","lat":36.9795,"long":-94.8557},{"zip":"74339","city":"Commerce","state":"OK","lat":36.9331,"long":-94.873},{"zip":"74343","city":"Fairland","state":"OK","lat":36.7418,"long":-94.8279},{"zip":"74354","city":"Miami","state":"OK","lat":36.8764,"long":-94.8719},{"zip":"74355","city":"Miami","state":"OK","lat":36.8341,"long":-94.877},{"zip":"74358","city":"North Miami","state":"OK","lat":36.9173,"long":-94.8797},{"zip":"74360","city":"Picher","state":"OK","lat":36.98,"long":-94.8173},{"zip":"74363","city":"Quapaw","state":"OK","lat":36.9282,"long":-94.743},{"zip":"74370","city":"Wyandotte","state":"OK","lat":36.7796,"long":-94.7002}]
