[{"zip":"74457","city":"Proctor","state":"OK","lat":36.0308,"long":-94.7613},{"zip":"74427","city":"Cookson","state":"OK","lat":35.7116,"long":-94.9132},{"zip":"74441","city":"Hulbert","state":"OK","lat":35.9254,"long":-95.1651},{"zip":"74444","city":"Moodys","state":"OK","lat":36.0458,"long":-94.9669},{"zip":"74451","city":"Park Hill","state":"OK","lat":35.7977,"long":-94.9822},{"zip":"74452","city":"Peggs","state":"OK","lat":36.1154,"long":-95.1199},{"zip":"74464","city":"Tahlequah","state":"OK","lat":35.9094,"long":-94.9787},{"zip":"74465","city":"Tahlequah","state":"OK","lat":35.9001,"long":-95.04},{"zip":"74471","city":"Welling","state":"OK","lat":35.8819,"long":-94.8653},{"zip":"74440","city":"Hoyt","state":"OK","lat":35.2685,"long":-95.2994},{"zip":"74462","city":"Stigler","state":"OK","lat":35.2686,"long":-95.1071},{"zip":"74472","city":"Whitefield","state":"OK","lat":35.2646,"long":-95.2645},{"zip":"74426","city":"Checotah","state":"OK","lat":35.4358,"long":-95.535},{"zip":"74432","city":"Eufaula","state":"OK","lat":35.2911,"long":-95.6472},{"zip":"74438","city":"Hitchita","state":"OK","lat":35.5297,"long":-95.7596},{"zip":"74459","city":"Rentiesville","state":"OK","lat":35.5214,"long":-95.495},{"zip":"74461","city":"Stidham","state":"OK","lat":35.3814,"long":-95.7056},{"zip":"74401","city":"Muskogee","state":"OK","lat":35.7058,"long":-95.5002},{"zip":"74402","city":"Muskogee","state":"OK","lat":35.7642,"long":-95.3069},{"zip":"74403","city":"Muskogee","state":"OK","lat":35.7411,"long":-95.3449},{"zip":"74422","city":"Boynton","state":"OK","lat":35.6577,"long":-95.66},{"zip":"74423","city":"Braggs","state":"OK","lat":35.6574,"long":-95.2033},{"zip":"74428","city":"Council Hill","state":"OK","lat":35.5556,"long":-95.6514},{"zip":"74434","city":"Fort Gibson","state":"OK","lat":35.7943,"long":-95.2297},{"zip":"74436","city":"Haskell","state":"OK","lat":35.8108,"long":-95.684},{"zip":"74439","city":"Braggs","state":"OK","lat":35.6767,"long":-95.1775},{"zip":"74450","city":"Oktaha","state":"OK","lat":35.625,"long":-95.4856},{"zip":"74455","city":"Porum","state":"OK","lat":35.3631,"long":-95.2607},{"zip":"74463","city":"Taft","state":"OK","lat":35.7581,"long":-95.5494},{"zip":"74468","city":"Wainwright","state":"OK","lat":35.6126,"long":-95.5644},{"zip":"74469","city":"Warner","state":"OK","lat":35.4945,"long":-95.3064},{"zip":"74470","city":"Webbers Falls","state":"OK","lat":35.5138,"long":-95.1659},{"zip":"74421","city":"Beggs","state":"OK","lat":35.7896,"long":-96.0264},{"zip":"74431","city":"Dewar","state":"OK","lat":35.4551,"long":-95.9498},{"zip":"74437","city":"Henryetta","state":"OK","lat":35.4622,"long":-96.0122},{"zip":"74445","city":"Morris","state":"OK","lat":35.6619,"long":-95.8319},{"zip":"74447","city":"Okmulgee","state":"OK","lat":35.6288,"long":-95.9697},{"zip":"74456","city":"Preston","state":"OK","lat":35.7115,"long":-95.9917},{"zip":"74460","city":"Schulter","state":"OK","lat":35.5145,"long":-95.9567},{"zip":"74425","city":"Canadian","state":"OK","lat":35.1571,"long":-95.6215},{"zip":"74430","city":"Crowder","state":"OK","lat":35.1334,"long":-95.6602},{"zip":"74442","city":"Indianola","state":"OK","lat":35.1314,"long":-95.8158},{"zip":"74435","city":"Gore","state":"OK","lat":35.5418,"long":-95.1095},{"zip":"74429","city":"Coweta","state":"OK","lat":35.9578,"long":-95.6526},{"zip":"74446","city":"Okay","state":"OK","lat":35.8507,"long":-95.3183},{"zip":"74454","city":"Porter","state":"OK","lat":35.8567,"long":-95.5082},{"zip":"74458","city":"Redbird","state":"OK","lat":35.8836,"long":-95.5917},{"zip":"74467","city":"Wagoner","state":"OK","lat":35.9549,"long":-95.354},{"zip":"74477","city":"Wagoner","state":"OK","lat":35.9636,"long":-95.5139}]
