[{"zip":"74525","city":"Atoka","state":"OK","lat":34.3445,"long":-96.1418},{"zip":"74533","city":"Caney","state":"OK","lat":34.2221,"long":-96.2584},{"zip":"74540","city":"Daisy","state":"OK","lat":34.5384,"long":-95.7088},{"zip":"74555","city":"Lane","state":"OK","lat":34.2691,"long":-95.9685},{"zip":"74569","city":"Stringtown","state":"OK","lat":34.4676,"long":-96.0002},{"zip":"74534","city":"Centrahoma","state":"OK","lat":34.6066,"long":-96.3386},{"zip":"74535","city":"Clarita","state":"OK","lat":34.4829,"long":-96.4333},{"zip":"74538","city":"Coalgate","state":"OK","lat":34.5344,"long":-96.2167},{"zip":"74556","city":"Lehigh","state":"OK","lat":34.4756,"long":-96.1889},{"zip":"74572","city":"Tupelo","state":"OK","lat":34.5598,"long":-96.4274},{"zip":"74552","city":"Kinta","state":"OK","lat":35.1193,"long":-95.2377},{"zip":"74531","city":"Calvin","state":"OK","lat":34.878,"long":-96.271},{"zip":"74570","city":"Stuart","state":"OK","lat":34.8826,"long":-96.1381},{"zip":"74530","city":"Bromide","state":"OK","lat":34.4233,"long":-96.4867},{"zip":"74545","city":"Gowen","state":"OK","lat":34.8724,"long":-95.469},{"zip":"74559","city":"Panola","state":"OK","lat":34.9287,"long":-95.2133},{"zip":"74563","city":"Red Oak","state":"OK","lat":34.9422,"long":-95.0904},{"zip":"74578","city":"Wilburton","state":"OK","lat":34.9128,"long":-95.3389},{"zip":"74549","city":"Honobia","state":"OK","lat":34.5519,"long":-94.9428},{"zip":"74571","city":"Talihina","state":"OK","lat":34.7381,"long":-94.9978},{"zip":"74577","city":"Whitesboro","state":"OK","lat":34.6926,"long":-94.8852},{"zip":"74501","city":"Mcalester","state":"OK","lat":34.9262,"long":-95.7592},{"zip":"74502","city":"Mcalester","state":"OK","lat":34.9334,"long":-95.7697},{"zip":"74522","city":"Alderson","state":"OK","lat":34.9001,"long":-95.6919},{"zip":"74528","city":"Blanco","state":"OK","lat":34.7276,"long":-95.7283},{"zip":"74529","city":"Blocker","state":"OK","lat":35.0615,"long":-95.5683},{"zip":"74546","city":"Haileyville","state":"OK","lat":34.85,"long":-95.5777},{"zip":"74547","city":"Hartshorne","state":"OK","lat":34.8452,"long":-95.574},{"zip":"74553","city":"Kiowa","state":"OK","lat":34.7278,"long":-95.9328},{"zip":"74554","city":"Krebs","state":"OK","lat":34.9255,"long":-95.7216},{"zip":"74560","city":"Pittsburg","state":"OK","lat":34.6975,"long":-95.8439},{"zip":"74561","city":"Quinton","state":"OK","lat":35.1547,"long":-95.4671},{"zip":"74565","city":"Savanna","state":"OK","lat":34.8354,"long":-95.838},{"zip":"74576","city":"Wardville","state":"OK","lat":34.6695,"long":-96.0258},{"zip":"74521","city":"Albion","state":"OK","lat":34.6516,"long":-95.0924},{"zip":"74523","city":"Antlers","state":"OK","lat":34.2349,"long":-95.6254},{"zip":"74536","city":"Clayton","state":"OK","lat":34.5906,"long":-95.38},{"zip":"74543","city":"Finley","state":"OK","lat":34.3407,"long":-95.5385},{"zip":"74557","city":"Moyers","state":"OK","lat":34.3386,"long":-95.6639},{"zip":"74558","city":"Nashoba","state":"OK","lat":34.5072,"long":-95.2075},{"zip":"74562","city":"Rattan","state":"OK","lat":34.2454,"long":-95.3442},{"zip":"74567","city":"Snow","state":"OK","lat":34.4419,"long":-95.4622},{"zip":"74574","city":"Tuskahoma","state":"OK","lat":34.6622,"long":-95.2362}]
