[{"zip":"74640","city":"Hunter","state":"OK","lat":36.5603,"long":-97.6425},{"zip":"74636","city":"Deer Creek","state":"OK","lat":36.8048,"long":-97.5136},{"zip":"74643","city":"Lamont","state":"OK","lat":36.6939,"long":-97.5601},{"zip":"74601","city":"Ponca City","state":"OK","lat":36.7031,"long":-97.0784},{"zip":"74602","city":"Ponca City","state":"OK","lat":36.6954,"long":-97.1377},{"zip":"74604","city":"Ponca City","state":"OK","lat":36.7299,"long":-97.0454},{"zip":"74631","city":"Blackwell","state":"OK","lat":36.8006,"long":-97.2867},{"zip":"74632","city":"Braman","state":"OK","lat":36.9331,"long":-97.3082},{"zip":"74641","city":"Kaw City","state":"OK","lat":36.8382,"long":-96.8833},{"zip":"74646","city":"Nardin","state":"OK","lat":36.8155,"long":-97.4325},{"zip":"74647","city":"Newkirk","state":"OK","lat":36.84,"long":-97.0561},{"zip":"74653","city":"Tonkawa","state":"OK","lat":36.6806,"long":-97.3063},{"zip":"74630","city":"Billings","state":"OK","lat":36.5246,"long":-97.4189},{"zip":"74644","city":"Marland","state":"OK","lat":36.5609,"long":-97.1512},{"zip":"74651","city":"Red Rock","state":"OK","lat":36.4748,"long":-97.164},{"zip":"74633","city":"Burbank","state":"OK","lat":36.6966,"long":-96.7869},{"zip":"74637","city":"Fairfax","state":"OK","lat":36.5577,"long":-96.6997},{"zip":"74652","city":"Shidler","state":"OK","lat":36.7819,"long":-96.6607},{"zip":"74650","city":"Ralston","state":"OK","lat":36.4992,"long":-96.7755}]
