[{"zip":"74701","city":"Durant","state":"OK","lat":34.0061,"long":-96.3847},{"zip":"74702","city":"Durant","state":"OK","lat":33.922,"long":-96.1918},{"zip":"74720","city":"Achille","state":"OK","lat":33.8396,"long":-96.3648},{"zip":"74721","city":"Albany","state":"OK","lat":33.8815,"long":-96.1628},{"zip":"74723","city":"Bennington","state":"OK","lat":33.9771,"long":-96.0188},{"zip":"74726","city":"Bokchito","state":"OK","lat":33.9859,"long":-96.1621},{"zip":"74729","city":"Caddo","state":"OK","lat":34.1157,"long":-96.26},{"zip":"74730","city":"Calera","state":"OK","lat":33.9322,"long":-96.4308},{"zip":"74731","city":"Cartwright","state":"OK","lat":33.8668,"long":-96.5672},{"zip":"74733","city":"Colbert","state":"OK","lat":33.8575,"long":-96.4953},{"zip":"74741","city":"Hendrix","state":"OK","lat":33.8016,"long":-96.3581},{"zip":"74747","city":"Kemp","state":"OK","lat":33.773,"long":-96.3555},{"zip":"74748","city":"Kenefic","state":"OK","lat":34.1481,"long":-96.3622},{"zip":"74753","city":"Platter","state":"OK","lat":33.9171,"long":-96.5501},{"zip":"74727","city":"Boswell","state":"OK","lat":34.0245,"long":-95.8403},{"zip":"74735","city":"Fort Towson","state":"OK","lat":34.052,"long":-95.253},{"zip":"74738","city":"Grant","state":"OK","lat":33.9302,"long":-95.4893},{"zip":"74743","city":"Hugo","state":"OK","lat":34.0113,"long":-95.5139},{"zip":"74756","city":"Sawyer","state":"OK","lat":34.0277,"long":-95.3558},{"zip":"74759","city":"Soper","state":"OK","lat":34.0366,"long":-95.6916},{"zip":"74760","city":"Spencerville","state":"OK","lat":34.1508,"long":-95.3771},{"zip":"74761","city":"Swink","state":"OK","lat":34.0179,"long":-95.2022},{"zip":"74722","city":"Battiest","state":"OK","lat":34.3934,"long":-94.9249},{"zip":"74724","city":"Bethel","state":"OK","lat":34.3598,"long":-94.8374},{"zip":"74728","city":"Broken Bow","state":"OK","lat":34.027,"long":-94.7623},{"zip":"74734","city":"Eagletown","state":"OK","lat":34.0364,"long":-94.5596},{"zip":"74736","city":"Garvin","state":"OK","lat":33.9192,"long":-94.986},{"zip":"74737","city":"Golden","state":"OK","lat":34.0303,"long":-94.8986},{"zip":"74740","city":"Haworth","state":"OK","lat":33.785,"long":-94.633},{"zip":"74745","city":"Idabel","state":"OK","lat":33.8851,"long":-94.802},{"zip":"74750","city":"Millerton","state":"OK","lat":33.9801,"long":-95.0025},{"zip":"74752","city":"Pickens","state":"OK","lat":34.3965,"long":-95.0119},{"zip":"74754","city":"Ringold","state":"OK","lat":34.1799,"long":-95.0704},{"zip":"74755","city":"Rufe","state":"OK","lat":34.1272,"long":-95.1174},{"zip":"74764","city":"Valliant","state":"OK","lat":34.0091,"long":-95.0686},{"zip":"74766","city":"Wright City","state":"OK","lat":34.0799,"long":-94.9929}]
