[{"zip":"74872","city":"Stratford","state":"OK","lat":34.7714,"long":-96.9763},{"zip":"74827","city":"Atwood","state":"OK","lat":34.9562,"long":-96.3386},{"zip":"74839","city":"Dustin","state":"OK","lat":35.2519,"long":-96.0573},{"zip":"74848","city":"Holdenville","state":"OK","lat":35.0839,"long":-96.377},{"zip":"74850","city":"Lamar","state":"OK","lat":35.0836,"long":-96.1142},{"zip":"74883","city":"Wetumka","state":"OK","lat":35.2396,"long":-96.2421},{"zip":"74836","city":"Connerville","state":"OK","lat":34.4194,"long":-96.6291},{"zip":"74856","city":"Mill Creek","state":"OK","lat":34.3098,"long":-96.7884},{"zip":"74824","city":"Agra","state":"OK","lat":35.909,"long":-96.8738},{"zip":"74832","city":"Carney","state":"OK","lat":35.8054,"long":-97.0159},{"zip":"74834","city":"Chandler","state":"OK","lat":35.7017,"long":-96.8809},{"zip":"74855","city":"Meeker","state":"OK","lat":35.5211,"long":-96.9981},{"zip":"74864","city":"Prague","state":"OK","lat":35.5105,"long":-96.7009},{"zip":"74869","city":"Sparks","state":"OK","lat":35.6138,"long":-96.8163},{"zip":"74875","city":"Tryon","state":"OK","lat":35.8759,"long":-96.9623},{"zip":"74881","city":"Wellston","state":"OK","lat":35.6757,"long":-97.0597},{"zip":"74831","city":"Byars","state":"OK","lat":34.8904,"long":-97.0997},{"zip":"74845","city":"Hanna","state":"OK","lat":35.2604,"long":-95.8675},{"zip":"74829","city":"Boley","state":"OK","lat":35.4913,"long":-96.4704},{"zip":"74833","city":"Castle","state":"OK","lat":35.4732,"long":-96.3791},{"zip":"74859","city":"Okemah","state":"OK","lat":35.4647,"long":-96.3287},{"zip":"74860","city":"Paden","state":"OK","lat":35.5182,"long":-96.5719},{"zip":"74880","city":"Weleetka","state":"OK","lat":35.3416,"long":-96.1136},{"zip":"74857","city":"Newalla","state":"OK","lat":35.3734,"long":-97.1971},{"zip":"74820","city":"Ada","state":"OK","lat":34.78,"long":-96.6924},{"zip":"74821","city":"Ada","state":"OK","lat":34.7745,"long":-96.6783},{"zip":"74825","city":"Allen","state":"OK","lat":34.8691,"long":-96.4151},{"zip":"74842","city":"Fittstown","state":"OK","lat":34.6148,"long":-96.6345},{"zip":"74843","city":"Fitzhugh","state":"OK","lat":34.6615,"long":-96.7745},{"zip":"74844","city":"Francis","state":"OK","lat":34.8737,"long":-96.5956},{"zip":"74865","city":"Roff","state":"OK","lat":34.6153,"long":-96.8423},{"zip":"74871","city":"Stonewall","state":"OK","lat":34.6511,"long":-96.5273},{"zip":"74801","city":"Shawnee","state":"OK","lat":35.2958,"long":-96.9601},{"zip":"74802","city":"Shawnee","state":"OK","lat":35.3273,"long":-96.9253},{"zip":"74804","city":"Shawnee","state":"OK","lat":35.3868,"long":-96.9331},{"zip":"74826","city":"Asher","state":"OK","lat":34.9849,"long":-96.8763},{"zip":"74840","city":"Earlsboro","state":"OK","lat":35.2628,"long":-96.8041},{"zip":"74851","city":"Mcloud","state":"OK","lat":35.4262,"long":-97.079},{"zip":"74852","city":"Macomb","state":"OK","lat":35.1205,"long":-97.034},{"zip":"74854","city":"Maud","state":"OK","lat":35.1292,"long":-96.7627},{"zip":"74866","city":"Saint Louis","state":"OK","lat":35.0588,"long":-96.8444},{"zip":"74873","city":"Tecumseh","state":"OK","lat":35.2502,"long":-96.9667},{"zip":"74878","city":"Wanette","state":"OK","lat":34.9983,"long":-97.0419},{"zip":"74818","city":"Seminole","state":"OK","lat":35.2245,"long":-96.6706},{"zip":"74830","city":"Bowlegs","state":"OK","lat":35.1462,"long":-96.67},{"zip":"74837","city":"Cromwell","state":"OK","lat":35.3405,"long":-96.4546},{"zip":"74849","city":"Konawa","state":"OK","lat":34.9708,"long":-96.7343},{"zip":"74867","city":"Sasakwa","state":"OK","lat":34.951,"long":-96.5387},{"zip":"74868","city":"Seminole","state":"OK","lat":35.2521,"long":-96.6683},{"zip":"74884","city":"Wewoka","state":"OK","lat":35.1463,"long":-96.628}]
