[{"zip":"74931","city":"Bunch","state":"OK","lat":35.6826,"long":-94.7611},{"zip":"74960","city":"Stilwell","state":"OK","lat":35.8107,"long":-94.6313},{"zip":"74964","city":"Watts","state":"OK","lat":36.1152,"long":-94.6345},{"zip":"74965","city":"Westville","state":"OK","lat":35.9912,"long":-94.5926},{"zip":"74941","city":"Keota","state":"OK","lat":35.2645,"long":-94.9028},{"zip":"74943","city":"Lequire","state":"OK","lat":35.0867,"long":-95.0974},{"zip":"74944","city":"Mccurtain","state":"OK","lat":35.1404,"long":-95.0127},{"zip":"74901","city":"Arkoma","state":"OK","lat":35.3434,"long":-94.4403},{"zip":"74902","city":"Pocola","state":"OK","lat":35.2436,"long":-94.476},{"zip":"74930","city":"Bokoshe","state":"OK","lat":35.1865,"long":-94.7858},{"zip":"74932","city":"Cameron","state":"OK","lat":35.1494,"long":-94.506},{"zip":"74935","city":"Fanshawe","state":"OK","lat":34.9537,"long":-94.8998},{"zip":"74937","city":"Heavener","state":"OK","lat":34.8353,"long":-94.6185},{"zip":"74939","city":"Hodgen","state":"OK","lat":34.7538,"long":-94.6391},{"zip":"74940","city":"Howe","state":"OK","lat":34.9512,"long":-94.6372},{"zip":"74942","city":"Leflore","state":"OK","lat":34.8979,"long":-94.9758},{"zip":"74947","city":"Monroe","state":"OK","lat":34.9906,"long":-94.515},{"zip":"74949","city":"Muse","state":"OK","lat":34.6641,"long":-94.719},{"zip":"74951","city":"Panama","state":"OK","lat":35.1535,"long":-94.6709},{"zip":"74953","city":"Poteau","state":"OK","lat":35.0606,"long":-94.6096},{"zip":"74956","city":"Shady Point","state":"OK","lat":35.1293,"long":-94.6665},{"zip":"74959","city":"Spiro","state":"OK","lat":35.2492,"long":-94.6265},{"zip":"74966","city":"Wister","state":"OK","lat":34.9556,"long":-94.7832},{"zip":"74957","city":"Smithville","state":"OK","lat":34.4954,"long":-94.6981},{"zip":"74963","city":"Watson","state":"OK","lat":34.4193,"long":-94.5562},{"zip":"74936","city":"Gans","state":"OK","lat":35.3946,"long":-94.6901},{"zip":"74945","city":"Marble City","state":"OK","lat":35.5972,"long":-94.8094},{"zip":"74946","city":"Moffett","state":"OK","lat":35.3898,"long":-94.4462},{"zip":"74948","city":"Muldrow","state":"OK","lat":35.402,"long":-94.6332},{"zip":"74954","city":"Roland","state":"OK","lat":35.4538,"long":-94.5291},{"zip":"74955","city":"Sallisaw","state":"OK","lat":35.4852,"long":-94.779},{"zip":"74962","city":"Vian","state":"OK","lat":35.5404,"long":-94.9888}]
