[{"zip":"75763","city":"Frankston","state":"TX","lat":32.0535,"long":-95.5163},{"zip":"75779","city":"Neches","state":"TX","lat":31.8668,"long":-95.4958},{"zip":"75801","city":"Palestine","state":"TX","lat":31.7588,"long":-95.6342},{"zip":"75802","city":"Palestine","state":"TX","lat":31.7621,"long":-95.6308},{"zip":"75803","city":"Palestine","state":"TX","lat":31.7571,"long":-95.6545},{"zip":"75832","city":"Cayuga","state":"TX","lat":31.9571,"long":-95.9747},{"zip":"75839","city":"Elkhart","state":"TX","lat":31.648,"long":-95.5551},{"zip":"75853","city":"Montalba","state":"TX","lat":31.8766,"long":-95.7327},{"zip":"75861","city":"Tennessee Colony","state":"TX","lat":31.7929,"long":-95.8998},{"zip":"75880","city":"Tennessee Colony","state":"TX","lat":31.8354,"long":-95.8389},{"zip":"75882","city":"Palestine","state":"TX","lat":31.7942,"long":-95.662},{"zip":"75884","city":"Tennessee Colony","state":"TX","lat":31.8354,"long":-95.8389},{"zip":"75886","city":"Tennessee Colony","state":"TX","lat":31.8354,"long":-95.8389},{"zip":"75901","city":"Lufkin","state":"TX","lat":31.27,"long":-94.6469},{"zip":"75902","city":"Lufkin","state":"TX","lat":31.3623,"long":-94.7611},{"zip":"75903","city":"Lufkin","state":"TX","lat":31.2766,"long":-94.5676},{"zip":"75904","city":"Lufkin","state":"TX","lat":31.3489,"long":-94.8327},{"zip":"75915","city":"Lufkin","state":"TX","lat":31.3382,"long":-94.7291},{"zip":"75941","city":"Diboll","state":"TX","lat":31.195,"long":-94.7729},{"zip":"75949","city":"Huntington","state":"TX","lat":31.2837,"long":-94.5662},{"zip":"75969","city":"Pollok","state":"TX","lat":31.4291,"long":-94.8254},{"zip":"75980","city":"Zavalla","state":"TX","lat":31.1569,"long":-94.3871},{"zip":"75501","city":"Texarkana","state":"TX","lat":33.4113,"long":-94.1774},{"zip":"75503","city":"Texarkana","state":"TX","lat":33.4669,"long":-94.0774},{"zip":"75504","city":"Texarkana","state":"TX","lat":33.4251,"long":-94.0477},{"zip":"75505","city":"Texarkana","state":"TX","lat":33.4624,"long":-94.0715},{"zip":"75507","city":"Texarkana","state":"TX","lat":33.4251,"long":-94.0477},{"zip":"75559","city":"De Kalb","state":"TX","lat":33.5087,"long":-94.6163},{"zip":"75561","city":"Hooks","state":"TX","lat":33.5253,"long":-94.2657},{"zip":"75567","city":"Maud","state":"TX","lat":33.3409,"long":-94.3175},{"zip":"75569","city":"Nash","state":"TX","lat":33.4344,"long":-94.1219},{"zip":"75570","city":"New Boston","state":"TX","lat":33.4619,"long":-94.4375},{"zip":"75573","city":"Redwater","state":"TX","lat":33.358,"long":-94.2571},{"zip":"75574","city":"Simms","state":"TX","lat":33.3359,"long":-94.552},{"zip":"75599","city":"Texarkana","state":"TX","lat":33.4251,"long":-94.0477},{"zip":"75451","city":"Leesburg","state":"TX","lat":32.9763,"long":-95.1079},{"zip":"75686","city":"Pittsburg","state":"TX","lat":32.9623,"long":-94.9603},{"zip":"75551","city":"Atlanta","state":"TX","lat":33.109,"long":-94.1646},{"zip":"75555","city":"Bivins","state":"TX","lat":32.966,"long":-94.1404},{"zip":"75556","city":"Bloomburg","state":"TX","lat":33.1339,"long":-94.0647},{"zip":"75560","city":"Douglassville","state":"TX","lat":33.1758,"long":-94.3467},{"zip":"75562","city":"Kildare","state":"TX","lat":32.9468,"long":-94.2539},{"zip":"75563","city":"Linden","state":"TX","lat":33.0048,"long":-94.3605},{"zip":"75565","city":"Mc Leod","state":"TX","lat":32.9511,"long":-94.0808},{"zip":"75566","city":"Marietta","state":"TX","lat":33.1735,"long":-94.5424},{"zip":"75572","city":"Queen City","state":"TX","lat":33.1557,"long":-94.1537},{"zip":"75630","city":"Avinger","state":"TX","lat":32.8485,"long":-94.5795},{"zip":"75656","city":"Hughes Springs","state":"TX","lat":33.0168,"long":-94.6228},{"zip":"75759","city":"Cuney","state":"TX","lat":32.0415,"long":-95.42},{"zip":"75764","city":"Gallatin","state":"TX","lat":31.891,"long":-95.1455},{"zip":"75766","city":"Jacksonville","state":"TX","lat":31.9618,"long":-95.2703},{"zip":"75772","city":"Maydelle","state":"TX","lat":31.8008,"long":-95.3001},{"zip":"75780","city":"New Summerfield","state":"TX","lat":31.782,"long":-95.164},{"zip":"75784","city":"Reklaw","state":"TX","lat":31.8859,"long":-95.0118},{"zip":"75785","city":"Rusk","state":"TX","lat":31.8136,"long":-95.0965},{"zip":"75925","city":"Alto","state":"TX","lat":31.6103,"long":-95.0762},{"zip":"75976","city":"Wells","state":"TX","lat":31.4885,"long":-94.9399},{"zip":"75002","city":"Allen","state":"TX","lat":33.0934,"long":-96.6454},{"zip":"75009","city":"Celina","state":"TX","lat":33.3103,"long":-96.7673},{"zip":"75013","city":"Allen","state":"TX","lat":33.1186,"long":-96.6773},{"zip":"75023","city":"Plano","state":"TX","lat":33.055,"long":-96.7365},{"zip":"75024","city":"Plano","state":"TX","lat":33.0752,"long":-96.7843},{"zip":"75025","city":"Plano","state":"TX","lat":33.0784,"long":-96.7291},{"zip":"75026","city":"Plano","state":"TX","lat":33.0198,"long":-96.6989},{"zip":"75033","city":"Frisco","state":"TX","lat":33.2559,"long":-96.8853},{"zip":"75034","city":"Frisco","state":"TX","lat":33.1499,"long":-96.8241},{"zip":"75035","city":"Frisco","state":"TX","lat":33.1377,"long":-96.7524},{"zip":"75069","city":"Mckinney","state":"TX","lat":33.1976,"long":-96.6153},{"zip":"75070","city":"Mckinney","state":"TX","lat":33.1976,"long":-96.6153},{"zip":"75071","city":"Mckinney","state":"TX","lat":33.1976,"long":-96.6153},{"zip":"75074","city":"Plano","state":"TX","lat":33.0277,"long":-96.6777},{"zip":"75075","city":"Plano","state":"TX","lat":33.025,"long":-96.7397},{"zip":"75078","city":"Prosper","state":"TX","lat":33.2362,"long":-96.7954},{"zip":"75086","city":"Plano","state":"TX","lat":33.0198,"long":-96.6989},{"zip":"75093","city":"Plano","state":"TX","lat":33.0299,"long":-96.7889},{"zip":"75094","city":"Plano","state":"TX","lat":33.0148,"long":-96.6189},{"zip":"75097","city":"Weston","state":"TX","lat":33.3512,"long":-96.6646},{"zip":"75121","city":"Copeville","state":"TX","lat":33.0875,"long":-96.4186},{"zip":"75164","city":"Josephine","state":"TX","lat":33.0612,"long":-96.3072},{"zip":"75166","city":"Lavon","state":"TX","lat":33.0139,"long":-96.4377},{"zip":"75173","city":"Nevada","state":"TX","lat":33.0593,"long":-96.3877},{"zip":"75407","city":"Princeton","state":"TX","lat":33.1555,"long":-96.4981},{"zip":"75409","city":"Anna","state":"TX","lat":33.3445,"long":-96.5639},{"zip":"75424","city":"Blue Ridge","state":"TX","lat":33.3061,"long":-96.3901},{"zip":"75442","city":"Farmersville","state":"TX","lat":33.1659,"long":-96.3686},{"zip":"75454","city":"Melissa","state":"TX","lat":33.2841,"long":-96.574},{"zip":"75485","city":"Westminster","state":"TX","lat":33.3627,"long":-96.4635},{"zip":"75001","city":"Addison","state":"TX","lat":32.96,"long":-96.8385},{"zip":"75006","city":"Carrollton","state":"TX","lat":32.9657,"long":-96.8825},{"zip":"75011","city":"Carrollton","state":"TX","lat":32.9537,"long":-96.8903},{"zip":"75014","city":"Irving","state":"TX","lat":32.7673,"long":-96.7776},{"zip":"75015","city":"Irving","state":"TX","lat":32.8987,"long":-96.9722},{"zip":"75016","city":"Irving","state":"TX","lat":32.8987,"long":-96.9722},{"zip":"75017","city":"Irving","state":"TX","lat":32.7673,"long":-96.7776},{"zip":"75019","city":"Coppell","state":"TX","lat":32.9673,"long":-96.9805},{"zip":"75030","city":"Rowlett","state":"TX","lat":32.9029,"long":-96.5639},{"zip":"75038","city":"Irving","state":"TX","lat":32.8653,"long":-96.9905},{"zip":"75039","city":"Irving","state":"TX","lat":32.8697,"long":-96.9389},{"zip":"75040","city":"Garland","state":"TX","lat":32.9227,"long":-96.6248},{"zip":"75041","city":"Garland","state":"TX","lat":32.8794,"long":-96.6411},{"zip":"75042","city":"Garland","state":"TX","lat":32.9185,"long":-96.6775},{"zip":"75043","city":"Garland","state":"TX","lat":32.8565,"long":-96.5999},{"zip":"75044","city":"Garland","state":"TX","lat":32.9522,"long":-96.6654},{"zip":"75045","city":"Garland","state":"TX","lat":32.9137,"long":-96.6271},{"zip":"75046","city":"Garland","state":"TX","lat":32.9126,"long":-96.6389},{"zip":"75047","city":"Garland","state":"TX","lat":32.9126,"long":-96.6389},{"zip":"75048","city":"Sachse","state":"TX","lat":32.9643,"long":-96.6012},{"zip":"75049","city":"Garland","state":"TX","lat":32.9126,"long":-96.6389},{"zip":"75050","city":"Grand Prairie","state":"TX","lat":32.7649,"long":-97.0112},{"zip":"75051","city":"Grand Prairie","state":"TX","lat":32.7115,"long":-97.0069},{"zip":"75052","city":"Grand Prairie","state":"TX","lat":32.6605,"long":-97.0311},{"zip":"75053","city":"Grand Prairie","state":"TX","lat":32.746,"long":-96.9978},{"zip":"75054","city":"Grand Prairie","state":"TX","lat":32.5907,"long":-97.0405},{"zip":"75060","city":"Irving","state":"TX","lat":32.8023,"long":-96.9597},{"zip":"75061","city":"Irving","state":"TX","lat":32.8267,"long":-96.9633},{"zip":"75062","city":"Irving","state":"TX","lat":32.8479,"long":-96.974},{"zip":"75063","city":"Irving","state":"TX","lat":32.9247,"long":-96.9598},{"zip":"75080","city":"Richardson","state":"TX","lat":32.966,"long":-96.7452},{"zip":"75081","city":"Richardson","state":"TX","lat":32.9462,"long":-96.7058},{"zip":"75082","city":"Richardson","state":"TX","lat":32.9865,"long":-96.686},{"zip":"75083","city":"Richardson","state":"TX","lat":32.7673,"long":-96.7776},{"zip":"75085","city":"Richardson","state":"TX","lat":32.7673,"long":-96.7776},{"zip":"75088","city":"Rowlett","state":"TX","lat":32.9031,"long":-96.5472},{"zip":"75089","city":"Rowlett","state":"TX","lat":32.9346,"long":-96.5544},{"zip":"75098","city":"Wylie","state":"TX","lat":33.0041,"long":-96.5394},{"zip":"75099","city":"Coppell","state":"TX","lat":32.9546,"long":-97.015},{"zip":"75104","city":"Cedar Hill","state":"TX","lat":32.5885,"long":-96.9438},{"zip":"75106","city":"Cedar Hill","state":"TX","lat":32.5885,"long":-96.9561},{"zip":"75115","city":"Desoto","state":"TX","lat":32.6041,"long":-96.8653},{"zip":"75116","city":"Duncanville","state":"TX","lat":32.6587,"long":-96.9114},{"zip":"75123","city":"Desoto","state":"TX","lat":32.5899,"long":-96.8569},{"zip":"75134","city":"Lancaster","state":"TX","lat":32.6161,"long":-96.783},{"zip":"75137","city":"Duncanville","state":"TX","lat":32.6347,"long":-96.9113},{"zip":"75138","city":"Duncanville","state":"TX","lat":32.7673,"long":-96.7776},{"zip":"75141","city":"Hutchins","state":"TX","lat":32.6396,"long":-96.707},{"zip":"75146","city":"Lancaster","state":"TX","lat":32.5914,"long":-96.7728},{"zip":"75149","city":"Mesquite","state":"TX","lat":32.7678,"long":-96.6082},{"zip":"75150","city":"Mesquite","state":"TX","lat":32.8154,"long":-96.6307},{"zip":"75159","city":"Seagoville","state":"TX","lat":32.6525,"long":-96.558},{"zip":"75172","city":"Wilmer","state":"TX","lat":32.5981,"long":-96.6838},{"zip":"75180","city":"Balch Springs","state":"TX","lat":32.7287,"long":-96.6228},{"zip":"75181","city":"Mesquite","state":"TX","lat":32.7272,"long":-96.5669},{"zip":"75182","city":"Sunnyvale","state":"TX","lat":32.797,"long":-96.5616},{"zip":"75185","city":"Mesquite","state":"TX","lat":32.7403,"long":-96.5618},{"zip":"75187","city":"Mesquite","state":"TX","lat":32.7673,"long":-96.7776},{"zip":"75201","city":"Dallas","state":"TX","lat":32.7904,"long":-96.8044},{"zip":"75202","city":"Dallas","state":"TX","lat":32.7781,"long":-96.8054},{"zip":"75203","city":"Dallas","state":"TX","lat":32.746,"long":-96.807},{"zip":"75204","city":"Dallas","state":"TX","lat":32.8038,"long":-96.7851},{"zip":"75205","city":"Dallas","state":"TX","lat":32.826,"long":-96.7843},{"zip":"75206","city":"Dallas","state":"TX","lat":32.831,"long":-96.7692},{"zip":"75207","city":"Dallas","state":"TX","lat":32.7939,"long":-96.8319},{"zip":"75208","city":"Dallas","state":"TX","lat":32.7492,"long":-96.8389},{"zip":"75209","city":"Dallas","state":"TX","lat":32.8456,"long":-96.826},{"zip":"75210","city":"Dallas","state":"TX","lat":32.7699,"long":-96.743},{"zip":"75211","city":"Dallas","state":"TX","lat":32.7319,"long":-96.9057},{"zip":"75212","city":"Dallas","state":"TX","lat":32.7829,"long":-96.8714},{"zip":"75214","city":"Dallas","state":"TX","lat":32.8248,"long":-96.7498},{"zip":"75215","city":"Dallas","state":"TX","lat":32.7582,"long":-96.7623},{"zip":"75216","city":"Dallas","state":"TX","lat":32.7086,"long":-96.7955},{"zip":"75217","city":"Dallas","state":"TX","lat":32.7244,"long":-96.6755},{"zip":"75218","city":"Dallas","state":"TX","lat":32.8463,"long":-96.6972},{"zip":"75219","city":"Dallas","state":"TX","lat":32.8132,"long":-96.8142},{"zip":"75220","city":"Dallas","state":"TX","lat":32.8681,"long":-96.8622},{"zip":"75221","city":"Dallas","state":"TX","lat":32.8147,"long":-96.7877},{"zip":"75222","city":"Dallas","state":"TX","lat":32.7673,"long":-96.7776},{"zip":"75223","city":"Dallas","state":"TX","lat":32.7942,"long":-96.7475},{"zip":"75224","city":"Dallas","state":"TX","lat":32.7114,"long":-96.8387},{"zip":"75225","city":"Dallas","state":"TX","lat":32.8628,"long":-96.7918},{"zip":"75226","city":"Dallas","state":"TX","lat":32.7887,"long":-96.7676},{"zip":"75227","city":"Dallas","state":"TX","lat":32.7672,"long":-96.6836},{"zip":"75228","city":"Dallas","state":"TX","lat":32.825,"long":-96.6784},{"zip":"75229","city":"Dallas","state":"TX","lat":32.8958,"long":-96.8588},{"zip":"75230","city":"Dallas","state":"TX","lat":32.8999,"long":-96.7897},{"zip":"75231","city":"Dallas","state":"TX","lat":32.8756,"long":-96.7495},{"zip":"75232","city":"Dallas","state":"TX","lat":32.6647,"long":-96.8384},{"zip":"75233","city":"Dallas","state":"TX","lat":32.7046,"long":-96.8725},{"zip":"75234","city":"Dallas","state":"TX","lat":32.9245,"long":-96.8938},{"zip":"75235","city":"Dallas","state":"TX","lat":32.8252,"long":-96.8388},{"zip":"75236","city":"Dallas","state":"TX","lat":32.69,"long":-96.9177},{"zip":"75237","city":"Dallas","state":"TX","lat":32.659,"long":-96.8765},{"zip":"75238","city":"Dallas","state":"TX","lat":32.877,"long":-96.708},{"zip":"75240","city":"Dallas","state":"TX","lat":32.9374,"long":-96.7872},{"zip":"75241","city":"Dallas","state":"TX","lat":32.6722,"long":-96.7774},{"zip":"75242","city":"Dallas","state":"TX","lat":32.7673,"long":-96.7776},{"zip":"75243","city":"Dallas","state":"TX","lat":32.9103,"long":-96.7285},{"zip":"75244","city":"Dallas","state":"TX","lat":32.9322,"long":-96.8353},{"zip":"75246","city":"Dallas","state":"TX","lat":32.7948,"long":-96.7697},{"zip":"75247","city":"Dallas","state":"TX","lat":32.8152,"long":-96.8703},{"zip":"75248","city":"Dallas","state":"TX","lat":32.9682,"long":-96.7942},{"zip":"75249","city":"Dallas","state":"TX","lat":32.636,"long":-96.9493},{"zip":"75250","city":"Dallas","state":"TX","lat":32.7673,"long":-96.7776},{"zip":"75251","city":"Dallas","state":"TX","lat":32.9189,"long":-96.7751},{"zip":"75252","city":"Dallas","state":"TX","lat":32.9968,"long":-96.7921},{"zip":"75253","city":"Dallas","state":"TX","lat":32.6833,"long":-96.5964},{"zip":"75254","city":"Dallas","state":"TX","lat":32.9503,"long":-96.819},{"zip":"75260","city":"Dallas","state":"TX","lat":32.7673,"long":-96.7776},{"zip":"75261","city":"Dallas","state":"TX","lat":32.7673,"long":-96.7776},{"zip":"75262","city":"Dallas","state":"TX","lat":32.7673,"long":-96.7776},{"zip":"75263","city":"Dallas","state":"TX","lat":32.7673,"long":-96.7776},{"zip":"75264","city":"Dallas","state":"TX","lat":32.7673,"long":-96.7776},{"zip":"75265","city":"Dallas","state":"TX","lat":32.7673,"long":-96.7776},{"zip":"75266","city":"Dallas","state":"TX","lat":32.7673,"long":-96.7776},{"zip":"75267","city":"Dallas","state":"TX","lat":32.7673,"long":-96.7776},{"zip":"75270","city":"Dallas","state":"TX","lat":32.7813,"long":-96.8019},{"zip":"75275","city":"Dallas","state":"TX","lat":32.7673,"long":-96.7776},{"zip":"75277","city":"Dallas","state":"TX","lat":32.7673,"long":-96.7776},{"zip":"75283","city":"Dallas","state":"TX","lat":32.7673,"long":-96.7776},{"zip":"75284","city":"Dallas","state":"TX","lat":32.7673,"long":-96.7776},{"zip":"75285","city":"Dallas","state":"TX","lat":32.7673,"long":-96.7776},{"zip":"75287","city":"Dallas","state":"TX","lat":33.0005,"long":-96.8314},{"zip":"75301","city":"Dallas","state":"TX","lat":32.7673,"long":-96.7776},{"zip":"75303","city":"Dallas","state":"TX","lat":32.7673,"long":-96.7776},{"zip":"75312","city":"Dallas","state":"TX","lat":32.7673,"long":-96.7776},{"zip":"75313","city":"Dallas","state":"TX","lat":32.7673,"long":-96.7776},{"zip":"75315","city":"Dallas","state":"TX","lat":32.7673,"long":-96.7776},{"zip":"75320","city":"Dallas","state":"TX","lat":32.7673,"long":-96.7776},{"zip":"75326","city":"Dallas","state":"TX","lat":32.7673,"long":-96.7776},{"zip":"75336","city":"Dallas","state":"TX","lat":32.7673,"long":-96.7776},{"zip":"75339","city":"Dallas","state":"TX","lat":32.7673,"long":-96.7776},{"zip":"75342","city":"Dallas","state":"TX","lat":32.7673,"long":-96.7776},{"zip":"75354","city":"Dallas","state":"TX","lat":32.7673,"long":-96.7776},{"zip":"75355","city":"Dallas","state":"TX","lat":32.7673,"long":-96.7776},{"zip":"75356","city":"Dallas","state":"TX","lat":32.7673,"long":-96.7776},{"zip":"75357","city":"Dallas","state":"TX","lat":32.7673,"long":-96.7776},{"zip":"75358","city":"Dallas","state":"TX","lat":32.7942,"long":-96.7652},{"zip":"75359","city":"Dallas","state":"TX","lat":32.7673,"long":-96.7776},{"zip":"75360","city":"Dallas","state":"TX","lat":32.7673,"long":-96.7776},{"zip":"75367","city":"Dallas","state":"TX","lat":32.7673,"long":-96.7776},{"zip":"75368","city":"Dallas","state":"TX","lat":32.7673,"long":-96.7776},{"zip":"75370","city":"Dallas","state":"TX","lat":32.7673,"long":-96.7776},{"zip":"75371","city":"Dallas","state":"TX","lat":32.7673,"long":-96.7776},{"zip":"75372","city":"Dallas","state":"TX","lat":32.7673,"long":-96.7776},{"zip":"75373","city":"Dallas","state":"TX","lat":32.7673,"long":-96.7776},{"zip":"75374","city":"Dallas","state":"TX","lat":32.7673,"long":-96.7776},{"zip":"75376","city":"Dallas","state":"TX","lat":32.7673,"long":-96.7776},{"zip":"75378","city":"Dallas","state":"TX","lat":32.7673,"long":-96.7776},{"zip":"75379","city":"Dallas","state":"TX","lat":32.7673,"long":-96.7776},{"zip":"75380","city":"Dallas","state":"TX","lat":32.7673,"long":-96.7776},{"zip":"75381","city":"Dallas","state":"TX","lat":32.7673,"long":-96.7776},{"zip":"75382","city":"Dallas","state":"TX","lat":32.7673,"long":-96.7776},{"zip":"75389","city":"Dallas","state":"TX","lat":32.7673,"long":-96.7776},{"zip":"75390","city":"Dallas","state":"TX","lat":32.7673,"long":-96.7776},{"zip":"75391","city":"Dallas","state":"TX","lat":32.7673,"long":-96.7776},{"zip":"75392","city":"Dallas","state":"TX","lat":32.7673,"long":-96.7776},{"zip":"75393","city":"Dallas","state":"TX","lat":32.7673,"long":-96.7776},{"zip":"75394","city":"Dallas","state":"TX","lat":32.7673,"long":-96.7776},{"zip":"75395","city":"Dallas","state":"TX","lat":32.7673,"long":-96.7776},{"zip":"75397","city":"Dallas","state":"TX","lat":32.7673,"long":-96.7776},{"zip":"75398","city":"Dallas","state":"TX","lat":32.7673,"long":-96.7776},{"zip":"75415","city":"Ben Franklin","state":"TX","lat":33.4768,"long":-95.7689},{"zip":"75432","city":"Cooper","state":"TX","lat":33.3812,"long":-95.6623},{"zip":"75441","city":"Enloe","state":"TX","lat":33.4291,"long":-95.6518},{"zip":"75448","city":"Klondike","state":"TX","lat":33.3034,"long":-95.8018},{"zip":"75450","city":"Lake Creek","state":"TX","lat":33.4116,"long":-95.4551},{"zip":"75469","city":"Pecan Gap","state":"TX","lat":33.4196,"long":-95.8262},{"zip":"75007","city":"Carrollton","state":"TX","lat":33.0033,"long":-96.882},{"zip":"75010","city":"Carrollton","state":"TX","lat":33.0304,"long":-96.8777},{"zip":"75022","city":"Flower Mound","state":"TX","lat":33.0268,"long":-97.1193},{"zip":"75027","city":"Flower Mound","state":"TX","lat":33.2074,"long":-97.1163},{"zip":"75028","city":"Flower Mound","state":"TX","lat":33.0383,"long":-97.0745},{"zip":"75029","city":"Lewisville","state":"TX","lat":33.0462,"long":-96.9942},{"zip":"75056","city":"The Colony","state":"TX","lat":33.094,"long":-96.8836},{"zip":"75057","city":"Lewisville","state":"TX","lat":33.0532,"long":-96.9999},{"zip":"75065","city":"Lake Dallas","state":"TX","lat":33.1219,"long":-97.0237},{"zip":"75067","city":"Lewisville","state":"TX","lat":33.0198,"long":-96.9925},{"zip":"75068","city":"Little Elm","state":"TX","lat":33.1768,"long":-96.9583},{"zip":"75077","city":"Lewisville","state":"TX","lat":33.0775,"long":-97.0704},{"zip":"75101","city":"Bardwell","state":"TX","lat":32.2731,"long":-96.703},{"zip":"75119","city":"Ennis","state":"TX","lat":32.3321,"long":-96.6224},{"zip":"75120","city":"Ennis","state":"TX","lat":32.3347,"long":-96.6335},{"zip":"75125","city":"Ferris","state":"TX","lat":32.5223,"long":-96.6643},{"zip":"75152","city":"Palmer","state":"TX","lat":32.4387,"long":-96.6794},{"zip":"75154","city":"Red Oak","state":"TX","lat":32.5185,"long":-96.8071},{"zip":"75155","city":"Rice","state":"TX","lat":32.2258,"long":-96.4606},{"zip":"75165","city":"Waxahachie","state":"TX","lat":32.3808,"long":-96.8374},{"zip":"75167","city":"Waxahachie","state":"TX","lat":32.3773,"long":-96.9162},{"zip":"75168","city":"Waxahachie","state":"TX","lat":32.3749,"long":-96.7166},{"zip":"75413","city":"Bailey","state":"TX","lat":33.43,"long":-96.1662},{"zip":"75418","city":"Bonham","state":"TX","lat":33.5806,"long":-96.1836},{"zip":"75438","city":"Dodd City","state":"TX","lat":33.5647,"long":-96.0619},{"zip":"75439","city":"Ector","state":"TX","lat":33.5819,"long":-96.2735},{"zip":"75443","city":"Gober","state":"TX","lat":33.4697,"long":-96.1111},{"zip":"75446","city":"Honey Grove","state":"TX","lat":33.5985,"long":-95.9109},{"zip":"75447","city":"Ivanhoe","state":"TX","lat":33.7612,"long":-96.1193},{"zip":"75449","city":"Ladonia","state":"TX","lat":33.4245,"long":-95.9455},{"zip":"75452","city":"Leonard","state":"TX","lat":33.3796,"long":-96.2475},{"zip":"75475","city":"Randolph","state":"TX","lat":33.4846,"long":-96.2541},{"zip":"75476","city":"Ravenna","state":"TX","lat":33.7098,"long":-96.1452},{"zip":"75479","city":"Savoy","state":"TX","lat":33.6066,"long":-96.3502},{"zip":"75488","city":"Telephone","state":"TX","lat":33.7979,"long":-96.0449},{"zip":"75490","city":"Trenton","state":"TX","lat":33.4235,"long":-96.3398},{"zip":"75492","city":"Windom","state":"TX","lat":33.5633,"long":-96.002},{"zip":"75457","city":"Mount Vernon","state":"TX","lat":33.1702,"long":-95.2181},{"zip":"75480","city":"Scroggins","state":"TX","lat":33.0478,"long":-95.1962},{"zip":"75487","city":"Talco","state":"TX","lat":33.3344,"long":-95.0497},{"zip":"75838","city":"Donie","state":"TX","lat":31.4873,"long":-96.2387},{"zip":"75840","city":"Fairfield","state":"TX","lat":31.7361,"long":-96.1572},{"zip":"75848","city":"Kirvin","state":"TX","lat":31.8231,"long":-96.3218},{"zip":"75859","city":"Streetman","state":"TX","lat":31.8885,"long":-96.2988},{"zip":"75860","city":"Teague","state":"TX","lat":31.6328,"long":-96.2778},{"zip":"75020","city":"Denison","state":"TX","lat":33.745,"long":-96.5496},{"zip":"75021","city":"Denison","state":"TX","lat":33.7169,"long":-96.5235},{"zip":"75058","city":"Gunter","state":"TX","lat":33.4495,"long":-96.7341},{"zip":"75076","city":"Pottsboro","state":"TX","lat":33.8095,"long":-96.6906},{"zip":"75090","city":"Sherman","state":"TX","lat":33.6435,"long":-96.6075},{"zip":"75091","city":"Sherman","state":"TX","lat":33.6357,"long":-96.6089},{"zip":"75092","city":"Sherman","state":"TX","lat":33.6372,"long":-96.6184},{"zip":"75414","city":"Bells","state":"TX","lat":33.6178,"long":-96.4237},{"zip":"75459","city":"Howe","state":"TX","lat":33.5311,"long":-96.6777},{"zip":"75489","city":"Tom Bean","state":"TX","lat":33.5193,"long":-96.4843},{"zip":"75491","city":"Whitewright","state":"TX","lat":33.519,"long":-96.451},{"zip":"75495","city":"Van Alstyne","state":"TX","lat":33.4292,"long":-96.5486},{"zip":"75601","city":"Longview","state":"TX","lat":32.5178,"long":-94.7303},{"zip":"75602","city":"Longview","state":"TX","lat":32.4724,"long":-94.7101},{"zip":"75603","city":"Longview","state":"TX","lat":32.4264,"long":-94.7117},{"zip":"75604","city":"Longview","state":"TX","lat":32.5251,"long":-94.799},{"zip":"75605","city":"Longview","state":"TX","lat":32.5547,"long":-94.7767},{"zip":"75606","city":"Longview","state":"TX","lat":32.5007,"long":-94.7405},{"zip":"75607","city":"Longview","state":"TX","lat":32.5112,"long":-94.7835},{"zip":"75608","city":"Longview","state":"TX","lat":32.5701,"long":-94.8481},{"zip":"75615","city":"Longview","state":"TX","lat":32.5112,"long":-94.7835},{"zip":"75641","city":"Easton","state":"TX","lat":32.3874,"long":-94.583},{"zip":"75647","city":"Gladewater","state":"TX","lat":32.5559,"long":-94.932},{"zip":"75660","city":"Judson","state":"TX","lat":32.5826,"long":-94.7535},{"zip":"75662","city":"Kilgore","state":"TX","lat":32.3836,"long":-94.8653},{"zip":"75663","city":"Kilgore","state":"TX","lat":32.387,"long":-94.8951},{"zip":"75693","city":"White Oak","state":"TX","lat":32.5383,"long":-94.8622},{"zip":"75642","city":"Elysian Fields","state":"TX","lat":32.3685,"long":-94.183},{"zip":"75650","city":"Hallsville","state":"TX","lat":32.5073,"long":-94.5333},{"zip":"75651","city":"Harleton","state":"TX","lat":32.6579,"long":-94.4652},{"zip":"75659","city":"Jonesville","state":"TX","lat":32.5075,"long":-94.1106},{"zip":"75661","city":"Karnack","state":"TX","lat":32.6205,"long":-94.2001},{"zip":"75670","city":"Marshall","state":"TX","lat":32.5338,"long":-94.3619},{"zip":"75671","city":"Marshall","state":"TX","lat":32.5449,"long":-94.3674},{"zip":"75672","city":"Marshall","state":"TX","lat":32.5165,"long":-94.3251},{"zip":"75688","city":"Scottsville","state":"TX","lat":32.554,"long":-94.2394},{"zip":"75692","city":"Waskom","state":"TX","lat":32.5184,"long":-94.1355},{"zip":"75694","city":"Woodlawn","state":"TX","lat":32.6537,"long":-94.3427},{"zip":"75124","city":"Eustace","state":"TX","lat":32.2965,"long":-96.0137},{"zip":"75143","city":"Kemp","state":"TX","lat":32.2486,"long":-96.2161},{"zip":"75148","city":"Malakoff","state":"TX","lat":32.1705,"long":-96.006},{"zip":"75163","city":"Trinidad","state":"TX","lat":32.1383,"long":-96.0831},{"zip":"75751","city":"Athens","state":"TX","lat":32.1935,"long":-95.8432},{"zip":"75752","city":"Athens","state":"TX","lat":32.2151,"long":-95.79},{"zip":"75756","city":"Brownsboro","state":"TX","lat":32.304,"long":-95.6},{"zip":"75758","city":"Chandler","state":"TX","lat":32.2572,"long":-95.5393},{"zip":"75770","city":"Larue","state":"TX","lat":32.1608,"long":-95.5927},{"zip":"75778","city":"Murchison","state":"TX","lat":32.3257,"long":-95.7737},{"zip":"75782","city":"Poynor","state":"TX","lat":32.0797,"long":-95.5938},{"zip":"75420","city":"Brashear","state":"TX","lat":33.1155,"long":-95.7345},{"zip":"75431","city":"Como","state":"TX","lat":33.0107,"long":-95.4734},{"zip":"75433","city":"Cumby","state":"TX","lat":33.1118,"long":-95.7945},{"zip":"75437","city":"Dike","state":"TX","lat":33.2648,"long":-95.4423},{"zip":"75471","city":"Pickton","state":"TX","lat":33.0519,"long":-95.3851},{"zip":"75478","city":"Saltillo","state":"TX","lat":33.1767,"long":-95.3433},{"zip":"75481","city":"Sulphur Bluff","state":"TX","lat":33.3334,"long":-95.374},{"zip":"75482","city":"Sulphur Springs","state":"TX","lat":33.1345,"long":-95.5922},{"zip":"75483","city":"Sulphur Springs","state":"TX","lat":33.1384,"long":-95.6011},{"zip":"75835","city":"Crockett","state":"TX","lat":31.3208,"long":-95.3928},{"zip":"75844","city":"Grapeland","state":"TX","lat":31.4972,"long":-95.4447},{"zip":"75847","city":"Kennard","state":"TX","lat":31.3384,"long":-95.1541},{"zip":"75849","city":"Latexo","state":"TX","lat":31.3952,"long":-95.4741},{"zip":"75851","city":"Lovelady","state":"TX","lat":31.0564,"long":-95.5501},{"zip":"75858","city":"Ratcliff","state":"TX","lat":31.3916,"long":-95.1397},{"zip":"75135","city":"Caddo Mills","state":"TX","lat":33.0683,"long":-96.2391},{"zip":"75401","city":"Greenville","state":"TX","lat":33.1854,"long":-96.1304},{"zip":"75402","city":"Greenville","state":"TX","lat":33.1047,"long":-96.0927},{"zip":"75403","city":"Greenville","state":"TX","lat":33.2185,"long":-96.0487},{"zip":"75404","city":"Greenville","state":"TX","lat":33.0563,"long":-96.081},{"zip":"75422","city":"Campbell","state":"TX","lat":33.151,"long":-95.9439},{"zip":"75423","city":"Celeste","state":"TX","lat":33.2649,"long":-96.2076},{"zip":"75428","city":"Commerce","state":"TX","lat":33.2493,"long":-95.9097},{"zip":"75429","city":"Commerce","state":"TX","lat":33.2377,"long":-95.9089},{"zip":"75453","city":"Lone Oak","state":"TX","lat":32.9916,"long":-95.9434},{"zip":"75458","city":"Merit","state":"TX","lat":33.2427,"long":-96.2916},{"zip":"75474","city":"Quinlan","state":"TX","lat":32.8983,"long":-96.1261},{"zip":"75496","city":"Wolfe City","state":"TX","lat":33.3605,"long":-96.0691},{"zip":"75951","city":"Jasper","state":"TX","lat":30.8673,"long":-93.9977},{"zip":"75956","city":"Kirbyville","state":"TX","lat":30.6583,"long":-93.8984},{"zip":"75114","city":"Crandall","state":"TX","lat":32.6279,"long":-96.4558},{"zip":"75118","city":"Elmo","state":"TX","lat":32.5996,"long":-96.3027},{"zip":"75126","city":"Forney","state":"TX","lat":32.7491,"long":-96.4598},{"zip":"75142","city":"Kaufman","state":"TX","lat":32.546,"long":-96.2852},{"zip":"75147","city":"Mabank","state":"TX","lat":32.3685,"long":-96.0685},{"zip":"75156","city":"Mabank","state":"TX","lat":32.2972,"long":-96.1184},{"zip":"75157","city":"Rosser","state":"TX","lat":32.4626,"long":-96.4533},{"zip":"75158","city":"Scurry","state":"TX","lat":32.4818,"long":-96.3925},{"zip":"75160","city":"Terrell","state":"TX","lat":32.7515,"long":-96.2831},{"zip":"75161","city":"Terrell","state":"TX","lat":32.7332,"long":-96.195},{"zip":"75411","city":"Arthur City","state":"TX","lat":33.8643,"long":-95.6111},{"zip":"75416","city":"Blossom","state":"TX","lat":33.6945,"long":-95.3823},{"zip":"75421","city":"Brookston","state":"TX","lat":33.6246,"long":-95.6888},{"zip":"75425","city":"Chicota","state":"TX","lat":33.869,"long":-95.5711},{"zip":"75434","city":"Cunningham","state":"TX","lat":33.409,"long":-95.3711},{"zip":"75435","city":"Deport","state":"TX","lat":33.5221,"long":-95.3654},{"zip":"75460","city":"Paris","state":"TX","lat":33.6581,"long":-95.5379},{"zip":"75461","city":"Paris","state":"TX","lat":33.6609,"long":-95.5555},{"zip":"75462","city":"Paris","state":"TX","lat":33.6805,"long":-95.4905},{"zip":"75468","city":"Pattonville","state":"TX","lat":33.5702,"long":-95.3908},{"zip":"75470","city":"Petty","state":"TX","lat":33.6098,"long":-95.7891},{"zip":"75473","city":"Powderly","state":"TX","lat":33.7779,"long":-95.5307},{"zip":"75477","city":"Roxton","state":"TX","lat":33.5429,"long":-95.7416},{"zip":"75486","city":"Sumner","state":"TX","lat":33.7589,"long":-95.6807},{"zip":"75831","city":"Buffalo","state":"TX","lat":31.4121,"long":-95.9904},{"zip":"75833","city":"Centerville","state":"TX","lat":31.272,"long":-95.9213},{"zip":"75846","city":"Jewett","state":"TX","lat":31.3739,"long":-96.1918},{"zip":"75850","city":"Leona","state":"TX","lat":31.1421,"long":-95.9284},{"zip":"75855","city":"Oakwood","state":"TX","lat":31.5849,"long":-95.8491},{"zip":"75852","city":"Midway","state":"TX","lat":30.9806,"long":-95.7089},{"zip":"75564","city":"Lodi","state":"TX","lat":32.8718,"long":-94.2729},{"zip":"75657","city":"Jefferson","state":"TX","lat":32.8059,"long":-94.3655},{"zip":"75568","city":"Naples","state":"TX","lat":33.1912,"long":-94.6891},{"zip":"75571","city":"Omaha","state":"TX","lat":33.1808,"long":-94.7639},{"zip":"75636","city":"Cason","state":"TX","lat":33.024,"long":-94.8249},{"zip":"75638","city":"Daingerfield","state":"TX","lat":33.0313,"long":-94.7359},{"zip":"75668","city":"Lone Star","state":"TX","lat":32.9252,"long":-94.7049},{"zip":"75760","city":"Cushing","state":"TX","lat":31.7978,"long":-94.8539},{"zip":"75788","city":"Sacul","state":"TX","lat":31.8254,"long":-94.9189},{"zip":"75937","city":"Chireno","state":"TX","lat":31.5119,"long":-94.4302},{"zip":"75943","city":"Douglass","state":"TX","lat":31.6578,"long":-94.8696},{"zip":"75944","city":"Etoile","state":"TX","lat":31.3601,"long":-94.4064},{"zip":"75946","city":"Garrison","state":"TX","lat":31.8111,"long":-94.5266},{"zip":"75958","city":"Martinsville","state":"TX","lat":31.6427,"long":-94.4141},{"zip":"75961","city":"Nacogdoches","state":"TX","lat":31.5611,"long":-94.5},{"zip":"75962","city":"Nacogdoches","state":"TX","lat":31.6995,"long":-94.6074},{"zip":"75963","city":"Nacogdoches","state":"TX","lat":31.6046,"long":-94.6641},{"zip":"75964","city":"Nacogdoches","state":"TX","lat":31.6737,"long":-94.6932},{"zip":"75965","city":"Nacogdoches","state":"TX","lat":31.7195,"long":-94.6168},{"zip":"75978","city":"Woden","state":"TX","lat":31.5037,"long":-94.525},{"zip":"75102","city":"Barry","state":"TX","lat":32.1014,"long":-96.6251},{"zip":"75105","city":"Chatfield","state":"TX","lat":32.2954,"long":-96.3887},{"zip":"75109","city":"Corsicana","state":"TX","lat":31.9937,"long":-96.4199},{"zip":"75110","city":"Corsicana","state":"TX","lat":32.0868,"long":-96.4762},{"zip":"75144","city":"Kerens","state":"TX","lat":32.1275,"long":-96.2298},{"zip":"75151","city":"Corsicana","state":"TX","lat":32.0624,"long":-96.4735},{"zip":"75153","city":"Powell","state":"TX","lat":32.1196,"long":-96.3327},{"zip":"75928","city":"Bon Wier","state":"TX","lat":30.6876,"long":-93.7665},{"zip":"75932","city":"Burkeville","state":"TX","lat":31.0099,"long":-93.6585},{"zip":"75933","city":"Call","state":"TX","lat":30.5741,"long":-93.8334},{"zip":"75966","city":"Newton","state":"TX","lat":30.8351,"long":-93.7497},{"zip":"75977","city":"Wiergate","state":"TX","lat":31.0414,"long":-93.8039},{"zip":"75631","city":"Beckville","state":"TX","lat":32.2452,"long":-94.4555},{"zip":"75633","city":"Carthage","state":"TX","lat":32.1544,"long":-94.3527},{"zip":"75637","city":"Clayton","state":"TX","lat":32.1027,"long":-94.4935},{"zip":"75639","city":"De Berry","state":"TX","lat":32.2543,"long":-94.1356},{"zip":"75643","city":"Gary","state":"TX","lat":32.0334,"long":-94.38},{"zip":"75669","city":"Long Branch","state":"TX","lat":32.0449,"long":-94.5381},{"zip":"75685","city":"Panola","state":"TX","lat":32.3579,"long":-94.0913},{"zip":"75934","city":"Camden","state":"TX","lat":30.9,"long":-94.7547},{"zip":"75939","city":"Corrigan","state":"TX","lat":31.0408,"long":-94.8124},{"zip":"75960","city":"Moscow","state":"TX","lat":30.9179,"long":-94.8544},{"zip":"75410","city":"Alba","state":"TX","lat":32.7652,"long":-95.5971},{"zip":"75440","city":"Emory","state":"TX","lat":32.875,"long":-95.7418},{"zip":"75472","city":"Point","state":"TX","lat":32.9007,"long":-95.8903},{"zip":"75412","city":"Bagwell","state":"TX","lat":33.8361,"long":-95.1487},{"zip":"75417","city":"Bogata","state":"TX","lat":33.4699,"long":-95.1937},{"zip":"75426","city":"Clarksville","state":"TX","lat":33.6236,"long":-95.0461},{"zip":"75436","city":"Detroit","state":"TX","lat":33.6627,"long":-95.2385},{"zip":"75550","city":"Annona","state":"TX","lat":33.5535,"long":-94.8992},{"zip":"75554","city":"Avery","state":"TX","lat":33.5339,"long":-94.7867},{"zip":"75032","city":"Rockwall","state":"TX","lat":32.886,"long":-96.4095},{"zip":"75087","city":"Rockwall","state":"TX","lat":32.9492,"long":-96.4418},{"zip":"75132","city":"Fate","state":"TX","lat":32.9415,"long":-96.3814},{"zip":"75189","city":"Royse City","state":"TX","lat":32.9628,"long":-96.3648},{"zip":"75652","city":"Henderson","state":"TX","lat":32.2131,"long":-94.7834},{"zip":"75653","city":"Henderson","state":"TX","lat":32.1532,"long":-94.7994},{"zip":"75654","city":"Henderson","state":"TX","lat":32.126,"long":-94.7488},{"zip":"75658","city":"Joinerville","state":"TX","lat":32.1959,"long":-94.9065},{"zip":"75666","city":"Laird Hill","state":"TX","lat":32.3532,"long":-94.9055},{"zip":"75667","city":"Laneville","state":"TX","lat":31.9508,"long":-94.866},{"zip":"75680","city":"Minden","state":"TX","lat":32.0028,"long":-94.7129},{"zip":"75681","city":"Mount Enterprise","state":"TX","lat":31.9125,"long":-94.6235},{"zip":"75682","city":"New London","state":"TX","lat":32.2542,"long":-94.9322},{"zip":"75684","city":"Overton","state":"TX","lat":32.269,"long":-94.9529},{"zip":"75687","city":"Price","state":"TX","lat":32.1518,"long":-94.9554},{"zip":"75689","city":"Selman City","state":"TX","lat":32.1826,"long":-94.9355},{"zip":"75691","city":"Tatum","state":"TX","lat":32.3266,"long":-94.596},{"zip":"75930","city":"Bronson","state":"TX","lat":31.3391,"long":-93.9993},{"zip":"75931","city":"Brookeland","state":"TX","lat":31.0922,"long":-93.9684},{"zip":"75948","city":"Hemphill","state":"TX","lat":31.3161,"long":-93.7905},{"zip":"75959","city":"Milam","state":"TX","lat":31.5033,"long":-93.8778},{"zip":"75968","city":"Pineland","state":"TX","lat":31.2418,"long":-93.9754},{"zip":"75929","city":"Broaddus","state":"TX","lat":31.2952,"long":-94.2156},{"zip":"75972","city":"San Augustine","state":"TX","lat":31.5152,"long":-94.1326},{"zip":"75935","city":"Center","state":"TX","lat":31.7865,"long":-94.1869},{"zip":"75954","city":"Joaquin","state":"TX","lat":31.944,"long":-94.0608},{"zip":"75973","city":"Shelbyville","state":"TX","lat":31.7131,"long":-93.9698},{"zip":"75974","city":"Tenaha","state":"TX","lat":31.9408,"long":-94.2488},{"zip":"75975","city":"Timpson","state":"TX","lat":31.8841,"long":-94.3967},{"zip":"75701","city":"Tyler","state":"TX","lat":32.3254,"long":-95.2922},{"zip":"75702","city":"Tyler","state":"TX","lat":32.362,"long":-95.3117},{"zip":"75703","city":"Tyler","state":"TX","lat":32.2768,"long":-95.3031},{"zip":"75704","city":"Tyler","state":"TX","lat":32.3738,"long":-95.407},{"zip":"75705","city":"Tyler","state":"TX","lat":32.3766,"long":-95.1252},{"zip":"75706","city":"Tyler","state":"TX","lat":32.4441,"long":-95.331},{"zip":"75707","city":"Tyler","state":"TX","lat":32.3038,"long":-95.1927},{"zip":"75708","city":"Tyler","state":"TX","lat":32.419,"long":-95.2106},{"zip":"75709","city":"Tyler","state":"TX","lat":32.3078,"long":-95.3956},{"zip":"75710","city":"Tyler","state":"TX","lat":32.3475,"long":-95.3065},{"zip":"75711","city":"Tyler","state":"TX","lat":32.3513,"long":-95.3011},{"zip":"75712","city":"Tyler","state":"TX","lat":32.4112,"long":-95.2899},{"zip":"75713","city":"Tyler","state":"TX","lat":32.4112,"long":-95.2899},{"zip":"75750","city":"Arp","state":"TX","lat":32.2418,"long":-95.0639},{"zip":"75757","city":"Bullard","state":"TX","lat":32.1095,"long":-95.3342},{"zip":"75762","city":"Flint","state":"TX","lat":32.2079,"long":-95.3948},{"zip":"75771","city":"Lindale","state":"TX","lat":32.5062,"long":-95.4006},{"zip":"75789","city":"Troup","state":"TX","lat":32.1117,"long":-95.1155},{"zip":"75791","city":"Whitehouse","state":"TX","lat":32.222,"long":-95.2266},{"zip":"75792","city":"Winona","state":"TX","lat":32.4662,"long":-95.1246},{"zip":"75798","city":"Tyler","state":"TX","lat":32.4112,"long":-95.2899},{"zip":"75799","city":"Tyler","state":"TX","lat":32.4112,"long":-95.2899},{"zip":"75455","city":"Mount Pleasant","state":"TX","lat":33.1733,"long":-94.9695},{"zip":"75456","city":"Mount Pleasant","state":"TX","lat":33.1568,"long":-94.9683},{"zip":"75493","city":"Winfield","state":"TX","lat":33.1673,"long":-95.1119},{"zip":"75558","city":"Cookville","state":"TX","lat":33.2432,"long":-94.8747},{"zip":"75834","city":"Centralia","state":"TX","lat":31.258,"long":-95.0399},{"zip":"75845","city":"Groveton","state":"TX","lat":31.0651,"long":-95.0969},{"zip":"75856","city":"Pennington","state":"TX","lat":31.1953,"long":-95.2469},{"zip":"75862","city":"Trinity","state":"TX","lat":30.942,"long":-95.3403},{"zip":"75865","city":"Woodlake","state":"TX","lat":31.0288,"long":-95.033},{"zip":"75926","city":"Apple Springs","state":"TX","lat":31.2269,"long":-94.9812},{"zip":"75936","city":"Chester","state":"TX","lat":30.9447,"long":-94.5554},{"zip":"75938","city":"Colmesneil","state":"TX","lat":30.9007,"long":-94.3916},{"zip":"75942","city":"Doucette","state":"TX","lat":30.8183,"long":-94.4288},{"zip":"75979","city":"Woodville","state":"TX","lat":30.7752,"long":-94.4155},{"zip":"75990","city":"Woodville","state":"TX","lat":30.7752,"long":-94.4155},{"zip":"75640","city":"Diana","state":"TX","lat":32.7698,"long":-94.7032},{"zip":"75644","city":"Gilmer","state":"TX","lat":32.7246,"long":-94.9714},{"zip":"75645","city":"Gilmer","state":"TX","lat":32.6044,"long":-94.8491},{"zip":"75683","city":"Ore City","state":"TX","lat":32.7856,"long":-94.7514},{"zip":"75755","city":"Big Sandy","state":"TX","lat":32.6168,"long":-95.088},{"zip":"75797","city":"Big Sandy","state":"TX","lat":32.5765,"long":-95.1313},{"zip":"75103","city":"Canton","state":"TX","lat":32.5143,"long":-95.9047},{"zip":"75117","city":"Edgewood","state":"TX","lat":32.7003,"long":-95.878},{"zip":"75127","city":"Fruitvale","state":"TX","lat":32.677,"long":-95.7899},{"zip":"75140","city":"Grand Saline","state":"TX","lat":32.6635,"long":-95.7064},{"zip":"75169","city":"Wills Point","state":"TX","lat":32.7283,"long":-96.0079},{"zip":"75754","city":"Ben Wheeler","state":"TX","lat":32.4126,"long":-95.6371},{"zip":"75790","city":"Van","state":"TX","lat":32.5283,"long":-95.6545},{"zip":"75444","city":"Golden","state":"TX","lat":32.7299,"long":-95.5636},{"zip":"75494","city":"Winnsboro","state":"TX","lat":32.9146,"long":-95.2726},{"zip":"75497","city":"Yantis","state":"TX","lat":32.9257,"long":-95.5311},{"zip":"75765","city":"Hawkins","state":"TX","lat":32.6439,"long":-95.222},{"zip":"75773","city":"Mineola","state":"TX","lat":32.6661,"long":-95.487},{"zip":"75783","city":"Quitman","state":"TX","lat":32.8049,"long":-95.4302}]
