[{"zip":"75002","city":"Allen","state":"TX","lat":33.0934,"long":-96.6454},{"zip":"75009","city":"Celina","state":"TX","lat":33.3103,"long":-96.7673},{"zip":"75013","city":"Allen","state":"TX","lat":33.1186,"long":-96.6773},{"zip":"75023","city":"Plano","state":"TX","lat":33.055,"long":-96.7365},{"zip":"75024","city":"Plano","state":"TX","lat":33.0752,"long":-96.7843},{"zip":"75025","city":"Plano","state":"TX","lat":33.0784,"long":-96.7291},{"zip":"75026","city":"Plano","state":"TX","lat":33.0198,"long":-96.6989},{"zip":"75033","city":"Frisco","state":"TX","lat":33.2559,"long":-96.8853},{"zip":"75034","city":"Frisco","state":"TX","lat":33.1499,"long":-96.8241},{"zip":"75035","city":"Frisco","state":"TX","lat":33.1377,"long":-96.7524},{"zip":"75069","city":"Mckinney","state":"TX","lat":33.1976,"long":-96.6153},{"zip":"75070","city":"Mckinney","state":"TX","lat":33.1976,"long":-96.6153},{"zip":"75071","city":"Mckinney","state":"TX","lat":33.1976,"long":-96.6153},{"zip":"75074","city":"Plano","state":"TX","lat":33.0277,"long":-96.6777},{"zip":"75075","city":"Plano","state":"TX","lat":33.025,"long":-96.7397},{"zip":"75078","city":"Prosper","state":"TX","lat":33.2362,"long":-96.7954},{"zip":"75086","city":"Plano","state":"TX","lat":33.0198,"long":-96.6989},{"zip":"75093","city":"Plano","state":"TX","lat":33.0299,"long":-96.7889},{"zip":"75094","city":"Plano","state":"TX","lat":33.0148,"long":-96.6189},{"zip":"75097","city":"Weston","state":"TX","lat":33.3512,"long":-96.6646},{"zip":"75001","city":"Addison","state":"TX","lat":32.96,"long":-96.8385},{"zip":"75006","city":"Carrollton","state":"TX","lat":32.9657,"long":-96.8825},{"zip":"75011","city":"Carrollton","state":"TX","lat":32.9537,"long":-96.8903},{"zip":"75014","city":"Irving","state":"TX","lat":32.7673,"long":-96.7776},{"zip":"75015","city":"Irving","state":"TX","lat":32.8987,"long":-96.9722},{"zip":"75016","city":"Irving","state":"TX","lat":32.8987,"long":-96.9722},{"zip":"75017","city":"Irving","state":"TX","lat":32.7673,"long":-96.7776},{"zip":"75019","city":"Coppell","state":"TX","lat":32.9673,"long":-96.9805},{"zip":"75030","city":"Rowlett","state":"TX","lat":32.9029,"long":-96.5639},{"zip":"75038","city":"Irving","state":"TX","lat":32.8653,"long":-96.9905},{"zip":"75039","city":"Irving","state":"TX","lat":32.8697,"long":-96.9389},{"zip":"75040","city":"Garland","state":"TX","lat":32.9227,"long":-96.6248},{"zip":"75041","city":"Garland","state":"TX","lat":32.8794,"long":-96.6411},{"zip":"75042","city":"Garland","state":"TX","lat":32.9185,"long":-96.6775},{"zip":"75043","city":"Garland","state":"TX","lat":32.8565,"long":-96.5999},{"zip":"75044","city":"Garland","state":"TX","lat":32.9522,"long":-96.6654},{"zip":"75045","city":"Garland","state":"TX","lat":32.9137,"long":-96.6271},{"zip":"75046","city":"Garland","state":"TX","lat":32.9126,"long":-96.6389},{"zip":"75047","city":"Garland","state":"TX","lat":32.9126,"long":-96.6389},{"zip":"75048","city":"Sachse","state":"TX","lat":32.9643,"long":-96.6012},{"zip":"75049","city":"Garland","state":"TX","lat":32.9126,"long":-96.6389},{"zip":"75050","city":"Grand Prairie","state":"TX","lat":32.7649,"long":-97.0112},{"zip":"75051","city":"Grand Prairie","state":"TX","lat":32.7115,"long":-97.0069},{"zip":"75052","city":"Grand Prairie","state":"TX","lat":32.6605,"long":-97.0311},{"zip":"75053","city":"Grand Prairie","state":"TX","lat":32.746,"long":-96.9978},{"zip":"75054","city":"Grand Prairie","state":"TX","lat":32.5907,"long":-97.0405},{"zip":"75060","city":"Irving","state":"TX","lat":32.8023,"long":-96.9597},{"zip":"75061","city":"Irving","state":"TX","lat":32.8267,"long":-96.9633},{"zip":"75062","city":"Irving","state":"TX","lat":32.8479,"long":-96.974},{"zip":"75063","city":"Irving","state":"TX","lat":32.9247,"long":-96.9598},{"zip":"75080","city":"Richardson","state":"TX","lat":32.966,"long":-96.7452},{"zip":"75081","city":"Richardson","state":"TX","lat":32.9462,"long":-96.7058},{"zip":"75082","city":"Richardson","state":"TX","lat":32.9865,"long":-96.686},{"zip":"75083","city":"Richardson","state":"TX","lat":32.7673,"long":-96.7776},{"zip":"75085","city":"Richardson","state":"TX","lat":32.7673,"long":-96.7776},{"zip":"75088","city":"Rowlett","state":"TX","lat":32.9031,"long":-96.5472},{"zip":"75089","city":"Rowlett","state":"TX","lat":32.9346,"long":-96.5544},{"zip":"75098","city":"Wylie","state":"TX","lat":33.0041,"long":-96.5394},{"zip":"75099","city":"Coppell","state":"TX","lat":32.9546,"long":-97.015},{"zip":"75007","city":"Carrollton","state":"TX","lat":33.0033,"long":-96.882},{"zip":"75010","city":"Carrollton","state":"TX","lat":33.0304,"long":-96.8777},{"zip":"75022","city":"Flower Mound","state":"TX","lat":33.0268,"long":-97.1193},{"zip":"75027","city":"Flower Mound","state":"TX","lat":33.2074,"long":-97.1163},{"zip":"75028","city":"Flower Mound","state":"TX","lat":33.0383,"long":-97.0745},{"zip":"75029","city":"Lewisville","state":"TX","lat":33.0462,"long":-96.9942},{"zip":"75056","city":"The Colony","state":"TX","lat":33.094,"long":-96.8836},{"zip":"75057","city":"Lewisville","state":"TX","lat":33.0532,"long":-96.9999},{"zip":"75065","city":"Lake Dallas","state":"TX","lat":33.1219,"long":-97.0237},{"zip":"75067","city":"Lewisville","state":"TX","lat":33.0198,"long":-96.9925},{"zip":"75068","city":"Little Elm","state":"TX","lat":33.1768,"long":-96.9583},{"zip":"75077","city":"Lewisville","state":"TX","lat":33.0775,"long":-97.0704},{"zip":"75020","city":"Denison","state":"TX","lat":33.745,"long":-96.5496},{"zip":"75021","city":"Denison","state":"TX","lat":33.7169,"long":-96.5235},{"zip":"75058","city":"Gunter","state":"TX","lat":33.4495,"long":-96.7341},{"zip":"75076","city":"Pottsboro","state":"TX","lat":33.8095,"long":-96.6906},{"zip":"75090","city":"Sherman","state":"TX","lat":33.6435,"long":-96.6075},{"zip":"75091","city":"Sherman","state":"TX","lat":33.6357,"long":-96.6089},{"zip":"75092","city":"Sherman","state":"TX","lat":33.6372,"long":-96.6184},{"zip":"75032","city":"Rockwall","state":"TX","lat":32.886,"long":-96.4095},{"zip":"75087","city":"Rockwall","state":"TX","lat":32.9492,"long":-96.4418}]
