[{"zip":"75121","city":"Copeville","state":"TX","lat":33.0875,"long":-96.4186},{"zip":"75164","city":"Josephine","state":"TX","lat":33.0612,"long":-96.3072},{"zip":"75166","city":"Lavon","state":"TX","lat":33.0139,"long":-96.4377},{"zip":"75173","city":"Nevada","state":"TX","lat":33.0593,"long":-96.3877},{"zip":"75104","city":"Cedar Hill","state":"TX","lat":32.5885,"long":-96.9438},{"zip":"75106","city":"Cedar Hill","state":"TX","lat":32.5885,"long":-96.9561},{"zip":"75115","city":"Desoto","state":"TX","lat":32.6041,"long":-96.8653},{"zip":"75116","city":"Duncanville","state":"TX","lat":32.6587,"long":-96.9114},{"zip":"75123","city":"Desoto","state":"TX","lat":32.5899,"long":-96.8569},{"zip":"75134","city":"Lancaster","state":"TX","lat":32.6161,"long":-96.783},{"zip":"75137","city":"Duncanville","state":"TX","lat":32.6347,"long":-96.9113},{"zip":"75138","city":"Duncanville","state":"TX","lat":32.7673,"long":-96.7776},{"zip":"75141","city":"Hutchins","state":"TX","lat":32.6396,"long":-96.707},{"zip":"75146","city":"Lancaster","state":"TX","lat":32.5914,"long":-96.7728},{"zip":"75149","city":"Mesquite","state":"TX","lat":32.7678,"long":-96.6082},{"zip":"75150","city":"Mesquite","state":"TX","lat":32.8154,"long":-96.6307},{"zip":"75159","city":"Seagoville","state":"TX","lat":32.6525,"long":-96.558},{"zip":"75172","city":"Wilmer","state":"TX","lat":32.5981,"long":-96.6838},{"zip":"75180","city":"Balch Springs","state":"TX","lat":32.7287,"long":-96.6228},{"zip":"75181","city":"Mesquite","state":"TX","lat":32.7272,"long":-96.5669},{"zip":"75182","city":"Sunnyvale","state":"TX","lat":32.797,"long":-96.5616},{"zip":"75185","city":"Mesquite","state":"TX","lat":32.7403,"long":-96.5618},{"zip":"75187","city":"Mesquite","state":"TX","lat":32.7673,"long":-96.7776},{"zip":"75101","city":"Bardwell","state":"TX","lat":32.2731,"long":-96.703},{"zip":"75119","city":"Ennis","state":"TX","lat":32.3321,"long":-96.6224},{"zip":"75120","city":"Ennis","state":"TX","lat":32.3347,"long":-96.6335},{"zip":"75125","city":"Ferris","state":"TX","lat":32.5223,"long":-96.6643},{"zip":"75152","city":"Palmer","state":"TX","lat":32.4387,"long":-96.6794},{"zip":"75154","city":"Red Oak","state":"TX","lat":32.5185,"long":-96.8071},{"zip":"75155","city":"Rice","state":"TX","lat":32.2258,"long":-96.4606},{"zip":"75165","city":"Waxahachie","state":"TX","lat":32.3808,"long":-96.8374},{"zip":"75167","city":"Waxahachie","state":"TX","lat":32.3773,"long":-96.9162},{"zip":"75168","city":"Waxahachie","state":"TX","lat":32.3749,"long":-96.7166},{"zip":"75124","city":"Eustace","state":"TX","lat":32.2965,"long":-96.0137},{"zip":"75143","city":"Kemp","state":"TX","lat":32.2486,"long":-96.2161},{"zip":"75148","city":"Malakoff","state":"TX","lat":32.1705,"long":-96.006},{"zip":"75163","city":"Trinidad","state":"TX","lat":32.1383,"long":-96.0831},{"zip":"75135","city":"Caddo Mills","state":"TX","lat":33.0683,"long":-96.2391},{"zip":"75114","city":"Crandall","state":"TX","lat":32.6279,"long":-96.4558},{"zip":"75118","city":"Elmo","state":"TX","lat":32.5996,"long":-96.3027},{"zip":"75126","city":"Forney","state":"TX","lat":32.7491,"long":-96.4598},{"zip":"75142","city":"Kaufman","state":"TX","lat":32.546,"long":-96.2852},{"zip":"75147","city":"Mabank","state":"TX","lat":32.3685,"long":-96.0685},{"zip":"75156","city":"Mabank","state":"TX","lat":32.2972,"long":-96.1184},{"zip":"75157","city":"Rosser","state":"TX","lat":32.4626,"long":-96.4533},{"zip":"75158","city":"Scurry","state":"TX","lat":32.4818,"long":-96.3925},{"zip":"75160","city":"Terrell","state":"TX","lat":32.7515,"long":-96.2831},{"zip":"75161","city":"Terrell","state":"TX","lat":32.7332,"long":-96.195},{"zip":"75102","city":"Barry","state":"TX","lat":32.1014,"long":-96.6251},{"zip":"75105","city":"Chatfield","state":"TX","lat":32.2954,"long":-96.3887},{"zip":"75109","city":"Corsicana","state":"TX","lat":31.9937,"long":-96.4199},{"zip":"75110","city":"Corsicana","state":"TX","lat":32.0868,"long":-96.4762},{"zip":"75144","city":"Kerens","state":"TX","lat":32.1275,"long":-96.2298},{"zip":"75151","city":"Corsicana","state":"TX","lat":32.0624,"long":-96.4735},{"zip":"75153","city":"Powell","state":"TX","lat":32.1196,"long":-96.3327},{"zip":"75132","city":"Fate","state":"TX","lat":32.9415,"long":-96.3814},{"zip":"75189","city":"Royse City","state":"TX","lat":32.9628,"long":-96.3648},{"zip":"75103","city":"Canton","state":"TX","lat":32.5143,"long":-95.9047},{"zip":"75117","city":"Edgewood","state":"TX","lat":32.7003,"long":-95.878},{"zip":"75127","city":"Fruitvale","state":"TX","lat":32.677,"long":-95.7899},{"zip":"75140","city":"Grand Saline","state":"TX","lat":32.6635,"long":-95.7064},{"zip":"75169","city":"Wills Point","state":"TX","lat":32.7283,"long":-96.0079}]
