[{"zip":"75451","city":"Leesburg","state":"TX","lat":32.9763,"long":-95.1079},{"zip":"75407","city":"Princeton","state":"TX","lat":33.1555,"long":-96.4981},{"zip":"75409","city":"Anna","state":"TX","lat":33.3445,"long":-96.5639},{"zip":"75424","city":"Blue Ridge","state":"TX","lat":33.3061,"long":-96.3901},{"zip":"75442","city":"Farmersville","state":"TX","lat":33.1659,"long":-96.3686},{"zip":"75454","city":"Melissa","state":"TX","lat":33.2841,"long":-96.574},{"zip":"75485","city":"Westminster","state":"TX","lat":33.3627,"long":-96.4635},{"zip":"75415","city":"Ben Franklin","state":"TX","lat":33.4768,"long":-95.7689},{"zip":"75432","city":"Cooper","state":"TX","lat":33.3812,"long":-95.6623},{"zip":"75441","city":"Enloe","state":"TX","lat":33.4291,"long":-95.6518},{"zip":"75448","city":"Klondike","state":"TX","lat":33.3034,"long":-95.8018},{"zip":"75450","city":"Lake Creek","state":"TX","lat":33.4116,"long":-95.4551},{"zip":"75469","city":"Pecan Gap","state":"TX","lat":33.4196,"long":-95.8262},{"zip":"75413","city":"Bailey","state":"TX","lat":33.43,"long":-96.1662},{"zip":"75418","city":"Bonham","state":"TX","lat":33.5806,"long":-96.1836},{"zip":"75438","city":"Dodd City","state":"TX","lat":33.5647,"long":-96.0619},{"zip":"75439","city":"Ector","state":"TX","lat":33.5819,"long":-96.2735},{"zip":"75443","city":"Gober","state":"TX","lat":33.4697,"long":-96.1111},{"zip":"75446","city":"Honey Grove","state":"TX","lat":33.5985,"long":-95.9109},{"zip":"75447","city":"Ivanhoe","state":"TX","lat":33.7612,"long":-96.1193},{"zip":"75449","city":"Ladonia","state":"TX","lat":33.4245,"long":-95.9455},{"zip":"75452","city":"Leonard","state":"TX","lat":33.3796,"long":-96.2475},{"zip":"75475","city":"Randolph","state":"TX","lat":33.4846,"long":-96.2541},{"zip":"75476","city":"Ravenna","state":"TX","lat":33.7098,"long":-96.1452},{"zip":"75479","city":"Savoy","state":"TX","lat":33.6066,"long":-96.3502},{"zip":"75488","city":"Telephone","state":"TX","lat":33.7979,"long":-96.0449},{"zip":"75490","city":"Trenton","state":"TX","lat":33.4235,"long":-96.3398},{"zip":"75492","city":"Windom","state":"TX","lat":33.5633,"long":-96.002},{"zip":"75457","city":"Mount Vernon","state":"TX","lat":33.1702,"long":-95.2181},{"zip":"75480","city":"Scroggins","state":"TX","lat":33.0478,"long":-95.1962},{"zip":"75487","city":"Talco","state":"TX","lat":33.3344,"long":-95.0497},{"zip":"75414","city":"Bells","state":"TX","lat":33.6178,"long":-96.4237},{"zip":"75459","city":"Howe","state":"TX","lat":33.5311,"long":-96.6777},{"zip":"75489","city":"Tom Bean","state":"TX","lat":33.5193,"long":-96.4843},{"zip":"75491","city":"Whitewright","state":"TX","lat":33.519,"long":-96.451},{"zip":"75495","city":"Van Alstyne","state":"TX","lat":33.4292,"long":-96.5486},{"zip":"75420","city":"Brashear","state":"TX","lat":33.1155,"long":-95.7345},{"zip":"75431","city":"Como","state":"TX","lat":33.0107,"long":-95.4734},{"zip":"75433","city":"Cumby","state":"TX","lat":33.1118,"long":-95.7945},{"zip":"75437","city":"Dike","state":"TX","lat":33.2648,"long":-95.4423},{"zip":"75471","city":"Pickton","state":"TX","lat":33.0519,"long":-95.3851},{"zip":"75478","city":"Saltillo","state":"TX","lat":33.1767,"long":-95.3433},{"zip":"75481","city":"Sulphur Bluff","state":"TX","lat":33.3334,"long":-95.374},{"zip":"75482","city":"Sulphur Springs","state":"TX","lat":33.1345,"long":-95.5922},{"zip":"75483","city":"Sulphur Springs","state":"TX","lat":33.1384,"long":-95.6011},{"zip":"75401","city":"Greenville","state":"TX","lat":33.1854,"long":-96.1304},{"zip":"75402","city":"Greenville","state":"TX","lat":33.1047,"long":-96.0927},{"zip":"75403","city":"Greenville","state":"TX","lat":33.2185,"long":-96.0487},{"zip":"75404","city":"Greenville","state":"TX","lat":33.0563,"long":-96.081},{"zip":"75422","city":"Campbell","state":"TX","lat":33.151,"long":-95.9439},{"zip":"75423","city":"Celeste","state":"TX","lat":33.2649,"long":-96.2076},{"zip":"75428","city":"Commerce","state":"TX","lat":33.2493,"long":-95.9097},{"zip":"75429","city":"Commerce","state":"TX","lat":33.2377,"long":-95.9089},{"zip":"75453","city":"Lone Oak","state":"TX","lat":32.9916,"long":-95.9434},{"zip":"75458","city":"Merit","state":"TX","lat":33.2427,"long":-96.2916},{"zip":"75474","city":"Quinlan","state":"TX","lat":32.8983,"long":-96.1261},{"zip":"75496","city":"Wolfe City","state":"TX","lat":33.3605,"long":-96.0691},{"zip":"75411","city":"Arthur City","state":"TX","lat":33.8643,"long":-95.6111},{"zip":"75416","city":"Blossom","state":"TX","lat":33.6945,"long":-95.3823},{"zip":"75421","city":"Brookston","state":"TX","lat":33.6246,"long":-95.6888},{"zip":"75425","city":"Chicota","state":"TX","lat":33.869,"long":-95.5711},{"zip":"75434","city":"Cunningham","state":"TX","lat":33.409,"long":-95.3711},{"zip":"75435","city":"Deport","state":"TX","lat":33.5221,"long":-95.3654},{"zip":"75460","city":"Paris","state":"TX","lat":33.6581,"long":-95.5379},{"zip":"75461","city":"Paris","state":"TX","lat":33.6609,"long":-95.5555},{"zip":"75462","city":"Paris","state":"TX","lat":33.6805,"long":-95.4905},{"zip":"75468","city":"Pattonville","state":"TX","lat":33.5702,"long":-95.3908},{"zip":"75470","city":"Petty","state":"TX","lat":33.6098,"long":-95.7891},{"zip":"75473","city":"Powderly","state":"TX","lat":33.7779,"long":-95.5307},{"zip":"75477","city":"Roxton","state":"TX","lat":33.5429,"long":-95.7416},{"zip":"75486","city":"Sumner","state":"TX","lat":33.7589,"long":-95.6807},{"zip":"75410","city":"Alba","state":"TX","lat":32.7652,"long":-95.5971},{"zip":"75440","city":"Emory","state":"TX","lat":32.875,"long":-95.7418},{"zip":"75472","city":"Point","state":"TX","lat":32.9007,"long":-95.8903},{"zip":"75412","city":"Bagwell","state":"TX","lat":33.8361,"long":-95.1487},{"zip":"75417","city":"Bogata","state":"TX","lat":33.4699,"long":-95.1937},{"zip":"75426","city":"Clarksville","state":"TX","lat":33.6236,"long":-95.0461},{"zip":"75436","city":"Detroit","state":"TX","lat":33.6627,"long":-95.2385},{"zip":"75455","city":"Mount Pleasant","state":"TX","lat":33.1733,"long":-94.9695},{"zip":"75456","city":"Mount Pleasant","state":"TX","lat":33.1568,"long":-94.9683},{"zip":"75493","city":"Winfield","state":"TX","lat":33.1673,"long":-95.1119},{"zip":"75444","city":"Golden","state":"TX","lat":32.7299,"long":-95.5636},{"zip":"75494","city":"Winnsboro","state":"TX","lat":32.9146,"long":-95.2726},{"zip":"75497","city":"Yantis","state":"TX","lat":32.9257,"long":-95.5311}]
