[{"zip":"75501","city":"Texarkana","state":"TX","lat":33.4113,"long":-94.1774},{"zip":"75503","city":"Texarkana","state":"TX","lat":33.4669,"long":-94.0774},{"zip":"75504","city":"Texarkana","state":"TX","lat":33.4251,"long":-94.0477},{"zip":"75505","city":"Texarkana","state":"TX","lat":33.4624,"long":-94.0715},{"zip":"75507","city":"Texarkana","state":"TX","lat":33.4251,"long":-94.0477},{"zip":"75559","city":"De Kalb","state":"TX","lat":33.5087,"long":-94.6163},{"zip":"75561","city":"Hooks","state":"TX","lat":33.5253,"long":-94.2657},{"zip":"75567","city":"Maud","state":"TX","lat":33.3409,"long":-94.3175},{"zip":"75569","city":"Nash","state":"TX","lat":33.4344,"long":-94.1219},{"zip":"75570","city":"New Boston","state":"TX","lat":33.4619,"long":-94.4375},{"zip":"75573","city":"Redwater","state":"TX","lat":33.358,"long":-94.2571},{"zip":"75574","city":"Simms","state":"TX","lat":33.3359,"long":-94.552},{"zip":"75599","city":"Texarkana","state":"TX","lat":33.4251,"long":-94.0477},{"zip":"75551","city":"Atlanta","state":"TX","lat":33.109,"long":-94.1646},{"zip":"75555","city":"Bivins","state":"TX","lat":32.966,"long":-94.1404},{"zip":"75556","city":"Bloomburg","state":"TX","lat":33.1339,"long":-94.0647},{"zip":"75560","city":"Douglassville","state":"TX","lat":33.1758,"long":-94.3467},{"zip":"75562","city":"Kildare","state":"TX","lat":32.9468,"long":-94.2539},{"zip":"75563","city":"Linden","state":"TX","lat":33.0048,"long":-94.3605},{"zip":"75565","city":"Mc Leod","state":"TX","lat":32.9511,"long":-94.0808},{"zip":"75566","city":"Marietta","state":"TX","lat":33.1735,"long":-94.5424},{"zip":"75572","city":"Queen City","state":"TX","lat":33.1557,"long":-94.1537},{"zip":"75564","city":"Lodi","state":"TX","lat":32.8718,"long":-94.2729},{"zip":"75568","city":"Naples","state":"TX","lat":33.1912,"long":-94.6891},{"zip":"75571","city":"Omaha","state":"TX","lat":33.1808,"long":-94.7639},{"zip":"75550","city":"Annona","state":"TX","lat":33.5535,"long":-94.8992},{"zip":"75554","city":"Avery","state":"TX","lat":33.5339,"long":-94.7867},{"zip":"75558","city":"Cookville","state":"TX","lat":33.2432,"long":-94.8747}]
