[{"zip":"75686","city":"Pittsburg","state":"TX","lat":32.9623,"long":-94.9603},{"zip":"75630","city":"Avinger","state":"TX","lat":32.8485,"long":-94.5795},{"zip":"75656","city":"Hughes Springs","state":"TX","lat":33.0168,"long":-94.6228},{"zip":"75601","city":"Longview","state":"TX","lat":32.5178,"long":-94.7303},{"zip":"75602","city":"Longview","state":"TX","lat":32.4724,"long":-94.7101},{"zip":"75603","city":"Longview","state":"TX","lat":32.4264,"long":-94.7117},{"zip":"75604","city":"Longview","state":"TX","lat":32.5251,"long":-94.799},{"zip":"75605","city":"Longview","state":"TX","lat":32.5547,"long":-94.7767},{"zip":"75606","city":"Longview","state":"TX","lat":32.5007,"long":-94.7405},{"zip":"75607","city":"Longview","state":"TX","lat":32.5112,"long":-94.7835},{"zip":"75608","city":"Longview","state":"TX","lat":32.5701,"long":-94.8481},{"zip":"75615","city":"Longview","state":"TX","lat":32.5112,"long":-94.7835},{"zip":"75641","city":"Easton","state":"TX","lat":32.3874,"long":-94.583},{"zip":"75647","city":"Gladewater","state":"TX","lat":32.5559,"long":-94.932},{"zip":"75660","city":"Judson","state":"TX","lat":32.5826,"long":-94.7535},{"zip":"75662","city":"Kilgore","state":"TX","lat":32.3836,"long":-94.8653},{"zip":"75663","city":"Kilgore","state":"TX","lat":32.387,"long":-94.8951},{"zip":"75693","city":"White Oak","state":"TX","lat":32.5383,"long":-94.8622},{"zip":"75642","city":"Elysian Fields","state":"TX","lat":32.3685,"long":-94.183},{"zip":"75650","city":"Hallsville","state":"TX","lat":32.5073,"long":-94.5333},{"zip":"75651","city":"Harleton","state":"TX","lat":32.6579,"long":-94.4652},{"zip":"75659","city":"Jonesville","state":"TX","lat":32.5075,"long":-94.1106},{"zip":"75661","city":"Karnack","state":"TX","lat":32.6205,"long":-94.2001},{"zip":"75670","city":"Marshall","state":"TX","lat":32.5338,"long":-94.3619},{"zip":"75671","city":"Marshall","state":"TX","lat":32.5449,"long":-94.3674},{"zip":"75672","city":"Marshall","state":"TX","lat":32.5165,"long":-94.3251},{"zip":"75688","city":"Scottsville","state":"TX","lat":32.554,"long":-94.2394},{"zip":"75692","city":"Waskom","state":"TX","lat":32.5184,"long":-94.1355},{"zip":"75694","city":"Woodlawn","state":"TX","lat":32.6537,"long":-94.3427},{"zip":"75657","city":"Jefferson","state":"TX","lat":32.8059,"long":-94.3655},{"zip":"75636","city":"Cason","state":"TX","lat":33.024,"long":-94.8249},{"zip":"75638","city":"Daingerfield","state":"TX","lat":33.0313,"long":-94.7359},{"zip":"75668","city":"Lone Star","state":"TX","lat":32.9252,"long":-94.7049},{"zip":"75631","city":"Beckville","state":"TX","lat":32.2452,"long":-94.4555},{"zip":"75633","city":"Carthage","state":"TX","lat":32.1544,"long":-94.3527},{"zip":"75637","city":"Clayton","state":"TX","lat":32.1027,"long":-94.4935},{"zip":"75639","city":"De Berry","state":"TX","lat":32.2543,"long":-94.1356},{"zip":"75643","city":"Gary","state":"TX","lat":32.0334,"long":-94.38},{"zip":"75669","city":"Long Branch","state":"TX","lat":32.0449,"long":-94.5381},{"zip":"75685","city":"Panola","state":"TX","lat":32.3579,"long":-94.0913},{"zip":"75652","city":"Henderson","state":"TX","lat":32.2131,"long":-94.7834},{"zip":"75653","city":"Henderson","state":"TX","lat":32.1532,"long":-94.7994},{"zip":"75654","city":"Henderson","state":"TX","lat":32.126,"long":-94.7488},{"zip":"75658","city":"Joinerville","state":"TX","lat":32.1959,"long":-94.9065},{"zip":"75666","city":"Laird Hill","state":"TX","lat":32.3532,"long":-94.9055},{"zip":"75667","city":"Laneville","state":"TX","lat":31.9508,"long":-94.866},{"zip":"75680","city":"Minden","state":"TX","lat":32.0028,"long":-94.7129},{"zip":"75681","city":"Mount Enterprise","state":"TX","lat":31.9125,"long":-94.6235},{"zip":"75682","city":"New London","state":"TX","lat":32.2542,"long":-94.9322},{"zip":"75684","city":"Overton","state":"TX","lat":32.269,"long":-94.9529},{"zip":"75687","city":"Price","state":"TX","lat":32.1518,"long":-94.9554},{"zip":"75689","city":"Selman City","state":"TX","lat":32.1826,"long":-94.9355},{"zip":"75691","city":"Tatum","state":"TX","lat":32.3266,"long":-94.596},{"zip":"75640","city":"Diana","state":"TX","lat":32.7698,"long":-94.7032},{"zip":"75644","city":"Gilmer","state":"TX","lat":32.7246,"long":-94.9714},{"zip":"75645","city":"Gilmer","state":"TX","lat":32.6044,"long":-94.8491},{"zip":"75683","city":"Ore City","state":"TX","lat":32.7856,"long":-94.7514}]
