[{"zip":"75763","city":"Frankston","state":"TX","lat":32.0535,"long":-95.5163},{"zip":"75779","city":"Neches","state":"TX","lat":31.8668,"long":-95.4958},{"zip":"75759","city":"Cuney","state":"TX","lat":32.0415,"long":-95.42},{"zip":"75764","city":"Gallatin","state":"TX","lat":31.891,"long":-95.1455},{"zip":"75766","city":"Jacksonville","state":"TX","lat":31.9618,"long":-95.2703},{"zip":"75772","city":"Maydelle","state":"TX","lat":31.8008,"long":-95.3001},{"zip":"75780","city":"New Summerfield","state":"TX","lat":31.782,"long":-95.164},{"zip":"75784","city":"Reklaw","state":"TX","lat":31.8859,"long":-95.0118},{"zip":"75785","city":"Rusk","state":"TX","lat":31.8136,"long":-95.0965},{"zip":"75751","city":"Athens","state":"TX","lat":32.1935,"long":-95.8432},{"zip":"75752","city":"Athens","state":"TX","lat":32.2151,"long":-95.79},{"zip":"75756","city":"Brownsboro","state":"TX","lat":32.304,"long":-95.6},{"zip":"75758","city":"Chandler","state":"TX","lat":32.2572,"long":-95.5393},{"zip":"75770","city":"Larue","state":"TX","lat":32.1608,"long":-95.5927},{"zip":"75778","city":"Murchison","state":"TX","lat":32.3257,"long":-95.7737},{"zip":"75782","city":"Poynor","state":"TX","lat":32.0797,"long":-95.5938},{"zip":"75760","city":"Cushing","state":"TX","lat":31.7978,"long":-94.8539},{"zip":"75788","city":"Sacul","state":"TX","lat":31.8254,"long":-94.9189},{"zip":"75701","city":"Tyler","state":"TX","lat":32.3254,"long":-95.2922},{"zip":"75702","city":"Tyler","state":"TX","lat":32.362,"long":-95.3117},{"zip":"75703","city":"Tyler","state":"TX","lat":32.2768,"long":-95.3031},{"zip":"75704","city":"Tyler","state":"TX","lat":32.3738,"long":-95.407},{"zip":"75705","city":"Tyler","state":"TX","lat":32.3766,"long":-95.1252},{"zip":"75706","city":"Tyler","state":"TX","lat":32.4441,"long":-95.331},{"zip":"75707","city":"Tyler","state":"TX","lat":32.3038,"long":-95.1927},{"zip":"75708","city":"Tyler","state":"TX","lat":32.419,"long":-95.2106},{"zip":"75709","city":"Tyler","state":"TX","lat":32.3078,"long":-95.3956},{"zip":"75710","city":"Tyler","state":"TX","lat":32.3475,"long":-95.3065},{"zip":"75711","city":"Tyler","state":"TX","lat":32.3513,"long":-95.3011},{"zip":"75712","city":"Tyler","state":"TX","lat":32.4112,"long":-95.2899},{"zip":"75713","city":"Tyler","state":"TX","lat":32.4112,"long":-95.2899},{"zip":"75750","city":"Arp","state":"TX","lat":32.2418,"long":-95.0639},{"zip":"75757","city":"Bullard","state":"TX","lat":32.1095,"long":-95.3342},{"zip":"75762","city":"Flint","state":"TX","lat":32.2079,"long":-95.3948},{"zip":"75771","city":"Lindale","state":"TX","lat":32.5062,"long":-95.4006},{"zip":"75789","city":"Troup","state":"TX","lat":32.1117,"long":-95.1155},{"zip":"75791","city":"Whitehouse","state":"TX","lat":32.222,"long":-95.2266},{"zip":"75792","city":"Winona","state":"TX","lat":32.4662,"long":-95.1246},{"zip":"75798","city":"Tyler","state":"TX","lat":32.4112,"long":-95.2899},{"zip":"75799","city":"Tyler","state":"TX","lat":32.4112,"long":-95.2899},{"zip":"75755","city":"Big Sandy","state":"TX","lat":32.6168,"long":-95.088},{"zip":"75797","city":"Big Sandy","state":"TX","lat":32.5765,"long":-95.1313},{"zip":"75754","city":"Ben Wheeler","state":"TX","lat":32.4126,"long":-95.6371},{"zip":"75790","city":"Van","state":"TX","lat":32.5283,"long":-95.6545},{"zip":"75765","city":"Hawkins","state":"TX","lat":32.6439,"long":-95.222},{"zip":"75773","city":"Mineola","state":"TX","lat":32.6661,"long":-95.487},{"zip":"75783","city":"Quitman","state":"TX","lat":32.8049,"long":-95.4302}]
