[{"zip":"75801","city":"Palestine","state":"TX","lat":31.7588,"long":-95.6342},{"zip":"75802","city":"Palestine","state":"TX","lat":31.7621,"long":-95.6308},{"zip":"75803","city":"Palestine","state":"TX","lat":31.7571,"long":-95.6545},{"zip":"75832","city":"Cayuga","state":"TX","lat":31.9571,"long":-95.9747},{"zip":"75839","city":"Elkhart","state":"TX","lat":31.648,"long":-95.5551},{"zip":"75853","city":"Montalba","state":"TX","lat":31.8766,"long":-95.7327},{"zip":"75861","city":"Tennessee Colony","state":"TX","lat":31.7929,"long":-95.8998},{"zip":"75880","city":"Tennessee Colony","state":"TX","lat":31.8354,"long":-95.8389},{"zip":"75882","city":"Palestine","state":"TX","lat":31.7942,"long":-95.662},{"zip":"75884","city":"Tennessee Colony","state":"TX","lat":31.8354,"long":-95.8389},{"zip":"75886","city":"Tennessee Colony","state":"TX","lat":31.8354,"long":-95.8389},{"zip":"75838","city":"Donie","state":"TX","lat":31.4873,"long":-96.2387},{"zip":"75840","city":"Fairfield","state":"TX","lat":31.7361,"long":-96.1572},{"zip":"75848","city":"Kirvin","state":"TX","lat":31.8231,"long":-96.3218},{"zip":"75859","city":"Streetman","state":"TX","lat":31.8885,"long":-96.2988},{"zip":"75860","city":"Teague","state":"TX","lat":31.6328,"long":-96.2778},{"zip":"75835","city":"Crockett","state":"TX","lat":31.3208,"long":-95.3928},{"zip":"75844","city":"Grapeland","state":"TX","lat":31.4972,"long":-95.4447},{"zip":"75847","city":"Kennard","state":"TX","lat":31.3384,"long":-95.1541},{"zip":"75849","city":"Latexo","state":"TX","lat":31.3952,"long":-95.4741},{"zip":"75851","city":"Lovelady","state":"TX","lat":31.0564,"long":-95.5501},{"zip":"75858","city":"Ratcliff","state":"TX","lat":31.3916,"long":-95.1397},{"zip":"75831","city":"Buffalo","state":"TX","lat":31.4121,"long":-95.9904},{"zip":"75833","city":"Centerville","state":"TX","lat":31.272,"long":-95.9213},{"zip":"75846","city":"Jewett","state":"TX","lat":31.3739,"long":-96.1918},{"zip":"75850","city":"Leona","state":"TX","lat":31.1421,"long":-95.9284},{"zip":"75855","city":"Oakwood","state":"TX","lat":31.5849,"long":-95.8491},{"zip":"75852","city":"Midway","state":"TX","lat":30.9806,"long":-95.7089},{"zip":"75834","city":"Centralia","state":"TX","lat":31.258,"long":-95.0399},{"zip":"75845","city":"Groveton","state":"TX","lat":31.0651,"long":-95.0969},{"zip":"75856","city":"Pennington","state":"TX","lat":31.1953,"long":-95.2469},{"zip":"75862","city":"Trinity","state":"TX","lat":30.942,"long":-95.3403},{"zip":"75865","city":"Woodlake","state":"TX","lat":31.0288,"long":-95.033}]
