[{"zip":"75901","city":"Lufkin","state":"TX","lat":31.27,"long":-94.6469},{"zip":"75902","city":"Lufkin","state":"TX","lat":31.3623,"long":-94.7611},{"zip":"75903","city":"Lufkin","state":"TX","lat":31.2766,"long":-94.5676},{"zip":"75904","city":"Lufkin","state":"TX","lat":31.3489,"long":-94.8327},{"zip":"75915","city":"Lufkin","state":"TX","lat":31.3382,"long":-94.7291},{"zip":"75941","city":"Diboll","state":"TX","lat":31.195,"long":-94.7729},{"zip":"75949","city":"Huntington","state":"TX","lat":31.2837,"long":-94.5662},{"zip":"75969","city":"Pollok","state":"TX","lat":31.4291,"long":-94.8254},{"zip":"75980","city":"Zavalla","state":"TX","lat":31.1569,"long":-94.3871},{"zip":"75925","city":"Alto","state":"TX","lat":31.6103,"long":-95.0762},{"zip":"75976","city":"Wells","state":"TX","lat":31.4885,"long":-94.9399},{"zip":"75951","city":"Jasper","state":"TX","lat":30.8673,"long":-93.9977},{"zip":"75956","city":"Kirbyville","state":"TX","lat":30.6583,"long":-93.8984},{"zip":"75937","city":"Chireno","state":"TX","lat":31.5119,"long":-94.4302},{"zip":"75943","city":"Douglass","state":"TX","lat":31.6578,"long":-94.8696},{"zip":"75944","city":"Etoile","state":"TX","lat":31.3601,"long":-94.4064},{"zip":"75946","city":"Garrison","state":"TX","lat":31.8111,"long":-94.5266},{"zip":"75958","city":"Martinsville","state":"TX","lat":31.6427,"long":-94.4141},{"zip":"75961","city":"Nacogdoches","state":"TX","lat":31.5611,"long":-94.5},{"zip":"75962","city":"Nacogdoches","state":"TX","lat":31.6995,"long":-94.6074},{"zip":"75963","city":"Nacogdoches","state":"TX","lat":31.6046,"long":-94.6641},{"zip":"75964","city":"Nacogdoches","state":"TX","lat":31.6737,"long":-94.6932},{"zip":"75965","city":"Nacogdoches","state":"TX","lat":31.7195,"long":-94.6168},{"zip":"75978","city":"Woden","state":"TX","lat":31.5037,"long":-94.525},{"zip":"75928","city":"Bon Wier","state":"TX","lat":30.6876,"long":-93.7665},{"zip":"75932","city":"Burkeville","state":"TX","lat":31.0099,"long":-93.6585},{"zip":"75933","city":"Call","state":"TX","lat":30.5741,"long":-93.8334},{"zip":"75966","city":"Newton","state":"TX","lat":30.8351,"long":-93.7497},{"zip":"75977","city":"Wiergate","state":"TX","lat":31.0414,"long":-93.8039},{"zip":"75934","city":"Camden","state":"TX","lat":30.9,"long":-94.7547},{"zip":"75939","city":"Corrigan","state":"TX","lat":31.0408,"long":-94.8124},{"zip":"75960","city":"Moscow","state":"TX","lat":30.9179,"long":-94.8544},{"zip":"75930","city":"Bronson","state":"TX","lat":31.3391,"long":-93.9993},{"zip":"75931","city":"Brookeland","state":"TX","lat":31.0922,"long":-93.9684},{"zip":"75948","city":"Hemphill","state":"TX","lat":31.3161,"long":-93.7905},{"zip":"75959","city":"Milam","state":"TX","lat":31.5033,"long":-93.8778},{"zip":"75968","city":"Pineland","state":"TX","lat":31.2418,"long":-93.9754},{"zip":"75929","city":"Broaddus","state":"TX","lat":31.2952,"long":-94.2156},{"zip":"75972","city":"San Augustine","state":"TX","lat":31.5152,"long":-94.1326},{"zip":"75935","city":"Center","state":"TX","lat":31.7865,"long":-94.1869},{"zip":"75954","city":"Joaquin","state":"TX","lat":31.944,"long":-94.0608},{"zip":"75973","city":"Shelbyville","state":"TX","lat":31.7131,"long":-93.9698},{"zip":"75974","city":"Tenaha","state":"TX","lat":31.9408,"long":-94.2488},{"zip":"75975","city":"Timpson","state":"TX","lat":31.8841,"long":-94.3967},{"zip":"75926","city":"Apple Springs","state":"TX","lat":31.2269,"long":-94.9812},{"zip":"75936","city":"Chester","state":"TX","lat":30.9447,"long":-94.5554},{"zip":"75938","city":"Colmesneil","state":"TX","lat":30.9007,"long":-94.3916},{"zip":"75942","city":"Doucette","state":"TX","lat":30.8183,"long":-94.4288},{"zip":"75979","city":"Woodville","state":"TX","lat":30.7752,"long":-94.4155},{"zip":"75990","city":"Woodville","state":"TX","lat":30.7752,"long":-94.4155}]
