[{"zip":"76351","city":"Archer City","state":"TX","lat":33.5562,"long":-98.6249},{"zip":"76366","city":"Holliday","state":"TX","lat":33.8162,"long":-98.6951},{"zip":"76370","city":"Megargel","state":"TX","lat":33.4533,"long":-98.9297},{"zip":"76379","city":"Scotland","state":"TX","lat":33.6535,"long":-98.465},{"zip":"76389","city":"Windthorst","state":"TX","lat":33.5796,"long":-98.4376},{"zip":"76380","city":"Seymour","state":"TX","lat":33.5914,"long":-99.2587},{"zip":"76501","city":"Temple","state":"TX","lat":31.0895,"long":-97.3343},{"zip":"76502","city":"Temple","state":"TX","lat":31.071,"long":-97.3898},{"zip":"76503","city":"Temple","state":"TX","lat":31.054,"long":-97.3203},{"zip":"76504","city":"Temple","state":"TX","lat":31.0917,"long":-97.3648},{"zip":"76508","city":"Temple","state":"TX","lat":31.0363,"long":-97.492},{"zip":"76511","city":"Bartlett","state":"TX","lat":30.7991,"long":-97.4263},{"zip":"76513","city":"Belton","state":"TX","lat":31.0723,"long":-97.472},{"zip":"76533","city":"Heidenheimer","state":"TX","lat":31.0496,"long":-97.4936},{"zip":"76534","city":"Holland","state":"TX","lat":30.88,"long":-97.3857},{"zip":"76540","city":"Killeen","state":"TX","lat":31.1171,"long":-97.7278},{"zip":"76541","city":"Killeen","state":"TX","lat":31.1164,"long":-97.7278},{"zip":"76542","city":"Killeen","state":"TX","lat":31.0376,"long":-97.6809},{"zip":"76543","city":"Killeen","state":"TX","lat":31.1172,"long":-97.6651},{"zip":"76544","city":"Fort Hood","state":"TX","lat":31.1349,"long":-97.7756},{"zip":"76547","city":"Killeen","state":"TX","lat":31.1171,"long":-97.7278},{"zip":"76548","city":"Harker Heights","state":"TX","lat":31.0286,"long":-97.6115},{"zip":"76549","city":"Killeen","state":"TX","lat":31.0065,"long":-97.841},{"zip":"76554","city":"Little River Academy","state":"TX","lat":30.9863,"long":-97.3586},{"zip":"76559","city":"Nolanville","state":"TX","lat":31.0833,"long":-97.5941},{"zip":"76564","city":"Pendleton","state":"TX","lat":31.1952,"long":-97.3486},{"zip":"76569","city":"Rogers","state":"TX","lat":30.955,"long":-97.2228},{"zip":"76571","city":"Salado","state":"TX","lat":30.9494,"long":-97.533},{"zip":"76579","city":"Troy","state":"TX","lat":31.1759,"long":-97.2852},{"zip":"76634","city":"Clifton","state":"TX","lat":31.7918,"long":-97.5203},{"zip":"76637","city":"Cranfills Gap","state":"TX","lat":31.7486,"long":-97.8113},{"zip":"76644","city":"Laguna Park","state":"TX","lat":31.8593,"long":-97.3797},{"zip":"76649","city":"Iredell","state":"TX","lat":31.9722,"long":-97.8793},{"zip":"76652","city":"Kopperl","state":"TX","lat":32.1035,"long":-97.5421},{"zip":"76665","city":"Meridian","state":"TX","lat":31.929,"long":-97.6443},{"zip":"76671","city":"Morgan","state":"TX","lat":32.0195,"long":-97.5608},{"zip":"76689","city":"Valley Mills","state":"TX","lat":31.6599,"long":-97.4935},{"zip":"76690","city":"Walnut Springs","state":"TX","lat":32.0593,"long":-97.7514},{"zip":"76432","city":"Blanket","state":"TX","lat":31.7882,"long":-98.8311},{"zip":"76801","city":"Brownwood","state":"TX","lat":31.7754,"long":-98.9915},{"zip":"76802","city":"Early","state":"TX","lat":31.7874,"long":-98.9229},{"zip":"76803","city":"Early","state":"TX","lat":31.7421,"long":-98.9456},{"zip":"76804","city":"Brownwood","state":"TX","lat":31.7742,"long":-99.0921},{"zip":"76823","city":"Bangs","state":"TX","lat":31.7503,"long":-99.1568},{"zip":"76827","city":"Brookesmith","state":"TX","lat":31.5176,"long":-99.1277},{"zip":"76857","city":"May","state":"TX","lat":31.9571,"long":-98.9656},{"zip":"76890","city":"Zephyr","state":"TX","lat":31.6694,"long":-98.8182},{"zip":"76443","city":"Cross Plains","state":"TX","lat":32.1482,"long":-99.1872},{"zip":"76469","city":"Putnam","state":"TX","lat":32.374,"long":-99.1957},{"zip":"76228","city":"Bellevue","state":"TX","lat":33.5879,"long":-98.1574},{"zip":"76352","city":"Bluegrove","state":"TX","lat":33.674,"long":-98.23},{"zip":"76357","city":"Byers","state":"TX","lat":34.0728,"long":-98.1839},{"zip":"76365","city":"Henrietta","state":"TX","lat":33.8196,"long":-98.26},{"zip":"76377","city":"Petrolia","state":"TX","lat":34.0132,"long":-98.2323},{"zip":"76933","city":"Bronte","state":"TX","lat":31.8789,"long":-100.2988},{"zip":"76945","city":"Robert Lee","state":"TX","lat":31.8951,"long":-100.5104},{"zip":"76949","city":"Silver","state":"TX","lat":32.0484,"long":-100.6922},{"zip":"76953","city":"Tennyson","state":"TX","lat":31.7397,"long":-100.2884},{"zip":"76828","city":"Burkett","state":"TX","lat":31.9986,"long":-99.2553},{"zip":"76834","city":"Coleman","state":"TX","lat":31.8287,"long":-99.427},{"zip":"76845","city":"Gouldbusk","state":"TX","lat":31.5549,"long":-99.4767},{"zip":"76873","city":"Rockwood","state":"TX","lat":31.5037,"long":-99.3746},{"zip":"76878","city":"Santa Anna","state":"TX","lat":31.7215,"long":-99.3212},{"zip":"76882","city":"Talpa","state":"TX","lat":31.8034,"long":-99.6747},{"zip":"76884","city":"Valera","state":"TX","lat":31.7529,"long":-99.5473},{"zip":"76888","city":"Voss","state":"TX","lat":31.5892,"long":-99.6326},{"zip":"76442","city":"Comanche","state":"TX","lat":31.9116,"long":-98.6082},{"zip":"76444","city":"De Leon","state":"TX","lat":32.1087,"long":-98.5489},{"zip":"76452","city":"Energy","state":"TX","lat":31.7633,"long":-98.3999},{"zip":"76455","city":"Gustine","state":"TX","lat":31.8468,"long":-98.4017},{"zip":"76468","city":"Proctor","state":"TX","lat":31.9874,"long":-98.4298},{"zip":"76474","city":"Sidney","state":"TX","lat":31.932,"long":-98.768},{"zip":"76837","city":"Eden","state":"TX","lat":31.2192,"long":-99.8407},{"zip":"76855","city":"Lowake","state":"TX","lat":31.5663,"long":-100.0759},{"zip":"76862","city":"Millersview","state":"TX","lat":31.4167,"long":-99.7171},{"zip":"76866","city":"Paint Rock","state":"TX","lat":31.5048,"long":-99.9139},{"zip":"76937","city":"Eola","state":"TX","lat":31.3617,"long":-100.0922},{"zip":"76238","city":"Era","state":"TX","lat":33.4965,"long":-97.3859},{"zip":"76240","city":"Gainesville","state":"TX","lat":33.6547,"long":-97.1583},{"zip":"76241","city":"Gainesville","state":"TX","lat":33.6104,"long":-97.0369},{"zip":"76250","city":"Lindsay","state":"TX","lat":33.636,"long":-97.2214},{"zip":"76252","city":"Muenster","state":"TX","lat":33.6595,"long":-97.3624},{"zip":"76253","city":"Myra","state":"TX","lat":33.6178,"long":-97.309},{"zip":"76263","city":"Rosston","state":"TX","lat":33.4674,"long":-97.4534},{"zip":"76272","city":"Valley View","state":"TX","lat":33.5022,"long":-97.2311},{"zip":"76522","city":"Copperas Cove","state":"TX","lat":31.2029,"long":-97.9301},{"zip":"76525","city":"Evant","state":"TX","lat":31.4388,"long":-98.0535},{"zip":"76526","city":"Flat","state":"TX","lat":31.2956,"long":-97.5822},{"zip":"76528","city":"Gatesville","state":"TX","lat":31.4177,"long":-97.833},{"zip":"76538","city":"Jonesboro","state":"TX","lat":31.5599,"long":-97.8456},{"zip":"76558","city":"Mound","state":"TX","lat":31.3514,"long":-97.6444},{"zip":"76561","city":"Oglesby","state":"TX","lat":31.4438,"long":-97.5501},{"zip":"76566","city":"Purmela","state":"TX","lat":31.4841,"long":-97.9903},{"zip":"76596","city":"Gatesville","state":"TX","lat":31.3902,"long":-97.7993},{"zip":"76597","city":"Gatesville","state":"TX","lat":31.3902,"long":-97.7993},{"zip":"76598","city":"Gatesville","state":"TX","lat":31.3902,"long":-97.7993},{"zip":"76599","city":"Gatesville","state":"TX","lat":31.4706,"long":-97.7347},{"zip":"76943","city":"Ozona","state":"TX","lat":30.7164,"long":-101.2388},{"zip":"76201","city":"Denton","state":"TX","lat":33.2289,"long":-97.1314},{"zip":"76202","city":"Denton","state":"TX","lat":33.2255,"long":-97.1085},{"zip":"76203","city":"Denton","state":"TX","lat":33.2148,"long":-97.1331},{"zip":"76204","city":"Denton","state":"TX","lat":33.2074,"long":-97.1163},{"zip":"76205","city":"Denton","state":"TX","lat":33.1903,"long":-97.1282},{"zip":"76206","city":"Denton","state":"TX","lat":33.1694,"long":-97.1506},{"zip":"76207","city":"Denton","state":"TX","lat":33.2285,"long":-97.1813},{"zip":"76208","city":"Denton","state":"TX","lat":33.2117,"long":-97.0612},{"zip":"76209","city":"Denton","state":"TX","lat":33.2346,"long":-97.1131},{"zip":"76210","city":"Denton","state":"TX","lat":33.1428,"long":-97.0727},{"zip":"76226","city":"Argyle","state":"TX","lat":33.1062,"long":-97.16},{"zip":"76227","city":"Aubrey","state":"TX","lat":33.292,"long":-96.9879},{"zip":"76247","city":"Justin","state":"TX","lat":33.0734,"long":-97.3093},{"zip":"76249","city":"Krum","state":"TX","lat":33.2734,"long":-97.2675},{"zip":"76258","city":"Pilot Point","state":"TX","lat":33.371,"long":-96.9446},{"zip":"76259","city":"Ponder","state":"TX","lat":33.1774,"long":-97.2848},{"zip":"76262","city":"Roanoke","state":"TX","lat":33.0211,"long":-97.2127},{"zip":"76266","city":"Sanger","state":"TX","lat":33.3563,"long":-97.1814},{"zip":"76435","city":"Carbon","state":"TX","lat":32.2701,"long":-98.8348},{"zip":"76437","city":"Cisco","state":"TX","lat":32.38,"long":-98.9865},{"zip":"76445","city":"Desdemona","state":"TX","lat":32.2819,"long":-98.5673},{"zip":"76448","city":"Eastland","state":"TX","lat":32.3994,"long":-98.8071},{"zip":"76454","city":"Gorman","state":"TX","lat":32.2234,"long":-98.6834},{"zip":"76466","city":"Olden","state":"TX","lat":32.4421,"long":-98.7342},{"zip":"76470","city":"Ranger","state":"TX","lat":32.4681,"long":-98.6747},{"zip":"76471","city":"Rising Star","state":"TX","lat":32.128,"long":-98.9859},{"zip":"76883","city":"Telegraph","state":"TX","lat":30.3274,"long":-99.9062},{"zip":"76041","city":"Forreston","state":"TX","lat":32.2486,"long":-96.8232},{"zip":"76064","city":"Maypearl","state":"TX","lat":32.2993,"long":-97.0271},{"zip":"76065","city":"Midlothian","state":"TX","lat":32.4757,"long":-96.9936},{"zip":"76623","city":"Avalon","state":"TX","lat":32.2054,"long":-96.79},{"zip":"76651","city":"Italy","state":"TX","lat":32.1785,"long":-96.8823},{"zip":"76670","city":"Milford","state":"TX","lat":32.1482,"long":-96.9612},{"zip":"76401","city":"Stephenville","state":"TX","lat":32.2214,"long":-98.2224},{"zip":"76402","city":"Stephenville","state":"TX","lat":32.2153,"long":-98.208},{"zip":"76433","city":"Bluff Dale","state":"TX","lat":32.2884,"long":-98.0539},{"zip":"76446","city":"Dublin","state":"TX","lat":32.0909,"long":-98.3455},{"zip":"76461","city":"Lingleville","state":"TX","lat":32.2446,"long":-98.3775},{"zip":"76465","city":"Morgan Mill","state":"TX","lat":32.3882,"long":-98.1673},{"zip":"76570","city":"Rosebud","state":"TX","lat":31.0922,"long":-96.9755},{"zip":"76632","city":"Chilton","state":"TX","lat":31.31,"long":-97.09},{"zip":"76656","city":"Lott","state":"TX","lat":31.1925,"long":-97.0581},{"zip":"76661","city":"Marlin","state":"TX","lat":31.3036,"long":-96.8889},{"zip":"76680","city":"Reagan","state":"TX","lat":31.1871,"long":-96.7998},{"zip":"76685","city":"Satin","state":"TX","lat":31.3601,"long":-97.0108},{"zip":"76693","city":"Wortham","state":"TX","lat":31.7865,"long":-96.4202},{"zip":"76233","city":"Collinsville","state":"TX","lat":33.558,"long":-96.9014},{"zip":"76245","city":"Gordonville","state":"TX","lat":33.8343,"long":-96.8403},{"zip":"76264","city":"Sadler","state":"TX","lat":33.731,"long":-96.84},{"zip":"76268","city":"Southmayd","state":"TX","lat":33.6304,"long":-96.7692},{"zip":"76271","city":"Tioga","state":"TX","lat":33.4675,"long":-96.9097},{"zip":"76273","city":"Whitesboro","state":"TX","lat":33.659,"long":-96.879},{"zip":"76436","city":"Carlton","state":"TX","lat":31.8949,"long":-98.1842},{"zip":"76457","city":"Hico","state":"TX","lat":31.9597,"long":-98.0249},{"zip":"76531","city":"Hamilton","state":"TX","lat":31.6781,"long":-98.1131},{"zip":"76565","city":"Pottsville","state":"TX","lat":31.6837,"long":-98.3561},{"zip":"76388","city":"Weinert","state":"TX","lat":33.3249,"long":-99.6664},{"zip":"76055","city":"Itasca","state":"TX","lat":32.1636,"long":-97.146},{"zip":"76621","city":"Abbott","state":"TX","lat":31.8916,"long":-97.0671},{"zip":"76622","city":"Aquilla","state":"TX","lat":31.8589,"long":-97.2258},{"zip":"76627","city":"Blum","state":"TX","lat":32.1052,"long":-97.3652},{"zip":"76628","city":"Brandon","state":"TX","lat":32.0544,"long":-96.9756},{"zip":"76631","city":"Bynum","state":"TX","lat":31.9907,"long":-96.9837},{"zip":"76636","city":"Covington","state":"TX","lat":32.1595,"long":-97.2591},{"zip":"76645","city":"Hillsboro","state":"TX","lat":32.0149,"long":-97.1198},{"zip":"76648","city":"Hubbard","state":"TX","lat":31.8436,"long":-96.8},{"zip":"76650","city":"Irene","state":"TX","lat":31.9921,"long":-96.8714},{"zip":"76660","city":"Malone","state":"TX","lat":31.924,"long":-96.8907},{"zip":"76666","city":"Mertens","state":"TX","lat":32.0275,"long":-96.8981},{"zip":"76673","city":"Mount Calm","state":"TX","lat":31.7575,"long":-96.8944},{"zip":"76676","city":"Penelope","state":"TX","lat":31.8551,"long":-96.9372},{"zip":"76692","city":"Whitney","state":"TX","lat":31.9713,"long":-97.3463},{"zip":"76035","city":"Cresson","state":"TX","lat":32.5343,"long":-97.6158},{"zip":"76048","city":"Granbury","state":"TX","lat":32.425,"long":-97.7742},{"zip":"76049","city":"Granbury","state":"TX","lat":32.4488,"long":-97.7285},{"zip":"76462","city":"Lipan","state":"TX","lat":32.5072,"long":-97.9536},{"zip":"76467","city":"Paluxy","state":"TX","lat":32.2707,"long":-97.9075},{"zip":"76476","city":"Tolar","state":"TX","lat":32.3772,"long":-97.8802},{"zip":"76930","city":"Barnhart","state":"TX","lat":31.1596,"long":-101.1918},{"zip":"76941","city":"Mertzon","state":"TX","lat":31.2829,"long":-100.8221},{"zip":"76427","city":"Bryson","state":"TX","lat":33.1615,"long":-98.3874},{"zip":"76458","city":"Jacksboro","state":"TX","lat":33.2347,"long":-98.1681},{"zip":"76459","city":"Jermyn","state":"TX","lat":33.2636,"long":-98.3931},{"zip":"76486","city":"Perrin","state":"TX","lat":33.034,"long":-98.0692},{"zip":"76009","city":"Alvarado","state":"TX","lat":32.4395,"long":-97.213},{"zip":"76028","city":"Burleson","state":"TX","lat":32.5316,"long":-97.309},{"zip":"76031","city":"Cleburne","state":"TX","lat":32.3485,"long":-97.3311},{"zip":"76033","city":"Cleburne","state":"TX","lat":32.3509,"long":-97.4103},{"zip":"76044","city":"Godley","state":"TX","lat":32.4282,"long":-97.5349},{"zip":"76050","city":"Grandview","state":"TX","lat":32.2704,"long":-97.1792},{"zip":"76058","city":"Joshua","state":"TX","lat":32.4663,"long":-97.4011},{"zip":"76059","city":"Keene","state":"TX","lat":32.3937,"long":-97.3287},{"zip":"76061","city":"Lillian","state":"TX","lat":32.5065,"long":-97.1875},{"zip":"76084","city":"Venus","state":"TX","lat":32.433,"long":-97.1087},{"zip":"76093","city":"Rio Vista","state":"TX","lat":32.2532,"long":-97.3678},{"zip":"76097","city":"Burleson","state":"TX","lat":32.5421,"long":-97.3208},{"zip":"76849","city":"Junction","state":"TX","lat":30.4754,"long":-99.7473},{"zip":"76854","city":"London","state":"TX","lat":30.6768,"long":-99.5765},{"zip":"76874","city":"Roosevelt","state":"TX","lat":30.47,"long":-100.0901},{"zip":"76363","city":"Goree","state":"TX","lat":33.4748,"long":-99.5258},{"zip":"76371","city":"Munday","state":"TX","lat":33.4561,"long":-99.6326},{"zip":"76539","city":"Kempner","state":"TX","lat":31.0887,"long":-98.0099},{"zip":"76550","city":"Lampasas","state":"TX","lat":31.068,"long":-98.1834},{"zip":"76824","city":"Bend","state":"TX","lat":31.1123,"long":-98.4821},{"zip":"76853","city":"Lometa","state":"TX","lat":31.2167,"long":-98.4006},{"zip":"76635","city":"Coolidge","state":"TX","lat":31.7438,"long":-96.6577},{"zip":"76642","city":"Groesbeck","state":"TX","lat":31.5357,"long":-96.5234},{"zip":"76653","city":"Kosse","state":"TX","lat":31.3147,"long":-96.6195},{"zip":"76667","city":"Mexia","state":"TX","lat":31.6784,"long":-96.4952},{"zip":"76678","city":"Prairie Hill","state":"TX","lat":31.6591,"long":-96.8094},{"zip":"76686","city":"Tehuacana","state":"TX","lat":31.7504,"long":-96.5416},{"zip":"76687","city":"Thornton","state":"TX","lat":31.4083,"long":-96.5024},{"zip":"76831","city":"Castell","state":"TX","lat":30.7565,"long":-98.9712},{"zip":"76885","city":"Valley Spring","state":"TX","lat":30.866,"long":-98.8357},{"zip":"76825","city":"Brady","state":"TX","lat":31.1509,"long":-99.3372},{"zip":"76836","city":"Doole","state":"TX","lat":31.3957,"long":-99.599},{"zip":"76852","city":"Lohn","state":"TX","lat":31.3173,"long":-99.3833},{"zip":"76858","city":"Melvin","state":"TX","lat":31.1952,"long":-99.5798},{"zip":"76872","city":"Rochelle","state":"TX","lat":31.3,"long":-99.1572},{"zip":"76887","city":"Voca","state":"TX","lat":30.9959,"long":-99.1682},{"zip":"76524","city":"Eddy","state":"TX","lat":31.3088,"long":-97.2774},{"zip":"76557","city":"Moody","state":"TX","lat":31.2533,"long":-97.41},{"zip":"76624","city":"Axtell","state":"TX","lat":31.661,"long":-96.9882},{"zip":"76630","city":"Bruceville","state":"TX","lat":31.3267,"long":-97.2342},{"zip":"76633","city":"China Spring","state":"TX","lat":31.6673,"long":-97.3002},{"zip":"76638","city":"Crawford","state":"TX","lat":31.5598,"long":-97.39},{"zip":"76640","city":"Elm Mott","state":"TX","lat":31.6725,"long":-97.1138},{"zip":"76643","city":"Hewitt","state":"TX","lat":31.4582,"long":-97.1966},{"zip":"76654","city":"Leroy","state":"TX","lat":31.5536,"long":-97.2032},{"zip":"76655","city":"Lorena","state":"TX","lat":31.4093,"long":-97.2302},{"zip":"76657","city":"Mc Gregor","state":"TX","lat":31.4431,"long":-97.3943},{"zip":"76664","city":"Mart","state":"TX","lat":31.5458,"long":-96.8381},{"zip":"76682","city":"Riesel","state":"TX","lat":31.5002,"long":-96.9476},{"zip":"76684","city":"Ross","state":"TX","lat":31.7173,"long":-97.1188},{"zip":"76691","city":"West","state":"TX","lat":31.7754,"long":-97.1258},{"zip":"76701","city":"Waco","state":"TX","lat":31.5525,"long":-97.1396},{"zip":"76702","city":"Waco","state":"TX","lat":31.5475,"long":-97.1443},{"zip":"76703","city":"Waco","state":"TX","lat":31.5536,"long":-97.2032},{"zip":"76704","city":"Waco","state":"TX","lat":31.5773,"long":-97.1241},{"zip":"76705","city":"Waco","state":"TX","lat":31.6403,"long":-97.0963},{"zip":"76706","city":"Waco","state":"TX","lat":31.5171,"long":-97.1198},{"zip":"76707","city":"Waco","state":"TX","lat":31.5527,"long":-97.1588},{"zip":"76708","city":"Waco","state":"TX","lat":31.5765,"long":-97.1786},{"zip":"76710","city":"Waco","state":"TX","lat":31.535,"long":-97.1899},{"zip":"76711","city":"Waco","state":"TX","lat":31.5175,"long":-97.1547},{"zip":"76712","city":"Woodway","state":"TX","lat":31.5051,"long":-97.2311},{"zip":"76714","city":"Waco","state":"TX","lat":31.5536,"long":-97.2032},{"zip":"76715","city":"Waco","state":"TX","lat":31.5536,"long":-97.2032},{"zip":"76716","city":"Waco","state":"TX","lat":31.5536,"long":-97.2032},{"zip":"76797","city":"Waco","state":"TX","lat":31.5536,"long":-97.2032},{"zip":"76798","city":"Waco","state":"TX","lat":31.547,"long":-97.1203},{"zip":"76799","city":"Waco","state":"TX","lat":31.5411,"long":-97.1615},{"zip":"76820","city":"Art","state":"TX","lat":30.767,"long":-99.0486},{"zip":"76842","city":"Fredonia","state":"TX","lat":30.9214,"long":-99.1216},{"zip":"76856","city":"Mason","state":"TX","lat":30.7434,"long":-99.2261},{"zip":"76869","city":"Pontotoc","state":"TX","lat":30.8906,"long":-99.0212},{"zip":"76841","city":"Fort Mc Kavett","state":"TX","lat":30.829,"long":-100.0809},{"zip":"76848","city":"Hext","state":"TX","lat":30.8816,"long":-99.554},{"zip":"76859","city":"Menard","state":"TX","lat":30.9119,"long":-99.7847},{"zip":"76518","city":"Buckholts","state":"TX","lat":30.8858,"long":-97.1241},{"zip":"76519","city":"Burlington","state":"TX","lat":30.9736,"long":-96.9642},{"zip":"76520","city":"Cameron","state":"TX","lat":30.8527,"long":-96.9766},{"zip":"76523","city":"Davilla","state":"TX","lat":30.7824,"long":-97.298},{"zip":"76556","city":"Milano","state":"TX","lat":30.7304,"long":-96.8807},{"zip":"76567","city":"Rockdale","state":"TX","lat":30.6583,"long":-97.0079},{"zip":"76577","city":"Thorndale","state":"TX","lat":30.6082,"long":-97.1764},{"zip":"76844","city":"Goldthwaite","state":"TX","lat":31.4458,"long":-98.5744},{"zip":"76864","city":"Mullin","state":"TX","lat":31.5748,"long":-98.6635},{"zip":"76870","city":"Priddy","state":"TX","lat":31.641,"long":-98.5276},{"zip":"76880","city":"Star","state":"TX","lat":31.4685,"long":-98.3161},{"zip":"76230","city":"Bowie","state":"TX","lat":33.5568,"long":-97.8373},{"zip":"76239","city":"Forestburg","state":"TX","lat":33.5398,"long":-97.5848},{"zip":"76251","city":"Montague","state":"TX","lat":33.6639,"long":-97.7282},{"zip":"76255","city":"Nocona","state":"TX","lat":33.7982,"long":-97.727},{"zip":"76261","city":"Ringgold","state":"TX","lat":33.8164,"long":-97.944},{"zip":"76265","city":"Saint Jo","state":"TX","lat":33.744,"long":-97.5568},{"zip":"76270","city":"Sunset","state":"TX","lat":33.4539,"long":-97.7709},{"zip":"76626","city":"Blooming Grove","state":"TX","lat":32.0758,"long":-96.701},{"zip":"76639","city":"Dawson","state":"TX","lat":31.8974,"long":-96.7085},{"zip":"76641","city":"Frost","state":"TX","lat":32.0275,"long":-96.7684},{"zip":"76679","city":"Purdon","state":"TX","lat":31.9483,"long":-96.5856},{"zip":"76681","city":"Richland","state":"TX","lat":31.9018,"long":-96.4373},{"zip":"76067","city":"Mineral Wells","state":"TX","lat":32.8085,"long":-98.1128},{"zip":"76068","city":"Mineral Wells","state":"TX","lat":32.8085,"long":-98.1128},{"zip":"76449","city":"Graford","state":"TX","lat":32.9242,"long":-98.337},{"zip":"76453","city":"Gordon","state":"TX","lat":32.5478,"long":-98.3632},{"zip":"76463","city":"Mingus","state":"TX","lat":32.5381,"long":-98.4219},{"zip":"76472","city":"Santo","state":"TX","lat":32.5979,"long":-98.1797},{"zip":"76475","city":"Strawn","state":"TX","lat":32.5945,"long":-98.4995},{"zip":"76484","city":"Palo Pinto","state":"TX","lat":32.7673,"long":-98.2987},{"zip":"76008","city":"Aledo","state":"TX","lat":32.7004,"long":-97.6039},{"zip":"76066","city":"Millsap","state":"TX","lat":32.7457,"long":-97.9561},{"zip":"76082","city":"Springtown","state":"TX","lat":32.966,"long":-97.6836},{"zip":"76085","city":"Weatherford","state":"TX","lat":32.7676,"long":-97.7516},{"zip":"76086","city":"Weatherford","state":"TX","lat":32.7549,"long":-97.7899},{"zip":"76087","city":"Weatherford","state":"TX","lat":32.7495,"long":-97.6894},{"zip":"76088","city":"Weatherford","state":"TX","lat":32.8478,"long":-97.8606},{"zip":"76098","city":"Azle","state":"TX","lat":32.8957,"long":-97.5636},{"zip":"76439","city":"Dennis","state":"TX","lat":32.6187,"long":-97.9267},{"zip":"76485","city":"Peaster","state":"TX","lat":32.8721,"long":-97.8667},{"zip":"76487","city":"Poolville","state":"TX","lat":32.968,"long":-97.8472},{"zip":"76490","city":"Whitt","state":"TX","lat":32.9555,"long":-98.021},{"zip":"76932","city":"Big Lake","state":"TX","lat":31.417,"long":-101.5423},{"zip":"76629","city":"Bremond","state":"TX","lat":31.156,"long":-96.6697},{"zip":"76821","city":"Ballinger","state":"TX","lat":31.7468,"long":-99.9589},{"zip":"76861","city":"Miles","state":"TX","lat":31.6121,"long":-100.1823},{"zip":"76865","city":"Norton","state":"TX","lat":31.8795,"long":-100.1315},{"zip":"76875","city":"Rowena","state":"TX","lat":31.6436,"long":-100.0191},{"zip":"76832","city":"Cherokee","state":"TX","lat":30.9806,"long":-98.6633},{"zip":"76871","city":"Richland Springs","state":"TX","lat":31.3003,"long":-98.9128},{"zip":"76877","city":"San Saba","state":"TX","lat":31.1627,"long":-98.7309},{"zip":"76936","city":"Eldorado","state":"TX","lat":30.8667,"long":-100.5889},{"zip":"76430","city":"Albany","state":"TX","lat":32.719,"long":-99.3196},{"zip":"76464","city":"Moran","state":"TX","lat":32.5549,"long":-99.1656},{"zip":"76043","city":"Glen Rose","state":"TX","lat":32.2298,"long":-97.7629},{"zip":"76070","city":"Nemo","state":"TX","lat":32.2713,"long":-97.6567},{"zip":"76077","city":"Rainbow","state":"TX","lat":32.2812,"long":-97.7065},{"zip":"76424","city":"Breckenridge","state":"TX","lat":32.7532,"long":-98.9099},{"zip":"76429","city":"Caddo","state":"TX","lat":32.6886,"long":-98.659},{"zip":"76951","city":"Sterling City","state":"TX","lat":31.8351,"long":-101.0017},{"zip":"76950","city":"Sonora","state":"TX","lat":30.5558,"long":-100.6307},{"zip":"76001","city":"Arlington","state":"TX","lat":32.6289,"long":-97.1517},{"zip":"76002","city":"Arlington","state":"TX","lat":32.6255,"long":-97.0784},{"zip":"76003","city":"Arlington","state":"TX","lat":32.7417,"long":-97.2253},{"zip":"76004","city":"Arlington","state":"TX","lat":32.7357,"long":-97.1081},{"zip":"76005","city":"Arlington","state":"TX","lat":32.7714,"long":-97.2915},{"zip":"76006","city":"Arlington","state":"TX","lat":32.7785,"long":-97.0834},{"zip":"76007","city":"Arlington","state":"TX","lat":32.7714,"long":-97.2915},{"zip":"76010","city":"Arlington","state":"TX","lat":32.7204,"long":-97.0826},{"zip":"76011","city":"Arlington","state":"TX","lat":32.7582,"long":-97.1003},{"zip":"76012","city":"Arlington","state":"TX","lat":32.754,"long":-97.1348},{"zip":"76013","city":"Arlington","state":"TX","lat":32.7199,"long":-97.1442},{"zip":"76014","city":"Arlington","state":"TX","lat":32.6954,"long":-97.0876},{"zip":"76015","city":"Arlington","state":"TX","lat":32.6931,"long":-97.1347},{"zip":"76016","city":"Arlington","state":"TX","lat":32.6889,"long":-97.1905},{"zip":"76017","city":"Arlington","state":"TX","lat":32.6555,"long":-97.1599},{"zip":"76018","city":"Arlington","state":"TX","lat":32.6548,"long":-97.092},{"zip":"76019","city":"Arlington","state":"TX","lat":32.7357,"long":-97.1081},{"zip":"76020","city":"Azle","state":"TX","lat":32.9035,"long":-97.5412},{"zip":"76021","city":"Bedford","state":"TX","lat":32.8536,"long":-97.1358},{"zip":"76022","city":"Bedford","state":"TX","lat":32.8297,"long":-97.1454},{"zip":"76034","city":"Colleyville","state":"TX","lat":32.8872,"long":-97.146},{"zip":"76036","city":"Crowley","state":"TX","lat":32.5814,"long":-97.3703},{"zip":"76039","city":"Euless","state":"TX","lat":32.8582,"long":-97.0832},{"zip":"76040","city":"Euless","state":"TX","lat":32.8264,"long":-97.0972},{"zip":"76051","city":"Grapevine","state":"TX","lat":32.9328,"long":-97.0808},{"zip":"76052","city":"Haslet","state":"TX","lat":32.9557,"long":-97.3372},{"zip":"76053","city":"Hurst","state":"TX","lat":32.8211,"long":-97.1756},{"zip":"76054","city":"Hurst","state":"TX","lat":32.8558,"long":-97.1755},{"zip":"76060","city":"Kennedale","state":"TX","lat":32.6432,"long":-97.2139},{"zip":"76063","city":"Mansfield","state":"TX","lat":32.5773,"long":-97.1416},{"zip":"76092","city":"Southlake","state":"TX","lat":32.9485,"long":-97.1524},{"zip":"76094","city":"Arlington","state":"TX","lat":32.7714,"long":-97.2915},{"zip":"76095","city":"Bedford","state":"TX","lat":32.844,"long":-97.1431},{"zip":"76096","city":"Arlington","state":"TX","lat":32.7714,"long":-97.2915},{"zip":"76099","city":"Grapevine","state":"TX","lat":32.9343,"long":-97.0781},{"zip":"76101","city":"Fort Worth","state":"TX","lat":32.7714,"long":-97.2915},{"zip":"76102","city":"Fort Worth","state":"TX","lat":32.7589,"long":-97.328},{"zip":"76103","city":"Fort Worth","state":"TX","lat":32.747,"long":-97.2604},{"zip":"76104","city":"Fort Worth","state":"TX","lat":32.7256,"long":-97.3184},{"zip":"76105","city":"Fort Worth","state":"TX","lat":32.7233,"long":-97.269},{"zip":"76106","city":"Fort Worth","state":"TX","lat":32.7968,"long":-97.356},{"zip":"76107","city":"Fort Worth","state":"TX","lat":32.7392,"long":-97.3852},{"zip":"76108","city":"Fort Worth","state":"TX","lat":32.7822,"long":-97.4969},{"zip":"76109","city":"Fort Worth","state":"TX","lat":32.7002,"long":-97.3789},{"zip":"76110","city":"Fort Worth","state":"TX","lat":32.7065,"long":-97.3375},{"zip":"76111","city":"Fort Worth","state":"TX","lat":32.7824,"long":-97.3003},{"zip":"76112","city":"Fort Worth","state":"TX","lat":32.7493,"long":-97.2181},{"zip":"76113","city":"Fort Worth","state":"TX","lat":32.7714,"long":-97.2915},{"zip":"76114","city":"Fort Worth","state":"TX","lat":32.7796,"long":-97.3928},{"zip":"76115","city":"Fort Worth","state":"TX","lat":32.6796,"long":-97.3336},{"zip":"76116","city":"Fort Worth","state":"TX","lat":32.723,"long":-97.4483},{"zip":"76117","city":"Haltom City","state":"TX","lat":32.8087,"long":-97.2709},{"zip":"76118","city":"Fort Worth","state":"TX","lat":32.8013,"long":-97.1952},{"zip":"76119","city":"Fort Worth","state":"TX","lat":32.6914,"long":-97.2675},{"zip":"76120","city":"Fort Worth","state":"TX","lat":32.7639,"long":-97.1781},{"zip":"76121","city":"Fort Worth","state":"TX","lat":32.7714,"long":-97.2915},{"zip":"76122","city":"Fort Worth","state":"TX","lat":32.7714,"long":-97.2915},{"zip":"76123","city":"Fort Worth","state":"TX","lat":32.6254,"long":-97.3658},{"zip":"76124","city":"Fort Worth","state":"TX","lat":32.7714,"long":-97.2915},{"zip":"76126","city":"Fort Worth","state":"TX","lat":32.64,"long":-97.5448},{"zip":"76127","city":"Naval Air Station Jrb","state":"TX","lat":32.7254,"long":-97.3208},{"zip":"76129","city":"Fort Worth","state":"TX","lat":32.7714,"long":-97.2915},{"zip":"76130","city":"Fort Worth","state":"TX","lat":32.7714,"long":-97.2915},{"zip":"76131","city":"Fort Worth","state":"TX","lat":32.8632,"long":-97.3377},{"zip":"76132","city":"Fort Worth","state":"TX","lat":32.6711,"long":-97.4056},{"zip":"76133","city":"Fort Worth","state":"TX","lat":32.6526,"long":-97.3758},{"zip":"76134","city":"Fort Worth","state":"TX","lat":32.6469,"long":-97.3325},{"zip":"76135","city":"Fort Worth","state":"TX","lat":32.8248,"long":-97.4519},{"zip":"76136","city":"Fort Worth","state":"TX","lat":32.7714,"long":-97.2915},{"zip":"76137","city":"Fort Worth","state":"TX","lat":32.8664,"long":-97.2891},{"zip":"76140","city":"Fort Worth","state":"TX","lat":32.6192,"long":-97.2735},{"zip":"76147","city":"Fort Worth","state":"TX","lat":32.7714,"long":-97.2915},{"zip":"76148","city":"Fort Worth","state":"TX","lat":32.8621,"long":-97.2508},{"zip":"76150","city":"Fort Worth","state":"TX","lat":32.7714,"long":-97.2915},{"zip":"76155","city":"Fort Worth","state":"TX","lat":32.8247,"long":-97.0503},{"zip":"76161","city":"Fort Worth","state":"TX","lat":32.7714,"long":-97.2915},{"zip":"76162","city":"Fort Worth","state":"TX","lat":32.7714,"long":-97.2915},{"zip":"76163","city":"Fort Worth","state":"TX","lat":32.7714,"long":-97.2915},{"zip":"76164","city":"Fort Worth","state":"TX","lat":32.7811,"long":-97.3546},{"zip":"76166","city":"Fort Worth","state":"TX","lat":32.7539,"long":-97.3362},{"zip":"76177","city":"Fort Worth","state":"TX","lat":32.9448,"long":-97.3124},{"zip":"76179","city":"Fort Worth","state":"TX","lat":32.9074,"long":-97.4257},{"zip":"76180","city":"North Richland Hills","state":"TX","lat":32.84,"long":-97.225},{"zip":"76181","city":"Fort Worth","state":"TX","lat":32.7714,"long":-97.2915},{"zip":"76182","city":"North Richland Hills","state":"TX","lat":32.8828,"long":-97.2098},{"zip":"76185","city":"Fort Worth","state":"TX","lat":32.7714,"long":-97.2915},{"zip":"76191","city":"Fort Worth","state":"TX","lat":32.7714,"long":-97.2915},{"zip":"76192","city":"Fort Worth","state":"TX","lat":32.7714,"long":-97.2915},{"zip":"76193","city":"Fort Worth","state":"TX","lat":32.7714,"long":-97.2915},{"zip":"76195","city":"Fort Worth","state":"TX","lat":32.7254,"long":-97.3208},{"zip":"76196","city":"Fort Worth","state":"TX","lat":32.7714,"long":-97.2915},{"zip":"76197","city":"Fort Worth","state":"TX","lat":32.7714,"long":-97.2915},{"zip":"76198","city":"Fort Worth","state":"TX","lat":32.7714,"long":-97.2915},{"zip":"76199","city":"Fort Worth","state":"TX","lat":32.7714,"long":-97.2915},{"zip":"76244","city":"Keller","state":"TX","lat":32.931,"long":-97.2843},{"zip":"76248","city":"Keller","state":"TX","lat":32.9276,"long":-97.2489},{"zip":"76483","city":"Throckmorton","state":"TX","lat":33.1794,"long":-99.1838},{"zip":"76491","city":"Woodson","state":"TX","lat":33.0741,"long":-99.0546},{"zip":"76886","city":"Veribest","state":"TX","lat":31.4766,"long":-100.2595},{"zip":"76901","city":"San Angelo","state":"TX","lat":31.4782,"long":-100.4818},{"zip":"76902","city":"San Angelo","state":"TX","lat":31.4638,"long":-100.437},{"zip":"76903","city":"San Angelo","state":"TX","lat":31.4707,"long":-100.4386},{"zip":"76904","city":"San Angelo","state":"TX","lat":31.4194,"long":-100.48},{"zip":"76905","city":"San Angelo","state":"TX","lat":31.4647,"long":-100.39},{"zip":"76906","city":"San Angelo","state":"TX","lat":31.4638,"long":-100.437},{"zip":"76908","city":"Goodfellow Afb","state":"TX","lat":31.4321,"long":-100.4022},{"zip":"76909","city":"San Angelo","state":"TX","lat":31.4638,"long":-100.437},{"zip":"76934","city":"Carlsbad","state":"TX","lat":31.6266,"long":-100.6694},{"zip":"76935","city":"Christoval","state":"TX","lat":31.2346,"long":-100.5203},{"zip":"76939","city":"Knickerbocker","state":"TX","lat":31.2501,"long":-100.592},{"zip":"76940","city":"Mereta","state":"TX","lat":31.4518,"long":-100.1349},{"zip":"76955","city":"Vancourt","state":"TX","lat":31.3132,"long":-100.1328},{"zip":"76957","city":"Wall","state":"TX","lat":31.3741,"long":-100.3076},{"zip":"76958","city":"Water Valley","state":"TX","lat":31.6453,"long":-100.716},{"zip":"76301","city":"Wichita Falls","state":"TX","lat":33.9053,"long":-98.4976},{"zip":"76302","city":"Wichita Falls","state":"TX","lat":33.8643,"long":-98.494},{"zip":"76305","city":"Wichita Falls","state":"TX","lat":33.9995,"long":-98.3938},{"zip":"76306","city":"Wichita Falls","state":"TX","lat":33.9519,"long":-98.5145},{"zip":"76307","city":"Wichita Falls","state":"TX","lat":33.9137,"long":-98.4934},{"zip":"76308","city":"Wichita Falls","state":"TX","lat":33.8633,"long":-98.534},{"zip":"76309","city":"Wichita Falls","state":"TX","lat":33.8931,"long":-98.5343},{"zip":"76310","city":"Wichita Falls","state":"TX","lat":33.8581,"long":-98.5755},{"zip":"76311","city":"Sheppard Afb","state":"TX","lat":33.9824,"long":-98.5088},{"zip":"76354","city":"Burkburnett","state":"TX","lat":34.086,"long":-98.5708},{"zip":"76360","city":"Electra","state":"TX","lat":34.0362,"long":-98.9155},{"zip":"76367","city":"Iowa Park","state":"TX","lat":33.9423,"long":-98.6745},{"zip":"76369","city":"Kamay","state":"TX","lat":33.8579,"long":-98.8081},{"zip":"76364","city":"Harrold","state":"TX","lat":34.0971,"long":-99.0351},{"zip":"76373","city":"Oklaunion","state":"TX","lat":34.1295,"long":-99.1429},{"zip":"76384","city":"Vernon","state":"TX","lat":34.1491,"long":-99.303},{"zip":"76385","city":"Vernon","state":"TX","lat":34.1554,"long":-99.2663},{"zip":"76527","city":"Florence","state":"TX","lat":30.8076,"long":-97.7812},{"zip":"76530","city":"Granger","state":"TX","lat":30.7398,"long":-97.4451},{"zip":"76537","city":"Jarrell","state":"TX","lat":30.8119,"long":-97.5942},{"zip":"76573","city":"Schwertner","state":"TX","lat":30.8055,"long":-97.4705},{"zip":"76574","city":"Taylor","state":"TX","lat":30.5708,"long":-97.4094},{"zip":"76578","city":"Thrall","state":"TX","lat":30.592,"long":-97.2893},{"zip":"76023","city":"Boyd","state":"TX","lat":33.0594,"long":-97.5868},{"zip":"76071","city":"Newark","state":"TX","lat":33.007,"long":-97.4923},{"zip":"76073","city":"Paradise","state":"TX","lat":33.0826,"long":-97.6974},{"zip":"76078","city":"Rhome","state":"TX","lat":33.054,"long":-97.4817},{"zip":"76225","city":"Alvord","state":"TX","lat":33.3698,"long":-97.6885},{"zip":"76234","city":"Decatur","state":"TX","lat":33.2351,"long":-97.574},{"zip":"76246","city":"Greenwood","state":"TX","lat":33.407,"long":-97.4716},{"zip":"76267","city":"Slidell","state":"TX","lat":33.378,"long":-97.3922},{"zip":"76426","city":"Bridgeport","state":"TX","lat":33.187,"long":-97.781},{"zip":"76431","city":"Chico","state":"TX","lat":33.3193,"long":-97.8031},{"zip":"76372","city":"Newcastle","state":"TX","lat":33.1901,"long":-98.7446},{"zip":"76374","city":"Olney","state":"TX","lat":33.3601,"long":-98.7427},{"zip":"76450","city":"Graham","state":"TX","lat":33.0993,"long":-98.5832},{"zip":"76460","city":"Loving","state":"TX","lat":33.2689,"long":-98.5024},{"zip":"76481","city":"South Bend","state":"TX","lat":33.0052,"long":-98.6892}]
