[{"zip":"76041","city":"Forreston","state":"TX","lat":32.2486,"long":-96.8232},{"zip":"76064","city":"Maypearl","state":"TX","lat":32.2993,"long":-97.0271},{"zip":"76065","city":"Midlothian","state":"TX","lat":32.4757,"long":-96.9936},{"zip":"76055","city":"Itasca","state":"TX","lat":32.1636,"long":-97.146},{"zip":"76035","city":"Cresson","state":"TX","lat":32.5343,"long":-97.6158},{"zip":"76048","city":"Granbury","state":"TX","lat":32.425,"long":-97.7742},{"zip":"76049","city":"Granbury","state":"TX","lat":32.4488,"long":-97.7285},{"zip":"76009","city":"Alvarado","state":"TX","lat":32.4395,"long":-97.213},{"zip":"76028","city":"Burleson","state":"TX","lat":32.5316,"long":-97.309},{"zip":"76031","city":"Cleburne","state":"TX","lat":32.3485,"long":-97.3311},{"zip":"76033","city":"Cleburne","state":"TX","lat":32.3509,"long":-97.4103},{"zip":"76044","city":"Godley","state":"TX","lat":32.4282,"long":-97.5349},{"zip":"76050","city":"Grandview","state":"TX","lat":32.2704,"long":-97.1792},{"zip":"76058","city":"Joshua","state":"TX","lat":32.4663,"long":-97.4011},{"zip":"76059","city":"Keene","state":"TX","lat":32.3937,"long":-97.3287},{"zip":"76061","city":"Lillian","state":"TX","lat":32.5065,"long":-97.1875},{"zip":"76084","city":"Venus","state":"TX","lat":32.433,"long":-97.1087},{"zip":"76093","city":"Rio Vista","state":"TX","lat":32.2532,"long":-97.3678},{"zip":"76097","city":"Burleson","state":"TX","lat":32.5421,"long":-97.3208},{"zip":"76067","city":"Mineral Wells","state":"TX","lat":32.8085,"long":-98.1128},{"zip":"76068","city":"Mineral Wells","state":"TX","lat":32.8085,"long":-98.1128},{"zip":"76008","city":"Aledo","state":"TX","lat":32.7004,"long":-97.6039},{"zip":"76066","city":"Millsap","state":"TX","lat":32.7457,"long":-97.9561},{"zip":"76082","city":"Springtown","state":"TX","lat":32.966,"long":-97.6836},{"zip":"76085","city":"Weatherford","state":"TX","lat":32.7676,"long":-97.7516},{"zip":"76086","city":"Weatherford","state":"TX","lat":32.7549,"long":-97.7899},{"zip":"76087","city":"Weatherford","state":"TX","lat":32.7495,"long":-97.6894},{"zip":"76088","city":"Weatherford","state":"TX","lat":32.8478,"long":-97.8606},{"zip":"76098","city":"Azle","state":"TX","lat":32.8957,"long":-97.5636},{"zip":"76043","city":"Glen Rose","state":"TX","lat":32.2298,"long":-97.7629},{"zip":"76070","city":"Nemo","state":"TX","lat":32.2713,"long":-97.6567},{"zip":"76077","city":"Rainbow","state":"TX","lat":32.2812,"long":-97.7065},{"zip":"76001","city":"Arlington","state":"TX","lat":32.6289,"long":-97.1517},{"zip":"76002","city":"Arlington","state":"TX","lat":32.6255,"long":-97.0784},{"zip":"76003","city":"Arlington","state":"TX","lat":32.7417,"long":-97.2253},{"zip":"76004","city":"Arlington","state":"TX","lat":32.7357,"long":-97.1081},{"zip":"76005","city":"Arlington","state":"TX","lat":32.7714,"long":-97.2915},{"zip":"76006","city":"Arlington","state":"TX","lat":32.7785,"long":-97.0834},{"zip":"76007","city":"Arlington","state":"TX","lat":32.7714,"long":-97.2915},{"zip":"76010","city":"Arlington","state":"TX","lat":32.7204,"long":-97.0826},{"zip":"76011","city":"Arlington","state":"TX","lat":32.7582,"long":-97.1003},{"zip":"76012","city":"Arlington","state":"TX","lat":32.754,"long":-97.1348},{"zip":"76013","city":"Arlington","state":"TX","lat":32.7199,"long":-97.1442},{"zip":"76014","city":"Arlington","state":"TX","lat":32.6954,"long":-97.0876},{"zip":"76015","city":"Arlington","state":"TX","lat":32.6931,"long":-97.1347},{"zip":"76016","city":"Arlington","state":"TX","lat":32.6889,"long":-97.1905},{"zip":"76017","city":"Arlington","state":"TX","lat":32.6555,"long":-97.1599},{"zip":"76018","city":"Arlington","state":"TX","lat":32.6548,"long":-97.092},{"zip":"76019","city":"Arlington","state":"TX","lat":32.7357,"long":-97.1081},{"zip":"76020","city":"Azle","state":"TX","lat":32.9035,"long":-97.5412},{"zip":"76021","city":"Bedford","state":"TX","lat":32.8536,"long":-97.1358},{"zip":"76022","city":"Bedford","state":"TX","lat":32.8297,"long":-97.1454},{"zip":"76034","city":"Colleyville","state":"TX","lat":32.8872,"long":-97.146},{"zip":"76036","city":"Crowley","state":"TX","lat":32.5814,"long":-97.3703},{"zip":"76039","city":"Euless","state":"TX","lat":32.8582,"long":-97.0832},{"zip":"76040","city":"Euless","state":"TX","lat":32.8264,"long":-97.0972},{"zip":"76051","city":"Grapevine","state":"TX","lat":32.9328,"long":-97.0808},{"zip":"76052","city":"Haslet","state":"TX","lat":32.9557,"long":-97.3372},{"zip":"76053","city":"Hurst","state":"TX","lat":32.8211,"long":-97.1756},{"zip":"76054","city":"Hurst","state":"TX","lat":32.8558,"long":-97.1755},{"zip":"76060","city":"Kennedale","state":"TX","lat":32.6432,"long":-97.2139},{"zip":"76063","city":"Mansfield","state":"TX","lat":32.5773,"long":-97.1416},{"zip":"76092","city":"Southlake","state":"TX","lat":32.9485,"long":-97.1524},{"zip":"76094","city":"Arlington","state":"TX","lat":32.7714,"long":-97.2915},{"zip":"76095","city":"Bedford","state":"TX","lat":32.844,"long":-97.1431},{"zip":"76096","city":"Arlington","state":"TX","lat":32.7714,"long":-97.2915},{"zip":"76099","city":"Grapevine","state":"TX","lat":32.9343,"long":-97.0781},{"zip":"76023","city":"Boyd","state":"TX","lat":33.0594,"long":-97.5868},{"zip":"76071","city":"Newark","state":"TX","lat":33.007,"long":-97.4923},{"zip":"76073","city":"Paradise","state":"TX","lat":33.0826,"long":-97.6974},{"zip":"76078","city":"Rhome","state":"TX","lat":33.054,"long":-97.4817}]
