[{"zip":"76101","city":"Fort Worth","state":"TX","lat":32.7714,"long":-97.2915},{"zip":"76102","city":"Fort Worth","state":"TX","lat":32.7589,"long":-97.328},{"zip":"76103","city":"Fort Worth","state":"TX","lat":32.747,"long":-97.2604},{"zip":"76104","city":"Fort Worth","state":"TX","lat":32.7256,"long":-97.3184},{"zip":"76105","city":"Fort Worth","state":"TX","lat":32.7233,"long":-97.269},{"zip":"76106","city":"Fort Worth","state":"TX","lat":32.7968,"long":-97.356},{"zip":"76107","city":"Fort Worth","state":"TX","lat":32.7392,"long":-97.3852},{"zip":"76108","city":"Fort Worth","state":"TX","lat":32.7822,"long":-97.4969},{"zip":"76109","city":"Fort Worth","state":"TX","lat":32.7002,"long":-97.3789},{"zip":"76110","city":"Fort Worth","state":"TX","lat":32.7065,"long":-97.3375},{"zip":"76111","city":"Fort Worth","state":"TX","lat":32.7824,"long":-97.3003},{"zip":"76112","city":"Fort Worth","state":"TX","lat":32.7493,"long":-97.2181},{"zip":"76113","city":"Fort Worth","state":"TX","lat":32.7714,"long":-97.2915},{"zip":"76114","city":"Fort Worth","state":"TX","lat":32.7796,"long":-97.3928},{"zip":"76115","city":"Fort Worth","state":"TX","lat":32.6796,"long":-97.3336},{"zip":"76116","city":"Fort Worth","state":"TX","lat":32.723,"long":-97.4483},{"zip":"76117","city":"Haltom City","state":"TX","lat":32.8087,"long":-97.2709},{"zip":"76118","city":"Fort Worth","state":"TX","lat":32.8013,"long":-97.1952},{"zip":"76119","city":"Fort Worth","state":"TX","lat":32.6914,"long":-97.2675},{"zip":"76120","city":"Fort Worth","state":"TX","lat":32.7639,"long":-97.1781},{"zip":"76121","city":"Fort Worth","state":"TX","lat":32.7714,"long":-97.2915},{"zip":"76122","city":"Fort Worth","state":"TX","lat":32.7714,"long":-97.2915},{"zip":"76123","city":"Fort Worth","state":"TX","lat":32.6254,"long":-97.3658},{"zip":"76124","city":"Fort Worth","state":"TX","lat":32.7714,"long":-97.2915},{"zip":"76126","city":"Fort Worth","state":"TX","lat":32.64,"long":-97.5448},{"zip":"76127","city":"Naval Air Station Jrb","state":"TX","lat":32.7254,"long":-97.3208},{"zip":"76129","city":"Fort Worth","state":"TX","lat":32.7714,"long":-97.2915},{"zip":"76130","city":"Fort Worth","state":"TX","lat":32.7714,"long":-97.2915},{"zip":"76131","city":"Fort Worth","state":"TX","lat":32.8632,"long":-97.3377},{"zip":"76132","city":"Fort Worth","state":"TX","lat":32.6711,"long":-97.4056},{"zip":"76133","city":"Fort Worth","state":"TX","lat":32.6526,"long":-97.3758},{"zip":"76134","city":"Fort Worth","state":"TX","lat":32.6469,"long":-97.3325},{"zip":"76135","city":"Fort Worth","state":"TX","lat":32.8248,"long":-97.4519},{"zip":"76136","city":"Fort Worth","state":"TX","lat":32.7714,"long":-97.2915},{"zip":"76137","city":"Fort Worth","state":"TX","lat":32.8664,"long":-97.2891},{"zip":"76140","city":"Fort Worth","state":"TX","lat":32.6192,"long":-97.2735},{"zip":"76147","city":"Fort Worth","state":"TX","lat":32.7714,"long":-97.2915},{"zip":"76148","city":"Fort Worth","state":"TX","lat":32.8621,"long":-97.2508},{"zip":"76150","city":"Fort Worth","state":"TX","lat":32.7714,"long":-97.2915},{"zip":"76155","city":"Fort Worth","state":"TX","lat":32.8247,"long":-97.0503},{"zip":"76161","city":"Fort Worth","state":"TX","lat":32.7714,"long":-97.2915},{"zip":"76162","city":"Fort Worth","state":"TX","lat":32.7714,"long":-97.2915},{"zip":"76163","city":"Fort Worth","state":"TX","lat":32.7714,"long":-97.2915},{"zip":"76164","city":"Fort Worth","state":"TX","lat":32.7811,"long":-97.3546},{"zip":"76166","city":"Fort Worth","state":"TX","lat":32.7539,"long":-97.3362},{"zip":"76177","city":"Fort Worth","state":"TX","lat":32.9448,"long":-97.3124},{"zip":"76179","city":"Fort Worth","state":"TX","lat":32.9074,"long":-97.4257},{"zip":"76180","city":"North Richland Hills","state":"TX","lat":32.84,"long":-97.225},{"zip":"76181","city":"Fort Worth","state":"TX","lat":32.7714,"long":-97.2915},{"zip":"76182","city":"North Richland Hills","state":"TX","lat":32.8828,"long":-97.2098},{"zip":"76185","city":"Fort Worth","state":"TX","lat":32.7714,"long":-97.2915},{"zip":"76191","city":"Fort Worth","state":"TX","lat":32.7714,"long":-97.2915},{"zip":"76192","city":"Fort Worth","state":"TX","lat":32.7714,"long":-97.2915},{"zip":"76193","city":"Fort Worth","state":"TX","lat":32.7714,"long":-97.2915},{"zip":"76195","city":"Fort Worth","state":"TX","lat":32.7254,"long":-97.3208},{"zip":"76196","city":"Fort Worth","state":"TX","lat":32.7714,"long":-97.2915},{"zip":"76197","city":"Fort Worth","state":"TX","lat":32.7714,"long":-97.2915},{"zip":"76198","city":"Fort Worth","state":"TX","lat":32.7714,"long":-97.2915},{"zip":"76199","city":"Fort Worth","state":"TX","lat":32.7714,"long":-97.2915}]
