[{"zip":"76351","city":"Archer City","state":"TX","lat":33.5562,"long":-98.6249},{"zip":"76366","city":"Holliday","state":"TX","lat":33.8162,"long":-98.6951},{"zip":"76370","city":"Megargel","state":"TX","lat":33.4533,"long":-98.9297},{"zip":"76379","city":"Scotland","state":"TX","lat":33.6535,"long":-98.465},{"zip":"76389","city":"Windthorst","state":"TX","lat":33.5796,"long":-98.4376},{"zip":"76380","city":"Seymour","state":"TX","lat":33.5914,"long":-99.2587},{"zip":"76352","city":"Bluegrove","state":"TX","lat":33.674,"long":-98.23},{"zip":"76357","city":"Byers","state":"TX","lat":34.0728,"long":-98.1839},{"zip":"76365","city":"Henrietta","state":"TX","lat":33.8196,"long":-98.26},{"zip":"76377","city":"Petrolia","state":"TX","lat":34.0132,"long":-98.2323},{"zip":"76388","city":"Weinert","state":"TX","lat":33.3249,"long":-99.6664},{"zip":"76363","city":"Goree","state":"TX","lat":33.4748,"long":-99.5258},{"zip":"76371","city":"Munday","state":"TX","lat":33.4561,"long":-99.6326},{"zip":"76301","city":"Wichita Falls","state":"TX","lat":33.9053,"long":-98.4976},{"zip":"76302","city":"Wichita Falls","state":"TX","lat":33.8643,"long":-98.494},{"zip":"76305","city":"Wichita Falls","state":"TX","lat":33.9995,"long":-98.3938},{"zip":"76306","city":"Wichita Falls","state":"TX","lat":33.9519,"long":-98.5145},{"zip":"76307","city":"Wichita Falls","state":"TX","lat":33.9137,"long":-98.4934},{"zip":"76308","city":"Wichita Falls","state":"TX","lat":33.8633,"long":-98.534},{"zip":"76309","city":"Wichita Falls","state":"TX","lat":33.8931,"long":-98.5343},{"zip":"76310","city":"Wichita Falls","state":"TX","lat":33.8581,"long":-98.5755},{"zip":"76311","city":"Sheppard Afb","state":"TX","lat":33.9824,"long":-98.5088},{"zip":"76354","city":"Burkburnett","state":"TX","lat":34.086,"long":-98.5708},{"zip":"76360","city":"Electra","state":"TX","lat":34.0362,"long":-98.9155},{"zip":"76367","city":"Iowa Park","state":"TX","lat":33.9423,"long":-98.6745},{"zip":"76369","city":"Kamay","state":"TX","lat":33.8579,"long":-98.8081},{"zip":"76364","city":"Harrold","state":"TX","lat":34.0971,"long":-99.0351},{"zip":"76373","city":"Oklaunion","state":"TX","lat":34.1295,"long":-99.1429},{"zip":"76384","city":"Vernon","state":"TX","lat":34.1491,"long":-99.303},{"zip":"76385","city":"Vernon","state":"TX","lat":34.1554,"long":-99.2663},{"zip":"76372","city":"Newcastle","state":"TX","lat":33.1901,"long":-98.7446},{"zip":"76374","city":"Olney","state":"TX","lat":33.3601,"long":-98.7427}]
