[{"zip":"76432","city":"Blanket","state":"TX","lat":31.7882,"long":-98.8311},{"zip":"76443","city":"Cross Plains","state":"TX","lat":32.1482,"long":-99.1872},{"zip":"76469","city":"Putnam","state":"TX","lat":32.374,"long":-99.1957},{"zip":"76442","city":"Comanche","state":"TX","lat":31.9116,"long":-98.6082},{"zip":"76444","city":"De Leon","state":"TX","lat":32.1087,"long":-98.5489},{"zip":"76452","city":"Energy","state":"TX","lat":31.7633,"long":-98.3999},{"zip":"76455","city":"Gustine","state":"TX","lat":31.8468,"long":-98.4017},{"zip":"76468","city":"Proctor","state":"TX","lat":31.9874,"long":-98.4298},{"zip":"76474","city":"Sidney","state":"TX","lat":31.932,"long":-98.768},{"zip":"76435","city":"Carbon","state":"TX","lat":32.2701,"long":-98.8348},{"zip":"76437","city":"Cisco","state":"TX","lat":32.38,"long":-98.9865},{"zip":"76445","city":"Desdemona","state":"TX","lat":32.2819,"long":-98.5673},{"zip":"76448","city":"Eastland","state":"TX","lat":32.3994,"long":-98.8071},{"zip":"76454","city":"Gorman","state":"TX","lat":32.2234,"long":-98.6834},{"zip":"76466","city":"Olden","state":"TX","lat":32.4421,"long":-98.7342},{"zip":"76470","city":"Ranger","state":"TX","lat":32.4681,"long":-98.6747},{"zip":"76471","city":"Rising Star","state":"TX","lat":32.128,"long":-98.9859},{"zip":"76401","city":"Stephenville","state":"TX","lat":32.2214,"long":-98.2224},{"zip":"76402","city":"Stephenville","state":"TX","lat":32.2153,"long":-98.208},{"zip":"76433","city":"Bluff Dale","state":"TX","lat":32.2884,"long":-98.0539},{"zip":"76446","city":"Dublin","state":"TX","lat":32.0909,"long":-98.3455},{"zip":"76461","city":"Lingleville","state":"TX","lat":32.2446,"long":-98.3775},{"zip":"76465","city":"Morgan Mill","state":"TX","lat":32.3882,"long":-98.1673},{"zip":"76436","city":"Carlton","state":"TX","lat":31.8949,"long":-98.1842},{"zip":"76457","city":"Hico","state":"TX","lat":31.9597,"long":-98.0249},{"zip":"76462","city":"Lipan","state":"TX","lat":32.5072,"long":-97.9536},{"zip":"76467","city":"Paluxy","state":"TX","lat":32.2707,"long":-97.9075},{"zip":"76476","city":"Tolar","state":"TX","lat":32.3772,"long":-97.8802},{"zip":"76427","city":"Bryson","state":"TX","lat":33.1615,"long":-98.3874},{"zip":"76458","city":"Jacksboro","state":"TX","lat":33.2347,"long":-98.1681},{"zip":"76459","city":"Jermyn","state":"TX","lat":33.2636,"long":-98.3931},{"zip":"76486","city":"Perrin","state":"TX","lat":33.034,"long":-98.0692},{"zip":"76449","city":"Graford","state":"TX","lat":32.9242,"long":-98.337},{"zip":"76453","city":"Gordon","state":"TX","lat":32.5478,"long":-98.3632},{"zip":"76463","city":"Mingus","state":"TX","lat":32.5381,"long":-98.4219},{"zip":"76472","city":"Santo","state":"TX","lat":32.5979,"long":-98.1797},{"zip":"76475","city":"Strawn","state":"TX","lat":32.5945,"long":-98.4995},{"zip":"76484","city":"Palo Pinto","state":"TX","lat":32.7673,"long":-98.2987},{"zip":"76439","city":"Dennis","state":"TX","lat":32.6187,"long":-97.9267},{"zip":"76485","city":"Peaster","state":"TX","lat":32.8721,"long":-97.8667},{"zip":"76487","city":"Poolville","state":"TX","lat":32.968,"long":-97.8472},{"zip":"76490","city":"Whitt","state":"TX","lat":32.9555,"long":-98.021},{"zip":"76430","city":"Albany","state":"TX","lat":32.719,"long":-99.3196},{"zip":"76464","city":"Moran","state":"TX","lat":32.5549,"long":-99.1656},{"zip":"76424","city":"Breckenridge","state":"TX","lat":32.7532,"long":-98.9099},{"zip":"76429","city":"Caddo","state":"TX","lat":32.6886,"long":-98.659},{"zip":"76483","city":"Throckmorton","state":"TX","lat":33.1794,"long":-99.1838},{"zip":"76491","city":"Woodson","state":"TX","lat":33.0741,"long":-99.0546},{"zip":"76426","city":"Bridgeport","state":"TX","lat":33.187,"long":-97.781},{"zip":"76431","city":"Chico","state":"TX","lat":33.3193,"long":-97.8031},{"zip":"76450","city":"Graham","state":"TX","lat":33.0993,"long":-98.5832},{"zip":"76460","city":"Loving","state":"TX","lat":33.2689,"long":-98.5024},{"zip":"76481","city":"South Bend","state":"TX","lat":33.0052,"long":-98.6892}]
