[{"zip":"76501","city":"Temple","state":"TX","lat":31.0895,"long":-97.3343},{"zip":"76502","city":"Temple","state":"TX","lat":31.071,"long":-97.3898},{"zip":"76503","city":"Temple","state":"TX","lat":31.054,"long":-97.3203},{"zip":"76504","city":"Temple","state":"TX","lat":31.0917,"long":-97.3648},{"zip":"76508","city":"Temple","state":"TX","lat":31.0363,"long":-97.492},{"zip":"76511","city":"Bartlett","state":"TX","lat":30.7991,"long":-97.4263},{"zip":"76513","city":"Belton","state":"TX","lat":31.0723,"long":-97.472},{"zip":"76533","city":"Heidenheimer","state":"TX","lat":31.0496,"long":-97.4936},{"zip":"76534","city":"Holland","state":"TX","lat":30.88,"long":-97.3857},{"zip":"76540","city":"Killeen","state":"TX","lat":31.1171,"long":-97.7278},{"zip":"76541","city":"Killeen","state":"TX","lat":31.1164,"long":-97.7278},{"zip":"76542","city":"Killeen","state":"TX","lat":31.0376,"long":-97.6809},{"zip":"76543","city":"Killeen","state":"TX","lat":31.1172,"long":-97.6651},{"zip":"76544","city":"Fort Hood","state":"TX","lat":31.1349,"long":-97.7756},{"zip":"76547","city":"Killeen","state":"TX","lat":31.1171,"long":-97.7278},{"zip":"76548","city":"Harker Heights","state":"TX","lat":31.0286,"long":-97.6115},{"zip":"76549","city":"Killeen","state":"TX","lat":31.0065,"long":-97.841},{"zip":"76554","city":"Little River Academy","state":"TX","lat":30.9863,"long":-97.3586},{"zip":"76559","city":"Nolanville","state":"TX","lat":31.0833,"long":-97.5941},{"zip":"76564","city":"Pendleton","state":"TX","lat":31.1952,"long":-97.3486},{"zip":"76569","city":"Rogers","state":"TX","lat":30.955,"long":-97.2228},{"zip":"76571","city":"Salado","state":"TX","lat":30.9494,"long":-97.533},{"zip":"76579","city":"Troy","state":"TX","lat":31.1759,"long":-97.2852},{"zip":"76522","city":"Copperas Cove","state":"TX","lat":31.2029,"long":-97.9301},{"zip":"76525","city":"Evant","state":"TX","lat":31.4388,"long":-98.0535},{"zip":"76526","city":"Flat","state":"TX","lat":31.2956,"long":-97.5822},{"zip":"76528","city":"Gatesville","state":"TX","lat":31.4177,"long":-97.833},{"zip":"76538","city":"Jonesboro","state":"TX","lat":31.5599,"long":-97.8456},{"zip":"76558","city":"Mound","state":"TX","lat":31.3514,"long":-97.6444},{"zip":"76561","city":"Oglesby","state":"TX","lat":31.4438,"long":-97.5501},{"zip":"76566","city":"Purmela","state":"TX","lat":31.4841,"long":-97.9903},{"zip":"76596","city":"Gatesville","state":"TX","lat":31.3902,"long":-97.7993},{"zip":"76597","city":"Gatesville","state":"TX","lat":31.3902,"long":-97.7993},{"zip":"76598","city":"Gatesville","state":"TX","lat":31.3902,"long":-97.7993},{"zip":"76599","city":"Gatesville","state":"TX","lat":31.4706,"long":-97.7347},{"zip":"76570","city":"Rosebud","state":"TX","lat":31.0922,"long":-96.9755},{"zip":"76531","city":"Hamilton","state":"TX","lat":31.6781,"long":-98.1131},{"zip":"76565","city":"Pottsville","state":"TX","lat":31.6837,"long":-98.3561},{"zip":"76539","city":"Kempner","state":"TX","lat":31.0887,"long":-98.0099},{"zip":"76550","city":"Lampasas","state":"TX","lat":31.068,"long":-98.1834},{"zip":"76524","city":"Eddy","state":"TX","lat":31.3088,"long":-97.2774},{"zip":"76557","city":"Moody","state":"TX","lat":31.2533,"long":-97.41},{"zip":"76518","city":"Buckholts","state":"TX","lat":30.8858,"long":-97.1241},{"zip":"76519","city":"Burlington","state":"TX","lat":30.9736,"long":-96.9642},{"zip":"76520","city":"Cameron","state":"TX","lat":30.8527,"long":-96.9766},{"zip":"76523","city":"Davilla","state":"TX","lat":30.7824,"long":-97.298},{"zip":"76556","city":"Milano","state":"TX","lat":30.7304,"long":-96.8807},{"zip":"76567","city":"Rockdale","state":"TX","lat":30.6583,"long":-97.0079},{"zip":"76577","city":"Thorndale","state":"TX","lat":30.6082,"long":-97.1764},{"zip":"76527","city":"Florence","state":"TX","lat":30.8076,"long":-97.7812},{"zip":"76530","city":"Granger","state":"TX","lat":30.7398,"long":-97.4451},{"zip":"76537","city":"Jarrell","state":"TX","lat":30.8119,"long":-97.5942},{"zip":"76573","city":"Schwertner","state":"TX","lat":30.8055,"long":-97.4705},{"zip":"76574","city":"Taylor","state":"TX","lat":30.5708,"long":-97.4094},{"zip":"76578","city":"Thrall","state":"TX","lat":30.592,"long":-97.2893}]
