[{"zip":"76634","city":"Clifton","state":"TX","lat":31.7918,"long":-97.5203},{"zip":"76637","city":"Cranfills Gap","state":"TX","lat":31.7486,"long":-97.8113},{"zip":"76644","city":"Laguna Park","state":"TX","lat":31.8593,"long":-97.3797},{"zip":"76649","city":"Iredell","state":"TX","lat":31.9722,"long":-97.8793},{"zip":"76652","city":"Kopperl","state":"TX","lat":32.1035,"long":-97.5421},{"zip":"76665","city":"Meridian","state":"TX","lat":31.929,"long":-97.6443},{"zip":"76671","city":"Morgan","state":"TX","lat":32.0195,"long":-97.5608},{"zip":"76689","city":"Valley Mills","state":"TX","lat":31.6599,"long":-97.4935},{"zip":"76690","city":"Walnut Springs","state":"TX","lat":32.0593,"long":-97.7514},{"zip":"76623","city":"Avalon","state":"TX","lat":32.2054,"long":-96.79},{"zip":"76651","city":"Italy","state":"TX","lat":32.1785,"long":-96.8823},{"zip":"76670","city":"Milford","state":"TX","lat":32.1482,"long":-96.9612},{"zip":"76632","city":"Chilton","state":"TX","lat":31.31,"long":-97.09},{"zip":"76656","city":"Lott","state":"TX","lat":31.1925,"long":-97.0581},{"zip":"76661","city":"Marlin","state":"TX","lat":31.3036,"long":-96.8889},{"zip":"76680","city":"Reagan","state":"TX","lat":31.1871,"long":-96.7998},{"zip":"76685","city":"Satin","state":"TX","lat":31.3601,"long":-97.0108},{"zip":"76693","city":"Wortham","state":"TX","lat":31.7865,"long":-96.4202},{"zip":"76621","city":"Abbott","state":"TX","lat":31.8916,"long":-97.0671},{"zip":"76622","city":"Aquilla","state":"TX","lat":31.8589,"long":-97.2258},{"zip":"76627","city":"Blum","state":"TX","lat":32.1052,"long":-97.3652},{"zip":"76628","city":"Brandon","state":"TX","lat":32.0544,"long":-96.9756},{"zip":"76631","city":"Bynum","state":"TX","lat":31.9907,"long":-96.9837},{"zip":"76636","city":"Covington","state":"TX","lat":32.1595,"long":-97.2591},{"zip":"76645","city":"Hillsboro","state":"TX","lat":32.0149,"long":-97.1198},{"zip":"76648","city":"Hubbard","state":"TX","lat":31.8436,"long":-96.8},{"zip":"76650","city":"Irene","state":"TX","lat":31.9921,"long":-96.8714},{"zip":"76660","city":"Malone","state":"TX","lat":31.924,"long":-96.8907},{"zip":"76666","city":"Mertens","state":"TX","lat":32.0275,"long":-96.8981},{"zip":"76673","city":"Mount Calm","state":"TX","lat":31.7575,"long":-96.8944},{"zip":"76676","city":"Penelope","state":"TX","lat":31.8551,"long":-96.9372},{"zip":"76692","city":"Whitney","state":"TX","lat":31.9713,"long":-97.3463},{"zip":"76635","city":"Coolidge","state":"TX","lat":31.7438,"long":-96.6577},{"zip":"76642","city":"Groesbeck","state":"TX","lat":31.5357,"long":-96.5234},{"zip":"76653","city":"Kosse","state":"TX","lat":31.3147,"long":-96.6195},{"zip":"76667","city":"Mexia","state":"TX","lat":31.6784,"long":-96.4952},{"zip":"76678","city":"Prairie Hill","state":"TX","lat":31.6591,"long":-96.8094},{"zip":"76686","city":"Tehuacana","state":"TX","lat":31.7504,"long":-96.5416},{"zip":"76687","city":"Thornton","state":"TX","lat":31.4083,"long":-96.5024},{"zip":"76624","city":"Axtell","state":"TX","lat":31.661,"long":-96.9882},{"zip":"76630","city":"Bruceville","state":"TX","lat":31.3267,"long":-97.2342},{"zip":"76633","city":"China Spring","state":"TX","lat":31.6673,"long":-97.3002},{"zip":"76638","city":"Crawford","state":"TX","lat":31.5598,"long":-97.39},{"zip":"76640","city":"Elm Mott","state":"TX","lat":31.6725,"long":-97.1138},{"zip":"76643","city":"Hewitt","state":"TX","lat":31.4582,"long":-97.1966},{"zip":"76654","city":"Leroy","state":"TX","lat":31.5536,"long":-97.2032},{"zip":"76655","city":"Lorena","state":"TX","lat":31.4093,"long":-97.2302},{"zip":"76657","city":"Mc Gregor","state":"TX","lat":31.4431,"long":-97.3943},{"zip":"76664","city":"Mart","state":"TX","lat":31.5458,"long":-96.8381},{"zip":"76682","city":"Riesel","state":"TX","lat":31.5002,"long":-96.9476},{"zip":"76684","city":"Ross","state":"TX","lat":31.7173,"long":-97.1188},{"zip":"76691","city":"West","state":"TX","lat":31.7754,"long":-97.1258},{"zip":"76626","city":"Blooming Grove","state":"TX","lat":32.0758,"long":-96.701},{"zip":"76639","city":"Dawson","state":"TX","lat":31.8974,"long":-96.7085},{"zip":"76641","city":"Frost","state":"TX","lat":32.0275,"long":-96.7684},{"zip":"76679","city":"Purdon","state":"TX","lat":31.9483,"long":-96.5856},{"zip":"76681","city":"Richland","state":"TX","lat":31.9018,"long":-96.4373},{"zip":"76629","city":"Bremond","state":"TX","lat":31.156,"long":-96.6697}]
