[{"zip":"76701","city":"Waco","state":"TX","lat":31.5525,"long":-97.1396},{"zip":"76702","city":"Waco","state":"TX","lat":31.5475,"long":-97.1443},{"zip":"76703","city":"Waco","state":"TX","lat":31.5536,"long":-97.2032},{"zip":"76704","city":"Waco","state":"TX","lat":31.5773,"long":-97.1241},{"zip":"76705","city":"Waco","state":"TX","lat":31.6403,"long":-97.0963},{"zip":"76706","city":"Waco","state":"TX","lat":31.5171,"long":-97.1198},{"zip":"76707","city":"Waco","state":"TX","lat":31.5527,"long":-97.1588},{"zip":"76708","city":"Waco","state":"TX","lat":31.5765,"long":-97.1786},{"zip":"76710","city":"Waco","state":"TX","lat":31.535,"long":-97.1899},{"zip":"76711","city":"Waco","state":"TX","lat":31.5175,"long":-97.1547},{"zip":"76712","city":"Woodway","state":"TX","lat":31.5051,"long":-97.2311},{"zip":"76714","city":"Waco","state":"TX","lat":31.5536,"long":-97.2032},{"zip":"76715","city":"Waco","state":"TX","lat":31.5536,"long":-97.2032},{"zip":"76716","city":"Waco","state":"TX","lat":31.5536,"long":-97.2032},{"zip":"76797","city":"Waco","state":"TX","lat":31.5536,"long":-97.2032},{"zip":"76798","city":"Waco","state":"TX","lat":31.547,"long":-97.1203},{"zip":"76799","city":"Waco","state":"TX","lat":31.5411,"long":-97.1615}]
