[{"zip":"76801","city":"Brownwood","state":"TX","lat":31.7754,"long":-98.9915},{"zip":"76802","city":"Early","state":"TX","lat":31.7874,"long":-98.9229},{"zip":"76803","city":"Early","state":"TX","lat":31.7421,"long":-98.9456},{"zip":"76804","city":"Brownwood","state":"TX","lat":31.7742,"long":-99.0921},{"zip":"76823","city":"Bangs","state":"TX","lat":31.7503,"long":-99.1568},{"zip":"76827","city":"Brookesmith","state":"TX","lat":31.5176,"long":-99.1277},{"zip":"76857","city":"May","state":"TX","lat":31.9571,"long":-98.9656},{"zip":"76890","city":"Zephyr","state":"TX","lat":31.6694,"long":-98.8182},{"zip":"76828","city":"Burkett","state":"TX","lat":31.9986,"long":-99.2553},{"zip":"76834","city":"Coleman","state":"TX","lat":31.8287,"long":-99.427},{"zip":"76845","city":"Gouldbusk","state":"TX","lat":31.5549,"long":-99.4767},{"zip":"76873","city":"Rockwood","state":"TX","lat":31.5037,"long":-99.3746},{"zip":"76878","city":"Santa Anna","state":"TX","lat":31.7215,"long":-99.3212},{"zip":"76882","city":"Talpa","state":"TX","lat":31.8034,"long":-99.6747},{"zip":"76884","city":"Valera","state":"TX","lat":31.7529,"long":-99.5473},{"zip":"76888","city":"Voss","state":"TX","lat":31.5892,"long":-99.6326},{"zip":"76837","city":"Eden","state":"TX","lat":31.2192,"long":-99.8407},{"zip":"76855","city":"Lowake","state":"TX","lat":31.5663,"long":-100.0759},{"zip":"76862","city":"Millersview","state":"TX","lat":31.4167,"long":-99.7171},{"zip":"76866","city":"Paint Rock","state":"TX","lat":31.5048,"long":-99.9139},{"zip":"76883","city":"Telegraph","state":"TX","lat":30.3274,"long":-99.9062},{"zip":"76849","city":"Junction","state":"TX","lat":30.4754,"long":-99.7473},{"zip":"76854","city":"London","state":"TX","lat":30.6768,"long":-99.5765},{"zip":"76874","city":"Roosevelt","state":"TX","lat":30.47,"long":-100.0901},{"zip":"76824","city":"Bend","state":"TX","lat":31.1123,"long":-98.4821},{"zip":"76853","city":"Lometa","state":"TX","lat":31.2167,"long":-98.4006},{"zip":"76831","city":"Castell","state":"TX","lat":30.7565,"long":-98.9712},{"zip":"76885","city":"Valley Spring","state":"TX","lat":30.866,"long":-98.8357},{"zip":"76825","city":"Brady","state":"TX","lat":31.1509,"long":-99.3372},{"zip":"76836","city":"Doole","state":"TX","lat":31.3957,"long":-99.599},{"zip":"76852","city":"Lohn","state":"TX","lat":31.3173,"long":-99.3833},{"zip":"76858","city":"Melvin","state":"TX","lat":31.1952,"long":-99.5798},{"zip":"76872","city":"Rochelle","state":"TX","lat":31.3,"long":-99.1572},{"zip":"76887","city":"Voca","state":"TX","lat":30.9959,"long":-99.1682},{"zip":"76820","city":"Art","state":"TX","lat":30.767,"long":-99.0486},{"zip":"76842","city":"Fredonia","state":"TX","lat":30.9214,"long":-99.1216},{"zip":"76856","city":"Mason","state":"TX","lat":30.7434,"long":-99.2261},{"zip":"76869","city":"Pontotoc","state":"TX","lat":30.8906,"long":-99.0212},{"zip":"76841","city":"Fort Mc Kavett","state":"TX","lat":30.829,"long":-100.0809},{"zip":"76848","city":"Hext","state":"TX","lat":30.8816,"long":-99.554},{"zip":"76859","city":"Menard","state":"TX","lat":30.9119,"long":-99.7847},{"zip":"76844","city":"Goldthwaite","state":"TX","lat":31.4458,"long":-98.5744},{"zip":"76864","city":"Mullin","state":"TX","lat":31.5748,"long":-98.6635},{"zip":"76870","city":"Priddy","state":"TX","lat":31.641,"long":-98.5276},{"zip":"76880","city":"Star","state":"TX","lat":31.4685,"long":-98.3161},{"zip":"76821","city":"Ballinger","state":"TX","lat":31.7468,"long":-99.9589},{"zip":"76861","city":"Miles","state":"TX","lat":31.6121,"long":-100.1823},{"zip":"76865","city":"Norton","state":"TX","lat":31.8795,"long":-100.1315},{"zip":"76875","city":"Rowena","state":"TX","lat":31.6436,"long":-100.0191},{"zip":"76832","city":"Cherokee","state":"TX","lat":30.9806,"long":-98.6633},{"zip":"76871","city":"Richland Springs","state":"TX","lat":31.3003,"long":-98.9128},{"zip":"76877","city":"San Saba","state":"TX","lat":31.1627,"long":-98.7309},{"zip":"76886","city":"Veribest","state":"TX","lat":31.4766,"long":-100.2595}]
