[{"zip":"76933","city":"Bronte","state":"TX","lat":31.8789,"long":-100.2988},{"zip":"76945","city":"Robert Lee","state":"TX","lat":31.8951,"long":-100.5104},{"zip":"76949","city":"Silver","state":"TX","lat":32.0484,"long":-100.6922},{"zip":"76953","city":"Tennyson","state":"TX","lat":31.7397,"long":-100.2884},{"zip":"76937","city":"Eola","state":"TX","lat":31.3617,"long":-100.0922},{"zip":"76943","city":"Ozona","state":"TX","lat":30.7164,"long":-101.2388},{"zip":"76930","city":"Barnhart","state":"TX","lat":31.1596,"long":-101.1918},{"zip":"76941","city":"Mertzon","state":"TX","lat":31.2829,"long":-100.8221},{"zip":"76932","city":"Big Lake","state":"TX","lat":31.417,"long":-101.5423},{"zip":"76936","city":"Eldorado","state":"TX","lat":30.8667,"long":-100.5889},{"zip":"76951","city":"Sterling City","state":"TX","lat":31.8351,"long":-101.0017},{"zip":"76950","city":"Sonora","state":"TX","lat":30.5558,"long":-100.6307},{"zip":"76901","city":"San Angelo","state":"TX","lat":31.4782,"long":-100.4818},{"zip":"76902","city":"San Angelo","state":"TX","lat":31.4638,"long":-100.437},{"zip":"76903","city":"San Angelo","state":"TX","lat":31.4707,"long":-100.4386},{"zip":"76904","city":"San Angelo","state":"TX","lat":31.4194,"long":-100.48},{"zip":"76905","city":"San Angelo","state":"TX","lat":31.4647,"long":-100.39},{"zip":"76906","city":"San Angelo","state":"TX","lat":31.4638,"long":-100.437},{"zip":"76908","city":"Goodfellow Afb","state":"TX","lat":31.4321,"long":-100.4022},{"zip":"76909","city":"San Angelo","state":"TX","lat":31.4638,"long":-100.437},{"zip":"76934","city":"Carlsbad","state":"TX","lat":31.6266,"long":-100.6694},{"zip":"76935","city":"Christoval","state":"TX","lat":31.2346,"long":-100.5203},{"zip":"76939","city":"Knickerbocker","state":"TX","lat":31.2501,"long":-100.592},{"zip":"76940","city":"Mereta","state":"TX","lat":31.4518,"long":-100.1349},{"zip":"76955","city":"Vancourt","state":"TX","lat":31.3132,"long":-100.1328},{"zip":"76957","city":"Wall","state":"TX","lat":31.3741,"long":-100.3076},{"zip":"76958","city":"Water Valley","state":"TX","lat":31.6453,"long":-100.716}]
