[{"zip":"77418","city":"Bellville","state":"TX","lat":29.9658,"long":-96.2531},{"zip":"77452","city":"Kenney","state":"TX","lat":30.0477,"long":-96.3269},{"zip":"77473","city":"San Felipe","state":"TX","lat":29.8019,"long":-96.1014},{"zip":"77474","city":"Sealy","state":"TX","lat":29.7826,"long":-96.1592},{"zip":"77485","city":"Wallis","state":"TX","lat":29.6397,"long":-96.0456},{"zip":"77422","city":"Brazoria","state":"TX","lat":29.0236,"long":-95.5867},{"zip":"77430","city":"Damon","state":"TX","lat":29.3014,"long":-95.7036},{"zip":"77431","city":"Danciger","state":"TX","lat":29.1737,"long":-95.8207},{"zip":"77463","city":"Old Ocean","state":"TX","lat":29.08,"long":-95.7497},{"zip":"77480","city":"Sweeny","state":"TX","lat":29.0415,"long":-95.7004},{"zip":"77486","city":"West Columbia","state":"TX","lat":29.1408,"long":-95.6694},{"zip":"77511","city":"Alvin","state":"TX","lat":29.412,"long":-95.2515},{"zip":"77512","city":"Alvin","state":"TX","lat":29.4238,"long":-95.2441},{"zip":"77515","city":"Angleton","state":"TX","lat":29.181,"long":-95.4467},{"zip":"77516","city":"Angleton","state":"TX","lat":29.1694,"long":-95.4319},{"zip":"77531","city":"Clute","state":"TX","lat":29.0325,"long":-95.4026},{"zip":"77534","city":"Danbury","state":"TX","lat":29.2291,"long":-95.3435},{"zip":"77541","city":"Freeport","state":"TX","lat":29.0357,"long":-95.3379},{"zip":"77542","city":"Freeport","state":"TX","lat":28.9541,"long":-95.3597},{"zip":"77566","city":"Lake Jackson","state":"TX","lat":29.0393,"long":-95.4401},{"zip":"77577","city":"Liverpool","state":"TX","lat":29.2667,"long":-95.2889},{"zip":"77578","city":"Manvel","state":"TX","lat":29.4694,"long":-95.3503},{"zip":"77581","city":"Pearland","state":"TX","lat":29.5617,"long":-95.2721},{"zip":"77583","city":"Rosharon","state":"TX","lat":29.4203,"long":-95.4537},{"zip":"77584","city":"Pearland","state":"TX","lat":29.5405,"long":-95.3208},{"zip":"77588","city":"Pearland","state":"TX","lat":29.5127,"long":-95.2542},{"zip":"77801","city":"Bryan","state":"TX","lat":30.6327,"long":-96.3662},{"zip":"77802","city":"Bryan","state":"TX","lat":30.6582,"long":-96.3351},{"zip":"77803","city":"Bryan","state":"TX","lat":30.6913,"long":-96.3714},{"zip":"77805","city":"Bryan","state":"TX","lat":30.6521,"long":-96.341},{"zip":"77806","city":"Bryan","state":"TX","lat":30.6744,"long":-96.37},{"zip":"77807","city":"Bryan","state":"TX","lat":30.6711,"long":-96.4799},{"zip":"77808","city":"Bryan","state":"TX","lat":30.8202,"long":-96.3059},{"zip":"77840","city":"College Station","state":"TX","lat":30.6045,"long":-96.3123},{"zip":"77841","city":"College Station","state":"TX","lat":30.5726,"long":-96.327},{"zip":"77842","city":"College Station","state":"TX","lat":30.6521,"long":-96.341},{"zip":"77843","city":"College Station","state":"TX","lat":30.6521,"long":-96.341},{"zip":"77844","city":"College Station","state":"TX","lat":30.6521,"long":-96.341},{"zip":"77845","city":"College Station","state":"TX","lat":30.5118,"long":-96.3171},{"zip":"77862","city":"Kurten","state":"TX","lat":30.7871,"long":-96.2641},{"zip":"77866","city":"Millican","state":"TX","lat":30.4491,"long":-96.217},{"zip":"77881","city":"Wellborn","state":"TX","lat":30.5334,"long":-96.3032},{"zip":"77836","city":"Caldwell","state":"TX","lat":30.5298,"long":-96.7143},{"zip":"77838","city":"Chriesman","state":"TX","lat":30.5994,"long":-96.7708},{"zip":"77852","city":"Deanville","state":"TX","lat":30.4322,"long":-96.7561},{"zip":"77863","city":"Lyons","state":"TX","lat":30.3863,"long":-96.5633},{"zip":"77878","city":"Snook","state":"TX","lat":30.4702,"long":-96.4804},{"zip":"77879","city":"Somerville","state":"TX","lat":30.4076,"long":-96.5358},{"zip":"77978","city":"Point Comfort","state":"TX","lat":28.6651,"long":-96.5506},{"zip":"77979","city":"Port Lavaca","state":"TX","lat":28.6011,"long":-96.6259},{"zip":"77982","city":"Port O Connor","state":"TX","lat":28.4483,"long":-96.4058},{"zip":"77983","city":"Seadrift","state":"TX","lat":28.4101,"long":-96.7023},{"zip":"77514","city":"Anahuac","state":"TX","lat":29.662,"long":-94.593},{"zip":"77523","city":"Baytown","state":"TX","lat":29.77,"long":-94.8608},{"zip":"77560","city":"Hankamer","state":"TX","lat":29.8752,"long":-94.5938},{"zip":"77580","city":"Mont Belvieu","state":"TX","lat":29.8561,"long":-94.8429},{"zip":"77597","city":"Wallisville","state":"TX","lat":29.8591,"long":-94.6759},{"zip":"77661","city":"Stowell","state":"TX","lat":29.7809,"long":-94.39},{"zip":"77665","city":"Winnie","state":"TX","lat":29.8157,"long":-94.3395},{"zip":"77412","city":"Altair","state":"TX","lat":29.6047,"long":-96.5249},{"zip":"77434","city":"Eagle Lake","state":"TX","lat":29.5842,"long":-96.3354},{"zip":"77442","city":"Garwood","state":"TX","lat":29.476,"long":-96.4919},{"zip":"77460","city":"Nada","state":"TX","lat":29.405,"long":-96.3864},{"zip":"77470","city":"Rock Island","state":"TX","lat":29.5311,"long":-96.5752},{"zip":"77475","city":"Sheridan","state":"TX","lat":29.4936,"long":-96.6711},{"zip":"77954","city":"Cuero","state":"TX","lat":29.091,"long":-97.2812},{"zip":"77967","city":"Hochheim","state":"TX","lat":29.3125,"long":-97.2917},{"zip":"77974","city":"Meyersville","state":"TX","lat":28.9229,"long":-97.3042},{"zip":"77989","city":"Thomaston","state":"TX","lat":28.9974,"long":-97.1539},{"zip":"77994","city":"Westhoff","state":"TX","lat":29.1792,"long":-97.46},{"zip":"77406","city":"Richmond","state":"TX","lat":29.6436,"long":-95.798},{"zip":"77407","city":"Richmond","state":"TX","lat":29.6625,"long":-95.7272},{"zip":"77417","city":"Beasley","state":"TX","lat":29.479,"long":-95.9681},{"zip":"77441","city":"Fulshear","state":"TX","lat":29.7217,"long":-95.8977},{"zip":"77444","city":"Guy","state":"TX","lat":29.3327,"long":-95.7702},{"zip":"77451","city":"Kendleton","state":"TX","lat":29.447,"long":-96.0036},{"zip":"77459","city":"Missouri City","state":"TX","lat":29.5704,"long":-95.5423},{"zip":"77461","city":"Needville","state":"TX","lat":29.4117,"long":-95.8273},{"zip":"77464","city":"Orchard","state":"TX","lat":29.5948,"long":-95.9727},{"zip":"77469","city":"Richmond","state":"TX","lat":29.5511,"long":-95.7329},{"zip":"77471","city":"Rosenberg","state":"TX","lat":29.5497,"long":-95.7982},{"zip":"77476","city":"Simonton","state":"TX","lat":29.6794,"long":-95.9772},{"zip":"77477","city":"Stafford","state":"TX","lat":29.6228,"long":-95.5678},{"zip":"77478","city":"Sugar Land","state":"TX","lat":29.6196,"long":-95.607},{"zip":"77479","city":"Sugar Land","state":"TX","lat":29.5785,"long":-95.6066},{"zip":"77481","city":"Thompsons","state":"TX","lat":29.4683,"long":-95.5776},{"zip":"77487","city":"Sugar Land","state":"TX","lat":29.6197,"long":-95.6349},{"zip":"77489","city":"Missouri City","state":"TX","lat":29.5962,"long":-95.5115},{"zip":"77496","city":"Sugar Land","state":"TX","lat":29.5255,"long":-95.7565},{"zip":"77497","city":"Stafford","state":"TX","lat":29.6161,"long":-95.5577},{"zip":"77498","city":"Sugar Land","state":"TX","lat":29.6396,"long":-95.65},{"zip":"77545","city":"Fresno","state":"TX","lat":29.5293,"long":-95.4626},{"zip":"77510","city":"Santa Fe","state":"TX","lat":29.4032,"long":-95.0734},{"zip":"77517","city":"Santa Fe","state":"TX","lat":29.3673,"long":-95.1361},{"zip":"77518","city":"Bacliff","state":"TX","lat":29.5055,"long":-94.9893},{"zip":"77539","city":"Dickinson","state":"TX","lat":29.4585,"long":-95.0345},{"zip":"77546","city":"Friendswood","state":"TX","lat":29.5224,"long":-95.1879},{"zip":"77549","city":"Friendswood","state":"TX","lat":29.5294,"long":-95.201},{"zip":"77550","city":"Galveston","state":"TX","lat":29.2983,"long":-94.793},{"zip":"77551","city":"Galveston","state":"TX","lat":29.2766,"long":-94.8303},{"zip":"77552","city":"Galveston","state":"TX","lat":29.2205,"long":-94.9444},{"zip":"77553","city":"Galveston","state":"TX","lat":29.3322,"long":-94.8002},{"zip":"77554","city":"Galveston","state":"TX","lat":29.2243,"long":-94.9637},{"zip":"77555","city":"Galveston","state":"TX","lat":29.3305,"long":-94.8002},{"zip":"77563","city":"Hitchcock","state":"TX","lat":29.3398,"long":-94.9926},{"zip":"77565","city":"Kemah","state":"TX","lat":29.5236,"long":-95.0276},{"zip":"77568","city":"La Marque","state":"TX","lat":29.3676,"long":-94.9742},{"zip":"77573","city":"League City","state":"TX","lat":29.5173,"long":-95.0963},{"zip":"77574","city":"League City","state":"TX","lat":29.5116,"long":-95.0582},{"zip":"77590","city":"Texas City","state":"TX","lat":29.397,"long":-94.9203},{"zip":"77591","city":"Texas City","state":"TX","lat":29.3891,"long":-94.9942},{"zip":"77592","city":"Texas City","state":"TX","lat":29.3305,"long":-94.8002},{"zip":"77617","city":"Gilchrist","state":"TX","lat":29.523,"long":-94.4755},{"zip":"77623","city":"High Island","state":"TX","lat":29.5472,"long":-94.4267},{"zip":"77650","city":"Port Bolivar","state":"TX","lat":29.4266,"long":-94.6861},{"zip":"77960","city":"Fannin","state":"TX","lat":28.6778,"long":-97.2606},{"zip":"77963","city":"Goliad","state":"TX","lat":28.6993,"long":-97.3783},{"zip":"77993","city":"Weesatche","state":"TX","lat":28.8358,"long":-97.4442},{"zip":"77363","city":"Plantersville","state":"TX","lat":30.2969,"long":-95.8498},{"zip":"77830","city":"Anderson","state":"TX","lat":30.5443,"long":-96.0018},{"zip":"77831","city":"Bedias","state":"TX","lat":30.7065,"long":-95.9546},{"zip":"77861","city":"Iola","state":"TX","lat":30.7326,"long":-96.0911},{"zip":"77868","city":"Navasota","state":"TX","lat":30.3576,"long":-96.0594},{"zip":"77873","city":"Richards","state":"TX","lat":30.5796,"long":-95.8959},{"zip":"77875","city":"Roans Prairie","state":"TX","lat":30.6075,"long":-95.9579},{"zip":"77876","city":"Shiro","state":"TX","lat":30.6752,"long":-95.8285},{"zip":"77374","city":"Thicket","state":"TX","lat":30.3765,"long":-94.6361},{"zip":"77376","city":"Votaw","state":"TX","lat":30.4334,"long":-94.6804},{"zip":"77519","city":"Batson","state":"TX","lat":30.225,"long":-94.6096},{"zip":"77585","city":"Saratoga","state":"TX","lat":30.2841,"long":-94.5294},{"zip":"77625","city":"Kountze","state":"TX","lat":30.3703,"long":-94.3259},{"zip":"77656","city":"Silsbee","state":"TX","lat":30.3244,"long":-94.1907},{"zip":"77657","city":"Lumberton","state":"TX","lat":30.2818,"long":-94.2191},{"zip":"77659","city":"Sour Lake","state":"TX","lat":30.1491,"long":-94.3733},{"zip":"77663","city":"Village Mills","state":"TX","lat":30.5185,"long":-94.4458},{"zip":"77001","city":"Houston","state":"TX","lat":29.8131,"long":-95.3098},{"zip":"77002","city":"Houston","state":"TX","lat":29.7594,"long":-95.3594},{"zip":"77003","city":"Houston","state":"TX","lat":29.7489,"long":-95.3391},{"zip":"77004","city":"Houston","state":"TX","lat":29.7247,"long":-95.3625},{"zip":"77005","city":"Houston","state":"TX","lat":29.7179,"long":-95.4263},{"zip":"77006","city":"Houston","state":"TX","lat":29.7409,"long":-95.3923},{"zip":"77007","city":"Houston","state":"TX","lat":29.7736,"long":-95.4034},{"zip":"77008","city":"Houston","state":"TX","lat":29.7991,"long":-95.4118},{"zip":"77009","city":"Houston","state":"TX","lat":29.7936,"long":-95.3675},{"zip":"77010","city":"Houston","state":"TX","lat":29.7543,"long":-95.3609},{"zip":"77011","city":"Houston","state":"TX","lat":29.742,"long":-95.3073},{"zip":"77012","city":"Houston","state":"TX","lat":29.7149,"long":-95.2819},{"zip":"77013","city":"Houston","state":"TX","lat":29.7842,"long":-95.2301},{"zip":"77014","city":"Houston","state":"TX","lat":29.9796,"long":-95.4625},{"zip":"77015","city":"Houston","state":"TX","lat":29.7853,"long":-95.1852},{"zip":"77016","city":"Houston","state":"TX","lat":29.8579,"long":-95.3032},{"zip":"77017","city":"Houston","state":"TX","lat":29.6863,"long":-95.2555},{"zip":"77018","city":"Houston","state":"TX","lat":29.8272,"long":-95.4266},{"zip":"77019","city":"Houston","state":"TX","lat":29.7517,"long":-95.4054},{"zip":"77020","city":"Houston","state":"TX","lat":29.7758,"long":-95.3121},{"zip":"77021","city":"Houston","state":"TX","lat":29.6954,"long":-95.3562},{"zip":"77022","city":"Houston","state":"TX","lat":29.8299,"long":-95.3769},{"zip":"77023","city":"Houston","state":"TX","lat":29.7242,"long":-95.3178},{"zip":"77024","city":"Houston","state":"TX","lat":29.7696,"long":-95.5201},{"zip":"77025","city":"Houston","state":"TX","lat":29.6889,"long":-95.4341},{"zip":"77026","city":"Houston","state":"TX","lat":29.7972,"long":-95.3288},{"zip":"77027","city":"Houston","state":"TX","lat":29.7396,"long":-95.446},{"zip":"77028","city":"Houston","state":"TX","lat":29.8297,"long":-95.2879},{"zip":"77029","city":"Houston","state":"TX","lat":29.763,"long":-95.2567},{"zip":"77030","city":"Houston","state":"TX","lat":29.7041,"long":-95.401},{"zip":"77031","city":"Houston","state":"TX","lat":29.6581,"long":-95.5413},{"zip":"77032","city":"Houston","state":"TX","lat":29.9368,"long":-95.3299},{"zip":"77033","city":"Houston","state":"TX","lat":29.6686,"long":-95.3382},{"zip":"77034","city":"Houston","state":"TX","lat":29.6364,"long":-95.2216},{"zip":"77035","city":"Houston","state":"TX","lat":29.6518,"long":-95.4854},{"zip":"77036","city":"Houston","state":"TX","lat":29.6984,"long":-95.5405},{"zip":"77037","city":"Houston","state":"TX","lat":29.8892,"long":-95.3935},{"zip":"77038","city":"Houston","state":"TX","lat":29.9196,"long":-95.4386},{"zip":"77039","city":"Houston","state":"TX","lat":29.9067,"long":-95.3334},{"zip":"77040","city":"Houston","state":"TX","lat":29.8744,"long":-95.5278},{"zip":"77041","city":"Houston","state":"TX","lat":29.8602,"long":-95.5817},{"zip":"77042","city":"Houston","state":"TX","lat":29.7404,"long":-95.5589},{"zip":"77043","city":"Houston","state":"TX","lat":29.8052,"long":-95.5607},{"zip":"77044","city":"Houston","state":"TX","lat":29.8635,"long":-95.1976},{"zip":"77045","city":"Houston","state":"TX","lat":29.6297,"long":-95.4382},{"zip":"77046","city":"Houston","state":"TX","lat":29.733,"long":-95.4306},{"zip":"77047","city":"Houston","state":"TX","lat":29.6254,"long":-95.375},{"zip":"77048","city":"Houston","state":"TX","lat":29.6321,"long":-95.3416},{"zip":"77049","city":"Houston","state":"TX","lat":29.8235,"long":-95.1848},{"zip":"77050","city":"Houston","state":"TX","lat":29.9015,"long":-95.2848},{"zip":"77051","city":"Houston","state":"TX","lat":29.6579,"long":-95.3688},{"zip":"77052","city":"Houston","state":"TX","lat":29.7633,"long":-95.3633},{"zip":"77053","city":"Houston","state":"TX","lat":29.5962,"long":-95.4587},{"zip":"77054","city":"Houston","state":"TX","lat":29.6852,"long":-95.4017},{"zip":"77055","city":"Houston","state":"TX","lat":29.7971,"long":-95.4958},{"zip":"77056","city":"Houston","state":"TX","lat":29.7446,"long":-95.4683},{"zip":"77057","city":"Houston","state":"TX","lat":29.7422,"long":-95.4903},{"zip":"77058","city":"Houston","state":"TX","lat":29.5716,"long":-95.0998},{"zip":"77059","city":"Houston","state":"TX","lat":29.5975,"long":-95.1134},{"zip":"77060","city":"Houston","state":"TX","lat":29.9335,"long":-95.3981},{"zip":"77061","city":"Houston","state":"TX","lat":29.6652,"long":-95.279},{"zip":"77062","city":"Houston","state":"TX","lat":29.5721,"long":-95.1303},{"zip":"77063","city":"Houston","state":"TX","lat":29.7348,"long":-95.522},{"zip":"77064","city":"Houston","state":"TX","lat":29.919,"long":-95.5569},{"zip":"77065","city":"Houston","state":"TX","lat":29.9319,"long":-95.6106},{"zip":"77066","city":"Houston","state":"TX","lat":29.961,"long":-95.4947},{"zip":"77067","city":"Houston","state":"TX","lat":29.9547,"long":-95.4522},{"zip":"77068","city":"Houston","state":"TX","lat":30.0069,"long":-95.4897},{"zip":"77069","city":"Houston","state":"TX","lat":29.9863,"long":-95.5208},{"zip":"77070","city":"Houston","state":"TX","lat":29.9781,"long":-95.5803},{"zip":"77071","city":"Houston","state":"TX","lat":29.6518,"long":-95.5176},{"zip":"77072","city":"Houston","state":"TX","lat":29.699,"long":-95.5862},{"zip":"77073","city":"Houston","state":"TX","lat":30.0198,"long":-95.4087},{"zip":"77074","city":"Houston","state":"TX","lat":29.6896,"long":-95.5106},{"zip":"77075","city":"Houston","state":"TX","lat":29.6223,"long":-95.26},{"zip":"77076","city":"Houston","state":"TX","lat":29.858,"long":-95.3834},{"zip":"77077","city":"Houston","state":"TX","lat":29.7477,"long":-95.603},{"zip":"77078","city":"Houston","state":"TX","lat":29.8497,"long":-95.2582},{"zip":"77079","city":"Houston","state":"TX","lat":29.7738,"long":-95.598},{"zip":"77080","city":"Houston","state":"TX","lat":29.8159,"long":-95.523},{"zip":"77081","city":"Houston","state":"TX","lat":29.7119,"long":-95.4845},{"zip":"77082","city":"Houston","state":"TX","lat":29.7223,"long":-95.6285},{"zip":"77083","city":"Houston","state":"TX","lat":29.6947,"long":-95.6511},{"zip":"77084","city":"Houston","state":"TX","lat":29.844,"long":-95.6623},{"zip":"77085","city":"Houston","state":"TX","lat":29.6218,"long":-95.4819},{"zip":"77086","city":"Houston","state":"TX","lat":29.9227,"long":-95.4939},{"zip":"77087","city":"Houston","state":"TX","lat":29.6876,"long":-95.3011},{"zip":"77088","city":"Houston","state":"TX","lat":29.8817,"long":-95.4539},{"zip":"77089","city":"Houston","state":"TX","lat":29.594,"long":-95.2218},{"zip":"77090","city":"Houston","state":"TX","lat":30.0167,"long":-95.447},{"zip":"77091","city":"Houston","state":"TX","lat":29.8534,"long":-95.4435},{"zip":"77092","city":"Houston","state":"TX","lat":29.8324,"long":-95.472},{"zip":"77093","city":"Houston","state":"TX","lat":29.8617,"long":-95.3403},{"zip":"77094","city":"Houston","state":"TX","lat":29.7705,"long":-95.7107},{"zip":"77095","city":"Houston","state":"TX","lat":29.8941,"long":-95.6481},{"zip":"77096","city":"Houston","state":"TX","lat":29.6722,"long":-95.4861},{"zip":"77098","city":"Houston","state":"TX","lat":29.735,"long":-95.4118},{"zip":"77099","city":"Houston","state":"TX","lat":29.6709,"long":-95.5866},{"zip":"77201","city":"Houston","state":"TX","lat":29.834,"long":-95.4342},{"zip":"77202","city":"Houston","state":"TX","lat":29.834,"long":-95.4342},{"zip":"77203","city":"Houston","state":"TX","lat":29.7633,"long":-95.3633},{"zip":"77204","city":"Houston","state":"TX","lat":29.834,"long":-95.4342},{"zip":"77205","city":"Houston","state":"TX","lat":29.834,"long":-95.4342},{"zip":"77206","city":"Houston","state":"TX","lat":29.834,"long":-95.4342},{"zip":"77207","city":"Houston","state":"TX","lat":29.834,"long":-95.4342},{"zip":"77208","city":"Houston","state":"TX","lat":29.7633,"long":-95.3633},{"zip":"77209","city":"Houston","state":"TX","lat":29.7633,"long":-95.3633},{"zip":"77210","city":"Houston","state":"TX","lat":29.7633,"long":-95.3633},{"zip":"77212","city":"Houston","state":"TX","lat":29.7633,"long":-95.3633},{"zip":"77213","city":"Houston","state":"TX","lat":29.834,"long":-95.4342},{"zip":"77215","city":"Houston","state":"TX","lat":29.834,"long":-95.4342},{"zip":"77216","city":"Houston","state":"TX","lat":29.834,"long":-95.4342},{"zip":"77217","city":"Houston","state":"TX","lat":29.834,"long":-95.4342},{"zip":"77218","city":"Houston","state":"TX","lat":29.834,"long":-95.4342},{"zip":"77219","city":"Houston","state":"TX","lat":29.834,"long":-95.4342},{"zip":"77220","city":"Houston","state":"TX","lat":29.834,"long":-95.4342},{"zip":"77221","city":"Houston","state":"TX","lat":29.834,"long":-95.4342},{"zip":"77222","city":"Houston","state":"TX","lat":29.834,"long":-95.4342},{"zip":"77223","city":"Houston","state":"TX","lat":29.834,"long":-95.4342},{"zip":"77224","city":"Houston","state":"TX","lat":29.834,"long":-95.4342},{"zip":"77225","city":"Houston","state":"TX","lat":29.834,"long":-95.4342},{"zip":"77226","city":"Houston","state":"TX","lat":29.834,"long":-95.4342},{"zip":"77227","city":"Houston","state":"TX","lat":29.834,"long":-95.4342},{"zip":"77228","city":"Houston","state":"TX","lat":29.834,"long":-95.4342},{"zip":"77229","city":"Houston","state":"TX","lat":29.834,"long":-95.4342},{"zip":"77230","city":"Houston","state":"TX","lat":29.834,"long":-95.4342},{"zip":"77231","city":"Houston","state":"TX","lat":29.834,"long":-95.4342},{"zip":"77233","city":"Houston","state":"TX","lat":29.834,"long":-95.4342},{"zip":"77234","city":"Houston","state":"TX","lat":29.834,"long":-95.4342},{"zip":"77235","city":"Houston","state":"TX","lat":29.834,"long":-95.4342},{"zip":"77236","city":"Houston","state":"TX","lat":29.834,"long":-95.4342},{"zip":"77237","city":"Houston","state":"TX","lat":29.834,"long":-95.4342},{"zip":"77238","city":"Houston","state":"TX","lat":29.834,"long":-95.4342},{"zip":"77240","city":"Houston","state":"TX","lat":29.834,"long":-95.4342},{"zip":"77241","city":"Houston","state":"TX","lat":29.834,"long":-95.4342},{"zip":"77242","city":"Houston","state":"TX","lat":29.834,"long":-95.4342},{"zip":"77243","city":"Houston","state":"TX","lat":29.834,"long":-95.4342},{"zip":"77244","city":"Houston","state":"TX","lat":29.834,"long":-95.4342},{"zip":"77245","city":"Houston","state":"TX","lat":29.834,"long":-95.4342},{"zip":"77248","city":"Houston","state":"TX","lat":29.834,"long":-95.4342},{"zip":"77249","city":"Houston","state":"TX","lat":29.834,"long":-95.4342},{"zip":"77251","city":"Houston","state":"TX","lat":29.834,"long":-95.4342},{"zip":"77252","city":"Houston","state":"TX","lat":29.7633,"long":-95.3633},{"zip":"77253","city":"Houston","state":"TX","lat":29.7633,"long":-95.3633},{"zip":"77254","city":"Houston","state":"TX","lat":29.834,"long":-95.4342},{"zip":"77255","city":"Houston","state":"TX","lat":29.834,"long":-95.4342},{"zip":"77256","city":"Houston","state":"TX","lat":29.834,"long":-95.4342},{"zip":"77257","city":"Houston","state":"TX","lat":29.834,"long":-95.4342},{"zip":"77258","city":"Houston","state":"TX","lat":29.834,"long":-95.4342},{"zip":"77259","city":"Houston","state":"TX","lat":29.834,"long":-95.4342},{"zip":"77261","city":"Houston","state":"TX","lat":29.834,"long":-95.4342},{"zip":"77262","city":"Houston","state":"TX","lat":29.834,"long":-95.4342},{"zip":"77263","city":"Houston","state":"TX","lat":29.834,"long":-95.4342},{"zip":"77265","city":"Houston","state":"TX","lat":29.834,"long":-95.4342},{"zip":"77266","city":"Houston","state":"TX","lat":29.834,"long":-95.4342},{"zip":"77267","city":"Houston","state":"TX","lat":29.834,"long":-95.4342},{"zip":"77268","city":"Houston","state":"TX","lat":29.834,"long":-95.4342},{"zip":"77269","city":"Houston","state":"TX","lat":29.834,"long":-95.4342},{"zip":"77270","city":"Houston","state":"TX","lat":29.834,"long":-95.4342},{"zip":"77271","city":"Houston","state":"TX","lat":29.834,"long":-95.4342},{"zip":"77272","city":"Houston","state":"TX","lat":29.834,"long":-95.4342},{"zip":"77273","city":"Houston","state":"TX","lat":29.834,"long":-95.4342},{"zip":"77274","city":"Houston","state":"TX","lat":29.834,"long":-95.4342},{"zip":"77275","city":"Houston","state":"TX","lat":29.834,"long":-95.4342},{"zip":"77277","city":"Houston","state":"TX","lat":29.834,"long":-95.4342},{"zip":"77279","city":"Houston","state":"TX","lat":29.834,"long":-95.4342},{"zip":"77280","city":"Houston","state":"TX","lat":29.834,"long":-95.4342},{"zip":"77282","city":"Houston","state":"TX","lat":29.834,"long":-95.4342},{"zip":"77284","city":"Houston","state":"TX","lat":29.834,"long":-95.4342},{"zip":"77287","city":"Houston","state":"TX","lat":29.834,"long":-95.4342},{"zip":"77288","city":"Houston","state":"TX","lat":29.834,"long":-95.4342},{"zip":"77289","city":"Houston","state":"TX","lat":29.834,"long":-95.4342},{"zip":"77290","city":"Houston","state":"TX","lat":29.834,"long":-95.4342},{"zip":"77291","city":"Houston","state":"TX","lat":29.834,"long":-95.4342},{"zip":"77292","city":"Houston","state":"TX","lat":29.7443,"long":-95.3326},{"zip":"77293","city":"Houston","state":"TX","lat":29.834,"long":-95.4342},{"zip":"77297","city":"Houston","state":"TX","lat":29.7633,"long":-95.3633},{"zip":"77299","city":"Houston","state":"TX","lat":29.834,"long":-95.4342},{"zip":"77315","city":"North Houston","state":"TX","lat":29.834,"long":-95.4342},{"zip":"77325","city":"Kingwood","state":"TX","lat":30.0569,"long":-95.1835},{"zip":"77336","city":"Huffman","state":"TX","lat":30.0565,"long":-95.1051},{"zip":"77337","city":"Hufsmith","state":"TX","lat":30.1222,"long":-95.5966},{"zip":"77338","city":"Humble","state":"TX","lat":30.0041,"long":-95.2825},{"zip":"77339","city":"Kingwood","state":"TX","lat":30.0569,"long":-95.1835},{"zip":"77345","city":"Kingwood","state":"TX","lat":30.0336,"long":-95.261},{"zip":"77346","city":"Humble","state":"TX","lat":30.0042,"long":-95.1728},{"zip":"77347","city":"Humble","state":"TX","lat":29.9988,"long":-95.2622},{"zip":"77373","city":"Spring","state":"TX","lat":30.0532,"long":-95.3773},{"zip":"77375","city":"Tomball","state":"TX","lat":30.0739,"long":-95.6201},{"zip":"77377","city":"Tomball","state":"TX","lat":30.0615,"long":-95.6821},{"zip":"77379","city":"Spring","state":"TX","lat":30.0377,"long":-95.5326},{"zip":"77382","city":"Spring","state":"TX","lat":30.2106,"long":-95.5257},{"zip":"77383","city":"Spring","state":"TX","lat":30.0799,"long":-95.4172},{"zip":"77388","city":"Spring","state":"TX","lat":30.0505,"long":-95.4695},{"zip":"77389","city":"Spring","state":"TX","lat":30.1044,"long":-95.5066},{"zip":"77391","city":"Spring","state":"TX","lat":30.0799,"long":-95.4172},{"zip":"77396","city":"Humble","state":"TX","lat":29.9507,"long":-95.2622},{"zip":"77401","city":"Bellaire","state":"TX","lat":29.7023,"long":-95.4611},{"zip":"77402","city":"Bellaire","state":"TX","lat":29.834,"long":-95.4342},{"zip":"77410","city":"Cypress","state":"TX","lat":29.9691,"long":-95.6972},{"zip":"77411","city":"Alief","state":"TX","lat":29.7111,"long":-95.5963},{"zip":"77413","city":"Barker","state":"TX","lat":29.7844,"long":-95.6849},{"zip":"77429","city":"Cypress","state":"TX","lat":29.9766,"long":-95.6358},{"zip":"77433","city":"Cypress","state":"TX","lat":29.8836,"long":-95.7025},{"zip":"77447","city":"Hockley","state":"TX","lat":30.0729,"long":-95.8104},{"zip":"77449","city":"Katy","state":"TX","lat":29.8323,"long":-95.736},{"zip":"77450","city":"Katy","state":"TX","lat":29.745,"long":-95.7326},{"zip":"77491","city":"Katy","state":"TX","lat":29.7858,"long":-95.8244},{"zip":"77492","city":"Katy","state":"TX","lat":29.7858,"long":-95.8244},{"zip":"77493","city":"Katy","state":"TX","lat":29.8678,"long":-95.8298},{"zip":"77494","city":"Katy","state":"TX","lat":29.7404,"long":-95.8304},{"zip":"77501","city":"Pasadena","state":"TX","lat":29.6911,"long":-95.2091},{"zip":"77502","city":"Pasadena","state":"TX","lat":29.6789,"long":-95.1982},{"zip":"77503","city":"Pasadena","state":"TX","lat":29.6877,"long":-95.1572},{"zip":"77504","city":"Pasadena","state":"TX","lat":29.6501,"long":-95.1885},{"zip":"77505","city":"Pasadena","state":"TX","lat":29.6518,"long":-95.1464},{"zip":"77506","city":"Pasadena","state":"TX","lat":29.7009,"long":-95.1989},{"zip":"77507","city":"Pasadena","state":"TX","lat":29.6224,"long":-95.0545},{"zip":"77508","city":"Pasadena","state":"TX","lat":29.5699,"long":-95.1066},{"zip":"77520","city":"Baytown","state":"TX","lat":29.7461,"long":-94.9653},{"zip":"77521","city":"Baytown","state":"TX","lat":29.7705,"long":-94.9695},{"zip":"77522","city":"Baytown","state":"TX","lat":29.7355,"long":-94.9774},{"zip":"77530","city":"Channelview","state":"TX","lat":29.7914,"long":-95.1317},{"zip":"77532","city":"Crosby","state":"TX","lat":29.9249,"long":-95.0578},{"zip":"77536","city":"Deer Park","state":"TX","lat":29.6826,"long":-95.1222},{"zip":"77547","city":"Galena Park","state":"TX","lat":29.7392,"long":-95.24},{"zip":"77562","city":"Highlands","state":"TX","lat":29.8296,"long":-95.0393},{"zip":"77571","city":"La Porte","state":"TX","lat":29.6884,"long":-95.0513},{"zip":"77572","city":"La Porte","state":"TX","lat":29.6658,"long":-95.0194},{"zip":"77586","city":"Seabrook","state":"TX","lat":29.5832,"long":-95.037},{"zip":"77587","city":"South Houston","state":"TX","lat":29.6601,"long":-95.2258},{"zip":"77598","city":"Webster","state":"TX","lat":29.5564,"long":-95.144},{"zip":"77957","city":"Edna","state":"TX","lat":28.9527,"long":-96.6488},{"zip":"77961","city":"Francitas","state":"TX","lat":28.8597,"long":-96.3386},{"zip":"77962","city":"Ganado","state":"TX","lat":29.0308,"long":-96.5031},{"zip":"77969","city":"La Salle","state":"TX","lat":28.7671,"long":-96.6492},{"zip":"77970","city":"La Ward","state":"TX","lat":28.8439,"long":-96.4641},{"zip":"77971","city":"Lolita","state":"TX","lat":28.7724,"long":-96.4793},{"zip":"77991","city":"Vanderbilt","state":"TX","lat":28.8068,"long":-96.6042},{"zip":"77612","city":"Buna","state":"TX","lat":30.4132,"long":-93.9913},{"zip":"77615","city":"Evadale","state":"TX","lat":30.3129,"long":-94.0731},{"zip":"77613","city":"China","state":"TX","lat":30.0108,"long":-94.363},{"zip":"77619","city":"Groves","state":"TX","lat":29.9448,"long":-93.9152},{"zip":"77622","city":"Hamshire","state":"TX","lat":29.8668,"long":-94.3187},{"zip":"77627","city":"Nederland","state":"TX","lat":29.9716,"long":-94.0012},{"zip":"77629","city":"Nome","state":"TX","lat":30.0015,"long":-94.4189},{"zip":"77640","city":"Port Arthur","state":"TX","lat":29.8709,"long":-93.9643},{"zip":"77641","city":"Port Arthur","state":"TX","lat":29.8476,"long":-94.1297},{"zip":"77642","city":"Port Arthur","state":"TX","lat":29.9212,"long":-93.927},{"zip":"77643","city":"Port Arthur","state":"TX","lat":29.9621,"long":-93.8679},{"zip":"77651","city":"Port Neches","state":"TX","lat":29.977,"long":-93.9626},{"zip":"77655","city":"Sabine Pass","state":"TX","lat":29.7336,"long":-93.8943},{"zip":"77701","city":"Beaumont","state":"TX","lat":30.0688,"long":-94.1039},{"zip":"77702","city":"Beaumont","state":"TX","lat":30.0871,"long":-94.1254},{"zip":"77703","city":"Beaumont","state":"TX","lat":30.1132,"long":-94.1197},{"zip":"77704","city":"Beaumont","state":"TX","lat":30.1236,"long":-94.1539},{"zip":"77705","city":"Beaumont","state":"TX","lat":30.0211,"long":-94.1157},{"zip":"77706","city":"Beaumont","state":"TX","lat":30.0948,"long":-94.1648},{"zip":"77707","city":"Beaumont","state":"TX","lat":30.0686,"long":-94.1755},{"zip":"77708","city":"Beaumont","state":"TX","lat":30.14,"long":-94.1604},{"zip":"77710","city":"Beaumont","state":"TX","lat":30.086,"long":-94.1018},{"zip":"77713","city":"Beaumont","state":"TX","lat":30.085,"long":-94.2607},{"zip":"77720","city":"Beaumont","state":"TX","lat":30.086,"long":-94.1018},{"zip":"77725","city":"Beaumont","state":"TX","lat":30.086,"long":-94.1018},{"zip":"77726","city":"Beaumont","state":"TX","lat":30.1118,"long":-94.1901},{"zip":"77964","city":"Hallettsville","state":"TX","lat":29.4426,"long":-96.9234},{"zip":"77975","city":"Moulton","state":"TX","lat":29.57,"long":-97.1031},{"zip":"77984","city":"Shiner","state":"TX","lat":29.428,"long":-97.164},{"zip":"77986","city":"Sublime","state":"TX","lat":29.4876,"long":-96.7946},{"zip":"77987","city":"Sweet Home","state":"TX","lat":29.3426,"long":-97.0756},{"zip":"77995","city":"Yoakum","state":"TX","lat":29.284,"long":-97.1306},{"zip":"77853","city":"Dime Box","state":"TX","lat":30.3579,"long":-96.8248},{"zip":"77850","city":"Concord","state":"TX","lat":31.3138,"long":-95.9935},{"zip":"77855","city":"Flynn","state":"TX","lat":31.1593,"long":-96.1234},{"zip":"77865","city":"Marquez","state":"TX","lat":31.2309,"long":-96.2375},{"zip":"77871","city":"Normangee","state":"TX","lat":31.0705,"long":-96.125},{"zip":"77327","city":"Cleveland","state":"TX","lat":30.33,"long":-95.0202},{"zip":"77328","city":"Cleveland","state":"TX","lat":30.3963,"long":-95.194},{"zip":"77368","city":"Romayor","state":"TX","lat":30.4359,"long":-94.8222},{"zip":"77369","city":"Rye","state":"TX","lat":30.4596,"long":-94.7436},{"zip":"77533","city":"Daisetta","state":"TX","lat":30.1133,"long":-94.643},{"zip":"77535","city":"Dayton","state":"TX","lat":30.0102,"long":-94.8787},{"zip":"77538","city":"Devers","state":"TX","lat":29.9978,"long":-94.5746},{"zip":"77561","city":"Hardin","state":"TX","lat":30.151,"long":-94.7338},{"zip":"77564","city":"Hull","state":"TX","lat":30.1463,"long":-94.6424},{"zip":"77575","city":"Liberty","state":"TX","lat":30.0946,"long":-94.7378},{"zip":"77582","city":"Raywood","state":"TX","lat":30.0542,"long":-94.6764},{"zip":"77864","city":"Madisonville","state":"TX","lat":30.9533,"long":-95.9091},{"zip":"77872","city":"North Zulch","state":"TX","lat":30.9285,"long":-96.0925},{"zip":"77404","city":"Bay City","state":"TX","lat":28.9828,"long":-95.9694},{"zip":"77414","city":"Bay City","state":"TX","lat":28.8636,"long":-95.9173},{"zip":"77415","city":"Cedar Lane","state":"TX","lat":28.9235,"long":-95.7247},{"zip":"77419","city":"Blessing","state":"TX","lat":28.8649,"long":-96.218},{"zip":"77428","city":"Collegeport","state":"TX","lat":28.7253,"long":-96.175},{"zip":"77440","city":"Elmaton","state":"TX","lat":28.876,"long":-96.1434},{"zip":"77456","city":"Markham","state":"TX","lat":28.9547,"long":-96.0928},{"zip":"77457","city":"Matagorda","state":"TX","lat":28.6908,"long":-95.9675},{"zip":"77458","city":"Midfield","state":"TX","lat":28.9362,"long":-96.2265},{"zip":"77465","city":"Palacios","state":"TX","lat":28.715,"long":-96.2154},{"zip":"77468","city":"Pledger","state":"TX","lat":29.1825,"long":-95.9086},{"zip":"77482","city":"Van Vleck","state":"TX","lat":29.016,"long":-95.8905},{"zip":"77483","city":"Wadsworth","state":"TX","lat":28.8259,"long":-95.9046},{"zip":"77857","city":"Gause","state":"TX","lat":30.7833,"long":-96.7237},{"zip":"77301","city":"Conroe","state":"TX","lat":30.3125,"long":-95.4527},{"zip":"77302","city":"Conroe","state":"TX","lat":30.2238,"long":-95.3577},{"zip":"77303","city":"Conroe","state":"TX","lat":30.3814,"long":-95.3749},{"zip":"77304","city":"Conroe","state":"TX","lat":30.3217,"long":-95.5285},{"zip":"77305","city":"Conroe","state":"TX","lat":30.2906,"long":-95.3832},{"zip":"77306","city":"Conroe","state":"TX","lat":30.2277,"long":-95.2851},{"zip":"77316","city":"Montgomery","state":"TX","lat":30.3587,"long":-95.6857},{"zip":"77318","city":"Willis","state":"TX","lat":30.4416,"long":-95.5394},{"zip":"77333","city":"Dobbin","state":"TX","lat":30.3365,"long":-95.7723},{"zip":"77353","city":"Magnolia","state":"TX","lat":30.2094,"long":-95.7508},{"zip":"77354","city":"Magnolia","state":"TX","lat":30.2333,"long":-95.5502},{"zip":"77355","city":"Magnolia","state":"TX","lat":30.1598,"long":-95.7402},{"zip":"77356","city":"Montgomery","state":"TX","lat":30.4411,"long":-95.7097},{"zip":"77357","city":"New Caney","state":"TX","lat":30.1579,"long":-95.198},{"zip":"77362","city":"Pinehurst","state":"TX","lat":30.1581,"long":-95.6814},{"zip":"77365","city":"Porter","state":"TX","lat":30.1237,"long":-95.2686},{"zip":"77372","city":"Splendora","state":"TX","lat":30.2326,"long":-95.1993},{"zip":"77378","city":"Willis","state":"TX","lat":30.4441,"long":-95.4506},{"zip":"77380","city":"Spring","state":"TX","lat":30.1441,"long":-95.4703},{"zip":"77381","city":"Spring","state":"TX","lat":30.1716,"long":-95.4985},{"zip":"77384","city":"Conroe","state":"TX","lat":30.2257,"long":-95.4924},{"zip":"77385","city":"Conroe","state":"TX","lat":30.1877,"long":-95.4288},{"zip":"77386","city":"Spring","state":"TX","lat":30.1288,"long":-95.4239},{"zip":"77387","city":"Spring","state":"TX","lat":30.1199,"long":-95.4247},{"zip":"77393","city":"Spring","state":"TX","lat":30.329,"long":-95.4635},{"zip":"77614","city":"Deweyville","state":"TX","lat":30.2894,"long":-93.7488},{"zip":"77611","city":"Bridge City","state":"TX","lat":30.0192,"long":-93.8326},{"zip":"77626","city":"Mauriceville","state":"TX","lat":30.204,"long":-93.8866},{"zip":"77630","city":"Orange","state":"TX","lat":30.0709,"long":-93.8659},{"zip":"77631","city":"Orange","state":"TX","lat":30.093,"long":-93.7366},{"zip":"77632","city":"Orange","state":"TX","lat":30.1775,"long":-93.8409},{"zip":"77639","city":"Orangefield","state":"TX","lat":30.0631,"long":-93.8599},{"zip":"77662","city":"Vidor","state":"TX","lat":30.1502,"long":-94.0008},{"zip":"77670","city":"Vidor","state":"TX","lat":30.1316,"long":-94.0155},{"zip":"77326","city":"Ace","state":"TX","lat":30.5209,"long":-94.8221},{"zip":"77332","city":"Dallardsville","state":"TX","lat":30.6285,"long":-94.6319},{"zip":"77335","city":"Goodrich","state":"TX","lat":30.6079,"long":-94.9592},{"zip":"77350","city":"Leggett","state":"TX","lat":30.8568,"long":-94.8561},{"zip":"77351","city":"Livingston","state":"TX","lat":30.6829,"long":-94.8976},{"zip":"77360","city":"Onalaska","state":"TX","lat":30.8225,"long":-95.1056},{"zip":"77399","city":"Livingston","state":"TX","lat":30.8179,"long":-94.8691},{"zip":"77950","city":"Austwell","state":"TX","lat":28.4023,"long":-96.853},{"zip":"77990","city":"Tivoli","state":"TX","lat":28.4587,"long":-96.8928},{"zip":"77837","city":"Calvert","state":"TX","lat":30.9782,"long":-96.6711},{"zip":"77856","city":"Franklin","state":"TX","lat":31.0001,"long":-96.5171},{"zip":"77859","city":"Hearne","state":"TX","lat":30.8669,"long":-96.5843},{"zip":"77867","city":"Mumford","state":"TX","lat":30.7344,"long":-96.565},{"zip":"77870","city":"New Baden","state":"TX","lat":31.051,"long":-96.4291},{"zip":"77882","city":"Wheelock","state":"TX","lat":30.8977,"long":-96.39},{"zip":"77331","city":"Coldspring","state":"TX","lat":30.6027,"long":-95.1086},{"zip":"77359","city":"Oakhurst","state":"TX","lat":30.7126,"long":-95.3095},{"zip":"77364","city":"Pointblank","state":"TX","lat":30.7593,"long":-95.2295},{"zip":"77371","city":"Shepherd","state":"TX","lat":30.498,"long":-94.9966},{"zip":"77616","city":"Fred","state":"TX","lat":30.5678,"long":-94.18},{"zip":"77624","city":"Hillister","state":"TX","lat":30.675,"long":-94.3534},{"zip":"77660","city":"Spurger","state":"TX","lat":30.6387,"long":-94.1663},{"zip":"77664","city":"Warren","state":"TX","lat":30.5978,"long":-94.412},{"zip":"77901","city":"Victoria","state":"TX","lat":28.809,"long":-96.9993},{"zip":"77902","city":"Victoria","state":"TX","lat":28.9255,"long":-97.1006},{"zip":"77903","city":"Victoria","state":"TX","lat":28.8053,"long":-97.0036},{"zip":"77904","city":"Victoria","state":"TX","lat":28.8675,"long":-96.999},{"zip":"77905","city":"Victoria","state":"TX","lat":28.7525,"long":-97.0338},{"zip":"77951","city":"Bloomington","state":"TX","lat":28.6495,"long":-96.8945},{"zip":"77968","city":"Inez","state":"TX","lat":28.8994,"long":-96.8003},{"zip":"77973","city":"Mcfaddin","state":"TX","lat":28.5511,"long":-97.0099},{"zip":"77976","city":"Nursery","state":"TX","lat":28.9543,"long":-97.0906},{"zip":"77977","city":"Placedo","state":"TX","lat":28.6923,"long":-96.8254},{"zip":"77988","city":"Telferner","state":"TX","lat":28.8489,"long":-96.8905},{"zip":"77320","city":"Huntsville","state":"TX","lat":30.847,"long":-95.597},{"zip":"77334","city":"Dodge","state":"TX","lat":30.772,"long":-95.3838},{"zip":"77340","city":"Huntsville","state":"TX","lat":30.6448,"long":-95.5798},{"zip":"77341","city":"Huntsville","state":"TX","lat":30.7142,"long":-95.5508},{"zip":"77342","city":"Huntsville","state":"TX","lat":30.7813,"long":-95.5953},{"zip":"77343","city":"Huntsville","state":"TX","lat":30.7235,"long":-95.5508},{"zip":"77344","city":"Huntsville","state":"TX","lat":30.7235,"long":-95.5508},{"zip":"77348","city":"Huntsville","state":"TX","lat":30.7235,"long":-95.5508},{"zip":"77349","city":"Huntsville","state":"TX","lat":30.7235,"long":-95.5508},{"zip":"77358","city":"New Waverly","state":"TX","lat":30.5354,"long":-95.4532},{"zip":"77367","city":"Riverside","state":"TX","lat":30.8476,"long":-95.3904},{"zip":"77423","city":"Brookshire","state":"TX","lat":29.8072,"long":-95.9755},{"zip":"77445","city":"Hempstead","state":"TX","lat":30.092,"long":-96.0716},{"zip":"77446","city":"Prairie View","state":"TX","lat":30.0836,"long":-95.9866},{"zip":"77466","city":"Pattison","state":"TX","lat":29.8173,"long":-96.0073},{"zip":"77484","city":"Waller","state":"TX","lat":30.071,"long":-95.9253},{"zip":"77426","city":"Chappell Hill","state":"TX","lat":30.1833,"long":-96.2347},{"zip":"77833","city":"Brenham","state":"TX","lat":30.1774,"long":-96.4028},{"zip":"77834","city":"Brenham","state":"TX","lat":30.1669,"long":-96.3977},{"zip":"77835","city":"Burton","state":"TX","lat":30.1767,"long":-96.5925},{"zip":"77880","city":"Washington","state":"TX","lat":30.3182,"long":-96.2249},{"zip":"77420","city":"Boling","state":"TX","lat":29.2529,"long":-95.974},{"zip":"77432","city":"Danevang","state":"TX","lat":29.067,"long":-96.1976},{"zip":"77435","city":"East Bernard","state":"TX","lat":29.4705,"long":-96.1211},{"zip":"77436","city":"Egypt","state":"TX","lat":29.405,"long":-96.2369},{"zip":"77437","city":"El Campo","state":"TX","lat":29.2008,"long":-96.2743},{"zip":"77443","city":"Glen Flora","state":"TX","lat":29.3475,"long":-96.1933},{"zip":"77448","city":"Hungerford","state":"TX","lat":29.4137,"long":-96.0929},{"zip":"77453","city":"Lane City","state":"TX","lat":29.2161,"long":-96.0263},{"zip":"77454","city":"Lissie","state":"TX","lat":29.5353,"long":-96.2303},{"zip":"77455","city":"Louise","state":"TX","lat":29.1114,"long":-96.4033},{"zip":"77467","city":"Pierce","state":"TX","lat":29.2052,"long":-96.1369},{"zip":"77488","city":"Wharton","state":"TX","lat":29.3205,"long":-96.0858}]
