[{"zip":"77363","city":"Plantersville","state":"TX","lat":30.2969,"long":-95.8498},{"zip":"77374","city":"Thicket","state":"TX","lat":30.3765,"long":-94.6361},{"zip":"77376","city":"Votaw","state":"TX","lat":30.4334,"long":-94.6804},{"zip":"77315","city":"North Houston","state":"TX","lat":29.834,"long":-95.4342},{"zip":"77325","city":"Kingwood","state":"TX","lat":30.0569,"long":-95.1835},{"zip":"77336","city":"Huffman","state":"TX","lat":30.0565,"long":-95.1051},{"zip":"77337","city":"Hufsmith","state":"TX","lat":30.1222,"long":-95.5966},{"zip":"77338","city":"Humble","state":"TX","lat":30.0041,"long":-95.2825},{"zip":"77339","city":"Kingwood","state":"TX","lat":30.0569,"long":-95.1835},{"zip":"77345","city":"Kingwood","state":"TX","lat":30.0336,"long":-95.261},{"zip":"77346","city":"Humble","state":"TX","lat":30.0042,"long":-95.1728},{"zip":"77347","city":"Humble","state":"TX","lat":29.9988,"long":-95.2622},{"zip":"77373","city":"Spring","state":"TX","lat":30.0532,"long":-95.3773},{"zip":"77375","city":"Tomball","state":"TX","lat":30.0739,"long":-95.6201},{"zip":"77377","city":"Tomball","state":"TX","lat":30.0615,"long":-95.6821},{"zip":"77379","city":"Spring","state":"TX","lat":30.0377,"long":-95.5326},{"zip":"77382","city":"Spring","state":"TX","lat":30.2106,"long":-95.5257},{"zip":"77383","city":"Spring","state":"TX","lat":30.0799,"long":-95.4172},{"zip":"77388","city":"Spring","state":"TX","lat":30.0505,"long":-95.4695},{"zip":"77389","city":"Spring","state":"TX","lat":30.1044,"long":-95.5066},{"zip":"77391","city":"Spring","state":"TX","lat":30.0799,"long":-95.4172},{"zip":"77396","city":"Humble","state":"TX","lat":29.9507,"long":-95.2622},{"zip":"77327","city":"Cleveland","state":"TX","lat":30.33,"long":-95.0202},{"zip":"77328","city":"Cleveland","state":"TX","lat":30.3963,"long":-95.194},{"zip":"77368","city":"Romayor","state":"TX","lat":30.4359,"long":-94.8222},{"zip":"77369","city":"Rye","state":"TX","lat":30.4596,"long":-94.7436},{"zip":"77301","city":"Conroe","state":"TX","lat":30.3125,"long":-95.4527},{"zip":"77302","city":"Conroe","state":"TX","lat":30.2238,"long":-95.3577},{"zip":"77303","city":"Conroe","state":"TX","lat":30.3814,"long":-95.3749},{"zip":"77304","city":"Conroe","state":"TX","lat":30.3217,"long":-95.5285},{"zip":"77305","city":"Conroe","state":"TX","lat":30.2906,"long":-95.3832},{"zip":"77306","city":"Conroe","state":"TX","lat":30.2277,"long":-95.2851},{"zip":"77316","city":"Montgomery","state":"TX","lat":30.3587,"long":-95.6857},{"zip":"77318","city":"Willis","state":"TX","lat":30.4416,"long":-95.5394},{"zip":"77333","city":"Dobbin","state":"TX","lat":30.3365,"long":-95.7723},{"zip":"77353","city":"Magnolia","state":"TX","lat":30.2094,"long":-95.7508},{"zip":"77354","city":"Magnolia","state":"TX","lat":30.2333,"long":-95.5502},{"zip":"77355","city":"Magnolia","state":"TX","lat":30.1598,"long":-95.7402},{"zip":"77356","city":"Montgomery","state":"TX","lat":30.4411,"long":-95.7097},{"zip":"77357","city":"New Caney","state":"TX","lat":30.1579,"long":-95.198},{"zip":"77362","city":"Pinehurst","state":"TX","lat":30.1581,"long":-95.6814},{"zip":"77365","city":"Porter","state":"TX","lat":30.1237,"long":-95.2686},{"zip":"77372","city":"Splendora","state":"TX","lat":30.2326,"long":-95.1993},{"zip":"77378","city":"Willis","state":"TX","lat":30.4441,"long":-95.4506},{"zip":"77380","city":"Spring","state":"TX","lat":30.1441,"long":-95.4703},{"zip":"77381","city":"Spring","state":"TX","lat":30.1716,"long":-95.4985},{"zip":"77384","city":"Conroe","state":"TX","lat":30.2257,"long":-95.4924},{"zip":"77385","city":"Conroe","state":"TX","lat":30.1877,"long":-95.4288},{"zip":"77386","city":"Spring","state":"TX","lat":30.1288,"long":-95.4239},{"zip":"77387","city":"Spring","state":"TX","lat":30.1199,"long":-95.4247},{"zip":"77393","city":"Spring","state":"TX","lat":30.329,"long":-95.4635},{"zip":"77326","city":"Ace","state":"TX","lat":30.5209,"long":-94.8221},{"zip":"77332","city":"Dallardsville","state":"TX","lat":30.6285,"long":-94.6319},{"zip":"77335","city":"Goodrich","state":"TX","lat":30.6079,"long":-94.9592},{"zip":"77350","city":"Leggett","state":"TX","lat":30.8568,"long":-94.8561},{"zip":"77351","city":"Livingston","state":"TX","lat":30.6829,"long":-94.8976},{"zip":"77360","city":"Onalaska","state":"TX","lat":30.8225,"long":-95.1056},{"zip":"77399","city":"Livingston","state":"TX","lat":30.8179,"long":-94.8691},{"zip":"77331","city":"Coldspring","state":"TX","lat":30.6027,"long":-95.1086},{"zip":"77359","city":"Oakhurst","state":"TX","lat":30.7126,"long":-95.3095},{"zip":"77364","city":"Pointblank","state":"TX","lat":30.7593,"long":-95.2295},{"zip":"77371","city":"Shepherd","state":"TX","lat":30.498,"long":-94.9966},{"zip":"77320","city":"Huntsville","state":"TX","lat":30.847,"long":-95.597},{"zip":"77334","city":"Dodge","state":"TX","lat":30.772,"long":-95.3838},{"zip":"77340","city":"Huntsville","state":"TX","lat":30.6448,"long":-95.5798},{"zip":"77341","city":"Huntsville","state":"TX","lat":30.7142,"long":-95.5508},{"zip":"77342","city":"Huntsville","state":"TX","lat":30.7813,"long":-95.5953},{"zip":"77343","city":"Huntsville","state":"TX","lat":30.7235,"long":-95.5508},{"zip":"77344","city":"Huntsville","state":"TX","lat":30.7235,"long":-95.5508},{"zip":"77348","city":"Huntsville","state":"TX","lat":30.7235,"long":-95.5508},{"zip":"77349","city":"Huntsville","state":"TX","lat":30.7235,"long":-95.5508},{"zip":"77358","city":"New Waverly","state":"TX","lat":30.5354,"long":-95.4532},{"zip":"77367","city":"Riverside","state":"TX","lat":30.8476,"long":-95.3904}]
