[{"zip":"77511","city":"Alvin","state":"TX","lat":29.412,"long":-95.2515},{"zip":"77512","city":"Alvin","state":"TX","lat":29.4238,"long":-95.2441},{"zip":"77515","city":"Angleton","state":"TX","lat":29.181,"long":-95.4467},{"zip":"77516","city":"Angleton","state":"TX","lat":29.1694,"long":-95.4319},{"zip":"77531","city":"Clute","state":"TX","lat":29.0325,"long":-95.4026},{"zip":"77534","city":"Danbury","state":"TX","lat":29.2291,"long":-95.3435},{"zip":"77541","city":"Freeport","state":"TX","lat":29.0357,"long":-95.3379},{"zip":"77542","city":"Freeport","state":"TX","lat":28.9541,"long":-95.3597},{"zip":"77566","city":"Lake Jackson","state":"TX","lat":29.0393,"long":-95.4401},{"zip":"77577","city":"Liverpool","state":"TX","lat":29.2667,"long":-95.2889},{"zip":"77578","city":"Manvel","state":"TX","lat":29.4694,"long":-95.3503},{"zip":"77581","city":"Pearland","state":"TX","lat":29.5617,"long":-95.2721},{"zip":"77583","city":"Rosharon","state":"TX","lat":29.4203,"long":-95.4537},{"zip":"77584","city":"Pearland","state":"TX","lat":29.5405,"long":-95.3208},{"zip":"77588","city":"Pearland","state":"TX","lat":29.5127,"long":-95.2542},{"zip":"77514","city":"Anahuac","state":"TX","lat":29.662,"long":-94.593},{"zip":"77523","city":"Baytown","state":"TX","lat":29.77,"long":-94.8608},{"zip":"77560","city":"Hankamer","state":"TX","lat":29.8752,"long":-94.5938},{"zip":"77580","city":"Mont Belvieu","state":"TX","lat":29.8561,"long":-94.8429},{"zip":"77597","city":"Wallisville","state":"TX","lat":29.8591,"long":-94.6759},{"zip":"77545","city":"Fresno","state":"TX","lat":29.5293,"long":-95.4626},{"zip":"77510","city":"Santa Fe","state":"TX","lat":29.4032,"long":-95.0734},{"zip":"77517","city":"Santa Fe","state":"TX","lat":29.3673,"long":-95.1361},{"zip":"77518","city":"Bacliff","state":"TX","lat":29.5055,"long":-94.9893},{"zip":"77539","city":"Dickinson","state":"TX","lat":29.4585,"long":-95.0345},{"zip":"77546","city":"Friendswood","state":"TX","lat":29.5224,"long":-95.1879},{"zip":"77549","city":"Friendswood","state":"TX","lat":29.5294,"long":-95.201},{"zip":"77550","city":"Galveston","state":"TX","lat":29.2983,"long":-94.793},{"zip":"77551","city":"Galveston","state":"TX","lat":29.2766,"long":-94.8303},{"zip":"77552","city":"Galveston","state":"TX","lat":29.2205,"long":-94.9444},{"zip":"77553","city":"Galveston","state":"TX","lat":29.3322,"long":-94.8002},{"zip":"77554","city":"Galveston","state":"TX","lat":29.2243,"long":-94.9637},{"zip":"77555","city":"Galveston","state":"TX","lat":29.3305,"long":-94.8002},{"zip":"77563","city":"Hitchcock","state":"TX","lat":29.3398,"long":-94.9926},{"zip":"77565","city":"Kemah","state":"TX","lat":29.5236,"long":-95.0276},{"zip":"77568","city":"La Marque","state":"TX","lat":29.3676,"long":-94.9742},{"zip":"77573","city":"League City","state":"TX","lat":29.5173,"long":-95.0963},{"zip":"77574","city":"League City","state":"TX","lat":29.5116,"long":-95.0582},{"zip":"77590","city":"Texas City","state":"TX","lat":29.397,"long":-94.9203},{"zip":"77591","city":"Texas City","state":"TX","lat":29.3891,"long":-94.9942},{"zip":"77592","city":"Texas City","state":"TX","lat":29.3305,"long":-94.8002},{"zip":"77519","city":"Batson","state":"TX","lat":30.225,"long":-94.6096},{"zip":"77585","city":"Saratoga","state":"TX","lat":30.2841,"long":-94.5294},{"zip":"77501","city":"Pasadena","state":"TX","lat":29.6911,"long":-95.2091},{"zip":"77502","city":"Pasadena","state":"TX","lat":29.6789,"long":-95.1982},{"zip":"77503","city":"Pasadena","state":"TX","lat":29.6877,"long":-95.1572},{"zip":"77504","city":"Pasadena","state":"TX","lat":29.6501,"long":-95.1885},{"zip":"77505","city":"Pasadena","state":"TX","lat":29.6518,"long":-95.1464},{"zip":"77506","city":"Pasadena","state":"TX","lat":29.7009,"long":-95.1989},{"zip":"77507","city":"Pasadena","state":"TX","lat":29.6224,"long":-95.0545},{"zip":"77508","city":"Pasadena","state":"TX","lat":29.5699,"long":-95.1066},{"zip":"77520","city":"Baytown","state":"TX","lat":29.7461,"long":-94.9653},{"zip":"77521","city":"Baytown","state":"TX","lat":29.7705,"long":-94.9695},{"zip":"77522","city":"Baytown","state":"TX","lat":29.7355,"long":-94.9774},{"zip":"77530","city":"Channelview","state":"TX","lat":29.7914,"long":-95.1317},{"zip":"77532","city":"Crosby","state":"TX","lat":29.9249,"long":-95.0578},{"zip":"77536","city":"Deer Park","state":"TX","lat":29.6826,"long":-95.1222},{"zip":"77547","city":"Galena Park","state":"TX","lat":29.7392,"long":-95.24},{"zip":"77562","city":"Highlands","state":"TX","lat":29.8296,"long":-95.0393},{"zip":"77571","city":"La Porte","state":"TX","lat":29.6884,"long":-95.0513},{"zip":"77572","city":"La Porte","state":"TX","lat":29.6658,"long":-95.0194},{"zip":"77586","city":"Seabrook","state":"TX","lat":29.5832,"long":-95.037},{"zip":"77587","city":"South Houston","state":"TX","lat":29.6601,"long":-95.2258},{"zip":"77598","city":"Webster","state":"TX","lat":29.5564,"long":-95.144},{"zip":"77533","city":"Daisetta","state":"TX","lat":30.1133,"long":-94.643},{"zip":"77535","city":"Dayton","state":"TX","lat":30.0102,"long":-94.8787},{"zip":"77538","city":"Devers","state":"TX","lat":29.9978,"long":-94.5746},{"zip":"77561","city":"Hardin","state":"TX","lat":30.151,"long":-94.7338},{"zip":"77564","city":"Hull","state":"TX","lat":30.1463,"long":-94.6424},{"zip":"77575","city":"Liberty","state":"TX","lat":30.0946,"long":-94.7378},{"zip":"77582","city":"Raywood","state":"TX","lat":30.0542,"long":-94.6764}]
