[{"zip":"77661","city":"Stowell","state":"TX","lat":29.7809,"long":-94.39},{"zip":"77665","city":"Winnie","state":"TX","lat":29.8157,"long":-94.3395},{"zip":"77617","city":"Gilchrist","state":"TX","lat":29.523,"long":-94.4755},{"zip":"77623","city":"High Island","state":"TX","lat":29.5472,"long":-94.4267},{"zip":"77650","city":"Port Bolivar","state":"TX","lat":29.4266,"long":-94.6861},{"zip":"77625","city":"Kountze","state":"TX","lat":30.3703,"long":-94.3259},{"zip":"77656","city":"Silsbee","state":"TX","lat":30.3244,"long":-94.1907},{"zip":"77657","city":"Lumberton","state":"TX","lat":30.2818,"long":-94.2191},{"zip":"77659","city":"Sour Lake","state":"TX","lat":30.1491,"long":-94.3733},{"zip":"77663","city":"Village Mills","state":"TX","lat":30.5185,"long":-94.4458},{"zip":"77612","city":"Buna","state":"TX","lat":30.4132,"long":-93.9913},{"zip":"77615","city":"Evadale","state":"TX","lat":30.3129,"long":-94.0731},{"zip":"77613","city":"China","state":"TX","lat":30.0108,"long":-94.363},{"zip":"77619","city":"Groves","state":"TX","lat":29.9448,"long":-93.9152},{"zip":"77622","city":"Hamshire","state":"TX","lat":29.8668,"long":-94.3187},{"zip":"77627","city":"Nederland","state":"TX","lat":29.9716,"long":-94.0012},{"zip":"77629","city":"Nome","state":"TX","lat":30.0015,"long":-94.4189},{"zip":"77640","city":"Port Arthur","state":"TX","lat":29.8709,"long":-93.9643},{"zip":"77641","city":"Port Arthur","state":"TX","lat":29.8476,"long":-94.1297},{"zip":"77642","city":"Port Arthur","state":"TX","lat":29.9212,"long":-93.927},{"zip":"77643","city":"Port Arthur","state":"TX","lat":29.9621,"long":-93.8679},{"zip":"77651","city":"Port Neches","state":"TX","lat":29.977,"long":-93.9626},{"zip":"77655","city":"Sabine Pass","state":"TX","lat":29.7336,"long":-93.8943},{"zip":"77614","city":"Deweyville","state":"TX","lat":30.2894,"long":-93.7488},{"zip":"77611","city":"Bridge City","state":"TX","lat":30.0192,"long":-93.8326},{"zip":"77626","city":"Mauriceville","state":"TX","lat":30.204,"long":-93.8866},{"zip":"77630","city":"Orange","state":"TX","lat":30.0709,"long":-93.8659},{"zip":"77631","city":"Orange","state":"TX","lat":30.093,"long":-93.7366},{"zip":"77632","city":"Orange","state":"TX","lat":30.1775,"long":-93.8409},{"zip":"77639","city":"Orangefield","state":"TX","lat":30.0631,"long":-93.8599},{"zip":"77662","city":"Vidor","state":"TX","lat":30.1502,"long":-94.0008},{"zip":"77670","city":"Vidor","state":"TX","lat":30.1316,"long":-94.0155},{"zip":"77616","city":"Fred","state":"TX","lat":30.5678,"long":-94.18},{"zip":"77624","city":"Hillister","state":"TX","lat":30.675,"long":-94.3534},{"zip":"77660","city":"Spurger","state":"TX","lat":30.6387,"long":-94.1663},{"zip":"77664","city":"Warren","state":"TX","lat":30.5978,"long":-94.412}]
