[{"zip":"77801","city":"Bryan","state":"TX","lat":30.6327,"long":-96.3662},{"zip":"77802","city":"Bryan","state":"TX","lat":30.6582,"long":-96.3351},{"zip":"77803","city":"Bryan","state":"TX","lat":30.6913,"long":-96.3714},{"zip":"77805","city":"Bryan","state":"TX","lat":30.6521,"long":-96.341},{"zip":"77806","city":"Bryan","state":"TX","lat":30.6744,"long":-96.37},{"zip":"77807","city":"Bryan","state":"TX","lat":30.6711,"long":-96.4799},{"zip":"77808","city":"Bryan","state":"TX","lat":30.8202,"long":-96.3059},{"zip":"77840","city":"College Station","state":"TX","lat":30.6045,"long":-96.3123},{"zip":"77841","city":"College Station","state":"TX","lat":30.5726,"long":-96.327},{"zip":"77842","city":"College Station","state":"TX","lat":30.6521,"long":-96.341},{"zip":"77843","city":"College Station","state":"TX","lat":30.6521,"long":-96.341},{"zip":"77844","city":"College Station","state":"TX","lat":30.6521,"long":-96.341},{"zip":"77845","city":"College Station","state":"TX","lat":30.5118,"long":-96.3171},{"zip":"77862","city":"Kurten","state":"TX","lat":30.7871,"long":-96.2641},{"zip":"77866","city":"Millican","state":"TX","lat":30.4491,"long":-96.217},{"zip":"77881","city":"Wellborn","state":"TX","lat":30.5334,"long":-96.3032},{"zip":"77836","city":"Caldwell","state":"TX","lat":30.5298,"long":-96.7143},{"zip":"77838","city":"Chriesman","state":"TX","lat":30.5994,"long":-96.7708},{"zip":"77852","city":"Deanville","state":"TX","lat":30.4322,"long":-96.7561},{"zip":"77863","city":"Lyons","state":"TX","lat":30.3863,"long":-96.5633},{"zip":"77878","city":"Snook","state":"TX","lat":30.4702,"long":-96.4804},{"zip":"77879","city":"Somerville","state":"TX","lat":30.4076,"long":-96.5358},{"zip":"77830","city":"Anderson","state":"TX","lat":30.5443,"long":-96.0018},{"zip":"77831","city":"Bedias","state":"TX","lat":30.7065,"long":-95.9546},{"zip":"77861","city":"Iola","state":"TX","lat":30.7326,"long":-96.0911},{"zip":"77868","city":"Navasota","state":"TX","lat":30.3576,"long":-96.0594},{"zip":"77873","city":"Richards","state":"TX","lat":30.5796,"long":-95.8959},{"zip":"77875","city":"Roans Prairie","state":"TX","lat":30.6075,"long":-95.9579},{"zip":"77876","city":"Shiro","state":"TX","lat":30.6752,"long":-95.8285},{"zip":"77853","city":"Dime Box","state":"TX","lat":30.3579,"long":-96.8248},{"zip":"77850","city":"Concord","state":"TX","lat":31.3138,"long":-95.9935},{"zip":"77855","city":"Flynn","state":"TX","lat":31.1593,"long":-96.1234},{"zip":"77865","city":"Marquez","state":"TX","lat":31.2309,"long":-96.2375},{"zip":"77871","city":"Normangee","state":"TX","lat":31.0705,"long":-96.125},{"zip":"77864","city":"Madisonville","state":"TX","lat":30.9533,"long":-95.9091},{"zip":"77872","city":"North Zulch","state":"TX","lat":30.9285,"long":-96.0925},{"zip":"77857","city":"Gause","state":"TX","lat":30.7833,"long":-96.7237},{"zip":"77837","city":"Calvert","state":"TX","lat":30.9782,"long":-96.6711},{"zip":"77856","city":"Franklin","state":"TX","lat":31.0001,"long":-96.5171},{"zip":"77859","city":"Hearne","state":"TX","lat":30.8669,"long":-96.5843},{"zip":"77867","city":"Mumford","state":"TX","lat":30.7344,"long":-96.565},{"zip":"77870","city":"New Baden","state":"TX","lat":31.051,"long":-96.4291},{"zip":"77882","city":"Wheelock","state":"TX","lat":30.8977,"long":-96.39},{"zip":"77833","city":"Brenham","state":"TX","lat":30.1774,"long":-96.4028},{"zip":"77834","city":"Brenham","state":"TX","lat":30.1669,"long":-96.3977},{"zip":"77835","city":"Burton","state":"TX","lat":30.1767,"long":-96.5925},{"zip":"77880","city":"Washington","state":"TX","lat":30.3182,"long":-96.2249}]
