[{"zip":"77978","city":"Point Comfort","state":"TX","lat":28.6651,"long":-96.5506},{"zip":"77979","city":"Port Lavaca","state":"TX","lat":28.6011,"long":-96.6259},{"zip":"77982","city":"Port O Connor","state":"TX","lat":28.4483,"long":-96.4058},{"zip":"77983","city":"Seadrift","state":"TX","lat":28.4101,"long":-96.7023},{"zip":"77954","city":"Cuero","state":"TX","lat":29.091,"long":-97.2812},{"zip":"77967","city":"Hochheim","state":"TX","lat":29.3125,"long":-97.2917},{"zip":"77974","city":"Meyersville","state":"TX","lat":28.9229,"long":-97.3042},{"zip":"77989","city":"Thomaston","state":"TX","lat":28.9974,"long":-97.1539},{"zip":"77994","city":"Westhoff","state":"TX","lat":29.1792,"long":-97.46},{"zip":"77960","city":"Fannin","state":"TX","lat":28.6778,"long":-97.2606},{"zip":"77963","city":"Goliad","state":"TX","lat":28.6993,"long":-97.3783},{"zip":"77993","city":"Weesatche","state":"TX","lat":28.8358,"long":-97.4442},{"zip":"77957","city":"Edna","state":"TX","lat":28.9527,"long":-96.6488},{"zip":"77961","city":"Francitas","state":"TX","lat":28.8597,"long":-96.3386},{"zip":"77962","city":"Ganado","state":"TX","lat":29.0308,"long":-96.5031},{"zip":"77969","city":"La Salle","state":"TX","lat":28.7671,"long":-96.6492},{"zip":"77970","city":"La Ward","state":"TX","lat":28.8439,"long":-96.4641},{"zip":"77971","city":"Lolita","state":"TX","lat":28.7724,"long":-96.4793},{"zip":"77991","city":"Vanderbilt","state":"TX","lat":28.8068,"long":-96.6042},{"zip":"77964","city":"Hallettsville","state":"TX","lat":29.4426,"long":-96.9234},{"zip":"77975","city":"Moulton","state":"TX","lat":29.57,"long":-97.1031},{"zip":"77984","city":"Shiner","state":"TX","lat":29.428,"long":-97.164},{"zip":"77986","city":"Sublime","state":"TX","lat":29.4876,"long":-96.7946},{"zip":"77987","city":"Sweet Home","state":"TX","lat":29.3426,"long":-97.0756},{"zip":"77995","city":"Yoakum","state":"TX","lat":29.284,"long":-97.1306},{"zip":"77950","city":"Austwell","state":"TX","lat":28.4023,"long":-96.853},{"zip":"77990","city":"Tivoli","state":"TX","lat":28.4587,"long":-96.8928},{"zip":"77901","city":"Victoria","state":"TX","lat":28.809,"long":-96.9993},{"zip":"77902","city":"Victoria","state":"TX","lat":28.9255,"long":-97.1006},{"zip":"77903","city":"Victoria","state":"TX","lat":28.8053,"long":-97.0036},{"zip":"77904","city":"Victoria","state":"TX","lat":28.8675,"long":-96.999},{"zip":"77905","city":"Victoria","state":"TX","lat":28.7525,"long":-97.0338},{"zip":"77951","city":"Bloomington","state":"TX","lat":28.6495,"long":-96.8945},{"zip":"77968","city":"Inez","state":"TX","lat":28.8994,"long":-96.8003},{"zip":"77973","city":"Mcfaddin","state":"TX","lat":28.5511,"long":-97.0099},{"zip":"77976","city":"Nursery","state":"TX","lat":28.9543,"long":-97.0906},{"zip":"77977","city":"Placedo","state":"TX","lat":28.6923,"long":-96.8254},{"zip":"77988","city":"Telferner","state":"TX","lat":28.8489,"long":-96.8905}]
