[{"zip":"78358","city":"Fulton","state":"TX","lat":28.0865,"long":-97.0416},{"zip":"78381","city":"Rockport","state":"TX","lat":28.0131,"long":-97.0936},{"zip":"78382","city":"Rockport","state":"TX","lat":28.0308,"long":-97.0688},{"zip":"78008","city":"Campbellton","state":"TX","lat":28.767,"long":-98.2566},{"zip":"78011","city":"Charlotte","state":"TX","lat":28.8649,"long":-98.707},{"zip":"78012","city":"Christine","state":"TX","lat":28.7858,"long":-98.4886},{"zip":"78026","city":"Jourdanton","state":"TX","lat":28.903,"long":-98.544},{"zip":"78050","city":"Leming","state":"TX","lat":29.073,"long":-98.4842},{"zip":"78052","city":"Lytle","state":"TX","lat":29.2366,"long":-98.7945},{"zip":"78062","city":"Peggy","state":"TX","lat":28.7397,"long":-98.1786},{"zip":"78064","city":"Pleasanton","state":"TX","lat":28.9924,"long":-98.4831},{"zip":"78065","city":"Poteet","state":"TX","lat":29.0994,"long":-98.6241},{"zip":"78931","city":"Bleiblerville","state":"TX","lat":30.0292,"long":-96.4448},{"zip":"78933","city":"Cat Spring","state":"TX","lat":29.7512,"long":-96.39},{"zip":"78944","city":"Industry","state":"TX","lat":29.9904,"long":-96.4843},{"zip":"78950","city":"New Ulm","state":"TX","lat":29.9134,"long":-96.4961},{"zip":"78003","city":"Bandera","state":"TX","lat":29.7276,"long":-99.0453},{"zip":"78055","city":"Medina","state":"TX","lat":29.8475,"long":-99.3215},{"zip":"78063","city":"Pipe Creek","state":"TX","lat":29.6796,"long":-98.9484},{"zip":"78883","city":"Tarpley","state":"TX","lat":29.6455,"long":-99.2469},{"zip":"78885","city":"Vanderpool","state":"TX","lat":29.7452,"long":-99.5551},{"zip":"78602","city":"Bastrop","state":"TX","lat":30.1388,"long":-97.2921},{"zip":"78612","city":"Cedar Creek","state":"TX","lat":30.0966,"long":-97.4976},{"zip":"78621","city":"Elgin","state":"TX","lat":30.3231,"long":-97.3737},{"zip":"78650","city":"Mc Dade","state":"TX","lat":30.2968,"long":-97.2386},{"zip":"78659","city":"Paige","state":"TX","lat":30.1858,"long":-97.1198},{"zip":"78662","city":"Red Rock","state":"TX","lat":29.9906,"long":-97.4081},{"zip":"78953","city":"Rosanky","state":"TX","lat":29.9241,"long":-97.3119},{"zip":"78957","city":"Smithville","state":"TX","lat":30.0178,"long":-97.1494},{"zip":"78102","city":"Beeville","state":"TX","lat":28.4222,"long":-97.7616},{"zip":"78104","city":"Beeville","state":"TX","lat":28.3931,"long":-97.776},{"zip":"78125","city":"Mineral","state":"TX","lat":28.5552,"long":-97.9407},{"zip":"78142","city":"Normanna","state":"TX","lat":28.5278,"long":-97.7831},{"zip":"78145","city":"Pawnee","state":"TX","lat":28.6526,"long":-97.9921},{"zip":"78146","city":"Pettus","state":"TX","lat":28.6164,"long":-97.8082},{"zip":"78162","city":"Tuleta","state":"TX","lat":28.5708,"long":-97.7972},{"zip":"78389","city":"Skidmore","state":"TX","lat":28.2121,"long":-97.7127},{"zip":"78391","city":"Tynan","state":"TX","lat":28.1693,"long":-97.7549},{"zip":"78002","city":"Atascosa","state":"TX","lat":29.2705,"long":-98.7421},{"zip":"78015","city":"Boerne","state":"TX","lat":29.7327,"long":-98.6646},{"zip":"78023","city":"Helotes","state":"TX","lat":29.6321,"long":-98.7542},{"zip":"78054","city":"Macdona","state":"TX","lat":29.3258,"long":-98.6911},{"zip":"78069","city":"Somerset","state":"TX","lat":29.2205,"long":-98.6678},{"zip":"78073","city":"Von Ormy","state":"TX","lat":29.275,"long":-98.6677},{"zip":"78101","city":"Adkins","state":"TX","lat":29.3805,"long":-98.265},{"zip":"78109","city":"Converse","state":"TX","lat":29.5173,"long":-98.3217},{"zip":"78112","city":"Elmendorf","state":"TX","lat":29.2308,"long":-98.372},{"zip":"78148","city":"Universal City","state":"TX","lat":29.5465,"long":-98.2954},{"zip":"78150","city":"Jbsa Randolph","state":"TX","lat":29.3759,"long":-97.958},{"zip":"78152","city":"Saint Hedwig","state":"TX","lat":29.4353,"long":-98.1952},{"zip":"78201","city":"San Antonio","state":"TX","lat":29.4711,"long":-98.5356},{"zip":"78202","city":"San Antonio","state":"TX","lat":29.4275,"long":-98.4601},{"zip":"78203","city":"San Antonio","state":"TX","lat":29.4148,"long":-98.4601},{"zip":"78204","city":"San Antonio","state":"TX","lat":29.4059,"long":-98.5078},{"zip":"78205","city":"San Antonio","state":"TX","lat":29.4237,"long":-98.4925},{"zip":"78206","city":"San Antonio","state":"TX","lat":29.4375,"long":-98.4616},{"zip":"78207","city":"San Antonio","state":"TX","lat":29.4229,"long":-98.526},{"zip":"78208","city":"San Antonio","state":"TX","lat":29.44,"long":-98.459},{"zip":"78209","city":"San Antonio","state":"TX","lat":29.4821,"long":-98.4554},{"zip":"78210","city":"San Antonio","state":"TX","lat":29.3977,"long":-98.4658},{"zip":"78211","city":"San Antonio","state":"TX","lat":29.3499,"long":-98.5638},{"zip":"78212","city":"San Antonio","state":"TX","lat":29.4388,"long":-98.4935},{"zip":"78213","city":"San Antonio","state":"TX","lat":29.5234,"long":-98.5273},{"zip":"78214","city":"San Antonio","state":"TX","lat":29.3641,"long":-98.4924},{"zip":"78215","city":"San Antonio","state":"TX","lat":29.4413,"long":-98.4793},{"zip":"78216","city":"San Antonio","state":"TX","lat":29.5334,"long":-98.4975},{"zip":"78217","city":"San Antonio","state":"TX","lat":29.5395,"long":-98.4194},{"zip":"78218","city":"San Antonio","state":"TX","lat":29.4969,"long":-98.4032},{"zip":"78219","city":"San Antonio","state":"TX","lat":29.4492,"long":-98.3446},{"zip":"78220","city":"San Antonio","state":"TX","lat":29.4106,"long":-98.4128},{"zip":"78221","city":"San Antonio","state":"TX","lat":29.3309,"long":-98.5054},{"zip":"78222","city":"San Antonio","state":"TX","lat":29.3831,"long":-98.396},{"zip":"78223","city":"San Antonio","state":"TX","lat":29.3579,"long":-98.4356},{"zip":"78224","city":"San Antonio","state":"TX","lat":29.3374,"long":-98.5393},{"zip":"78225","city":"San Antonio","state":"TX","lat":29.3875,"long":-98.5245},{"zip":"78226","city":"San Antonio","state":"TX","lat":29.393,"long":-98.5511},{"zip":"78227","city":"San Antonio","state":"TX","lat":29.4027,"long":-98.6433},{"zip":"78228","city":"San Antonio","state":"TX","lat":29.4589,"long":-98.5699},{"zip":"78229","city":"San Antonio","state":"TX","lat":29.5042,"long":-98.5697},{"zip":"78230","city":"San Antonio","state":"TX","lat":29.5407,"long":-98.5521},{"zip":"78231","city":"San Antonio","state":"TX","lat":29.5714,"long":-98.5414},{"zip":"78232","city":"San Antonio","state":"TX","lat":29.5863,"long":-98.4769},{"zip":"78233","city":"San Antonio","state":"TX","lat":29.5563,"long":-98.3643},{"zip":"78234","city":"Jbsa Ft Sam Houston","state":"TX","lat":29.4241,"long":-98.4936},{"zip":"78235","city":"San Antonio","state":"TX","lat":29.3494,"long":-98.4422},{"zip":"78236","city":"Jbsa Lackland","state":"TX","lat":29.4241,"long":-98.4936},{"zip":"78237","city":"San Antonio","state":"TX","lat":29.4208,"long":-98.5645},{"zip":"78238","city":"San Antonio","state":"TX","lat":29.451,"long":-98.6169},{"zip":"78239","city":"San Antonio","state":"TX","lat":29.5182,"long":-98.3627},{"zip":"78240","city":"San Antonio","state":"TX","lat":29.5189,"long":-98.6006},{"zip":"78241","city":"San Antonio","state":"TX","lat":29.4375,"long":-98.4616},{"zip":"78242","city":"San Antonio","state":"TX","lat":29.3509,"long":-98.6109},{"zip":"78243","city":"San Antonio","state":"TX","lat":29.4375,"long":-98.4616},{"zip":"78244","city":"San Antonio","state":"TX","lat":29.4793,"long":-98.3476},{"zip":"78245","city":"San Antonio","state":"TX","lat":29.4189,"long":-98.6895},{"zip":"78246","city":"San Antonio","state":"TX","lat":29.4375,"long":-98.4616},{"zip":"78247","city":"San Antonio","state":"TX","lat":29.5855,"long":-98.4071},{"zip":"78248","city":"San Antonio","state":"TX","lat":29.5894,"long":-98.5201},{"zip":"78249","city":"San Antonio","state":"TX","lat":29.5612,"long":-98.6117},{"zip":"78250","city":"San Antonio","state":"TX","lat":29.5054,"long":-98.6688},{"zip":"78251","city":"San Antonio","state":"TX","lat":29.4597,"long":-98.6555},{"zip":"78252","city":"San Antonio","state":"TX","lat":29.346,"long":-98.6464},{"zip":"78253","city":"San Antonio","state":"TX","lat":29.4599,"long":-98.7479},{"zip":"78254","city":"San Antonio","state":"TX","lat":29.5551,"long":-98.7442},{"zip":"78255","city":"San Antonio","state":"TX","lat":29.6701,"long":-98.6873},{"zip":"78256","city":"San Antonio","state":"TX","lat":29.6169,"long":-98.6252},{"zip":"78257","city":"San Antonio","state":"TX","lat":29.6495,"long":-98.6137},{"zip":"78258","city":"San Antonio","state":"TX","lat":29.6562,"long":-98.4967},{"zip":"78259","city":"San Antonio","state":"TX","lat":29.6283,"long":-98.4445},{"zip":"78260","city":"San Antonio","state":"TX","lat":29.7026,"long":-98.4759},{"zip":"78261","city":"San Antonio","state":"TX","lat":29.7055,"long":-98.4191},{"zip":"78263","city":"San Antonio","state":"TX","lat":29.3614,"long":-98.3174},{"zip":"78264","city":"San Antonio","state":"TX","lat":29.1733,"long":-98.4723},{"zip":"78265","city":"San Antonio","state":"TX","lat":29.4375,"long":-98.4616},{"zip":"78268","city":"San Antonio","state":"TX","lat":29.4375,"long":-98.4616},{"zip":"78269","city":"San Antonio","state":"TX","lat":29.4375,"long":-98.4616},{"zip":"78270","city":"San Antonio","state":"TX","lat":29.4375,"long":-98.4616},{"zip":"78278","city":"San Antonio","state":"TX","lat":29.4375,"long":-98.4616},{"zip":"78279","city":"San Antonio","state":"TX","lat":29.4375,"long":-98.4616},{"zip":"78280","city":"San Antonio","state":"TX","lat":29.4375,"long":-98.4616},{"zip":"78283","city":"San Antonio","state":"TX","lat":29.4375,"long":-98.4616},{"zip":"78284","city":"San Antonio","state":"TX","lat":29.4426,"long":-98.4913},{"zip":"78285","city":"San Antonio","state":"TX","lat":29.4375,"long":-98.4616},{"zip":"78288","city":"San Antonio","state":"TX","lat":29.4241,"long":-98.4936},{"zip":"78289","city":"San Antonio","state":"TX","lat":29.4375,"long":-98.4616},{"zip":"78291","city":"San Antonio","state":"TX","lat":29.4375,"long":-98.4616},{"zip":"78292","city":"San Antonio","state":"TX","lat":29.4375,"long":-98.4616},{"zip":"78293","city":"San Antonio","state":"TX","lat":29.4375,"long":-98.4616},{"zip":"78294","city":"San Antonio","state":"TX","lat":29.4375,"long":-98.4616},{"zip":"78295","city":"San Antonio","state":"TX","lat":29.4375,"long":-98.4616},{"zip":"78296","city":"San Antonio","state":"TX","lat":29.4375,"long":-98.4616},{"zip":"78297","city":"San Antonio","state":"TX","lat":29.4375,"long":-98.4616},{"zip":"78298","city":"San Antonio","state":"TX","lat":29.4375,"long":-98.4616},{"zip":"78299","city":"San Antonio","state":"TX","lat":29.4375,"long":-98.4616},{"zip":"78606","city":"Blanco","state":"TX","lat":30.0874,"long":-98.4107},{"zip":"78635","city":"Hye","state":"TX","lat":30.2269,"long":-98.5396},{"zip":"78636","city":"Johnson City","state":"TX","lat":30.2948,"long":-98.3691},{"zip":"78663","city":"Round Mountain","state":"TX","lat":30.4429,"long":-98.4365},{"zip":"78353","city":"Encino","state":"TX","lat":26.9249,"long":-98.1922},{"zip":"78355","city":"Falfurrias","state":"TX","lat":27.2242,"long":-98.1408},{"zip":"78605","city":"Bertram","state":"TX","lat":30.7411,"long":-98.0529},{"zip":"78608","city":"Briggs","state":"TX","lat":30.9325,"long":-97.9702},{"zip":"78611","city":"Burnet","state":"TX","lat":30.7766,"long":-98.2642},{"zip":"78654","city":"Marble Falls","state":"TX","lat":30.5784,"long":-98.2751},{"zip":"78616","city":"Dale","state":"TX","lat":29.9528,"long":-97.581},{"zip":"78622","city":"Fentress","state":"TX","lat":29.7561,"long":-97.7764},{"zip":"78644","city":"Lockhart","state":"TX","lat":29.8868,"long":-97.6769},{"zip":"78648","city":"Luling","state":"TX","lat":29.6826,"long":-97.6499},{"zip":"78655","city":"Martindale","state":"TX","lat":29.8394,"long":-97.8508},{"zip":"78656","city":"Maxwell","state":"TX","lat":29.8953,"long":-97.8144},{"zip":"78661","city":"Prairie Lea","state":"TX","lat":29.7239,"long":-97.7449},{"zip":"78520","city":"Brownsville","state":"TX","lat":25.9337,"long":-97.5174},{"zip":"78521","city":"Brownsville","state":"TX","lat":25.9221,"long":-97.4612},{"zip":"78522","city":"Brownsville","state":"TX","lat":25.9017,"long":-97.4975},{"zip":"78523","city":"Brownsville","state":"TX","lat":25.981,"long":-97.5209},{"zip":"78526","city":"Brownsville","state":"TX","lat":25.9717,"long":-97.4699},{"zip":"78535","city":"Combes","state":"TX","lat":26.2451,"long":-97.7416},{"zip":"78550","city":"Harlingen","state":"TX","lat":26.1951,"long":-97.689},{"zip":"78551","city":"Harlingen","state":"TX","lat":26.2447,"long":-97.7206},{"zip":"78552","city":"Harlingen","state":"TX","lat":26.1831,"long":-97.7468},{"zip":"78553","city":"Harlingen","state":"TX","lat":26.1906,"long":-97.6961},{"zip":"78559","city":"La Feria","state":"TX","lat":26.1666,"long":-97.8261},{"zip":"78566","city":"Los Fresnos","state":"TX","lat":26.1158,"long":-97.4107},{"zip":"78567","city":"Los Indios","state":"TX","lat":26.0492,"long":-97.745},{"zip":"78568","city":"Lozano","state":"TX","lat":26.1904,"long":-97.5423},{"zip":"78575","city":"Olmito","state":"TX","lat":26.0353,"long":-97.5496},{"zip":"78578","city":"Port Isabel","state":"TX","lat":26.0539,"long":-97.3125},{"zip":"78583","city":"Rio Hondo","state":"TX","lat":26.2339,"long":-97.5513},{"zip":"78586","city":"San Benito","state":"TX","lat":26.1337,"long":-97.6447},{"zip":"78592","city":"Santa Maria","state":"TX","lat":26.0787,"long":-97.8494},{"zip":"78593","city":"Santa Rosa","state":"TX","lat":26.2555,"long":-97.8257},{"zip":"78597","city":"South Padre Island","state":"TX","lat":26.2393,"long":-97.1936},{"zip":"78934","city":"Columbus","state":"TX","lat":29.7032,"long":-96.5527},{"zip":"78935","city":"Alleyton","state":"TX","lat":29.7092,"long":-96.4865},{"zip":"78943","city":"Glidden","state":"TX","lat":29.6994,"long":-96.5942},{"zip":"78951","city":"Oakland","state":"TX","lat":29.6016,"long":-96.83},{"zip":"78962","city":"Weimar","state":"TX","lat":29.6787,"long":-96.755},{"zip":"78070","city":"Spring Branch","state":"TX","lat":29.9238,"long":-98.3788},{"zip":"78130","city":"New Braunfels","state":"TX","lat":29.7229,"long":-98.0742},{"zip":"78131","city":"New Braunfels","state":"TX","lat":29.703,"long":-98.1245},{"zip":"78132","city":"New Braunfels","state":"TX","lat":29.7565,"long":-98.1983},{"zip":"78133","city":"Canyon Lake","state":"TX","lat":29.9112,"long":-98.2374},{"zip":"78135","city":"New Braunfels","state":"TX","lat":29.703,"long":-98.1245},{"zip":"78163","city":"Bulverde","state":"TX","lat":29.7767,"long":-98.4626},{"zip":"78266","city":"San Antonio","state":"TX","lat":29.6643,"long":-98.3118},{"zip":"78623","city":"Fischer","state":"TX","lat":29.9627,"long":-98.2088},{"zip":"78141","city":"Nordheim","state":"TX","lat":28.9142,"long":-97.5946},{"zip":"78164","city":"Yorktown","state":"TX","lat":28.9892,"long":-97.5121},{"zip":"78827","city":"Asherton","state":"TX","lat":28.4364,"long":-99.7486},{"zip":"78830","city":"Big Wells","state":"TX","lat":28.5693,"long":-99.5781},{"zip":"78834","city":"Carrizo Springs","state":"TX","lat":28.5278,"long":-99.8635},{"zip":"78836","city":"Catarina","state":"TX","lat":28.3598,"long":-99.586},{"zip":"78341","city":"Benavides","state":"TX","lat":27.5925,"long":-98.4142},{"zip":"78349","city":"Concepcion","state":"TX","lat":27.3849,"long":-98.309},{"zip":"78357","city":"Freer","state":"TX","lat":27.88,"long":-98.6061},{"zip":"78376","city":"Realitos","state":"TX","lat":27.4184,"long":-98.514},{"zip":"78384","city":"San Diego","state":"TX","lat":27.7654,"long":-98.2503},{"zip":"78828","city":"Barksdale","state":"TX","lat":29.8282,"long":-100.105},{"zip":"78880","city":"Rocksprings","state":"TX","lat":30.0188,"long":-100.231},{"zip":"78932","city":"Carmine","state":"TX","lat":30.1404,"long":-96.6861},{"zip":"78938","city":"Ellinger","state":"TX","lat":29.8459,"long":-96.6966},{"zip":"78940","city":"Fayetteville","state":"TX","lat":29.8868,"long":-96.6463},{"zip":"78941","city":"Flatonia","state":"TX","lat":29.7095,"long":-97.0987},{"zip":"78945","city":"La Grange","state":"TX","lat":29.904,"long":-96.886},{"zip":"78946","city":"Ledbetter","state":"TX","lat":30.2383,"long":-96.7613},{"zip":"78949","city":"Muldoon","state":"TX","lat":29.7993,"long":-97.1006},{"zip":"78952","city":"Plum","state":"TX","lat":29.9349,"long":-96.9675},{"zip":"78954","city":"Round Top","state":"TX","lat":30.0411,"long":-96.7341},{"zip":"78956","city":"Schulenburg","state":"TX","lat":29.6882,"long":-96.9106},{"zip":"78960","city":"Warda","state":"TX","lat":30.0702,"long":-96.902},{"zip":"78961","city":"Round Top","state":"TX","lat":30.0652,"long":-96.6961},{"zip":"78963","city":"West Point","state":"TX","lat":29.9523,"long":-97.0361},{"zip":"78005","city":"Bigfoot","state":"TX","lat":29.0531,"long":-98.8582},{"zip":"78017","city":"Dilley","state":"TX","lat":28.6782,"long":-99.1747},{"zip":"78057","city":"Moore","state":"TX","lat":29.0595,"long":-99.0204},{"zip":"78061","city":"Pearsall","state":"TX","lat":28.8923,"long":-99.0944},{"zip":"78618","city":"Doss","state":"TX","lat":30.4613,"long":-99.1707},{"zip":"78624","city":"Fredericksburg","state":"TX","lat":30.2817,"long":-98.8799},{"zip":"78631","city":"Harper","state":"TX","lat":30.2816,"long":-99.241},{"zip":"78671","city":"Stonewall","state":"TX","lat":30.2088,"long":-98.6131},{"zip":"78675","city":"Willow City","state":"TX","lat":30.4549,"long":-98.6646},{"zip":"78107","city":"Berclair","state":"TX","lat":28.5295,"long":-97.5925},{"zip":"78122","city":"Leesville","state":"TX","lat":29.3961,"long":-97.7566},{"zip":"78140","city":"Nixon","state":"TX","lat":29.3016,"long":-97.7529},{"zip":"78159","city":"Smiley","state":"TX","lat":29.2655,"long":-97.6227},{"zip":"78604","city":"Belmont","state":"TX","lat":29.5233,"long":-97.6839},{"zip":"78614","city":"Cost","state":"TX","lat":29.4321,"long":-97.5531},{"zip":"78629","city":"Gonzales","state":"TX","lat":29.5086,"long":-97.4495},{"zip":"78632","city":"Harwood","state":"TX","lat":29.6661,"long":-97.4906},{"zip":"78658","city":"Ottine","state":"TX","lat":29.5952,"long":-97.5911},{"zip":"78677","city":"Wrightsboro","state":"TX","lat":29.3739,"long":-97.565},{"zip":"78959","city":"Waelder","state":"TX","lat":29.6868,"long":-97.2958},{"zip":"78108","city":"Cibolo","state":"TX","lat":29.575,"long":-98.228},{"zip":"78115","city":"Geronimo","state":"TX","lat":29.5451,"long":-98.0408},{"zip":"78123","city":"Mc Queeney","state":"TX","lat":29.6023,"long":-98.0492},{"zip":"78124","city":"Marion","state":"TX","lat":29.5683,"long":-98.1517},{"zip":"78154","city":"Schertz","state":"TX","lat":29.579,"long":-98.2778},{"zip":"78155","city":"Seguin","state":"TX","lat":29.5613,"long":-97.9628},{"zip":"78156","city":"Seguin","state":"TX","lat":29.6118,"long":-97.9712},{"zip":"78638","city":"Kingsbury","state":"TX","lat":29.6726,"long":-97.8306},{"zip":"78670","city":"Staples","state":"TX","lat":29.7706,"long":-97.8186},{"zip":"78610","city":"Buda","state":"TX","lat":30.0918,"long":-97.8534},{"zip":"78619","city":"Driftwood","state":"TX","lat":30.1072,"long":-98.0327},{"zip":"78620","city":"Dripping Springs","state":"TX","lat":30.2268,"long":-98.1029},{"zip":"78640","city":"Kyle","state":"TX","lat":29.9966,"long":-97.8335},{"zip":"78666","city":"San Marcos","state":"TX","lat":29.8754,"long":-97.9404},{"zip":"78667","city":"San Marcos","state":"TX","lat":30.0544,"long":-98.0036},{"zip":"78676","city":"Wimberley","state":"TX","lat":30.0265,"long":-98.1123},{"zip":"78501","city":"Mcallen","state":"TX","lat":26.2154,"long":-98.2359},{"zip":"78502","city":"Mcallen","state":"TX","lat":26.2567,"long":-98.1989},{"zip":"78503","city":"Mcallen","state":"TX","lat":26.1771,"long":-98.252},{"zip":"78504","city":"Mcallen","state":"TX","lat":26.2556,"long":-98.2303},{"zip":"78505","city":"Mcallen","state":"TX","lat":26.2034,"long":-98.23},{"zip":"78516","city":"Alamo","state":"TX","lat":26.1906,"long":-98.1164},{"zip":"78537","city":"Donna","state":"TX","lat":26.1671,"long":-98.0529},{"zip":"78538","city":"Edcouch","state":"TX","lat":26.3328,"long":-97.9622},{"zip":"78539","city":"Edinburg","state":"TX","lat":26.2792,"long":-98.1832},{"zip":"78540","city":"Edinburg","state":"TX","lat":26.3017,"long":-98.1633},{"zip":"78541","city":"Edinburg","state":"TX","lat":26.4481,"long":-98.2842},{"zip":"78542","city":"Edinburg","state":"TX","lat":26.4661,"long":-98.0695},{"zip":"78543","city":"Elsa","state":"TX","lat":26.2974,"long":-97.9884},{"zip":"78549","city":"Hargill","state":"TX","lat":26.4671,"long":-98.0393},{"zip":"78557","city":"Hidalgo","state":"TX","lat":26.1028,"long":-98.2536},{"zip":"78558","city":"La Blanca","state":"TX","lat":26.3125,"long":-98.0335},{"zip":"78560","city":"La Joya","state":"TX","lat":26.2426,"long":-98.4747},{"zip":"78562","city":"La Villa","state":"TX","lat":26.2999,"long":-97.9247},{"zip":"78563","city":"Linn","state":"TX","lat":26.6279,"long":-98.2498},{"zip":"78565","city":"Los Ebanos","state":"TX","lat":26.2434,"long":-98.5617},{"zip":"78570","city":"Mercedes","state":"TX","lat":26.1513,"long":-97.9185},{"zip":"78572","city":"Mission","state":"TX","lat":26.2159,"long":-98.3253},{"zip":"78573","city":"Mission","state":"TX","lat":26.2937,"long":-98.3008},{"zip":"78576","city":"Penitas","state":"TX","lat":26.278,"long":-98.4469},{"zip":"78577","city":"Pharr","state":"TX","lat":26.1771,"long":-98.187},{"zip":"78579","city":"Progreso","state":"TX","lat":26.0922,"long":-97.9533},{"zip":"78589","city":"San Juan","state":"TX","lat":26.2044,"long":-98.1537},{"zip":"78595","city":"Sullivan City","state":"TX","lat":26.272,"long":-98.5627},{"zip":"78596","city":"Weslaco","state":"TX","lat":26.1694,"long":-97.9887},{"zip":"78599","city":"Weslaco","state":"TX","lat":26.1595,"long":-97.9908},{"zip":"78360","city":"Guerra","state":"TX","lat":26.8831,"long":-98.8936},{"zip":"78361","city":"Hebbronville","state":"TX","lat":27.2997,"long":-98.6829},{"zip":"78332","city":"Alice","state":"TX","lat":27.7432,"long":-98.0836},{"zip":"78333","city":"Alice","state":"TX","lat":27.7522,"long":-98.0697},{"zip":"78342","city":"Ben Bolt","state":"TX","lat":27.6475,"long":-98.0814},{"zip":"78372","city":"Orange Grove","state":"TX","lat":27.9487,"long":-97.9838},{"zip":"78375","city":"Premont","state":"TX","lat":27.3544,"long":-98.133},{"zip":"78383","city":"Sandia","state":"TX","lat":28.025,"long":-97.8705},{"zip":"78111","city":"Ecleto","state":"TX","lat":29.0464,"long":-97.7514},{"zip":"78113","city":"Falls City","state":"TX","lat":28.9814,"long":-98.0156},{"zip":"78116","city":"Gillett","state":"TX","lat":29.0514,"long":-97.8343},{"zip":"78117","city":"Hobson","state":"TX","lat":28.9445,"long":-97.9707},{"zip":"78118","city":"Karnes City","state":"TX","lat":28.8828,"long":-97.9071},{"zip":"78119","city":"Kenedy","state":"TX","lat":28.8046,"long":-97.8456},{"zip":"78144","city":"Panna Maria","state":"TX","lat":28.9562,"long":-97.8982},{"zip":"78151","city":"Runge","state":"TX","lat":28.8876,"long":-97.7138},{"zip":"78004","city":"Bergheim","state":"TX","lat":29.8979,"long":-98.5642},{"zip":"78006","city":"Boerne","state":"TX","lat":29.8931,"long":-98.6857},{"zip":"78013","city":"Comfort","state":"TX","lat":29.9677,"long":-98.905},{"zip":"78027","city":"Kendalia","state":"TX","lat":29.9406,"long":-98.5166},{"zip":"78074","city":"Waring","state":"TX","lat":29.9523,"long":-98.7944},{"zip":"78338","city":"Armstrong","state":"TX","lat":26.8698,"long":-97.7698},{"zip":"78385","city":"Sarita","state":"TX","lat":27.1496,"long":-97.8576},{"zip":"78010","city":"Center Point","state":"TX","lat":29.9441,"long":-99.0364},{"zip":"78024","city":"Hunt","state":"TX","lat":30.0027,"long":-99.4823},{"zip":"78025","city":"Ingram","state":"TX","lat":30.0731,"long":-99.269},{"zip":"78028","city":"Kerrville","state":"TX","lat":30.0416,"long":-99.1408},{"zip":"78029","city":"Kerrville","state":"TX","lat":30.0332,"long":-99.141},{"zip":"78058","city":"Mountain Home","state":"TX","lat":30.1725,"long":-99.485},{"zip":"78832","city":"Brackettville","state":"TX","lat":29.3096,"long":-100.4155},{"zip":"78363","city":"Kingsville","state":"TX","lat":27.4229,"long":-97.8407},{"zip":"78364","city":"Kingsville","state":"TX","lat":27.5159,"long":-97.8561},{"zip":"78379","city":"Riviera","state":"TX","lat":27.3217,"long":-97.7787},{"zip":"78001","city":"Artesia Wells","state":"TX","lat":28.2639,"long":-99.2802},{"zip":"78014","city":"Cotulla","state":"TX","lat":28.4398,"long":-99.2328},{"zip":"78019","city":"Encinal","state":"TX","lat":28.0405,"long":-99.3563},{"zip":"78021","city":"Fowlerton","state":"TX","lat":28.4887,"long":-98.8518},{"zip":"78942","city":"Giddings","state":"TX","lat":30.1777,"long":-96.9332},{"zip":"78947","city":"Lexington","state":"TX","lat":30.4191,"long":-97.0524},{"zip":"78948","city":"Lincoln","state":"TX","lat":30.3177,"long":-96.9702},{"zip":"78022","city":"George West","state":"TX","lat":28.3204,"long":-98.1162},{"zip":"78060","city":"Oakville","state":"TX","lat":28.4492,"long":-98.1019},{"zip":"78071","city":"Three Rivers","state":"TX","lat":28.4756,"long":-98.1782},{"zip":"78075","city":"Whitsett","state":"TX","lat":28.6373,"long":-98.2565},{"zip":"78350","city":"Dinero","state":"TX","lat":28.2264,"long":-97.9617},{"zip":"78607","city":"Bluffton","state":"TX","lat":30.8256,"long":-98.515},{"zip":"78609","city":"Buchanan Dam","state":"TX","lat":30.7538,"long":-98.4295},{"zip":"78639","city":"Kingsland","state":"TX","lat":30.6662,"long":-98.4475},{"zip":"78643","city":"Llano","state":"TX","lat":30.7151,"long":-98.6109},{"zip":"78657","city":"Horseshoe Bay","state":"TX","lat":30.5443,"long":-98.3739},{"zip":"78672","city":"Tow","state":"TX","lat":30.8609,"long":-98.4596},{"zip":"78007","city":"Calliham","state":"TX","lat":28.4805,"long":-98.3503},{"zip":"78072","city":"Tilden","state":"TX","lat":28.4198,"long":-98.5693},{"zip":"78852","city":"Eagle Pass","state":"TX","lat":28.7028,"long":-100.4818},{"zip":"78853","city":"Eagle Pass","state":"TX","lat":28.679,"long":-100.4784},{"zip":"78860","city":"El Indio","state":"TX","lat":28.5119,"long":-100.3112},{"zip":"78877","city":"Quemado","state":"TX","lat":28.9256,"long":-100.5912},{"zip":"78009","city":"Castroville","state":"TX","lat":29.3553,"long":-98.8824},{"zip":"78016","city":"Devine","state":"TX","lat":29.1521,"long":-98.909},{"zip":"78039","city":"La Coste","state":"TX","lat":29.3082,"long":-98.8125},{"zip":"78056","city":"Mico","state":"TX","lat":29.5441,"long":-98.9231},{"zip":"78059","city":"Natalia","state":"TX","lat":29.2117,"long":-98.8552},{"zip":"78066","city":"Rio Medina","state":"TX","lat":29.4612,"long":-98.8694},{"zip":"78850","city":"D Hanis","state":"TX","lat":29.3398,"long":-99.2835},{"zip":"78861","city":"Hondo","state":"TX","lat":29.3475,"long":-99.1414},{"zip":"78886","city":"Yancey","state":"TX","lat":29.1404,"long":-99.1428},{"zip":"78330","city":"Agua Dulce","state":"TX","lat":27.7817,"long":-97.9086},{"zip":"78339","city":"Banquete","state":"TX","lat":27.8051,"long":-97.7922},{"zip":"78343","city":"Bishop","state":"TX","lat":27.5886,"long":-97.783},{"zip":"78347","city":"Chapman Ranch","state":"TX","lat":27.5988,"long":-97.462},{"zip":"78351","city":"Driscoll","state":"TX","lat":27.6745,"long":-97.7486},{"zip":"78373","city":"Port Aransas","state":"TX","lat":27.7707,"long":-97.1051},{"zip":"78380","city":"Robstown","state":"TX","lat":27.7984,"long":-97.6995},{"zip":"78401","city":"Corpus Christi","state":"TX","lat":27.7941,"long":-97.403},{"zip":"78402","city":"Corpus Christi","state":"TX","lat":27.8262,"long":-97.3857},{"zip":"78403","city":"Corpus Christi","state":"TX","lat":27.777,"long":-97.4632},{"zip":"78404","city":"Corpus Christi","state":"TX","lat":27.7683,"long":-97.4013},{"zip":"78405","city":"Corpus Christi","state":"TX","lat":27.7762,"long":-97.4271},{"zip":"78406","city":"Corpus Christi","state":"TX","lat":27.7684,"long":-97.5144},{"zip":"78407","city":"Corpus Christi","state":"TX","lat":27.8042,"long":-97.4356},{"zip":"78408","city":"Corpus Christi","state":"TX","lat":27.7945,"long":-97.4381},{"zip":"78409","city":"Corpus Christi","state":"TX","lat":27.8146,"long":-97.527},{"zip":"78410","city":"Corpus Christi","state":"TX","lat":27.8458,"long":-97.596},{"zip":"78411","city":"Corpus Christi","state":"TX","lat":27.7311,"long":-97.3877},{"zip":"78412","city":"Corpus Christi","state":"TX","lat":27.7061,"long":-97.3537},{"zip":"78413","city":"Corpus Christi","state":"TX","lat":27.691,"long":-97.3983},{"zip":"78414","city":"Corpus Christi","state":"TX","lat":27.677,"long":-97.365},{"zip":"78415","city":"Corpus Christi","state":"TX","lat":27.7262,"long":-97.4078},{"zip":"78416","city":"Corpus Christi","state":"TX","lat":27.7536,"long":-97.4347},{"zip":"78417","city":"Corpus Christi","state":"TX","lat":27.729,"long":-97.4494},{"zip":"78418","city":"Corpus Christi","state":"TX","lat":27.6349,"long":-97.3103},{"zip":"78419","city":"Corpus Christi","state":"TX","lat":27.6952,"long":-97.2694},{"zip":"78426","city":"Corpus Christi","state":"TX","lat":27.777,"long":-97.4632},{"zip":"78427","city":"Corpus Christi","state":"TX","lat":27.8006,"long":-97.3964},{"zip":"78460","city":"Corpus Christi","state":"TX","lat":27.8006,"long":-97.3964},{"zip":"78463","city":"Corpus Christi","state":"TX","lat":27.777,"long":-97.4632},{"zip":"78465","city":"Corpus Christi","state":"TX","lat":27.777,"long":-97.4632},{"zip":"78466","city":"Corpus Christi","state":"TX","lat":27.777,"long":-97.4632},{"zip":"78467","city":"Corpus Christi","state":"TX","lat":27.777,"long":-97.4632},{"zip":"78468","city":"Corpus Christi","state":"TX","lat":27.777,"long":-97.4632},{"zip":"78469","city":"Corpus Christi","state":"TX","lat":27.777,"long":-97.4632},{"zip":"78472","city":"Corpus Christi","state":"TX","lat":27.7402,"long":-97.5792},{"zip":"78480","city":"Corpus Christi","state":"TX","lat":27.777,"long":-97.4632},{"zip":"78833","city":"Camp Wood","state":"TX","lat":29.6795,"long":-100.0084},{"zip":"78873","city":"Leakey","state":"TX","lat":29.769,"long":-99.7479},{"zip":"78879","city":"Rio Frio","state":"TX","lat":29.6495,"long":-99.7165},{"zip":"78340","city":"Bayside","state":"TX","lat":28.0968,"long":-97.2106},{"zip":"78377","city":"Refugio","state":"TX","lat":28.3169,"long":-97.2767},{"zip":"78393","city":"Woodsboro","state":"TX","lat":28.2232,"long":-97.3192},{"zip":"78335","city":"Aransas Pass","state":"TX","lat":27.9125,"long":-97.1884},{"zip":"78336","city":"Aransas Pass","state":"TX","lat":27.9095,"long":-97.1591},{"zip":"78352","city":"Edroy","state":"TX","lat":27.9736,"long":-97.6761},{"zip":"78359","city":"Gregory","state":"TX","lat":27.9222,"long":-97.29},{"zip":"78362","city":"Ingleside","state":"TX","lat":27.8682,"long":-97.2069},{"zip":"78368","city":"Mathis","state":"TX","lat":28.0802,"long":-97.8097},{"zip":"78370","city":"Odem","state":"TX","lat":27.9403,"long":-97.5838},{"zip":"78374","city":"Portland","state":"TX","lat":27.8935,"long":-97.3169},{"zip":"78387","city":"Sinton","state":"TX","lat":28.0339,"long":-97.5196},{"zip":"78390","city":"Taft","state":"TX","lat":27.9765,"long":-97.3966},{"zip":"78536","city":"Delmita","state":"TX","lat":26.6801,"long":-98.4125},{"zip":"78545","city":"Falcon Heights","state":"TX","lat":26.562,"long":-99.1335},{"zip":"78547","city":"Garciasville","state":"TX","lat":26.3396,"long":-98.6876},{"zip":"78548","city":"Grulla","state":"TX","lat":26.2897,"long":-98.6479},{"zip":"78582","city":"Rio Grande City","state":"TX","lat":26.3942,"long":-98.8104},{"zip":"78584","city":"Roma","state":"TX","lat":26.4215,"long":-99.0025},{"zip":"78585","city":"Salineno","state":"TX","lat":26.5164,"long":-99.1123},{"zip":"78588","city":"San Isidro","state":"TX","lat":26.7167,"long":-98.4539},{"zip":"78591","city":"Santa Elena","state":"TX","lat":26.5808,"long":-98.5138},{"zip":"78851","city":"Dryden","state":"TX","lat":30.0446,"long":-102.1146},{"zip":"78617","city":"Del Valle","state":"TX","lat":30.1745,"long":-97.6134},{"zip":"78645","city":"Leander","state":"TX","lat":30.449,"long":-97.9669},{"zip":"78651","city":"Mc Neil","state":"TX","lat":30.3264,"long":-97.7713},{"zip":"78652","city":"Manchaca","state":"TX","lat":30.1238,"long":-97.8393},{"zip":"78653","city":"Manor","state":"TX","lat":30.3388,"long":-97.5323},{"zip":"78660","city":"Pflugerville","state":"TX","lat":30.4421,"long":-97.6299},{"zip":"78669","city":"Spicewood","state":"TX","lat":30.3899,"long":-98.0539},{"zip":"78691","city":"Pflugerville","state":"TX","lat":30.4394,"long":-97.62},{"zip":"78701","city":"Austin","state":"TX","lat":30.2713,"long":-97.7426},{"zip":"78702","city":"Austin","state":"TX","lat":30.2638,"long":-97.7166},{"zip":"78703","city":"Austin","state":"TX","lat":30.2907,"long":-97.7648},{"zip":"78704","city":"Austin","state":"TX","lat":30.2428,"long":-97.7658},{"zip":"78705","city":"Austin","state":"TX","lat":30.2896,"long":-97.7396},{"zip":"78708","city":"Austin","state":"TX","lat":30.3264,"long":-97.7713},{"zip":"78709","city":"Austin","state":"TX","lat":30.3264,"long":-97.7713},{"zip":"78710","city":"Austin","state":"TX","lat":30.352,"long":-97.7151},{"zip":"78711","city":"Austin","state":"TX","lat":30.3264,"long":-97.7713},{"zip":"78712","city":"Austin","state":"TX","lat":30.2852,"long":-97.7354},{"zip":"78713","city":"Austin","state":"TX","lat":30.2672,"long":-97.7431},{"zip":"78714","city":"Austin","state":"TX","lat":30.2672,"long":-97.7431},{"zip":"78715","city":"Austin","state":"TX","lat":30.2672,"long":-97.7431},{"zip":"78716","city":"Austin","state":"TX","lat":30.3162,"long":-97.8588},{"zip":"78718","city":"Austin","state":"TX","lat":30.3264,"long":-97.7713},{"zip":"78719","city":"Austin","state":"TX","lat":30.1802,"long":-97.6667},{"zip":"78720","city":"Austin","state":"TX","lat":30.3264,"long":-97.7713},{"zip":"78721","city":"Austin","state":"TX","lat":30.2721,"long":-97.6868},{"zip":"78722","city":"Austin","state":"TX","lat":30.2893,"long":-97.715},{"zip":"78723","city":"Austin","state":"TX","lat":30.3085,"long":-97.6849},{"zip":"78724","city":"Austin","state":"TX","lat":30.296,"long":-97.6396},{"zip":"78725","city":"Austin","state":"TX","lat":30.2562,"long":-97.6243},{"zip":"78726","city":"Austin","state":"TX","lat":30.43,"long":-97.8326},{"zip":"78727","city":"Austin","state":"TX","lat":30.4254,"long":-97.7195},{"zip":"78728","city":"Austin","state":"TX","lat":30.4417,"long":-97.6811},{"zip":"78730","city":"Austin","state":"TX","lat":30.3607,"long":-97.8241},{"zip":"78731","city":"Austin","state":"TX","lat":30.3471,"long":-97.7609},{"zip":"78732","city":"Austin","state":"TX","lat":30.3752,"long":-97.9007},{"zip":"78733","city":"Austin","state":"TX","lat":30.3314,"long":-97.8666},{"zip":"78734","city":"Austin","state":"TX","lat":30.3705,"long":-97.9427},{"zip":"78735","city":"Austin","state":"TX","lat":30.249,"long":-97.8414},{"zip":"78736","city":"Austin","state":"TX","lat":30.2444,"long":-97.916},{"zip":"78737","city":"Austin","state":"TX","lat":30.2107,"long":-97.9427},{"zip":"78738","city":"Austin","state":"TX","lat":30.3337,"long":-97.9824},{"zip":"78739","city":"Austin","state":"TX","lat":30.172,"long":-97.8784},{"zip":"78741","city":"Austin","state":"TX","lat":30.2315,"long":-97.7223},{"zip":"78742","city":"Austin","state":"TX","lat":30.2313,"long":-97.6703},{"zip":"78744","city":"Austin","state":"TX","lat":30.1876,"long":-97.7472},{"zip":"78745","city":"Austin","state":"TX","lat":30.2063,"long":-97.7956},{"zip":"78746","city":"Austin","state":"TX","lat":30.2971,"long":-97.8181},{"zip":"78747","city":"Austin","state":"TX","lat":30.1204,"long":-97.7433},{"zip":"78748","city":"Austin","state":"TX","lat":30.1743,"long":-97.8225},{"zip":"78749","city":"Austin","state":"TX","lat":30.2166,"long":-97.8508},{"zip":"78750","city":"Austin","state":"TX","lat":30.4224,"long":-97.7967},{"zip":"78751","city":"Austin","state":"TX","lat":30.3093,"long":-97.7242},{"zip":"78752","city":"Austin","state":"TX","lat":30.3316,"long":-97.7004},{"zip":"78753","city":"Austin","state":"TX","lat":30.3649,"long":-97.6827},{"zip":"78754","city":"Austin","state":"TX","lat":30.3423,"long":-97.6673},{"zip":"78755","city":"Austin","state":"TX","lat":30.3264,"long":-97.7713},{"zip":"78756","city":"Austin","state":"TX","lat":30.3223,"long":-97.739},{"zip":"78757","city":"Austin","state":"TX","lat":30.3437,"long":-97.7316},{"zip":"78758","city":"Austin","state":"TX","lat":30.3764,"long":-97.7078},{"zip":"78759","city":"Austin","state":"TX","lat":30.4036,"long":-97.7526},{"zip":"78760","city":"Austin","state":"TX","lat":30.3264,"long":-97.7713},{"zip":"78761","city":"Austin","state":"TX","lat":30.3264,"long":-97.7713},{"zip":"78762","city":"Austin","state":"TX","lat":30.3264,"long":-97.7713},{"zip":"78763","city":"Austin","state":"TX","lat":30.3354,"long":-97.5598},{"zip":"78764","city":"Austin","state":"TX","lat":30.4455,"long":-97.6595},{"zip":"78765","city":"Austin","state":"TX","lat":30.3264,"long":-97.7713},{"zip":"78766","city":"Austin","state":"TX","lat":30.2672,"long":-97.7431},{"zip":"78767","city":"Austin","state":"TX","lat":30.2672,"long":-97.7431},{"zip":"78768","city":"Austin","state":"TX","lat":30.2672,"long":-97.7431},{"zip":"78769","city":"Austin","state":"TX","lat":30.3264,"long":-97.7713},{"zip":"78772","city":"Austin","state":"TX","lat":30.3264,"long":-97.7713},{"zip":"78773","city":"Austin","state":"TX","lat":30.3264,"long":-97.7713},{"zip":"78774","city":"Austin","state":"TX","lat":30.3264,"long":-97.7713},{"zip":"78778","city":"Austin","state":"TX","lat":30.3264,"long":-97.7713},{"zip":"78779","city":"Austin","state":"TX","lat":30.3264,"long":-97.7713},{"zip":"78783","city":"Austin","state":"TX","lat":30.3264,"long":-97.7713},{"zip":"78799","city":"Austin","state":"TX","lat":30.2672,"long":-97.7431},{"zip":"78801","city":"Uvalde","state":"TX","lat":29.2172,"long":-99.7931},{"zip":"78802","city":"Uvalde","state":"TX","lat":29.2237,"long":-99.7794},{"zip":"78838","city":"Concan","state":"TX","lat":29.4952,"long":-99.7126},{"zip":"78870","city":"Knippa","state":"TX","lat":29.2911,"long":-99.6372},{"zip":"78881","city":"Sabinal","state":"TX","lat":29.3267,"long":-99.4781},{"zip":"78884","city":"Utopia","state":"TX","lat":29.5972,"long":-99.5585},{"zip":"78837","city":"Comstock","state":"TX","lat":29.7484,"long":-101.2628},{"zip":"78840","city":"Del Rio","state":"TX","lat":29.4102,"long":-100.8932},{"zip":"78841","city":"Del Rio","state":"TX","lat":29.3465,"long":-100.9289},{"zip":"78842","city":"Del Rio","state":"TX","lat":29.412,"long":-100.9342},{"zip":"78843","city":"Laughlin Afb","state":"TX","lat":29.3627,"long":-100.8968},{"zip":"78847","city":"Del Rio","state":"TX","lat":29.3627,"long":-100.8968},{"zip":"78871","city":"Langtry","state":"TX","lat":29.8085,"long":-101.5587},{"zip":"78040","city":"Laredo","state":"TX","lat":27.5155,"long":-99.4986},{"zip":"78041","city":"Laredo","state":"TX","lat":27.5569,"long":-99.4907},{"zip":"78042","city":"Laredo","state":"TX","lat":27.5655,"long":-99.4768},{"zip":"78043","city":"Laredo","state":"TX","lat":27.5879,"long":-99.2176},{"zip":"78044","city":"Laredo","state":"TX","lat":27.3637,"long":-99.4819},{"zip":"78045","city":"Laredo","state":"TX","lat":27.6357,"long":-99.5923},{"zip":"78046","city":"Laredo","state":"TX","lat":27.4047,"long":-99.4743},{"zip":"78344","city":"Bruni","state":"TX","lat":27.4295,"long":-98.8385},{"zip":"78369","city":"Mirando City","state":"TX","lat":27.445,"long":-99.0011},{"zip":"78371","city":"Oilton","state":"TX","lat":27.4685,"long":-98.9586},{"zip":"78561","city":"Lasara","state":"TX","lat":26.4648,"long":-97.9111},{"zip":"78569","city":"Lyford","state":"TX","lat":26.4089,"long":-97.7817},{"zip":"78574","city":"Mission","state":"TX","lat":26.3189,"long":-98.3701},{"zip":"78580","city":"Raymondville","state":"TX","lat":26.4792,"long":-97.7967},{"zip":"78590","city":"San Perlita","state":"TX","lat":26.5012,"long":-97.6397},{"zip":"78594","city":"Sebastian","state":"TX","lat":26.344,"long":-97.8123},{"zip":"78598","city":"Port Mansfield","state":"TX","lat":26.5548,"long":-97.425},{"zip":"78613","city":"Cedar Park","state":"TX","lat":30.5052,"long":-97.8203},{"zip":"78615","city":"Coupland","state":"TX","lat":30.4872,"long":-97.3676},{"zip":"78626","city":"Georgetown","state":"TX","lat":30.633,"long":-97.6707},{"zip":"78627","city":"Georgetown","state":"TX","lat":30.6327,"long":-97.6772},{"zip":"78628","city":"Georgetown","state":"TX","lat":30.6411,"long":-97.7511},{"zip":"78630","city":"Cedar Park","state":"TX","lat":30.5052,"long":-97.8203},{"zip":"78633","city":"Georgetown","state":"TX","lat":30.7177,"long":-97.7543},{"zip":"78634","city":"Hutto","state":"TX","lat":30.5257,"long":-97.5672},{"zip":"78641","city":"Leander","state":"TX","lat":30.5835,"long":-97.8575},{"zip":"78642","city":"Liberty Hill","state":"TX","lat":30.663,"long":-97.9316},{"zip":"78646","city":"Leander","state":"TX","lat":30.5788,"long":-97.8531},{"zip":"78664","city":"Round Rock","state":"TX","lat":30.5145,"long":-97.668},{"zip":"78665","city":"Round Rock","state":"TX","lat":30.5145,"long":-97.668},{"zip":"78673","city":"Walburg","state":"TX","lat":30.7415,"long":-97.5891},{"zip":"78674","city":"Weir","state":"TX","lat":30.6747,"long":-97.5929},{"zip":"78680","city":"Round Rock","state":"TX","lat":30.6568,"long":-97.6026},{"zip":"78681","city":"Round Rock","state":"TX","lat":30.5084,"long":-97.7062},{"zip":"78682","city":"Round Rock","state":"TX","lat":30.6568,"long":-97.6026},{"zip":"78683","city":"Round Rock","state":"TX","lat":30.6568,"long":-97.6026},{"zip":"78717","city":"Austin","state":"TX","lat":30.506,"long":-97.7472},{"zip":"78729","city":"Austin","state":"TX","lat":30.4521,"long":-97.7688},{"zip":"78114","city":"Floresville","state":"TX","lat":29.1693,"long":-98.1936},{"zip":"78121","city":"La Vernia","state":"TX","lat":29.3509,"long":-98.113},{"zip":"78143","city":"Pandora","state":"TX","lat":29.2484,"long":-97.8287},{"zip":"78147","city":"Poth","state":"TX","lat":29.0619,"long":-98.0825},{"zip":"78160","city":"Stockdale","state":"TX","lat":29.2319,"long":-97.9351},{"zip":"78161","city":"Sutherland Springs","state":"TX","lat":29.2888,"long":-98.0509},{"zip":"78067","city":"San Ygnacio","state":"TX","lat":27.1583,"long":-99.3202},{"zip":"78076","city":"Zapata","state":"TX","lat":26.8897,"long":-99.2506},{"zip":"78564","city":"Lopeno","state":"TX","lat":26.9454,"long":-99.204},{"zip":"78829","city":"Batesville","state":"TX","lat":28.9286,"long":-99.6115},{"zip":"78839","city":"Crystal City","state":"TX","lat":28.687,"long":-99.8264},{"zip":"78872","city":"La Pryor","state":"TX","lat":28.9488,"long":-99.8507}]
