[{"zip":"78008","city":"Campbellton","state":"TX","lat":28.767,"long":-98.2566},{"zip":"78011","city":"Charlotte","state":"TX","lat":28.8649,"long":-98.707},{"zip":"78012","city":"Christine","state":"TX","lat":28.7858,"long":-98.4886},{"zip":"78026","city":"Jourdanton","state":"TX","lat":28.903,"long":-98.544},{"zip":"78050","city":"Leming","state":"TX","lat":29.073,"long":-98.4842},{"zip":"78052","city":"Lytle","state":"TX","lat":29.2366,"long":-98.7945},{"zip":"78062","city":"Peggy","state":"TX","lat":28.7397,"long":-98.1786},{"zip":"78064","city":"Pleasanton","state":"TX","lat":28.9924,"long":-98.4831},{"zip":"78065","city":"Poteet","state":"TX","lat":29.0994,"long":-98.6241},{"zip":"78003","city":"Bandera","state":"TX","lat":29.7276,"long":-99.0453},{"zip":"78055","city":"Medina","state":"TX","lat":29.8475,"long":-99.3215},{"zip":"78063","city":"Pipe Creek","state":"TX","lat":29.6796,"long":-98.9484},{"zip":"78002","city":"Atascosa","state":"TX","lat":29.2705,"long":-98.7421},{"zip":"78015","city":"Boerne","state":"TX","lat":29.7327,"long":-98.6646},{"zip":"78023","city":"Helotes","state":"TX","lat":29.6321,"long":-98.7542},{"zip":"78054","city":"Macdona","state":"TX","lat":29.3258,"long":-98.6911},{"zip":"78069","city":"Somerset","state":"TX","lat":29.2205,"long":-98.6678},{"zip":"78073","city":"Von Ormy","state":"TX","lat":29.275,"long":-98.6677},{"zip":"78070","city":"Spring Branch","state":"TX","lat":29.9238,"long":-98.3788},{"zip":"78005","city":"Bigfoot","state":"TX","lat":29.0531,"long":-98.8582},{"zip":"78017","city":"Dilley","state":"TX","lat":28.6782,"long":-99.1747},{"zip":"78057","city":"Moore","state":"TX","lat":29.0595,"long":-99.0204},{"zip":"78061","city":"Pearsall","state":"TX","lat":28.8923,"long":-99.0944},{"zip":"78004","city":"Bergheim","state":"TX","lat":29.8979,"long":-98.5642},{"zip":"78006","city":"Boerne","state":"TX","lat":29.8931,"long":-98.6857},{"zip":"78013","city":"Comfort","state":"TX","lat":29.9677,"long":-98.905},{"zip":"78027","city":"Kendalia","state":"TX","lat":29.9406,"long":-98.5166},{"zip":"78074","city":"Waring","state":"TX","lat":29.9523,"long":-98.7944},{"zip":"78010","city":"Center Point","state":"TX","lat":29.9441,"long":-99.0364},{"zip":"78024","city":"Hunt","state":"TX","lat":30.0027,"long":-99.4823},{"zip":"78025","city":"Ingram","state":"TX","lat":30.0731,"long":-99.269},{"zip":"78028","city":"Kerrville","state":"TX","lat":30.0416,"long":-99.1408},{"zip":"78029","city":"Kerrville","state":"TX","lat":30.0332,"long":-99.141},{"zip":"78058","city":"Mountain Home","state":"TX","lat":30.1725,"long":-99.485},{"zip":"78001","city":"Artesia Wells","state":"TX","lat":28.2639,"long":-99.2802},{"zip":"78014","city":"Cotulla","state":"TX","lat":28.4398,"long":-99.2328},{"zip":"78019","city":"Encinal","state":"TX","lat":28.0405,"long":-99.3563},{"zip":"78021","city":"Fowlerton","state":"TX","lat":28.4887,"long":-98.8518},{"zip":"78022","city":"George West","state":"TX","lat":28.3204,"long":-98.1162},{"zip":"78060","city":"Oakville","state":"TX","lat":28.4492,"long":-98.1019},{"zip":"78071","city":"Three Rivers","state":"TX","lat":28.4756,"long":-98.1782},{"zip":"78075","city":"Whitsett","state":"TX","lat":28.6373,"long":-98.2565},{"zip":"78007","city":"Calliham","state":"TX","lat":28.4805,"long":-98.3503},{"zip":"78072","city":"Tilden","state":"TX","lat":28.4198,"long":-98.5693},{"zip":"78009","city":"Castroville","state":"TX","lat":29.3553,"long":-98.8824},{"zip":"78016","city":"Devine","state":"TX","lat":29.1521,"long":-98.909},{"zip":"78039","city":"La Coste","state":"TX","lat":29.3082,"long":-98.8125},{"zip":"78056","city":"Mico","state":"TX","lat":29.5441,"long":-98.9231},{"zip":"78059","city":"Natalia","state":"TX","lat":29.2117,"long":-98.8552},{"zip":"78066","city":"Rio Medina","state":"TX","lat":29.4612,"long":-98.8694},{"zip":"78040","city":"Laredo","state":"TX","lat":27.5155,"long":-99.4986},{"zip":"78041","city":"Laredo","state":"TX","lat":27.5569,"long":-99.4907},{"zip":"78042","city":"Laredo","state":"TX","lat":27.5655,"long":-99.4768},{"zip":"78043","city":"Laredo","state":"TX","lat":27.5879,"long":-99.2176},{"zip":"78044","city":"Laredo","state":"TX","lat":27.3637,"long":-99.4819},{"zip":"78045","city":"Laredo","state":"TX","lat":27.6357,"long":-99.5923},{"zip":"78046","city":"Laredo","state":"TX","lat":27.4047,"long":-99.4743},{"zip":"78067","city":"San Ygnacio","state":"TX","lat":27.1583,"long":-99.3202},{"zip":"78076","city":"Zapata","state":"TX","lat":26.8897,"long":-99.2506}]
