[{"zip":"78102","city":"Beeville","state":"TX","lat":28.4222,"long":-97.7616},{"zip":"78104","city":"Beeville","state":"TX","lat":28.3931,"long":-97.776},{"zip":"78125","city":"Mineral","state":"TX","lat":28.5552,"long":-97.9407},{"zip":"78142","city":"Normanna","state":"TX","lat":28.5278,"long":-97.7831},{"zip":"78145","city":"Pawnee","state":"TX","lat":28.6526,"long":-97.9921},{"zip":"78146","city":"Pettus","state":"TX","lat":28.6164,"long":-97.8082},{"zip":"78162","city":"Tuleta","state":"TX","lat":28.5708,"long":-97.7972},{"zip":"78101","city":"Adkins","state":"TX","lat":29.3805,"long":-98.265},{"zip":"78109","city":"Converse","state":"TX","lat":29.5173,"long":-98.3217},{"zip":"78112","city":"Elmendorf","state":"TX","lat":29.2308,"long":-98.372},{"zip":"78148","city":"Universal City","state":"TX","lat":29.5465,"long":-98.2954},{"zip":"78150","city":"Jbsa Randolph","state":"TX","lat":29.3759,"long":-97.958},{"zip":"78152","city":"Saint Hedwig","state":"TX","lat":29.4353,"long":-98.1952},{"zip":"78130","city":"New Braunfels","state":"TX","lat":29.7229,"long":-98.0742},{"zip":"78131","city":"New Braunfels","state":"TX","lat":29.703,"long":-98.1245},{"zip":"78132","city":"New Braunfels","state":"TX","lat":29.7565,"long":-98.1983},{"zip":"78133","city":"Canyon Lake","state":"TX","lat":29.9112,"long":-98.2374},{"zip":"78135","city":"New Braunfels","state":"TX","lat":29.703,"long":-98.1245},{"zip":"78163","city":"Bulverde","state":"TX","lat":29.7767,"long":-98.4626},{"zip":"78141","city":"Nordheim","state":"TX","lat":28.9142,"long":-97.5946},{"zip":"78164","city":"Yorktown","state":"TX","lat":28.9892,"long":-97.5121},{"zip":"78107","city":"Berclair","state":"TX","lat":28.5295,"long":-97.5925},{"zip":"78122","city":"Leesville","state":"TX","lat":29.3961,"long":-97.7566},{"zip":"78140","city":"Nixon","state":"TX","lat":29.3016,"long":-97.7529},{"zip":"78159","city":"Smiley","state":"TX","lat":29.2655,"long":-97.6227},{"zip":"78108","city":"Cibolo","state":"TX","lat":29.575,"long":-98.228},{"zip":"78115","city":"Geronimo","state":"TX","lat":29.5451,"long":-98.0408},{"zip":"78123","city":"Mc Queeney","state":"TX","lat":29.6023,"long":-98.0492},{"zip":"78124","city":"Marion","state":"TX","lat":29.5683,"long":-98.1517},{"zip":"78154","city":"Schertz","state":"TX","lat":29.579,"long":-98.2778},{"zip":"78155","city":"Seguin","state":"TX","lat":29.5613,"long":-97.9628},{"zip":"78156","city":"Seguin","state":"TX","lat":29.6118,"long":-97.9712},{"zip":"78111","city":"Ecleto","state":"TX","lat":29.0464,"long":-97.7514},{"zip":"78113","city":"Falls City","state":"TX","lat":28.9814,"long":-98.0156},{"zip":"78116","city":"Gillett","state":"TX","lat":29.0514,"long":-97.8343},{"zip":"78117","city":"Hobson","state":"TX","lat":28.9445,"long":-97.9707},{"zip":"78118","city":"Karnes City","state":"TX","lat":28.8828,"long":-97.9071},{"zip":"78119","city":"Kenedy","state":"TX","lat":28.8046,"long":-97.8456},{"zip":"78144","city":"Panna Maria","state":"TX","lat":28.9562,"long":-97.8982},{"zip":"78151","city":"Runge","state":"TX","lat":28.8876,"long":-97.7138},{"zip":"78114","city":"Floresville","state":"TX","lat":29.1693,"long":-98.1936},{"zip":"78121","city":"La Vernia","state":"TX","lat":29.3509,"long":-98.113},{"zip":"78143","city":"Pandora","state":"TX","lat":29.2484,"long":-97.8287},{"zip":"78147","city":"Poth","state":"TX","lat":29.0619,"long":-98.0825},{"zip":"78160","city":"Stockdale","state":"TX","lat":29.2319,"long":-97.9351},{"zip":"78161","city":"Sutherland Springs","state":"TX","lat":29.2888,"long":-98.0509}]
