[{"zip":"78201","city":"San Antonio","state":"TX","lat":29.4711,"long":-98.5356},{"zip":"78202","city":"San Antonio","state":"TX","lat":29.4275,"long":-98.4601},{"zip":"78203","city":"San Antonio","state":"TX","lat":29.4148,"long":-98.4601},{"zip":"78204","city":"San Antonio","state":"TX","lat":29.4059,"long":-98.5078},{"zip":"78205","city":"San Antonio","state":"TX","lat":29.4237,"long":-98.4925},{"zip":"78206","city":"San Antonio","state":"TX","lat":29.4375,"long":-98.4616},{"zip":"78207","city":"San Antonio","state":"TX","lat":29.4229,"long":-98.526},{"zip":"78208","city":"San Antonio","state":"TX","lat":29.44,"long":-98.459},{"zip":"78209","city":"San Antonio","state":"TX","lat":29.4821,"long":-98.4554},{"zip":"78210","city":"San Antonio","state":"TX","lat":29.3977,"long":-98.4658},{"zip":"78211","city":"San Antonio","state":"TX","lat":29.3499,"long":-98.5638},{"zip":"78212","city":"San Antonio","state":"TX","lat":29.4388,"long":-98.4935},{"zip":"78213","city":"San Antonio","state":"TX","lat":29.5234,"long":-98.5273},{"zip":"78214","city":"San Antonio","state":"TX","lat":29.3641,"long":-98.4924},{"zip":"78215","city":"San Antonio","state":"TX","lat":29.4413,"long":-98.4793},{"zip":"78216","city":"San Antonio","state":"TX","lat":29.5334,"long":-98.4975},{"zip":"78217","city":"San Antonio","state":"TX","lat":29.5395,"long":-98.4194},{"zip":"78218","city":"San Antonio","state":"TX","lat":29.4969,"long":-98.4032},{"zip":"78219","city":"San Antonio","state":"TX","lat":29.4492,"long":-98.3446},{"zip":"78220","city":"San Antonio","state":"TX","lat":29.4106,"long":-98.4128},{"zip":"78221","city":"San Antonio","state":"TX","lat":29.3309,"long":-98.5054},{"zip":"78222","city":"San Antonio","state":"TX","lat":29.3831,"long":-98.396},{"zip":"78223","city":"San Antonio","state":"TX","lat":29.3579,"long":-98.4356},{"zip":"78224","city":"San Antonio","state":"TX","lat":29.3374,"long":-98.5393},{"zip":"78225","city":"San Antonio","state":"TX","lat":29.3875,"long":-98.5245},{"zip":"78226","city":"San Antonio","state":"TX","lat":29.393,"long":-98.5511},{"zip":"78227","city":"San Antonio","state":"TX","lat":29.4027,"long":-98.6433},{"zip":"78228","city":"San Antonio","state":"TX","lat":29.4589,"long":-98.5699},{"zip":"78229","city":"San Antonio","state":"TX","lat":29.5042,"long":-98.5697},{"zip":"78230","city":"San Antonio","state":"TX","lat":29.5407,"long":-98.5521},{"zip":"78231","city":"San Antonio","state":"TX","lat":29.5714,"long":-98.5414},{"zip":"78232","city":"San Antonio","state":"TX","lat":29.5863,"long":-98.4769},{"zip":"78233","city":"San Antonio","state":"TX","lat":29.5563,"long":-98.3643},{"zip":"78234","city":"Jbsa Ft Sam Houston","state":"TX","lat":29.4241,"long":-98.4936},{"zip":"78235","city":"San Antonio","state":"TX","lat":29.3494,"long":-98.4422},{"zip":"78236","city":"Jbsa Lackland","state":"TX","lat":29.4241,"long":-98.4936},{"zip":"78237","city":"San Antonio","state":"TX","lat":29.4208,"long":-98.5645},{"zip":"78238","city":"San Antonio","state":"TX","lat":29.451,"long":-98.6169},{"zip":"78239","city":"San Antonio","state":"TX","lat":29.5182,"long":-98.3627},{"zip":"78240","city":"San Antonio","state":"TX","lat":29.5189,"long":-98.6006},{"zip":"78241","city":"San Antonio","state":"TX","lat":29.4375,"long":-98.4616},{"zip":"78242","city":"San Antonio","state":"TX","lat":29.3509,"long":-98.6109},{"zip":"78243","city":"San Antonio","state":"TX","lat":29.4375,"long":-98.4616},{"zip":"78244","city":"San Antonio","state":"TX","lat":29.4793,"long":-98.3476},{"zip":"78245","city":"San Antonio","state":"TX","lat":29.4189,"long":-98.6895},{"zip":"78246","city":"San Antonio","state":"TX","lat":29.4375,"long":-98.4616},{"zip":"78247","city":"San Antonio","state":"TX","lat":29.5855,"long":-98.4071},{"zip":"78248","city":"San Antonio","state":"TX","lat":29.5894,"long":-98.5201},{"zip":"78249","city":"San Antonio","state":"TX","lat":29.5612,"long":-98.6117},{"zip":"78250","city":"San Antonio","state":"TX","lat":29.5054,"long":-98.6688},{"zip":"78251","city":"San Antonio","state":"TX","lat":29.4597,"long":-98.6555},{"zip":"78252","city":"San Antonio","state":"TX","lat":29.346,"long":-98.6464},{"zip":"78253","city":"San Antonio","state":"TX","lat":29.4599,"long":-98.7479},{"zip":"78254","city":"San Antonio","state":"TX","lat":29.5551,"long":-98.7442},{"zip":"78255","city":"San Antonio","state":"TX","lat":29.6701,"long":-98.6873},{"zip":"78256","city":"San Antonio","state":"TX","lat":29.6169,"long":-98.6252},{"zip":"78257","city":"San Antonio","state":"TX","lat":29.6495,"long":-98.6137},{"zip":"78258","city":"San Antonio","state":"TX","lat":29.6562,"long":-98.4967},{"zip":"78259","city":"San Antonio","state":"TX","lat":29.6283,"long":-98.4445},{"zip":"78260","city":"San Antonio","state":"TX","lat":29.7026,"long":-98.4759},{"zip":"78261","city":"San Antonio","state":"TX","lat":29.7055,"long":-98.4191},{"zip":"78263","city":"San Antonio","state":"TX","lat":29.3614,"long":-98.3174},{"zip":"78264","city":"San Antonio","state":"TX","lat":29.1733,"long":-98.4723},{"zip":"78265","city":"San Antonio","state":"TX","lat":29.4375,"long":-98.4616},{"zip":"78268","city":"San Antonio","state":"TX","lat":29.4375,"long":-98.4616},{"zip":"78269","city":"San Antonio","state":"TX","lat":29.4375,"long":-98.4616},{"zip":"78270","city":"San Antonio","state":"TX","lat":29.4375,"long":-98.4616},{"zip":"78278","city":"San Antonio","state":"TX","lat":29.4375,"long":-98.4616},{"zip":"78279","city":"San Antonio","state":"TX","lat":29.4375,"long":-98.4616},{"zip":"78280","city":"San Antonio","state":"TX","lat":29.4375,"long":-98.4616},{"zip":"78283","city":"San Antonio","state":"TX","lat":29.4375,"long":-98.4616},{"zip":"78284","city":"San Antonio","state":"TX","lat":29.4426,"long":-98.4913},{"zip":"78285","city":"San Antonio","state":"TX","lat":29.4375,"long":-98.4616},{"zip":"78288","city":"San Antonio","state":"TX","lat":29.4241,"long":-98.4936},{"zip":"78289","city":"San Antonio","state":"TX","lat":29.4375,"long":-98.4616},{"zip":"78291","city":"San Antonio","state":"TX","lat":29.4375,"long":-98.4616},{"zip":"78292","city":"San Antonio","state":"TX","lat":29.4375,"long":-98.4616},{"zip":"78293","city":"San Antonio","state":"TX","lat":29.4375,"long":-98.4616},{"zip":"78294","city":"San Antonio","state":"TX","lat":29.4375,"long":-98.4616},{"zip":"78295","city":"San Antonio","state":"TX","lat":29.4375,"long":-98.4616},{"zip":"78296","city":"San Antonio","state":"TX","lat":29.4375,"long":-98.4616},{"zip":"78297","city":"San Antonio","state":"TX","lat":29.4375,"long":-98.4616},{"zip":"78298","city":"San Antonio","state":"TX","lat":29.4375,"long":-98.4616},{"zip":"78299","city":"San Antonio","state":"TX","lat":29.4375,"long":-98.4616},{"zip":"78266","city":"San Antonio","state":"TX","lat":29.6643,"long":-98.3118}]
