[{"zip":"78358","city":"Fulton","state":"TX","lat":28.0865,"long":-97.0416},{"zip":"78381","city":"Rockport","state":"TX","lat":28.0131,"long":-97.0936},{"zip":"78382","city":"Rockport","state":"TX","lat":28.0308,"long":-97.0688},{"zip":"78389","city":"Skidmore","state":"TX","lat":28.2121,"long":-97.7127},{"zip":"78391","city":"Tynan","state":"TX","lat":28.1693,"long":-97.7549},{"zip":"78353","city":"Encino","state":"TX","lat":26.9249,"long":-98.1922},{"zip":"78355","city":"Falfurrias","state":"TX","lat":27.2242,"long":-98.1408},{"zip":"78341","city":"Benavides","state":"TX","lat":27.5925,"long":-98.4142},{"zip":"78349","city":"Concepcion","state":"TX","lat":27.3849,"long":-98.309},{"zip":"78357","city":"Freer","state":"TX","lat":27.88,"long":-98.6061},{"zip":"78376","city":"Realitos","state":"TX","lat":27.4184,"long":-98.514},{"zip":"78384","city":"San Diego","state":"TX","lat":27.7654,"long":-98.2503},{"zip":"78360","city":"Guerra","state":"TX","lat":26.8831,"long":-98.8936},{"zip":"78361","city":"Hebbronville","state":"TX","lat":27.2997,"long":-98.6829},{"zip":"78332","city":"Alice","state":"TX","lat":27.7432,"long":-98.0836},{"zip":"78333","city":"Alice","state":"TX","lat":27.7522,"long":-98.0697},{"zip":"78342","city":"Ben Bolt","state":"TX","lat":27.6475,"long":-98.0814},{"zip":"78372","city":"Orange Grove","state":"TX","lat":27.9487,"long":-97.9838},{"zip":"78375","city":"Premont","state":"TX","lat":27.3544,"long":-98.133},{"zip":"78383","city":"Sandia","state":"TX","lat":28.025,"long":-97.8705},{"zip":"78338","city":"Armstrong","state":"TX","lat":26.8698,"long":-97.7698},{"zip":"78385","city":"Sarita","state":"TX","lat":27.1496,"long":-97.8576},{"zip":"78363","city":"Kingsville","state":"TX","lat":27.4229,"long":-97.8407},{"zip":"78364","city":"Kingsville","state":"TX","lat":27.5159,"long":-97.8561},{"zip":"78379","city":"Riviera","state":"TX","lat":27.3217,"long":-97.7787},{"zip":"78350","city":"Dinero","state":"TX","lat":28.2264,"long":-97.9617},{"zip":"78330","city":"Agua Dulce","state":"TX","lat":27.7817,"long":-97.9086},{"zip":"78339","city":"Banquete","state":"TX","lat":27.8051,"long":-97.7922},{"zip":"78343","city":"Bishop","state":"TX","lat":27.5886,"long":-97.783},{"zip":"78347","city":"Chapman Ranch","state":"TX","lat":27.5988,"long":-97.462},{"zip":"78351","city":"Driscoll","state":"TX","lat":27.6745,"long":-97.7486},{"zip":"78373","city":"Port Aransas","state":"TX","lat":27.7707,"long":-97.1051},{"zip":"78380","city":"Robstown","state":"TX","lat":27.7984,"long":-97.6995},{"zip":"78340","city":"Bayside","state":"TX","lat":28.0968,"long":-97.2106},{"zip":"78377","city":"Refugio","state":"TX","lat":28.3169,"long":-97.2767},{"zip":"78393","city":"Woodsboro","state":"TX","lat":28.2232,"long":-97.3192},{"zip":"78335","city":"Aransas Pass","state":"TX","lat":27.9125,"long":-97.1884},{"zip":"78336","city":"Aransas Pass","state":"TX","lat":27.9095,"long":-97.1591},{"zip":"78352","city":"Edroy","state":"TX","lat":27.9736,"long":-97.6761},{"zip":"78359","city":"Gregory","state":"TX","lat":27.9222,"long":-97.29},{"zip":"78362","city":"Ingleside","state":"TX","lat":27.8682,"long":-97.2069},{"zip":"78368","city":"Mathis","state":"TX","lat":28.0802,"long":-97.8097},{"zip":"78370","city":"Odem","state":"TX","lat":27.9403,"long":-97.5838},{"zip":"78374","city":"Portland","state":"TX","lat":27.8935,"long":-97.3169},{"zip":"78387","city":"Sinton","state":"TX","lat":28.0339,"long":-97.5196},{"zip":"78390","city":"Taft","state":"TX","lat":27.9765,"long":-97.3966},{"zip":"78344","city":"Bruni","state":"TX","lat":27.4295,"long":-98.8385},{"zip":"78369","city":"Mirando City","state":"TX","lat":27.445,"long":-99.0011},{"zip":"78371","city":"Oilton","state":"TX","lat":27.4685,"long":-98.9586}]
