[{"zip":"78401","city":"Corpus Christi","state":"TX","lat":27.7941,"long":-97.403},{"zip":"78402","city":"Corpus Christi","state":"TX","lat":27.8262,"long":-97.3857},{"zip":"78403","city":"Corpus Christi","state":"TX","lat":27.777,"long":-97.4632},{"zip":"78404","city":"Corpus Christi","state":"TX","lat":27.7683,"long":-97.4013},{"zip":"78405","city":"Corpus Christi","state":"TX","lat":27.7762,"long":-97.4271},{"zip":"78406","city":"Corpus Christi","state":"TX","lat":27.7684,"long":-97.5144},{"zip":"78407","city":"Corpus Christi","state":"TX","lat":27.8042,"long":-97.4356},{"zip":"78408","city":"Corpus Christi","state":"TX","lat":27.7945,"long":-97.4381},{"zip":"78409","city":"Corpus Christi","state":"TX","lat":27.8146,"long":-97.527},{"zip":"78410","city":"Corpus Christi","state":"TX","lat":27.8458,"long":-97.596},{"zip":"78411","city":"Corpus Christi","state":"TX","lat":27.7311,"long":-97.3877},{"zip":"78412","city":"Corpus Christi","state":"TX","lat":27.7061,"long":-97.3537},{"zip":"78413","city":"Corpus Christi","state":"TX","lat":27.691,"long":-97.3983},{"zip":"78414","city":"Corpus Christi","state":"TX","lat":27.677,"long":-97.365},{"zip":"78415","city":"Corpus Christi","state":"TX","lat":27.7262,"long":-97.4078},{"zip":"78416","city":"Corpus Christi","state":"TX","lat":27.7536,"long":-97.4347},{"zip":"78417","city":"Corpus Christi","state":"TX","lat":27.729,"long":-97.4494},{"zip":"78418","city":"Corpus Christi","state":"TX","lat":27.6349,"long":-97.3103},{"zip":"78419","city":"Corpus Christi","state":"TX","lat":27.6952,"long":-97.2694},{"zip":"78426","city":"Corpus Christi","state":"TX","lat":27.777,"long":-97.4632},{"zip":"78427","city":"Corpus Christi","state":"TX","lat":27.8006,"long":-97.3964},{"zip":"78460","city":"Corpus Christi","state":"TX","lat":27.8006,"long":-97.3964},{"zip":"78463","city":"Corpus Christi","state":"TX","lat":27.777,"long":-97.4632},{"zip":"78465","city":"Corpus Christi","state":"TX","lat":27.777,"long":-97.4632},{"zip":"78466","city":"Corpus Christi","state":"TX","lat":27.777,"long":-97.4632},{"zip":"78467","city":"Corpus Christi","state":"TX","lat":27.777,"long":-97.4632},{"zip":"78468","city":"Corpus Christi","state":"TX","lat":27.777,"long":-97.4632},{"zip":"78469","city":"Corpus Christi","state":"TX","lat":27.777,"long":-97.4632},{"zip":"78472","city":"Corpus Christi","state":"TX","lat":27.7402,"long":-97.5792},{"zip":"78480","city":"Corpus Christi","state":"TX","lat":27.777,"long":-97.4632}]
