[{"zip":"78602","city":"Bastrop","state":"TX","lat":30.1388,"long":-97.2921},{"zip":"78612","city":"Cedar Creek","state":"TX","lat":30.0966,"long":-97.4976},{"zip":"78621","city":"Elgin","state":"TX","lat":30.3231,"long":-97.3737},{"zip":"78650","city":"Mc Dade","state":"TX","lat":30.2968,"long":-97.2386},{"zip":"78659","city":"Paige","state":"TX","lat":30.1858,"long":-97.1198},{"zip":"78662","city":"Red Rock","state":"TX","lat":29.9906,"long":-97.4081},{"zip":"78606","city":"Blanco","state":"TX","lat":30.0874,"long":-98.4107},{"zip":"78635","city":"Hye","state":"TX","lat":30.2269,"long":-98.5396},{"zip":"78636","city":"Johnson City","state":"TX","lat":30.2948,"long":-98.3691},{"zip":"78663","city":"Round Mountain","state":"TX","lat":30.4429,"long":-98.4365},{"zip":"78605","city":"Bertram","state":"TX","lat":30.7411,"long":-98.0529},{"zip":"78608","city":"Briggs","state":"TX","lat":30.9325,"long":-97.9702},{"zip":"78611","city":"Burnet","state":"TX","lat":30.7766,"long":-98.2642},{"zip":"78654","city":"Marble Falls","state":"TX","lat":30.5784,"long":-98.2751},{"zip":"78616","city":"Dale","state":"TX","lat":29.9528,"long":-97.581},{"zip":"78622","city":"Fentress","state":"TX","lat":29.7561,"long":-97.7764},{"zip":"78644","city":"Lockhart","state":"TX","lat":29.8868,"long":-97.6769},{"zip":"78648","city":"Luling","state":"TX","lat":29.6826,"long":-97.6499},{"zip":"78655","city":"Martindale","state":"TX","lat":29.8394,"long":-97.8508},{"zip":"78656","city":"Maxwell","state":"TX","lat":29.8953,"long":-97.8144},{"zip":"78661","city":"Prairie Lea","state":"TX","lat":29.7239,"long":-97.7449},{"zip":"78623","city":"Fischer","state":"TX","lat":29.9627,"long":-98.2088},{"zip":"78618","city":"Doss","state":"TX","lat":30.4613,"long":-99.1707},{"zip":"78624","city":"Fredericksburg","state":"TX","lat":30.2817,"long":-98.8799},{"zip":"78631","city":"Harper","state":"TX","lat":30.2816,"long":-99.241},{"zip":"78671","city":"Stonewall","state":"TX","lat":30.2088,"long":-98.6131},{"zip":"78675","city":"Willow City","state":"TX","lat":30.4549,"long":-98.6646},{"zip":"78604","city":"Belmont","state":"TX","lat":29.5233,"long":-97.6839},{"zip":"78614","city":"Cost","state":"TX","lat":29.4321,"long":-97.5531},{"zip":"78629","city":"Gonzales","state":"TX","lat":29.5086,"long":-97.4495},{"zip":"78632","city":"Harwood","state":"TX","lat":29.6661,"long":-97.4906},{"zip":"78658","city":"Ottine","state":"TX","lat":29.5952,"long":-97.5911},{"zip":"78677","city":"Wrightsboro","state":"TX","lat":29.3739,"long":-97.565},{"zip":"78638","city":"Kingsbury","state":"TX","lat":29.6726,"long":-97.8306},{"zip":"78670","city":"Staples","state":"TX","lat":29.7706,"long":-97.8186},{"zip":"78610","city":"Buda","state":"TX","lat":30.0918,"long":-97.8534},{"zip":"78619","city":"Driftwood","state":"TX","lat":30.1072,"long":-98.0327},{"zip":"78620","city":"Dripping Springs","state":"TX","lat":30.2268,"long":-98.1029},{"zip":"78640","city":"Kyle","state":"TX","lat":29.9966,"long":-97.8335},{"zip":"78666","city":"San Marcos","state":"TX","lat":29.8754,"long":-97.9404},{"zip":"78667","city":"San Marcos","state":"TX","lat":30.0544,"long":-98.0036},{"zip":"78676","city":"Wimberley","state":"TX","lat":30.0265,"long":-98.1123},{"zip":"78607","city":"Bluffton","state":"TX","lat":30.8256,"long":-98.515},{"zip":"78609","city":"Buchanan Dam","state":"TX","lat":30.7538,"long":-98.4295},{"zip":"78639","city":"Kingsland","state":"TX","lat":30.6662,"long":-98.4475},{"zip":"78643","city":"Llano","state":"TX","lat":30.7151,"long":-98.6109},{"zip":"78657","city":"Horseshoe Bay","state":"TX","lat":30.5443,"long":-98.3739},{"zip":"78672","city":"Tow","state":"TX","lat":30.8609,"long":-98.4596},{"zip":"78617","city":"Del Valle","state":"TX","lat":30.1745,"long":-97.6134},{"zip":"78645","city":"Leander","state":"TX","lat":30.449,"long":-97.9669},{"zip":"78651","city":"Mc Neil","state":"TX","lat":30.3264,"long":-97.7713},{"zip":"78652","city":"Manchaca","state":"TX","lat":30.1238,"long":-97.8393},{"zip":"78653","city":"Manor","state":"TX","lat":30.3388,"long":-97.5323},{"zip":"78660","city":"Pflugerville","state":"TX","lat":30.4421,"long":-97.6299},{"zip":"78669","city":"Spicewood","state":"TX","lat":30.3899,"long":-98.0539},{"zip":"78691","city":"Pflugerville","state":"TX","lat":30.4394,"long":-97.62},{"zip":"78613","city":"Cedar Park","state":"TX","lat":30.5052,"long":-97.8203},{"zip":"78615","city":"Coupland","state":"TX","lat":30.4872,"long":-97.3676},{"zip":"78626","city":"Georgetown","state":"TX","lat":30.633,"long":-97.6707},{"zip":"78627","city":"Georgetown","state":"TX","lat":30.6327,"long":-97.6772},{"zip":"78628","city":"Georgetown","state":"TX","lat":30.6411,"long":-97.7511},{"zip":"78630","city":"Cedar Park","state":"TX","lat":30.5052,"long":-97.8203},{"zip":"78633","city":"Georgetown","state":"TX","lat":30.7177,"long":-97.7543},{"zip":"78634","city":"Hutto","state":"TX","lat":30.5257,"long":-97.5672},{"zip":"78641","city":"Leander","state":"TX","lat":30.5835,"long":-97.8575},{"zip":"78642","city":"Liberty Hill","state":"TX","lat":30.663,"long":-97.9316},{"zip":"78646","city":"Leander","state":"TX","lat":30.5788,"long":-97.8531},{"zip":"78664","city":"Round Rock","state":"TX","lat":30.5145,"long":-97.668},{"zip":"78665","city":"Round Rock","state":"TX","lat":30.5145,"long":-97.668},{"zip":"78673","city":"Walburg","state":"TX","lat":30.7415,"long":-97.5891},{"zip":"78674","city":"Weir","state":"TX","lat":30.6747,"long":-97.5929},{"zip":"78680","city":"Round Rock","state":"TX","lat":30.6568,"long":-97.6026},{"zip":"78681","city":"Round Rock","state":"TX","lat":30.5084,"long":-97.7062},{"zip":"78682","city":"Round Rock","state":"TX","lat":30.6568,"long":-97.6026},{"zip":"78683","city":"Round Rock","state":"TX","lat":30.6568,"long":-97.6026}]
