[{"zip":"78701","city":"Austin","state":"TX","lat":30.2713,"long":-97.7426},{"zip":"78702","city":"Austin","state":"TX","lat":30.2638,"long":-97.7166},{"zip":"78703","city":"Austin","state":"TX","lat":30.2907,"long":-97.7648},{"zip":"78704","city":"Austin","state":"TX","lat":30.2428,"long":-97.7658},{"zip":"78705","city":"Austin","state":"TX","lat":30.2896,"long":-97.7396},{"zip":"78708","city":"Austin","state":"TX","lat":30.3264,"long":-97.7713},{"zip":"78709","city":"Austin","state":"TX","lat":30.3264,"long":-97.7713},{"zip":"78710","city":"Austin","state":"TX","lat":30.352,"long":-97.7151},{"zip":"78711","city":"Austin","state":"TX","lat":30.3264,"long":-97.7713},{"zip":"78712","city":"Austin","state":"TX","lat":30.2852,"long":-97.7354},{"zip":"78713","city":"Austin","state":"TX","lat":30.2672,"long":-97.7431},{"zip":"78714","city":"Austin","state":"TX","lat":30.2672,"long":-97.7431},{"zip":"78715","city":"Austin","state":"TX","lat":30.2672,"long":-97.7431},{"zip":"78716","city":"Austin","state":"TX","lat":30.3162,"long":-97.8588},{"zip":"78718","city":"Austin","state":"TX","lat":30.3264,"long":-97.7713},{"zip":"78719","city":"Austin","state":"TX","lat":30.1802,"long":-97.6667},{"zip":"78720","city":"Austin","state":"TX","lat":30.3264,"long":-97.7713},{"zip":"78721","city":"Austin","state":"TX","lat":30.2721,"long":-97.6868},{"zip":"78722","city":"Austin","state":"TX","lat":30.2893,"long":-97.715},{"zip":"78723","city":"Austin","state":"TX","lat":30.3085,"long":-97.6849},{"zip":"78724","city":"Austin","state":"TX","lat":30.296,"long":-97.6396},{"zip":"78725","city":"Austin","state":"TX","lat":30.2562,"long":-97.6243},{"zip":"78726","city":"Austin","state":"TX","lat":30.43,"long":-97.8326},{"zip":"78727","city":"Austin","state":"TX","lat":30.4254,"long":-97.7195},{"zip":"78728","city":"Austin","state":"TX","lat":30.4417,"long":-97.6811},{"zip":"78730","city":"Austin","state":"TX","lat":30.3607,"long":-97.8241},{"zip":"78731","city":"Austin","state":"TX","lat":30.3471,"long":-97.7609},{"zip":"78732","city":"Austin","state":"TX","lat":30.3752,"long":-97.9007},{"zip":"78733","city":"Austin","state":"TX","lat":30.3314,"long":-97.8666},{"zip":"78734","city":"Austin","state":"TX","lat":30.3705,"long":-97.9427},{"zip":"78735","city":"Austin","state":"TX","lat":30.249,"long":-97.8414},{"zip":"78736","city":"Austin","state":"TX","lat":30.2444,"long":-97.916},{"zip":"78737","city":"Austin","state":"TX","lat":30.2107,"long":-97.9427},{"zip":"78738","city":"Austin","state":"TX","lat":30.3337,"long":-97.9824},{"zip":"78739","city":"Austin","state":"TX","lat":30.172,"long":-97.8784},{"zip":"78741","city":"Austin","state":"TX","lat":30.2315,"long":-97.7223},{"zip":"78742","city":"Austin","state":"TX","lat":30.2313,"long":-97.6703},{"zip":"78744","city":"Austin","state":"TX","lat":30.1876,"long":-97.7472},{"zip":"78745","city":"Austin","state":"TX","lat":30.2063,"long":-97.7956},{"zip":"78746","city":"Austin","state":"TX","lat":30.2971,"long":-97.8181},{"zip":"78747","city":"Austin","state":"TX","lat":30.1204,"long":-97.7433},{"zip":"78748","city":"Austin","state":"TX","lat":30.1743,"long":-97.8225},{"zip":"78749","city":"Austin","state":"TX","lat":30.2166,"long":-97.8508},{"zip":"78750","city":"Austin","state":"TX","lat":30.4224,"long":-97.7967},{"zip":"78751","city":"Austin","state":"TX","lat":30.3093,"long":-97.7242},{"zip":"78752","city":"Austin","state":"TX","lat":30.3316,"long":-97.7004},{"zip":"78753","city":"Austin","state":"TX","lat":30.3649,"long":-97.6827},{"zip":"78754","city":"Austin","state":"TX","lat":30.3423,"long":-97.6673},{"zip":"78755","city":"Austin","state":"TX","lat":30.3264,"long":-97.7713},{"zip":"78756","city":"Austin","state":"TX","lat":30.3223,"long":-97.739},{"zip":"78757","city":"Austin","state":"TX","lat":30.3437,"long":-97.7316},{"zip":"78758","city":"Austin","state":"TX","lat":30.3764,"long":-97.7078},{"zip":"78759","city":"Austin","state":"TX","lat":30.4036,"long":-97.7526},{"zip":"78760","city":"Austin","state":"TX","lat":30.3264,"long":-97.7713},{"zip":"78761","city":"Austin","state":"TX","lat":30.3264,"long":-97.7713},{"zip":"78762","city":"Austin","state":"TX","lat":30.3264,"long":-97.7713},{"zip":"78763","city":"Austin","state":"TX","lat":30.3354,"long":-97.5598},{"zip":"78764","city":"Austin","state":"TX","lat":30.4455,"long":-97.6595},{"zip":"78765","city":"Austin","state":"TX","lat":30.3264,"long":-97.7713},{"zip":"78766","city":"Austin","state":"TX","lat":30.2672,"long":-97.7431},{"zip":"78767","city":"Austin","state":"TX","lat":30.2672,"long":-97.7431},{"zip":"78768","city":"Austin","state":"TX","lat":30.2672,"long":-97.7431},{"zip":"78769","city":"Austin","state":"TX","lat":30.3264,"long":-97.7713},{"zip":"78772","city":"Austin","state":"TX","lat":30.3264,"long":-97.7713},{"zip":"78773","city":"Austin","state":"TX","lat":30.3264,"long":-97.7713},{"zip":"78774","city":"Austin","state":"TX","lat":30.3264,"long":-97.7713},{"zip":"78778","city":"Austin","state":"TX","lat":30.3264,"long":-97.7713},{"zip":"78779","city":"Austin","state":"TX","lat":30.3264,"long":-97.7713},{"zip":"78783","city":"Austin","state":"TX","lat":30.3264,"long":-97.7713},{"zip":"78799","city":"Austin","state":"TX","lat":30.2672,"long":-97.7431},{"zip":"78717","city":"Austin","state":"TX","lat":30.506,"long":-97.7472},{"zip":"78729","city":"Austin","state":"TX","lat":30.4521,"long":-97.7688}]
