[{"zip":"78883","city":"Tarpley","state":"TX","lat":29.6455,"long":-99.2469},{"zip":"78885","city":"Vanderpool","state":"TX","lat":29.7452,"long":-99.5551},{"zip":"78827","city":"Asherton","state":"TX","lat":28.4364,"long":-99.7486},{"zip":"78830","city":"Big Wells","state":"TX","lat":28.5693,"long":-99.5781},{"zip":"78834","city":"Carrizo Springs","state":"TX","lat":28.5278,"long":-99.8635},{"zip":"78836","city":"Catarina","state":"TX","lat":28.3598,"long":-99.586},{"zip":"78828","city":"Barksdale","state":"TX","lat":29.8282,"long":-100.105},{"zip":"78880","city":"Rocksprings","state":"TX","lat":30.0188,"long":-100.231},{"zip":"78832","city":"Brackettville","state":"TX","lat":29.3096,"long":-100.4155},{"zip":"78852","city":"Eagle Pass","state":"TX","lat":28.7028,"long":-100.4818},{"zip":"78853","city":"Eagle Pass","state":"TX","lat":28.679,"long":-100.4784},{"zip":"78860","city":"El Indio","state":"TX","lat":28.5119,"long":-100.3112},{"zip":"78877","city":"Quemado","state":"TX","lat":28.9256,"long":-100.5912},{"zip":"78850","city":"D Hanis","state":"TX","lat":29.3398,"long":-99.2835},{"zip":"78861","city":"Hondo","state":"TX","lat":29.3475,"long":-99.1414},{"zip":"78886","city":"Yancey","state":"TX","lat":29.1404,"long":-99.1428},{"zip":"78833","city":"Camp Wood","state":"TX","lat":29.6795,"long":-100.0084},{"zip":"78873","city":"Leakey","state":"TX","lat":29.769,"long":-99.7479},{"zip":"78879","city":"Rio Frio","state":"TX","lat":29.6495,"long":-99.7165},{"zip":"78851","city":"Dryden","state":"TX","lat":30.0446,"long":-102.1146},{"zip":"78801","city":"Uvalde","state":"TX","lat":29.2172,"long":-99.7931},{"zip":"78802","city":"Uvalde","state":"TX","lat":29.2237,"long":-99.7794},{"zip":"78838","city":"Concan","state":"TX","lat":29.4952,"long":-99.7126},{"zip":"78870","city":"Knippa","state":"TX","lat":29.2911,"long":-99.6372},{"zip":"78881","city":"Sabinal","state":"TX","lat":29.3267,"long":-99.4781},{"zip":"78884","city":"Utopia","state":"TX","lat":29.5972,"long":-99.5585},{"zip":"78837","city":"Comstock","state":"TX","lat":29.7484,"long":-101.2628},{"zip":"78840","city":"Del Rio","state":"TX","lat":29.4102,"long":-100.8932},{"zip":"78841","city":"Del Rio","state":"TX","lat":29.3465,"long":-100.9289},{"zip":"78842","city":"Del Rio","state":"TX","lat":29.412,"long":-100.9342},{"zip":"78843","city":"Laughlin Afb","state":"TX","lat":29.3627,"long":-100.8968},{"zip":"78847","city":"Del Rio","state":"TX","lat":29.3627,"long":-100.8968},{"zip":"78871","city":"Langtry","state":"TX","lat":29.8085,"long":-101.5587},{"zip":"78829","city":"Batesville","state":"TX","lat":28.9286,"long":-99.6115},{"zip":"78839","city":"Crystal City","state":"TX","lat":28.687,"long":-99.8264},{"zip":"78872","city":"La Pryor","state":"TX","lat":28.9488,"long":-99.8507}]
