[{"zip":"79714","city":"Andrews","state":"TX","lat":32.3201,"long":-102.5409},{"zip":"79019","city":"Claude","state":"TX","lat":35.0967,"long":-101.3813},{"zip":"79094","city":"Wayside","state":"TX","lat":34.9653,"long":-101.3578},{"zip":"79324","city":"Enochs","state":"TX","lat":33.8731,"long":-102.7599},{"zip":"79344","city":"Maple","state":"TX","lat":33.8487,"long":-102.8985},{"zip":"79347","city":"Muleshoe","state":"TX","lat":34.2193,"long":-102.7496},{"zip":"79738","city":"Gail","state":"TX","lat":32.7523,"long":-101.45},{"zip":"79830","city":"Alpine","state":"TX","lat":30.2631,"long":-103.6541},{"zip":"79831","city":"Alpine","state":"TX","lat":30.3068,"long":-103.6704},{"zip":"79832","city":"Alpine","state":"TX","lat":30.3631,"long":-103.6539},{"zip":"79834","city":"Big Bend National Park","state":"TX","lat":29.2924,"long":-103.2963},{"zip":"79842","city":"Marathon","state":"TX","lat":30.1886,"long":-103.2214},{"zip":"79852","city":"Terlingua","state":"TX","lat":29.3165,"long":-103.5597},{"zip":"79255","city":"Quitaque","state":"TX","lat":34.3796,"long":-101.0465},{"zip":"79257","city":"Silverton","state":"TX","lat":34.4641,"long":-101.3169},{"zip":"79504","city":"Baird","state":"TX","lat":32.3916,"long":-99.3777},{"zip":"79510","city":"Clyde","state":"TX","lat":32.3803,"long":-99.5184},{"zip":"79039","city":"Groom","state":"TX","lat":35.2168,"long":-101.1285},{"zip":"79068","city":"Panhandle","state":"TX","lat":35.3808,"long":-101.4304},{"zip":"79080","city":"Skellytown","state":"TX","lat":35.5685,"long":-101.1721},{"zip":"79097","city":"White Deer","state":"TX","lat":35.4278,"long":-101.174},{"zip":"79027","city":"Dimmitt","state":"TX","lat":34.5341,"long":-102.3046},{"zip":"79043","city":"Hart","state":"TX","lat":34.3878,"long":-102.1155},{"zip":"79063","city":"Nazareth","state":"TX","lat":34.5444,"long":-102.1069},{"zip":"79085","city":"Summerfield","state":"TX","lat":34.7437,"long":-102.5064},{"zip":"79201","city":"Childress","state":"TX","lat":34.4104,"long":-100.2364},{"zip":"79259","city":"Tell","state":"TX","lat":34.3759,"long":-100.3948},{"zip":"79314","city":"Bledsoe","state":"TX","lat":33.5997,"long":-103.0168},{"zip":"79346","city":"Morton","state":"TX","lat":33.7251,"long":-102.7594},{"zip":"79379","city":"Whiteface","state":"TX","lat":33.5988,"long":-102.6199},{"zip":"79519","city":"Goldsboro","state":"TX","lat":32.0482,"long":-99.6775},{"zip":"79538","city":"Novice","state":"TX","lat":31.9781,"long":-99.6809},{"zip":"79077","city":"Samnorwood","state":"TX","lat":35.0523,"long":-100.2807},{"zip":"79095","city":"Wellington","state":"TX","lat":34.8717,"long":-100.2207},{"zip":"79230","city":"Dodson","state":"TX","lat":34.7644,"long":-100.0286},{"zip":"79251","city":"Quail","state":"TX","lat":34.918,"long":-100.4252},{"zip":"79223","city":"Cee Vee","state":"TX","lat":34.2295,"long":-100.4573},{"zip":"79248","city":"Paducah","state":"TX","lat":34.0217,"long":-100.2986},{"zip":"79731","city":"Crane","state":"TX","lat":31.3969,"long":-102.3544},{"zip":"79322","city":"Crosbyton","state":"TX","lat":33.6562,"long":-101.2287},{"zip":"79343","city":"Lorenzo","state":"TX","lat":33.6666,"long":-101.5277},{"zip":"79357","city":"Ralls","state":"TX","lat":33.6851,"long":-101.3836},{"zip":"79855","city":"Van Horn","state":"TX","lat":31.0391,"long":-104.8245},{"zip":"79022","city":"Dalhart","state":"TX","lat":36.0732,"long":-102.5177},{"zip":"79051","city":"Kerrick","state":"TX","lat":36.5663,"long":-102.3438},{"zip":"79087","city":"Texline","state":"TX","lat":36.374,"long":-102.9845},{"zip":"79331","city":"Lamesa","state":"TX","lat":32.7367,"long":-101.9569},{"zip":"79377","city":"Welch","state":"TX","lat":32.9298,"long":-102.1278},{"zip":"79713","city":"Ackerly","state":"TX","lat":32.5273,"long":-101.716},{"zip":"79025","city":"Dawn","state":"TX","lat":34.9106,"long":-102.2002},{"zip":"79045","city":"Hereford","state":"TX","lat":34.837,"long":-102.405},{"zip":"79220","city":"Afton","state":"TX","lat":33.7718,"long":-100.8021},{"zip":"79229","city":"Dickens","state":"TX","lat":33.628,"long":-100.8197},{"zip":"79243","city":"Mcadoo","state":"TX","lat":33.7413,"long":-100.9833},{"zip":"79370","city":"Spur","state":"TX","lat":33.479,"long":-100.8571},{"zip":"79226","city":"Clarendon","state":"TX","lat":34.9529,"long":-100.8952},{"zip":"79237","city":"Hedley","state":"TX","lat":34.8698,"long":-100.6806},{"zip":"79240","city":"Lelia Lake","state":"TX","lat":34.8843,"long":-100.7674},{"zip":"79741","city":"Goldsmith","state":"TX","lat":31.9541,"long":-102.625},{"zip":"79758","city":"Gardendale","state":"TX","lat":32.0245,"long":-102.3572},{"zip":"79759","city":"Notrees","state":"TX","lat":31.8599,"long":-102.7413},{"zip":"79760","city":"Odessa","state":"TX","lat":31.7652,"long":-102.3543},{"zip":"79761","city":"Odessa","state":"TX","lat":31.8579,"long":-102.3523},{"zip":"79762","city":"Odessa","state":"TX","lat":31.889,"long":-102.3548},{"zip":"79763","city":"Odessa","state":"TX","lat":31.8341,"long":-102.4162},{"zip":"79764","city":"Odessa","state":"TX","lat":31.8767,"long":-102.4375},{"zip":"79765","city":"Odessa","state":"TX","lat":31.9375,"long":-102.3944},{"zip":"79766","city":"Odessa","state":"TX","lat":31.7827,"long":-102.3449},{"zip":"79768","city":"Odessa","state":"TX","lat":31.8457,"long":-102.3676},{"zip":"79769","city":"Odessa","state":"TX","lat":31.8457,"long":-102.3676},{"zip":"79776","city":"Penwell","state":"TX","lat":31.7334,"long":-102.5879},{"zip":"79821","city":"Anthony","state":"TX","lat":31.9907,"long":-106.5976},{"zip":"79835","city":"Canutillo","state":"TX","lat":31.9344,"long":-106.5929},{"zip":"79836","city":"Clint","state":"TX","lat":31.5494,"long":-106.2038},{"zip":"79838","city":"Fabens","state":"TX","lat":31.4745,"long":-106.1589},{"zip":"79849","city":"San Elizario","state":"TX","lat":31.5508,"long":-106.2507},{"zip":"79853","city":"Tornillo","state":"TX","lat":31.4407,"long":-106.0765},{"zip":"79901","city":"El Paso","state":"TX","lat":31.7584,"long":-106.4783},{"zip":"79902","city":"El Paso","state":"TX","lat":31.7763,"long":-106.4932},{"zip":"79903","city":"El Paso","state":"TX","lat":31.7862,"long":-106.4406},{"zip":"79904","city":"El Paso","state":"TX","lat":31.8533,"long":-106.4381},{"zip":"79905","city":"El Paso","state":"TX","lat":31.7674,"long":-106.4304},{"zip":"79906","city":"El Paso","state":"TX","lat":31.8092,"long":-106.4247},{"zip":"79907","city":"El Paso","state":"TX","lat":31.7089,"long":-106.3293},{"zip":"79908","city":"El Paso","state":"TX","lat":31.8265,"long":-106.3857},{"zip":"79910","city":"El Paso","state":"TX","lat":31.6948,"long":-106.3},{"zip":"79911","city":"El Paso","state":"TX","lat":31.8925,"long":-106.5426},{"zip":"79912","city":"El Paso","state":"TX","lat":31.8383,"long":-106.5364},{"zip":"79913","city":"El Paso","state":"TX","lat":31.9373,"long":-106.5724},{"zip":"79914","city":"El Paso","state":"TX","lat":31.6948,"long":-106.3},{"zip":"79915","city":"El Paso","state":"TX","lat":31.7432,"long":-106.3686},{"zip":"79916","city":"Fort Bliss","state":"TX","lat":31.8136,"long":-106.4122},{"zip":"79917","city":"El Paso","state":"TX","lat":31.6948,"long":-106.3},{"zip":"79918","city":"Fort Bliss","state":"TX","lat":31.8136,"long":-106.4122},{"zip":"79920","city":"El Paso","state":"TX","lat":31.8214,"long":-106.4614},{"zip":"79922","city":"El Paso","state":"TX","lat":31.8218,"long":-106.5732},{"zip":"79923","city":"El Paso","state":"TX","lat":31.6948,"long":-106.3},{"zip":"79924","city":"El Paso","state":"TX","lat":31.9021,"long":-106.4149},{"zip":"79925","city":"El Paso","state":"TX","lat":31.7814,"long":-106.3613},{"zip":"79926","city":"El Paso","state":"TX","lat":31.6948,"long":-106.3},{"zip":"79927","city":"El Paso","state":"TX","lat":31.6446,"long":-106.2737},{"zip":"79928","city":"El Paso","state":"TX","lat":31.6631,"long":-106.1401},{"zip":"79929","city":"El Paso","state":"TX","lat":31.6948,"long":-106.3},{"zip":"79930","city":"El Paso","state":"TX","lat":31.8048,"long":-106.4568},{"zip":"79931","city":"El Paso","state":"TX","lat":31.6948,"long":-106.3},{"zip":"79932","city":"El Paso","state":"TX","lat":31.8623,"long":-106.5932},{"zip":"79934","city":"El Paso","state":"TX","lat":31.9386,"long":-106.4073},{"zip":"79935","city":"El Paso","state":"TX","lat":31.7718,"long":-106.3303},{"zip":"79936","city":"El Paso","state":"TX","lat":31.7677,"long":-106.3016},{"zip":"79937","city":"El Paso","state":"TX","lat":31.6948,"long":-106.3},{"zip":"79938","city":"El Paso","state":"TX","lat":31.8045,"long":-105.9661},{"zip":"79940","city":"El Paso","state":"TX","lat":31.6948,"long":-106.3},{"zip":"79941","city":"El Paso","state":"TX","lat":31.7587,"long":-106.4869},{"zip":"79942","city":"El Paso","state":"TX","lat":31.6948,"long":-106.3},{"zip":"79943","city":"El Paso","state":"TX","lat":31.7587,"long":-106.4869},{"zip":"79944","city":"El Paso","state":"TX","lat":31.7587,"long":-106.4869},{"zip":"79945","city":"El Paso","state":"TX","lat":31.7587,"long":-106.4869},{"zip":"79946","city":"El Paso","state":"TX","lat":31.7587,"long":-106.4869},{"zip":"79947","city":"El Paso","state":"TX","lat":31.7587,"long":-106.4869},{"zip":"79948","city":"El Paso","state":"TX","lat":31.7587,"long":-106.4869},{"zip":"79949","city":"El Paso","state":"TX","lat":31.7587,"long":-106.4869},{"zip":"79950","city":"El Paso","state":"TX","lat":31.7587,"long":-106.4869},{"zip":"79951","city":"El Paso","state":"TX","lat":31.7587,"long":-106.4869},{"zip":"79952","city":"El Paso","state":"TX","lat":31.7587,"long":-106.4869},{"zip":"79953","city":"El Paso","state":"TX","lat":31.7587,"long":-106.4869},{"zip":"79954","city":"El Paso","state":"TX","lat":31.7587,"long":-106.4869},{"zip":"79955","city":"El Paso","state":"TX","lat":31.7587,"long":-106.4869},{"zip":"79958","city":"El Paso","state":"TX","lat":31.7587,"long":-106.4869},{"zip":"79960","city":"El Paso","state":"TX","lat":31.7587,"long":-106.4869},{"zip":"79961","city":"El Paso","state":"TX","lat":31.6948,"long":-106.3},{"zip":"79968","city":"El Paso","state":"TX","lat":31.7705,"long":-106.5048},{"zip":"79976","city":"El Paso","state":"TX","lat":31.6948,"long":-106.3},{"zip":"79978","city":"El Paso","state":"TX","lat":31.7587,"long":-106.4869},{"zip":"79980","city":"El Paso","state":"TX","lat":31.6948,"long":-106.3},{"zip":"79990","city":"El Paso","state":"TX","lat":31.6948,"long":-106.3},{"zip":"79995","city":"El Paso","state":"TX","lat":31.6948,"long":-106.3},{"zip":"79996","city":"El Paso","state":"TX","lat":31.6948,"long":-106.3},{"zip":"79997","city":"El Paso","state":"TX","lat":31.6948,"long":-106.3},{"zip":"79998","city":"El Paso","state":"TX","lat":31.6948,"long":-106.3},{"zip":"79999","city":"El Paso","state":"TX","lat":31.6948,"long":-106.3},{"zip":"79534","city":"Mc Caulley","state":"TX","lat":32.7787,"long":-100.2168},{"zip":"79543","city":"Roby","state":"TX","lat":32.722,"long":-100.4008},{"zip":"79546","city":"Rotan","state":"TX","lat":32.8555,"long":-100.4705},{"zip":"79560","city":"Sylvester","state":"TX","lat":32.7209,"long":-100.2543},{"zip":"79221","city":"Aiken","state":"TX","lat":34.1423,"long":-101.5257},{"zip":"79231","city":"Dougherty","state":"TX","lat":33.9446,"long":-101.0922},{"zip":"79235","city":"Floydada","state":"TX","lat":33.9743,"long":-101.3346},{"zip":"79241","city":"Lockney","state":"TX","lat":34.1458,"long":-101.4259},{"zip":"79258","city":"South Plains","state":"TX","lat":34.2245,"long":-101.3096},{"zip":"79227","city":"Crowell","state":"TX","lat":33.9912,"long":-99.6983},{"zip":"79342","city":"Loop","state":"TX","lat":32.9162,"long":-102.4221},{"zip":"79359","city":"Seagraves","state":"TX","lat":32.9317,"long":-102.5781},{"zip":"79360","city":"Seminole","state":"TX","lat":32.721,"long":-102.6828},{"zip":"79330","city":"Justiceburg","state":"TX","lat":33.0594,"long":-101.1881},{"zip":"79356","city":"Post","state":"TX","lat":33.2017,"long":-101.3922},{"zip":"79739","city":"Garden City","state":"TX","lat":31.8491,"long":-101.5269},{"zip":"79002","city":"Alanreed","state":"TX","lat":35.2273,"long":-100.7592},{"zip":"79054","city":"Lefors","state":"TX","lat":35.4391,"long":-100.8059},{"zip":"79057","city":"Mclean","state":"TX","lat":35.2312,"long":-100.6008},{"zip":"79065","city":"Pampa","state":"TX","lat":35.538,"long":-100.9579},{"zip":"79066","city":"Pampa","state":"TX","lat":35.5334,"long":-100.956},{"zip":"79021","city":"Cotton Center","state":"TX","lat":33.9753,"long":-102.0314},{"zip":"79032","city":"Edmonson","state":"TX","lat":34.2789,"long":-101.8941},{"zip":"79041","city":"Hale Center","state":"TX","lat":34.0669,"long":-101.8736},{"zip":"79072","city":"Plainview","state":"TX","lat":34.1962,"long":-101.7259},{"zip":"79073","city":"Plainview","state":"TX","lat":34.0689,"long":-101.827},{"zip":"79250","city":"Petersburg","state":"TX","lat":33.8768,"long":-101.6046},{"zip":"79311","city":"Abernathy","state":"TX","lat":33.85,"long":-101.8611},{"zip":"79233","city":"Estelline","state":"TX","lat":34.5303,"long":-100.4455},{"zip":"79239","city":"Lakeview","state":"TX","lat":34.6724,"long":-100.7259},{"zip":"79245","city":"Memphis","state":"TX","lat":34.7122,"long":-100.5347},{"zip":"79261","city":"Turkey","state":"TX","lat":34.4036,"long":-100.8449},{"zip":"79040","city":"Gruver","state":"TX","lat":36.2868,"long":-101.4089},{"zip":"79062","city":"Morse","state":"TX","lat":36.0596,"long":-101.4729},{"zip":"79081","city":"Spearman","state":"TX","lat":36.1927,"long":-101.1952},{"zip":"79225","city":"Chillicothe","state":"TX","lat":34.2439,"long":-99.5157},{"zip":"79252","city":"Quanah","state":"TX","lat":34.2955,"long":-99.7494},{"zip":"79018","city":"Channing","state":"TX","lat":35.6837,"long":-102.3302},{"zip":"79044","city":"Hartley","state":"TX","lat":35.8856,"long":-102.3969},{"zip":"79521","city":"Haskell","state":"TX","lat":33.158,"long":-99.7309},{"zip":"79539","city":"O Brien","state":"TX","lat":33.3749,"long":-99.8473},{"zip":"79544","city":"Rochester","state":"TX","lat":33.3105,"long":-99.8594},{"zip":"79547","city":"Rule","state":"TX","lat":33.1842,"long":-99.8894},{"zip":"79548","city":"Rule","state":"TX","lat":33.0771,"long":-99.959},{"zip":"79014","city":"Canadian","state":"TX","lat":35.9045,"long":-100.3841},{"zip":"79313","city":"Anton","state":"TX","lat":33.8043,"long":-102.1652},{"zip":"79336","city":"Levelland","state":"TX","lat":33.5788,"long":-102.3676},{"zip":"79338","city":"Levelland","state":"TX","lat":33.5932,"long":-102.3627},{"zip":"79353","city":"Pep","state":"TX","lat":33.8104,"long":-102.5656},{"zip":"79358","city":"Ropesville","state":"TX","lat":33.4575,"long":-102.1584},{"zip":"79367","city":"Smyer","state":"TX","lat":33.5918,"long":-102.1692},{"zip":"79372","city":"Sundown","state":"TX","lat":33.4482,"long":-102.4898},{"zip":"79380","city":"Whitharral","state":"TX","lat":33.7354,"long":-102.3419},{"zip":"79511","city":"Coahoma","state":"TX","lat":32.2942,"long":-101.3197},{"zip":"79720","city":"Big Spring","state":"TX","lat":32.2787,"long":-101.4578},{"zip":"79721","city":"Big Spring","state":"TX","lat":32.2733,"long":-101.374},{"zip":"79733","city":"Forsan","state":"TX","lat":32.1105,"long":-101.3669},{"zip":"79748","city":"Knott","state":"TX","lat":32.4125,"long":-101.6517},{"zip":"79837","city":"Dell City","state":"TX","lat":31.924,"long":-105.2099},{"zip":"79839","city":"Fort Hancock","state":"TX","lat":31.2985,"long":-105.8452},{"zip":"79847","city":"Salt Flat","state":"TX","lat":31.8244,"long":-105.2212},{"zip":"79851","city":"Sierra Blanca","state":"TX","lat":31.1938,"long":-105.3219},{"zip":"79007","city":"Borger","state":"TX","lat":35.6678,"long":-101.3974},{"zip":"79008","city":"Borger","state":"TX","lat":35.6678,"long":-101.3974},{"zip":"79036","city":"Fritch","state":"TX","lat":35.6441,"long":-101.5845},{"zip":"79078","city":"Sanford","state":"TX","lat":35.702,"long":-101.5346},{"zip":"79083","city":"Stinnett","state":"TX","lat":35.8377,"long":-101.45},{"zip":"79734","city":"Fort Davis","state":"TX","lat":30.6131,"long":-103.9364},{"zip":"79854","city":"Valentine","state":"TX","lat":30.62,"long":-104.4811},{"zip":"79501","city":"Anson","state":"TX","lat":32.7489,"long":-99.8953},{"zip":"79503","city":"Avoca","state":"TX","lat":32.8832,"long":-99.6964},{"zip":"79520","city":"Hamlin","state":"TX","lat":32.8799,"long":-100.128},{"zip":"79525","city":"Hawley","state":"TX","lat":32.6423,"long":-99.9239},{"zip":"79533","city":"Lueders","state":"TX","lat":32.8712,"long":-99.5783},{"zip":"79553","city":"Stamford","state":"TX","lat":32.9453,"long":-99.7859},{"zip":"79518","city":"Girard","state":"TX","lat":33.3632,"long":-100.6937},{"zip":"79528","city":"Jayton","state":"TX","lat":33.2518,"long":-100.5825},{"zip":"79236","city":"Guthrie","state":"TX","lat":33.6206,"long":-100.3229},{"zip":"79505","city":"Benjamin","state":"TX","lat":33.584,"long":-99.7923},{"zip":"79529","city":"Knox City","state":"TX","lat":33.4183,"long":-99.8137},{"zip":"79031","city":"Earth","state":"TX","lat":34.2415,"long":-102.4213},{"zip":"79064","city":"Olton","state":"TX","lat":34.1844,"long":-102.1414},{"zip":"79082","city":"Springlake","state":"TX","lat":34.2393,"long":-102.309},{"zip":"79312","city":"Amherst","state":"TX","lat":33.9976,"long":-102.4416},{"zip":"79326","city":"Fieldton","state":"TX","lat":34.053,"long":-102.206},{"zip":"79339","city":"Littlefield","state":"TX","lat":33.9212,"long":-102.3207},{"zip":"79369","city":"Spade","state":"TX","lat":33.9256,"long":-102.1564},{"zip":"79371","city":"Sudan","state":"TX","lat":34.0697,"long":-102.5255},{"zip":"79005","city":"Booker","state":"TX","lat":36.4429,"long":-100.5238},{"zip":"79024","city":"Darrouzett","state":"TX","lat":36.4453,"long":-100.3254},{"zip":"79034","city":"Follett","state":"TX","lat":36.4309,"long":-100.2068},{"zip":"79046","city":"Higgins","state":"TX","lat":36.1365,"long":-100.0952},{"zip":"79056","city":"Lipscomb","state":"TX","lat":36.223,"long":-100.2702},{"zip":"79754","city":"Mentone","state":"TX","lat":31.7068,"long":-103.5988},{"zip":"79329","city":"Idalou","state":"TX","lat":33.6504,"long":-101.6786},{"zip":"79350","city":"New Deal","state":"TX","lat":33.7296,"long":-101.8355},{"zip":"79363","city":"Shallowater","state":"TX","lat":33.6919,"long":-101.9836},{"zip":"79364","city":"Slaton","state":"TX","lat":33.4373,"long":-101.6435},{"zip":"79366","city":"Ransom Canyon","state":"TX","lat":33.5334,"long":-101.6796},{"zip":"79382","city":"Wolfforth","state":"TX","lat":33.5059,"long":-102.0091},{"zip":"79401","city":"Lubbock","state":"TX","lat":33.5865,"long":-101.8606},{"zip":"79402","city":"Lubbock","state":"TX","lat":33.5922,"long":-101.8511},{"zip":"79403","city":"Lubbock","state":"TX","lat":33.6196,"long":-101.8098},{"zip":"79404","city":"Lubbock","state":"TX","lat":33.526,"long":-101.8333},{"zip":"79406","city":"Lubbock","state":"TX","lat":33.5819,"long":-101.8778},{"zip":"79407","city":"Lubbock","state":"TX","lat":33.5684,"long":-101.9423},{"zip":"79408","city":"Lubbock","state":"TX","lat":33.5659,"long":-101.9267},{"zip":"79409","city":"Lubbock","state":"TX","lat":33.5779,"long":-101.8552},{"zip":"79410","city":"Lubbock","state":"TX","lat":33.5693,"long":-101.8904},{"zip":"79411","city":"Lubbock","state":"TX","lat":33.5704,"long":-101.8626},{"zip":"79412","city":"Lubbock","state":"TX","lat":33.5463,"long":-101.8577},{"zip":"79413","city":"Lubbock","state":"TX","lat":33.5466,"long":-101.8871},{"zip":"79414","city":"Lubbock","state":"TX","lat":33.5497,"long":-101.9187},{"zip":"79415","city":"Lubbock","state":"TX","lat":33.6021,"long":-101.876},{"zip":"79416","city":"Lubbock","state":"TX","lat":33.5924,"long":-101.9367},{"zip":"79423","city":"Lubbock","state":"TX","lat":33.5146,"long":-101.8795},{"zip":"79424","city":"Lubbock","state":"TX","lat":33.5159,"long":-101.9344},{"zip":"79430","city":"Lubbock","state":"TX","lat":33.61,"long":-101.8213},{"zip":"79452","city":"Lubbock","state":"TX","lat":33.61,"long":-101.8213},{"zip":"79453","city":"Lubbock","state":"TX","lat":33.5779,"long":-101.8552},{"zip":"79457","city":"Lubbock","state":"TX","lat":33.5779,"long":-101.8552},{"zip":"79464","city":"Lubbock","state":"TX","lat":33.4896,"long":-102.0109},{"zip":"79490","city":"Lubbock","state":"TX","lat":33.61,"long":-101.8213},{"zip":"79491","city":"Lubbock","state":"TX","lat":33.61,"long":-101.8213},{"zip":"79493","city":"Lubbock","state":"TX","lat":33.61,"long":-101.8213},{"zip":"79499","city":"Lubbock","state":"TX","lat":33.61,"long":-101.8213},{"zip":"79351","city":"Odonnell","state":"TX","lat":32.9773,"long":-101.8271},{"zip":"79373","city":"Tahoka","state":"TX","lat":33.1988,"long":-101.822},{"zip":"79381","city":"Wilson","state":"TX","lat":33.3299,"long":-101.7122},{"zip":"79383","city":"New Home","state":"TX","lat":33.3451,"long":-101.9203},{"zip":"79749","city":"Lenorah","state":"TX","lat":32.3046,"long":-101.8762},{"zip":"79782","city":"Stanton","state":"TX","lat":32.14,"long":-101.8099},{"zip":"79783","city":"Tarzan","state":"TX","lat":32.3575,"long":-101.9607},{"zip":"79701","city":"Midland","state":"TX","lat":31.9896,"long":-102.0626},{"zip":"79702","city":"Midland","state":"TX","lat":31.9637,"long":-102.0801},{"zip":"79703","city":"Midland","state":"TX","lat":31.9721,"long":-102.1369},{"zip":"79704","city":"Midland","state":"TX","lat":31.8693,"long":-102.0317},{"zip":"79705","city":"Midland","state":"TX","lat":32.0295,"long":-102.0915},{"zip":"79706","city":"Midland","state":"TX","lat":31.8816,"long":-102.0134},{"zip":"79707","city":"Midland","state":"TX","lat":32.0199,"long":-102.1476},{"zip":"79708","city":"Midland","state":"TX","lat":31.8693,"long":-102.0317},{"zip":"79710","city":"Midland","state":"TX","lat":31.8693,"long":-102.0317},{"zip":"79711","city":"Midland","state":"TX","lat":31.9973,"long":-102.0779},{"zip":"79712","city":"Midland","state":"TX","lat":31.8693,"long":-102.0317},{"zip":"79512","city":"Colorado City","state":"TX","lat":32.3987,"long":-100.8609},{"zip":"79532","city":"Loraine","state":"TX","lat":32.4112,"long":-100.7123},{"zip":"79565","city":"Westbrook","state":"TX","lat":32.3627,"long":-101.043},{"zip":"79013","city":"Cactus","state":"TX","lat":36.0412,"long":-102.0007},{"zip":"79029","city":"Dumas","state":"TX","lat":35.8823,"long":-101.968},{"zip":"79058","city":"Masterson","state":"TX","lat":35.6359,"long":-101.9602},{"zip":"79086","city":"Sunray","state":"TX","lat":36.0097,"long":-101.8123},{"zip":"79234","city":"Flomot","state":"TX","lat":34.2321,"long":-101.0038},{"zip":"79244","city":"Matador","state":"TX","lat":34.0525,"long":-100.8361},{"zip":"79256","city":"Roaring Springs","state":"TX","lat":33.8977,"long":-100.8528},{"zip":"79506","city":"Blackwell","state":"TX","lat":32.082,"long":-100.3111},{"zip":"79535","city":"Maryneal","state":"TX","lat":32.2026,"long":-100.4972},{"zip":"79537","city":"Nolan","state":"TX","lat":32.2919,"long":-100.2107},{"zip":"79545","city":"Roscoe","state":"TX","lat":32.4276,"long":-100.5391},{"zip":"79556","city":"Sweetwater","state":"TX","lat":32.4726,"long":-100.3979},{"zip":"79033","city":"Farnsworth","state":"TX","lat":36.2963,"long":-100.9843},{"zip":"79070","city":"Perryton","state":"TX","lat":36.3748,"long":-100.8156},{"zip":"79093","city":"Waka","state":"TX","lat":36.2716,"long":-101.0443},{"zip":"79001","city":"Adrian","state":"TX","lat":35.2748,"long":-102.6652},{"zip":"79010","city":"Boys Ranch","state":"TX","lat":35.5314,"long":-102.2541},{"zip":"79092","city":"Vega","state":"TX","lat":35.2241,"long":-102.4214},{"zip":"79098","city":"Wildorado","state":"TX","lat":35.1916,"long":-102.2118},{"zip":"79009","city":"Bovina","state":"TX","lat":34.5137,"long":-102.883},{"zip":"79035","city":"Friona","state":"TX","lat":34.6417,"long":-102.7241},{"zip":"79053","city":"Lazbuddie","state":"TX","lat":34.3847,"long":-102.587},{"zip":"79325","city":"Farwell","state":"TX","lat":34.386,"long":-102.9901},{"zip":"79730","city":"Coyanosa","state":"TX","lat":31.2295,"long":-103.0538},{"zip":"79735","city":"Fort Stockton","state":"TX","lat":30.8908,"long":-102.8799},{"zip":"79740","city":"Girvin","state":"TX","lat":31.0629,"long":-102.3885},{"zip":"79743","city":"Imperial","state":"TX","lat":31.2729,"long":-102.6926},{"zip":"79744","city":"Iraan","state":"TX","lat":30.9156,"long":-101.9152},{"zip":"79781","city":"Sheffield","state":"TX","lat":30.6935,"long":-101.86},{"zip":"79012","city":"Bushland","state":"TX","lat":35.2664,"long":-102.0978},{"zip":"79101","city":"Amarillo","state":"TX","lat":35.2032,"long":-101.8421},{"zip":"79102","city":"Amarillo","state":"TX","lat":35.1999,"long":-101.8496},{"zip":"79103","city":"Amarillo","state":"TX","lat":35.1751,"long":-101.7976},{"zip":"79104","city":"Amarillo","state":"TX","lat":35.1939,"long":-101.7975},{"zip":"79105","city":"Amarillo","state":"TX","lat":35.4015,"long":-101.8951},{"zip":"79106","city":"Amarillo","state":"TX","lat":35.1977,"long":-101.8949},{"zip":"79107","city":"Amarillo","state":"TX","lat":35.2309,"long":-101.806},{"zip":"79108","city":"Amarillo","state":"TX","lat":35.2779,"long":-101.83},{"zip":"79111","city":"Amarillo","state":"TX","lat":35.2286,"long":-101.6703},{"zip":"79116","city":"Amarillo","state":"TX","lat":35.2454,"long":-101.999},{"zip":"79117","city":"Amarillo","state":"TX","lat":35.3089,"long":-101.843},{"zip":"79120","city":"Amarillo","state":"TX","lat":35.1964,"long":-101.8034},{"zip":"79124","city":"Amarillo","state":"TX","lat":35.2703,"long":-101.943},{"zip":"79159","city":"Amarillo","state":"TX","lat":35.222,"long":-101.8313},{"zip":"79166","city":"Amarillo","state":"TX","lat":35.4015,"long":-101.8951},{"zip":"79168","city":"Amarillo","state":"TX","lat":35.4015,"long":-101.8951},{"zip":"79172","city":"Amarillo","state":"TX","lat":35.4015,"long":-101.8951},{"zip":"79174","city":"Amarillo","state":"TX","lat":35.4015,"long":-101.8951},{"zip":"79178","city":"Amarillo","state":"TX","lat":35.4015,"long":-101.8951},{"zip":"79185","city":"Amarillo","state":"TX","lat":35.4015,"long":-101.8951},{"zip":"79189","city":"Amarillo","state":"TX","lat":35.4015,"long":-101.8951},{"zip":"79843","city":"Marfa","state":"TX","lat":30.293,"long":-104.0848},{"zip":"79845","city":"Presidio","state":"TX","lat":29.5573,"long":-104.3551},{"zip":"79846","city":"Redford","state":"TX","lat":29.4702,"long":-104.0055},{"zip":"79015","city":"Canyon","state":"TX","lat":34.9772,"long":-101.9247},{"zip":"79016","city":"Canyon","state":"TX","lat":34.9654,"long":-101.8959},{"zip":"79091","city":"Umbarger","state":"TX","lat":34.901,"long":-102.0788},{"zip":"79109","city":"Amarillo","state":"TX","lat":35.1663,"long":-101.8868},{"zip":"79110","city":"Amarillo","state":"TX","lat":35.1545,"long":-101.8641},{"zip":"79114","city":"Amarillo","state":"TX","lat":35.05,"long":-101.8175},{"zip":"79118","city":"Amarillo","state":"TX","lat":35.0763,"long":-101.8349},{"zip":"79119","city":"Amarillo","state":"TX","lat":35.0642,"long":-101.9743},{"zip":"79121","city":"Amarillo","state":"TX","lat":35.1697,"long":-101.9266},{"zip":"79718","city":"Balmorhea","state":"TX","lat":30.9843,"long":-103.7446},{"zip":"79770","city":"Orla","state":"TX","lat":31.864,"long":-103.9297},{"zip":"79772","city":"Pecos","state":"TX","lat":31.4467,"long":-103.5791},{"zip":"79780","city":"Saragosa","state":"TX","lat":31.0428,"long":-103.6364},{"zip":"79785","city":"Toyah","state":"TX","lat":31.282,"long":-103.8057},{"zip":"79786","city":"Toyahvale","state":"TX","lat":30.9443,"long":-103.7893},{"zip":"79059","city":"Miami","state":"TX","lat":35.7193,"long":-100.7027},{"zip":"79566","city":"Wingate","state":"TX","lat":32.0318,"long":-100.1183},{"zip":"79567","city":"Winters","state":"TX","lat":31.962,"long":-99.9551},{"zip":"79516","city":"Dunn","state":"TX","lat":32.5671,"long":-100.8854},{"zip":"79517","city":"Fluvanna","state":"TX","lat":32.853,"long":-101.103},{"zip":"79526","city":"Hermleigh","state":"TX","lat":32.6294,"long":-100.7547},{"zip":"79527","city":"Ira","state":"TX","lat":32.5923,"long":-101.0715},{"zip":"79549","city":"Snyder","state":"TX","lat":32.7451,"long":-100.9175},{"zip":"79550","city":"Snyder","state":"TX","lat":32.7179,"long":-100.9176},{"zip":"79084","city":"Stratford","state":"TX","lat":36.3335,"long":-101.9886},{"zip":"79502","city":"Aspermont","state":"TX","lat":33.1301,"long":-100.2344},{"zip":"79540","city":"Old Glory","state":"TX","lat":33.1298,"long":-100.0559},{"zip":"79042","city":"Happy","state":"TX","lat":34.7219,"long":-101.8256},{"zip":"79052","city":"Kress","state":"TX","lat":34.3737,"long":-101.737},{"zip":"79088","city":"Tulia","state":"TX","lat":34.5583,"long":-101.8039},{"zip":"79508","city":"Buffalo Gap","state":"TX","lat":32.2894,"long":-99.8103},{"zip":"79530","city":"Lawn","state":"TX","lat":32.136,"long":-99.7351},{"zip":"79536","city":"Merkel","state":"TX","lat":32.4444,"long":-99.9924},{"zip":"79541","city":"Ovalo","state":"TX","lat":32.1553,"long":-99.8229},{"zip":"79561","city":"Trent","state":"TX","lat":32.4898,"long":-100.1195},{"zip":"79562","city":"Tuscola","state":"TX","lat":32.235,"long":-99.8244},{"zip":"79563","city":"Tye","state":"TX","lat":32.4477,"long":-99.8684},{"zip":"79601","city":"Abilene","state":"TX","lat":32.4682,"long":-99.7182},{"zip":"79602","city":"Abilene","state":"TX","lat":32.4178,"long":-99.7214},{"zip":"79603","city":"Abilene","state":"TX","lat":32.4679,"long":-99.7619},{"zip":"79604","city":"Abilene","state":"TX","lat":32.4487,"long":-99.7331},{"zip":"79605","city":"Abilene","state":"TX","lat":32.432,"long":-99.7724},{"zip":"79606","city":"Abilene","state":"TX","lat":32.392,"long":-99.7746},{"zip":"79607","city":"Dyess Afb","state":"TX","lat":32.419,"long":-99.8221},{"zip":"79608","city":"Abilene","state":"TX","lat":32.4487,"long":-99.7331},{"zip":"79697","city":"Abilene","state":"TX","lat":32.4487,"long":-99.7331},{"zip":"79698","city":"Abilene","state":"TX","lat":32.4751,"long":-99.7348},{"zip":"79699","city":"Abilene","state":"TX","lat":32.4665,"long":-99.7117},{"zip":"79848","city":"Sanderson","state":"TX","lat":30.1221,"long":-102.3974},{"zip":"79316","city":"Brownfield","state":"TX","lat":33.1698,"long":-102.2762},{"zip":"79345","city":"Meadow","state":"TX","lat":33.3321,"long":-102.2492},{"zip":"79378","city":"Wellman","state":"TX","lat":33.0473,"long":-102.4282},{"zip":"79752","city":"Mc Camey","state":"TX","lat":31.1319,"long":-102.2153},{"zip":"79755","city":"Midkiff","state":"TX","lat":31.5424,"long":-101.9244},{"zip":"79778","city":"Rankin","state":"TX","lat":31.2266,"long":-101.9441},{"zip":"79719","city":"Barstow","state":"TX","lat":31.4639,"long":-103.3971},{"zip":"79742","city":"Grandfalls","state":"TX","lat":31.3459,"long":-102.8568},{"zip":"79756","city":"Monahans","state":"TX","lat":31.5813,"long":-102.9003},{"zip":"79777","city":"Pyote","state":"TX","lat":31.5387,"long":-103.1267},{"zip":"79788","city":"Wickett","state":"TX","lat":31.5692,"long":-103.0067},{"zip":"79003","city":"Allison","state":"TX","lat":35.6059,"long":-100.1007},{"zip":"79011","city":"Briscoe","state":"TX","lat":35.5855,"long":-100.1679},{"zip":"79061","city":"Mobeetie","state":"TX","lat":35.5297,"long":-100.4242},{"zip":"79079","city":"Shamrock","state":"TX","lat":35.2142,"long":-100.249},{"zip":"79096","city":"Wheeler","state":"TX","lat":35.4319,"long":-100.2568},{"zip":"79247","city":"Odell","state":"TX","lat":34.3452,"long":-99.4196},{"zip":"79745","city":"Kermit","state":"TX","lat":31.855,"long":-103.0913},{"zip":"79789","city":"Wink","state":"TX","lat":31.7527,"long":-103.1561},{"zip":"79323","city":"Denver City","state":"TX","lat":32.9711,"long":-102.8313},{"zip":"79355","city":"Plains","state":"TX","lat":33.1894,"long":-102.8294},{"zip":"79376","city":"Tokio","state":"TX","lat":33.1826,"long":-102.5768}]
