[{"zip":"79019","city":"Claude","state":"TX","lat":35.0967,"long":-101.3813},{"zip":"79094","city":"Wayside","state":"TX","lat":34.9653,"long":-101.3578},{"zip":"79039","city":"Groom","state":"TX","lat":35.2168,"long":-101.1285},{"zip":"79068","city":"Panhandle","state":"TX","lat":35.3808,"long":-101.4304},{"zip":"79080","city":"Skellytown","state":"TX","lat":35.5685,"long":-101.1721},{"zip":"79097","city":"White Deer","state":"TX","lat":35.4278,"long":-101.174},{"zip":"79027","city":"Dimmitt","state":"TX","lat":34.5341,"long":-102.3046},{"zip":"79043","city":"Hart","state":"TX","lat":34.3878,"long":-102.1155},{"zip":"79063","city":"Nazareth","state":"TX","lat":34.5444,"long":-102.1069},{"zip":"79085","city":"Summerfield","state":"TX","lat":34.7437,"long":-102.5064},{"zip":"79077","city":"Samnorwood","state":"TX","lat":35.0523,"long":-100.2807},{"zip":"79095","city":"Wellington","state":"TX","lat":34.8717,"long":-100.2207},{"zip":"79022","city":"Dalhart","state":"TX","lat":36.0732,"long":-102.5177},{"zip":"79051","city":"Kerrick","state":"TX","lat":36.5663,"long":-102.3438},{"zip":"79087","city":"Texline","state":"TX","lat":36.374,"long":-102.9845},{"zip":"79025","city":"Dawn","state":"TX","lat":34.9106,"long":-102.2002},{"zip":"79045","city":"Hereford","state":"TX","lat":34.837,"long":-102.405},{"zip":"79002","city":"Alanreed","state":"TX","lat":35.2273,"long":-100.7592},{"zip":"79054","city":"Lefors","state":"TX","lat":35.4391,"long":-100.8059},{"zip":"79057","city":"Mclean","state":"TX","lat":35.2312,"long":-100.6008},{"zip":"79065","city":"Pampa","state":"TX","lat":35.538,"long":-100.9579},{"zip":"79066","city":"Pampa","state":"TX","lat":35.5334,"long":-100.956},{"zip":"79021","city":"Cotton Center","state":"TX","lat":33.9753,"long":-102.0314},{"zip":"79032","city":"Edmonson","state":"TX","lat":34.2789,"long":-101.8941},{"zip":"79041","city":"Hale Center","state":"TX","lat":34.0669,"long":-101.8736},{"zip":"79072","city":"Plainview","state":"TX","lat":34.1962,"long":-101.7259},{"zip":"79073","city":"Plainview","state":"TX","lat":34.0689,"long":-101.827},{"zip":"79040","city":"Gruver","state":"TX","lat":36.2868,"long":-101.4089},{"zip":"79062","city":"Morse","state":"TX","lat":36.0596,"long":-101.4729},{"zip":"79081","city":"Spearman","state":"TX","lat":36.1927,"long":-101.1952},{"zip":"79018","city":"Channing","state":"TX","lat":35.6837,"long":-102.3302},{"zip":"79044","city":"Hartley","state":"TX","lat":35.8856,"long":-102.3969},{"zip":"79014","city":"Canadian","state":"TX","lat":35.9045,"long":-100.3841},{"zip":"79007","city":"Borger","state":"TX","lat":35.6678,"long":-101.3974},{"zip":"79008","city":"Borger","state":"TX","lat":35.6678,"long":-101.3974},{"zip":"79036","city":"Fritch","state":"TX","lat":35.6441,"long":-101.5845},{"zip":"79078","city":"Sanford","state":"TX","lat":35.702,"long":-101.5346},{"zip":"79083","city":"Stinnett","state":"TX","lat":35.8377,"long":-101.45},{"zip":"79031","city":"Earth","state":"TX","lat":34.2415,"long":-102.4213},{"zip":"79064","city":"Olton","state":"TX","lat":34.1844,"long":-102.1414},{"zip":"79082","city":"Springlake","state":"TX","lat":34.2393,"long":-102.309},{"zip":"79005","city":"Booker","state":"TX","lat":36.4429,"long":-100.5238},{"zip":"79024","city":"Darrouzett","state":"TX","lat":36.4453,"long":-100.3254},{"zip":"79034","city":"Follett","state":"TX","lat":36.4309,"long":-100.2068},{"zip":"79046","city":"Higgins","state":"TX","lat":36.1365,"long":-100.0952},{"zip":"79056","city":"Lipscomb","state":"TX","lat":36.223,"long":-100.2702},{"zip":"79013","city":"Cactus","state":"TX","lat":36.0412,"long":-102.0007},{"zip":"79029","city":"Dumas","state":"TX","lat":35.8823,"long":-101.968},{"zip":"79058","city":"Masterson","state":"TX","lat":35.6359,"long":-101.9602},{"zip":"79086","city":"Sunray","state":"TX","lat":36.0097,"long":-101.8123},{"zip":"79033","city":"Farnsworth","state":"TX","lat":36.2963,"long":-100.9843},{"zip":"79070","city":"Perryton","state":"TX","lat":36.3748,"long":-100.8156},{"zip":"79093","city":"Waka","state":"TX","lat":36.2716,"long":-101.0443},{"zip":"79001","city":"Adrian","state":"TX","lat":35.2748,"long":-102.6652},{"zip":"79010","city":"Boys Ranch","state":"TX","lat":35.5314,"long":-102.2541},{"zip":"79092","city":"Vega","state":"TX","lat":35.2241,"long":-102.4214},{"zip":"79098","city":"Wildorado","state":"TX","lat":35.1916,"long":-102.2118},{"zip":"79009","city":"Bovina","state":"TX","lat":34.5137,"long":-102.883},{"zip":"79035","city":"Friona","state":"TX","lat":34.6417,"long":-102.7241},{"zip":"79053","city":"Lazbuddie","state":"TX","lat":34.3847,"long":-102.587},{"zip":"79012","city":"Bushland","state":"TX","lat":35.2664,"long":-102.0978},{"zip":"79015","city":"Canyon","state":"TX","lat":34.9772,"long":-101.9247},{"zip":"79016","city":"Canyon","state":"TX","lat":34.9654,"long":-101.8959},{"zip":"79091","city":"Umbarger","state":"TX","lat":34.901,"long":-102.0788},{"zip":"79059","city":"Miami","state":"TX","lat":35.7193,"long":-100.7027},{"zip":"79084","city":"Stratford","state":"TX","lat":36.3335,"long":-101.9886},{"zip":"79042","city":"Happy","state":"TX","lat":34.7219,"long":-101.8256},{"zip":"79052","city":"Kress","state":"TX","lat":34.3737,"long":-101.737},{"zip":"79088","city":"Tulia","state":"TX","lat":34.5583,"long":-101.8039},{"zip":"79003","city":"Allison","state":"TX","lat":35.6059,"long":-100.1007},{"zip":"79011","city":"Briscoe","state":"TX","lat":35.5855,"long":-100.1679},{"zip":"79061","city":"Mobeetie","state":"TX","lat":35.5297,"long":-100.4242},{"zip":"79079","city":"Shamrock","state":"TX","lat":35.2142,"long":-100.249},{"zip":"79096","city":"Wheeler","state":"TX","lat":35.4319,"long":-100.2568}]
