[{"zip":"79101","city":"Amarillo","state":"TX","lat":35.2032,"long":-101.8421},{"zip":"79102","city":"Amarillo","state":"TX","lat":35.1999,"long":-101.8496},{"zip":"79103","city":"Amarillo","state":"TX","lat":35.1751,"long":-101.7976},{"zip":"79104","city":"Amarillo","state":"TX","lat":35.1939,"long":-101.7975},{"zip":"79105","city":"Amarillo","state":"TX","lat":35.4015,"long":-101.8951},{"zip":"79106","city":"Amarillo","state":"TX","lat":35.1977,"long":-101.8949},{"zip":"79107","city":"Amarillo","state":"TX","lat":35.2309,"long":-101.806},{"zip":"79108","city":"Amarillo","state":"TX","lat":35.2779,"long":-101.83},{"zip":"79111","city":"Amarillo","state":"TX","lat":35.2286,"long":-101.6703},{"zip":"79116","city":"Amarillo","state":"TX","lat":35.2454,"long":-101.999},{"zip":"79117","city":"Amarillo","state":"TX","lat":35.3089,"long":-101.843},{"zip":"79120","city":"Amarillo","state":"TX","lat":35.1964,"long":-101.8034},{"zip":"79124","city":"Amarillo","state":"TX","lat":35.2703,"long":-101.943},{"zip":"79159","city":"Amarillo","state":"TX","lat":35.222,"long":-101.8313},{"zip":"79166","city":"Amarillo","state":"TX","lat":35.4015,"long":-101.8951},{"zip":"79168","city":"Amarillo","state":"TX","lat":35.4015,"long":-101.8951},{"zip":"79172","city":"Amarillo","state":"TX","lat":35.4015,"long":-101.8951},{"zip":"79174","city":"Amarillo","state":"TX","lat":35.4015,"long":-101.8951},{"zip":"79178","city":"Amarillo","state":"TX","lat":35.4015,"long":-101.8951},{"zip":"79185","city":"Amarillo","state":"TX","lat":35.4015,"long":-101.8951},{"zip":"79189","city":"Amarillo","state":"TX","lat":35.4015,"long":-101.8951},{"zip":"79109","city":"Amarillo","state":"TX","lat":35.1663,"long":-101.8868},{"zip":"79110","city":"Amarillo","state":"TX","lat":35.1545,"long":-101.8641},{"zip":"79114","city":"Amarillo","state":"TX","lat":35.05,"long":-101.8175},{"zip":"79118","city":"Amarillo","state":"TX","lat":35.0763,"long":-101.8349},{"zip":"79119","city":"Amarillo","state":"TX","lat":35.0642,"long":-101.9743},{"zip":"79121","city":"Amarillo","state":"TX","lat":35.1697,"long":-101.9266}]
