[{"zip":"79255","city":"Quitaque","state":"TX","lat":34.3796,"long":-101.0465},{"zip":"79257","city":"Silverton","state":"TX","lat":34.4641,"long":-101.3169},{"zip":"79201","city":"Childress","state":"TX","lat":34.4104,"long":-100.2364},{"zip":"79259","city":"Tell","state":"TX","lat":34.3759,"long":-100.3948},{"zip":"79230","city":"Dodson","state":"TX","lat":34.7644,"long":-100.0286},{"zip":"79251","city":"Quail","state":"TX","lat":34.918,"long":-100.4252},{"zip":"79223","city":"Cee Vee","state":"TX","lat":34.2295,"long":-100.4573},{"zip":"79248","city":"Paducah","state":"TX","lat":34.0217,"long":-100.2986},{"zip":"79220","city":"Afton","state":"TX","lat":33.7718,"long":-100.8021},{"zip":"79229","city":"Dickens","state":"TX","lat":33.628,"long":-100.8197},{"zip":"79243","city":"Mcadoo","state":"TX","lat":33.7413,"long":-100.9833},{"zip":"79226","city":"Clarendon","state":"TX","lat":34.9529,"long":-100.8952},{"zip":"79237","city":"Hedley","state":"TX","lat":34.8698,"long":-100.6806},{"zip":"79240","city":"Lelia Lake","state":"TX","lat":34.8843,"long":-100.7674},{"zip":"79221","city":"Aiken","state":"TX","lat":34.1423,"long":-101.5257},{"zip":"79231","city":"Dougherty","state":"TX","lat":33.9446,"long":-101.0922},{"zip":"79235","city":"Floydada","state":"TX","lat":33.9743,"long":-101.3346},{"zip":"79241","city":"Lockney","state":"TX","lat":34.1458,"long":-101.4259},{"zip":"79258","city":"South Plains","state":"TX","lat":34.2245,"long":-101.3096},{"zip":"79227","city":"Crowell","state":"TX","lat":33.9912,"long":-99.6983},{"zip":"79250","city":"Petersburg","state":"TX","lat":33.8768,"long":-101.6046},{"zip":"79233","city":"Estelline","state":"TX","lat":34.5303,"long":-100.4455},{"zip":"79239","city":"Lakeview","state":"TX","lat":34.6724,"long":-100.7259},{"zip":"79245","city":"Memphis","state":"TX","lat":34.7122,"long":-100.5347},{"zip":"79261","city":"Turkey","state":"TX","lat":34.4036,"long":-100.8449},{"zip":"79225","city":"Chillicothe","state":"TX","lat":34.2439,"long":-99.5157},{"zip":"79252","city":"Quanah","state":"TX","lat":34.2955,"long":-99.7494},{"zip":"79236","city":"Guthrie","state":"TX","lat":33.6206,"long":-100.3229},{"zip":"79234","city":"Flomot","state":"TX","lat":34.2321,"long":-101.0038},{"zip":"79244","city":"Matador","state":"TX","lat":34.0525,"long":-100.8361},{"zip":"79256","city":"Roaring Springs","state":"TX","lat":33.8977,"long":-100.8528},{"zip":"79247","city":"Odell","state":"TX","lat":34.3452,"long":-99.4196}]
