[{"zip":"79324","city":"Enochs","state":"TX","lat":33.8731,"long":-102.7599},{"zip":"79344","city":"Maple","state":"TX","lat":33.8487,"long":-102.8985},{"zip":"79347","city":"Muleshoe","state":"TX","lat":34.2193,"long":-102.7496},{"zip":"79314","city":"Bledsoe","state":"TX","lat":33.5997,"long":-103.0168},{"zip":"79346","city":"Morton","state":"TX","lat":33.7251,"long":-102.7594},{"zip":"79379","city":"Whiteface","state":"TX","lat":33.5988,"long":-102.6199},{"zip":"79322","city":"Crosbyton","state":"TX","lat":33.6562,"long":-101.2287},{"zip":"79343","city":"Lorenzo","state":"TX","lat":33.6666,"long":-101.5277},{"zip":"79357","city":"Ralls","state":"TX","lat":33.6851,"long":-101.3836},{"zip":"79331","city":"Lamesa","state":"TX","lat":32.7367,"long":-101.9569},{"zip":"79377","city":"Welch","state":"TX","lat":32.9298,"long":-102.1278},{"zip":"79370","city":"Spur","state":"TX","lat":33.479,"long":-100.8571},{"zip":"79342","city":"Loop","state":"TX","lat":32.9162,"long":-102.4221},{"zip":"79359","city":"Seagraves","state":"TX","lat":32.9317,"long":-102.5781},{"zip":"79360","city":"Seminole","state":"TX","lat":32.721,"long":-102.6828},{"zip":"79330","city":"Justiceburg","state":"TX","lat":33.0594,"long":-101.1881},{"zip":"79356","city":"Post","state":"TX","lat":33.2017,"long":-101.3922},{"zip":"79311","city":"Abernathy","state":"TX","lat":33.85,"long":-101.8611},{"zip":"79313","city":"Anton","state":"TX","lat":33.8043,"long":-102.1652},{"zip":"79336","city":"Levelland","state":"TX","lat":33.5788,"long":-102.3676},{"zip":"79338","city":"Levelland","state":"TX","lat":33.5932,"long":-102.3627},{"zip":"79353","city":"Pep","state":"TX","lat":33.8104,"long":-102.5656},{"zip":"79358","city":"Ropesville","state":"TX","lat":33.4575,"long":-102.1584},{"zip":"79367","city":"Smyer","state":"TX","lat":33.5918,"long":-102.1692},{"zip":"79372","city":"Sundown","state":"TX","lat":33.4482,"long":-102.4898},{"zip":"79380","city":"Whitharral","state":"TX","lat":33.7354,"long":-102.3419},{"zip":"79312","city":"Amherst","state":"TX","lat":33.9976,"long":-102.4416},{"zip":"79326","city":"Fieldton","state":"TX","lat":34.053,"long":-102.206},{"zip":"79339","city":"Littlefield","state":"TX","lat":33.9212,"long":-102.3207},{"zip":"79369","city":"Spade","state":"TX","lat":33.9256,"long":-102.1564},{"zip":"79371","city":"Sudan","state":"TX","lat":34.0697,"long":-102.5255},{"zip":"79329","city":"Idalou","state":"TX","lat":33.6504,"long":-101.6786},{"zip":"79350","city":"New Deal","state":"TX","lat":33.7296,"long":-101.8355},{"zip":"79363","city":"Shallowater","state":"TX","lat":33.6919,"long":-101.9836},{"zip":"79364","city":"Slaton","state":"TX","lat":33.4373,"long":-101.6435},{"zip":"79366","city":"Ransom Canyon","state":"TX","lat":33.5334,"long":-101.6796},{"zip":"79382","city":"Wolfforth","state":"TX","lat":33.5059,"long":-102.0091},{"zip":"79351","city":"Odonnell","state":"TX","lat":32.9773,"long":-101.8271},{"zip":"79373","city":"Tahoka","state":"TX","lat":33.1988,"long":-101.822},{"zip":"79381","city":"Wilson","state":"TX","lat":33.3299,"long":-101.7122},{"zip":"79383","city":"New Home","state":"TX","lat":33.3451,"long":-101.9203},{"zip":"79325","city":"Farwell","state":"TX","lat":34.386,"long":-102.9901},{"zip":"79316","city":"Brownfield","state":"TX","lat":33.1698,"long":-102.2762},{"zip":"79345","city":"Meadow","state":"TX","lat":33.3321,"long":-102.2492},{"zip":"79378","city":"Wellman","state":"TX","lat":33.0473,"long":-102.4282},{"zip":"79323","city":"Denver City","state":"TX","lat":32.9711,"long":-102.8313},{"zip":"79355","city":"Plains","state":"TX","lat":33.1894,"long":-102.8294},{"zip":"79376","city":"Tokio","state":"TX","lat":33.1826,"long":-102.5768}]
