[{"zip":"79401","city":"Lubbock","state":"TX","lat":33.5865,"long":-101.8606},{"zip":"79402","city":"Lubbock","state":"TX","lat":33.5922,"long":-101.8511},{"zip":"79403","city":"Lubbock","state":"TX","lat":33.6196,"long":-101.8098},{"zip":"79404","city":"Lubbock","state":"TX","lat":33.526,"long":-101.8333},{"zip":"79406","city":"Lubbock","state":"TX","lat":33.5819,"long":-101.8778},{"zip":"79407","city":"Lubbock","state":"TX","lat":33.5684,"long":-101.9423},{"zip":"79408","city":"Lubbock","state":"TX","lat":33.5659,"long":-101.9267},{"zip":"79409","city":"Lubbock","state":"TX","lat":33.5779,"long":-101.8552},{"zip":"79410","city":"Lubbock","state":"TX","lat":33.5693,"long":-101.8904},{"zip":"79411","city":"Lubbock","state":"TX","lat":33.5704,"long":-101.8626},{"zip":"79412","city":"Lubbock","state":"TX","lat":33.5463,"long":-101.8577},{"zip":"79413","city":"Lubbock","state":"TX","lat":33.5466,"long":-101.8871},{"zip":"79414","city":"Lubbock","state":"TX","lat":33.5497,"long":-101.9187},{"zip":"79415","city":"Lubbock","state":"TX","lat":33.6021,"long":-101.876},{"zip":"79416","city":"Lubbock","state":"TX","lat":33.5924,"long":-101.9367},{"zip":"79423","city":"Lubbock","state":"TX","lat":33.5146,"long":-101.8795},{"zip":"79424","city":"Lubbock","state":"TX","lat":33.5159,"long":-101.9344},{"zip":"79430","city":"Lubbock","state":"TX","lat":33.61,"long":-101.8213},{"zip":"79452","city":"Lubbock","state":"TX","lat":33.61,"long":-101.8213},{"zip":"79453","city":"Lubbock","state":"TX","lat":33.5779,"long":-101.8552},{"zip":"79457","city":"Lubbock","state":"TX","lat":33.5779,"long":-101.8552},{"zip":"79464","city":"Lubbock","state":"TX","lat":33.4896,"long":-102.0109},{"zip":"79490","city":"Lubbock","state":"TX","lat":33.61,"long":-101.8213},{"zip":"79491","city":"Lubbock","state":"TX","lat":33.61,"long":-101.8213},{"zip":"79493","city":"Lubbock","state":"TX","lat":33.61,"long":-101.8213},{"zip":"79499","city":"Lubbock","state":"TX","lat":33.61,"long":-101.8213}]
