[{"zip":"79504","city":"Baird","state":"TX","lat":32.3916,"long":-99.3777},{"zip":"79510","city":"Clyde","state":"TX","lat":32.3803,"long":-99.5184},{"zip":"79519","city":"Goldsboro","state":"TX","lat":32.0482,"long":-99.6775},{"zip":"79538","city":"Novice","state":"TX","lat":31.9781,"long":-99.6809},{"zip":"79534","city":"Mc Caulley","state":"TX","lat":32.7787,"long":-100.2168},{"zip":"79543","city":"Roby","state":"TX","lat":32.722,"long":-100.4008},{"zip":"79546","city":"Rotan","state":"TX","lat":32.8555,"long":-100.4705},{"zip":"79560","city":"Sylvester","state":"TX","lat":32.7209,"long":-100.2543},{"zip":"79521","city":"Haskell","state":"TX","lat":33.158,"long":-99.7309},{"zip":"79539","city":"O Brien","state":"TX","lat":33.3749,"long":-99.8473},{"zip":"79544","city":"Rochester","state":"TX","lat":33.3105,"long":-99.8594},{"zip":"79547","city":"Rule","state":"TX","lat":33.1842,"long":-99.8894},{"zip":"79548","city":"Rule","state":"TX","lat":33.0771,"long":-99.959},{"zip":"79511","city":"Coahoma","state":"TX","lat":32.2942,"long":-101.3197},{"zip":"79501","city":"Anson","state":"TX","lat":32.7489,"long":-99.8953},{"zip":"79503","city":"Avoca","state":"TX","lat":32.8832,"long":-99.6964},{"zip":"79520","city":"Hamlin","state":"TX","lat":32.8799,"long":-100.128},{"zip":"79525","city":"Hawley","state":"TX","lat":32.6423,"long":-99.9239},{"zip":"79533","city":"Lueders","state":"TX","lat":32.8712,"long":-99.5783},{"zip":"79553","city":"Stamford","state":"TX","lat":32.9453,"long":-99.7859},{"zip":"79518","city":"Girard","state":"TX","lat":33.3632,"long":-100.6937},{"zip":"79528","city":"Jayton","state":"TX","lat":33.2518,"long":-100.5825},{"zip":"79505","city":"Benjamin","state":"TX","lat":33.584,"long":-99.7923},{"zip":"79529","city":"Knox City","state":"TX","lat":33.4183,"long":-99.8137},{"zip":"79512","city":"Colorado City","state":"TX","lat":32.3987,"long":-100.8609},{"zip":"79532","city":"Loraine","state":"TX","lat":32.4112,"long":-100.7123},{"zip":"79565","city":"Westbrook","state":"TX","lat":32.3627,"long":-101.043},{"zip":"79506","city":"Blackwell","state":"TX","lat":32.082,"long":-100.3111},{"zip":"79535","city":"Maryneal","state":"TX","lat":32.2026,"long":-100.4972},{"zip":"79537","city":"Nolan","state":"TX","lat":32.2919,"long":-100.2107},{"zip":"79545","city":"Roscoe","state":"TX","lat":32.4276,"long":-100.5391},{"zip":"79556","city":"Sweetwater","state":"TX","lat":32.4726,"long":-100.3979},{"zip":"79566","city":"Wingate","state":"TX","lat":32.0318,"long":-100.1183},{"zip":"79567","city":"Winters","state":"TX","lat":31.962,"long":-99.9551},{"zip":"79516","city":"Dunn","state":"TX","lat":32.5671,"long":-100.8854},{"zip":"79517","city":"Fluvanna","state":"TX","lat":32.853,"long":-101.103},{"zip":"79526","city":"Hermleigh","state":"TX","lat":32.6294,"long":-100.7547},{"zip":"79527","city":"Ira","state":"TX","lat":32.5923,"long":-101.0715},{"zip":"79549","city":"Snyder","state":"TX","lat":32.7451,"long":-100.9175},{"zip":"79550","city":"Snyder","state":"TX","lat":32.7179,"long":-100.9176},{"zip":"79502","city":"Aspermont","state":"TX","lat":33.1301,"long":-100.2344},{"zip":"79540","city":"Old Glory","state":"TX","lat":33.1298,"long":-100.0559},{"zip":"79508","city":"Buffalo Gap","state":"TX","lat":32.2894,"long":-99.8103},{"zip":"79530","city":"Lawn","state":"TX","lat":32.136,"long":-99.7351},{"zip":"79536","city":"Merkel","state":"TX","lat":32.4444,"long":-99.9924},{"zip":"79541","city":"Ovalo","state":"TX","lat":32.1553,"long":-99.8229},{"zip":"79561","city":"Trent","state":"TX","lat":32.4898,"long":-100.1195},{"zip":"79562","city":"Tuscola","state":"TX","lat":32.235,"long":-99.8244},{"zip":"79563","city":"Tye","state":"TX","lat":32.4477,"long":-99.8684}]
