[{"zip":"79714","city":"Andrews","state":"TX","lat":32.3201,"long":-102.5409},{"zip":"79738","city":"Gail","state":"TX","lat":32.7523,"long":-101.45},{"zip":"79731","city":"Crane","state":"TX","lat":31.3969,"long":-102.3544},{"zip":"79713","city":"Ackerly","state":"TX","lat":32.5273,"long":-101.716},{"zip":"79741","city":"Goldsmith","state":"TX","lat":31.9541,"long":-102.625},{"zip":"79758","city":"Gardendale","state":"TX","lat":32.0245,"long":-102.3572},{"zip":"79759","city":"Notrees","state":"TX","lat":31.8599,"long":-102.7413},{"zip":"79760","city":"Odessa","state":"TX","lat":31.7652,"long":-102.3543},{"zip":"79761","city":"Odessa","state":"TX","lat":31.8579,"long":-102.3523},{"zip":"79762","city":"Odessa","state":"TX","lat":31.889,"long":-102.3548},{"zip":"79763","city":"Odessa","state":"TX","lat":31.8341,"long":-102.4162},{"zip":"79764","city":"Odessa","state":"TX","lat":31.8767,"long":-102.4375},{"zip":"79765","city":"Odessa","state":"TX","lat":31.9375,"long":-102.3944},{"zip":"79766","city":"Odessa","state":"TX","lat":31.7827,"long":-102.3449},{"zip":"79768","city":"Odessa","state":"TX","lat":31.8457,"long":-102.3676},{"zip":"79769","city":"Odessa","state":"TX","lat":31.8457,"long":-102.3676},{"zip":"79776","city":"Penwell","state":"TX","lat":31.7334,"long":-102.5879},{"zip":"79739","city":"Garden City","state":"TX","lat":31.8491,"long":-101.5269},{"zip":"79720","city":"Big Spring","state":"TX","lat":32.2787,"long":-101.4578},{"zip":"79721","city":"Big Spring","state":"TX","lat":32.2733,"long":-101.374},{"zip":"79733","city":"Forsan","state":"TX","lat":32.1105,"long":-101.3669},{"zip":"79748","city":"Knott","state":"TX","lat":32.4125,"long":-101.6517},{"zip":"79734","city":"Fort Davis","state":"TX","lat":30.6131,"long":-103.9364},{"zip":"79754","city":"Mentone","state":"TX","lat":31.7068,"long":-103.5988},{"zip":"79749","city":"Lenorah","state":"TX","lat":32.3046,"long":-101.8762},{"zip":"79782","city":"Stanton","state":"TX","lat":32.14,"long":-101.8099},{"zip":"79783","city":"Tarzan","state":"TX","lat":32.3575,"long":-101.9607},{"zip":"79701","city":"Midland","state":"TX","lat":31.9896,"long":-102.0626},{"zip":"79702","city":"Midland","state":"TX","lat":31.9637,"long":-102.0801},{"zip":"79703","city":"Midland","state":"TX","lat":31.9721,"long":-102.1369},{"zip":"79704","city":"Midland","state":"TX","lat":31.8693,"long":-102.0317},{"zip":"79705","city":"Midland","state":"TX","lat":32.0295,"long":-102.0915},{"zip":"79706","city":"Midland","state":"TX","lat":31.8816,"long":-102.0134},{"zip":"79707","city":"Midland","state":"TX","lat":32.0199,"long":-102.1476},{"zip":"79708","city":"Midland","state":"TX","lat":31.8693,"long":-102.0317},{"zip":"79710","city":"Midland","state":"TX","lat":31.8693,"long":-102.0317},{"zip":"79711","city":"Midland","state":"TX","lat":31.9973,"long":-102.0779},{"zip":"79712","city":"Midland","state":"TX","lat":31.8693,"long":-102.0317},{"zip":"79730","city":"Coyanosa","state":"TX","lat":31.2295,"long":-103.0538},{"zip":"79735","city":"Fort Stockton","state":"TX","lat":30.8908,"long":-102.8799},{"zip":"79740","city":"Girvin","state":"TX","lat":31.0629,"long":-102.3885},{"zip":"79743","city":"Imperial","state":"TX","lat":31.2729,"long":-102.6926},{"zip":"79744","city":"Iraan","state":"TX","lat":30.9156,"long":-101.9152},{"zip":"79781","city":"Sheffield","state":"TX","lat":30.6935,"long":-101.86},{"zip":"79718","city":"Balmorhea","state":"TX","lat":30.9843,"long":-103.7446},{"zip":"79770","city":"Orla","state":"TX","lat":31.864,"long":-103.9297},{"zip":"79772","city":"Pecos","state":"TX","lat":31.4467,"long":-103.5791},{"zip":"79780","city":"Saragosa","state":"TX","lat":31.0428,"long":-103.6364},{"zip":"79785","city":"Toyah","state":"TX","lat":31.282,"long":-103.8057},{"zip":"79786","city":"Toyahvale","state":"TX","lat":30.9443,"long":-103.7893},{"zip":"79752","city":"Mc Camey","state":"TX","lat":31.1319,"long":-102.2153},{"zip":"79755","city":"Midkiff","state":"TX","lat":31.5424,"long":-101.9244},{"zip":"79778","city":"Rankin","state":"TX","lat":31.2266,"long":-101.9441},{"zip":"79719","city":"Barstow","state":"TX","lat":31.4639,"long":-103.3971},{"zip":"79742","city":"Grandfalls","state":"TX","lat":31.3459,"long":-102.8568},{"zip":"79756","city":"Monahans","state":"TX","lat":31.5813,"long":-102.9003},{"zip":"79777","city":"Pyote","state":"TX","lat":31.5387,"long":-103.1267},{"zip":"79788","city":"Wickett","state":"TX","lat":31.5692,"long":-103.0067},{"zip":"79745","city":"Kermit","state":"TX","lat":31.855,"long":-103.0913},{"zip":"79789","city":"Wink","state":"TX","lat":31.7527,"long":-103.1561}]
