[{"zip":"79830","city":"Alpine","state":"TX","lat":30.2631,"long":-103.6541},{"zip":"79831","city":"Alpine","state":"TX","lat":30.3068,"long":-103.6704},{"zip":"79832","city":"Alpine","state":"TX","lat":30.3631,"long":-103.6539},{"zip":"79834","city":"Big Bend National Park","state":"TX","lat":29.2924,"long":-103.2963},{"zip":"79842","city":"Marathon","state":"TX","lat":30.1886,"long":-103.2214},{"zip":"79852","city":"Terlingua","state":"TX","lat":29.3165,"long":-103.5597},{"zip":"79855","city":"Van Horn","state":"TX","lat":31.0391,"long":-104.8245},{"zip":"79821","city":"Anthony","state":"TX","lat":31.9907,"long":-106.5976},{"zip":"79835","city":"Canutillo","state":"TX","lat":31.9344,"long":-106.5929},{"zip":"79836","city":"Clint","state":"TX","lat":31.5494,"long":-106.2038},{"zip":"79838","city":"Fabens","state":"TX","lat":31.4745,"long":-106.1589},{"zip":"79849","city":"San Elizario","state":"TX","lat":31.5508,"long":-106.2507},{"zip":"79853","city":"Tornillo","state":"TX","lat":31.4407,"long":-106.0765},{"zip":"79837","city":"Dell City","state":"TX","lat":31.924,"long":-105.2099},{"zip":"79839","city":"Fort Hancock","state":"TX","lat":31.2985,"long":-105.8452},{"zip":"79847","city":"Salt Flat","state":"TX","lat":31.8244,"long":-105.2212},{"zip":"79851","city":"Sierra Blanca","state":"TX","lat":31.1938,"long":-105.3219},{"zip":"79854","city":"Valentine","state":"TX","lat":30.62,"long":-104.4811},{"zip":"79843","city":"Marfa","state":"TX","lat":30.293,"long":-104.0848},{"zip":"79845","city":"Presidio","state":"TX","lat":29.5573,"long":-104.3551},{"zip":"79846","city":"Redford","state":"TX","lat":29.4702,"long":-104.0055},{"zip":"79848","city":"Sanderson","state":"TX","lat":30.1221,"long":-102.3974}]
