[{"zip":"79901","city":"El Paso","state":"TX","lat":31.7584,"long":-106.4783},{"zip":"79902","city":"El Paso","state":"TX","lat":31.7763,"long":-106.4932},{"zip":"79903","city":"El Paso","state":"TX","lat":31.7862,"long":-106.4406},{"zip":"79904","city":"El Paso","state":"TX","lat":31.8533,"long":-106.4381},{"zip":"79905","city":"El Paso","state":"TX","lat":31.7674,"long":-106.4304},{"zip":"79906","city":"El Paso","state":"TX","lat":31.8092,"long":-106.4247},{"zip":"79907","city":"El Paso","state":"TX","lat":31.7089,"long":-106.3293},{"zip":"79908","city":"El Paso","state":"TX","lat":31.8265,"long":-106.3857},{"zip":"79910","city":"El Paso","state":"TX","lat":31.6948,"long":-106.3},{"zip":"79911","city":"El Paso","state":"TX","lat":31.8925,"long":-106.5426},{"zip":"79912","city":"El Paso","state":"TX","lat":31.8383,"long":-106.5364},{"zip":"79913","city":"El Paso","state":"TX","lat":31.9373,"long":-106.5724},{"zip":"79914","city":"El Paso","state":"TX","lat":31.6948,"long":-106.3},{"zip":"79915","city":"El Paso","state":"TX","lat":31.7432,"long":-106.3686},{"zip":"79916","city":"Fort Bliss","state":"TX","lat":31.8136,"long":-106.4122},{"zip":"79917","city":"El Paso","state":"TX","lat":31.6948,"long":-106.3},{"zip":"79918","city":"Fort Bliss","state":"TX","lat":31.8136,"long":-106.4122},{"zip":"79920","city":"El Paso","state":"TX","lat":31.8214,"long":-106.4614},{"zip":"79922","city":"El Paso","state":"TX","lat":31.8218,"long":-106.5732},{"zip":"79923","city":"El Paso","state":"TX","lat":31.6948,"long":-106.3},{"zip":"79924","city":"El Paso","state":"TX","lat":31.9021,"long":-106.4149},{"zip":"79925","city":"El Paso","state":"TX","lat":31.7814,"long":-106.3613},{"zip":"79926","city":"El Paso","state":"TX","lat":31.6948,"long":-106.3},{"zip":"79927","city":"El Paso","state":"TX","lat":31.6446,"long":-106.2737},{"zip":"79928","city":"El Paso","state":"TX","lat":31.6631,"long":-106.1401},{"zip":"79929","city":"El Paso","state":"TX","lat":31.6948,"long":-106.3},{"zip":"79930","city":"El Paso","state":"TX","lat":31.8048,"long":-106.4568},{"zip":"79931","city":"El Paso","state":"TX","lat":31.6948,"long":-106.3},{"zip":"79932","city":"El Paso","state":"TX","lat":31.8623,"long":-106.5932},{"zip":"79934","city":"El Paso","state":"TX","lat":31.9386,"long":-106.4073},{"zip":"79935","city":"El Paso","state":"TX","lat":31.7718,"long":-106.3303},{"zip":"79936","city":"El Paso","state":"TX","lat":31.7677,"long":-106.3016},{"zip":"79937","city":"El Paso","state":"TX","lat":31.6948,"long":-106.3},{"zip":"79938","city":"El Paso","state":"TX","lat":31.8045,"long":-105.9661},{"zip":"79940","city":"El Paso","state":"TX","lat":31.6948,"long":-106.3},{"zip":"79941","city":"El Paso","state":"TX","lat":31.7587,"long":-106.4869},{"zip":"79942","city":"El Paso","state":"TX","lat":31.6948,"long":-106.3},{"zip":"79943","city":"El Paso","state":"TX","lat":31.7587,"long":-106.4869},{"zip":"79944","city":"El Paso","state":"TX","lat":31.7587,"long":-106.4869},{"zip":"79945","city":"El Paso","state":"TX","lat":31.7587,"long":-106.4869},{"zip":"79946","city":"El Paso","state":"TX","lat":31.7587,"long":-106.4869},{"zip":"79947","city":"El Paso","state":"TX","lat":31.7587,"long":-106.4869},{"zip":"79948","city":"El Paso","state":"TX","lat":31.7587,"long":-106.4869},{"zip":"79949","city":"El Paso","state":"TX","lat":31.7587,"long":-106.4869},{"zip":"79950","city":"El Paso","state":"TX","lat":31.7587,"long":-106.4869},{"zip":"79951","city":"El Paso","state":"TX","lat":31.7587,"long":-106.4869},{"zip":"79952","city":"El Paso","state":"TX","lat":31.7587,"long":-106.4869},{"zip":"79953","city":"El Paso","state":"TX","lat":31.7587,"long":-106.4869},{"zip":"79954","city":"El Paso","state":"TX","lat":31.7587,"long":-106.4869},{"zip":"79955","city":"El Paso","state":"TX","lat":31.7587,"long":-106.4869},{"zip":"79958","city":"El Paso","state":"TX","lat":31.7587,"long":-106.4869},{"zip":"79960","city":"El Paso","state":"TX","lat":31.7587,"long":-106.4869},{"zip":"79961","city":"El Paso","state":"TX","lat":31.6948,"long":-106.3},{"zip":"79968","city":"El Paso","state":"TX","lat":31.7705,"long":-106.5048},{"zip":"79976","city":"El Paso","state":"TX","lat":31.6948,"long":-106.3},{"zip":"79978","city":"El Paso","state":"TX","lat":31.7587,"long":-106.4869},{"zip":"79980","city":"El Paso","state":"TX","lat":31.6948,"long":-106.3},{"zip":"79990","city":"El Paso","state":"TX","lat":31.6948,"long":-106.3},{"zip":"79995","city":"El Paso","state":"TX","lat":31.6948,"long":-106.3},{"zip":"79996","city":"El Paso","state":"TX","lat":31.6948,"long":-106.3},{"zip":"79997","city":"El Paso","state":"TX","lat":31.6948,"long":-106.3},{"zip":"79998","city":"El Paso","state":"TX","lat":31.6948,"long":-106.3},{"zip":"79999","city":"El Paso","state":"TX","lat":31.6948,"long":-106.3}]
