[{"zip":"80011","city":"Aurora","state":"CO","lat":39.7378,"long":-104.8152},{"zip":"80019","city":"Aurora","state":"CO","lat":39.7656,"long":-104.7069},{"zip":"80022","city":"Commerce City","state":"CO","lat":39.8259,"long":-104.9113},{"zip":"80024","city":"Dupont","state":"CO","lat":39.8445,"long":-104.9188},{"zip":"80030","city":"Westminster","state":"CO","lat":39.8302,"long":-105.037},{"zip":"80031","city":"Westminster","state":"CO","lat":39.8753,"long":-105.0345},{"zip":"80035","city":"Westminster","state":"CO","lat":39.8367,"long":-105.0372},{"zip":"80036","city":"Westminster","state":"CO","lat":39.8367,"long":-105.0372},{"zip":"80037","city":"Commerce City","state":"CO","lat":39.8083,"long":-104.9339},{"zip":"80040","city":"Aurora","state":"CO","lat":39.7294,"long":-104.8319},{"zip":"80042","city":"Aurora","state":"CO","lat":39.7294,"long":-104.8319},{"zip":"80045","city":"Aurora","state":"CO","lat":39.7467,"long":-104.8384},{"zip":"80102","city":"Bennett","state":"CO","lat":39.7589,"long":-104.4275},{"zip":"80136","city":"Strasburg","state":"CO","lat":39.7814,"long":-104.2683},{"zip":"80137","city":"Watkins","state":"CO","lat":39.7623,"long":-104.5834},{"zip":"80221","city":"Denver","state":"CO","lat":39.838,"long":-104.9988},{"zip":"80229","city":"Denver","state":"CO","lat":39.8671,"long":-104.9227},{"zip":"80233","city":"Denver","state":"CO","lat":39.9015,"long":-104.9407},{"zip":"80234","city":"Denver","state":"CO","lat":39.9108,"long":-105.0109},{"zip":"80241","city":"Thornton","state":"CO","lat":39.868,"long":-104.9719},{"zip":"80260","city":"Denver","state":"CO","lat":39.8672,"long":-105.0041},{"zip":"80601","city":"Brighton","state":"CO","lat":39.943,"long":-104.7866},{"zip":"80602","city":"Brighton","state":"CO","lat":39.9636,"long":-104.9072},{"zip":"80603","city":"Brighton","state":"CO","lat":39.9515,"long":-104.7746},{"zip":"80614","city":"Eastlake","state":"CO","lat":39.9239,"long":-104.9614},{"zip":"80640","city":"Henderson","state":"CO","lat":39.8983,"long":-104.8718},{"zip":"80010","city":"Aurora","state":"CO","lat":39.7368,"long":-104.8646},{"zip":"80012","city":"Aurora","state":"CO","lat":39.6987,"long":-104.8377},{"zip":"80013","city":"Aurora","state":"CO","lat":39.6575,"long":-104.7846},{"zip":"80014","city":"Aurora","state":"CO","lat":39.6662,"long":-104.835},{"zip":"80015","city":"Aurora","state":"CO","lat":39.6255,"long":-104.7874},{"zip":"80016","city":"Aurora","state":"CO","lat":39.6012,"long":-104.7394},{"zip":"80017","city":"Aurora","state":"CO","lat":39.6948,"long":-104.7881},{"zip":"80018","city":"Aurora","state":"CO","lat":39.7102,"long":-104.7071},{"zip":"80041","city":"Aurora","state":"CO","lat":39.7388,"long":-104.4083},{"zip":"80044","city":"Aurora","state":"CO","lat":39.7388,"long":-104.4083},{"zip":"80046","city":"Aurora","state":"CO","lat":39.7388,"long":-104.4083},{"zip":"80047","city":"Aurora","state":"CO","lat":39.7388,"long":-104.4083},{"zip":"80103","city":"Byers","state":"CO","lat":39.6985,"long":-104.2019},{"zip":"80105","city":"Deer Trail","state":"CO","lat":39.5931,"long":-104.068},{"zip":"80110","city":"Englewood","state":"CO","lat":39.6463,"long":-105.0092},{"zip":"80111","city":"Englewood","state":"CO","lat":39.6123,"long":-104.8799},{"zip":"80112","city":"Englewood","state":"CO","lat":39.5805,"long":-104.9011},{"zip":"80113","city":"Englewood","state":"CO","lat":39.6405,"long":-104.9614},{"zip":"80120","city":"Littleton","state":"CO","lat":39.5994,"long":-105.0044},{"zip":"80121","city":"Littleton","state":"CO","lat":39.6111,"long":-104.9532},{"zip":"80122","city":"Littleton","state":"CO","lat":39.5814,"long":-104.9557},{"zip":"80150","city":"Englewood","state":"CO","lat":39.6478,"long":-104.9878},{"zip":"80151","city":"Englewood","state":"CO","lat":39.6478,"long":-104.9878},{"zip":"80155","city":"Englewood","state":"CO","lat":39.6478,"long":-104.9878},{"zip":"80160","city":"Littleton","state":"CO","lat":39.6133,"long":-105.0166},{"zip":"80161","city":"Littleton","state":"CO","lat":39.6133,"long":-105.0166},{"zip":"80165","city":"Littleton","state":"CO","lat":39.6133,"long":-105.0166},{"zip":"80166","city":"Littleton","state":"CO","lat":39.6133,"long":-105.0166},{"zip":"80020","city":"Broomfield","state":"CO","lat":39.9245,"long":-105.0609},{"zip":"80025","city":"Eldorado Springs","state":"CO","lat":39.9324,"long":-105.288},{"zip":"80026","city":"Lafayette","state":"CO","lat":39.998,"long":-105.0963},{"zip":"80027","city":"Louisville","state":"CO","lat":39.9789,"long":-105.1456},{"zip":"80038","city":"Broomfield","state":"CO","lat":39.9205,"long":-105.0867},{"zip":"80301","city":"Boulder","state":"CO","lat":40.0497,"long":-105.2143},{"zip":"80302","city":"Boulder","state":"CO","lat":40.0172,"long":-105.2851},{"zip":"80303","city":"Boulder","state":"CO","lat":39.9914,"long":-105.2392},{"zip":"80304","city":"Boulder","state":"CO","lat":40.0375,"long":-105.2771},{"zip":"80305","city":"Boulder","state":"CO","lat":39.9807,"long":-105.2531},{"zip":"80306","city":"Boulder","state":"CO","lat":40.1022,"long":-105.3847},{"zip":"80307","city":"Boulder","state":"CO","lat":40.0878,"long":-105.3735},{"zip":"80308","city":"Boulder","state":"CO","lat":40.0277,"long":-105.3868},{"zip":"80309","city":"Boulder","state":"CO","lat":40.015,"long":-105.2705},{"zip":"80310","city":"Boulder","state":"CO","lat":40.0878,"long":-105.3735},{"zip":"80314","city":"Boulder","state":"CO","lat":40.0878,"long":-105.3735},{"zip":"80455","city":"Jamestown","state":"CO","lat":40.1155,"long":-105.3886},{"zip":"80466","city":"Nederland","state":"CO","lat":39.9703,"long":-105.4813},{"zip":"80471","city":"Pinecliffe","state":"CO","lat":39.9474,"long":-105.4593},{"zip":"80481","city":"Ward","state":"CO","lat":40.0726,"long":-105.508},{"zip":"80501","city":"Longmont","state":"CO","lat":40.1779,"long":-105.1009},{"zip":"80502","city":"Longmont","state":"CO","lat":40.1672,"long":-105.1019},{"zip":"80503","city":"Longmont","state":"CO","lat":40.1559,"long":-105.1624},{"zip":"80510","city":"Allenspark","state":"CO","lat":40.2268,"long":-105.5201},{"zip":"80533","city":"Hygiene","state":"CO","lat":40.1815,"long":-105.2327},{"zip":"80540","city":"Lyons","state":"CO","lat":40.2357,"long":-105.3231},{"zip":"80544","city":"Niwot","state":"CO","lat":40.1039,"long":-105.1708},{"zip":"80023","city":"Broomfield","state":"CO","lat":39.9619,"long":-105.0148},{"zip":"80802","city":"Arapahoe","state":"CO","lat":38.8417,"long":-102.194},{"zip":"80810","city":"Cheyenne Wells","state":"CO","lat":38.8198,"long":-102.3582},{"zip":"80825","city":"Kit Carson","state":"CO","lat":38.804,"long":-102.8198},{"zip":"80862","city":"Wild Horse","state":"CO","lat":38.8041,"long":-103.0798},{"zip":"80436","city":"Dumont","state":"CO","lat":39.7647,"long":-105.6003},{"zip":"80438","city":"Empire","state":"CO","lat":39.7614,"long":-105.6844},{"zip":"80444","city":"Georgetown","state":"CO","lat":39.7061,"long":-105.6975},{"zip":"80452","city":"Idaho Springs","state":"CO","lat":39.7402,"long":-105.5983},{"zip":"80476","city":"Silver Plume","state":"CO","lat":39.6996,"long":-105.7507},{"zip":"80201","city":"Denver","state":"CO","lat":39.7263,"long":-104.8568},{"zip":"80202","city":"Denver","state":"CO","lat":39.7491,"long":-104.9946},{"zip":"80203","city":"Denver","state":"CO","lat":39.7313,"long":-104.9811},{"zip":"80204","city":"Denver","state":"CO","lat":39.734,"long":-105.0259},{"zip":"80205","city":"Denver","state":"CO","lat":39.759,"long":-104.9661},{"zip":"80206","city":"Denver","state":"CO","lat":39.7331,"long":-104.9524},{"zip":"80207","city":"Denver","state":"CO","lat":39.7584,"long":-104.9177},{"zip":"80208","city":"Denver","state":"CO","lat":39.7392,"long":-104.9847},{"zip":"80209","city":"Denver","state":"CO","lat":39.7074,"long":-104.9686},{"zip":"80210","city":"Denver","state":"CO","lat":39.679,"long":-104.9631},{"zip":"80211","city":"Denver","state":"CO","lat":39.7665,"long":-105.0204},{"zip":"80212","city":"Denver","state":"CO","lat":39.7683,"long":-105.0493},{"zip":"80216","city":"Denver","state":"CO","lat":39.7835,"long":-104.9669},{"zip":"80217","city":"Denver","state":"CO","lat":39.7392,"long":-104.9847},{"zip":"80218","city":"Denver","state":"CO","lat":39.7327,"long":-104.9717},{"zip":"80219","city":"Denver","state":"CO","lat":39.6956,"long":-105.0341},{"zip":"80220","city":"Denver","state":"CO","lat":39.7312,"long":-104.9129},{"zip":"80222","city":"Denver","state":"CO","lat":39.671,"long":-104.9279},{"zip":"80223","city":"Denver","state":"CO","lat":39.7002,"long":-105.0028},{"zip":"80224","city":"Denver","state":"CO","lat":39.688,"long":-104.9108},{"zip":"80227","city":"Denver","state":"CO","lat":39.6667,"long":-105.0854},{"zip":"80230","city":"Denver","state":"CO","lat":39.7218,"long":-104.8951},{"zip":"80231","city":"Denver","state":"CO","lat":39.6793,"long":-104.8843},{"zip":"80235","city":"Denver","state":"CO","lat":39.6472,"long":-105.0795},{"zip":"80236","city":"Denver","state":"CO","lat":39.6535,"long":-105.0376},{"zip":"80237","city":"Denver","state":"CO","lat":39.6431,"long":-104.8987},{"zip":"80238","city":"Denver","state":"CO","lat":39.7392,"long":-104.9847},{"zip":"80239","city":"Denver","state":"CO","lat":39.7878,"long":-104.8288},{"zip":"80243","city":"Denver","state":"CO","lat":39.7392,"long":-104.9847},{"zip":"80244","city":"Denver","state":"CO","lat":39.7392,"long":-104.9847},{"zip":"80246","city":"Denver","state":"CO","lat":39.7086,"long":-104.9312},{"zip":"80247","city":"Denver","state":"CO","lat":39.6971,"long":-104.8819},{"zip":"80248","city":"Denver","state":"CO","lat":39.7392,"long":-104.9847},{"zip":"80249","city":"Denver","state":"CO","lat":39.7783,"long":-104.7557},{"zip":"80250","city":"Denver","state":"CO","lat":39.7392,"long":-104.9847},{"zip":"80251","city":"Denver","state":"CO","lat":39.7392,"long":-104.9847},{"zip":"80252","city":"Denver","state":"CO","lat":39.7392,"long":-104.9847},{"zip":"80256","city":"Denver","state":"CO","lat":39.7474,"long":-104.9928},{"zip":"80257","city":"Denver","state":"CO","lat":39.7392,"long":-104.9847},{"zip":"80259","city":"Denver","state":"CO","lat":39.7462,"long":-104.9913},{"zip":"80261","city":"Denver","state":"CO","lat":39.7379,"long":-104.985},{"zip":"80262","city":"Denver","state":"CO","lat":39.731,"long":-104.9384},{"zip":"80263","city":"Denver","state":"CO","lat":39.7392,"long":-104.9847},{"zip":"80264","city":"Denver","state":"CO","lat":39.7426,"long":-104.9863},{"zip":"80265","city":"Denver","state":"CO","lat":39.7392,"long":-104.9847},{"zip":"80266","city":"Denver","state":"CO","lat":39.7472,"long":-104.9915},{"zip":"80271","city":"Denver","state":"CO","lat":39.7392,"long":-104.9847},{"zip":"80273","city":"Denver","state":"CO","lat":39.7273,"long":-104.9875},{"zip":"80274","city":"Denver","state":"CO","lat":39.7439,"long":-104.9876},{"zip":"80281","city":"Denver","state":"CO","lat":39.7439,"long":-104.9876},{"zip":"80290","city":"Denver","state":"CO","lat":39.7436,"long":-104.9876},{"zip":"80291","city":"Denver","state":"CO","lat":39.7439,"long":-104.9876},{"zip":"80293","city":"Denver","state":"CO","lat":39.7458,"long":-104.9907},{"zip":"80294","city":"Denver","state":"CO","lat":39.7491,"long":-104.989},{"zip":"80299","city":"Denver","state":"CO","lat":39.7392,"long":-104.9847},{"zip":"80104","city":"Castle Rock","state":"CO","lat":39.3722,"long":-104.8561},{"zip":"80108","city":"Castle Rock","state":"CO","lat":39.4455,"long":-104.853},{"zip":"80109","city":"Castle Rock","state":"CO","lat":39.3643,"long":-104.9014},{"zip":"80116","city":"Franktown","state":"CO","lat":39.3728,"long":-104.7256},{"zip":"80118","city":"Larkspur","state":"CO","lat":39.2011,"long":-104.8546},{"zip":"80124","city":"Lone Tree","state":"CO","lat":39.5517,"long":-104.8863},{"zip":"80125","city":"Littleton","state":"CO","lat":39.4845,"long":-105.0561},{"zip":"80126","city":"Littleton","state":"CO","lat":39.5437,"long":-104.9691},{"zip":"80129","city":"Littleton","state":"CO","lat":39.5397,"long":-105.0109},{"zip":"80130","city":"Littleton","state":"CO","lat":39.5414,"long":-104.9218},{"zip":"80131","city":"Louviers","state":"CO","lat":39.4764,"long":-105.0075},{"zip":"80134","city":"Parker","state":"CO","lat":39.4895,"long":-104.8447},{"zip":"80135","city":"Sedalia","state":"CO","lat":39.3113,"long":-105.0676},{"zip":"80138","city":"Parker","state":"CO","lat":39.5102,"long":-104.7216},{"zip":"80163","city":"Littleton","state":"CO","lat":39.3479,"long":-104.9947},{"zip":"80423","city":"Bond","state":"CO","lat":39.8691,"long":-106.6763},{"zip":"80426","city":"Burns","state":"CO","lat":39.8739,"long":-106.8856},{"zip":"80463","city":"Mc Coy","state":"CO","lat":39.9134,"long":-106.7309},{"zip":"80101","city":"Agate","state":"CO","lat":39.4203,"long":-103.9846},{"zip":"80106","city":"Elbert","state":"CO","lat":39.0969,"long":-104.5746},{"zip":"80107","city":"Elizabeth","state":"CO","lat":39.3836,"long":-104.592},{"zip":"80117","city":"Kiowa","state":"CO","lat":39.324,"long":-104.4523},{"zip":"80830","city":"Matheson","state":"CO","lat":39.132,"long":-103.9132},{"zip":"80835","city":"Simla","state":"CO","lat":39.2087,"long":-104.0702},{"zip":"80132","city":"Monument","state":"CO","lat":39.1007,"long":-104.8542},{"zip":"80133","city":"Palmer Lake","state":"CO","lat":39.1205,"long":-104.9148},{"zip":"80808","city":"Calhan","state":"CO","lat":38.9648,"long":-104.3553},{"zip":"80809","city":"Cascade","state":"CO","lat":38.8967,"long":-104.9722},{"zip":"80817","city":"Fountain","state":"CO","lat":38.6996,"long":-104.7005},{"zip":"80819","city":"Green Mountain Falls","state":"CO","lat":38.9389,"long":-105.0094},{"zip":"80829","city":"Manitou Springs","state":"CO","lat":38.855,"long":-104.9058},{"zip":"80831","city":"Peyton","state":"CO","lat":38.9541,"long":-104.5472},{"zip":"80832","city":"Ramah","state":"CO","lat":39.0736,"long":-104.1247},{"zip":"80833","city":"Rush","state":"CO","lat":38.7642,"long":-104.0241},{"zip":"80840","city":"Usaf Academy","state":"CO","lat":39.0896,"long":-103.8188},{"zip":"80841","city":"Usaf Academy","state":"CO","lat":39.0896,"long":-103.8188},{"zip":"80864","city":"Yoder","state":"CO","lat":38.7753,"long":-104.2184},{"zip":"80901","city":"Colorado Springs","state":"CO","lat":38.8339,"long":-104.8214},{"zip":"80902","city":"Colorado Springs","state":"CO","lat":38.7536,"long":-104.8063},{"zip":"80903","city":"Colorado Springs","state":"CO","lat":38.8388,"long":-104.8145},{"zip":"80904","city":"Colorado Springs","state":"CO","lat":38.8533,"long":-104.8595},{"zip":"80905","city":"Colorado Springs","state":"CO","lat":38.8377,"long":-104.837},{"zip":"80906","city":"Colorado Springs","state":"CO","lat":38.7902,"long":-104.8199},{"zip":"80907","city":"Colorado Springs","state":"CO","lat":38.876,"long":-104.817},{"zip":"80908","city":"Colorado Springs","state":"CO","lat":39.0237,"long":-104.6933},{"zip":"80909","city":"Colorado Springs","state":"CO","lat":38.852,"long":-104.7735},{"zip":"80910","city":"Colorado Springs","state":"CO","lat":38.8152,"long":-104.7703},{"zip":"80911","city":"Colorado Springs","state":"CO","lat":38.7457,"long":-104.7223},{"zip":"80912","city":"Colorado Springs","state":"CO","lat":38.8339,"long":-104.8214},{"zip":"80913","city":"Colorado Springs","state":"CO","lat":38.73,"long":-104.7536},{"zip":"80914","city":"Colorado Springs","state":"CO","lat":38.8192,"long":-104.7012},{"zip":"80915","city":"Colorado Springs","state":"CO","lat":38.8558,"long":-104.7134},{"zip":"80916","city":"Colorado Springs","state":"CO","lat":38.8076,"long":-104.7403},{"zip":"80917","city":"Colorado Springs","state":"CO","lat":38.886,"long":-104.7399},{"zip":"80918","city":"Colorado Springs","state":"CO","lat":38.9129,"long":-104.7734},{"zip":"80919","city":"Colorado Springs","state":"CO","lat":38.9268,"long":-104.8464},{"zip":"80920","city":"Colorado Springs","state":"CO","lat":38.9497,"long":-104.767},{"zip":"80921","city":"Colorado Springs","state":"CO","lat":39.0487,"long":-104.814},{"zip":"80922","city":"Colorado Springs","state":"CO","lat":38.905,"long":-104.6982},{"zip":"80923","city":"Colorado Springs","state":"CO","lat":38.9189,"long":-104.7045},{"zip":"80924","city":"Colorado Springs","state":"CO","lat":38.9676,"long":-104.7211},{"zip":"80925","city":"Colorado Springs","state":"CO","lat":38.7378,"long":-104.6459},{"zip":"80926","city":"Colorado Springs","state":"CO","lat":38.6981,"long":-104.8505},{"zip":"80927","city":"Colorado Springs","state":"CO","lat":38.9286,"long":-104.6583},{"zip":"80928","city":"Colorado Springs","state":"CO","lat":38.6233,"long":-104.457},{"zip":"80929","city":"Colorado Springs","state":"CO","lat":38.7968,"long":-104.6079},{"zip":"80930","city":"Colorado Springs","state":"CO","lat":38.8289,"long":-104.5269},{"zip":"80931","city":"Colorado Springs","state":"CO","lat":38.8339,"long":-104.8214},{"zip":"80932","city":"Colorado Springs","state":"CO","lat":38.8339,"long":-104.8214},{"zip":"80933","city":"Colorado Springs","state":"CO","lat":38.8339,"long":-104.8214},{"zip":"80934","city":"Colorado Springs","state":"CO","lat":38.8339,"long":-104.8214},{"zip":"80935","city":"Colorado Springs","state":"CO","lat":38.8339,"long":-104.8214},{"zip":"80936","city":"Colorado Springs","state":"CO","lat":38.8339,"long":-104.8214},{"zip":"80937","city":"Colorado Springs","state":"CO","lat":38.8339,"long":-104.8214},{"zip":"80938","city":"Colorado Springs","state":"CO","lat":38.9047,"long":-104.6634},{"zip":"80939","city":"Colorado Springs","state":"CO","lat":38.8776,"long":-104.6774},{"zip":"80941","city":"Colorado Springs","state":"CO","lat":38.8339,"long":-104.8214},{"zip":"80942","city":"Colorado Springs","state":"CO","lat":38.8339,"long":-104.8214},{"zip":"80944","city":"Colorado Springs","state":"CO","lat":38.8339,"long":-104.8214},{"zip":"80946","city":"Colorado Springs","state":"CO","lat":38.8339,"long":-104.8214},{"zip":"80947","city":"Colorado Springs","state":"CO","lat":38.8339,"long":-104.8214},{"zip":"80949","city":"Colorado Springs","state":"CO","lat":38.8339,"long":-104.8214},{"zip":"80950","city":"Colorado Springs","state":"CO","lat":38.8339,"long":-104.8214},{"zip":"80951","city":"Colorado Springs","state":"CO","lat":38.8881,"long":-104.6556},{"zip":"80960","city":"Colorado Springs","state":"CO","lat":38.8339,"long":-104.8214},{"zip":"80962","city":"Colorado Springs","state":"CO","lat":38.8339,"long":-104.8214},{"zip":"80970","city":"Colorado Springs","state":"CO","lat":38.8339,"long":-104.8214},{"zip":"80977","city":"Colorado Springs","state":"CO","lat":38.8339,"long":-104.8214},{"zip":"80995","city":"Colorado Springs","state":"CO","lat":38.8339,"long":-104.8214},{"zip":"80997","city":"Colorado Springs","state":"CO","lat":38.8339,"long":-104.8214},{"zip":"80422","city":"Black Hawk","state":"CO","lat":39.816,"long":-105.4753},{"zip":"80427","city":"Central City","state":"CO","lat":39.8019,"long":-105.5142},{"zip":"80474","city":"Rollinsville","state":"CO","lat":39.9172,"long":-105.5011},{"zip":"80442","city":"Fraser","state":"CO","lat":39.945,"long":-105.8172},{"zip":"80446","city":"Granby","state":"CO","lat":40.0739,"long":-105.9285},{"zip":"80447","city":"Grand Lake","state":"CO","lat":40.2289,"long":-105.8605},{"zip":"80451","city":"Hot Sulphur Springs","state":"CO","lat":40.0712,"long":-106.0693},{"zip":"80459","city":"Kremmling","state":"CO","lat":40.0632,"long":-106.3955},{"zip":"80468","city":"Parshall","state":"CO","lat":39.9539,"long":-106.093},{"zip":"80478","city":"Tabernash","state":"CO","lat":39.9797,"long":-105.8615},{"zip":"80482","city":"Winter Park","state":"CO","lat":39.8939,"long":-105.7845},{"zip":"80430","city":"Coalmont","state":"CO","lat":40.5383,"long":-106.5321},{"zip":"80434","city":"Cowdrey","state":"CO","lat":40.8597,"long":-106.3131},{"zip":"80473","city":"Rand","state":"CO","lat":40.4667,"long":-106.1857},{"zip":"80480","city":"Walden","state":"CO","lat":40.71,"long":-106.2767},{"zip":"80001","city":"Arvada","state":"CO","lat":39.8028,"long":-105.0875},{"zip":"80002","city":"Arvada","state":"CO","lat":39.7945,"long":-105.0984},{"zip":"80003","city":"Arvada","state":"CO","lat":39.8286,"long":-105.0655},{"zip":"80004","city":"Arvada","state":"CO","lat":39.8141,"long":-105.1177},{"zip":"80005","city":"Arvada","state":"CO","lat":39.8422,"long":-105.1097},{"zip":"80006","city":"Arvada","state":"CO","lat":39.8028,"long":-105.0875},{"zip":"80007","city":"Arvada","state":"CO","lat":39.8634,"long":-105.1724},{"zip":"80021","city":"Broomfield","state":"CO","lat":39.8854,"long":-105.1139},{"zip":"80033","city":"Wheat Ridge","state":"CO","lat":39.774,"long":-105.0962},{"zip":"80034","city":"Wheat Ridge","state":"CO","lat":39.7661,"long":-105.0772},{"zip":"80123","city":"Littleton","state":"CO","lat":39.6206,"long":-105.0901},{"zip":"80127","city":"Littleton","state":"CO","lat":39.592,"long":-105.1328},{"zip":"80128","city":"Littleton","state":"CO","lat":39.5918,"long":-105.0832},{"zip":"80162","city":"Littleton","state":"CO","lat":39.522,"long":-105.2239},{"zip":"80214","city":"Denver","state":"CO","lat":39.7436,"long":-105.0643},{"zip":"80215","city":"Denver","state":"CO","lat":39.7435,"long":-105.1009},{"zip":"80225","city":"Denver","state":"CO","lat":39.6971,"long":-105.1204},{"zip":"80226","city":"Denver","state":"CO","lat":39.7123,"long":-105.0918},{"zip":"80228","city":"Denver","state":"CO","lat":39.6888,"long":-105.156},{"zip":"80232","city":"Denver","state":"CO","lat":39.6895,"long":-105.0908},{"zip":"80401","city":"Golden","state":"CO","lat":39.7305,"long":-105.1915},{"zip":"80402","city":"Golden","state":"CO","lat":39.7555,"long":-105.2211},{"zip":"80403","city":"Golden","state":"CO","lat":39.8232,"long":-105.2825},{"zip":"80419","city":"Golden","state":"CO","lat":39.522,"long":-105.2239},{"zip":"80425","city":"Buffalo Creek","state":"CO","lat":39.3867,"long":-105.2703},{"zip":"80433","city":"Conifer","state":"CO","lat":39.5197,"long":-105.3169},{"zip":"80437","city":"Evergreen","state":"CO","lat":39.522,"long":-105.2239},{"zip":"80439","city":"Evergreen","state":"CO","lat":39.6374,"long":-105.3402},{"zip":"80453","city":"Idledale","state":"CO","lat":39.6684,"long":-105.2442},{"zip":"80454","city":"Indian Hills","state":"CO","lat":39.6296,"long":-105.2514},{"zip":"80457","city":"Kittredge","state":"CO","lat":39.6481,"long":-105.2782},{"zip":"80465","city":"Morrison","state":"CO","lat":39.6125,"long":-105.1746},{"zip":"80470","city":"Pine","state":"CO","lat":39.4667,"long":-105.3741},{"zip":"80805","city":"Bethune","state":"CO","lat":39.3448,"long":-102.4281},{"zip":"80807","city":"Burlington","state":"CO","lat":39.3106,"long":-102.2583},{"zip":"80815","city":"Flagler","state":"CO","lat":39.3127,"long":-103.0624},{"zip":"80834","city":"Seibert","state":"CO","lat":39.3183,"long":-102.8822},{"zip":"80836","city":"Stratton","state":"CO","lat":39.3087,"long":-102.5979},{"zip":"80861","city":"Vona","state":"CO","lat":39.3236,"long":-102.7393},{"zip":"80429","city":"Climax","state":"CO","lat":39.2258,"long":-106.3117},{"zip":"80461","city":"Leadville","state":"CO","lat":39.2497,"long":-106.3015},{"zip":"80511","city":"Estes Park","state":"CO","lat":40.6281,"long":-105.5692},{"zip":"80512","city":"Bellvue","state":"CO","lat":40.6265,"long":-105.261},{"zip":"80513","city":"Berthoud","state":"CO","lat":40.2993,"long":-105.1055},{"zip":"80515","city":"Drake","state":"CO","lat":40.4275,"long":-105.3831},{"zip":"80517","city":"Estes Park","state":"CO","lat":40.3658,"long":-105.5142},{"zip":"80521","city":"Fort Collins","state":"CO","lat":40.5813,"long":-105.1039},{"zip":"80522","city":"Fort Collins","state":"CO","lat":40.6429,"long":-105.057},{"zip":"80523","city":"Fort Collins","state":"CO","lat":40.5853,"long":-105.0844},{"zip":"80524","city":"Fort Collins","state":"CO","lat":40.5986,"long":-105.0581},{"zip":"80525","city":"Fort Collins","state":"CO","lat":40.5384,"long":-105.0547},{"zip":"80526","city":"Fort Collins","state":"CO","lat":40.5473,"long":-105.1076},{"zip":"80527","city":"Fort Collins","state":"CO","lat":40.5853,"long":-105.0844},{"zip":"80528","city":"Fort Collins","state":"CO","lat":40.4961,"long":-105.0002},{"zip":"80532","city":"Glen Haven","state":"CO","lat":40.4578,"long":-105.447},{"zip":"80535","city":"Laporte","state":"CO","lat":40.6347,"long":-105.1488},{"zip":"80536","city":"Livermore","state":"CO","lat":40.8701,"long":-105.3766},{"zip":"80537","city":"Loveland","state":"CO","lat":40.3849,"long":-105.0916},{"zip":"80538","city":"Loveland","state":"CO","lat":40.4262,"long":-105.09},{"zip":"80539","city":"Loveland","state":"CO","lat":40.3978,"long":-105.075},{"zip":"80541","city":"Masonville","state":"CO","lat":40.4875,"long":-105.2108},{"zip":"80545","city":"Red Feather Lakes","state":"CO","lat":40.8659,"long":-105.6893},{"zip":"80547","city":"Timnath","state":"CO","lat":40.5291,"long":-104.9853},{"zip":"80549","city":"Wellington","state":"CO","lat":40.7255,"long":-105.0318},{"zip":"80553","city":"Fort Collins","state":"CO","lat":40.5853,"long":-105.0844},{"zip":"80804","city":"Arriba","state":"CO","lat":39.3025,"long":-103.271},{"zip":"80818","city":"Genoa","state":"CO","lat":39.3383,"long":-103.4607},{"zip":"80821","city":"Hugo","state":"CO","lat":39.0843,"long":-103.499},{"zip":"80823","city":"Karval","state":"CO","lat":38.7119,"long":-103.5006},{"zip":"80826","city":"Limon","state":"CO","lat":39.2639,"long":-103.6922},{"zip":"80828","city":"Limon","state":"CO","lat":39.2713,"long":-103.6856},{"zip":"80722","city":"Atwood","state":"CO","lat":40.5082,"long":-103.2749},{"zip":"80726","city":"Crook","state":"CO","lat":40.8747,"long":-102.8472},{"zip":"80728","city":"Fleming","state":"CO","lat":40.637,"long":-102.8688},{"zip":"80736","city":"Iliff","state":"CO","lat":40.7692,"long":-103.0968},{"zip":"80741","city":"Merino","state":"CO","lat":40.5708,"long":-103.4719},{"zip":"80745","city":"Padroni","state":"CO","lat":40.8842,"long":-103.3728},{"zip":"80747","city":"Peetz","state":"CO","lat":40.9519,"long":-103.1166},{"zip":"80751","city":"Sterling","state":"CO","lat":40.6306,"long":-103.2212},{"zip":"80649","city":"Orchard","state":"CO","lat":40.3639,"long":-104.0973},{"zip":"80653","city":"Weldona","state":"CO","lat":40.3681,"long":-103.9678},{"zip":"80654","city":"Wiggins","state":"CO","lat":40.1598,"long":-104.0468},{"zip":"80701","city":"Fort Morgan","state":"CO","lat":40.2541,"long":-103.8031},{"zip":"80705","city":"Log Lane Village","state":"CO","lat":40.2707,"long":-103.8338},{"zip":"80723","city":"Brush","state":"CO","lat":40.2603,"long":-103.6279},{"zip":"80733","city":"Hillrose","state":"CO","lat":40.3459,"long":-103.5057},{"zip":"80750","city":"Snyder","state":"CO","lat":40.3307,"long":-103.5971},{"zip":"80420","city":"Alma","state":"CO","lat":39.2839,"long":-106.0628},{"zip":"80421","city":"Bailey","state":"CO","lat":39.4482,"long":-105.4693},{"zip":"80432","city":"Como","state":"CO","lat":39.1587,"long":-105.817},{"zip":"80440","city":"Fairplay","state":"CO","lat":39.2256,"long":-105.9994},{"zip":"80448","city":"Grant","state":"CO","lat":39.4612,"long":-105.6583},{"zip":"80449","city":"Hartsel","state":"CO","lat":38.9673,"long":-105.8788},{"zip":"80456","city":"Jefferson","state":"CO","lat":39.2759,"long":-105.6865},{"zip":"80475","city":"Shawnee","state":"CO","lat":39.4211,"long":-105.5542},{"zip":"80820","city":"Guffey","state":"CO","lat":38.8146,"long":-105.5784},{"zip":"80827","city":"Lake George","state":"CO","lat":39.0342,"long":-105.4347},{"zip":"80721","city":"Amherst","state":"CO","lat":40.6824,"long":-102.1706},{"zip":"80731","city":"Haxtun","state":"CO","lat":40.6406,"long":-102.6052},{"zip":"80734","city":"Holyoke","state":"CO","lat":40.5825,"long":-102.2825},{"zip":"80746","city":"Paoli","state":"CO","lat":40.6106,"long":-102.4722},{"zip":"80428","city":"Clark","state":"CO","lat":40.7268,"long":-106.9215},{"zip":"80467","city":"Oak Creek","state":"CO","lat":40.2567,"long":-106.9296},{"zip":"80469","city":"Phippsburg","state":"CO","lat":40.1907,"long":-106.9735},{"zip":"80477","city":"Steamboat Springs","state":"CO","lat":40.3482,"long":-106.9269},{"zip":"80479","city":"Toponas","state":"CO","lat":40.0603,"long":-106.8081},{"zip":"80483","city":"Yampa","state":"CO","lat":40.1304,"long":-106.9116},{"zip":"80487","city":"Steamboat Springs","state":"CO","lat":40.6327,"long":-106.9318},{"zip":"80488","city":"Steamboat Springs","state":"CO","lat":40.6197,"long":-106.8607},{"zip":"80737","city":"Julesburg","state":"CO","lat":40.9708,"long":-102.2575},{"zip":"80744","city":"Ovid","state":"CO","lat":40.9459,"long":-102.3874},{"zip":"80749","city":"Sedgwick","state":"CO","lat":40.9103,"long":-102.5291},{"zip":"80424","city":"Breckenridge","state":"CO","lat":39.4753,"long":-106.0225},{"zip":"80435","city":"Dillon","state":"CO","lat":39.5952,"long":-105.9741},{"zip":"80443","city":"Frisco","state":"CO","lat":39.5589,"long":-106.1332},{"zip":"80497","city":"Silverthorne","state":"CO","lat":39.6411,"long":-106.108},{"zip":"80498","city":"Silverthorne","state":"CO","lat":39.7647,"long":-106.2211},{"zip":"80813","city":"Cripple Creek","state":"CO","lat":38.8261,"long":-105.1499},{"zip":"80814","city":"Divide","state":"CO","lat":38.9576,"long":-105.1994},{"zip":"80816","city":"Florissant","state":"CO","lat":38.8546,"long":-105.3121},{"zip":"80860","city":"Victor","state":"CO","lat":38.731,"long":-105.1321},{"zip":"80863","city":"Woodland Park","state":"CO","lat":38.9969,"long":-105.0623},{"zip":"80866","city":"Woodland Park","state":"CO","lat":38.9939,"long":-105.0569},{"zip":"80720","city":"Akron","state":"CO","lat":40.1803,"long":-103.2259},{"zip":"80740","city":"Lindon","state":"CO","lat":39.7909,"long":-103.4142},{"zip":"80743","city":"Otis","state":"CO","lat":40.203,"long":-102.9392},{"zip":"80757","city":"Woodrow","state":"CO","lat":39.805,"long":-103.5752},{"zip":"80801","city":"Anton","state":"CO","lat":39.6909,"long":-103.1373},{"zip":"80812","city":"Cope","state":"CO","lat":39.6848,"long":-102.9904},{"zip":"80504","city":"Longmont","state":"CO","lat":40.1306,"long":-104.9504},{"zip":"80514","city":"Dacono","state":"CO","lat":40.0836,"long":-104.9297},{"zip":"80516","city":"Erie","state":"CO","lat":40.0597,"long":-105.0686},{"zip":"80520","city":"Firestone","state":"CO","lat":40.1125,"long":-104.9366},{"zip":"80530","city":"Frederick","state":"CO","lat":40.0978,"long":-104.9293},{"zip":"80534","city":"Johnstown","state":"CO","lat":40.3355,"long":-104.9236},{"zip":"80542","city":"Mead","state":"CO","lat":40.2347,"long":-104.9994},{"zip":"80543","city":"Milliken","state":"CO","lat":40.3294,"long":-104.8552},{"zip":"80546","city":"Severance","state":"CO","lat":40.525,"long":-104.8505},{"zip":"80550","city":"Windsor","state":"CO","lat":40.4837,"long":-104.8994},{"zip":"80551","city":"Windsor","state":"CO","lat":40.4775,"long":-104.9014},{"zip":"80610","city":"Ault","state":"CO","lat":40.5938,"long":-104.7356},{"zip":"80611","city":"Briggsdale","state":"CO","lat":40.6392,"long":-104.2871},{"zip":"80612","city":"Carr","state":"CO","lat":40.8666,"long":-104.8859},{"zip":"80615","city":"Eaton","state":"CO","lat":40.5273,"long":-104.7146},{"zip":"80620","city":"Evans","state":"CO","lat":40.3803,"long":-104.6971},{"zip":"80621","city":"Fort Lupton","state":"CO","lat":40.108,"long":-104.8013},{"zip":"80622","city":"Galeton","state":"CO","lat":40.5378,"long":-104.4585},{"zip":"80623","city":"Gilcrest","state":"CO","lat":40.2854,"long":-104.7825},{"zip":"80624","city":"Gill","state":"CO","lat":40.4696,"long":-104.5},{"zip":"80631","city":"Greeley","state":"CO","lat":40.385,"long":-104.6806},{"zip":"80632","city":"Greeley","state":"CO","lat":40.3766,"long":-104.7629},{"zip":"80633","city":"Greeley","state":"CO","lat":40.4233,"long":-104.7091},{"zip":"80634","city":"Greeley","state":"CO","lat":40.4109,"long":-104.7541},{"zip":"80638","city":"Greeley","state":"CO","lat":40.4233,"long":-104.7091},{"zip":"80639","city":"Greeley","state":"CO","lat":40.3993,"long":-104.7017},{"zip":"80642","city":"Hudson","state":"CO","lat":40.0606,"long":-104.6532},{"zip":"80643","city":"Keenesburg","state":"CO","lat":40.0958,"long":-104.4464},{"zip":"80644","city":"Kersey","state":"CO","lat":40.3963,"long":-104.5288},{"zip":"80645","city":"La Salle","state":"CO","lat":40.3211,"long":-104.7268},{"zip":"80646","city":"Lucerne","state":"CO","lat":40.4824,"long":-104.7054},{"zip":"80648","city":"Nunn","state":"CO","lat":40.7265,"long":-104.785},{"zip":"80650","city":"Pierce","state":"CO","lat":40.6359,"long":-104.7638},{"zip":"80651","city":"Platteville","state":"CO","lat":40.2131,"long":-104.8028},{"zip":"80652","city":"Roggen","state":"CO","lat":40.0878,"long":-104.282},{"zip":"80729","city":"Grover","state":"CO","lat":40.8716,"long":-104.2346},{"zip":"80732","city":"Hereford","state":"CO","lat":40.9751,"long":-104.3053},{"zip":"80742","city":"New Raymer","state":"CO","lat":40.6851,"long":-103.839},{"zip":"80754","city":"Stoneham","state":"CO","lat":40.687,"long":-103.6387},{"zip":"80727","city":"Eckley","state":"CO","lat":40.1138,"long":-102.4828},{"zip":"80735","city":"Idalia","state":"CO","lat":39.8167,"long":-102.4262},{"zip":"80755","city":"Vernon","state":"CO","lat":39.9331,"long":-102.3193},{"zip":"80758","city":"Wray","state":"CO","lat":40.0685,"long":-102.393},{"zip":"80759","city":"Yuma","state":"CO","lat":40.1301,"long":-102.7072},{"zip":"80822","city":"Joes","state":"CO","lat":39.6564,"long":-102.6788},{"zip":"80824","city":"Kirk","state":"CO","lat":39.6171,"long":-102.4776}]
