[{"zip":"80011","city":"Aurora","state":"CO","lat":39.7378,"long":-104.8152},{"zip":"80019","city":"Aurora","state":"CO","lat":39.7656,"long":-104.7069},{"zip":"80022","city":"Commerce City","state":"CO","lat":39.8259,"long":-104.9113},{"zip":"80024","city":"Dupont","state":"CO","lat":39.8445,"long":-104.9188},{"zip":"80030","city":"Westminster","state":"CO","lat":39.8302,"long":-105.037},{"zip":"80031","city":"Westminster","state":"CO","lat":39.8753,"long":-105.0345},{"zip":"80035","city":"Westminster","state":"CO","lat":39.8367,"long":-105.0372},{"zip":"80036","city":"Westminster","state":"CO","lat":39.8367,"long":-105.0372},{"zip":"80037","city":"Commerce City","state":"CO","lat":39.8083,"long":-104.9339},{"zip":"80040","city":"Aurora","state":"CO","lat":39.7294,"long":-104.8319},{"zip":"80042","city":"Aurora","state":"CO","lat":39.7294,"long":-104.8319},{"zip":"80045","city":"Aurora","state":"CO","lat":39.7467,"long":-104.8384},{"zip":"80010","city":"Aurora","state":"CO","lat":39.7368,"long":-104.8646},{"zip":"80012","city":"Aurora","state":"CO","lat":39.6987,"long":-104.8377},{"zip":"80013","city":"Aurora","state":"CO","lat":39.6575,"long":-104.7846},{"zip":"80014","city":"Aurora","state":"CO","lat":39.6662,"long":-104.835},{"zip":"80015","city":"Aurora","state":"CO","lat":39.6255,"long":-104.7874},{"zip":"80016","city":"Aurora","state":"CO","lat":39.6012,"long":-104.7394},{"zip":"80017","city":"Aurora","state":"CO","lat":39.6948,"long":-104.7881},{"zip":"80018","city":"Aurora","state":"CO","lat":39.7102,"long":-104.7071},{"zip":"80041","city":"Aurora","state":"CO","lat":39.7388,"long":-104.4083},{"zip":"80044","city":"Aurora","state":"CO","lat":39.7388,"long":-104.4083},{"zip":"80046","city":"Aurora","state":"CO","lat":39.7388,"long":-104.4083},{"zip":"80047","city":"Aurora","state":"CO","lat":39.7388,"long":-104.4083},{"zip":"80020","city":"Broomfield","state":"CO","lat":39.9245,"long":-105.0609},{"zip":"80025","city":"Eldorado Springs","state":"CO","lat":39.9324,"long":-105.288},{"zip":"80026","city":"Lafayette","state":"CO","lat":39.998,"long":-105.0963},{"zip":"80027","city":"Louisville","state":"CO","lat":39.9789,"long":-105.1456},{"zip":"80038","city":"Broomfield","state":"CO","lat":39.9205,"long":-105.0867},{"zip":"80023","city":"Broomfield","state":"CO","lat":39.9619,"long":-105.0148},{"zip":"80001","city":"Arvada","state":"CO","lat":39.8028,"long":-105.0875},{"zip":"80002","city":"Arvada","state":"CO","lat":39.7945,"long":-105.0984},{"zip":"80003","city":"Arvada","state":"CO","lat":39.8286,"long":-105.0655},{"zip":"80004","city":"Arvada","state":"CO","lat":39.8141,"long":-105.1177},{"zip":"80005","city":"Arvada","state":"CO","lat":39.8422,"long":-105.1097},{"zip":"80006","city":"Arvada","state":"CO","lat":39.8028,"long":-105.0875},{"zip":"80007","city":"Arvada","state":"CO","lat":39.8634,"long":-105.1724},{"zip":"80021","city":"Broomfield","state":"CO","lat":39.8854,"long":-105.1139},{"zip":"80033","city":"Wheat Ridge","state":"CO","lat":39.774,"long":-105.0962},{"zip":"80034","city":"Wheat Ridge","state":"CO","lat":39.7661,"long":-105.0772}]
