[{"zip":"80102","city":"Bennett","state":"CO","lat":39.7589,"long":-104.4275},{"zip":"80136","city":"Strasburg","state":"CO","lat":39.7814,"long":-104.2683},{"zip":"80137","city":"Watkins","state":"CO","lat":39.7623,"long":-104.5834},{"zip":"80103","city":"Byers","state":"CO","lat":39.6985,"long":-104.2019},{"zip":"80105","city":"Deer Trail","state":"CO","lat":39.5931,"long":-104.068},{"zip":"80110","city":"Englewood","state":"CO","lat":39.6463,"long":-105.0092},{"zip":"80111","city":"Englewood","state":"CO","lat":39.6123,"long":-104.8799},{"zip":"80112","city":"Englewood","state":"CO","lat":39.5805,"long":-104.9011},{"zip":"80113","city":"Englewood","state":"CO","lat":39.6405,"long":-104.9614},{"zip":"80120","city":"Littleton","state":"CO","lat":39.5994,"long":-105.0044},{"zip":"80121","city":"Littleton","state":"CO","lat":39.6111,"long":-104.9532},{"zip":"80122","city":"Littleton","state":"CO","lat":39.5814,"long":-104.9557},{"zip":"80150","city":"Englewood","state":"CO","lat":39.6478,"long":-104.9878},{"zip":"80151","city":"Englewood","state":"CO","lat":39.6478,"long":-104.9878},{"zip":"80155","city":"Englewood","state":"CO","lat":39.6478,"long":-104.9878},{"zip":"80160","city":"Littleton","state":"CO","lat":39.6133,"long":-105.0166},{"zip":"80161","city":"Littleton","state":"CO","lat":39.6133,"long":-105.0166},{"zip":"80165","city":"Littleton","state":"CO","lat":39.6133,"long":-105.0166},{"zip":"80166","city":"Littleton","state":"CO","lat":39.6133,"long":-105.0166},{"zip":"80104","city":"Castle Rock","state":"CO","lat":39.3722,"long":-104.8561},{"zip":"80108","city":"Castle Rock","state":"CO","lat":39.4455,"long":-104.853},{"zip":"80109","city":"Castle Rock","state":"CO","lat":39.3643,"long":-104.9014},{"zip":"80116","city":"Franktown","state":"CO","lat":39.3728,"long":-104.7256},{"zip":"80118","city":"Larkspur","state":"CO","lat":39.2011,"long":-104.8546},{"zip":"80124","city":"Lone Tree","state":"CO","lat":39.5517,"long":-104.8863},{"zip":"80125","city":"Littleton","state":"CO","lat":39.4845,"long":-105.0561},{"zip":"80126","city":"Littleton","state":"CO","lat":39.5437,"long":-104.9691},{"zip":"80129","city":"Littleton","state":"CO","lat":39.5397,"long":-105.0109},{"zip":"80130","city":"Littleton","state":"CO","lat":39.5414,"long":-104.9218},{"zip":"80131","city":"Louviers","state":"CO","lat":39.4764,"long":-105.0075},{"zip":"80134","city":"Parker","state":"CO","lat":39.4895,"long":-104.8447},{"zip":"80135","city":"Sedalia","state":"CO","lat":39.3113,"long":-105.0676},{"zip":"80138","city":"Parker","state":"CO","lat":39.5102,"long":-104.7216},{"zip":"80163","city":"Littleton","state":"CO","lat":39.3479,"long":-104.9947},{"zip":"80101","city":"Agate","state":"CO","lat":39.4203,"long":-103.9846},{"zip":"80106","city":"Elbert","state":"CO","lat":39.0969,"long":-104.5746},{"zip":"80107","city":"Elizabeth","state":"CO","lat":39.3836,"long":-104.592},{"zip":"80117","city":"Kiowa","state":"CO","lat":39.324,"long":-104.4523},{"zip":"80132","city":"Monument","state":"CO","lat":39.1007,"long":-104.8542},{"zip":"80133","city":"Palmer Lake","state":"CO","lat":39.1205,"long":-104.9148},{"zip":"80123","city":"Littleton","state":"CO","lat":39.6206,"long":-105.0901},{"zip":"80127","city":"Littleton","state":"CO","lat":39.592,"long":-105.1328},{"zip":"80128","city":"Littleton","state":"CO","lat":39.5918,"long":-105.0832},{"zip":"80162","city":"Littleton","state":"CO","lat":39.522,"long":-105.2239}]
