[{"zip":"80221","city":"Denver","state":"CO","lat":39.838,"long":-104.9988},{"zip":"80229","city":"Denver","state":"CO","lat":39.8671,"long":-104.9227},{"zip":"80233","city":"Denver","state":"CO","lat":39.9015,"long":-104.9407},{"zip":"80234","city":"Denver","state":"CO","lat":39.9108,"long":-105.0109},{"zip":"80241","city":"Thornton","state":"CO","lat":39.868,"long":-104.9719},{"zip":"80260","city":"Denver","state":"CO","lat":39.8672,"long":-105.0041},{"zip":"80201","city":"Denver","state":"CO","lat":39.7263,"long":-104.8568},{"zip":"80202","city":"Denver","state":"CO","lat":39.7491,"long":-104.9946},{"zip":"80203","city":"Denver","state":"CO","lat":39.7313,"long":-104.9811},{"zip":"80204","city":"Denver","state":"CO","lat":39.734,"long":-105.0259},{"zip":"80205","city":"Denver","state":"CO","lat":39.759,"long":-104.9661},{"zip":"80206","city":"Denver","state":"CO","lat":39.7331,"long":-104.9524},{"zip":"80207","city":"Denver","state":"CO","lat":39.7584,"long":-104.9177},{"zip":"80208","city":"Denver","state":"CO","lat":39.7392,"long":-104.9847},{"zip":"80209","city":"Denver","state":"CO","lat":39.7074,"long":-104.9686},{"zip":"80210","city":"Denver","state":"CO","lat":39.679,"long":-104.9631},{"zip":"80211","city":"Denver","state":"CO","lat":39.7665,"long":-105.0204},{"zip":"80212","city":"Denver","state":"CO","lat":39.7683,"long":-105.0493},{"zip":"80216","city":"Denver","state":"CO","lat":39.7835,"long":-104.9669},{"zip":"80217","city":"Denver","state":"CO","lat":39.7392,"long":-104.9847},{"zip":"80218","city":"Denver","state":"CO","lat":39.7327,"long":-104.9717},{"zip":"80219","city":"Denver","state":"CO","lat":39.6956,"long":-105.0341},{"zip":"80220","city":"Denver","state":"CO","lat":39.7312,"long":-104.9129},{"zip":"80222","city":"Denver","state":"CO","lat":39.671,"long":-104.9279},{"zip":"80223","city":"Denver","state":"CO","lat":39.7002,"long":-105.0028},{"zip":"80224","city":"Denver","state":"CO","lat":39.688,"long":-104.9108},{"zip":"80227","city":"Denver","state":"CO","lat":39.6667,"long":-105.0854},{"zip":"80230","city":"Denver","state":"CO","lat":39.7218,"long":-104.8951},{"zip":"80231","city":"Denver","state":"CO","lat":39.6793,"long":-104.8843},{"zip":"80235","city":"Denver","state":"CO","lat":39.6472,"long":-105.0795},{"zip":"80236","city":"Denver","state":"CO","lat":39.6535,"long":-105.0376},{"zip":"80237","city":"Denver","state":"CO","lat":39.6431,"long":-104.8987},{"zip":"80238","city":"Denver","state":"CO","lat":39.7392,"long":-104.9847},{"zip":"80239","city":"Denver","state":"CO","lat":39.7878,"long":-104.8288},{"zip":"80243","city":"Denver","state":"CO","lat":39.7392,"long":-104.9847},{"zip":"80244","city":"Denver","state":"CO","lat":39.7392,"long":-104.9847},{"zip":"80246","city":"Denver","state":"CO","lat":39.7086,"long":-104.9312},{"zip":"80247","city":"Denver","state":"CO","lat":39.6971,"long":-104.8819},{"zip":"80248","city":"Denver","state":"CO","lat":39.7392,"long":-104.9847},{"zip":"80249","city":"Denver","state":"CO","lat":39.7783,"long":-104.7557},{"zip":"80250","city":"Denver","state":"CO","lat":39.7392,"long":-104.9847},{"zip":"80251","city":"Denver","state":"CO","lat":39.7392,"long":-104.9847},{"zip":"80252","city":"Denver","state":"CO","lat":39.7392,"long":-104.9847},{"zip":"80256","city":"Denver","state":"CO","lat":39.7474,"long":-104.9928},{"zip":"80257","city":"Denver","state":"CO","lat":39.7392,"long":-104.9847},{"zip":"80259","city":"Denver","state":"CO","lat":39.7462,"long":-104.9913},{"zip":"80261","city":"Denver","state":"CO","lat":39.7379,"long":-104.985},{"zip":"80262","city":"Denver","state":"CO","lat":39.731,"long":-104.9384},{"zip":"80263","city":"Denver","state":"CO","lat":39.7392,"long":-104.9847},{"zip":"80264","city":"Denver","state":"CO","lat":39.7426,"long":-104.9863},{"zip":"80265","city":"Denver","state":"CO","lat":39.7392,"long":-104.9847},{"zip":"80266","city":"Denver","state":"CO","lat":39.7472,"long":-104.9915},{"zip":"80271","city":"Denver","state":"CO","lat":39.7392,"long":-104.9847},{"zip":"80273","city":"Denver","state":"CO","lat":39.7273,"long":-104.9875},{"zip":"80274","city":"Denver","state":"CO","lat":39.7439,"long":-104.9876},{"zip":"80281","city":"Denver","state":"CO","lat":39.7439,"long":-104.9876},{"zip":"80290","city":"Denver","state":"CO","lat":39.7436,"long":-104.9876},{"zip":"80291","city":"Denver","state":"CO","lat":39.7439,"long":-104.9876},{"zip":"80293","city":"Denver","state":"CO","lat":39.7458,"long":-104.9907},{"zip":"80294","city":"Denver","state":"CO","lat":39.7491,"long":-104.989},{"zip":"80299","city":"Denver","state":"CO","lat":39.7392,"long":-104.9847},{"zip":"80214","city":"Denver","state":"CO","lat":39.7436,"long":-105.0643},{"zip":"80215","city":"Denver","state":"CO","lat":39.7435,"long":-105.1009},{"zip":"80225","city":"Denver","state":"CO","lat":39.6971,"long":-105.1204},{"zip":"80226","city":"Denver","state":"CO","lat":39.7123,"long":-105.0918},{"zip":"80228","city":"Denver","state":"CO","lat":39.6888,"long":-105.156},{"zip":"80232","city":"Denver","state":"CO","lat":39.6895,"long":-105.0908}]
