[{"zip":"80455","city":"Jamestown","state":"CO","lat":40.1155,"long":-105.3886},{"zip":"80466","city":"Nederland","state":"CO","lat":39.9703,"long":-105.4813},{"zip":"80471","city":"Pinecliffe","state":"CO","lat":39.9474,"long":-105.4593},{"zip":"80481","city":"Ward","state":"CO","lat":40.0726,"long":-105.508},{"zip":"80436","city":"Dumont","state":"CO","lat":39.7647,"long":-105.6003},{"zip":"80438","city":"Empire","state":"CO","lat":39.7614,"long":-105.6844},{"zip":"80444","city":"Georgetown","state":"CO","lat":39.7061,"long":-105.6975},{"zip":"80452","city":"Idaho Springs","state":"CO","lat":39.7402,"long":-105.5983},{"zip":"80476","city":"Silver Plume","state":"CO","lat":39.6996,"long":-105.7507},{"zip":"80423","city":"Bond","state":"CO","lat":39.8691,"long":-106.6763},{"zip":"80426","city":"Burns","state":"CO","lat":39.8739,"long":-106.8856},{"zip":"80463","city":"Mc Coy","state":"CO","lat":39.9134,"long":-106.7309},{"zip":"80422","city":"Black Hawk","state":"CO","lat":39.816,"long":-105.4753},{"zip":"80427","city":"Central City","state":"CO","lat":39.8019,"long":-105.5142},{"zip":"80474","city":"Rollinsville","state":"CO","lat":39.9172,"long":-105.5011},{"zip":"80442","city":"Fraser","state":"CO","lat":39.945,"long":-105.8172},{"zip":"80446","city":"Granby","state":"CO","lat":40.0739,"long":-105.9285},{"zip":"80447","city":"Grand Lake","state":"CO","lat":40.2289,"long":-105.8605},{"zip":"80451","city":"Hot Sulphur Springs","state":"CO","lat":40.0712,"long":-106.0693},{"zip":"80459","city":"Kremmling","state":"CO","lat":40.0632,"long":-106.3955},{"zip":"80468","city":"Parshall","state":"CO","lat":39.9539,"long":-106.093},{"zip":"80478","city":"Tabernash","state":"CO","lat":39.9797,"long":-105.8615},{"zip":"80482","city":"Winter Park","state":"CO","lat":39.8939,"long":-105.7845},{"zip":"80430","city":"Coalmont","state":"CO","lat":40.5383,"long":-106.5321},{"zip":"80434","city":"Cowdrey","state":"CO","lat":40.8597,"long":-106.3131},{"zip":"80473","city":"Rand","state":"CO","lat":40.4667,"long":-106.1857},{"zip":"80480","city":"Walden","state":"CO","lat":40.71,"long":-106.2767},{"zip":"80401","city":"Golden","state":"CO","lat":39.7305,"long":-105.1915},{"zip":"80402","city":"Golden","state":"CO","lat":39.7555,"long":-105.2211},{"zip":"80403","city":"Golden","state":"CO","lat":39.8232,"long":-105.2825},{"zip":"80419","city":"Golden","state":"CO","lat":39.522,"long":-105.2239},{"zip":"80425","city":"Buffalo Creek","state":"CO","lat":39.3867,"long":-105.2703},{"zip":"80433","city":"Conifer","state":"CO","lat":39.5197,"long":-105.3169},{"zip":"80437","city":"Evergreen","state":"CO","lat":39.522,"long":-105.2239},{"zip":"80439","city":"Evergreen","state":"CO","lat":39.6374,"long":-105.3402},{"zip":"80453","city":"Idledale","state":"CO","lat":39.6684,"long":-105.2442},{"zip":"80454","city":"Indian Hills","state":"CO","lat":39.6296,"long":-105.2514},{"zip":"80457","city":"Kittredge","state":"CO","lat":39.6481,"long":-105.2782},{"zip":"80465","city":"Morrison","state":"CO","lat":39.6125,"long":-105.1746},{"zip":"80470","city":"Pine","state":"CO","lat":39.4667,"long":-105.3741},{"zip":"80429","city":"Climax","state":"CO","lat":39.2258,"long":-106.3117},{"zip":"80461","city":"Leadville","state":"CO","lat":39.2497,"long":-106.3015},{"zip":"80420","city":"Alma","state":"CO","lat":39.2839,"long":-106.0628},{"zip":"80421","city":"Bailey","state":"CO","lat":39.4482,"long":-105.4693},{"zip":"80432","city":"Como","state":"CO","lat":39.1587,"long":-105.817},{"zip":"80440","city":"Fairplay","state":"CO","lat":39.2256,"long":-105.9994},{"zip":"80448","city":"Grant","state":"CO","lat":39.4612,"long":-105.6583},{"zip":"80449","city":"Hartsel","state":"CO","lat":38.9673,"long":-105.8788},{"zip":"80456","city":"Jefferson","state":"CO","lat":39.2759,"long":-105.6865},{"zip":"80475","city":"Shawnee","state":"CO","lat":39.4211,"long":-105.5542},{"zip":"80428","city":"Clark","state":"CO","lat":40.7268,"long":-106.9215},{"zip":"80467","city":"Oak Creek","state":"CO","lat":40.2567,"long":-106.9296},{"zip":"80469","city":"Phippsburg","state":"CO","lat":40.1907,"long":-106.9735},{"zip":"80477","city":"Steamboat Springs","state":"CO","lat":40.3482,"long":-106.9269},{"zip":"80479","city":"Toponas","state":"CO","lat":40.0603,"long":-106.8081},{"zip":"80483","city":"Yampa","state":"CO","lat":40.1304,"long":-106.9116},{"zip":"80487","city":"Steamboat Springs","state":"CO","lat":40.6327,"long":-106.9318},{"zip":"80488","city":"Steamboat Springs","state":"CO","lat":40.6197,"long":-106.8607},{"zip":"80424","city":"Breckenridge","state":"CO","lat":39.4753,"long":-106.0225},{"zip":"80435","city":"Dillon","state":"CO","lat":39.5952,"long":-105.9741},{"zip":"80443","city":"Frisco","state":"CO","lat":39.5589,"long":-106.1332},{"zip":"80497","city":"Silverthorne","state":"CO","lat":39.6411,"long":-106.108},{"zip":"80498","city":"Silverthorne","state":"CO","lat":39.7647,"long":-106.2211}]
