[{"zip":"80501","city":"Longmont","state":"CO","lat":40.1779,"long":-105.1009},{"zip":"80502","city":"Longmont","state":"CO","lat":40.1672,"long":-105.1019},{"zip":"80503","city":"Longmont","state":"CO","lat":40.1559,"long":-105.1624},{"zip":"80510","city":"Allenspark","state":"CO","lat":40.2268,"long":-105.5201},{"zip":"80533","city":"Hygiene","state":"CO","lat":40.1815,"long":-105.2327},{"zip":"80540","city":"Lyons","state":"CO","lat":40.2357,"long":-105.3231},{"zip":"80544","city":"Niwot","state":"CO","lat":40.1039,"long":-105.1708},{"zip":"80511","city":"Estes Park","state":"CO","lat":40.6281,"long":-105.5692},{"zip":"80512","city":"Bellvue","state":"CO","lat":40.6265,"long":-105.261},{"zip":"80513","city":"Berthoud","state":"CO","lat":40.2993,"long":-105.1055},{"zip":"80515","city":"Drake","state":"CO","lat":40.4275,"long":-105.3831},{"zip":"80517","city":"Estes Park","state":"CO","lat":40.3658,"long":-105.5142},{"zip":"80521","city":"Fort Collins","state":"CO","lat":40.5813,"long":-105.1039},{"zip":"80522","city":"Fort Collins","state":"CO","lat":40.6429,"long":-105.057},{"zip":"80523","city":"Fort Collins","state":"CO","lat":40.5853,"long":-105.0844},{"zip":"80524","city":"Fort Collins","state":"CO","lat":40.5986,"long":-105.0581},{"zip":"80525","city":"Fort Collins","state":"CO","lat":40.5384,"long":-105.0547},{"zip":"80526","city":"Fort Collins","state":"CO","lat":40.5473,"long":-105.1076},{"zip":"80527","city":"Fort Collins","state":"CO","lat":40.5853,"long":-105.0844},{"zip":"80528","city":"Fort Collins","state":"CO","lat":40.4961,"long":-105.0002},{"zip":"80532","city":"Glen Haven","state":"CO","lat":40.4578,"long":-105.447},{"zip":"80535","city":"Laporte","state":"CO","lat":40.6347,"long":-105.1488},{"zip":"80536","city":"Livermore","state":"CO","lat":40.8701,"long":-105.3766},{"zip":"80537","city":"Loveland","state":"CO","lat":40.3849,"long":-105.0916},{"zip":"80538","city":"Loveland","state":"CO","lat":40.4262,"long":-105.09},{"zip":"80539","city":"Loveland","state":"CO","lat":40.3978,"long":-105.075},{"zip":"80541","city":"Masonville","state":"CO","lat":40.4875,"long":-105.2108},{"zip":"80545","city":"Red Feather Lakes","state":"CO","lat":40.8659,"long":-105.6893},{"zip":"80547","city":"Timnath","state":"CO","lat":40.5291,"long":-104.9853},{"zip":"80549","city":"Wellington","state":"CO","lat":40.7255,"long":-105.0318},{"zip":"80553","city":"Fort Collins","state":"CO","lat":40.5853,"long":-105.0844},{"zip":"80504","city":"Longmont","state":"CO","lat":40.1306,"long":-104.9504},{"zip":"80514","city":"Dacono","state":"CO","lat":40.0836,"long":-104.9297},{"zip":"80516","city":"Erie","state":"CO","lat":40.0597,"long":-105.0686},{"zip":"80520","city":"Firestone","state":"CO","lat":40.1125,"long":-104.9366},{"zip":"80530","city":"Frederick","state":"CO","lat":40.0978,"long":-104.9293},{"zip":"80534","city":"Johnstown","state":"CO","lat":40.3355,"long":-104.9236},{"zip":"80542","city":"Mead","state":"CO","lat":40.2347,"long":-104.9994},{"zip":"80543","city":"Milliken","state":"CO","lat":40.3294,"long":-104.8552},{"zip":"80546","city":"Severance","state":"CO","lat":40.525,"long":-104.8505},{"zip":"80550","city":"Windsor","state":"CO","lat":40.4837,"long":-104.8994},{"zip":"80551","city":"Windsor","state":"CO","lat":40.4775,"long":-104.9014}]
