[{"zip":"80601","city":"Brighton","state":"CO","lat":39.943,"long":-104.7866},{"zip":"80602","city":"Brighton","state":"CO","lat":39.9636,"long":-104.9072},{"zip":"80603","city":"Brighton","state":"CO","lat":39.9515,"long":-104.7746},{"zip":"80614","city":"Eastlake","state":"CO","lat":39.9239,"long":-104.9614},{"zip":"80640","city":"Henderson","state":"CO","lat":39.8983,"long":-104.8718},{"zip":"80649","city":"Orchard","state":"CO","lat":40.3639,"long":-104.0973},{"zip":"80653","city":"Weldona","state":"CO","lat":40.3681,"long":-103.9678},{"zip":"80654","city":"Wiggins","state":"CO","lat":40.1598,"long":-104.0468},{"zip":"80610","city":"Ault","state":"CO","lat":40.5938,"long":-104.7356},{"zip":"80611","city":"Briggsdale","state":"CO","lat":40.6392,"long":-104.2871},{"zip":"80612","city":"Carr","state":"CO","lat":40.8666,"long":-104.8859},{"zip":"80615","city":"Eaton","state":"CO","lat":40.5273,"long":-104.7146},{"zip":"80620","city":"Evans","state":"CO","lat":40.3803,"long":-104.6971},{"zip":"80621","city":"Fort Lupton","state":"CO","lat":40.108,"long":-104.8013},{"zip":"80622","city":"Galeton","state":"CO","lat":40.5378,"long":-104.4585},{"zip":"80623","city":"Gilcrest","state":"CO","lat":40.2854,"long":-104.7825},{"zip":"80624","city":"Gill","state":"CO","lat":40.4696,"long":-104.5},{"zip":"80631","city":"Greeley","state":"CO","lat":40.385,"long":-104.6806},{"zip":"80632","city":"Greeley","state":"CO","lat":40.3766,"long":-104.7629},{"zip":"80633","city":"Greeley","state":"CO","lat":40.4233,"long":-104.7091},{"zip":"80634","city":"Greeley","state":"CO","lat":40.4109,"long":-104.7541},{"zip":"80638","city":"Greeley","state":"CO","lat":40.4233,"long":-104.7091},{"zip":"80639","city":"Greeley","state":"CO","lat":40.3993,"long":-104.7017},{"zip":"80642","city":"Hudson","state":"CO","lat":40.0606,"long":-104.6532},{"zip":"80643","city":"Keenesburg","state":"CO","lat":40.0958,"long":-104.4464},{"zip":"80644","city":"Kersey","state":"CO","lat":40.3963,"long":-104.5288},{"zip":"80645","city":"La Salle","state":"CO","lat":40.3211,"long":-104.7268},{"zip":"80646","city":"Lucerne","state":"CO","lat":40.4824,"long":-104.7054},{"zip":"80648","city":"Nunn","state":"CO","lat":40.7265,"long":-104.785},{"zip":"80650","city":"Pierce","state":"CO","lat":40.6359,"long":-104.7638},{"zip":"80651","city":"Platteville","state":"CO","lat":40.2131,"long":-104.8028},{"zip":"80652","city":"Roggen","state":"CO","lat":40.0878,"long":-104.282}]
