[{"zip":"80722","city":"Atwood","state":"CO","lat":40.5082,"long":-103.2749},{"zip":"80726","city":"Crook","state":"CO","lat":40.8747,"long":-102.8472},{"zip":"80728","city":"Fleming","state":"CO","lat":40.637,"long":-102.8688},{"zip":"80736","city":"Iliff","state":"CO","lat":40.7692,"long":-103.0968},{"zip":"80741","city":"Merino","state":"CO","lat":40.5708,"long":-103.4719},{"zip":"80745","city":"Padroni","state":"CO","lat":40.8842,"long":-103.3728},{"zip":"80747","city":"Peetz","state":"CO","lat":40.9519,"long":-103.1166},{"zip":"80751","city":"Sterling","state":"CO","lat":40.6306,"long":-103.2212},{"zip":"80701","city":"Fort Morgan","state":"CO","lat":40.2541,"long":-103.8031},{"zip":"80705","city":"Log Lane Village","state":"CO","lat":40.2707,"long":-103.8338},{"zip":"80723","city":"Brush","state":"CO","lat":40.2603,"long":-103.6279},{"zip":"80733","city":"Hillrose","state":"CO","lat":40.3459,"long":-103.5057},{"zip":"80750","city":"Snyder","state":"CO","lat":40.3307,"long":-103.5971},{"zip":"80721","city":"Amherst","state":"CO","lat":40.6824,"long":-102.1706},{"zip":"80731","city":"Haxtun","state":"CO","lat":40.6406,"long":-102.6052},{"zip":"80734","city":"Holyoke","state":"CO","lat":40.5825,"long":-102.2825},{"zip":"80746","city":"Paoli","state":"CO","lat":40.6106,"long":-102.4722},{"zip":"80737","city":"Julesburg","state":"CO","lat":40.9708,"long":-102.2575},{"zip":"80744","city":"Ovid","state":"CO","lat":40.9459,"long":-102.3874},{"zip":"80749","city":"Sedgwick","state":"CO","lat":40.9103,"long":-102.5291},{"zip":"80720","city":"Akron","state":"CO","lat":40.1803,"long":-103.2259},{"zip":"80740","city":"Lindon","state":"CO","lat":39.7909,"long":-103.4142},{"zip":"80743","city":"Otis","state":"CO","lat":40.203,"long":-102.9392},{"zip":"80757","city":"Woodrow","state":"CO","lat":39.805,"long":-103.5752},{"zip":"80729","city":"Grover","state":"CO","lat":40.8716,"long":-104.2346},{"zip":"80732","city":"Hereford","state":"CO","lat":40.9751,"long":-104.3053},{"zip":"80742","city":"New Raymer","state":"CO","lat":40.6851,"long":-103.839},{"zip":"80754","city":"Stoneham","state":"CO","lat":40.687,"long":-103.6387},{"zip":"80727","city":"Eckley","state":"CO","lat":40.1138,"long":-102.4828},{"zip":"80735","city":"Idalia","state":"CO","lat":39.8167,"long":-102.4262},{"zip":"80755","city":"Vernon","state":"CO","lat":39.9331,"long":-102.3193},{"zip":"80758","city":"Wray","state":"CO","lat":40.0685,"long":-102.393},{"zip":"80759","city":"Yuma","state":"CO","lat":40.1301,"long":-102.7072}]
