[{"zip":"80802","city":"Arapahoe","state":"CO","lat":38.8417,"long":-102.194},{"zip":"80810","city":"Cheyenne Wells","state":"CO","lat":38.8198,"long":-102.3582},{"zip":"80825","city":"Kit Carson","state":"CO","lat":38.804,"long":-102.8198},{"zip":"80862","city":"Wild Horse","state":"CO","lat":38.8041,"long":-103.0798},{"zip":"80830","city":"Matheson","state":"CO","lat":39.132,"long":-103.9132},{"zip":"80835","city":"Simla","state":"CO","lat":39.2087,"long":-104.0702},{"zip":"80808","city":"Calhan","state":"CO","lat":38.9648,"long":-104.3553},{"zip":"80809","city":"Cascade","state":"CO","lat":38.8967,"long":-104.9722},{"zip":"80817","city":"Fountain","state":"CO","lat":38.6996,"long":-104.7005},{"zip":"80819","city":"Green Mountain Falls","state":"CO","lat":38.9389,"long":-105.0094},{"zip":"80829","city":"Manitou Springs","state":"CO","lat":38.855,"long":-104.9058},{"zip":"80831","city":"Peyton","state":"CO","lat":38.9541,"long":-104.5472},{"zip":"80832","city":"Ramah","state":"CO","lat":39.0736,"long":-104.1247},{"zip":"80833","city":"Rush","state":"CO","lat":38.7642,"long":-104.0241},{"zip":"80840","city":"Usaf Academy","state":"CO","lat":39.0896,"long":-103.8188},{"zip":"80841","city":"Usaf Academy","state":"CO","lat":39.0896,"long":-103.8188},{"zip":"80864","city":"Yoder","state":"CO","lat":38.7753,"long":-104.2184},{"zip":"80805","city":"Bethune","state":"CO","lat":39.3448,"long":-102.4281},{"zip":"80807","city":"Burlington","state":"CO","lat":39.3106,"long":-102.2583},{"zip":"80815","city":"Flagler","state":"CO","lat":39.3127,"long":-103.0624},{"zip":"80834","city":"Seibert","state":"CO","lat":39.3183,"long":-102.8822},{"zip":"80836","city":"Stratton","state":"CO","lat":39.3087,"long":-102.5979},{"zip":"80861","city":"Vona","state":"CO","lat":39.3236,"long":-102.7393},{"zip":"80804","city":"Arriba","state":"CO","lat":39.3025,"long":-103.271},{"zip":"80818","city":"Genoa","state":"CO","lat":39.3383,"long":-103.4607},{"zip":"80821","city":"Hugo","state":"CO","lat":39.0843,"long":-103.499},{"zip":"80823","city":"Karval","state":"CO","lat":38.7119,"long":-103.5006},{"zip":"80826","city":"Limon","state":"CO","lat":39.2639,"long":-103.6922},{"zip":"80828","city":"Limon","state":"CO","lat":39.2713,"long":-103.6856},{"zip":"80820","city":"Guffey","state":"CO","lat":38.8146,"long":-105.5784},{"zip":"80827","city":"Lake George","state":"CO","lat":39.0342,"long":-105.4347},{"zip":"80813","city":"Cripple Creek","state":"CO","lat":38.8261,"long":-105.1499},{"zip":"80814","city":"Divide","state":"CO","lat":38.9576,"long":-105.1994},{"zip":"80816","city":"Florissant","state":"CO","lat":38.8546,"long":-105.3121},{"zip":"80860","city":"Victor","state":"CO","lat":38.731,"long":-105.1321},{"zip":"80863","city":"Woodland Park","state":"CO","lat":38.9969,"long":-105.0623},{"zip":"80866","city":"Woodland Park","state":"CO","lat":38.9939,"long":-105.0569},{"zip":"80801","city":"Anton","state":"CO","lat":39.6909,"long":-103.1373},{"zip":"80812","city":"Cope","state":"CO","lat":39.6848,"long":-102.9904},{"zip":"80822","city":"Joes","state":"CO","lat":39.6564,"long":-102.6788},{"zip":"80824","city":"Kirk","state":"CO","lat":39.6171,"long":-102.4776}]
