[{"zip":"80901","city":"Colorado Springs","state":"CO","lat":38.8339,"long":-104.8214},{"zip":"80902","city":"Colorado Springs","state":"CO","lat":38.7536,"long":-104.8063},{"zip":"80903","city":"Colorado Springs","state":"CO","lat":38.8388,"long":-104.8145},{"zip":"80904","city":"Colorado Springs","state":"CO","lat":38.8533,"long":-104.8595},{"zip":"80905","city":"Colorado Springs","state":"CO","lat":38.8377,"long":-104.837},{"zip":"80906","city":"Colorado Springs","state":"CO","lat":38.7902,"long":-104.8199},{"zip":"80907","city":"Colorado Springs","state":"CO","lat":38.876,"long":-104.817},{"zip":"80908","city":"Colorado Springs","state":"CO","lat":39.0237,"long":-104.6933},{"zip":"80909","city":"Colorado Springs","state":"CO","lat":38.852,"long":-104.7735},{"zip":"80910","city":"Colorado Springs","state":"CO","lat":38.8152,"long":-104.7703},{"zip":"80911","city":"Colorado Springs","state":"CO","lat":38.7457,"long":-104.7223},{"zip":"80912","city":"Colorado Springs","state":"CO","lat":38.8339,"long":-104.8214},{"zip":"80913","city":"Colorado Springs","state":"CO","lat":38.73,"long":-104.7536},{"zip":"80914","city":"Colorado Springs","state":"CO","lat":38.8192,"long":-104.7012},{"zip":"80915","city":"Colorado Springs","state":"CO","lat":38.8558,"long":-104.7134},{"zip":"80916","city":"Colorado Springs","state":"CO","lat":38.8076,"long":-104.7403},{"zip":"80917","city":"Colorado Springs","state":"CO","lat":38.886,"long":-104.7399},{"zip":"80918","city":"Colorado Springs","state":"CO","lat":38.9129,"long":-104.7734},{"zip":"80919","city":"Colorado Springs","state":"CO","lat":38.9268,"long":-104.8464},{"zip":"80920","city":"Colorado Springs","state":"CO","lat":38.9497,"long":-104.767},{"zip":"80921","city":"Colorado Springs","state":"CO","lat":39.0487,"long":-104.814},{"zip":"80922","city":"Colorado Springs","state":"CO","lat":38.905,"long":-104.6982},{"zip":"80923","city":"Colorado Springs","state":"CO","lat":38.9189,"long":-104.7045},{"zip":"80924","city":"Colorado Springs","state":"CO","lat":38.9676,"long":-104.7211},{"zip":"80925","city":"Colorado Springs","state":"CO","lat":38.7378,"long":-104.6459},{"zip":"80926","city":"Colorado Springs","state":"CO","lat":38.6981,"long":-104.8505},{"zip":"80927","city":"Colorado Springs","state":"CO","lat":38.9286,"long":-104.6583},{"zip":"80928","city":"Colorado Springs","state":"CO","lat":38.6233,"long":-104.457},{"zip":"80929","city":"Colorado Springs","state":"CO","lat":38.7968,"long":-104.6079},{"zip":"80930","city":"Colorado Springs","state":"CO","lat":38.8289,"long":-104.5269},{"zip":"80931","city":"Colorado Springs","state":"CO","lat":38.8339,"long":-104.8214},{"zip":"80932","city":"Colorado Springs","state":"CO","lat":38.8339,"long":-104.8214},{"zip":"80933","city":"Colorado Springs","state":"CO","lat":38.8339,"long":-104.8214},{"zip":"80934","city":"Colorado Springs","state":"CO","lat":38.8339,"long":-104.8214},{"zip":"80935","city":"Colorado Springs","state":"CO","lat":38.8339,"long":-104.8214},{"zip":"80936","city":"Colorado Springs","state":"CO","lat":38.8339,"long":-104.8214},{"zip":"80937","city":"Colorado Springs","state":"CO","lat":38.8339,"long":-104.8214},{"zip":"80938","city":"Colorado Springs","state":"CO","lat":38.9047,"long":-104.6634},{"zip":"80939","city":"Colorado Springs","state":"CO","lat":38.8776,"long":-104.6774},{"zip":"80941","city":"Colorado Springs","state":"CO","lat":38.8339,"long":-104.8214},{"zip":"80942","city":"Colorado Springs","state":"CO","lat":38.8339,"long":-104.8214},{"zip":"80944","city":"Colorado Springs","state":"CO","lat":38.8339,"long":-104.8214},{"zip":"80946","city":"Colorado Springs","state":"CO","lat":38.8339,"long":-104.8214},{"zip":"80947","city":"Colorado Springs","state":"CO","lat":38.8339,"long":-104.8214},{"zip":"80949","city":"Colorado Springs","state":"CO","lat":38.8339,"long":-104.8214},{"zip":"80950","city":"Colorado Springs","state":"CO","lat":38.8339,"long":-104.8214},{"zip":"80951","city":"Colorado Springs","state":"CO","lat":38.8881,"long":-104.6556},{"zip":"80960","city":"Colorado Springs","state":"CO","lat":38.8339,"long":-104.8214},{"zip":"80962","city":"Colorado Springs","state":"CO","lat":38.8339,"long":-104.8214},{"zip":"80970","city":"Colorado Springs","state":"CO","lat":38.8339,"long":-104.8214},{"zip":"80977","city":"Colorado Springs","state":"CO","lat":38.8339,"long":-104.8214},{"zip":"80995","city":"Colorado Springs","state":"CO","lat":38.8339,"long":-104.8214},{"zip":"80997","city":"Colorado Springs","state":"CO","lat":38.8339,"long":-104.8214}]
