[{"zip":"81029","city":"Campo","state":"CO","lat":37.1195,"long":-102.5464},{"zip":"81064","city":"Pritchett","state":"CO","lat":37.2723,"long":-102.9145},{"zip":"81073","city":"Springfield","state":"CO","lat":37.4067,"long":-102.6173},{"zip":"81084","city":"Two Buttes","state":"CO","lat":37.5214,"long":-102.4332},{"zip":"81087","city":"Vilas","state":"CO","lat":37.373,"long":-102.4437},{"zip":"81090","city":"Walsh","state":"CO","lat":37.3521,"long":-102.2537},{"zip":"81038","city":"Fort Lyon","state":"CO","lat":37.9555,"long":-103.0725},{"zip":"81044","city":"Hasty","state":"CO","lat":37.959,"long":-103.015},{"zip":"81054","city":"Las Animas","state":"CO","lat":37.923,"long":-103.0884},{"zip":"81057","city":"Mc Clave","state":"CO","lat":38.085,"long":-102.8869},{"zip":"81033","city":"Crowley","state":"CO","lat":38.1931,"long":-103.8561},{"zip":"81034","city":"Crowley","state":"CO","lat":38.1931,"long":-103.8561},{"zip":"81062","city":"Olney Springs","state":"CO","lat":38.2019,"long":-103.941},{"zip":"81063","city":"Ordway","state":"CO","lat":38.2095,"long":-103.8003},{"zip":"81076","city":"Sugar City","state":"CO","lat":38.2444,"long":-103.6556},{"zip":"81040","city":"Gardner","state":"CO","lat":37.7878,"long":-105.1849},{"zip":"81055","city":"La Veta","state":"CO","lat":37.5117,"long":-105.0575},{"zip":"81089","city":"Walsenburg","state":"CO","lat":37.6465,"long":-104.7798},{"zip":"81021","city":"Arlington","state":"CO","lat":38.4068,"long":-103.3697},{"zip":"81036","city":"Eads","state":"CO","lat":38.4408,"long":-102.5549},{"zip":"81045","city":"Haswell","state":"CO","lat":38.4474,"long":-103.1505},{"zip":"81071","city":"Sheridan Lake","state":"CO","lat":38.4667,"long":-102.2921},{"zip":"81020","city":"Aguilar","state":"CO","lat":37.3933,"long":-104.6769},{"zip":"81024","city":"Boncarbo","state":"CO","lat":37.2081,"long":-104.7198},{"zip":"81027","city":"Branson","state":"CO","lat":37.0518,"long":-103.8741},{"zip":"81046","city":"Hoehne","state":"CO","lat":37.2796,"long":-104.3584},{"zip":"81049","city":"Kim","state":"CO","lat":37.3328,"long":-103.3736},{"zip":"81059","city":"Model","state":"CO","lat":37.5192,"long":-104.223},{"zip":"81081","city":"Trinchera","state":"CO","lat":37.0757,"long":-104.1184},{"zip":"81082","city":"Trinidad","state":"CO","lat":37.2691,"long":-104.5038},{"zip":"81091","city":"Weston","state":"CO","lat":37.1702,"long":-104.8247},{"zip":"81030","city":"Cheraw","state":"CO","lat":38.107,"long":-103.5102},{"zip":"81039","city":"Fowler","state":"CO","lat":38.1231,"long":-104.0299},{"zip":"81050","city":"La Junta","state":"CO","lat":37.9546,"long":-103.6644},{"zip":"81058","city":"Manzanola","state":"CO","lat":38.1109,"long":-103.8766},{"zip":"81067","city":"Rocky Ford","state":"CO","lat":38.049,"long":-103.7251},{"zip":"81077","city":"Swink","state":"CO","lat":38.0145,"long":-103.6283},{"zip":"81041","city":"Granada","state":"CO","lat":38.0545,"long":-102.3271},{"zip":"81043","city":"Hartman","state":"CO","lat":38.1195,"long":-102.2168},{"zip":"81047","city":"Holly","state":"CO","lat":38.0205,"long":-102.1415},{"zip":"81052","city":"Lamar","state":"CO","lat":38.0841,"long":-102.6192},{"zip":"81092","city":"Wiley","state":"CO","lat":38.159,"long":-102.7147},{"zip":"81001","city":"Pueblo","state":"CO","lat":38.2879,"long":-104.5848},{"zip":"81002","city":"Pueblo","state":"CO","lat":38.2544,"long":-104.6091},{"zip":"81003","city":"Pueblo","state":"CO","lat":38.2843,"long":-104.6234},{"zip":"81004","city":"Pueblo","state":"CO","lat":38.2441,"long":-104.6278},{"zip":"81005","city":"Pueblo","state":"CO","lat":38.2352,"long":-104.66},{"zip":"81006","city":"Pueblo","state":"CO","lat":38.2447,"long":-104.5318},{"zip":"81007","city":"Pueblo","state":"CO","lat":38.387,"long":-104.7792},{"zip":"81008","city":"Pueblo","state":"CO","lat":38.3133,"long":-104.6284},{"zip":"81009","city":"Pueblo","state":"CO","lat":38.1286,"long":-104.5523},{"zip":"81010","city":"Pueblo","state":"CO","lat":38.1286,"long":-104.5523},{"zip":"81011","city":"Pueblo","state":"CO","lat":38.1286,"long":-104.5523},{"zip":"81012","city":"Pueblo","state":"CO","lat":38.1286,"long":-104.5523},{"zip":"81019","city":"Colorado City","state":"CO","lat":37.9441,"long":-104.8412},{"zip":"81022","city":"Avondale","state":"CO","lat":38.1025,"long":-104.5298},{"zip":"81023","city":"Beulah","state":"CO","lat":38.0837,"long":-104.9724},{"zip":"81025","city":"Boone","state":"CO","lat":38.2646,"long":-104.2585},{"zip":"81069","city":"Rye","state":"CO","lat":37.9236,"long":-104.9303}]
