[{"zip":"81101","city":"Alamosa","state":"CO","lat":37.4703,"long":-105.8786},{"zip":"81102","city":"Alamosa","state":"CO","lat":37.476,"long":-105.8818},{"zip":"81136","city":"Hooper","state":"CO","lat":37.7232,"long":-105.8712},{"zip":"81146","city":"Mosca","state":"CO","lat":37.6358,"long":-105.8069},{"zip":"81121","city":"Arboles","state":"CO","lat":37.0281,"long":-107.4192},{"zip":"81128","city":"Chromo","state":"CO","lat":37.0364,"long":-106.8434},{"zip":"81147","city":"Pagosa Springs","state":"CO","lat":37.2523,"long":-107.0385},{"zip":"81157","city":"Pagosa Springs","state":"CO","lat":37.2694,"long":-107.0098},{"zip":"81120","city":"Antonito","state":"CO","lat":37.0855,"long":-106.0379},{"zip":"81124","city":"Capulin","state":"CO","lat":37.2839,"long":-106.1114},{"zip":"81129","city":"Conejos","state":"CO","lat":37.1011,"long":-106.0265},{"zip":"81140","city":"La Jara","state":"CO","lat":37.2907,"long":-106.0054},{"zip":"81141","city":"Manassa","state":"CO","lat":37.1755,"long":-105.9278},{"zip":"81148","city":"Romeo","state":"CO","lat":37.1721,"long":-105.9858},{"zip":"81151","city":"Sanford","state":"CO","lat":37.2583,"long":-105.9047},{"zip":"81123","city":"Blanca","state":"CO","lat":37.4317,"long":-105.5178},{"zip":"81126","city":"Chama","state":"CO","lat":37.162,"long":-105.3783},{"zip":"81133","city":"Fort Garland","state":"CO","lat":37.427,"long":-105.4049},{"zip":"81138","city":"Jaroso","state":"CO","lat":37.0028,"long":-105.6242},{"zip":"81152","city":"San Luis","state":"CO","lat":37.1066,"long":-105.4781},{"zip":"81122","city":"Bayfield","state":"CO","lat":37.2603,"long":-107.6137},{"zip":"81137","city":"Ignacio","state":"CO","lat":37.1264,"long":-107.6395},{"zip":"81130","city":"Creede","state":"CO","lat":37.8164,"long":-106.9277},{"zip":"81132","city":"Del Norte","state":"CO","lat":37.6447,"long":-106.4073},{"zip":"81135","city":"Homelake","state":"CO","lat":37.5756,"long":-106.097},{"zip":"81144","city":"Monte Vista","state":"CO","lat":37.5731,"long":-106.1408},{"zip":"81154","city":"South Fork","state":"CO","lat":37.6725,"long":-106.6125},{"zip":"81125","city":"Center","state":"CO","lat":37.7343,"long":-106.0906},{"zip":"81131","city":"Crestone","state":"CO","lat":37.953,"long":-105.6879},{"zip":"81143","city":"Moffat","state":"CO","lat":38.0452,"long":-105.8411},{"zip":"81149","city":"Saguache","state":"CO","lat":38.0977,"long":-106.1876},{"zip":"81155","city":"Villa Grove","state":"CO","lat":38.2952,"long":-106.1102}]
