[{"zip":"81201","city":"Salida","state":"CO","lat":38.5259,"long":-105.9978},{"zip":"81211","city":"Buena Vista","state":"CO","lat":38.838,"long":-106.1471},{"zip":"81227","city":"Monarch","state":"CO","lat":38.5458,"long":-106.2434},{"zip":"81228","city":"Granite","state":"CO","lat":39.0307,"long":-106.2566},{"zip":"81236","city":"Nathrop","state":"CO","lat":38.7103,"long":-106.1166},{"zip":"81242","city":"Poncha Springs","state":"CO","lat":38.5128,"long":-106.0772},{"zip":"81252","city":"Westcliffe","state":"CO","lat":38.123,"long":-105.4332},{"zip":"81253","city":"Wetmore","state":"CO","lat":38.1217,"long":-105.1477},{"zip":"81212","city":"Canon City","state":"CO","lat":38.4451,"long":-105.2178},{"zip":"81215","city":"Canon City","state":"CO","lat":38.4776,"long":-105.4766},{"zip":"81221","city":"Coal Creek","state":"CO","lat":38.3611,"long":-105.1483},{"zip":"81222","city":"Coaldale","state":"CO","lat":38.3824,"long":-105.7843},{"zip":"81223","city":"Cotopaxi","state":"CO","lat":38.3703,"long":-105.6881},{"zip":"81226","city":"Florence","state":"CO","lat":38.385,"long":-105.1232},{"zip":"81232","city":"Hillside","state":"CO","lat":38.2653,"long":-105.6117},{"zip":"81233","city":"Howard","state":"CO","lat":38.41,"long":-105.7698},{"zip":"81240","city":"Penrose","state":"CO","lat":38.4336,"long":-105.0113},{"zip":"81244","city":"Rockvale","state":"CO","lat":38.3697,"long":-105.1639},{"zip":"81290","city":"Florence","state":"CO","lat":38.3903,"long":-105.1186},{"zip":"81210","city":"Almont","state":"CO","lat":38.82,"long":-106.6603},{"zip":"81224","city":"Crested Butte","state":"CO","lat":38.8691,"long":-106.9619},{"zip":"81225","city":"Crested Butte","state":"CO","lat":38.9006,"long":-106.9631},{"zip":"81230","city":"Gunnison","state":"CO","lat":38.5511,"long":-106.931},{"zip":"81231","city":"Gunnison","state":"CO","lat":38.7023,"long":-106.9402},{"zip":"81237","city":"Ohio City","state":"CO","lat":38.5908,"long":-106.6028},{"zip":"81239","city":"Parlin","state":"CO","lat":38.5371,"long":-106.6352},{"zip":"81241","city":"Pitkin","state":"CO","lat":38.6179,"long":-106.5146},{"zip":"81243","city":"Powderhorn","state":"CO","lat":38.2822,"long":-107.1084},{"zip":"81235","city":"Lake City","state":"CO","lat":37.9868,"long":-107.302},{"zip":"81251","city":"Twin Lakes","state":"CO","lat":39.1011,"long":-106.4416},{"zip":"81220","city":"Cimarron","state":"CO","lat":38.3876,"long":-107.4824},{"zip":"81248","city":"Sargents","state":"CO","lat":38.4033,"long":-106.4161}]
