[{"zip":"81320","city":"Cahone","state":"CO","lat":37.7182,"long":-108.7917},{"zip":"81324","city":"Dove Creek","state":"CO","lat":37.7632,"long":-108.9181},{"zip":"81332","city":"Rico","state":"CO","lat":37.6905,"long":-108.0324},{"zip":"81301","city":"Durango","state":"CO","lat":37.2874,"long":-107.8617},{"zip":"81302","city":"Durango","state":"CO","lat":37.2753,"long":-107.8801},{"zip":"81303","city":"Durango","state":"CO","lat":37.1156,"long":-107.8909},{"zip":"81326","city":"Hesperus","state":"CO","lat":37.1654,"long":-108.1219},{"zip":"81329","city":"Marvel","state":"CO","lat":37.0926,"long":-108.1252},{"zip":"81321","city":"Cortez","state":"CO","lat":37.3549,"long":-108.5837},{"zip":"81323","city":"Dolores","state":"CO","lat":37.4666,"long":-108.4717},{"zip":"81327","city":"Lewis","state":"CO","lat":37.5177,"long":-108.6546},{"zip":"81328","city":"Mancos","state":"CO","lat":37.3471,"long":-108.2982},{"zip":"81330","city":"Mesa Verde National Park","state":"CO","lat":37.2313,"long":-108.4825},{"zip":"81331","city":"Pleasant View","state":"CO","lat":37.5888,"long":-108.8095},{"zip":"81334","city":"Towaoc","state":"CO","lat":37.2084,"long":-108.72},{"zip":"81335","city":"Yellow Jacket","state":"CO","lat":37.5344,"long":-108.7173},{"zip":"81325","city":"Egnar","state":"CO","lat":37.9344,"long":-108.9299}]
