[{"zip":"81410","city":"Austin","state":"CO","lat":38.7975,"long":-107.9738},{"zip":"81413","city":"Cedaredge","state":"CO","lat":38.9119,"long":-107.9268},{"zip":"81414","city":"Cory","state":"CO","lat":38.7887,"long":-107.9862},{"zip":"81415","city":"Crawford","state":"CO","lat":38.6941,"long":-107.6149},{"zip":"81416","city":"Delta","state":"CO","lat":38.7349,"long":-108.0604},{"zip":"81418","city":"Eckert","state":"CO","lat":38.845,"long":-107.9625},{"zip":"81419","city":"Hotchkiss","state":"CO","lat":38.8124,"long":-107.7472},{"zip":"81420","city":"Lazear","state":"CO","lat":38.7817,"long":-107.7808},{"zip":"81428","city":"Paonia","state":"CO","lat":38.865,"long":-107.5985},{"zip":"81434","city":"Somerset","state":"CO","lat":38.9468,"long":-107.3781},{"zip":"81401","city":"Montrose","state":"CO","lat":38.4678,"long":-107.8752},{"zip":"81402","city":"Montrose","state":"CO","lat":38.4851,"long":-107.886},{"zip":"81403","city":"Montrose","state":"CO","lat":38.3602,"long":-107.9381},{"zip":"81411","city":"Bedrock","state":"CO","lat":38.2509,"long":-108.9799},{"zip":"81422","city":"Naturita","state":"CO","lat":38.2183,"long":-108.5687},{"zip":"81424","city":"Nucla","state":"CO","lat":38.2682,"long":-108.5476},{"zip":"81425","city":"Olathe","state":"CO","lat":38.5976,"long":-107.9921},{"zip":"81429","city":"Paradox","state":"CO","lat":38.3711,"long":-108.9698},{"zip":"81431","city":"Redvale","state":"CO","lat":38.1865,"long":-108.3895},{"zip":"81427","city":"Ouray","state":"CO","lat":38.0258,"long":-107.6726},{"zip":"81432","city":"Ridgway","state":"CO","lat":38.1381,"long":-107.7533},{"zip":"81433","city":"Silverton","state":"CO","lat":37.809,"long":-107.6667},{"zip":"81423","city":"Norwood","state":"CO","lat":38.1104,"long":-108.2845},{"zip":"81426","city":"Ophir","state":"CO","lat":37.8569,"long":-107.8326},{"zip":"81430","city":"Placerville","state":"CO","lat":38.0167,"long":-108.0534},{"zip":"81435","city":"Telluride","state":"CO","lat":37.94,"long":-107.8214}]
