[{"zip":"81501","city":"Grand Junction","state":"CO","lat":39.0783,"long":-108.5457},{"zip":"81502","city":"Grand Junction","state":"CO","lat":39.0179,"long":-108.4814},{"zip":"81503","city":"Grand Junction","state":"CO","lat":39.0307,"long":-108.4361},{"zip":"81504","city":"Grand Junction","state":"CO","lat":39.0791,"long":-108.4916},{"zip":"81505","city":"Grand Junction","state":"CO","lat":39.1071,"long":-108.5968},{"zip":"81506","city":"Grand Junction","state":"CO","lat":39.1032,"long":-108.5491},{"zip":"81507","city":"Grand Junction","state":"CO","lat":39.0157,"long":-108.6129},{"zip":"81520","city":"Clifton","state":"CO","lat":39.0805,"long":-108.4496},{"zip":"81521","city":"Fruita","state":"CO","lat":39.1637,"long":-108.7218},{"zip":"81522","city":"Gateway","state":"CO","lat":38.6784,"long":-108.9719},{"zip":"81523","city":"Glade Park","state":"CO","lat":38.9894,"long":-108.781},{"zip":"81524","city":"Loma","state":"CO","lat":39.2279,"long":-108.8149},{"zip":"81525","city":"Mack","state":"CO","lat":39.2554,"long":-108.9296},{"zip":"81526","city":"Palisade","state":"CO","lat":39.1032,"long":-108.368},{"zip":"81527","city":"Whitewater","state":"CO","lat":38.9744,"long":-108.399}]
