[{"zip":"81620","city":"Avon","state":"CO","lat":39.6313,"long":-106.5108},{"zip":"81621","city":"Basalt","state":"CO","lat":39.3535,"long":-106.9988},{"zip":"81631","city":"Eagle","state":"CO","lat":39.6341,"long":-106.7588},{"zip":"81632","city":"Edwards","state":"CO","lat":39.6382,"long":-106.6206},{"zip":"81637","city":"Gypsum","state":"CO","lat":39.6618,"long":-106.9671},{"zip":"81645","city":"Minturn","state":"CO","lat":39.5805,"long":-106.4176},{"zip":"81649","city":"Red Cliff","state":"CO","lat":39.5122,"long":-106.3681},{"zip":"81655","city":"Wolcott","state":"CO","lat":39.7907,"long":-106.6964},{"zip":"81657","city":"Vail","state":"CO","lat":39.6512,"long":-106.3234},{"zip":"81658","city":"Vail","state":"CO","lat":39.6242,"long":-106.4973},{"zip":"81601","city":"Glenwood Springs","state":"CO","lat":39.5296,"long":-107.3252},{"zip":"81602","city":"Glenwood Springs","state":"CO","lat":39.5505,"long":-107.3248},{"zip":"81623","city":"Carbondale","state":"CO","lat":39.2511,"long":-107.2044},{"zip":"81635","city":"Parachute","state":"CO","lat":39.4519,"long":-108.0529},{"zip":"81636","city":"Battlement Mesa","state":"CO","lat":39.4305,"long":-108.0239},{"zip":"81647","city":"New Castle","state":"CO","lat":39.5709,"long":-107.5428},{"zip":"81650","city":"Rifle","state":"CO","lat":39.5491,"long":-107.7898},{"zip":"81652","city":"Silt","state":"CO","lat":39.5028,"long":-107.6657},{"zip":"81624","city":"Collbran","state":"CO","lat":39.2453,"long":-107.9249},{"zip":"81630","city":"De Beque","state":"CO","lat":39.3118,"long":-108.2304},{"zip":"81643","city":"Mesa","state":"CO","lat":39.1612,"long":-108.1044},{"zip":"81646","city":"Molina","state":"CO","lat":39.1891,"long":-108.0604},{"zip":"81610","city":"Dinosaur","state":"CO","lat":40.2566,"long":-108.9652},{"zip":"81625","city":"Craig","state":"CO","lat":40.5224,"long":-107.5615},{"zip":"81626","city":"Craig","state":"CO","lat":40.5152,"long":-107.5465},{"zip":"81633","city":"Dinosaur","state":"CO","lat":40.377,"long":-108.399},{"zip":"81638","city":"Hamilton","state":"CO","lat":40.325,"long":-107.5841},{"zip":"81640","city":"Maybell","state":"CO","lat":40.6738,"long":-108.3699},{"zip":"81653","city":"Slater","state":"CO","lat":40.9979,"long":-107.3388},{"zip":"81611","city":"Aspen","state":"CO","lat":39.1951,"long":-106.8236},{"zip":"81612","city":"Aspen","state":"CO","lat":39.2234,"long":-106.8828},{"zip":"81615","city":"Snowmass Village","state":"CO","lat":39.2212,"long":-106.932},{"zip":"81642","city":"Meredith","state":"CO","lat":39.3199,"long":-106.6596},{"zip":"81654","city":"Snowmass","state":"CO","lat":39.2258,"long":-107.0303},{"zip":"81656","city":"Woody Creek","state":"CO","lat":39.2831,"long":-106.8985},{"zip":"81641","city":"Meeker","state":"CO","lat":40.0387,"long":-107.8925},{"zip":"81648","city":"Rangely","state":"CO","lat":40.0828,"long":-108.7991},{"zip":"81639","city":"Hayden","state":"CO","lat":40.4945,"long":-107.2571}]
