[{"zip":"82051","city":"Bosler","state":"WY","lat":41.5735,"long":-105.6112},{"zip":"82052","city":"Buford","state":"WY","lat":41.1219,"long":-105.3047},{"zip":"82055","city":"Centennial","state":"WY","lat":41.3391,"long":-105.9945},{"zip":"82058","city":"Garrett","state":"WY","lat":42.2035,"long":-105.678},{"zip":"82063","city":"Jelm","state":"WY","lat":41.0578,"long":-106.0133},{"zip":"82070","city":"Laramie","state":"WY","lat":41.439,"long":-105.801},{"zip":"82071","city":"Laramie","state":"WY","lat":41.3114,"long":-105.5911},{"zip":"82072","city":"Laramie","state":"WY","lat":41.4247,"long":-105.4781},{"zip":"82073","city":"Laramie","state":"WY","lat":41.3071,"long":-105.6247},{"zip":"82083","city":"Rock River","state":"WY","lat":41.7461,"long":-105.9746},{"zip":"82084","city":"Tie Siding","state":"WY","lat":41.0528,"long":-105.4462},{"zip":"82001","city":"Cheyenne","state":"WY","lat":41.1437,"long":-104.7962},{"zip":"82002","city":"Cheyenne","state":"WY","lat":41.14,"long":-104.8202},{"zip":"82003","city":"Cheyenne","state":"WY","lat":41.2191,"long":-104.6612},{"zip":"82005","city":"Fe Warren Afb","state":"WY","lat":41.1391,"long":-104.8629},{"zip":"82006","city":"Cheyenne","state":"WY","lat":41.14,"long":-104.8202},{"zip":"82007","city":"Cheyenne","state":"WY","lat":41.1084,"long":-104.8107},{"zip":"82008","city":"Cheyenne","state":"WY","lat":41.14,"long":-104.8202},{"zip":"82009","city":"Cheyenne","state":"WY","lat":41.1836,"long":-104.8023},{"zip":"82010","city":"Cheyenne","state":"WY","lat":41.14,"long":-104.8202},{"zip":"82050","city":"Albin","state":"WY","lat":41.4342,"long":-104.1505},{"zip":"82053","city":"Burns","state":"WY","lat":41.2003,"long":-104.3155},{"zip":"82054","city":"Carpenter","state":"WY","lat":41.0428,"long":-104.2765},{"zip":"82059","city":"Granite Canon","state":"WY","lat":41.0473,"long":-105.1517},{"zip":"82060","city":"Hillsdale","state":"WY","lat":41.2136,"long":-104.4933},{"zip":"82061","city":"Horse Creek","state":"WY","lat":41.4353,"long":-105.1417},{"zip":"82081","city":"Meriden","state":"WY","lat":41.5424,"long":-104.2866},{"zip":"82082","city":"Pine Bluffs","state":"WY","lat":41.1788,"long":-104.0666}]
