[{"zip":"82224","city":"Lost Springs","state":"WY","lat":43.0421,"long":-104.7973},{"zip":"82229","city":"Shawnee","state":"WY","lat":42.7877,"long":-105.0633},{"zip":"82212","city":"Fort Laramie","state":"WY","lat":42.2133,"long":-104.5226},{"zip":"82217","city":"Hawk Springs","state":"WY","lat":41.7861,"long":-104.2647},{"zip":"82218","city":"Huntley","state":"WY","lat":41.9327,"long":-104.1461},{"zip":"82219","city":"Jay Em","state":"WY","lat":42.4987,"long":-104.5134},{"zip":"82221","city":"Lagrange","state":"WY","lat":41.6423,"long":-104.1974},{"zip":"82223","city":"Lingle","state":"WY","lat":42.1346,"long":-104.332},{"zip":"82240","city":"Torrington","state":"WY","lat":42.0624,"long":-104.1917},{"zip":"82243","city":"Veteran","state":"WY","lat":41.9821,"long":-104.3709},{"zip":"82244","city":"Yoder","state":"WY","lat":41.912,"long":-104.3535},{"zip":"82222","city":"Lance Creek","state":"WY","lat":43.2316,"long":-104.545},{"zip":"82225","city":"Lusk","state":"WY","lat":42.766,"long":-104.4651},{"zip":"82227","city":"Manville","state":"WY","lat":42.73,"long":-104.7024},{"zip":"82242","city":"Van Tassell","state":"WY","lat":42.7033,"long":-104.1408},{"zip":"82201","city":"Wheatland","state":"WY","lat":42.0495,"long":-104.9679},{"zip":"82210","city":"Chugwater","state":"WY","lat":41.7487,"long":-104.8179},{"zip":"82213","city":"Glendo","state":"WY","lat":42.5004,"long":-105},{"zip":"82214","city":"Guernsey","state":"WY","lat":42.2655,"long":-104.7512},{"zip":"82215","city":"Hartville","state":"WY","lat":42.3334,"long":-104.7296}]
