[{"zip":"82301","city":"Rawlins","state":"WY","lat":41.7951,"long":-107.2349},{"zip":"82321","city":"Baggs","state":"WY","lat":41.0312,"long":-107.6687},{"zip":"82323","city":"Dixon","state":"WY","lat":41.0445,"long":-107.499},{"zip":"82324","city":"Elk Mountain","state":"WY","lat":41.6874,"long":-106.4146},{"zip":"82325","city":"Encampment","state":"WY","lat":41.2054,"long":-106.7803},{"zip":"82327","city":"Hanna","state":"WY","lat":41.8726,"long":-106.5283},{"zip":"82329","city":"Medicine Bow","state":"WY","lat":41.903,"long":-106.2012},{"zip":"82331","city":"Saratoga","state":"WY","lat":41.498,"long":-106.754},{"zip":"82332","city":"Savery","state":"WY","lat":41.0395,"long":-107.4234},{"zip":"82334","city":"Sinclair","state":"WY","lat":41.7802,"long":-107.1172},{"zip":"82335","city":"Walcott","state":"WY","lat":41.7611,"long":-106.845},{"zip":"82310","city":"Jeffrey City","state":"WY","lat":42.5402,"long":-107.8724},{"zip":"82322","city":"Bairoil","state":"WY","lat":42.2327,"long":-107.5633},{"zip":"82336","city":"Wamsutter","state":"WY","lat":41.6583,"long":-108.1517}]
