[{"zip":"82410","city":"Basin","state":"WY","lat":44.3788,"long":-108.0438},{"zip":"82411","city":"Burlington","state":"WY","lat":44.4442,"long":-108.4327},{"zip":"82412","city":"Byron","state":"WY","lat":44.7844,"long":-108.544},{"zip":"82420","city":"Cowley","state":"WY","lat":44.8841,"long":-108.4638},{"zip":"82421","city":"Deaver","state":"WY","lat":44.9257,"long":-108.5979},{"zip":"82422","city":"Emblem","state":"WY","lat":44.5058,"long":-108.3918},{"zip":"82426","city":"Greybull","state":"WY","lat":44.4919,"long":-108.0795},{"zip":"82428","city":"Hyattville","state":"WY","lat":44.2507,"long":-107.6053},{"zip":"82431","city":"Lovell","state":"WY","lat":44.8336,"long":-108.4141},{"zip":"82432","city":"Manderson","state":"WY","lat":44.2694,"long":-107.964},{"zip":"82434","city":"Otto","state":"WY","lat":44.4056,"long":-108.3047},{"zip":"82441","city":"Shell","state":"WY","lat":44.6011,"long":-107.7889},{"zip":"82430","city":"Kirby","state":"WY","lat":43.8042,"long":-108.1805},{"zip":"82443","city":"Thermopolis","state":"WY","lat":43.7758,"long":-108.3839},{"zip":"82414","city":"Cody","state":"WY","lat":44.5231,"long":-109.0756},{"zip":"82423","city":"Frannie","state":"WY","lat":44.9718,"long":-108.6221},{"zip":"82433","city":"Meeteetse","state":"WY","lat":44.1962,"long":-108.95},{"zip":"82435","city":"Powell","state":"WY","lat":44.7561,"long":-108.7773},{"zip":"82440","city":"Ralston","state":"WY","lat":44.695,"long":-108.8833},{"zip":"82450","city":"Wapiti","state":"WY","lat":44.4686,"long":-109.4377},{"zip":"82401","city":"Worland","state":"WY","lat":44.0138,"long":-107.9563},{"zip":"82442","city":"Ten Sleep","state":"WY","lat":43.9978,"long":-107.4153}]
