[{"zip":"82615","city":"Shirley Basin","state":"WY","lat":41.7169,"long":-106.9992},{"zip":"82633","city":"Douglas","state":"WY","lat":42.7626,"long":-105.3855},{"zip":"82637","city":"Glenrock","state":"WY","lat":42.7803,"long":-105.8719},{"zip":"82642","city":"Lysite","state":"WY","lat":43.3284,"long":-107.6488},{"zip":"82649","city":"Shoshoni","state":"WY","lat":43.2457,"long":-108.1007},{"zip":"82639","city":"Kaycee","state":"WY","lat":43.7236,"long":-106.5632},{"zip":"82640","city":"Linch","state":"WY","lat":43.5651,"long":-106.1728},{"zip":"82601","city":"Casper","state":"WY","lat":42.8458,"long":-106.3166},{"zip":"82602","city":"Casper","state":"WY","lat":42.8896,"long":-106.357},{"zip":"82604","city":"Casper","state":"WY","lat":42.8261,"long":-106.3896},{"zip":"82605","city":"Casper","state":"WY","lat":42.8666,"long":-106.3131},{"zip":"82609","city":"Casper","state":"WY","lat":42.8406,"long":-106.2806},{"zip":"82620","city":"Alcova","state":"WY","lat":42.5302,"long":-106.76},{"zip":"82630","city":"Arminto","state":"WY","lat":43.1789,"long":-107.2576},{"zip":"82635","city":"Edgerton","state":"WY","lat":43.4074,"long":-106.2638},{"zip":"82636","city":"Evansville","state":"WY","lat":42.8992,"long":-106.1754},{"zip":"82638","city":"Hiland","state":"WY","lat":43.1153,"long":-107.3436},{"zip":"82643","city":"Midwest","state":"WY","lat":43.4114,"long":-106.28},{"zip":"82644","city":"Mills","state":"WY","lat":42.8405,"long":-106.3659},{"zip":"82646","city":"Natrona","state":"WY","lat":43.0297,"long":-106.8092},{"zip":"82648","city":"Powder River","state":"WY","lat":42.9662,"long":-106.807}]
