[{"zip":"82716","city":"Gillette","state":"WY","lat":44.282,"long":-105.4974},{"zip":"82717","city":"Gillette","state":"WY","lat":44.3047,"long":-105.4959},{"zip":"82718","city":"Gillette","state":"WY","lat":43.9282,"long":-105.5492},{"zip":"82725","city":"Recluse","state":"WY","lat":44.7861,"long":-105.776},{"zip":"82727","city":"Rozet","state":"WY","lat":44.3058,"long":-105.2459},{"zip":"82731","city":"Weston","state":"WY","lat":44.7705,"long":-105.3581},{"zip":"82732","city":"Wright","state":"WY","lat":43.7512,"long":-105.492},{"zip":"82710","city":"Aladdin","state":"WY","lat":44.7473,"long":-104.1931},{"zip":"82711","city":"Alva","state":"WY","lat":44.6873,"long":-104.4414},{"zip":"82712","city":"Beulah","state":"WY","lat":44.5436,"long":-104.0745},{"zip":"82714","city":"Devils Tower","state":"WY","lat":44.5248,"long":-104.6867},{"zip":"82720","city":"Hulett","state":"WY","lat":44.7352,"long":-104.6174},{"zip":"82721","city":"Moorcroft","state":"WY","lat":44.4154,"long":-104.8389},{"zip":"82729","city":"Sundance","state":"WY","lat":44.4058,"long":-104.3837},{"zip":"82701","city":"Newcastle","state":"WY","lat":43.8511,"long":-104.2262},{"zip":"82715","city":"Four Corners","state":"WY","lat":44.0775,"long":-104.1383},{"zip":"82723","city":"Osage","state":"WY","lat":43.999,"long":-104.4226},{"zip":"82730","city":"Upton","state":"WY","lat":44.0893,"long":-104.6352}]
