[{"zip":"82834","city":"Buffalo","state":"WY","lat":44.3485,"long":-106.7073},{"zip":"82840","city":"Saddlestring","state":"WY","lat":44.4976,"long":-106.871},{"zip":"82801","city":"Sheridan","state":"WY","lat":44.7849,"long":-106.9648},{"zip":"82831","city":"Arvada","state":"WY","lat":44.6899,"long":-106.1092},{"zip":"82832","city":"Banner","state":"WY","lat":44.6003,"long":-106.7954},{"zip":"82833","city":"Big Horn","state":"WY","lat":44.6531,"long":-107.0247},{"zip":"82835","city":"Clearmont","state":"WY","lat":44.661,"long":-106.4581},{"zip":"82836","city":"Dayton","state":"WY","lat":44.878,"long":-107.3026},{"zip":"82837","city":"Leiter","state":"WY","lat":44.718,"long":-106.2692},{"zip":"82838","city":"Parkman","state":"WY","lat":44.965,"long":-107.3254},{"zip":"82839","city":"Ranchester","state":"WY","lat":44.9171,"long":-107.174},{"zip":"82842","city":"Story","state":"WY","lat":44.58,"long":-106.8978},{"zip":"82844","city":"Wolf","state":"WY","lat":44.7864,"long":-107.2202},{"zip":"82845","city":"Wyarno","state":"WY","lat":44.7534,"long":-106.6949}]
