[{"zip":"82922","city":"Bondurant","state":"WY","lat":43.2238,"long":-110.3353},{"zip":"82923","city":"Boulder","state":"WY","lat":42.6881,"long":-109.5401},{"zip":"82925","city":"Cora","state":"WY","lat":43.1399,"long":-109.9154},{"zip":"82941","city":"Pinedale","state":"WY","lat":42.8543,"long":-109.8561},{"zip":"82901","city":"Rock Springs","state":"WY","lat":41.606,"long":-109.23},{"zip":"82902","city":"Rock Springs","state":"WY","lat":41.5875,"long":-109.2029},{"zip":"82929","city":"Little America","state":"WY","lat":41.5436,"long":-109.859},{"zip":"82932","city":"Farson","state":"WY","lat":42.0834,"long":-109.4184},{"zip":"82934","city":"Granger","state":"WY","lat":41.5936,"long":-109.9688},{"zip":"82935","city":"Green River","state":"WY","lat":41.5196,"long":-109.4714},{"zip":"82938","city":"Mc Kinnon","state":"WY","lat":41.0409,"long":-109.8745},{"zip":"82942","city":"Point Of Rocks","state":"WY","lat":41.6802,"long":-108.7857},{"zip":"82943","city":"Reliance","state":"WY","lat":41.6698,"long":-109.1919},{"zip":"82945","city":"Superior","state":"WY","lat":41.7643,"long":-108.9681},{"zip":"82930","city":"Evanston","state":"WY","lat":41.2609,"long":-110.9631},{"zip":"82931","city":"Evanston","state":"WY","lat":41.2619,"long":-110.92},{"zip":"82933","city":"Fort Bridger","state":"WY","lat":41.3166,"long":-110.3843},{"zip":"82936","city":"Lonetree","state":"WY","lat":41.0552,"long":-110.1603},{"zip":"82937","city":"Lyman","state":"WY","lat":41.3291,"long":-110.2926},{"zip":"82939","city":"Mountain View","state":"WY","lat":41.2335,"long":-110.3372},{"zip":"82944","city":"Robertson","state":"WY","lat":41.0993,"long":-110.5007}]
