[{"zip":"83616","city":"Eagle","state":"ID","lat":43.7069,"long":-116.362},{"zip":"83634","city":"Kuna","state":"ID","lat":43.487,"long":-116.3819},{"zip":"83642","city":"Meridian","state":"ID","lat":43.615,"long":-116.3975},{"zip":"83669","city":"Star","state":"ID","lat":43.7013,"long":-116.4967},{"zip":"83680","city":"Meridian","state":"ID","lat":43.6121,"long":-116.3915},{"zip":"83701","city":"Boise","state":"ID","lat":43.6038,"long":-116.2729},{"zip":"83702","city":"Boise","state":"ID","lat":43.6322,"long":-116.2052},{"zip":"83703","city":"Boise","state":"ID","lat":43.6601,"long":-116.2524},{"zip":"83704","city":"Boise","state":"ID","lat":43.633,"long":-116.2951},{"zip":"83705","city":"Boise","state":"ID","lat":43.5851,"long":-116.2191},{"zip":"83706","city":"Boise","state":"ID","lat":43.5885,"long":-116.191},{"zip":"83707","city":"Boise","state":"ID","lat":43.6135,"long":-116.2035},{"zip":"83708","city":"Boise","state":"ID","lat":43.4599,"long":-116.244},{"zip":"83709","city":"Boise","state":"ID","lat":43.5741,"long":-116.2941},{"zip":"83711","city":"Boise","state":"ID","lat":43.4599,"long":-116.244},{"zip":"83712","city":"Boise","state":"ID","lat":43.6023,"long":-116.1649},{"zip":"83713","city":"Boise","state":"ID","lat":43.634,"long":-116.3419},{"zip":"83714","city":"Garden City","state":"ID","lat":43.7318,"long":-116.2797},{"zip":"83715","city":"Boise","state":"ID","lat":43.4599,"long":-116.244},{"zip":"83716","city":"Boise","state":"ID","lat":43.5345,"long":-115.9711},{"zip":"83717","city":"Boise","state":"ID","lat":43.4599,"long":-116.244},{"zip":"83719","city":"Boise","state":"ID","lat":43.4599,"long":-116.244},{"zip":"83720","city":"Boise","state":"ID","lat":43.4599,"long":-116.244},{"zip":"83722","city":"Boise","state":"ID","lat":43.4599,"long":-116.244},{"zip":"83724","city":"Boise","state":"ID","lat":43.6195,"long":-116.1952},{"zip":"83725","city":"Boise","state":"ID","lat":43.4599,"long":-116.244},{"zip":"83726","city":"Boise","state":"ID","lat":43.4599,"long":-116.244},{"zip":"83728","city":"Boise","state":"ID","lat":43.6135,"long":-116.2035},{"zip":"83729","city":"Boise","state":"ID","lat":43.4599,"long":-116.244},{"zip":"83731","city":"Boise","state":"ID","lat":43.4599,"long":-116.244},{"zip":"83732","city":"Boise","state":"ID","lat":43.4599,"long":-116.244},{"zip":"83735","city":"Boise","state":"ID","lat":43.6135,"long":-116.2035},{"zip":"83756","city":"Boise","state":"ID","lat":43.4599,"long":-116.244},{"zip":"83799","city":"Boise","state":"ID","lat":43.6135,"long":-116.2035},{"zip":"83612","city":"Council","state":"ID","lat":44.7628,"long":-116.4518},{"zip":"83632","city":"Indian Valley","state":"ID","lat":44.5491,"long":-116.443},{"zip":"83643","city":"Mesa","state":"ID","lat":44.6255,"long":-116.4493},{"zip":"83654","city":"New Meadows","state":"ID","lat":44.994,"long":-116.2874},{"zip":"83201","city":"Pocatello","state":"ID","lat":42.8876,"long":-112.4381},{"zip":"83202","city":"Pocatello","state":"ID","lat":42.9357,"long":-112.4679},{"zip":"83204","city":"Pocatello","state":"ID","lat":42.8465,"long":-112.4434},{"zip":"83205","city":"Pocatello","state":"ID","lat":42.8062,"long":-112.4103},{"zip":"83206","city":"Pocatello","state":"ID","lat":42.8713,"long":-112.4455},{"zip":"83209","city":"Pocatello","state":"ID","lat":42.6395,"long":-112.3138},{"zip":"83214","city":"Arimo","state":"ID","lat":42.56,"long":-112.1746},{"zip":"83234","city":"Downey","state":"ID","lat":42.4181,"long":-112.109},{"zip":"83245","city":"Inkom","state":"ID","lat":42.7964,"long":-112.2465},{"zip":"83246","city":"Lava Hot Springs","state":"ID","lat":42.6185,"long":-112.0176},{"zip":"83250","city":"McCammon","state":"ID","lat":42.6336,"long":-112.1758},{"zip":"83281","city":"Swanlake","state":"ID","lat":42.3195,"long":-111.9781},{"zip":"83220","city":"Bern","state":"ID","lat":42.3191,"long":-111.3926},{"zip":"83223","city":"Bloomington","state":"ID","lat":42.184,"long":-111.4086},{"zip":"83233","city":"Dingle","state":"ID","lat":42.1774,"long":-111.2174},{"zip":"83238","city":"Geneva","state":"ID","lat":42.3136,"long":-111.0722},{"zip":"83239","city":"Georgetown","state":"ID","lat":42.4821,"long":-111.3708},{"zip":"83254","city":"Montpelier","state":"ID","lat":42.352,"long":-111.3195},{"zip":"83261","city":"Paris","state":"ID","lat":42.2242,"long":-111.4208},{"zip":"83272","city":"Saint Charles","state":"ID","lat":42.1128,"long":-111.3897},{"zip":"83287","city":"Fish Haven","state":"ID","lat":42.0459,"long":-111.4633},{"zip":"83824","city":"Desmet","state":"ID","lat":47.126,"long":-116.8937},{"zip":"83830","city":"Fernwood","state":"ID","lat":47.116,"long":-116.3831},{"zip":"83851","city":"Plummer","state":"ID","lat":47.3278,"long":-116.8662},{"zip":"83861","city":"Saint Maries","state":"ID","lat":47.2977,"long":-116.5681},{"zip":"83866","city":"Santa","state":"ID","lat":47.1544,"long":-116.431},{"zip":"83870","city":"Tensed","state":"ID","lat":47.1707,"long":-116.9027},{"zip":"83203","city":"Fort Hall","state":"ID","lat":43.0331,"long":-112.4285},{"zip":"83210","city":"Aberdeen","state":"ID","lat":43.0049,"long":-112.84},{"zip":"83215","city":"Atomic City","state":"ID","lat":43.4449,"long":-112.8128},{"zip":"83218","city":"Basalt","state":"ID","lat":43.3155,"long":-112.1644},{"zip":"83221","city":"Blackfoot","state":"ID","lat":43.1943,"long":-112.3615},{"zip":"83236","city":"Firth","state":"ID","lat":43.3021,"long":-112.1588},{"zip":"83256","city":"Moreland","state":"ID","lat":43.2226,"long":-112.4423},{"zip":"83262","city":"Pingree","state":"ID","lat":43.1336,"long":-112.6295},{"zip":"83274","city":"Shelley","state":"ID","lat":43.3769,"long":-112.1075},{"zip":"83277","city":"Springfield","state":"ID","lat":43.0803,"long":-112.673},{"zip":"83313","city":"Bellevue","state":"ID","lat":43.4397,"long":-114.2498},{"zip":"83320","city":"Carey","state":"ID","lat":43.2744,"long":-113.8926},{"zip":"83333","city":"Hailey","state":"ID","lat":43.5239,"long":-114.3064},{"zip":"83340","city":"Ketchum","state":"ID","lat":43.6692,"long":-114.4858},{"zip":"83348","city":"Picabo","state":"ID","lat":43.3101,"long":-114.0861},{"zip":"83353","city":"Sun Valley","state":"ID","lat":43.6853,"long":-114.3313},{"zip":"83354","city":"Sun Valley","state":"ID","lat":43.5946,"long":-114.3226},{"zip":"83602","city":"Banks","state":"ID","lat":44.0804,"long":-116.124},{"zip":"83622","city":"Garden Valley","state":"ID","lat":44.0909,"long":-115.8243},{"zip":"83629","city":"Horseshoe Bend","state":"ID","lat":43.9229,"long":-116.1809},{"zip":"83631","city":"Idaho City","state":"ID","lat":43.8834,"long":-115.708},{"zip":"83637","city":"Lowman","state":"ID","lat":44.1106,"long":-115.5285},{"zip":"83646","city":"Meridian","state":"ID","lat":43.6498,"long":-116.4306},{"zip":"83666","city":"Placerville","state":"ID","lat":43.9633,"long":-115.9759},{"zip":"83804","city":"Blanchard","state":"ID","lat":48.0223,"long":-116.9909},{"zip":"83809","city":"Careywood","state":"ID","lat":48.0482,"long":-116.5939},{"zip":"83811","city":"Clark Fork","state":"ID","lat":48.1405,"long":-116.1699},{"zip":"83813","city":"Cocolalla","state":"ID","lat":48.1248,"long":-116.6571},{"zip":"83821","city":"Coolin","state":"ID","lat":48.5228,"long":-116.8408},{"zip":"83822","city":"Oldtown","state":"ID","lat":48.1552,"long":-116.9781},{"zip":"83825","city":"Dover","state":"ID","lat":48.2516,"long":-116.611},{"zip":"83836","city":"Hope","state":"ID","lat":48.2444,"long":-116.2795},{"zip":"83840","city":"Kootenai","state":"ID","lat":48.3102,"long":-116.5135},{"zip":"83841","city":"Laclede","state":"ID","lat":48.1791,"long":-116.8246},{"zip":"83848","city":"Nordman","state":"ID","lat":48.6339,"long":-116.9473},{"zip":"83852","city":"Ponderay","state":"ID","lat":48.3055,"long":-116.5338},{"zip":"83856","city":"Priest River","state":"ID","lat":48.1664,"long":-116.9066},{"zip":"83860","city":"Sagle","state":"ID","lat":48.2035,"long":-116.5455},{"zip":"83864","city":"Sandpoint","state":"ID","lat":48.312,"long":-116.5332},{"zip":"83865","city":"Colburn","state":"ID","lat":48.3633,"long":-116.6256},{"zip":"83401","city":"Idaho Falls","state":"ID","lat":43.5518,"long":-111.8919},{"zip":"83402","city":"Idaho Falls","state":"ID","lat":43.4934,"long":-112.0578},{"zip":"83403","city":"Idaho Falls","state":"ID","lat":43.4666,"long":-112.0341},{"zip":"83404","city":"Idaho Falls","state":"ID","lat":43.475,"long":-112.0124},{"zip":"83405","city":"Idaho Falls","state":"ID","lat":43.4666,"long":-112.0341},{"zip":"83406","city":"Idaho Falls","state":"ID","lat":43.4732,"long":-111.9661},{"zip":"83415","city":"Idaho Falls","state":"ID","lat":43.4666,"long":-112.0341},{"zip":"83427","city":"Iona","state":"ID","lat":43.5263,"long":-111.933},{"zip":"83428","city":"Irwin","state":"ID","lat":43.3861,"long":-111.2527},{"zip":"83449","city":"Swan Valley","state":"ID","lat":43.456,"long":-111.3416},{"zip":"83454","city":"Ucon","state":"ID","lat":43.5936,"long":-111.9573},{"zip":"83805","city":"Bonners Ferry","state":"ID","lat":48.7306,"long":-116.3322},{"zip":"83826","city":"Eastport","state":"ID","lat":48.9994,"long":-116.1813},{"zip":"83845","city":"Moyie Springs","state":"ID","lat":48.7464,"long":-116.1796},{"zip":"83847","city":"Naples","state":"ID","lat":48.6049,"long":-116.3196},{"zip":"83853","city":"Porthill","state":"ID","lat":48.992,"long":-116.4775},{"zip":"83213","city":"Arco","state":"ID","lat":43.6355,"long":-113.3176},{"zip":"83244","city":"Howe","state":"ID","lat":43.9087,"long":-113.0878},{"zip":"83255","city":"Moore","state":"ID","lat":43.7296,"long":-113.4544},{"zip":"83322","city":"Corral","state":"ID","lat":43.5282,"long":-114.7307},{"zip":"83327","city":"Fairfield","state":"ID","lat":43.3675,"long":-114.7908},{"zip":"83337","city":"Hill City","state":"ID","lat":43.3005,"long":-115.0512},{"zip":"83605","city":"Caldwell","state":"ID","lat":43.6627,"long":-116.7},{"zip":"83606","city":"Caldwell","state":"ID","lat":43.7249,"long":-116.7989},{"zip":"83607","city":"Caldwell","state":"ID","lat":43.6186,"long":-116.7501},{"zip":"83626","city":"Greenleaf","state":"ID","lat":43.669,"long":-116.8315},{"zip":"83630","city":"Huston","state":"ID","lat":43.6027,"long":-116.7903},{"zip":"83641","city":"Melba","state":"ID","lat":43.3784,"long":-116.5489},{"zip":"83644","city":"Middleton","state":"ID","lat":43.7191,"long":-116.6112},{"zip":"83651","city":"Nampa","state":"ID","lat":43.5834,"long":-116.5848},{"zip":"83652","city":"Nampa","state":"ID","lat":43.7071,"long":-116.6208},{"zip":"83653","city":"Nampa","state":"ID","lat":43.5851,"long":-116.753},{"zip":"83656","city":"Notus","state":"ID","lat":43.7259,"long":-116.7997},{"zip":"83660","city":"Parma","state":"ID","lat":43.7896,"long":-116.9401},{"zip":"83676","city":"Wilder","state":"ID","lat":43.6579,"long":-116.9122},{"zip":"83686","city":"Nampa","state":"ID","lat":43.5441,"long":-116.566},{"zip":"83687","city":"Nampa","state":"ID","lat":43.5937,"long":-116.536},{"zip":"83217","city":"Bancroft","state":"ID","lat":42.7205,"long":-111.8429},{"zip":"83230","city":"Conda","state":"ID","lat":42.7191,"long":-111.5967},{"zip":"83241","city":"Grace","state":"ID","lat":42.55,"long":-111.74},{"zip":"83276","city":"Soda Springs","state":"ID","lat":42.6718,"long":-111.5699},{"zip":"83285","city":"Wayan","state":"ID","lat":43.0269,"long":-111.2541},{"zip":"83311","city":"Albion","state":"ID","lat":42.3896,"long":-113.5567},{"zip":"83312","city":"Almo","state":"ID","lat":42.0846,"long":-113.6283},{"zip":"83318","city":"Burley","state":"ID","lat":42.5244,"long":-113.7931},{"zip":"83323","city":"Declo","state":"ID","lat":42.5245,"long":-113.4338},{"zip":"83342","city":"Malta","state":"ID","lat":42.2741,"long":-113.3927},{"zip":"83346","city":"Oakley","state":"ID","lat":42.194,"long":-113.872},{"zip":"83423","city":"Dubois","state":"ID","lat":44.1858,"long":-112.3259},{"zip":"83446","city":"Spencer","state":"ID","lat":44.3605,"long":-112.1869},{"zip":"83520","city":"Ahsahka","state":"ID","lat":46.5394,"long":-116.3233},{"zip":"83541","city":"Lenore","state":"ID","lat":46.5354,"long":-116.513},{"zip":"83544","city":"Orofino","state":"ID","lat":46.4952,"long":-116.2404},{"zip":"83546","city":"Pierce","state":"ID","lat":46.4924,"long":-115.8071},{"zip":"83553","city":"Weippe","state":"ID","lat":46.3807,"long":-115.9386},{"zip":"83827","city":"Elk River","state":"ID","lat":46.7835,"long":-116.1799},{"zip":"83226","city":"Challis","state":"ID","lat":44.4969,"long":-114.1946},{"zip":"83227","city":"Clayton","state":"ID","lat":44.2733,"long":-114.4102},{"zip":"83235","city":"Ellis","state":"ID","lat":44.6919,"long":-114.0484},{"zip":"83251","city":"Mackay","state":"ID","lat":43.9111,"long":-113.612},{"zip":"83278","city":"Stanley","state":"ID","lat":44.3714,"long":-114.8561},{"zip":"83601","city":"Atlanta","state":"ID","lat":43.8479,"long":-115.2538},{"zip":"83623","city":"Glenns Ferry","state":"ID","lat":42.9622,"long":-115.316},{"zip":"83627","city":"Hammett","state":"ID","lat":42.9457,"long":-115.4662},{"zip":"83633","city":"King Hill","state":"ID","lat":42.9799,"long":-115.1899},{"zip":"83647","city":"Mountain Home","state":"ID","lat":43.1392,"long":-115.6963},{"zip":"83648","city":"Mountain Home Afb","state":"ID","lat":43.7914,"long":-116.4012},{"zip":"83228","city":"Clifton","state":"ID","lat":42.216,"long":-111.9957},{"zip":"83232","city":"Dayton","state":"ID","lat":42.1184,"long":-111.9858},{"zip":"83237","city":"Franklin","state":"ID","lat":42.0288,"long":-111.7871},{"zip":"83263","city":"Preston","state":"ID","lat":42.1109,"long":-111.8565},{"zip":"83283","city":"Thatcher","state":"ID","lat":42.3794,"long":-111.6841},{"zip":"83286","city":"Weston","state":"ID","lat":42.0446,"long":-111.9715},{"zip":"83420","city":"Ashton","state":"ID","lat":44.0153,"long":-111.4253},{"zip":"83421","city":"Chester","state":"ID","lat":44.0011,"long":-111.5351},{"zip":"83429","city":"Island Park","state":"ID","lat":44.4466,"long":-111.3679},{"zip":"83433","city":"Macks Inn","state":"ID","lat":44.3192,"long":-111.6017},{"zip":"83436","city":"Newdale","state":"ID","lat":43.8881,"long":-111.6042},{"zip":"83438","city":"Parker","state":"ID","lat":43.9594,"long":-111.7577},{"zip":"83445","city":"Saint Anthony","state":"ID","lat":43.963,"long":-111.7036},{"zip":"83451","city":"Teton","state":"ID","lat":43.8907,"long":-111.6504},{"zip":"83617","city":"Emmett","state":"ID","lat":43.9089,"long":-116.4927},{"zip":"83636","city":"Letha","state":"ID","lat":43.8963,"long":-116.6462},{"zip":"83657","city":"Ola","state":"ID","lat":44.2418,"long":-116.2732},{"zip":"83670","city":"Sweet","state":"ID","lat":43.9948,"long":-116.3232},{"zip":"83314","city":"Bliss","state":"ID","lat":42.9449,"long":-114.9104},{"zip":"83330","city":"Gooding","state":"ID","lat":42.9373,"long":-114.712},{"zip":"83332","city":"Hagerman","state":"ID","lat":42.8142,"long":-114.887},{"zip":"83355","city":"Wendell","state":"ID","lat":42.7579,"long":-114.7154},{"zip":"83522","city":"Cottonwood","state":"ID","lat":46.0448,"long":-116.3733},{"zip":"83525","city":"Elk City","state":"ID","lat":45.7896,"long":-115.5024},{"zip":"83526","city":"Ferdinand","state":"ID","lat":46.1349,"long":-116.3982},{"zip":"83530","city":"Grangeville","state":"ID","lat":45.9272,"long":-116.1076},{"zip":"83531","city":"Fenn","state":"ID","lat":45.9632,"long":-116.2563},{"zip":"83533","city":"Greencreek","state":"ID","lat":46.1155,"long":-116.2724},{"zip":"83539","city":"Kooskia","state":"ID","lat":46.116,"long":-115.9459},{"zip":"83542","city":"Lucile","state":"ID","lat":45.557,"long":-116.2669},{"zip":"83547","city":"Pollock","state":"ID","lat":45.3068,"long":-116.3517},{"zip":"83549","city":"Riggins","state":"ID","lat":45.397,"long":-116.3006},{"zip":"83552","city":"Stites","state":"ID","lat":46.002,"long":-115.9269},{"zip":"83554","city":"White Bird","state":"ID","lat":45.7521,"long":-116.2889},{"zip":"83671","city":"Warren","state":"ID","lat":45.2641,"long":-115.6765},{"zip":"83425","city":"Hamer","state":"ID","lat":43.9308,"long":-112.1872},{"zip":"83431","city":"Lewisville","state":"ID","lat":43.6725,"long":-112.0189},{"zip":"83434","city":"Menan","state":"ID","lat":43.7266,"long":-111.9837},{"zip":"83435","city":"Monteview","state":"ID","lat":43.9862,"long":-112.5783},{"zip":"83442","city":"Rigby","state":"ID","lat":43.6715,"long":-111.9005},{"zip":"83443","city":"Ririe","state":"ID","lat":43.5197,"long":-111.5266},{"zip":"83444","city":"Roberts","state":"ID","lat":43.7116,"long":-112.1196},{"zip":"83450","city":"Terreton","state":"ID","lat":43.8586,"long":-112.42},{"zip":"83325","city":"Eden","state":"ID","lat":42.5868,"long":-114.2467},{"zip":"83335","city":"Hazelton","state":"ID","lat":42.5955,"long":-114.135},{"zip":"83338","city":"Jerome","state":"ID","lat":42.7178,"long":-114.5012},{"zip":"83801","city":"Athol","state":"ID","lat":47.9267,"long":-116.7318},{"zip":"83803","city":"Bayview","state":"ID","lat":47.9822,"long":-116.5494},{"zip":"83810","city":"Cataldo","state":"ID","lat":47.5522,"long":-116.4431},{"zip":"83814","city":"Coeur D Alene","state":"ID","lat":47.6928,"long":-116.785},{"zip":"83815","city":"Coeur D Alene","state":"ID","lat":47.7248,"long":-116.789},{"zip":"83816","city":"Coeur D Alene","state":"ID","lat":47.6777,"long":-116.7805},{"zip":"83833","city":"Harrison","state":"ID","lat":47.5017,"long":-116.7446},{"zip":"83835","city":"Hayden","state":"ID","lat":47.7989,"long":-116.7423},{"zip":"83842","city":"Medimont","state":"ID","lat":47.4625,"long":-116.5683},{"zip":"83854","city":"Post Falls","state":"ID","lat":47.7205,"long":-116.9353},{"zip":"83858","city":"Rathdrum","state":"ID","lat":47.8241,"long":-116.8873},{"zip":"83869","city":"Spirit Lake","state":"ID","lat":47.9657,"long":-116.868},{"zip":"83876","city":"Worley","state":"ID","lat":47.4292,"long":-116.9056},{"zip":"83877","city":"Post Falls","state":"ID","lat":47.718,"long":-116.9516},{"zip":"83535","city":"Juliaetta","state":"ID","lat":46.5754,"long":-116.7188},{"zip":"83537","city":"Kendrick","state":"ID","lat":46.6286,"long":-116.6049},{"zip":"83806","city":"Bovill","state":"ID","lat":46.8588,"long":-116.3935},{"zip":"83823","city":"Deary","state":"ID","lat":46.8061,"long":-116.5238},{"zip":"83832","city":"Genesee","state":"ID","lat":46.5714,"long":-116.929},{"zip":"83834","city":"Harvard","state":"ID","lat":46.9376,"long":-116.7025},{"zip":"83843","city":"Moscow","state":"ID","lat":46.7309,"long":-116.9897},{"zip":"83844","city":"Moscow","state":"ID","lat":46.7324,"long":-117.0002},{"zip":"83855","city":"Potlatch","state":"ID","lat":46.9448,"long":-116.9141},{"zip":"83857","city":"Princeton","state":"ID","lat":46.8996,"long":-116.8287},{"zip":"83871","city":"Troy","state":"ID","lat":46.7426,"long":-116.7681},{"zip":"83872","city":"Viola","state":"ID","lat":46.8583,"long":-116.9732},{"zip":"83229","city":"Cobalt","state":"ID","lat":45.093,"long":-114.2317},{"zip":"83253","city":"May","state":"ID","lat":44.6044,"long":-113.912},{"zip":"83462","city":"Carmen","state":"ID","lat":45.255,"long":-113.8573},{"zip":"83463","city":"Gibbonsville","state":"ID","lat":45.5704,"long":-113.9913},{"zip":"83464","city":"Leadore","state":"ID","lat":44.7389,"long":-113.4926},{"zip":"83465","city":"Lemhi","state":"ID","lat":44.8516,"long":-113.6198},{"zip":"83466","city":"North Fork","state":"ID","lat":45.4242,"long":-114.0419},{"zip":"83467","city":"Salmon","state":"ID","lat":45.1571,"long":-113.8784},{"zip":"83468","city":"Tendoy","state":"ID","lat":44.9681,"long":-113.8167},{"zip":"83469","city":"Shoup","state":"ID","lat":45.1851,"long":-114.406},{"zip":"83523","city":"Craigmont","state":"ID","lat":46.2453,"long":-116.4677},{"zip":"83536","city":"Kamiah","state":"ID","lat":46.2186,"long":-116.0347},{"zip":"83543","city":"Nezperce","state":"ID","lat":46.2475,"long":-116.2393},{"zip":"83548","city":"Reubens","state":"ID","lat":46.3361,"long":-116.5333},{"zip":"83555","city":"Winchester","state":"ID","lat":46.2383,"long":-116.6204},{"zip":"83324","city":"Dietrich","state":"ID","lat":42.9125,"long":-114.2664},{"zip":"83349","city":"Richfield","state":"ID","lat":43.0588,"long":-114.1508},{"zip":"83352","city":"Shoshone","state":"ID","lat":42.9474,"long":-114.3822},{"zip":"83440","city":"Rexburg","state":"ID","lat":43.81,"long":-111.789},{"zip":"83441","city":"Rexburg","state":"ID","lat":43.7761,"long":-111.691},{"zip":"83448","city":"Sugar City","state":"ID","lat":43.8477,"long":-111.6932},{"zip":"83460","city":"Rexburg","state":"ID","lat":43.7761,"long":-111.691},{"zip":"83336","city":"Heyburn","state":"ID","lat":42.5599,"long":-113.7709},{"zip":"83343","city":"Minidoka","state":"ID","lat":42.773,"long":-113.5098},{"zip":"83347","city":"Paul","state":"ID","lat":42.624,"long":-113.7971},{"zip":"83350","city":"Rupert","state":"ID","lat":42.6888,"long":-113.6481},{"zip":"83501","city":"Lewiston","state":"ID","lat":46.3646,"long":-116.8609},{"zip":"83524","city":"Culdesac","state":"ID","lat":46.378,"long":-116.6536},{"zip":"83540","city":"Lapwai","state":"ID","lat":46.4124,"long":-116.7902},{"zip":"83545","city":"Peck","state":"ID","lat":46.4807,"long":-116.4114},{"zip":"83243","city":"Holbrook","state":"ID","lat":42.1619,"long":-112.6539},{"zip":"83252","city":"Malad City","state":"ID","lat":42.1808,"long":-112.262},{"zip":"83604","city":"Bruneau","state":"ID","lat":42.614,"long":-115.8419},{"zip":"83624","city":"Grand View","state":"ID","lat":42.9896,"long":-116.0934},{"zip":"83628","city":"Homedale","state":"ID","lat":43.6138,"long":-116.9472},{"zip":"83639","city":"Marsing","state":"ID","lat":43.5399,"long":-116.824},{"zip":"83650","city":"Murphy","state":"ID","lat":42.8481,"long":-116.6371},{"zip":"83619","city":"Fruitland","state":"ID","lat":44.0027,"long":-116.9143},{"zip":"83655","city":"New Plymouth","state":"ID","lat":43.959,"long":-116.8048},{"zip":"83661","city":"Payette","state":"ID","lat":44.0782,"long":-116.9203},{"zip":"83211","city":"American Falls","state":"ID","lat":42.6352,"long":-112.9458},{"zip":"83212","city":"Arbon","state":"ID","lat":42.5026,"long":-112.5585},{"zip":"83271","city":"Rockland","state":"ID","lat":42.5556,"long":-112.854},{"zip":"83802","city":"Avery","state":"ID","lat":47.2714,"long":-115.866},{"zip":"83808","city":"Calder","state":"ID","lat":47.3219,"long":-116.0703},{"zip":"83812","city":"Clarkia","state":"ID","lat":47.0107,"long":-116.2529},{"zip":"83837","city":"Kellogg","state":"ID","lat":47.5431,"long":-116.1253},{"zip":"83839","city":"Kingston","state":"ID","lat":47.5509,"long":-116.2887},{"zip":"83846","city":"Mullan","state":"ID","lat":47.4709,"long":-115.7926},{"zip":"83849","city":"Osburn","state":"ID","lat":47.5211,"long":-116.021},{"zip":"83850","city":"Pinehurst","state":"ID","lat":47.5018,"long":-116.2647},{"zip":"83867","city":"Silverton","state":"ID","lat":47.4981,"long":-115.9657},{"zip":"83868","city":"Smelterville","state":"ID","lat":47.5362,"long":-116.2062},{"zip":"83873","city":"Wallace","state":"ID","lat":47.4908,"long":-115.962},{"zip":"83874","city":"Murray","state":"ID","lat":47.6271,"long":-115.8585},{"zip":"83422","city":"Driggs","state":"ID","lat":43.7263,"long":-111.1199},{"zip":"83424","city":"Felt","state":"ID","lat":43.8724,"long":-111.1895},{"zip":"83452","city":"Tetonia","state":"ID","lat":43.7814,"long":-111.2118},{"zip":"83455","city":"Victor","state":"ID","lat":43.6148,"long":-111.1259},{"zip":"83301","city":"Twin Falls","state":"ID","lat":42.5565,"long":-114.4693},{"zip":"83302","city":"Rogerson","state":"ID","lat":42.218,"long":-114.5942},{"zip":"83303","city":"Twin Falls","state":"ID","lat":42.563,"long":-114.4609},{"zip":"83316","city":"Buhl","state":"ID","lat":42.6008,"long":-114.7825},{"zip":"83321","city":"Castleford","state":"ID","lat":42.521,"long":-114.8734},{"zip":"83328","city":"Filer","state":"ID","lat":42.5653,"long":-114.614},{"zip":"83334","city":"Hansen","state":"ID","lat":42.5249,"long":-114.2994},{"zip":"83341","city":"Kimberly","state":"ID","lat":42.5287,"long":-114.3657},{"zip":"83344","city":"Murtaugh","state":"ID","lat":42.4776,"long":-114.1606},{"zip":"83611","city":"Cascade","state":"ID","lat":44.6927,"long":-115.6417},{"zip":"83615","city":"Donnelly","state":"ID","lat":44.6659,"long":-116.0369},{"zip":"83635","city":"Lake Fork","state":"ID","lat":44.8327,"long":-116.0848},{"zip":"83638","city":"McCall","state":"ID","lat":44.8918,"long":-116.0789},{"zip":"83677","city":"Yellow Pine","state":"ID","lat":44.9698,"long":-115.4963},{"zip":"83610","city":"Cambridge","state":"ID","lat":44.5922,"long":-116.6757},{"zip":"83645","city":"Midvale","state":"ID","lat":44.442,"long":-116.7038},{"zip":"83672","city":"Weiser","state":"ID","lat":44.2522,"long":-116.9651},{"zip":"83101","city":"Kemmerer","state":"WY","lat":41.7887,"long":-110.5283},{"zip":"83110","city":"Afton","state":"WY","lat":42.7128,"long":-110.942},{"zip":"83111","city":"Auburn","state":"WY","lat":42.8051,"long":-110.9944},{"zip":"83112","city":"Bedford","state":"WY","lat":42.8701,"long":-110.9401},{"zip":"83114","city":"Cokeville","state":"WY","lat":42.058,"long":-110.9164},{"zip":"83116","city":"Diamondville","state":"WY","lat":41.7839,"long":-110.54},{"zip":"83118","city":"Etna","state":"WY","lat":43.0443,"long":-111.0085},{"zip":"83119","city":"Fairview","state":"WY","lat":42.6746,"long":-111.0148},{"zip":"83120","city":"Freedom","state":"WY","lat":43.0172,"long":-111.0292},{"zip":"83121","city":"Frontier","state":"WY","lat":41.8141,"long":-110.5371},{"zip":"83122","city":"Grover","state":"WY","lat":42.7965,"long":-110.9244},{"zip":"83123","city":"La Barge","state":"WY","lat":42.2473,"long":-110.2109},{"zip":"83124","city":"Opal","state":"WY","lat":41.7795,"long":-110.276},{"zip":"83126","city":"Smoot","state":"WY","lat":42.6192,"long":-110.9224},{"zip":"83127","city":"Thayne","state":"WY","lat":42.933,"long":-111.0114},{"zip":"83128","city":"Alpine","state":"WY","lat":43.1635,"long":-111.018},{"zip":"83113","city":"Big Piney","state":"WY","lat":42.6483,"long":-110.1246},{"zip":"83115","city":"Daniel","state":"WY","lat":42.9176,"long":-110.1336},{"zip":"83001","city":"Jackson","state":"WY","lat":43.4528,"long":-110.7393},{"zip":"83002","city":"Jackson","state":"WY","lat":43.4799,"long":-110.7624},{"zip":"83011","city":"Kelly","state":"WY","lat":43.6094,"long":-110.5442},{"zip":"83012","city":"Moose","state":"WY","lat":43.715,"long":-110.742},{"zip":"83013","city":"Moran","state":"WY","lat":43.9509,"long":-110.5532},{"zip":"83014","city":"Wilson","state":"WY","lat":43.4992,"long":-110.8742},{"zip":"83025","city":"Teton Village","state":"WY","lat":43.5924,"long":-110.8314},{"zip":"83414","city":"Alta","state":"WY","lat":43.8886,"long":-110.9492}]
