[{"zip":"83101","city":"Kemmerer","state":"WY","lat":41.7887,"long":-110.5283},{"zip":"83110","city":"Afton","state":"WY","lat":42.7128,"long":-110.942},{"zip":"83111","city":"Auburn","state":"WY","lat":42.8051,"long":-110.9944},{"zip":"83112","city":"Bedford","state":"WY","lat":42.8701,"long":-110.9401},{"zip":"83114","city":"Cokeville","state":"WY","lat":42.058,"long":-110.9164},{"zip":"83116","city":"Diamondville","state":"WY","lat":41.7839,"long":-110.54},{"zip":"83118","city":"Etna","state":"WY","lat":43.0443,"long":-111.0085},{"zip":"83119","city":"Fairview","state":"WY","lat":42.6746,"long":-111.0148},{"zip":"83120","city":"Freedom","state":"WY","lat":43.0172,"long":-111.0292},{"zip":"83121","city":"Frontier","state":"WY","lat":41.8141,"long":-110.5371},{"zip":"83122","city":"Grover","state":"WY","lat":42.7965,"long":-110.9244},{"zip":"83123","city":"La Barge","state":"WY","lat":42.2473,"long":-110.2109},{"zip":"83124","city":"Opal","state":"WY","lat":41.7795,"long":-110.276},{"zip":"83126","city":"Smoot","state":"WY","lat":42.6192,"long":-110.9224},{"zip":"83127","city":"Thayne","state":"WY","lat":42.933,"long":-111.0114},{"zip":"83128","city":"Alpine","state":"WY","lat":43.1635,"long":-111.018},{"zip":"83113","city":"Big Piney","state":"WY","lat":42.6483,"long":-110.1246},{"zip":"83115","city":"Daniel","state":"WY","lat":42.9176,"long":-110.1336}]
