[{"zip":"83201","city":"Pocatello","state":"ID","lat":42.8876,"long":-112.4381},{"zip":"83202","city":"Pocatello","state":"ID","lat":42.9357,"long":-112.4679},{"zip":"83204","city":"Pocatello","state":"ID","lat":42.8465,"long":-112.4434},{"zip":"83205","city":"Pocatello","state":"ID","lat":42.8062,"long":-112.4103},{"zip":"83206","city":"Pocatello","state":"ID","lat":42.8713,"long":-112.4455},{"zip":"83209","city":"Pocatello","state":"ID","lat":42.6395,"long":-112.3138},{"zip":"83214","city":"Arimo","state":"ID","lat":42.56,"long":-112.1746},{"zip":"83234","city":"Downey","state":"ID","lat":42.4181,"long":-112.109},{"zip":"83245","city":"Inkom","state":"ID","lat":42.7964,"long":-112.2465},{"zip":"83246","city":"Lava Hot Springs","state":"ID","lat":42.6185,"long":-112.0176},{"zip":"83250","city":"McCammon","state":"ID","lat":42.6336,"long":-112.1758},{"zip":"83281","city":"Swanlake","state":"ID","lat":42.3195,"long":-111.9781},{"zip":"83220","city":"Bern","state":"ID","lat":42.3191,"long":-111.3926},{"zip":"83223","city":"Bloomington","state":"ID","lat":42.184,"long":-111.4086},{"zip":"83233","city":"Dingle","state":"ID","lat":42.1774,"long":-111.2174},{"zip":"83238","city":"Geneva","state":"ID","lat":42.3136,"long":-111.0722},{"zip":"83239","city":"Georgetown","state":"ID","lat":42.4821,"long":-111.3708},{"zip":"83254","city":"Montpelier","state":"ID","lat":42.352,"long":-111.3195},{"zip":"83261","city":"Paris","state":"ID","lat":42.2242,"long":-111.4208},{"zip":"83272","city":"Saint Charles","state":"ID","lat":42.1128,"long":-111.3897},{"zip":"83287","city":"Fish Haven","state":"ID","lat":42.0459,"long":-111.4633},{"zip":"83203","city":"Fort Hall","state":"ID","lat":43.0331,"long":-112.4285},{"zip":"83210","city":"Aberdeen","state":"ID","lat":43.0049,"long":-112.84},{"zip":"83215","city":"Atomic City","state":"ID","lat":43.4449,"long":-112.8128},{"zip":"83218","city":"Basalt","state":"ID","lat":43.3155,"long":-112.1644},{"zip":"83221","city":"Blackfoot","state":"ID","lat":43.1943,"long":-112.3615},{"zip":"83236","city":"Firth","state":"ID","lat":43.3021,"long":-112.1588},{"zip":"83256","city":"Moreland","state":"ID","lat":43.2226,"long":-112.4423},{"zip":"83262","city":"Pingree","state":"ID","lat":43.1336,"long":-112.6295},{"zip":"83274","city":"Shelley","state":"ID","lat":43.3769,"long":-112.1075},{"zip":"83277","city":"Springfield","state":"ID","lat":43.0803,"long":-112.673},{"zip":"83213","city":"Arco","state":"ID","lat":43.6355,"long":-113.3176},{"zip":"83244","city":"Howe","state":"ID","lat":43.9087,"long":-113.0878},{"zip":"83255","city":"Moore","state":"ID","lat":43.7296,"long":-113.4544},{"zip":"83217","city":"Bancroft","state":"ID","lat":42.7205,"long":-111.8429},{"zip":"83230","city":"Conda","state":"ID","lat":42.7191,"long":-111.5967},{"zip":"83241","city":"Grace","state":"ID","lat":42.55,"long":-111.74},{"zip":"83276","city":"Soda Springs","state":"ID","lat":42.6718,"long":-111.5699},{"zip":"83285","city":"Wayan","state":"ID","lat":43.0269,"long":-111.2541},{"zip":"83226","city":"Challis","state":"ID","lat":44.4969,"long":-114.1946},{"zip":"83227","city":"Clayton","state":"ID","lat":44.2733,"long":-114.4102},{"zip":"83235","city":"Ellis","state":"ID","lat":44.6919,"long":-114.0484},{"zip":"83251","city":"Mackay","state":"ID","lat":43.9111,"long":-113.612},{"zip":"83278","city":"Stanley","state":"ID","lat":44.3714,"long":-114.8561},{"zip":"83228","city":"Clifton","state":"ID","lat":42.216,"long":-111.9957},{"zip":"83232","city":"Dayton","state":"ID","lat":42.1184,"long":-111.9858},{"zip":"83237","city":"Franklin","state":"ID","lat":42.0288,"long":-111.7871},{"zip":"83263","city":"Preston","state":"ID","lat":42.1109,"long":-111.8565},{"zip":"83283","city":"Thatcher","state":"ID","lat":42.3794,"long":-111.6841},{"zip":"83286","city":"Weston","state":"ID","lat":42.0446,"long":-111.9715},{"zip":"83229","city":"Cobalt","state":"ID","lat":45.093,"long":-114.2317},{"zip":"83253","city":"May","state":"ID","lat":44.6044,"long":-113.912},{"zip":"83243","city":"Holbrook","state":"ID","lat":42.1619,"long":-112.6539},{"zip":"83252","city":"Malad City","state":"ID","lat":42.1808,"long":-112.262},{"zip":"83211","city":"American Falls","state":"ID","lat":42.6352,"long":-112.9458},{"zip":"83212","city":"Arbon","state":"ID","lat":42.5026,"long":-112.5585},{"zip":"83271","city":"Rockland","state":"ID","lat":42.5556,"long":-112.854}]
