[{"zip":"83313","city":"Bellevue","state":"ID","lat":43.4397,"long":-114.2498},{"zip":"83320","city":"Carey","state":"ID","lat":43.2744,"long":-113.8926},{"zip":"83333","city":"Hailey","state":"ID","lat":43.5239,"long":-114.3064},{"zip":"83340","city":"Ketchum","state":"ID","lat":43.6692,"long":-114.4858},{"zip":"83348","city":"Picabo","state":"ID","lat":43.3101,"long":-114.0861},{"zip":"83353","city":"Sun Valley","state":"ID","lat":43.6853,"long":-114.3313},{"zip":"83354","city":"Sun Valley","state":"ID","lat":43.5946,"long":-114.3226},{"zip":"83322","city":"Corral","state":"ID","lat":43.5282,"long":-114.7307},{"zip":"83327","city":"Fairfield","state":"ID","lat":43.3675,"long":-114.7908},{"zip":"83337","city":"Hill City","state":"ID","lat":43.3005,"long":-115.0512},{"zip":"83311","city":"Albion","state":"ID","lat":42.3896,"long":-113.5567},{"zip":"83312","city":"Almo","state":"ID","lat":42.0846,"long":-113.6283},{"zip":"83318","city":"Burley","state":"ID","lat":42.5244,"long":-113.7931},{"zip":"83323","city":"Declo","state":"ID","lat":42.5245,"long":-113.4338},{"zip":"83342","city":"Malta","state":"ID","lat":42.2741,"long":-113.3927},{"zip":"83346","city":"Oakley","state":"ID","lat":42.194,"long":-113.872},{"zip":"83314","city":"Bliss","state":"ID","lat":42.9449,"long":-114.9104},{"zip":"83330","city":"Gooding","state":"ID","lat":42.9373,"long":-114.712},{"zip":"83332","city":"Hagerman","state":"ID","lat":42.8142,"long":-114.887},{"zip":"83355","city":"Wendell","state":"ID","lat":42.7579,"long":-114.7154},{"zip":"83325","city":"Eden","state":"ID","lat":42.5868,"long":-114.2467},{"zip":"83335","city":"Hazelton","state":"ID","lat":42.5955,"long":-114.135},{"zip":"83338","city":"Jerome","state":"ID","lat":42.7178,"long":-114.5012},{"zip":"83324","city":"Dietrich","state":"ID","lat":42.9125,"long":-114.2664},{"zip":"83349","city":"Richfield","state":"ID","lat":43.0588,"long":-114.1508},{"zip":"83352","city":"Shoshone","state":"ID","lat":42.9474,"long":-114.3822},{"zip":"83336","city":"Heyburn","state":"ID","lat":42.5599,"long":-113.7709},{"zip":"83343","city":"Minidoka","state":"ID","lat":42.773,"long":-113.5098},{"zip":"83347","city":"Paul","state":"ID","lat":42.624,"long":-113.7971},{"zip":"83350","city":"Rupert","state":"ID","lat":42.6888,"long":-113.6481},{"zip":"83301","city":"Twin Falls","state":"ID","lat":42.5565,"long":-114.4693},{"zip":"83302","city":"Rogerson","state":"ID","lat":42.218,"long":-114.5942},{"zip":"83303","city":"Twin Falls","state":"ID","lat":42.563,"long":-114.4609},{"zip":"83316","city":"Buhl","state":"ID","lat":42.6008,"long":-114.7825},{"zip":"83321","city":"Castleford","state":"ID","lat":42.521,"long":-114.8734},{"zip":"83328","city":"Filer","state":"ID","lat":42.5653,"long":-114.614},{"zip":"83334","city":"Hansen","state":"ID","lat":42.5249,"long":-114.2994},{"zip":"83341","city":"Kimberly","state":"ID","lat":42.5287,"long":-114.3657},{"zip":"83344","city":"Murtaugh","state":"ID","lat":42.4776,"long":-114.1606}]
