[{"zip":"83401","city":"Idaho Falls","state":"ID","lat":43.5518,"long":-111.8919},{"zip":"83402","city":"Idaho Falls","state":"ID","lat":43.4934,"long":-112.0578},{"zip":"83403","city":"Idaho Falls","state":"ID","lat":43.4666,"long":-112.0341},{"zip":"83404","city":"Idaho Falls","state":"ID","lat":43.475,"long":-112.0124},{"zip":"83405","city":"Idaho Falls","state":"ID","lat":43.4666,"long":-112.0341},{"zip":"83406","city":"Idaho Falls","state":"ID","lat":43.4732,"long":-111.9661},{"zip":"83415","city":"Idaho Falls","state":"ID","lat":43.4666,"long":-112.0341},{"zip":"83427","city":"Iona","state":"ID","lat":43.5263,"long":-111.933},{"zip":"83428","city":"Irwin","state":"ID","lat":43.3861,"long":-111.2527},{"zip":"83449","city":"Swan Valley","state":"ID","lat":43.456,"long":-111.3416},{"zip":"83454","city":"Ucon","state":"ID","lat":43.5936,"long":-111.9573},{"zip":"83423","city":"Dubois","state":"ID","lat":44.1858,"long":-112.3259},{"zip":"83446","city":"Spencer","state":"ID","lat":44.3605,"long":-112.1869},{"zip":"83420","city":"Ashton","state":"ID","lat":44.0153,"long":-111.4253},{"zip":"83421","city":"Chester","state":"ID","lat":44.0011,"long":-111.5351},{"zip":"83429","city":"Island Park","state":"ID","lat":44.4466,"long":-111.3679},{"zip":"83433","city":"Macks Inn","state":"ID","lat":44.3192,"long":-111.6017},{"zip":"83436","city":"Newdale","state":"ID","lat":43.8881,"long":-111.6042},{"zip":"83438","city":"Parker","state":"ID","lat":43.9594,"long":-111.7577},{"zip":"83445","city":"Saint Anthony","state":"ID","lat":43.963,"long":-111.7036},{"zip":"83451","city":"Teton","state":"ID","lat":43.8907,"long":-111.6504},{"zip":"83425","city":"Hamer","state":"ID","lat":43.9308,"long":-112.1872},{"zip":"83431","city":"Lewisville","state":"ID","lat":43.6725,"long":-112.0189},{"zip":"83434","city":"Menan","state":"ID","lat":43.7266,"long":-111.9837},{"zip":"83435","city":"Monteview","state":"ID","lat":43.9862,"long":-112.5783},{"zip":"83442","city":"Rigby","state":"ID","lat":43.6715,"long":-111.9005},{"zip":"83443","city":"Ririe","state":"ID","lat":43.5197,"long":-111.5266},{"zip":"83444","city":"Roberts","state":"ID","lat":43.7116,"long":-112.1196},{"zip":"83450","city":"Terreton","state":"ID","lat":43.8586,"long":-112.42},{"zip":"83462","city":"Carmen","state":"ID","lat":45.255,"long":-113.8573},{"zip":"83463","city":"Gibbonsville","state":"ID","lat":45.5704,"long":-113.9913},{"zip":"83464","city":"Leadore","state":"ID","lat":44.7389,"long":-113.4926},{"zip":"83465","city":"Lemhi","state":"ID","lat":44.8516,"long":-113.6198},{"zip":"83466","city":"North Fork","state":"ID","lat":45.4242,"long":-114.0419},{"zip":"83467","city":"Salmon","state":"ID","lat":45.1571,"long":-113.8784},{"zip":"83468","city":"Tendoy","state":"ID","lat":44.9681,"long":-113.8167},{"zip":"83469","city":"Shoup","state":"ID","lat":45.1851,"long":-114.406},{"zip":"83440","city":"Rexburg","state":"ID","lat":43.81,"long":-111.789},{"zip":"83441","city":"Rexburg","state":"ID","lat":43.7761,"long":-111.691},{"zip":"83448","city":"Sugar City","state":"ID","lat":43.8477,"long":-111.6932},{"zip":"83460","city":"Rexburg","state":"ID","lat":43.7761,"long":-111.691},{"zip":"83422","city":"Driggs","state":"ID","lat":43.7263,"long":-111.1199},{"zip":"83424","city":"Felt","state":"ID","lat":43.8724,"long":-111.1895},{"zip":"83452","city":"Tetonia","state":"ID","lat":43.7814,"long":-111.2118},{"zip":"83455","city":"Victor","state":"ID","lat":43.6148,"long":-111.1259},{"zip":"83414","city":"Alta","state":"WY","lat":43.8886,"long":-110.9492}]
