[{"zip":"83520","city":"Ahsahka","state":"ID","lat":46.5394,"long":-116.3233},{"zip":"83541","city":"Lenore","state":"ID","lat":46.5354,"long":-116.513},{"zip":"83544","city":"Orofino","state":"ID","lat":46.4952,"long":-116.2404},{"zip":"83546","city":"Pierce","state":"ID","lat":46.4924,"long":-115.8071},{"zip":"83553","city":"Weippe","state":"ID","lat":46.3807,"long":-115.9386},{"zip":"83522","city":"Cottonwood","state":"ID","lat":46.0448,"long":-116.3733},{"zip":"83525","city":"Elk City","state":"ID","lat":45.7896,"long":-115.5024},{"zip":"83526","city":"Ferdinand","state":"ID","lat":46.1349,"long":-116.3982},{"zip":"83530","city":"Grangeville","state":"ID","lat":45.9272,"long":-116.1076},{"zip":"83531","city":"Fenn","state":"ID","lat":45.9632,"long":-116.2563},{"zip":"83533","city":"Greencreek","state":"ID","lat":46.1155,"long":-116.2724},{"zip":"83539","city":"Kooskia","state":"ID","lat":46.116,"long":-115.9459},{"zip":"83542","city":"Lucile","state":"ID","lat":45.557,"long":-116.2669},{"zip":"83547","city":"Pollock","state":"ID","lat":45.3068,"long":-116.3517},{"zip":"83549","city":"Riggins","state":"ID","lat":45.397,"long":-116.3006},{"zip":"83552","city":"Stites","state":"ID","lat":46.002,"long":-115.9269},{"zip":"83554","city":"White Bird","state":"ID","lat":45.7521,"long":-116.2889},{"zip":"83535","city":"Juliaetta","state":"ID","lat":46.5754,"long":-116.7188},{"zip":"83537","city":"Kendrick","state":"ID","lat":46.6286,"long":-116.6049},{"zip":"83523","city":"Craigmont","state":"ID","lat":46.2453,"long":-116.4677},{"zip":"83536","city":"Kamiah","state":"ID","lat":46.2186,"long":-116.0347},{"zip":"83543","city":"Nezperce","state":"ID","lat":46.2475,"long":-116.2393},{"zip":"83548","city":"Reubens","state":"ID","lat":46.3361,"long":-116.5333},{"zip":"83555","city":"Winchester","state":"ID","lat":46.2383,"long":-116.6204},{"zip":"83501","city":"Lewiston","state":"ID","lat":46.3646,"long":-116.8609},{"zip":"83524","city":"Culdesac","state":"ID","lat":46.378,"long":-116.6536},{"zip":"83540","city":"Lapwai","state":"ID","lat":46.4124,"long":-116.7902},{"zip":"83545","city":"Peck","state":"ID","lat":46.4807,"long":-116.4114}]
