[{"zip":"83616","city":"Eagle","state":"ID","lat":43.7069,"long":-116.362},{"zip":"83634","city":"Kuna","state":"ID","lat":43.487,"long":-116.3819},{"zip":"83642","city":"Meridian","state":"ID","lat":43.615,"long":-116.3975},{"zip":"83669","city":"Star","state":"ID","lat":43.7013,"long":-116.4967},{"zip":"83680","city":"Meridian","state":"ID","lat":43.6121,"long":-116.3915},{"zip":"83612","city":"Council","state":"ID","lat":44.7628,"long":-116.4518},{"zip":"83632","city":"Indian Valley","state":"ID","lat":44.5491,"long":-116.443},{"zip":"83643","city":"Mesa","state":"ID","lat":44.6255,"long":-116.4493},{"zip":"83654","city":"New Meadows","state":"ID","lat":44.994,"long":-116.2874},{"zip":"83602","city":"Banks","state":"ID","lat":44.0804,"long":-116.124},{"zip":"83622","city":"Garden Valley","state":"ID","lat":44.0909,"long":-115.8243},{"zip":"83629","city":"Horseshoe Bend","state":"ID","lat":43.9229,"long":-116.1809},{"zip":"83631","city":"Idaho City","state":"ID","lat":43.8834,"long":-115.708},{"zip":"83637","city":"Lowman","state":"ID","lat":44.1106,"long":-115.5285},{"zip":"83646","city":"Meridian","state":"ID","lat":43.6498,"long":-116.4306},{"zip":"83666","city":"Placerville","state":"ID","lat":43.9633,"long":-115.9759},{"zip":"83605","city":"Caldwell","state":"ID","lat":43.6627,"long":-116.7},{"zip":"83606","city":"Caldwell","state":"ID","lat":43.7249,"long":-116.7989},{"zip":"83607","city":"Caldwell","state":"ID","lat":43.6186,"long":-116.7501},{"zip":"83626","city":"Greenleaf","state":"ID","lat":43.669,"long":-116.8315},{"zip":"83630","city":"Huston","state":"ID","lat":43.6027,"long":-116.7903},{"zip":"83641","city":"Melba","state":"ID","lat":43.3784,"long":-116.5489},{"zip":"83644","city":"Middleton","state":"ID","lat":43.7191,"long":-116.6112},{"zip":"83651","city":"Nampa","state":"ID","lat":43.5834,"long":-116.5848},{"zip":"83652","city":"Nampa","state":"ID","lat":43.7071,"long":-116.6208},{"zip":"83653","city":"Nampa","state":"ID","lat":43.5851,"long":-116.753},{"zip":"83656","city":"Notus","state":"ID","lat":43.7259,"long":-116.7997},{"zip":"83660","city":"Parma","state":"ID","lat":43.7896,"long":-116.9401},{"zip":"83676","city":"Wilder","state":"ID","lat":43.6579,"long":-116.9122},{"zip":"83686","city":"Nampa","state":"ID","lat":43.5441,"long":-116.566},{"zip":"83687","city":"Nampa","state":"ID","lat":43.5937,"long":-116.536},{"zip":"83601","city":"Atlanta","state":"ID","lat":43.8479,"long":-115.2538},{"zip":"83623","city":"Glenns Ferry","state":"ID","lat":42.9622,"long":-115.316},{"zip":"83627","city":"Hammett","state":"ID","lat":42.9457,"long":-115.4662},{"zip":"83633","city":"King Hill","state":"ID","lat":42.9799,"long":-115.1899},{"zip":"83647","city":"Mountain Home","state":"ID","lat":43.1392,"long":-115.6963},{"zip":"83648","city":"Mountain Home Afb","state":"ID","lat":43.7914,"long":-116.4012},{"zip":"83617","city":"Emmett","state":"ID","lat":43.9089,"long":-116.4927},{"zip":"83636","city":"Letha","state":"ID","lat":43.8963,"long":-116.6462},{"zip":"83657","city":"Ola","state":"ID","lat":44.2418,"long":-116.2732},{"zip":"83670","city":"Sweet","state":"ID","lat":43.9948,"long":-116.3232},{"zip":"83671","city":"Warren","state":"ID","lat":45.2641,"long":-115.6765},{"zip":"83604","city":"Bruneau","state":"ID","lat":42.614,"long":-115.8419},{"zip":"83624","city":"Grand View","state":"ID","lat":42.9896,"long":-116.0934},{"zip":"83628","city":"Homedale","state":"ID","lat":43.6138,"long":-116.9472},{"zip":"83639","city":"Marsing","state":"ID","lat":43.5399,"long":-116.824},{"zip":"83650","city":"Murphy","state":"ID","lat":42.8481,"long":-116.6371},{"zip":"83619","city":"Fruitland","state":"ID","lat":44.0027,"long":-116.9143},{"zip":"83655","city":"New Plymouth","state":"ID","lat":43.959,"long":-116.8048},{"zip":"83661","city":"Payette","state":"ID","lat":44.0782,"long":-116.9203},{"zip":"83611","city":"Cascade","state":"ID","lat":44.6927,"long":-115.6417},{"zip":"83615","city":"Donnelly","state":"ID","lat":44.6659,"long":-116.0369},{"zip":"83635","city":"Lake Fork","state":"ID","lat":44.8327,"long":-116.0848},{"zip":"83638","city":"McCall","state":"ID","lat":44.8918,"long":-116.0789},{"zip":"83677","city":"Yellow Pine","state":"ID","lat":44.9698,"long":-115.4963},{"zip":"83610","city":"Cambridge","state":"ID","lat":44.5922,"long":-116.6757},{"zip":"83645","city":"Midvale","state":"ID","lat":44.442,"long":-116.7038},{"zip":"83672","city":"Weiser","state":"ID","lat":44.2522,"long":-116.9651}]
