[{"zip":"83701","city":"Boise","state":"ID","lat":43.6038,"long":-116.2729},{"zip":"83702","city":"Boise","state":"ID","lat":43.6322,"long":-116.2052},{"zip":"83703","city":"Boise","state":"ID","lat":43.6601,"long":-116.2524},{"zip":"83704","city":"Boise","state":"ID","lat":43.633,"long":-116.2951},{"zip":"83705","city":"Boise","state":"ID","lat":43.5851,"long":-116.2191},{"zip":"83706","city":"Boise","state":"ID","lat":43.5885,"long":-116.191},{"zip":"83707","city":"Boise","state":"ID","lat":43.6135,"long":-116.2035},{"zip":"83708","city":"Boise","state":"ID","lat":43.4599,"long":-116.244},{"zip":"83709","city":"Boise","state":"ID","lat":43.5741,"long":-116.2941},{"zip":"83711","city":"Boise","state":"ID","lat":43.4599,"long":-116.244},{"zip":"83712","city":"Boise","state":"ID","lat":43.6023,"long":-116.1649},{"zip":"83713","city":"Boise","state":"ID","lat":43.634,"long":-116.3419},{"zip":"83714","city":"Garden City","state":"ID","lat":43.7318,"long":-116.2797},{"zip":"83715","city":"Boise","state":"ID","lat":43.4599,"long":-116.244},{"zip":"83716","city":"Boise","state":"ID","lat":43.5345,"long":-115.9711},{"zip":"83717","city":"Boise","state":"ID","lat":43.4599,"long":-116.244},{"zip":"83719","city":"Boise","state":"ID","lat":43.4599,"long":-116.244},{"zip":"83720","city":"Boise","state":"ID","lat":43.4599,"long":-116.244},{"zip":"83722","city":"Boise","state":"ID","lat":43.4599,"long":-116.244},{"zip":"83724","city":"Boise","state":"ID","lat":43.6195,"long":-116.1952},{"zip":"83725","city":"Boise","state":"ID","lat":43.4599,"long":-116.244},{"zip":"83726","city":"Boise","state":"ID","lat":43.4599,"long":-116.244},{"zip":"83728","city":"Boise","state":"ID","lat":43.6135,"long":-116.2035},{"zip":"83729","city":"Boise","state":"ID","lat":43.4599,"long":-116.244},{"zip":"83731","city":"Boise","state":"ID","lat":43.4599,"long":-116.244},{"zip":"83732","city":"Boise","state":"ID","lat":43.4599,"long":-116.244},{"zip":"83735","city":"Boise","state":"ID","lat":43.6135,"long":-116.2035},{"zip":"83756","city":"Boise","state":"ID","lat":43.4599,"long":-116.244},{"zip":"83799","city":"Boise","state":"ID","lat":43.6135,"long":-116.2035}]
