[{"zip":"83824","city":"Desmet","state":"ID","lat":47.126,"long":-116.8937},{"zip":"83830","city":"Fernwood","state":"ID","lat":47.116,"long":-116.3831},{"zip":"83851","city":"Plummer","state":"ID","lat":47.3278,"long":-116.8662},{"zip":"83861","city":"Saint Maries","state":"ID","lat":47.2977,"long":-116.5681},{"zip":"83866","city":"Santa","state":"ID","lat":47.1544,"long":-116.431},{"zip":"83870","city":"Tensed","state":"ID","lat":47.1707,"long":-116.9027},{"zip":"83804","city":"Blanchard","state":"ID","lat":48.0223,"long":-116.9909},{"zip":"83809","city":"Careywood","state":"ID","lat":48.0482,"long":-116.5939},{"zip":"83811","city":"Clark Fork","state":"ID","lat":48.1405,"long":-116.1699},{"zip":"83813","city":"Cocolalla","state":"ID","lat":48.1248,"long":-116.6571},{"zip":"83821","city":"Coolin","state":"ID","lat":48.5228,"long":-116.8408},{"zip":"83822","city":"Oldtown","state":"ID","lat":48.1552,"long":-116.9781},{"zip":"83825","city":"Dover","state":"ID","lat":48.2516,"long":-116.611},{"zip":"83836","city":"Hope","state":"ID","lat":48.2444,"long":-116.2795},{"zip":"83840","city":"Kootenai","state":"ID","lat":48.3102,"long":-116.5135},{"zip":"83841","city":"Laclede","state":"ID","lat":48.1791,"long":-116.8246},{"zip":"83848","city":"Nordman","state":"ID","lat":48.6339,"long":-116.9473},{"zip":"83852","city":"Ponderay","state":"ID","lat":48.3055,"long":-116.5338},{"zip":"83856","city":"Priest River","state":"ID","lat":48.1664,"long":-116.9066},{"zip":"83860","city":"Sagle","state":"ID","lat":48.2035,"long":-116.5455},{"zip":"83864","city":"Sandpoint","state":"ID","lat":48.312,"long":-116.5332},{"zip":"83865","city":"Colburn","state":"ID","lat":48.3633,"long":-116.6256},{"zip":"83805","city":"Bonners Ferry","state":"ID","lat":48.7306,"long":-116.3322},{"zip":"83826","city":"Eastport","state":"ID","lat":48.9994,"long":-116.1813},{"zip":"83845","city":"Moyie Springs","state":"ID","lat":48.7464,"long":-116.1796},{"zip":"83847","city":"Naples","state":"ID","lat":48.6049,"long":-116.3196},{"zip":"83853","city":"Porthill","state":"ID","lat":48.992,"long":-116.4775},{"zip":"83827","city":"Elk River","state":"ID","lat":46.7835,"long":-116.1799},{"zip":"83801","city":"Athol","state":"ID","lat":47.9267,"long":-116.7318},{"zip":"83803","city":"Bayview","state":"ID","lat":47.9822,"long":-116.5494},{"zip":"83810","city":"Cataldo","state":"ID","lat":47.5522,"long":-116.4431},{"zip":"83814","city":"Coeur D Alene","state":"ID","lat":47.6928,"long":-116.785},{"zip":"83815","city":"Coeur D Alene","state":"ID","lat":47.7248,"long":-116.789},{"zip":"83816","city":"Coeur D Alene","state":"ID","lat":47.6777,"long":-116.7805},{"zip":"83833","city":"Harrison","state":"ID","lat":47.5017,"long":-116.7446},{"zip":"83835","city":"Hayden","state":"ID","lat":47.7989,"long":-116.7423},{"zip":"83842","city":"Medimont","state":"ID","lat":47.4625,"long":-116.5683},{"zip":"83854","city":"Post Falls","state":"ID","lat":47.7205,"long":-116.9353},{"zip":"83858","city":"Rathdrum","state":"ID","lat":47.8241,"long":-116.8873},{"zip":"83869","city":"Spirit Lake","state":"ID","lat":47.9657,"long":-116.868},{"zip":"83876","city":"Worley","state":"ID","lat":47.4292,"long":-116.9056},{"zip":"83877","city":"Post Falls","state":"ID","lat":47.718,"long":-116.9516},{"zip":"83806","city":"Bovill","state":"ID","lat":46.8588,"long":-116.3935},{"zip":"83823","city":"Deary","state":"ID","lat":46.8061,"long":-116.5238},{"zip":"83832","city":"Genesee","state":"ID","lat":46.5714,"long":-116.929},{"zip":"83834","city":"Harvard","state":"ID","lat":46.9376,"long":-116.7025},{"zip":"83843","city":"Moscow","state":"ID","lat":46.7309,"long":-116.9897},{"zip":"83844","city":"Moscow","state":"ID","lat":46.7324,"long":-117.0002},{"zip":"83855","city":"Potlatch","state":"ID","lat":46.9448,"long":-116.9141},{"zip":"83857","city":"Princeton","state":"ID","lat":46.8996,"long":-116.8287},{"zip":"83871","city":"Troy","state":"ID","lat":46.7426,"long":-116.7681},{"zip":"83872","city":"Viola","state":"ID","lat":46.8583,"long":-116.9732},{"zip":"83802","city":"Avery","state":"ID","lat":47.2714,"long":-115.866},{"zip":"83808","city":"Calder","state":"ID","lat":47.3219,"long":-116.0703},{"zip":"83812","city":"Clarkia","state":"ID","lat":47.0107,"long":-116.2529},{"zip":"83837","city":"Kellogg","state":"ID","lat":47.5431,"long":-116.1253},{"zip":"83839","city":"Kingston","state":"ID","lat":47.5509,"long":-116.2887},{"zip":"83846","city":"Mullan","state":"ID","lat":47.4709,"long":-115.7926},{"zip":"83849","city":"Osburn","state":"ID","lat":47.5211,"long":-116.021},{"zip":"83850","city":"Pinehurst","state":"ID","lat":47.5018,"long":-116.2647},{"zip":"83867","city":"Silverton","state":"ID","lat":47.4981,"long":-115.9657},{"zip":"83868","city":"Smelterville","state":"ID","lat":47.5362,"long":-116.2062},{"zip":"83873","city":"Wallace","state":"ID","lat":47.4908,"long":-115.962},{"zip":"83874","city":"Murray","state":"ID","lat":47.6271,"long":-115.8585}]
