[{"zip":"84713","city":"Beaver","state":"UT","lat":38.2807,"long":-112.6299},{"zip":"84731","city":"Greenville","state":"UT","lat":38.2544,"long":-112.7124},{"zip":"84751","city":"Milford","state":"UT","lat":38.3311,"long":-112.9934},{"zip":"84752","city":"Minersville","state":"UT","lat":38.2149,"long":-112.9231},{"zip":"84301","city":"Bear River City","state":"UT","lat":41.6093,"long":-112.1241},{"zip":"84302","city":"Brigham City","state":"UT","lat":41.5079,"long":-112.0152},{"zip":"84306","city":"Collinston","state":"UT","lat":41.7813,"long":-112.0666},{"zip":"84307","city":"Corinne","state":"UT","lat":41.545,"long":-112.1514},{"zip":"84309","city":"Deweyville","state":"UT","lat":41.6972,"long":-112.0947},{"zip":"84311","city":"Fielding","state":"UT","lat":41.8118,"long":-112.119},{"zip":"84312","city":"Garland","state":"UT","lat":41.7413,"long":-112.1516},{"zip":"84313","city":"Grouse Creek","state":"UT","lat":41.7094,"long":-113.8833},{"zip":"84314","city":"Honeyville","state":"UT","lat":41.652,"long":-112.105},{"zip":"84316","city":"Howell","state":"UT","lat":41.7733,"long":-112.3968},{"zip":"84324","city":"Mantua","state":"UT","lat":41.4975,"long":-111.9416},{"zip":"84329","city":"Park Valley","state":"UT","lat":41.8551,"long":-113.3478},{"zip":"84330","city":"Plymouth","state":"UT","lat":41.8831,"long":-112.1388},{"zip":"84331","city":"Portage","state":"UT","lat":41.9757,"long":-112.2384},{"zip":"84334","city":"Riverside","state":"UT","lat":41.7868,"long":-112.1467},{"zip":"84336","city":"Snowville","state":"UT","lat":41.966,"long":-112.7269},{"zip":"84337","city":"Tremonton","state":"UT","lat":41.7016,"long":-112.1813},{"zip":"84340","city":"Willard","state":"UT","lat":41.3989,"long":-112.0317},{"zip":"84304","city":"Cache Junction","state":"UT","lat":41.8169,"long":-111.9982},{"zip":"84305","city":"Clarkston","state":"UT","lat":41.9188,"long":-112.0486},{"zip":"84308","city":"Cornish","state":"UT","lat":41.9443,"long":-111.9733},{"zip":"84318","city":"Hyde Park","state":"UT","lat":41.8,"long":-111.8123},{"zip":"84319","city":"Hyrum","state":"UT","lat":41.6311,"long":-111.849},{"zip":"84320","city":"Lewiston","state":"UT","lat":41.9701,"long":-111.8768},{"zip":"84321","city":"Logan","state":"UT","lat":41.747,"long":-111.8226},{"zip":"84322","city":"Logan","state":"UT","lat":41.6412,"long":-111.8966},{"zip":"84323","city":"Logan","state":"UT","lat":41.7355,"long":-111.8344},{"zip":"84325","city":"Mendon","state":"UT","lat":41.71,"long":-111.9817},{"zip":"84326","city":"Millville","state":"UT","lat":41.6759,"long":-111.8185},{"zip":"84327","city":"Newton","state":"UT","lat":41.8627,"long":-111.9908},{"zip":"84328","city":"Paradise","state":"UT","lat":41.56,"long":-111.8297},{"zip":"84332","city":"Providence","state":"UT","lat":41.7,"long":-111.8123},{"zip":"84333","city":"Richmond","state":"UT","lat":41.9282,"long":-111.8069},{"zip":"84335","city":"Smithfield","state":"UT","lat":41.8403,"long":-111.8528},{"zip":"84338","city":"Trenton","state":"UT","lat":41.9105,"long":-111.934},{"zip":"84339","city":"Wellsville","state":"UT","lat":41.6343,"long":-111.9317},{"zip":"84341","city":"Logan","state":"UT","lat":41.7759,"long":-111.8068},{"zip":"84501","city":"Price","state":"UT","lat":39.602,"long":-110.8081},{"zip":"84520","city":"East Carbon","state":"UT","lat":39.5461,"long":-110.4113},{"zip":"84526","city":"Helper","state":"UT","lat":39.6737,"long":-110.856},{"zip":"84529","city":"Kenilworth","state":"UT","lat":39.6884,"long":-110.8073},{"zip":"84539","city":"Sunnyside","state":"UT","lat":39.5514,"long":-110.3879},{"zip":"84542","city":"Wellington","state":"UT","lat":39.5423,"long":-110.735},{"zip":"84023","city":"Dutch John","state":"UT","lat":40.9291,"long":-109.391},{"zip":"84046","city":"Manila","state":"UT","lat":40.9685,"long":-109.7235},{"zip":"84010","city":"Bountiful","state":"UT","lat":40.8775,"long":-111.8727},{"zip":"84011","city":"Bountiful","state":"UT","lat":40.8894,"long":-111.8808},{"zip":"84014","city":"Centerville","state":"UT","lat":40.9268,"long":-111.877},{"zip":"84015","city":"Clearfield","state":"UT","lat":41.1294,"long":-112.0482},{"zip":"84016","city":"Clearfield","state":"UT","lat":41.1108,"long":-112.0261},{"zip":"84025","city":"Farmington","state":"UT","lat":40.9889,"long":-111.8938},{"zip":"84037","city":"Kaysville","state":"UT","lat":41.0375,"long":-111.9326},{"zip":"84040","city":"Layton","state":"UT","lat":41.0846,"long":-111.9274},{"zip":"84041","city":"Layton","state":"UT","lat":41.0879,"long":-111.9704},{"zip":"84054","city":"North Salt Lake","state":"UT","lat":40.8446,"long":-111.9191},{"zip":"84056","city":"Hill Afb","state":"UT","lat":41.1202,"long":-111.9898},{"zip":"84075","city":"Syracuse","state":"UT","lat":41.0864,"long":-112.0451},{"zip":"84087","city":"Woods Cross","state":"UT","lat":40.8874,"long":-111.9027},{"zip":"84089","city":"Clearfield","state":"UT","lat":40.9635,"long":-112.116},{"zip":"84001","city":"Altamont","state":"UT","lat":40.3514,"long":-110.2754},{"zip":"84002","city":"Altonah","state":"UT","lat":40.3207,"long":-110.436},{"zip":"84007","city":"Bluebell","state":"UT","lat":40.3594,"long":-110.2174},{"zip":"84021","city":"Duchesne","state":"UT","lat":40.1633,"long":-110.4029},{"zip":"84027","city":"Fruitland","state":"UT","lat":40.1575,"long":-110.8226},{"zip":"84031","city":"Hanna","state":"UT","lat":40.4501,"long":-110.8097},{"zip":"84051","city":"Mountain Home","state":"UT","lat":40.3922,"long":-110.4291},{"zip":"84052","city":"Myton","state":"UT","lat":40.194,"long":-110.0481},{"zip":"84053","city":"Neola","state":"UT","lat":40.45,"long":-110.0181},{"zip":"84066","city":"Roosevelt","state":"UT","lat":40.3102,"long":-110.0108},{"zip":"84072","city":"Tabiona","state":"UT","lat":40.3827,"long":-110.7021},{"zip":"84073","city":"Talmage","state":"UT","lat":40.3207,"long":-110.436},{"zip":"84513","city":"Castle Dale","state":"UT","lat":39.2122,"long":-111.0196},{"zip":"84516","city":"Clawson","state":"UT","lat":39.1198,"long":-111.1008},{"zip":"84518","city":"Cleveland","state":"UT","lat":39.3736,"long":-110.8936},{"zip":"84521","city":"Elmo","state":"UT","lat":39.4033,"long":-110.81},{"zip":"84522","city":"Emery","state":"UT","lat":38.9226,"long":-111.2512},{"zip":"84523","city":"Ferron","state":"UT","lat":39.0692,"long":-111.1467},{"zip":"84525","city":"Green River","state":"UT","lat":39.0002,"long":-110.1598},{"zip":"84528","city":"Huntington","state":"UT","lat":39.3266,"long":-110.9646},{"zip":"84537","city":"Orangeville","state":"UT","lat":39.2302,"long":-111.0518},{"zip":"84712","city":"Antimony","state":"UT","lat":38.1015,"long":-111.993},{"zip":"84716","city":"Boulder","state":"UT","lat":37.9166,"long":-111.4266},{"zip":"84718","city":"Cannonville","state":"UT","lat":37.5396,"long":-112.0451},{"zip":"84726","city":"Escalante","state":"UT","lat":37.7698,"long":-111.6037},{"zip":"84735","city":"Hatch","state":"UT","lat":37.6497,"long":-112.4344},{"zip":"84736","city":"Henrieville","state":"UT","lat":37.5503,"long":-111.9961},{"zip":"84759","city":"Panguitch","state":"UT","lat":37.8078,"long":-112.4369},{"zip":"84764","city":"Bryce","state":"UT","lat":37.6184,"long":-112.1735},{"zip":"84776","city":"Tropic","state":"UT","lat":37.6261,"long":-112.0836},{"zip":"84515","city":"Cisco","state":"UT","lat":38.97,"long":-109.3207},{"zip":"84532","city":"Moab","state":"UT","lat":38.5677,"long":-109.5271},{"zip":"84540","city":"Thompson","state":"UT","lat":38.9999,"long":-109.615},{"zip":"84714","city":"Beryl","state":"UT","lat":37.8958,"long":-113.6614},{"zip":"84719","city":"Brian Head","state":"UT","lat":37.6985,"long":-112.8437},{"zip":"84720","city":"Cedar City","state":"UT","lat":37.6775,"long":-113.0619},{"zip":"84721","city":"Cedar City","state":"UT","lat":37.8788,"long":-113.2045},{"zip":"84742","city":"Kanarraville","state":"UT","lat":37.5228,"long":-113.2036},{"zip":"84753","city":"Modena","state":"UT","lat":37.7995,"long":-113.9193},{"zip":"84756","city":"Newcastle","state":"UT","lat":37.6924,"long":-113.6272},{"zip":"84760","city":"Paragonah","state":"UT","lat":37.8917,"long":-112.774},{"zip":"84761","city":"Parowan","state":"UT","lat":37.8449,"long":-112.8323},{"zip":"84772","city":"Summit","state":"UT","lat":37.8011,"long":-112.9363},{"zip":"84628","city":"Eureka","state":"UT","lat":39.9541,"long":-112.1174},{"zip":"84639","city":"Levan","state":"UT","lat":39.5215,"long":-111.9438},{"zip":"84645","city":"Mona","state":"UT","lat":39.8382,"long":-111.848},{"zip":"84648","city":"Nephi","state":"UT","lat":39.6923,"long":-111.8359},{"zip":"84710","city":"Alton","state":"UT","lat":37.4699,"long":-112.5484},{"zip":"84729","city":"Glendale","state":"UT","lat":37.3219,"long":-112.6035},{"zip":"84741","city":"Kanab","state":"UT","lat":37.0475,"long":-112.5263},{"zip":"84755","city":"Mount Carmel","state":"UT","lat":37.2378,"long":-112.67},{"zip":"84758","city":"Orderville","state":"UT","lat":37.2744,"long":-112.642},{"zip":"84762","city":"Duck Creek Village","state":"UT","lat":37.5169,"long":-112.6636},{"zip":"84624","city":"Delta","state":"UT","lat":39.3755,"long":-112.5319},{"zip":"84631","city":"Fillmore","state":"UT","lat":38.9805,"long":-112.3313},{"zip":"84635","city":"Hinckley","state":"UT","lat":39.3308,"long":-112.6716},{"zip":"84636","city":"Holden","state":"UT","lat":39.0964,"long":-112.2834},{"zip":"84637","city":"Kanosh","state":"UT","lat":38.8318,"long":-112.4561},{"zip":"84638","city":"Leamington","state":"UT","lat":39.5302,"long":-112.2952},{"zip":"84640","city":"Lynndyl","state":"UT","lat":39.4943,"long":-112.3979},{"zip":"84644","city":"Meadow","state":"UT","lat":38.8858,"long":-112.4105},{"zip":"84649","city":"Oak City","state":"UT","lat":39.3729,"long":-112.3288},{"zip":"84656","city":"Scipio","state":"UT","lat":39.2495,"long":-112.1064},{"zip":"84728","city":"Garrison","state":"UT","lat":39.0744,"long":-113.8949},{"zip":"84018","city":"Croydon","state":"UT","lat":41.0689,"long":-111.5231},{"zip":"84050","city":"Morgan","state":"UT","lat":41.0678,"long":-111.7163},{"zip":"84723","city":"Circleville","state":"UT","lat":38.1827,"long":-112.2329},{"zip":"84732","city":"Greenwich","state":"UT","lat":38.4454,"long":-111.9023},{"zip":"84740","city":"Junction","state":"UT","lat":38.2439,"long":-112.2237},{"zip":"84743","city":"Kingston","state":"UT","lat":38.2158,"long":-112.2049},{"zip":"84750","city":"Marysvale","state":"UT","lat":38.4449,"long":-112.2518},{"zip":"84028","city":"Garden City","state":"UT","lat":41.9376,"long":-111.407},{"zip":"84038","city":"Laketown","state":"UT","lat":41.8107,"long":-111.2689},{"zip":"84064","city":"Randolph","state":"UT","lat":41.6563,"long":-111.1856},{"zip":"84086","city":"Woodruff","state":"UT","lat":41.4888,"long":-111.1868},{"zip":"84006","city":"Bingham Canyon","state":"UT","lat":40.5646,"long":-112.0977},{"zip":"84009","city":"South Jordan","state":"UT","lat":40.5622,"long":-111.9297},{"zip":"84020","city":"Draper","state":"UT","lat":40.5046,"long":-111.881},{"zip":"84044","city":"Magna","state":"UT","lat":40.7009,"long":-112.0809},{"zip":"84047","city":"Midvale","state":"UT","lat":40.6152,"long":-111.8851},{"zip":"84065","city":"Riverton","state":"UT","lat":40.4954,"long":-111.9444},{"zip":"84070","city":"Sandy","state":"UT","lat":40.5794,"long":-111.8816},{"zip":"84081","city":"West Jordan","state":"UT","lat":40.6037,"long":-112.0411},{"zip":"84084","city":"West Jordan","state":"UT","lat":40.6254,"long":-111.9677},{"zip":"84088","city":"West Jordan","state":"UT","lat":40.5959,"long":-111.9644},{"zip":"84090","city":"Sandy","state":"UT","lat":40.6681,"long":-111.9083},{"zip":"84091","city":"Sandy","state":"UT","lat":40.6681,"long":-111.9083},{"zip":"84092","city":"Sandy","state":"UT","lat":40.5834,"long":-111.7467},{"zip":"84093","city":"Sandy","state":"UT","lat":40.5927,"long":-111.831},{"zip":"84094","city":"Sandy","state":"UT","lat":40.5688,"long":-111.8617},{"zip":"84095","city":"South Jordan","state":"UT","lat":40.5541,"long":-111.9539},{"zip":"84096","city":"Herriman","state":"UT","lat":40.5144,"long":-112.0325},{"zip":"84101","city":"Salt Lake City","state":"UT","lat":40.7559,"long":-111.8967},{"zip":"84102","city":"Salt Lake City","state":"UT","lat":40.76,"long":-111.8627},{"zip":"84103","city":"Salt Lake City","state":"UT","lat":40.7776,"long":-111.8749},{"zip":"84104","city":"Salt Lake City","state":"UT","lat":40.7499,"long":-111.926},{"zip":"84105","city":"Salt Lake City","state":"UT","lat":40.7372,"long":-111.8581},{"zip":"84106","city":"Salt Lake City","state":"UT","lat":40.7056,"long":-111.8548},{"zip":"84107","city":"Salt Lake City","state":"UT","lat":40.6568,"long":-111.8904},{"zip":"84108","city":"Salt Lake City","state":"UT","lat":40.7371,"long":-111.8258},{"zip":"84109","city":"Salt Lake City","state":"UT","lat":40.7043,"long":-111.8142},{"zip":"84110","city":"Salt Lake City","state":"UT","lat":40.6681,"long":-111.9083},{"zip":"84111","city":"Salt Lake City","state":"UT","lat":40.7548,"long":-111.881},{"zip":"84112","city":"Salt Lake City","state":"UT","lat":40.7659,"long":-111.8403},{"zip":"84113","city":"Salt Lake City","state":"UT","lat":40.7658,"long":-111.8364},{"zip":"84114","city":"Salt Lake City","state":"UT","lat":40.6681,"long":-111.9083},{"zip":"84115","city":"Salt Lake City","state":"UT","lat":40.7145,"long":-111.8931},{"zip":"84116","city":"Salt Lake City","state":"UT","lat":40.7857,"long":-111.9291},{"zip":"84117","city":"Salt Lake City","state":"UT","lat":40.6551,"long":-111.834},{"zip":"84118","city":"Salt Lake City","state":"UT","lat":40.6504,"long":-112.0054},{"zip":"84119","city":"West Valley City","state":"UT","lat":40.6916,"long":-112.0011},{"zip":"84120","city":"West Valley City","state":"UT","lat":40.6916,"long":-112.0011},{"zip":"84121","city":"Salt Lake City","state":"UT","lat":40.6226,"long":-111.7777},{"zip":"84122","city":"Salt Lake City","state":"UT","lat":40.6681,"long":-111.9083},{"zip":"84123","city":"Salt Lake City","state":"UT","lat":40.6596,"long":-111.9193},{"zip":"84124","city":"Salt Lake City","state":"UT","lat":40.6772,"long":-111.8133},{"zip":"84125","city":"Salt Lake City","state":"UT","lat":40.6681,"long":-111.9083},{"zip":"84126","city":"Salt Lake City","state":"UT","lat":40.6681,"long":-111.9083},{"zip":"84127","city":"Salt Lake City","state":"UT","lat":40.6681,"long":-111.9083},{"zip":"84128","city":"West Valley City","state":"UT","lat":40.6916,"long":-112.0011},{"zip":"84129","city":"Salt Lake City","state":"UT","lat":40.6531,"long":-111.9674},{"zip":"84130","city":"Salt Lake City","state":"UT","lat":40.6681,"long":-111.9083},{"zip":"84131","city":"Salt Lake City","state":"UT","lat":40.6681,"long":-111.9083},{"zip":"84132","city":"Salt Lake City","state":"UT","lat":40.7727,"long":-111.8385},{"zip":"84133","city":"Salt Lake City","state":"UT","lat":40.769,"long":-111.8893},{"zip":"84134","city":"Salt Lake City","state":"UT","lat":40.6681,"long":-111.9083},{"zip":"84136","city":"Salt Lake City","state":"UT","lat":40.7685,"long":-111.8879},{"zip":"84138","city":"Salt Lake City","state":"UT","lat":40.7608,"long":-111.891},{"zip":"84139","city":"Salt Lake City","state":"UT","lat":40.7608,"long":-111.891},{"zip":"84141","city":"Salt Lake City","state":"UT","lat":40.6681,"long":-111.9083},{"zip":"84143","city":"Salt Lake City","state":"UT","lat":40.7869,"long":-111.9008},{"zip":"84145","city":"Salt Lake City","state":"UT","lat":40.6681,"long":-111.9083},{"zip":"84147","city":"Salt Lake City","state":"UT","lat":40.7608,"long":-111.891},{"zip":"84148","city":"Salt Lake City","state":"UT","lat":40.7568,"long":-111.8376},{"zip":"84150","city":"Salt Lake City","state":"UT","lat":40.6681,"long":-111.9083},{"zip":"84151","city":"Salt Lake City","state":"UT","lat":40.6681,"long":-111.9083},{"zip":"84152","city":"Salt Lake City","state":"UT","lat":40.7608,"long":-111.891},{"zip":"84157","city":"Salt Lake City","state":"UT","lat":40.6681,"long":-111.9083},{"zip":"84158","city":"Salt Lake City","state":"UT","lat":40.769,"long":-111.7621},{"zip":"84165","city":"Salt Lake City","state":"UT","lat":40.6681,"long":-111.9083},{"zip":"84170","city":"Salt Lake City","state":"UT","lat":40.6681,"long":-111.9083},{"zip":"84171","city":"Salt Lake City","state":"UT","lat":40.6681,"long":-111.9083},{"zip":"84180","city":"Salt Lake City","state":"UT","lat":40.769,"long":-111.9008},{"zip":"84184","city":"Salt Lake City","state":"UT","lat":40.6768,"long":-111.9568},{"zip":"84189","city":"Salt Lake City","state":"UT","lat":40.7608,"long":-111.891},{"zip":"84190","city":"Salt Lake City","state":"UT","lat":40.6681,"long":-111.9083},{"zip":"84199","city":"Salt Lake City","state":"UT","lat":40.7259,"long":-111.9394},{"zip":"84510","city":"Aneth","state":"UT","lat":37.2161,"long":-109.1871},{"zip":"84511","city":"Blanding","state":"UT","lat":37.5863,"long":-109.4866},{"zip":"84512","city":"Bluff","state":"UT","lat":37.2844,"long":-109.5518},{"zip":"84530","city":"La Sal","state":"UT","lat":38.3122,"long":-109.2482},{"zip":"84531","city":"Mexican Hat","state":"UT","lat":37.1184,"long":-109.9919},{"zip":"84533","city":"Lake Powell","state":"UT","lat":37.7489,"long":-110.2269},{"zip":"84534","city":"Montezuma Creek","state":"UT","lat":37.2539,"long":-109.1061},{"zip":"84535","city":"Monticello","state":"UT","lat":37.9217,"long":-109.3153},{"zip":"84536","city":"Monument Valley","state":"UT","lat":37.0614,"long":-110.4273},{"zip":"84621","city":"Axtell","state":"UT","lat":39.0532,"long":-111.8243},{"zip":"84622","city":"Centerfield","state":"UT","lat":39.1251,"long":-111.8185},{"zip":"84623","city":"Chester","state":"UT","lat":39.4761,"long":-111.563},{"zip":"84627","city":"Ephraim","state":"UT","lat":39.36,"long":-111.5823},{"zip":"84629","city":"Fairview","state":"UT","lat":39.6264,"long":-111.4396},{"zip":"84630","city":"Fayette","state":"UT","lat":39.2315,"long":-111.8497},{"zip":"84632","city":"Fountain Green","state":"UT","lat":39.63,"long":-111.6352},{"zip":"84634","city":"Gunnison","state":"UT","lat":39.1545,"long":-111.8167},{"zip":"84642","city":"Manti","state":"UT","lat":39.2683,"long":-111.6369},{"zip":"84643","city":"Mayfield","state":"UT","lat":39.1154,"long":-111.6905},{"zip":"84646","city":"Moroni","state":"UT","lat":39.525,"long":-111.5905},{"zip":"84647","city":"Mount Pleasant","state":"UT","lat":39.5232,"long":-111.5039},{"zip":"84662","city":"Spring City","state":"UT","lat":39.4671,"long":-111.4661},{"zip":"84665","city":"Sterling","state":"UT","lat":39.1936,"long":-111.6924},{"zip":"84667","city":"Wales","state":"UT","lat":39.4884,"long":-111.6341},{"zip":"84620","city":"Aurora","state":"UT","lat":38.9222,"long":-111.9341},{"zip":"84652","city":"Redmond","state":"UT","lat":39.0061,"long":-111.8619},{"zip":"84654","city":"Salina","state":"UT","lat":38.956,"long":-111.8811},{"zip":"84657","city":"Sigurd","state":"UT","lat":38.8482,"long":-111.9737},{"zip":"84701","city":"Richfield","state":"UT","lat":38.7388,"long":-112.0744},{"zip":"84711","city":"Annabella","state":"UT","lat":38.7168,"long":-112.0657},{"zip":"84724","city":"Elsinore","state":"UT","lat":38.6753,"long":-112.1489},{"zip":"84730","city":"Glenwood","state":"UT","lat":38.7667,"long":-111.9628},{"zip":"84739","city":"Joseph","state":"UT","lat":38.6221,"long":-112.2251},{"zip":"84744","city":"Koosharem","state":"UT","lat":38.5103,"long":-111.8813},{"zip":"84754","city":"Monroe","state":"UT","lat":38.6578,"long":-112.1261},{"zip":"84766","city":"Sevier","state":"UT","lat":38.5785,"long":-112.3108},{"zip":"84017","city":"Coalville","state":"UT","lat":40.8405,"long":-111.3228},{"zip":"84024","city":"Echo","state":"UT","lat":40.9892,"long":-111.451},{"zip":"84033","city":"Henefer","state":"UT","lat":41.0186,"long":-111.5011},{"zip":"84036","city":"Kamas","state":"UT","lat":40.6414,"long":-111.2619},{"zip":"84055","city":"Oakley","state":"UT","lat":40.7243,"long":-111.2456},{"zip":"84060","city":"Park City","state":"UT","lat":40.6524,"long":-111.5018},{"zip":"84061","city":"Peoa","state":"UT","lat":40.7247,"long":-111.3419},{"zip":"84068","city":"Park City","state":"UT","lat":40.668,"long":-111.5054},{"zip":"84098","city":"Park City","state":"UT","lat":40.7029,"long":-111.5481},{"zip":"84022","city":"Dugway","state":"UT","lat":40.2708,"long":-112.6898},{"zip":"84029","city":"Grantsville","state":"UT","lat":40.6005,"long":-112.4618},{"zip":"84034","city":"Ibapah","state":"UT","lat":40.0366,"long":-113.9853},{"zip":"84069","city":"Rush Valley","state":"UT","lat":40.3566,"long":-112.4659},{"zip":"84071","city":"Stockton","state":"UT","lat":40.4415,"long":-112.3559},{"zip":"84074","city":"Tooele","state":"UT","lat":40.5454,"long":-112.3002},{"zip":"84080","city":"Vernon","state":"UT","lat":40.0826,"long":-112.426},{"zip":"84083","city":"Wendover","state":"UT","lat":40.7329,"long":-113.9918},{"zip":"84008","city":"Bonanza","state":"UT","lat":40.0211,"long":-109.1773},{"zip":"84026","city":"Fort Duchesne","state":"UT","lat":40.3014,"long":-109.8637},{"zip":"84035","city":"Jensen","state":"UT","lat":40.3787,"long":-109.351},{"zip":"84039","city":"Lapoint","state":"UT","lat":40.4003,"long":-109.8041},{"zip":"84063","city":"Randlett","state":"UT","lat":40.2186,"long":-109.7301},{"zip":"84076","city":"Tridell","state":"UT","lat":40.4436,"long":-109.8359},{"zip":"84078","city":"Vernal","state":"UT","lat":40.4406,"long":-109.5469},{"zip":"84079","city":"Vernal","state":"UT","lat":40.4555,"long":-109.5287},{"zip":"84085","city":"Whiterocks","state":"UT","lat":40.468,"long":-109.9307},{"zip":"84003","city":"American Fork","state":"UT","lat":40.3928,"long":-111.7941},{"zip":"84004","city":"Alpine","state":"UT","lat":40.4616,"long":-111.7689},{"zip":"84005","city":"Eagle Mountain","state":"UT","lat":40.3802,"long":-111.991},{"zip":"84013","city":"Cedar Valley","state":"UT","lat":40.2959,"long":-112.0923},{"zip":"84042","city":"Lindon","state":"UT","lat":40.3412,"long":-111.7144},{"zip":"84043","city":"Lehi","state":"UT","lat":40.3958,"long":-111.8506},{"zip":"84045","city":"Saratoga Springs","state":"UT","lat":40.3495,"long":-111.9043},{"zip":"84057","city":"Orem","state":"UT","lat":40.3134,"long":-111.6953},{"zip":"84058","city":"Orem","state":"UT","lat":40.2818,"long":-111.7209},{"zip":"84059","city":"Orem","state":"UT","lat":40.177,"long":-111.536},{"zip":"84062","city":"Pleasant Grove","state":"UT","lat":40.372,"long":-111.7333},{"zip":"84097","city":"Orem","state":"UT","lat":40.2972,"long":-111.6705},{"zip":"84601","city":"Provo","state":"UT","lat":40.2319,"long":-111.6755},{"zip":"84602","city":"Provo","state":"UT","lat":40.3563,"long":-111.7325},{"zip":"84603","city":"Provo","state":"UT","lat":40.2039,"long":-111.6261},{"zip":"84604","city":"Provo","state":"UT","lat":40.2607,"long":-111.6549},{"zip":"84605","city":"Provo","state":"UT","lat":40.177,"long":-111.536},{"zip":"84606","city":"Provo","state":"UT","lat":40.2347,"long":-111.6447},{"zip":"84626","city":"Elberta","state":"UT","lat":39.9739,"long":-111.9554},{"zip":"84633","city":"Goshen","state":"UT","lat":39.953,"long":-111.9008},{"zip":"84651","city":"Payson","state":"UT","lat":40.0449,"long":-111.7321},{"zip":"84653","city":"Salem","state":"UT","lat":40.0113,"long":-111.5998},{"zip":"84655","city":"Santaquin","state":"UT","lat":39.9737,"long":-111.8037},{"zip":"84660","city":"Spanish Fork","state":"UT","lat":40.1099,"long":-111.6462},{"zip":"84663","city":"Springville","state":"UT","lat":40.1625,"long":-111.5987},{"zip":"84664","city":"Mapleton","state":"UT","lat":40.1337,"long":-111.5801},{"zip":"84032","city":"Heber City","state":"UT","lat":40.4947,"long":-111.4051},{"zip":"84049","city":"Midway","state":"UT","lat":40.5093,"long":-111.4776},{"zip":"84082","city":"Wallsburg","state":"UT","lat":40.3657,"long":-111.4649},{"zip":"84722","city":"Central","state":"UT","lat":37.4166,"long":-113.6244},{"zip":"84725","city":"Enterprise","state":"UT","lat":37.5797,"long":-113.6894},{"zip":"84733","city":"Gunlock","state":"UT","lat":37.2877,"long":-113.7606},{"zip":"84737","city":"Hurricane","state":"UT","lat":37.1454,"long":-113.3675},{"zip":"84738","city":"Ivins","state":"UT","lat":37.179,"long":-113.7066},{"zip":"84745","city":"La Verkin","state":"UT","lat":37.2316,"long":-113.2446},{"zip":"84746","city":"Leeds","state":"UT","lat":37.2372,"long":-113.3356},{"zip":"84757","city":"New Harmony","state":"UT","lat":37.455,"long":-113.268},{"zip":"84763","city":"Rockville","state":"UT","lat":37.1601,"long":-113.0425},{"zip":"84765","city":"Santa Clara","state":"UT","lat":37.1282,"long":-113.676},{"zip":"84767","city":"Springdale","state":"UT","lat":37.1862,"long":-113.0139},{"zip":"84770","city":"Saint George","state":"UT","lat":37.1041,"long":-113.5841},{"zip":"84771","city":"Saint George","state":"UT","lat":37.1041,"long":-113.5841},{"zip":"84774","city":"Toquerville","state":"UT","lat":37.2377,"long":-113.3323},{"zip":"84779","city":"Virgin","state":"UT","lat":37.2022,"long":-113.1854},{"zip":"84780","city":"Washington","state":"UT","lat":37.1364,"long":-113.505},{"zip":"84781","city":"Pine Valley","state":"UT","lat":37.3898,"long":-113.5177},{"zip":"84782","city":"Veyo","state":"UT","lat":37.359,"long":-113.6668},{"zip":"84783","city":"Dammeron Valley","state":"UT","lat":37.2849,"long":-113.6586},{"zip":"84784","city":"Hildale","state":"UT","lat":37.0044,"long":-112.9784},{"zip":"84790","city":"Saint George","state":"UT","lat":37.0831,"long":-113.5581},{"zip":"84791","city":"Saint George","state":"UT","lat":37.1041,"long":-113.5841},{"zip":"84715","city":"Bicknell","state":"UT","lat":38.3278,"long":-111.5264},{"zip":"84734","city":"Hanksville","state":"UT","lat":38.2521,"long":-110.8137},{"zip":"84747","city":"Loa","state":"UT","lat":38.4415,"long":-111.5958},{"zip":"84749","city":"Lyman","state":"UT","lat":38.3969,"long":-111.5896},{"zip":"84773","city":"Teasdale","state":"UT","lat":38.2853,"long":-111.4335},{"zip":"84775","city":"Torrey","state":"UT","lat":38.2969,"long":-111.4138},{"zip":"84067","city":"Roy","state":"UT","lat":41.1724,"long":-112.0382},{"zip":"84201","city":"Ogden","state":"UT","lat":41.2443,"long":-112.0079},{"zip":"84244","city":"Ogden","state":"UT","lat":41.2553,"long":-111.9567},{"zip":"84310","city":"Eden","state":"UT","lat":41.3303,"long":-111.8558},{"zip":"84315","city":"Hooper","state":"UT","lat":41.1668,"long":-112.1364},{"zip":"84317","city":"Huntsville","state":"UT","lat":41.2721,"long":-111.7618},{"zip":"84401","city":"Ogden","state":"UT","lat":41.2215,"long":-111.9621},{"zip":"84402","city":"Ogden","state":"UT","lat":41.2553,"long":-111.9567},{"zip":"84403","city":"Ogden","state":"UT","lat":41.1894,"long":-111.9489},{"zip":"84404","city":"Ogden","state":"UT","lat":41.2627,"long":-111.9837},{"zip":"84405","city":"Ogden","state":"UT","lat":41.1739,"long":-111.9809},{"zip":"84407","city":"Ogden","state":"UT","lat":41.2385,"long":-111.9659},{"zip":"84408","city":"Ogden","state":"UT","lat":41.1956,"long":-111.9485},{"zip":"84409","city":"Ogden","state":"UT","lat":41.2553,"long":-111.9567},{"zip":"84412","city":"Ogden","state":"UT","lat":41.2553,"long":-111.9567},{"zip":"84414","city":"Ogden","state":"UT","lat":41.3112,"long":-111.9689},{"zip":"84415","city":"Ogden","state":"UT","lat":41.2553,"long":-111.9567}]
