[{"zip":"84023","city":"Dutch John","state":"UT","lat":40.9291,"long":-109.391},{"zip":"84046","city":"Manila","state":"UT","lat":40.9685,"long":-109.7235},{"zip":"84010","city":"Bountiful","state":"UT","lat":40.8775,"long":-111.8727},{"zip":"84011","city":"Bountiful","state":"UT","lat":40.8894,"long":-111.8808},{"zip":"84014","city":"Centerville","state":"UT","lat":40.9268,"long":-111.877},{"zip":"84015","city":"Clearfield","state":"UT","lat":41.1294,"long":-112.0482},{"zip":"84016","city":"Clearfield","state":"UT","lat":41.1108,"long":-112.0261},{"zip":"84025","city":"Farmington","state":"UT","lat":40.9889,"long":-111.8938},{"zip":"84037","city":"Kaysville","state":"UT","lat":41.0375,"long":-111.9326},{"zip":"84040","city":"Layton","state":"UT","lat":41.0846,"long":-111.9274},{"zip":"84041","city":"Layton","state":"UT","lat":41.0879,"long":-111.9704},{"zip":"84054","city":"North Salt Lake","state":"UT","lat":40.8446,"long":-111.9191},{"zip":"84056","city":"Hill Afb","state":"UT","lat":41.1202,"long":-111.9898},{"zip":"84075","city":"Syracuse","state":"UT","lat":41.0864,"long":-112.0451},{"zip":"84087","city":"Woods Cross","state":"UT","lat":40.8874,"long":-111.9027},{"zip":"84089","city":"Clearfield","state":"UT","lat":40.9635,"long":-112.116},{"zip":"84001","city":"Altamont","state":"UT","lat":40.3514,"long":-110.2754},{"zip":"84002","city":"Altonah","state":"UT","lat":40.3207,"long":-110.436},{"zip":"84007","city":"Bluebell","state":"UT","lat":40.3594,"long":-110.2174},{"zip":"84021","city":"Duchesne","state":"UT","lat":40.1633,"long":-110.4029},{"zip":"84027","city":"Fruitland","state":"UT","lat":40.1575,"long":-110.8226},{"zip":"84031","city":"Hanna","state":"UT","lat":40.4501,"long":-110.8097},{"zip":"84051","city":"Mountain Home","state":"UT","lat":40.3922,"long":-110.4291},{"zip":"84052","city":"Myton","state":"UT","lat":40.194,"long":-110.0481},{"zip":"84053","city":"Neola","state":"UT","lat":40.45,"long":-110.0181},{"zip":"84066","city":"Roosevelt","state":"UT","lat":40.3102,"long":-110.0108},{"zip":"84072","city":"Tabiona","state":"UT","lat":40.3827,"long":-110.7021},{"zip":"84073","city":"Talmage","state":"UT","lat":40.3207,"long":-110.436},{"zip":"84018","city":"Croydon","state":"UT","lat":41.0689,"long":-111.5231},{"zip":"84050","city":"Morgan","state":"UT","lat":41.0678,"long":-111.7163},{"zip":"84028","city":"Garden City","state":"UT","lat":41.9376,"long":-111.407},{"zip":"84038","city":"Laketown","state":"UT","lat":41.8107,"long":-111.2689},{"zip":"84064","city":"Randolph","state":"UT","lat":41.6563,"long":-111.1856},{"zip":"84086","city":"Woodruff","state":"UT","lat":41.4888,"long":-111.1868},{"zip":"84006","city":"Bingham Canyon","state":"UT","lat":40.5646,"long":-112.0977},{"zip":"84009","city":"South Jordan","state":"UT","lat":40.5622,"long":-111.9297},{"zip":"84020","city":"Draper","state":"UT","lat":40.5046,"long":-111.881},{"zip":"84044","city":"Magna","state":"UT","lat":40.7009,"long":-112.0809},{"zip":"84047","city":"Midvale","state":"UT","lat":40.6152,"long":-111.8851},{"zip":"84065","city":"Riverton","state":"UT","lat":40.4954,"long":-111.9444},{"zip":"84070","city":"Sandy","state":"UT","lat":40.5794,"long":-111.8816},{"zip":"84081","city":"West Jordan","state":"UT","lat":40.6037,"long":-112.0411},{"zip":"84084","city":"West Jordan","state":"UT","lat":40.6254,"long":-111.9677},{"zip":"84088","city":"West Jordan","state":"UT","lat":40.5959,"long":-111.9644},{"zip":"84090","city":"Sandy","state":"UT","lat":40.6681,"long":-111.9083},{"zip":"84091","city":"Sandy","state":"UT","lat":40.6681,"long":-111.9083},{"zip":"84092","city":"Sandy","state":"UT","lat":40.5834,"long":-111.7467},{"zip":"84093","city":"Sandy","state":"UT","lat":40.5927,"long":-111.831},{"zip":"84094","city":"Sandy","state":"UT","lat":40.5688,"long":-111.8617},{"zip":"84095","city":"South Jordan","state":"UT","lat":40.5541,"long":-111.9539},{"zip":"84096","city":"Herriman","state":"UT","lat":40.5144,"long":-112.0325},{"zip":"84017","city":"Coalville","state":"UT","lat":40.8405,"long":-111.3228},{"zip":"84024","city":"Echo","state":"UT","lat":40.9892,"long":-111.451},{"zip":"84033","city":"Henefer","state":"UT","lat":41.0186,"long":-111.5011},{"zip":"84036","city":"Kamas","state":"UT","lat":40.6414,"long":-111.2619},{"zip":"84055","city":"Oakley","state":"UT","lat":40.7243,"long":-111.2456},{"zip":"84060","city":"Park City","state":"UT","lat":40.6524,"long":-111.5018},{"zip":"84061","city":"Peoa","state":"UT","lat":40.7247,"long":-111.3419},{"zip":"84068","city":"Park City","state":"UT","lat":40.668,"long":-111.5054},{"zip":"84098","city":"Park City","state":"UT","lat":40.7029,"long":-111.5481},{"zip":"84022","city":"Dugway","state":"UT","lat":40.2708,"long":-112.6898},{"zip":"84029","city":"Grantsville","state":"UT","lat":40.6005,"long":-112.4618},{"zip":"84034","city":"Ibapah","state":"UT","lat":40.0366,"long":-113.9853},{"zip":"84069","city":"Rush Valley","state":"UT","lat":40.3566,"long":-112.4659},{"zip":"84071","city":"Stockton","state":"UT","lat":40.4415,"long":-112.3559},{"zip":"84074","city":"Tooele","state":"UT","lat":40.5454,"long":-112.3002},{"zip":"84080","city":"Vernon","state":"UT","lat":40.0826,"long":-112.426},{"zip":"84083","city":"Wendover","state":"UT","lat":40.7329,"long":-113.9918},{"zip":"84008","city":"Bonanza","state":"UT","lat":40.0211,"long":-109.1773},{"zip":"84026","city":"Fort Duchesne","state":"UT","lat":40.3014,"long":-109.8637},{"zip":"84035","city":"Jensen","state":"UT","lat":40.3787,"long":-109.351},{"zip":"84039","city":"Lapoint","state":"UT","lat":40.4003,"long":-109.8041},{"zip":"84063","city":"Randlett","state":"UT","lat":40.2186,"long":-109.7301},{"zip":"84076","city":"Tridell","state":"UT","lat":40.4436,"long":-109.8359},{"zip":"84078","city":"Vernal","state":"UT","lat":40.4406,"long":-109.5469},{"zip":"84079","city":"Vernal","state":"UT","lat":40.4555,"long":-109.5287},{"zip":"84085","city":"Whiterocks","state":"UT","lat":40.468,"long":-109.9307},{"zip":"84003","city":"American Fork","state":"UT","lat":40.3928,"long":-111.7941},{"zip":"84004","city":"Alpine","state":"UT","lat":40.4616,"long":-111.7689},{"zip":"84005","city":"Eagle Mountain","state":"UT","lat":40.3802,"long":-111.991},{"zip":"84013","city":"Cedar Valley","state":"UT","lat":40.2959,"long":-112.0923},{"zip":"84042","city":"Lindon","state":"UT","lat":40.3412,"long":-111.7144},{"zip":"84043","city":"Lehi","state":"UT","lat":40.3958,"long":-111.8506},{"zip":"84045","city":"Saratoga Springs","state":"UT","lat":40.3495,"long":-111.9043},{"zip":"84057","city":"Orem","state":"UT","lat":40.3134,"long":-111.6953},{"zip":"84058","city":"Orem","state":"UT","lat":40.2818,"long":-111.7209},{"zip":"84059","city":"Orem","state":"UT","lat":40.177,"long":-111.536},{"zip":"84062","city":"Pleasant Grove","state":"UT","lat":40.372,"long":-111.7333},{"zip":"84097","city":"Orem","state":"UT","lat":40.2972,"long":-111.6705},{"zip":"84032","city":"Heber City","state":"UT","lat":40.4947,"long":-111.4051},{"zip":"84049","city":"Midway","state":"UT","lat":40.5093,"long":-111.4776},{"zip":"84082","city":"Wallsburg","state":"UT","lat":40.3657,"long":-111.4649},{"zip":"84067","city":"Roy","state":"UT","lat":41.1724,"long":-112.0382}]
