[{"zip":"84101","city":"Salt Lake City","state":"UT","lat":40.7559,"long":-111.8967},{"zip":"84102","city":"Salt Lake City","state":"UT","lat":40.76,"long":-111.8627},{"zip":"84103","city":"Salt Lake City","state":"UT","lat":40.7776,"long":-111.8749},{"zip":"84104","city":"Salt Lake City","state":"UT","lat":40.7499,"long":-111.926},{"zip":"84105","city":"Salt Lake City","state":"UT","lat":40.7372,"long":-111.8581},{"zip":"84106","city":"Salt Lake City","state":"UT","lat":40.7056,"long":-111.8548},{"zip":"84107","city":"Salt Lake City","state":"UT","lat":40.6568,"long":-111.8904},{"zip":"84108","city":"Salt Lake City","state":"UT","lat":40.7371,"long":-111.8258},{"zip":"84109","city":"Salt Lake City","state":"UT","lat":40.7043,"long":-111.8142},{"zip":"84110","city":"Salt Lake City","state":"UT","lat":40.6681,"long":-111.9083},{"zip":"84111","city":"Salt Lake City","state":"UT","lat":40.7548,"long":-111.881},{"zip":"84112","city":"Salt Lake City","state":"UT","lat":40.7659,"long":-111.8403},{"zip":"84113","city":"Salt Lake City","state":"UT","lat":40.7658,"long":-111.8364},{"zip":"84114","city":"Salt Lake City","state":"UT","lat":40.6681,"long":-111.9083},{"zip":"84115","city":"Salt Lake City","state":"UT","lat":40.7145,"long":-111.8931},{"zip":"84116","city":"Salt Lake City","state":"UT","lat":40.7857,"long":-111.9291},{"zip":"84117","city":"Salt Lake City","state":"UT","lat":40.6551,"long":-111.834},{"zip":"84118","city":"Salt Lake City","state":"UT","lat":40.6504,"long":-112.0054},{"zip":"84119","city":"West Valley City","state":"UT","lat":40.6916,"long":-112.0011},{"zip":"84120","city":"West Valley City","state":"UT","lat":40.6916,"long":-112.0011},{"zip":"84121","city":"Salt Lake City","state":"UT","lat":40.6226,"long":-111.7777},{"zip":"84122","city":"Salt Lake City","state":"UT","lat":40.6681,"long":-111.9083},{"zip":"84123","city":"Salt Lake City","state":"UT","lat":40.6596,"long":-111.9193},{"zip":"84124","city":"Salt Lake City","state":"UT","lat":40.6772,"long":-111.8133},{"zip":"84125","city":"Salt Lake City","state":"UT","lat":40.6681,"long":-111.9083},{"zip":"84126","city":"Salt Lake City","state":"UT","lat":40.6681,"long":-111.9083},{"zip":"84127","city":"Salt Lake City","state":"UT","lat":40.6681,"long":-111.9083},{"zip":"84128","city":"West Valley City","state":"UT","lat":40.6916,"long":-112.0011},{"zip":"84129","city":"Salt Lake City","state":"UT","lat":40.6531,"long":-111.9674},{"zip":"84130","city":"Salt Lake City","state":"UT","lat":40.6681,"long":-111.9083},{"zip":"84131","city":"Salt Lake City","state":"UT","lat":40.6681,"long":-111.9083},{"zip":"84132","city":"Salt Lake City","state":"UT","lat":40.7727,"long":-111.8385},{"zip":"84133","city":"Salt Lake City","state":"UT","lat":40.769,"long":-111.8893},{"zip":"84134","city":"Salt Lake City","state":"UT","lat":40.6681,"long":-111.9083},{"zip":"84136","city":"Salt Lake City","state":"UT","lat":40.7685,"long":-111.8879},{"zip":"84138","city":"Salt Lake City","state":"UT","lat":40.7608,"long":-111.891},{"zip":"84139","city":"Salt Lake City","state":"UT","lat":40.7608,"long":-111.891},{"zip":"84141","city":"Salt Lake City","state":"UT","lat":40.6681,"long":-111.9083},{"zip":"84143","city":"Salt Lake City","state":"UT","lat":40.7869,"long":-111.9008},{"zip":"84145","city":"Salt Lake City","state":"UT","lat":40.6681,"long":-111.9083},{"zip":"84147","city":"Salt Lake City","state":"UT","lat":40.7608,"long":-111.891},{"zip":"84148","city":"Salt Lake City","state":"UT","lat":40.7568,"long":-111.8376},{"zip":"84150","city":"Salt Lake City","state":"UT","lat":40.6681,"long":-111.9083},{"zip":"84151","city":"Salt Lake City","state":"UT","lat":40.6681,"long":-111.9083},{"zip":"84152","city":"Salt Lake City","state":"UT","lat":40.7608,"long":-111.891},{"zip":"84157","city":"Salt Lake City","state":"UT","lat":40.6681,"long":-111.9083},{"zip":"84158","city":"Salt Lake City","state":"UT","lat":40.769,"long":-111.7621},{"zip":"84165","city":"Salt Lake City","state":"UT","lat":40.6681,"long":-111.9083},{"zip":"84170","city":"Salt Lake City","state":"UT","lat":40.6681,"long":-111.9083},{"zip":"84171","city":"Salt Lake City","state":"UT","lat":40.6681,"long":-111.9083},{"zip":"84180","city":"Salt Lake City","state":"UT","lat":40.769,"long":-111.9008},{"zip":"84184","city":"Salt Lake City","state":"UT","lat":40.6768,"long":-111.9568},{"zip":"84189","city":"Salt Lake City","state":"UT","lat":40.7608,"long":-111.891},{"zip":"84190","city":"Salt Lake City","state":"UT","lat":40.6681,"long":-111.9083},{"zip":"84199","city":"Salt Lake City","state":"UT","lat":40.7259,"long":-111.9394}]
