[{"zip":"84301","city":"Bear River City","state":"UT","lat":41.6093,"long":-112.1241},{"zip":"84302","city":"Brigham City","state":"UT","lat":41.5079,"long":-112.0152},{"zip":"84306","city":"Collinston","state":"UT","lat":41.7813,"long":-112.0666},{"zip":"84307","city":"Corinne","state":"UT","lat":41.545,"long":-112.1514},{"zip":"84309","city":"Deweyville","state":"UT","lat":41.6972,"long":-112.0947},{"zip":"84311","city":"Fielding","state":"UT","lat":41.8118,"long":-112.119},{"zip":"84312","city":"Garland","state":"UT","lat":41.7413,"long":-112.1516},{"zip":"84313","city":"Grouse Creek","state":"UT","lat":41.7094,"long":-113.8833},{"zip":"84314","city":"Honeyville","state":"UT","lat":41.652,"long":-112.105},{"zip":"84316","city":"Howell","state":"UT","lat":41.7733,"long":-112.3968},{"zip":"84324","city":"Mantua","state":"UT","lat":41.4975,"long":-111.9416},{"zip":"84329","city":"Park Valley","state":"UT","lat":41.8551,"long":-113.3478},{"zip":"84330","city":"Plymouth","state":"UT","lat":41.8831,"long":-112.1388},{"zip":"84331","city":"Portage","state":"UT","lat":41.9757,"long":-112.2384},{"zip":"84334","city":"Riverside","state":"UT","lat":41.7868,"long":-112.1467},{"zip":"84336","city":"Snowville","state":"UT","lat":41.966,"long":-112.7269},{"zip":"84337","city":"Tremonton","state":"UT","lat":41.7016,"long":-112.1813},{"zip":"84340","city":"Willard","state":"UT","lat":41.3989,"long":-112.0317},{"zip":"84304","city":"Cache Junction","state":"UT","lat":41.8169,"long":-111.9982},{"zip":"84305","city":"Clarkston","state":"UT","lat":41.9188,"long":-112.0486},{"zip":"84308","city":"Cornish","state":"UT","lat":41.9443,"long":-111.9733},{"zip":"84318","city":"Hyde Park","state":"UT","lat":41.8,"long":-111.8123},{"zip":"84319","city":"Hyrum","state":"UT","lat":41.6311,"long":-111.849},{"zip":"84320","city":"Lewiston","state":"UT","lat":41.9701,"long":-111.8768},{"zip":"84321","city":"Logan","state":"UT","lat":41.747,"long":-111.8226},{"zip":"84322","city":"Logan","state":"UT","lat":41.6412,"long":-111.8966},{"zip":"84323","city":"Logan","state":"UT","lat":41.7355,"long":-111.8344},{"zip":"84325","city":"Mendon","state":"UT","lat":41.71,"long":-111.9817},{"zip":"84326","city":"Millville","state":"UT","lat":41.6759,"long":-111.8185},{"zip":"84327","city":"Newton","state":"UT","lat":41.8627,"long":-111.9908},{"zip":"84328","city":"Paradise","state":"UT","lat":41.56,"long":-111.8297},{"zip":"84332","city":"Providence","state":"UT","lat":41.7,"long":-111.8123},{"zip":"84333","city":"Richmond","state":"UT","lat":41.9282,"long":-111.8069},{"zip":"84335","city":"Smithfield","state":"UT","lat":41.8403,"long":-111.8528},{"zip":"84338","city":"Trenton","state":"UT","lat":41.9105,"long":-111.934},{"zip":"84339","city":"Wellsville","state":"UT","lat":41.6343,"long":-111.9317},{"zip":"84341","city":"Logan","state":"UT","lat":41.7759,"long":-111.8068},{"zip":"84310","city":"Eden","state":"UT","lat":41.3303,"long":-111.8558},{"zip":"84315","city":"Hooper","state":"UT","lat":41.1668,"long":-112.1364},{"zip":"84317","city":"Huntsville","state":"UT","lat":41.2721,"long":-111.7618}]
