[{"zip":"84501","city":"Price","state":"UT","lat":39.602,"long":-110.8081},{"zip":"84520","city":"East Carbon","state":"UT","lat":39.5461,"long":-110.4113},{"zip":"84526","city":"Helper","state":"UT","lat":39.6737,"long":-110.856},{"zip":"84529","city":"Kenilworth","state":"UT","lat":39.6884,"long":-110.8073},{"zip":"84539","city":"Sunnyside","state":"UT","lat":39.5514,"long":-110.3879},{"zip":"84542","city":"Wellington","state":"UT","lat":39.5423,"long":-110.735},{"zip":"84513","city":"Castle Dale","state":"UT","lat":39.2122,"long":-111.0196},{"zip":"84516","city":"Clawson","state":"UT","lat":39.1198,"long":-111.1008},{"zip":"84518","city":"Cleveland","state":"UT","lat":39.3736,"long":-110.8936},{"zip":"84521","city":"Elmo","state":"UT","lat":39.4033,"long":-110.81},{"zip":"84522","city":"Emery","state":"UT","lat":38.9226,"long":-111.2512},{"zip":"84523","city":"Ferron","state":"UT","lat":39.0692,"long":-111.1467},{"zip":"84525","city":"Green River","state":"UT","lat":39.0002,"long":-110.1598},{"zip":"84528","city":"Huntington","state":"UT","lat":39.3266,"long":-110.9646},{"zip":"84537","city":"Orangeville","state":"UT","lat":39.2302,"long":-111.0518},{"zip":"84515","city":"Cisco","state":"UT","lat":38.97,"long":-109.3207},{"zip":"84532","city":"Moab","state":"UT","lat":38.5677,"long":-109.5271},{"zip":"84540","city":"Thompson","state":"UT","lat":38.9999,"long":-109.615},{"zip":"84510","city":"Aneth","state":"UT","lat":37.2161,"long":-109.1871},{"zip":"84511","city":"Blanding","state":"UT","lat":37.5863,"long":-109.4866},{"zip":"84512","city":"Bluff","state":"UT","lat":37.2844,"long":-109.5518},{"zip":"84530","city":"La Sal","state":"UT","lat":38.3122,"long":-109.2482},{"zip":"84531","city":"Mexican Hat","state":"UT","lat":37.1184,"long":-109.9919},{"zip":"84533","city":"Lake Powell","state":"UT","lat":37.7489,"long":-110.2269},{"zip":"84534","city":"Montezuma Creek","state":"UT","lat":37.2539,"long":-109.1061},{"zip":"84535","city":"Monticello","state":"UT","lat":37.9217,"long":-109.3153},{"zip":"84536","city":"Monument Valley","state":"UT","lat":37.0614,"long":-110.4273}]
