[{"zip":"84628","city":"Eureka","state":"UT","lat":39.9541,"long":-112.1174},{"zip":"84639","city":"Levan","state":"UT","lat":39.5215,"long":-111.9438},{"zip":"84645","city":"Mona","state":"UT","lat":39.8382,"long":-111.848},{"zip":"84648","city":"Nephi","state":"UT","lat":39.6923,"long":-111.8359},{"zip":"84624","city":"Delta","state":"UT","lat":39.3755,"long":-112.5319},{"zip":"84631","city":"Fillmore","state":"UT","lat":38.9805,"long":-112.3313},{"zip":"84635","city":"Hinckley","state":"UT","lat":39.3308,"long":-112.6716},{"zip":"84636","city":"Holden","state":"UT","lat":39.0964,"long":-112.2834},{"zip":"84637","city":"Kanosh","state":"UT","lat":38.8318,"long":-112.4561},{"zip":"84638","city":"Leamington","state":"UT","lat":39.5302,"long":-112.2952},{"zip":"84640","city":"Lynndyl","state":"UT","lat":39.4943,"long":-112.3979},{"zip":"84644","city":"Meadow","state":"UT","lat":38.8858,"long":-112.4105},{"zip":"84649","city":"Oak City","state":"UT","lat":39.3729,"long":-112.3288},{"zip":"84656","city":"Scipio","state":"UT","lat":39.2495,"long":-112.1064},{"zip":"84621","city":"Axtell","state":"UT","lat":39.0532,"long":-111.8243},{"zip":"84622","city":"Centerfield","state":"UT","lat":39.1251,"long":-111.8185},{"zip":"84623","city":"Chester","state":"UT","lat":39.4761,"long":-111.563},{"zip":"84627","city":"Ephraim","state":"UT","lat":39.36,"long":-111.5823},{"zip":"84629","city":"Fairview","state":"UT","lat":39.6264,"long":-111.4396},{"zip":"84630","city":"Fayette","state":"UT","lat":39.2315,"long":-111.8497},{"zip":"84632","city":"Fountain Green","state":"UT","lat":39.63,"long":-111.6352},{"zip":"84634","city":"Gunnison","state":"UT","lat":39.1545,"long":-111.8167},{"zip":"84642","city":"Manti","state":"UT","lat":39.2683,"long":-111.6369},{"zip":"84643","city":"Mayfield","state":"UT","lat":39.1154,"long":-111.6905},{"zip":"84646","city":"Moroni","state":"UT","lat":39.525,"long":-111.5905},{"zip":"84647","city":"Mount Pleasant","state":"UT","lat":39.5232,"long":-111.5039},{"zip":"84662","city":"Spring City","state":"UT","lat":39.4671,"long":-111.4661},{"zip":"84665","city":"Sterling","state":"UT","lat":39.1936,"long":-111.6924},{"zip":"84667","city":"Wales","state":"UT","lat":39.4884,"long":-111.6341},{"zip":"84620","city":"Aurora","state":"UT","lat":38.9222,"long":-111.9341},{"zip":"84652","city":"Redmond","state":"UT","lat":39.0061,"long":-111.8619},{"zip":"84654","city":"Salina","state":"UT","lat":38.956,"long":-111.8811},{"zip":"84657","city":"Sigurd","state":"UT","lat":38.8482,"long":-111.9737},{"zip":"84601","city":"Provo","state":"UT","lat":40.2319,"long":-111.6755},{"zip":"84602","city":"Provo","state":"UT","lat":40.3563,"long":-111.7325},{"zip":"84603","city":"Provo","state":"UT","lat":40.2039,"long":-111.6261},{"zip":"84604","city":"Provo","state":"UT","lat":40.2607,"long":-111.6549},{"zip":"84605","city":"Provo","state":"UT","lat":40.177,"long":-111.536},{"zip":"84606","city":"Provo","state":"UT","lat":40.2347,"long":-111.6447},{"zip":"84626","city":"Elberta","state":"UT","lat":39.9739,"long":-111.9554},{"zip":"84633","city":"Goshen","state":"UT","lat":39.953,"long":-111.9008},{"zip":"84651","city":"Payson","state":"UT","lat":40.0449,"long":-111.7321},{"zip":"84653","city":"Salem","state":"UT","lat":40.0113,"long":-111.5998},{"zip":"84655","city":"Santaquin","state":"UT","lat":39.9737,"long":-111.8037},{"zip":"84660","city":"Spanish Fork","state":"UT","lat":40.1099,"long":-111.6462},{"zip":"84663","city":"Springville","state":"UT","lat":40.1625,"long":-111.5987},{"zip":"84664","city":"Mapleton","state":"UT","lat":40.1337,"long":-111.5801}]
