[{"zip":"84713","city":"Beaver","state":"UT","lat":38.2807,"long":-112.6299},{"zip":"84731","city":"Greenville","state":"UT","lat":38.2544,"long":-112.7124},{"zip":"84751","city":"Milford","state":"UT","lat":38.3311,"long":-112.9934},{"zip":"84752","city":"Minersville","state":"UT","lat":38.2149,"long":-112.9231},{"zip":"84712","city":"Antimony","state":"UT","lat":38.1015,"long":-111.993},{"zip":"84716","city":"Boulder","state":"UT","lat":37.9166,"long":-111.4266},{"zip":"84718","city":"Cannonville","state":"UT","lat":37.5396,"long":-112.0451},{"zip":"84726","city":"Escalante","state":"UT","lat":37.7698,"long":-111.6037},{"zip":"84735","city":"Hatch","state":"UT","lat":37.6497,"long":-112.4344},{"zip":"84736","city":"Henrieville","state":"UT","lat":37.5503,"long":-111.9961},{"zip":"84759","city":"Panguitch","state":"UT","lat":37.8078,"long":-112.4369},{"zip":"84764","city":"Bryce","state":"UT","lat":37.6184,"long":-112.1735},{"zip":"84776","city":"Tropic","state":"UT","lat":37.6261,"long":-112.0836},{"zip":"84714","city":"Beryl","state":"UT","lat":37.8958,"long":-113.6614},{"zip":"84719","city":"Brian Head","state":"UT","lat":37.6985,"long":-112.8437},{"zip":"84720","city":"Cedar City","state":"UT","lat":37.6775,"long":-113.0619},{"zip":"84721","city":"Cedar City","state":"UT","lat":37.8788,"long":-113.2045},{"zip":"84742","city":"Kanarraville","state":"UT","lat":37.5228,"long":-113.2036},{"zip":"84753","city":"Modena","state":"UT","lat":37.7995,"long":-113.9193},{"zip":"84756","city":"Newcastle","state":"UT","lat":37.6924,"long":-113.6272},{"zip":"84760","city":"Paragonah","state":"UT","lat":37.8917,"long":-112.774},{"zip":"84761","city":"Parowan","state":"UT","lat":37.8449,"long":-112.8323},{"zip":"84772","city":"Summit","state":"UT","lat":37.8011,"long":-112.9363},{"zip":"84710","city":"Alton","state":"UT","lat":37.4699,"long":-112.5484},{"zip":"84729","city":"Glendale","state":"UT","lat":37.3219,"long":-112.6035},{"zip":"84741","city":"Kanab","state":"UT","lat":37.0475,"long":-112.5263},{"zip":"84755","city":"Mount Carmel","state":"UT","lat":37.2378,"long":-112.67},{"zip":"84758","city":"Orderville","state":"UT","lat":37.2744,"long":-112.642},{"zip":"84762","city":"Duck Creek Village","state":"UT","lat":37.5169,"long":-112.6636},{"zip":"84728","city":"Garrison","state":"UT","lat":39.0744,"long":-113.8949},{"zip":"84723","city":"Circleville","state":"UT","lat":38.1827,"long":-112.2329},{"zip":"84732","city":"Greenwich","state":"UT","lat":38.4454,"long":-111.9023},{"zip":"84740","city":"Junction","state":"UT","lat":38.2439,"long":-112.2237},{"zip":"84743","city":"Kingston","state":"UT","lat":38.2158,"long":-112.2049},{"zip":"84750","city":"Marysvale","state":"UT","lat":38.4449,"long":-112.2518},{"zip":"84701","city":"Richfield","state":"UT","lat":38.7388,"long":-112.0744},{"zip":"84711","city":"Annabella","state":"UT","lat":38.7168,"long":-112.0657},{"zip":"84724","city":"Elsinore","state":"UT","lat":38.6753,"long":-112.1489},{"zip":"84730","city":"Glenwood","state":"UT","lat":38.7667,"long":-111.9628},{"zip":"84739","city":"Joseph","state":"UT","lat":38.6221,"long":-112.2251},{"zip":"84744","city":"Koosharem","state":"UT","lat":38.5103,"long":-111.8813},{"zip":"84754","city":"Monroe","state":"UT","lat":38.6578,"long":-112.1261},{"zip":"84766","city":"Sevier","state":"UT","lat":38.5785,"long":-112.3108},{"zip":"84722","city":"Central","state":"UT","lat":37.4166,"long":-113.6244},{"zip":"84725","city":"Enterprise","state":"UT","lat":37.5797,"long":-113.6894},{"zip":"84733","city":"Gunlock","state":"UT","lat":37.2877,"long":-113.7606},{"zip":"84737","city":"Hurricane","state":"UT","lat":37.1454,"long":-113.3675},{"zip":"84738","city":"Ivins","state":"UT","lat":37.179,"long":-113.7066},{"zip":"84745","city":"La Verkin","state":"UT","lat":37.2316,"long":-113.2446},{"zip":"84746","city":"Leeds","state":"UT","lat":37.2372,"long":-113.3356},{"zip":"84757","city":"New Harmony","state":"UT","lat":37.455,"long":-113.268},{"zip":"84763","city":"Rockville","state":"UT","lat":37.1601,"long":-113.0425},{"zip":"84765","city":"Santa Clara","state":"UT","lat":37.1282,"long":-113.676},{"zip":"84767","city":"Springdale","state":"UT","lat":37.1862,"long":-113.0139},{"zip":"84770","city":"Saint George","state":"UT","lat":37.1041,"long":-113.5841},{"zip":"84771","city":"Saint George","state":"UT","lat":37.1041,"long":-113.5841},{"zip":"84774","city":"Toquerville","state":"UT","lat":37.2377,"long":-113.3323},{"zip":"84779","city":"Virgin","state":"UT","lat":37.2022,"long":-113.1854},{"zip":"84780","city":"Washington","state":"UT","lat":37.1364,"long":-113.505},{"zip":"84781","city":"Pine Valley","state":"UT","lat":37.3898,"long":-113.5177},{"zip":"84782","city":"Veyo","state":"UT","lat":37.359,"long":-113.6668},{"zip":"84783","city":"Dammeron Valley","state":"UT","lat":37.2849,"long":-113.6586},{"zip":"84784","city":"Hildale","state":"UT","lat":37.0044,"long":-112.9784},{"zip":"84790","city":"Saint George","state":"UT","lat":37.0831,"long":-113.5581},{"zip":"84791","city":"Saint George","state":"UT","lat":37.1041,"long":-113.5841},{"zip":"84715","city":"Bicknell","state":"UT","lat":38.3278,"long":-111.5264},{"zip":"84734","city":"Hanksville","state":"UT","lat":38.2521,"long":-110.8137},{"zip":"84747","city":"Loa","state":"UT","lat":38.4415,"long":-111.5958},{"zip":"84749","city":"Lyman","state":"UT","lat":38.3969,"long":-111.5896},{"zip":"84773","city":"Teasdale","state":"UT","lat":38.2853,"long":-111.4335},{"zip":"84775","city":"Torrey","state":"UT","lat":38.2969,"long":-111.4138}]
