[{"zip":"85920","city":"Alpine","state":"AZ","lat":33.8279,"long":-109.1283},{"zip":"85924","city":"Concho","state":"AZ","lat":34.4458,"long":-109.6741},{"zip":"85925","city":"Eagar","state":"AZ","lat":34.1077,"long":-109.294},{"zip":"85927","city":"Greer","state":"AZ","lat":34.0052,"long":-109.4664},{"zip":"85930","city":"Mcnary","state":"AZ","lat":34.0754,"long":-109.8532},{"zip":"85932","city":"Nutrioso","state":"AZ","lat":33.9531,"long":-109.2092},{"zip":"85936","city":"Saint Johns","state":"AZ","lat":34.501,"long":-109.3796},{"zip":"85938","city":"Springerville","state":"AZ","lat":34.1702,"long":-109.3315},{"zip":"85940","city":"Vernon","state":"AZ","lat":34.2575,"long":-109.6929},{"zip":"85602","city":"Benson","state":"AZ","lat":31.9883,"long":-110.2941},{"zip":"85603","city":"Bisbee","state":"AZ","lat":31.4086,"long":-109.9117},{"zip":"85605","city":"Bowie","state":"AZ","lat":32.3265,"long":-109.487},{"zip":"85606","city":"Cochise","state":"AZ","lat":32.0979,"long":-109.9239},{"zip":"85607","city":"Douglas","state":"AZ","lat":31.3511,"long":-109.5447},{"zip":"85608","city":"Douglas","state":"AZ","lat":31.4151,"long":-109.596},{"zip":"85609","city":"Dragoon","state":"AZ","lat":32.0281,"long":-110.0387},{"zip":"85610","city":"Elfrida","state":"AZ","lat":31.7139,"long":-109.6193},{"zip":"85613","city":"Fort Huachuca","state":"AZ","lat":31.5587,"long":-110.3441},{"zip":"85615","city":"Hereford","state":"AZ","lat":31.4035,"long":-110.2047},{"zip":"85616","city":"Huachuca City","state":"AZ","lat":31.6639,"long":-110.3334},{"zip":"85617","city":"Mc Neal","state":"AZ","lat":31.5121,"long":-109.8438},{"zip":"85620","city":"Naco","state":"AZ","lat":31.3373,"long":-109.9413},{"zip":"85625","city":"Pearce","state":"AZ","lat":31.8885,"long":-109.6119},{"zip":"85626","city":"Pirtleville","state":"AZ","lat":31.3572,"long":-109.5635},{"zip":"85627","city":"Pomerene","state":"AZ","lat":31.9995,"long":-110.2862},{"zip":"85630","city":"Saint David","state":"AZ","lat":31.8973,"long":-110.2154},{"zip":"85632","city":"San Simon","state":"AZ","lat":32.0423,"long":-109.1748},{"zip":"85635","city":"Sierra Vista","state":"AZ","lat":31.5365,"long":-110.2666},{"zip":"85636","city":"Sierra Vista","state":"AZ","lat":31.6687,"long":-110.2801},{"zip":"85638","city":"Tombstone","state":"AZ","lat":31.7216,"long":-110.0584},{"zip":"85643","city":"Willcox","state":"AZ","lat":32.373,"long":-109.8631},{"zip":"85644","city":"Willcox","state":"AZ","lat":32.2529,"long":-109.832},{"zip":"85650","city":"Sierra Vista","state":"AZ","lat":31.4892,"long":-110.2153},{"zip":"85655","city":"Douglas","state":"AZ","lat":31.3447,"long":-109.5468},{"zip":"85670","city":"Fort Huachuca","state":"AZ","lat":31.8801,"long":-109.7543},{"zip":"85671","city":"Sierra Vista","state":"AZ","lat":31.5545,"long":-110.3037},{"zip":"85931","city":"Forest Lakes","state":"AZ","lat":34.4513,"long":-110.8644},{"zip":"85135","city":"Hayden","state":"AZ","lat":33.0041,"long":-110.7868},{"zip":"85192","city":"Winkelman","state":"AZ","lat":33.0057,"long":-110.7727},{"zip":"85501","city":"Globe","state":"AZ","lat":33.4024,"long":-110.7892},{"zip":"85502","city":"Globe","state":"AZ","lat":33.3942,"long":-110.7865},{"zip":"85532","city":"Claypool","state":"AZ","lat":33.4154,"long":-110.8149},{"zip":"85539","city":"Miami","state":"AZ","lat":33.3992,"long":-110.8687},{"zip":"85541","city":"Payson","state":"AZ","lat":34.2198,"long":-111.2878},{"zip":"85542","city":"Peridot","state":"AZ","lat":33.3103,"long":-110.4554},{"zip":"85544","city":"Pine","state":"AZ","lat":34.3435,"long":-111.5353},{"zip":"85545","city":"Roosevelt","state":"AZ","lat":33.6358,"long":-110.9749},{"zip":"85547","city":"Payson","state":"AZ","lat":34.2575,"long":-111.2878},{"zip":"85550","city":"San Carlos","state":"AZ","lat":33.3456,"long":-110.455},{"zip":"85553","city":"Tonto Basin","state":"AZ","lat":33.8317,"long":-111.2946},{"zip":"85554","city":"Young","state":"AZ","lat":34.1014,"long":-110.9637},{"zip":"85530","city":"Bylas","state":"AZ","lat":33.1265,"long":-110.117},{"zip":"85531","city":"Central","state":"AZ","lat":32.8692,"long":-109.7878},{"zip":"85535","city":"Eden","state":"AZ","lat":32.9751,"long":-109.8974},{"zip":"85536","city":"Fort Thomas","state":"AZ","lat":33.0333,"long":-109.9717},{"zip":"85543","city":"Pima","state":"AZ","lat":32.9097,"long":-109.856},{"zip":"85546","city":"Safford","state":"AZ","lat":32.8295,"long":-109.6266},{"zip":"85548","city":"Safford","state":"AZ","lat":32.797,"long":-109.7522},{"zip":"85551","city":"Solomon","state":"AZ","lat":32.8428,"long":-109.6964},{"zip":"85552","city":"Thatcher","state":"AZ","lat":32.8504,"long":-109.7461},{"zip":"85533","city":"Clifton","state":"AZ","lat":33.1323,"long":-109.2462},{"zip":"85534","city":"Duncan","state":"AZ","lat":32.881,"long":-109.2157},{"zip":"85540","city":"Morenci","state":"AZ","lat":33.0787,"long":-109.3654},{"zip":"85922","city":"Blue","state":"AZ","lat":33.6512,"long":-109.0685},{"zip":"85325","city":"Bouse","state":"AZ","lat":33.9578,"long":-114.0036},{"zip":"85328","city":"Cibola","state":"AZ","lat":33.3164,"long":-114.665},{"zip":"85334","city":"Ehrenberg","state":"AZ","lat":33.6177,"long":-114.5077},{"zip":"85344","city":"Parker","state":"AZ","lat":34.15,"long":-114.2891},{"zip":"85346","city":"Quartzsite","state":"AZ","lat":33.7292,"long":-114.1925},{"zip":"85348","city":"Salome","state":"AZ","lat":33.7481,"long":-113.5715},{"zip":"85357","city":"Wenden","state":"AZ","lat":34.0422,"long":-113.458},{"zip":"85359","city":"Quartzsite","state":"AZ","lat":33.6669,"long":-114.2396},{"zip":"85371","city":"Poston","state":"AZ","lat":33.9906,"long":-114.3963},{"zip":"85001","city":"Phoenix","state":"AZ","lat":33.4484,"long":-112.074},{"zip":"85002","city":"Phoenix","state":"AZ","lat":33.4484,"long":-112.074},{"zip":"85003","city":"Phoenix","state":"AZ","lat":33.4511,"long":-112.0774},{"zip":"85004","city":"Phoenix","state":"AZ","lat":33.4557,"long":-112.0686},{"zip":"85005","city":"Phoenix","state":"AZ","lat":33.4484,"long":-112.074},{"zip":"85006","city":"Phoenix","state":"AZ","lat":33.465,"long":-112.0474},{"zip":"85007","city":"Phoenix","state":"AZ","lat":33.4523,"long":-112.0893},{"zip":"85008","city":"Phoenix","state":"AZ","lat":33.4665,"long":-111.9984},{"zip":"85009","city":"Phoenix","state":"AZ","lat":33.4564,"long":-112.1284},{"zip":"85010","city":"Phoenix","state":"AZ","lat":33.4484,"long":-112.074},{"zip":"85011","city":"Phoenix","state":"AZ","lat":33.4484,"long":-112.074},{"zip":"85012","city":"Phoenix","state":"AZ","lat":33.5097,"long":-112.0678},{"zip":"85013","city":"Phoenix","state":"AZ","lat":33.5085,"long":-112.0827},{"zip":"85014","city":"Phoenix","state":"AZ","lat":33.5103,"long":-112.0556},{"zip":"85015","city":"Phoenix","state":"AZ","lat":33.5082,"long":-112.1011},{"zip":"85016","city":"Phoenix","state":"AZ","lat":33.5021,"long":-112.0305},{"zip":"85017","city":"Phoenix","state":"AZ","lat":33.5153,"long":-112.1212},{"zip":"85018","city":"Phoenix","state":"AZ","lat":33.4958,"long":-111.9883},{"zip":"85019","city":"Phoenix","state":"AZ","lat":33.5123,"long":-112.1417},{"zip":"85020","city":"Phoenix","state":"AZ","lat":33.5623,"long":-112.0559},{"zip":"85021","city":"Phoenix","state":"AZ","lat":33.56,"long":-112.0927},{"zip":"85022","city":"Phoenix","state":"AZ","lat":33.6315,"long":-112.052},{"zip":"85023","city":"Phoenix","state":"AZ","lat":33.6324,"long":-112.1118},{"zip":"85024","city":"Phoenix","state":"AZ","lat":33.6617,"long":-112.037},{"zip":"85025","city":"Phoenix","state":"AZ","lat":33.4484,"long":-112.074},{"zip":"85026","city":"Phoenix","state":"AZ","lat":33.4484,"long":-112.074},{"zip":"85027","city":"Phoenix","state":"AZ","lat":33.6819,"long":-112.0996},{"zip":"85028","city":"Phoenix","state":"AZ","lat":33.5851,"long":-112.0087},{"zip":"85029","city":"Phoenix","state":"AZ","lat":33.5961,"long":-112.1199},{"zip":"85030","city":"Phoenix","state":"AZ","lat":33.4484,"long":-112.074},{"zip":"85031","city":"Phoenix","state":"AZ","lat":33.4939,"long":-112.1696},{"zip":"85032","city":"Phoenix","state":"AZ","lat":33.6238,"long":-112.0044},{"zip":"85033","city":"Phoenix","state":"AZ","lat":33.4944,"long":-112.2132},{"zip":"85034","city":"Phoenix","state":"AZ","lat":33.4413,"long":-112.0421},{"zip":"85035","city":"Phoenix","state":"AZ","lat":33.4724,"long":-112.1832},{"zip":"85036","city":"Phoenix","state":"AZ","lat":33.4484,"long":-112.074},{"zip":"85037","city":"Phoenix","state":"AZ","lat":33.4913,"long":-112.2468},{"zip":"85038","city":"Phoenix","state":"AZ","lat":33.4484,"long":-112.074},{"zip":"85039","city":"Phoenix","state":"AZ","lat":33.4484,"long":-112.074},{"zip":"85040","city":"Phoenix","state":"AZ","lat":33.4061,"long":-112.0265},{"zip":"85041","city":"Phoenix","state":"AZ","lat":33.3889,"long":-112.0954},{"zip":"85042","city":"Phoenix","state":"AZ","lat":33.3794,"long":-112.0283},{"zip":"85043","city":"Phoenix","state":"AZ","lat":33.4491,"long":-112.1972},{"zip":"85044","city":"Phoenix","state":"AZ","lat":33.3291,"long":-111.9943},{"zip":"85045","city":"Phoenix","state":"AZ","lat":33.3022,"long":-112.1226},{"zip":"85046","city":"Phoenix","state":"AZ","lat":33.4484,"long":-112.074},{"zip":"85048","city":"Phoenix","state":"AZ","lat":33.316,"long":-112.0669},{"zip":"85050","city":"Phoenix","state":"AZ","lat":33.6863,"long":-111.9963},{"zip":"85051","city":"Phoenix","state":"AZ","lat":33.5591,"long":-112.1332},{"zip":"85053","city":"Phoenix","state":"AZ","lat":33.6299,"long":-112.1316},{"zip":"85054","city":"Phoenix","state":"AZ","lat":33.6731,"long":-111.9461},{"zip":"85060","city":"Phoenix","state":"AZ","lat":33.4484,"long":-112.074},{"zip":"85061","city":"Phoenix","state":"AZ","lat":33.4484,"long":-112.074},{"zip":"85062","city":"Phoenix","state":"AZ","lat":33.4484,"long":-112.074},{"zip":"85063","city":"Phoenix","state":"AZ","lat":33.4484,"long":-112.074},{"zip":"85064","city":"Phoenix","state":"AZ","lat":33.4484,"long":-112.074},{"zip":"85065","city":"Phoenix","state":"AZ","lat":33.4484,"long":-112.074},{"zip":"85066","city":"Phoenix","state":"AZ","lat":33.4484,"long":-112.074},{"zip":"85067","city":"Phoenix","state":"AZ","lat":33.4484,"long":-112.074},{"zip":"85068","city":"Phoenix","state":"AZ","lat":33.4484,"long":-112.074},{"zip":"85069","city":"Phoenix","state":"AZ","lat":33.4484,"long":-112.074},{"zip":"85070","city":"Phoenix","state":"AZ","lat":33.4484,"long":-112.074},{"zip":"85071","city":"Phoenix","state":"AZ","lat":33.4484,"long":-112.074},{"zip":"85072","city":"Phoenix","state":"AZ","lat":33.4484,"long":-112.074},{"zip":"85073","city":"Phoenix","state":"AZ","lat":33.4484,"long":-112.074},{"zip":"85074","city":"Phoenix","state":"AZ","lat":33.4484,"long":-112.074},{"zip":"85075","city":"Phoenix","state":"AZ","lat":33.4484,"long":-112.074},{"zip":"85076","city":"Phoenix","state":"AZ","lat":33.4484,"long":-112.074},{"zip":"85078","city":"Phoenix","state":"AZ","lat":33.4484,"long":-112.074},{"zip":"85079","city":"Phoenix","state":"AZ","lat":33.4484,"long":-112.074},{"zip":"85080","city":"Phoenix","state":"AZ","lat":33.4484,"long":-112.074},{"zip":"85082","city":"Phoenix","state":"AZ","lat":33.4484,"long":-112.074},{"zip":"85083","city":"Phoenix","state":"AZ","lat":33.7352,"long":-112.1294},{"zip":"85085","city":"Phoenix","state":"AZ","lat":33.7529,"long":-112.0893},{"zip":"85086","city":"Phoenix","state":"AZ","lat":33.8155,"long":-112.1202},{"zip":"85087","city":"New River","state":"AZ","lat":33.9235,"long":-112.1279},{"zip":"85097","city":"Phoenix","state":"AZ","lat":33.4484,"long":-112.074},{"zip":"85098","city":"Phoenix","state":"AZ","lat":33.4484,"long":-112.074},{"zip":"85142","city":"Queen Creek","state":"AZ","lat":33.2487,"long":-111.6343},{"zip":"85201","city":"Mesa","state":"AZ","lat":33.4317,"long":-111.8469},{"zip":"85202","city":"Mesa","state":"AZ","lat":33.3851,"long":-111.8724},{"zip":"85203","city":"Mesa","state":"AZ","lat":33.437,"long":-111.8057},{"zip":"85204","city":"Mesa","state":"AZ","lat":33.3992,"long":-111.7896},{"zip":"85205","city":"Mesa","state":"AZ","lat":33.4368,"long":-111.7129},{"zip":"85206","city":"Mesa","state":"AZ","lat":33.4026,"long":-111.7242},{"zip":"85207","city":"Mesa","state":"AZ","lat":33.4321,"long":-111.6426},{"zip":"85208","city":"Mesa","state":"AZ","lat":33.3984,"long":-111.6513},{"zip":"85209","city":"Mesa","state":"AZ","lat":33.3782,"long":-111.6406},{"zip":"85210","city":"Mesa","state":"AZ","lat":33.3887,"long":-111.8428},{"zip":"85211","city":"Mesa","state":"AZ","lat":33.4663,"long":-111.8373},{"zip":"85212","city":"Mesa","state":"AZ","lat":33.3425,"long":-111.6353},{"zip":"85213","city":"Mesa","state":"AZ","lat":33.4367,"long":-111.7731},{"zip":"85214","city":"Mesa","state":"AZ","lat":33.4125,"long":-111.8319},{"zip":"85215","city":"Mesa","state":"AZ","lat":33.4707,"long":-111.7188},{"zip":"85216","city":"Mesa","state":"AZ","lat":33.4125,"long":-111.8319},{"zip":"85224","city":"Chandler","state":"AZ","lat":33.3301,"long":-111.8632},{"zip":"85225","city":"Chandler","state":"AZ","lat":33.3105,"long":-111.8239},{"zip":"85226","city":"Chandler","state":"AZ","lat":33.3092,"long":-111.9198},{"zip":"85233","city":"Gilbert","state":"AZ","lat":33.3354,"long":-111.8153},{"zip":"85234","city":"Gilbert","state":"AZ","lat":33.3527,"long":-111.7809},{"zip":"85236","city":"Higley","state":"AZ","lat":33.3024,"long":-111.6969},{"zip":"85244","city":"Chandler","state":"AZ","lat":33.3213,"long":-111.8888},{"zip":"85246","city":"Chandler","state":"AZ","lat":33.3062,"long":-111.8413},{"zip":"85248","city":"Chandler","state":"AZ","lat":33.2509,"long":-111.8593},{"zip":"85249","city":"Chandler","state":"AZ","lat":33.2414,"long":-111.7745},{"zip":"85250","city":"Scottsdale","state":"AZ","lat":33.5218,"long":-111.9049},{"zip":"85251","city":"Scottsdale","state":"AZ","lat":33.4936,"long":-111.9167},{"zip":"85252","city":"Scottsdale","state":"AZ","lat":33.4995,"long":-111.8684},{"zip":"85253","city":"Paradise Valley","state":"AZ","lat":33.5494,"long":-111.9565},{"zip":"85254","city":"Scottsdale","state":"AZ","lat":33.6165,"long":-111.9554},{"zip":"85255","city":"Scottsdale","state":"AZ","lat":33.6968,"long":-111.8892},{"zip":"85256","city":"Scottsdale","state":"AZ","lat":33.4858,"long":-111.8533},{"zip":"85257","city":"Scottsdale","state":"AZ","lat":33.4669,"long":-111.9151},{"zip":"85258","city":"Scottsdale","state":"AZ","lat":33.5647,"long":-111.8931},{"zip":"85259","city":"Scottsdale","state":"AZ","lat":33.5879,"long":-111.8404},{"zip":"85260","city":"Scottsdale","state":"AZ","lat":33.6013,"long":-111.8867},{"zip":"85261","city":"Scottsdale","state":"AZ","lat":33.5092,"long":-111.899},{"zip":"85262","city":"Scottsdale","state":"AZ","lat":33.7752,"long":-111.7791},{"zip":"85263","city":"Rio Verde","state":"AZ","lat":33.7225,"long":-111.6757},{"zip":"85264","city":"Fort Mcdowell","state":"AZ","lat":33.6118,"long":-111.6806},{"zip":"85266","city":"Scottsdale","state":"AZ","lat":33.7669,"long":-111.9182},{"zip":"85267","city":"Scottsdale","state":"AZ","lat":33.5092,"long":-111.899},{"zip":"85268","city":"Fountain Hills","state":"AZ","lat":33.6085,"long":-111.7237},{"zip":"85269","city":"Fountain Hills","state":"AZ","lat":33.6117,"long":-111.7174},{"zip":"85271","city":"Scottsdale","state":"AZ","lat":33.5092,"long":-111.899},{"zip":"85274","city":"Mesa","state":"AZ","lat":33.4125,"long":-111.8319},{"zip":"85275","city":"Mesa","state":"AZ","lat":33.4125,"long":-111.8319},{"zip":"85277","city":"Mesa","state":"AZ","lat":33.4125,"long":-111.8319},{"zip":"85280","city":"Tempe","state":"AZ","lat":33.4014,"long":-111.9313},{"zip":"85281","city":"Tempe","state":"AZ","lat":33.4227,"long":-111.9261},{"zip":"85282","city":"Tempe","state":"AZ","lat":33.3917,"long":-111.9249},{"zip":"85283","city":"Tempe","state":"AZ","lat":33.3665,"long":-111.9312},{"zip":"85284","city":"Tempe","state":"AZ","lat":33.3363,"long":-111.9197},{"zip":"85285","city":"Tempe","state":"AZ","lat":33.4148,"long":-111.9093},{"zip":"85286","city":"Chandler","state":"AZ","lat":33.2711,"long":-111.8311},{"zip":"85287","city":"Tempe","state":"AZ","lat":33.4285,"long":-111.9349},{"zip":"85295","city":"Gilbert","state":"AZ","lat":33.3054,"long":-111.7408},{"zip":"85296","city":"Gilbert","state":"AZ","lat":33.3354,"long":-111.7406},{"zip":"85297","city":"Gilbert","state":"AZ","lat":33.2781,"long":-111.7096},{"zip":"85298","city":"Gilbert","state":"AZ","lat":33.2522,"long":-111.7022},{"zip":"85299","city":"Gilbert","state":"AZ","lat":33.3528,"long":-111.789},{"zip":"85301","city":"Glendale","state":"AZ","lat":33.5311,"long":-112.1767},{"zip":"85302","city":"Glendale","state":"AZ","lat":33.5675,"long":-112.1753},{"zip":"85303","city":"Glendale","state":"AZ","lat":33.5262,"long":-112.2149},{"zip":"85304","city":"Glendale","state":"AZ","lat":33.5943,"long":-112.1746},{"zip":"85305","city":"Glendale","state":"AZ","lat":33.5291,"long":-112.2482},{"zip":"85306","city":"Glendale","state":"AZ","lat":33.6239,"long":-112.1776},{"zip":"85307","city":"Glendale","state":"AZ","lat":33.5376,"long":-112.3137},{"zip":"85308","city":"Glendale","state":"AZ","lat":33.6539,"long":-112.1694},{"zip":"85309","city":"Luke Air Force Base","state":"AZ","lat":33.5387,"long":-112.186},{"zip":"85310","city":"Glendale","state":"AZ","lat":33.7047,"long":-112.1641},{"zip":"85311","city":"Glendale","state":"AZ","lat":33.5387,"long":-112.186},{"zip":"85312","city":"Glendale","state":"AZ","lat":33.5387,"long":-112.186},{"zip":"85318","city":"Glendale","state":"AZ","lat":33.5387,"long":-112.186},{"zip":"85320","city":"Aguila","state":"AZ","lat":33.9186,"long":-113.2134},{"zip":"85322","city":"Arlington","state":"AZ","lat":33.3133,"long":-112.7891},{"zip":"85323","city":"Avondale","state":"AZ","lat":33.4321,"long":-112.3438},{"zip":"85326","city":"Buckeye","state":"AZ","lat":33.3703,"long":-112.5838},{"zip":"85327","city":"Cave Creek","state":"AZ","lat":33.8333,"long":-111.9508},{"zip":"85329","city":"Cashion","state":"AZ","lat":33.4353,"long":-112.2979},{"zip":"85331","city":"Cave Creek","state":"AZ","lat":33.8851,"long":-111.9349},{"zip":"85335","city":"El Mirage","state":"AZ","lat":33.6082,"long":-112.3241},{"zip":"85337","city":"Gila Bend","state":"AZ","lat":32.9306,"long":-112.7468},{"zip":"85338","city":"Goodyear","state":"AZ","lat":33.4368,"long":-112.3834},{"zip":"85339","city":"Laveen","state":"AZ","lat":33.3436,"long":-112.1716},{"zip":"85340","city":"Litchfield Park","state":"AZ","lat":33.5098,"long":-112.4135},{"zip":"85342","city":"Morristown","state":"AZ","lat":33.8567,"long":-112.6232},{"zip":"85343","city":"Palo Verde","state":"AZ","lat":33.3481,"long":-112.6774},{"zip":"85345","city":"Peoria","state":"AZ","lat":33.5761,"long":-112.2344},{"zip":"85351","city":"Sun City","state":"AZ","lat":33.6061,"long":-112.2797},{"zip":"85353","city":"Tolleson","state":"AZ","lat":33.4347,"long":-112.2774},{"zip":"85354","city":"Tonopah","state":"AZ","lat":33.4228,"long":-112.9528},{"zip":"85355","city":"Waddell","state":"AZ","lat":33.5673,"long":-112.4387},{"zip":"85358","city":"Wickenburg","state":"AZ","lat":33.9686,"long":-112.7296},{"zip":"85361","city":"Wittmann","state":"AZ","lat":33.7637,"long":-112.6142},{"zip":"85363","city":"Youngtown","state":"AZ","lat":33.5908,"long":-112.3013},{"zip":"85372","city":"Sun City","state":"AZ","lat":33.5975,"long":-112.2718},{"zip":"85373","city":"Sun City","state":"AZ","lat":33.6588,"long":-112.3214},{"zip":"85374","city":"Surprise","state":"AZ","lat":33.63,"long":-112.3314},{"zip":"85375","city":"Sun City West","state":"AZ","lat":33.6856,"long":-112.3659},{"zip":"85376","city":"Sun City West","state":"AZ","lat":33.662,"long":-112.3413},{"zip":"85377","city":"Carefree","state":"AZ","lat":33.824,"long":-111.913},{"zip":"85378","city":"Surprise","state":"AZ","lat":33.6306,"long":-112.3332},{"zip":"85379","city":"Surprise","state":"AZ","lat":33.6021,"long":-112.3736},{"zip":"85380","city":"Peoria","state":"AZ","lat":33.5806,"long":-112.2374},{"zip":"85381","city":"Peoria","state":"AZ","lat":33.6048,"long":-112.2237},{"zip":"85382","city":"Peoria","state":"AZ","lat":33.6308,"long":-112.2072},{"zip":"85383","city":"Peoria","state":"AZ","lat":33.7169,"long":-112.238},{"zip":"85385","city":"Peoria","state":"AZ","lat":33.5806,"long":-112.2374},{"zip":"85387","city":"Surprise","state":"AZ","lat":33.7129,"long":-112.4375},{"zip":"85388","city":"Surprise","state":"AZ","lat":33.6134,"long":-112.4512},{"zip":"85390","city":"Wickenburg","state":"AZ","lat":33.8944,"long":-112.8603},{"zip":"85392","city":"Avondale","state":"AZ","lat":33.4777,"long":-112.3093},{"zip":"85395","city":"Goodyear","state":"AZ","lat":33.479,"long":-112.3947},{"zip":"85396","city":"Buckeye","state":"AZ","lat":33.468,"long":-112.4787},{"zip":"85360","city":"Wikieup","state":"AZ","lat":34.7033,"long":-113.6113},{"zip":"85901","city":"Show Low","state":"AZ","lat":34.2998,"long":-110},{"zip":"85902","city":"Show Low","state":"AZ","lat":34.2981,"long":-110.0352},{"zip":"85911","city":"Cibecue","state":"AZ","lat":34.0448,"long":-110.4854},{"zip":"85912","city":"White Mountain Lake","state":"AZ","lat":34.2666,"long":-110.2031},{"zip":"85923","city":"Clay Springs","state":"AZ","lat":34.3617,"long":-110.2954},{"zip":"85926","city":"Fort Apache","state":"AZ","lat":33.7906,"long":-109.9887},{"zip":"85928","city":"Heber","state":"AZ","lat":34.41,"long":-110.5883},{"zip":"85929","city":"Lakeside","state":"AZ","lat":34.1662,"long":-109.9869},{"zip":"85933","city":"Overgaard","state":"AZ","lat":34.4086,"long":-110.56},{"zip":"85934","city":"Pinedale","state":"AZ","lat":34.3003,"long":-110.2457},{"zip":"85935","city":"Pinetop","state":"AZ","lat":34.1175,"long":-109.9197},{"zip":"85937","city":"Snowflake","state":"AZ","lat":34.4959,"long":-110.0807},{"zip":"85939","city":"Taylor","state":"AZ","lat":34.439,"long":-110.0858},{"zip":"85941","city":"Whiteriver","state":"AZ","lat":33.8021,"long":-109.9937},{"zip":"85942","city":"Woodruff","state":"AZ","lat":34.6475,"long":-110.0806},{"zip":"85321","city":"Ajo","state":"AZ","lat":32.2295,"long":-112.6542},{"zip":"85341","city":"Lukeville","state":"AZ","lat":31.8737,"long":-112.7845},{"zip":"85601","city":"Arivaca","state":"AZ","lat":31.5885,"long":-111.316},{"zip":"85614","city":"Green Valley","state":"AZ","lat":31.8543,"long":-111.0003},{"zip":"85619","city":"Mount Lemmon","state":"AZ","lat":32.3763,"long":-110.7605},{"zip":"85622","city":"Green Valley","state":"AZ","lat":31.8269,"long":-111.0755},{"zip":"85629","city":"Sahuarita","state":"AZ","lat":31.9452,"long":-111.0002},{"zip":"85633","city":"Sasabe","state":"AZ","lat":31.4887,"long":-111.5421},{"zip":"85634","city":"Sells","state":"AZ","lat":32.0315,"long":-112.0065},{"zip":"85639","city":"Topawa","state":"AZ","lat":31.814,"long":-111.8257},{"zip":"85641","city":"Vail","state":"AZ","lat":32.0027,"long":-110.7053},{"zip":"85652","city":"Cortaro","state":"AZ","lat":32.4201,"long":-111.1132},{"zip":"85653","city":"Marana","state":"AZ","lat":32.4047,"long":-111.2736},{"zip":"85654","city":"Rillito","state":"AZ","lat":32.4148,"long":-111.1562},{"zip":"85701","city":"Tucson","state":"AZ","lat":32.2139,"long":-110.9694},{"zip":"85702","city":"Tucson","state":"AZ","lat":32.2217,"long":-110.9265},{"zip":"85703","city":"Tucson","state":"AZ","lat":32.2217,"long":-110.9265},{"zip":"85704","city":"Tucson","state":"AZ","lat":32.3379,"long":-110.9855},{"zip":"85705","city":"Tucson","state":"AZ","lat":32.2691,"long":-110.9845},{"zip":"85706","city":"Tucson","state":"AZ","lat":32.1392,"long":-110.9451},{"zip":"85707","city":"Tucson","state":"AZ","lat":32.1696,"long":-110.8751},{"zip":"85708","city":"Tucson","state":"AZ","lat":32.18,"long":-110.8693},{"zip":"85709","city":"Tucson","state":"AZ","lat":32.2008,"long":-110.898},{"zip":"85710","city":"Tucson","state":"AZ","lat":32.2138,"long":-110.824},{"zip":"85711","city":"Tucson","state":"AZ","lat":32.2127,"long":-110.8829},{"zip":"85712","city":"Tucson","state":"AZ","lat":32.25,"long":-110.8869},{"zip":"85713","city":"Tucson","state":"AZ","lat":32.1941,"long":-110.9739},{"zip":"85714","city":"Tucson","state":"AZ","lat":32.1707,"long":-110.9719},{"zip":"85715","city":"Tucson","state":"AZ","lat":32.2519,"long":-110.82},{"zip":"85716","city":"Tucson","state":"AZ","lat":32.2468,"long":-110.9222},{"zip":"85717","city":"Tucson","state":"AZ","lat":32.2217,"long":-110.9265},{"zip":"85718","city":"Tucson","state":"AZ","lat":32.3112,"long":-110.9179},{"zip":"85719","city":"Tucson","state":"AZ","lat":32.2474,"long":-110.9491},{"zip":"85720","city":"Tucson","state":"AZ","lat":32.2217,"long":-110.9265},{"zip":"85721","city":"Tucson","state":"AZ","lat":32.2338,"long":-110.95},{"zip":"85722","city":"Tucson","state":"AZ","lat":32.2217,"long":-110.9265},{"zip":"85723","city":"Tucson","state":"AZ","lat":32.2217,"long":-110.9265},{"zip":"85724","city":"Tucson","state":"AZ","lat":32.2406,"long":-110.9443},{"zip":"85725","city":"Tucson","state":"AZ","lat":32.2217,"long":-110.9265},{"zip":"85726","city":"Tucson","state":"AZ","lat":32.2027,"long":-110.9453},{"zip":"85728","city":"Tucson","state":"AZ","lat":32.2217,"long":-110.9265},{"zip":"85730","city":"Tucson","state":"AZ","lat":32.181,"long":-110.819},{"zip":"85731","city":"Tucson","state":"AZ","lat":32.2217,"long":-110.9265},{"zip":"85732","city":"Tucson","state":"AZ","lat":32.2217,"long":-110.9265},{"zip":"85733","city":"Tucson","state":"AZ","lat":32.2217,"long":-110.9265},{"zip":"85734","city":"Tucson","state":"AZ","lat":32.0651,"long":-110.9353},{"zip":"85735","city":"Tucson","state":"AZ","lat":32.093,"long":-111.3472},{"zip":"85736","city":"Tucson","state":"AZ","lat":31.9011,"long":-111.3702},{"zip":"85737","city":"Tucson","state":"AZ","lat":32.4142,"long":-110.9466},{"zip":"85738","city":"Catalina","state":"AZ","lat":32.5056,"long":-110.9211},{"zip":"85739","city":"Tucson","state":"AZ","lat":32.465,"long":-110.8922},{"zip":"85740","city":"Tucson","state":"AZ","lat":32.2217,"long":-110.9265},{"zip":"85741","city":"Tucson","state":"AZ","lat":32.3472,"long":-111.0419},{"zip":"85742","city":"Tucson","state":"AZ","lat":32.4076,"long":-111.065},{"zip":"85743","city":"Tucson","state":"AZ","lat":32.3366,"long":-111.1771},{"zip":"85744","city":"Tucson","state":"AZ","lat":32.2217,"long":-110.9265},{"zip":"85745","city":"Tucson","state":"AZ","lat":32.2434,"long":-111.0179},{"zip":"85746","city":"Tucson","state":"AZ","lat":32.1422,"long":-111.0506},{"zip":"85747","city":"Tucson","state":"AZ","lat":32.0984,"long":-110.7272},{"zip":"85748","city":"Tucson","state":"AZ","lat":32.215,"long":-110.7758},{"zip":"85749","city":"Tucson","state":"AZ","lat":32.2733,"long":-110.7658},{"zip":"85750","city":"Tucson","state":"AZ","lat":32.2974,"long":-110.8404},{"zip":"85751","city":"Tucson","state":"AZ","lat":32.2217,"long":-110.9265},{"zip":"85752","city":"Tucson","state":"AZ","lat":32.2217,"long":-110.9265},{"zip":"85754","city":"Tucson","state":"AZ","lat":32.2217,"long":-110.9265},{"zip":"85755","city":"Tucson","state":"AZ","lat":32.2217,"long":-110.9265},{"zip":"85756","city":"Tucson","state":"AZ","lat":32.0839,"long":-110.9004},{"zip":"85757","city":"Tucson","state":"AZ","lat":32.1336,"long":-111.0973},{"zip":"85775","city":"Tucson","state":"AZ","lat":32.2217,"long":-110.9265},{"zip":"85118","city":"Gold Canyon","state":"AZ","lat":33.3284,"long":-111.3502},{"zip":"85119","city":"Apache Junction","state":"AZ","lat":33.4001,"long":-111.5028},{"zip":"85120","city":"Apache Junction","state":"AZ","lat":33.3931,"long":-111.5768},{"zip":"85121","city":"Bapchule","state":"AZ","lat":33.1405,"long":-111.9128},{"zip":"85122","city":"Casa Grande","state":"AZ","lat":32.8905,"long":-111.754},{"zip":"85123","city":"Arizona City","state":"AZ","lat":32.7559,"long":-111.671},{"zip":"85128","city":"Coolidge","state":"AZ","lat":32.9574,"long":-111.5344},{"zip":"85130","city":"Casa Grande","state":"AZ","lat":32.8151,"long":-111.7054},{"zip":"85131","city":"Eloy","state":"AZ","lat":32.7509,"long":-111.5833},{"zip":"85132","city":"Florence","state":"AZ","lat":32.9969,"long":-111.3612},{"zip":"85137","city":"Kearny","state":"AZ","lat":33.0594,"long":-110.9123},{"zip":"85138","city":"Maricopa","state":"AZ","lat":33.0073,"long":-111.9324},{"zip":"85139","city":"Maricopa","state":"AZ","lat":32.9576,"long":-112.0534},{"zip":"85140","city":"San Tan Valley","state":"AZ","lat":33.1911,"long":-111.528},{"zip":"85141","city":"Picacho","state":"AZ","lat":32.6686,"long":-111.4549},{"zip":"85143","city":"San Tan Valley","state":"AZ","lat":33.1911,"long":-111.528},{"zip":"85145","city":"Red Rock","state":"AZ","lat":32.58,"long":-111.341},{"zip":"85147","city":"Sacaton","state":"AZ","lat":33.1234,"long":-111.7384},{"zip":"85172","city":"Stanfield","state":"AZ","lat":32.8823,"long":-111.966},{"zip":"85173","city":"Superior","state":"AZ","lat":33.2887,"long":-111.0985},{"zip":"85193","city":"Casa Grande","state":"AZ","lat":32.8554,"long":-111.7973},{"zip":"85194","city":"Casa Grande","state":"AZ","lat":32.8984,"long":-111.6261},{"zip":"85618","city":"Mammoth","state":"AZ","lat":32.7239,"long":-110.644},{"zip":"85623","city":"Oracle","state":"AZ","lat":32.6005,"long":-110.7961},{"zip":"85631","city":"San Manuel","state":"AZ","lat":32.6209,"long":-110.5992},{"zip":"85658","city":"Marana","state":"AZ","lat":32.4305,"long":-111.1459},{"zip":"85611","city":"Elgin","state":"AZ","lat":31.6598,"long":-110.5254},{"zip":"85621","city":"Nogales","state":"AZ","lat":31.377,"long":-110.9435},{"zip":"85624","city":"Patagonia","state":"AZ","lat":31.5353,"long":-110.6968},{"zip":"85628","city":"Nogales","state":"AZ","lat":31.532,"long":-110.9093},{"zip":"85637","city":"Sonoita","state":"AZ","lat":31.6731,"long":-110.6188},{"zip":"85640","city":"Tumacacori","state":"AZ","lat":31.5696,"long":-111.0534},{"zip":"85645","city":"Amado","state":"AZ","lat":31.6723,"long":-111.0986},{"zip":"85646","city":"Tubac","state":"AZ","lat":31.6126,"long":-111.0459},{"zip":"85648","city":"Rio Rico","state":"AZ","lat":31.5084,"long":-111.0757},{"zip":"85662","city":"Nogales","state":"AZ","lat":31.532,"long":-110.9093},{"zip":"85324","city":"Black Canyon City","state":"AZ","lat":34.0755,"long":-112.134},{"zip":"85332","city":"Congress","state":"AZ","lat":34.1764,"long":-112.768},{"zip":"85362","city":"Yarnell","state":"AZ","lat":34.2508,"long":-112.7567},{"zip":"85333","city":"Dateland","state":"AZ","lat":32.8679,"long":-113.4631},{"zip":"85336","city":"Gadsden","state":"AZ","lat":32.5302,"long":-114.7743},{"zip":"85347","city":"Roll","state":"AZ","lat":32.7517,"long":-113.9891},{"zip":"85349","city":"San Luis","state":"AZ","lat":32.487,"long":-114.7822},{"zip":"85350","city":"Somerton","state":"AZ","lat":32.5634,"long":-114.7127},{"zip":"85352","city":"Tacna","state":"AZ","lat":32.6934,"long":-113.9763},{"zip":"85356","city":"Wellton","state":"AZ","lat":32.6935,"long":-114.1561},{"zip":"85364","city":"Yuma","state":"AZ","lat":32.7015,"long":-114.6424},{"zip":"85365","city":"Yuma","state":"AZ","lat":32.7093,"long":-114.4905},{"zip":"85366","city":"Yuma","state":"AZ","lat":32.61,"long":-114.6312},{"zip":"85367","city":"Yuma","state":"AZ","lat":32.6566,"long":-114.4042},{"zip":"85369","city":"Yuma","state":"AZ","lat":32.7253,"long":-114.6244}]
