[{"zip":"85001","city":"Phoenix","state":"AZ","lat":33.4484,"long":-112.074},{"zip":"85002","city":"Phoenix","state":"AZ","lat":33.4484,"long":-112.074},{"zip":"85003","city":"Phoenix","state":"AZ","lat":33.4511,"long":-112.0774},{"zip":"85004","city":"Phoenix","state":"AZ","lat":33.4557,"long":-112.0686},{"zip":"85005","city":"Phoenix","state":"AZ","lat":33.4484,"long":-112.074},{"zip":"85006","city":"Phoenix","state":"AZ","lat":33.465,"long":-112.0474},{"zip":"85007","city":"Phoenix","state":"AZ","lat":33.4523,"long":-112.0893},{"zip":"85008","city":"Phoenix","state":"AZ","lat":33.4665,"long":-111.9984},{"zip":"85009","city":"Phoenix","state":"AZ","lat":33.4564,"long":-112.1284},{"zip":"85010","city":"Phoenix","state":"AZ","lat":33.4484,"long":-112.074},{"zip":"85011","city":"Phoenix","state":"AZ","lat":33.4484,"long":-112.074},{"zip":"85012","city":"Phoenix","state":"AZ","lat":33.5097,"long":-112.0678},{"zip":"85013","city":"Phoenix","state":"AZ","lat":33.5085,"long":-112.0827},{"zip":"85014","city":"Phoenix","state":"AZ","lat":33.5103,"long":-112.0556},{"zip":"85015","city":"Phoenix","state":"AZ","lat":33.5082,"long":-112.1011},{"zip":"85016","city":"Phoenix","state":"AZ","lat":33.5021,"long":-112.0305},{"zip":"85017","city":"Phoenix","state":"AZ","lat":33.5153,"long":-112.1212},{"zip":"85018","city":"Phoenix","state":"AZ","lat":33.4958,"long":-111.9883},{"zip":"85019","city":"Phoenix","state":"AZ","lat":33.5123,"long":-112.1417},{"zip":"85020","city":"Phoenix","state":"AZ","lat":33.5623,"long":-112.0559},{"zip":"85021","city":"Phoenix","state":"AZ","lat":33.56,"long":-112.0927},{"zip":"85022","city":"Phoenix","state":"AZ","lat":33.6315,"long":-112.052},{"zip":"85023","city":"Phoenix","state":"AZ","lat":33.6324,"long":-112.1118},{"zip":"85024","city":"Phoenix","state":"AZ","lat":33.6617,"long":-112.037},{"zip":"85025","city":"Phoenix","state":"AZ","lat":33.4484,"long":-112.074},{"zip":"85026","city":"Phoenix","state":"AZ","lat":33.4484,"long":-112.074},{"zip":"85027","city":"Phoenix","state":"AZ","lat":33.6819,"long":-112.0996},{"zip":"85028","city":"Phoenix","state":"AZ","lat":33.5851,"long":-112.0087},{"zip":"85029","city":"Phoenix","state":"AZ","lat":33.5961,"long":-112.1199},{"zip":"85030","city":"Phoenix","state":"AZ","lat":33.4484,"long":-112.074},{"zip":"85031","city":"Phoenix","state":"AZ","lat":33.4939,"long":-112.1696},{"zip":"85032","city":"Phoenix","state":"AZ","lat":33.6238,"long":-112.0044},{"zip":"85033","city":"Phoenix","state":"AZ","lat":33.4944,"long":-112.2132},{"zip":"85034","city":"Phoenix","state":"AZ","lat":33.4413,"long":-112.0421},{"zip":"85035","city":"Phoenix","state":"AZ","lat":33.4724,"long":-112.1832},{"zip":"85036","city":"Phoenix","state":"AZ","lat":33.4484,"long":-112.074},{"zip":"85037","city":"Phoenix","state":"AZ","lat":33.4913,"long":-112.2468},{"zip":"85038","city":"Phoenix","state":"AZ","lat":33.4484,"long":-112.074},{"zip":"85039","city":"Phoenix","state":"AZ","lat":33.4484,"long":-112.074},{"zip":"85040","city":"Phoenix","state":"AZ","lat":33.4061,"long":-112.0265},{"zip":"85041","city":"Phoenix","state":"AZ","lat":33.3889,"long":-112.0954},{"zip":"85042","city":"Phoenix","state":"AZ","lat":33.3794,"long":-112.0283},{"zip":"85043","city":"Phoenix","state":"AZ","lat":33.4491,"long":-112.1972},{"zip":"85044","city":"Phoenix","state":"AZ","lat":33.3291,"long":-111.9943},{"zip":"85045","city":"Phoenix","state":"AZ","lat":33.3022,"long":-112.1226},{"zip":"85046","city":"Phoenix","state":"AZ","lat":33.4484,"long":-112.074},{"zip":"85048","city":"Phoenix","state":"AZ","lat":33.316,"long":-112.0669},{"zip":"85050","city":"Phoenix","state":"AZ","lat":33.6863,"long":-111.9963},{"zip":"85051","city":"Phoenix","state":"AZ","lat":33.5591,"long":-112.1332},{"zip":"85053","city":"Phoenix","state":"AZ","lat":33.6299,"long":-112.1316},{"zip":"85054","city":"Phoenix","state":"AZ","lat":33.6731,"long":-111.9461},{"zip":"85060","city":"Phoenix","state":"AZ","lat":33.4484,"long":-112.074},{"zip":"85061","city":"Phoenix","state":"AZ","lat":33.4484,"long":-112.074},{"zip":"85062","city":"Phoenix","state":"AZ","lat":33.4484,"long":-112.074},{"zip":"85063","city":"Phoenix","state":"AZ","lat":33.4484,"long":-112.074},{"zip":"85064","city":"Phoenix","state":"AZ","lat":33.4484,"long":-112.074},{"zip":"85065","city":"Phoenix","state":"AZ","lat":33.4484,"long":-112.074},{"zip":"85066","city":"Phoenix","state":"AZ","lat":33.4484,"long":-112.074},{"zip":"85067","city":"Phoenix","state":"AZ","lat":33.4484,"long":-112.074},{"zip":"85068","city":"Phoenix","state":"AZ","lat":33.4484,"long":-112.074},{"zip":"85069","city":"Phoenix","state":"AZ","lat":33.4484,"long":-112.074},{"zip":"85070","city":"Phoenix","state":"AZ","lat":33.4484,"long":-112.074},{"zip":"85071","city":"Phoenix","state":"AZ","lat":33.4484,"long":-112.074},{"zip":"85072","city":"Phoenix","state":"AZ","lat":33.4484,"long":-112.074},{"zip":"85073","city":"Phoenix","state":"AZ","lat":33.4484,"long":-112.074},{"zip":"85074","city":"Phoenix","state":"AZ","lat":33.4484,"long":-112.074},{"zip":"85075","city":"Phoenix","state":"AZ","lat":33.4484,"long":-112.074},{"zip":"85076","city":"Phoenix","state":"AZ","lat":33.4484,"long":-112.074},{"zip":"85078","city":"Phoenix","state":"AZ","lat":33.4484,"long":-112.074},{"zip":"85079","city":"Phoenix","state":"AZ","lat":33.4484,"long":-112.074},{"zip":"85080","city":"Phoenix","state":"AZ","lat":33.4484,"long":-112.074},{"zip":"85082","city":"Phoenix","state":"AZ","lat":33.4484,"long":-112.074},{"zip":"85083","city":"Phoenix","state":"AZ","lat":33.7352,"long":-112.1294},{"zip":"85085","city":"Phoenix","state":"AZ","lat":33.7529,"long":-112.0893},{"zip":"85086","city":"Phoenix","state":"AZ","lat":33.8155,"long":-112.1202},{"zip":"85087","city":"New River","state":"AZ","lat":33.9235,"long":-112.1279},{"zip":"85097","city":"Phoenix","state":"AZ","lat":33.4484,"long":-112.074},{"zip":"85098","city":"Phoenix","state":"AZ","lat":33.4484,"long":-112.074}]
