[{"zip":"85135","city":"Hayden","state":"AZ","lat":33.0041,"long":-110.7868},{"zip":"85192","city":"Winkelman","state":"AZ","lat":33.0057,"long":-110.7727},{"zip":"85142","city":"Queen Creek","state":"AZ","lat":33.2487,"long":-111.6343},{"zip":"85118","city":"Gold Canyon","state":"AZ","lat":33.3284,"long":-111.3502},{"zip":"85119","city":"Apache Junction","state":"AZ","lat":33.4001,"long":-111.5028},{"zip":"85120","city":"Apache Junction","state":"AZ","lat":33.3931,"long":-111.5768},{"zip":"85121","city":"Bapchule","state":"AZ","lat":33.1405,"long":-111.9128},{"zip":"85122","city":"Casa Grande","state":"AZ","lat":32.8905,"long":-111.754},{"zip":"85123","city":"Arizona City","state":"AZ","lat":32.7559,"long":-111.671},{"zip":"85128","city":"Coolidge","state":"AZ","lat":32.9574,"long":-111.5344},{"zip":"85130","city":"Casa Grande","state":"AZ","lat":32.8151,"long":-111.7054},{"zip":"85131","city":"Eloy","state":"AZ","lat":32.7509,"long":-111.5833},{"zip":"85132","city":"Florence","state":"AZ","lat":32.9969,"long":-111.3612},{"zip":"85137","city":"Kearny","state":"AZ","lat":33.0594,"long":-110.9123},{"zip":"85138","city":"Maricopa","state":"AZ","lat":33.0073,"long":-111.9324},{"zip":"85139","city":"Maricopa","state":"AZ","lat":32.9576,"long":-112.0534},{"zip":"85140","city":"San Tan Valley","state":"AZ","lat":33.1911,"long":-111.528},{"zip":"85141","city":"Picacho","state":"AZ","lat":32.6686,"long":-111.4549},{"zip":"85143","city":"San Tan Valley","state":"AZ","lat":33.1911,"long":-111.528},{"zip":"85145","city":"Red Rock","state":"AZ","lat":32.58,"long":-111.341},{"zip":"85147","city":"Sacaton","state":"AZ","lat":33.1234,"long":-111.7384},{"zip":"85172","city":"Stanfield","state":"AZ","lat":32.8823,"long":-111.966},{"zip":"85173","city":"Superior","state":"AZ","lat":33.2887,"long":-111.0985},{"zip":"85193","city":"Casa Grande","state":"AZ","lat":32.8554,"long":-111.7973},{"zip":"85194","city":"Casa Grande","state":"AZ","lat":32.8984,"long":-111.6261}]
