[{"zip":"85201","city":"Mesa","state":"AZ","lat":33.4317,"long":-111.8469},{"zip":"85202","city":"Mesa","state":"AZ","lat":33.3851,"long":-111.8724},{"zip":"85203","city":"Mesa","state":"AZ","lat":33.437,"long":-111.8057},{"zip":"85204","city":"Mesa","state":"AZ","lat":33.3992,"long":-111.7896},{"zip":"85205","city":"Mesa","state":"AZ","lat":33.4368,"long":-111.7129},{"zip":"85206","city":"Mesa","state":"AZ","lat":33.4026,"long":-111.7242},{"zip":"85207","city":"Mesa","state":"AZ","lat":33.4321,"long":-111.6426},{"zip":"85208","city":"Mesa","state":"AZ","lat":33.3984,"long":-111.6513},{"zip":"85209","city":"Mesa","state":"AZ","lat":33.3782,"long":-111.6406},{"zip":"85210","city":"Mesa","state":"AZ","lat":33.3887,"long":-111.8428},{"zip":"85211","city":"Mesa","state":"AZ","lat":33.4663,"long":-111.8373},{"zip":"85212","city":"Mesa","state":"AZ","lat":33.3425,"long":-111.6353},{"zip":"85213","city":"Mesa","state":"AZ","lat":33.4367,"long":-111.7731},{"zip":"85214","city":"Mesa","state":"AZ","lat":33.4125,"long":-111.8319},{"zip":"85215","city":"Mesa","state":"AZ","lat":33.4707,"long":-111.7188},{"zip":"85216","city":"Mesa","state":"AZ","lat":33.4125,"long":-111.8319},{"zip":"85224","city":"Chandler","state":"AZ","lat":33.3301,"long":-111.8632},{"zip":"85225","city":"Chandler","state":"AZ","lat":33.3105,"long":-111.8239},{"zip":"85226","city":"Chandler","state":"AZ","lat":33.3092,"long":-111.9198},{"zip":"85233","city":"Gilbert","state":"AZ","lat":33.3354,"long":-111.8153},{"zip":"85234","city":"Gilbert","state":"AZ","lat":33.3527,"long":-111.7809},{"zip":"85236","city":"Higley","state":"AZ","lat":33.3024,"long":-111.6969},{"zip":"85244","city":"Chandler","state":"AZ","lat":33.3213,"long":-111.8888},{"zip":"85246","city":"Chandler","state":"AZ","lat":33.3062,"long":-111.8413},{"zip":"85248","city":"Chandler","state":"AZ","lat":33.2509,"long":-111.8593},{"zip":"85249","city":"Chandler","state":"AZ","lat":33.2414,"long":-111.7745},{"zip":"85250","city":"Scottsdale","state":"AZ","lat":33.5218,"long":-111.9049},{"zip":"85251","city":"Scottsdale","state":"AZ","lat":33.4936,"long":-111.9167},{"zip":"85252","city":"Scottsdale","state":"AZ","lat":33.4995,"long":-111.8684},{"zip":"85253","city":"Paradise Valley","state":"AZ","lat":33.5494,"long":-111.9565},{"zip":"85254","city":"Scottsdale","state":"AZ","lat":33.6165,"long":-111.9554},{"zip":"85255","city":"Scottsdale","state":"AZ","lat":33.6968,"long":-111.8892},{"zip":"85256","city":"Scottsdale","state":"AZ","lat":33.4858,"long":-111.8533},{"zip":"85257","city":"Scottsdale","state":"AZ","lat":33.4669,"long":-111.9151},{"zip":"85258","city":"Scottsdale","state":"AZ","lat":33.5647,"long":-111.8931},{"zip":"85259","city":"Scottsdale","state":"AZ","lat":33.5879,"long":-111.8404},{"zip":"85260","city":"Scottsdale","state":"AZ","lat":33.6013,"long":-111.8867},{"zip":"85261","city":"Scottsdale","state":"AZ","lat":33.5092,"long":-111.899},{"zip":"85262","city":"Scottsdale","state":"AZ","lat":33.7752,"long":-111.7791},{"zip":"85263","city":"Rio Verde","state":"AZ","lat":33.7225,"long":-111.6757},{"zip":"85264","city":"Fort Mcdowell","state":"AZ","lat":33.6118,"long":-111.6806},{"zip":"85266","city":"Scottsdale","state":"AZ","lat":33.7669,"long":-111.9182},{"zip":"85267","city":"Scottsdale","state":"AZ","lat":33.5092,"long":-111.899},{"zip":"85268","city":"Fountain Hills","state":"AZ","lat":33.6085,"long":-111.7237},{"zip":"85269","city":"Fountain Hills","state":"AZ","lat":33.6117,"long":-111.7174},{"zip":"85271","city":"Scottsdale","state":"AZ","lat":33.5092,"long":-111.899},{"zip":"85274","city":"Mesa","state":"AZ","lat":33.4125,"long":-111.8319},{"zip":"85275","city":"Mesa","state":"AZ","lat":33.4125,"long":-111.8319},{"zip":"85277","city":"Mesa","state":"AZ","lat":33.4125,"long":-111.8319},{"zip":"85280","city":"Tempe","state":"AZ","lat":33.4014,"long":-111.9313},{"zip":"85281","city":"Tempe","state":"AZ","lat":33.4227,"long":-111.9261},{"zip":"85282","city":"Tempe","state":"AZ","lat":33.3917,"long":-111.9249},{"zip":"85283","city":"Tempe","state":"AZ","lat":33.3665,"long":-111.9312},{"zip":"85284","city":"Tempe","state":"AZ","lat":33.3363,"long":-111.9197},{"zip":"85285","city":"Tempe","state":"AZ","lat":33.4148,"long":-111.9093},{"zip":"85286","city":"Chandler","state":"AZ","lat":33.2711,"long":-111.8311},{"zip":"85287","city":"Tempe","state":"AZ","lat":33.4285,"long":-111.9349},{"zip":"85295","city":"Gilbert","state":"AZ","lat":33.3054,"long":-111.7408},{"zip":"85296","city":"Gilbert","state":"AZ","lat":33.3354,"long":-111.7406},{"zip":"85297","city":"Gilbert","state":"AZ","lat":33.2781,"long":-111.7096},{"zip":"85298","city":"Gilbert","state":"AZ","lat":33.2522,"long":-111.7022},{"zip":"85299","city":"Gilbert","state":"AZ","lat":33.3528,"long":-111.789}]
