[{"zip":"85325","city":"Bouse","state":"AZ","lat":33.9578,"long":-114.0036},{"zip":"85328","city":"Cibola","state":"AZ","lat":33.3164,"long":-114.665},{"zip":"85334","city":"Ehrenberg","state":"AZ","lat":33.6177,"long":-114.5077},{"zip":"85344","city":"Parker","state":"AZ","lat":34.15,"long":-114.2891},{"zip":"85346","city":"Quartzsite","state":"AZ","lat":33.7292,"long":-114.1925},{"zip":"85348","city":"Salome","state":"AZ","lat":33.7481,"long":-113.5715},{"zip":"85357","city":"Wenden","state":"AZ","lat":34.0422,"long":-113.458},{"zip":"85359","city":"Quartzsite","state":"AZ","lat":33.6669,"long":-114.2396},{"zip":"85371","city":"Poston","state":"AZ","lat":33.9906,"long":-114.3963},{"zip":"85301","city":"Glendale","state":"AZ","lat":33.5311,"long":-112.1767},{"zip":"85302","city":"Glendale","state":"AZ","lat":33.5675,"long":-112.1753},{"zip":"85303","city":"Glendale","state":"AZ","lat":33.5262,"long":-112.2149},{"zip":"85304","city":"Glendale","state":"AZ","lat":33.5943,"long":-112.1746},{"zip":"85305","city":"Glendale","state":"AZ","lat":33.5291,"long":-112.2482},{"zip":"85306","city":"Glendale","state":"AZ","lat":33.6239,"long":-112.1776},{"zip":"85307","city":"Glendale","state":"AZ","lat":33.5376,"long":-112.3137},{"zip":"85308","city":"Glendale","state":"AZ","lat":33.6539,"long":-112.1694},{"zip":"85309","city":"Luke Air Force Base","state":"AZ","lat":33.5387,"long":-112.186},{"zip":"85310","city":"Glendale","state":"AZ","lat":33.7047,"long":-112.1641},{"zip":"85311","city":"Glendale","state":"AZ","lat":33.5387,"long":-112.186},{"zip":"85312","city":"Glendale","state":"AZ","lat":33.5387,"long":-112.186},{"zip":"85318","city":"Glendale","state":"AZ","lat":33.5387,"long":-112.186},{"zip":"85320","city":"Aguila","state":"AZ","lat":33.9186,"long":-113.2134},{"zip":"85322","city":"Arlington","state":"AZ","lat":33.3133,"long":-112.7891},{"zip":"85323","city":"Avondale","state":"AZ","lat":33.4321,"long":-112.3438},{"zip":"85326","city":"Buckeye","state":"AZ","lat":33.3703,"long":-112.5838},{"zip":"85327","city":"Cave Creek","state":"AZ","lat":33.8333,"long":-111.9508},{"zip":"85329","city":"Cashion","state":"AZ","lat":33.4353,"long":-112.2979},{"zip":"85331","city":"Cave Creek","state":"AZ","lat":33.8851,"long":-111.9349},{"zip":"85335","city":"El Mirage","state":"AZ","lat":33.6082,"long":-112.3241},{"zip":"85337","city":"Gila Bend","state":"AZ","lat":32.9306,"long":-112.7468},{"zip":"85338","city":"Goodyear","state":"AZ","lat":33.4368,"long":-112.3834},{"zip":"85339","city":"Laveen","state":"AZ","lat":33.3436,"long":-112.1716},{"zip":"85340","city":"Litchfield Park","state":"AZ","lat":33.5098,"long":-112.4135},{"zip":"85342","city":"Morristown","state":"AZ","lat":33.8567,"long":-112.6232},{"zip":"85343","city":"Palo Verde","state":"AZ","lat":33.3481,"long":-112.6774},{"zip":"85345","city":"Peoria","state":"AZ","lat":33.5761,"long":-112.2344},{"zip":"85351","city":"Sun City","state":"AZ","lat":33.6061,"long":-112.2797},{"zip":"85353","city":"Tolleson","state":"AZ","lat":33.4347,"long":-112.2774},{"zip":"85354","city":"Tonopah","state":"AZ","lat":33.4228,"long":-112.9528},{"zip":"85355","city":"Waddell","state":"AZ","lat":33.5673,"long":-112.4387},{"zip":"85358","city":"Wickenburg","state":"AZ","lat":33.9686,"long":-112.7296},{"zip":"85361","city":"Wittmann","state":"AZ","lat":33.7637,"long":-112.6142},{"zip":"85363","city":"Youngtown","state":"AZ","lat":33.5908,"long":-112.3013},{"zip":"85372","city":"Sun City","state":"AZ","lat":33.5975,"long":-112.2718},{"zip":"85373","city":"Sun City","state":"AZ","lat":33.6588,"long":-112.3214},{"zip":"85374","city":"Surprise","state":"AZ","lat":33.63,"long":-112.3314},{"zip":"85375","city":"Sun City West","state":"AZ","lat":33.6856,"long":-112.3659},{"zip":"85376","city":"Sun City West","state":"AZ","lat":33.662,"long":-112.3413},{"zip":"85377","city":"Carefree","state":"AZ","lat":33.824,"long":-111.913},{"zip":"85378","city":"Surprise","state":"AZ","lat":33.6306,"long":-112.3332},{"zip":"85379","city":"Surprise","state":"AZ","lat":33.6021,"long":-112.3736},{"zip":"85380","city":"Peoria","state":"AZ","lat":33.5806,"long":-112.2374},{"zip":"85381","city":"Peoria","state":"AZ","lat":33.6048,"long":-112.2237},{"zip":"85382","city":"Peoria","state":"AZ","lat":33.6308,"long":-112.2072},{"zip":"85383","city":"Peoria","state":"AZ","lat":33.7169,"long":-112.238},{"zip":"85385","city":"Peoria","state":"AZ","lat":33.5806,"long":-112.2374},{"zip":"85387","city":"Surprise","state":"AZ","lat":33.7129,"long":-112.4375},{"zip":"85388","city":"Surprise","state":"AZ","lat":33.6134,"long":-112.4512},{"zip":"85390","city":"Wickenburg","state":"AZ","lat":33.8944,"long":-112.8603},{"zip":"85392","city":"Avondale","state":"AZ","lat":33.4777,"long":-112.3093},{"zip":"85395","city":"Goodyear","state":"AZ","lat":33.479,"long":-112.3947},{"zip":"85396","city":"Buckeye","state":"AZ","lat":33.468,"long":-112.4787},{"zip":"85360","city":"Wikieup","state":"AZ","lat":34.7033,"long":-113.6113},{"zip":"85321","city":"Ajo","state":"AZ","lat":32.2295,"long":-112.6542},{"zip":"85341","city":"Lukeville","state":"AZ","lat":31.8737,"long":-112.7845},{"zip":"85324","city":"Black Canyon City","state":"AZ","lat":34.0755,"long":-112.134},{"zip":"85332","city":"Congress","state":"AZ","lat":34.1764,"long":-112.768},{"zip":"85362","city":"Yarnell","state":"AZ","lat":34.2508,"long":-112.7567},{"zip":"85333","city":"Dateland","state":"AZ","lat":32.8679,"long":-113.4631},{"zip":"85336","city":"Gadsden","state":"AZ","lat":32.5302,"long":-114.7743},{"zip":"85347","city":"Roll","state":"AZ","lat":32.7517,"long":-113.9891},{"zip":"85349","city":"San Luis","state":"AZ","lat":32.487,"long":-114.7822},{"zip":"85350","city":"Somerton","state":"AZ","lat":32.5634,"long":-114.7127},{"zip":"85352","city":"Tacna","state":"AZ","lat":32.6934,"long":-113.9763},{"zip":"85356","city":"Wellton","state":"AZ","lat":32.6935,"long":-114.1561},{"zip":"85364","city":"Yuma","state":"AZ","lat":32.7015,"long":-114.6424},{"zip":"85365","city":"Yuma","state":"AZ","lat":32.7093,"long":-114.4905},{"zip":"85366","city":"Yuma","state":"AZ","lat":32.61,"long":-114.6312},{"zip":"85367","city":"Yuma","state":"AZ","lat":32.6566,"long":-114.4042},{"zip":"85369","city":"Yuma","state":"AZ","lat":32.7253,"long":-114.6244}]
