[{"zip":"85501","city":"Globe","state":"AZ","lat":33.4024,"long":-110.7892},{"zip":"85502","city":"Globe","state":"AZ","lat":33.3942,"long":-110.7865},{"zip":"85532","city":"Claypool","state":"AZ","lat":33.4154,"long":-110.8149},{"zip":"85539","city":"Miami","state":"AZ","lat":33.3992,"long":-110.8687},{"zip":"85541","city":"Payson","state":"AZ","lat":34.2198,"long":-111.2878},{"zip":"85542","city":"Peridot","state":"AZ","lat":33.3103,"long":-110.4554},{"zip":"85544","city":"Pine","state":"AZ","lat":34.3435,"long":-111.5353},{"zip":"85545","city":"Roosevelt","state":"AZ","lat":33.6358,"long":-110.9749},{"zip":"85547","city":"Payson","state":"AZ","lat":34.2575,"long":-111.2878},{"zip":"85550","city":"San Carlos","state":"AZ","lat":33.3456,"long":-110.455},{"zip":"85553","city":"Tonto Basin","state":"AZ","lat":33.8317,"long":-111.2946},{"zip":"85554","city":"Young","state":"AZ","lat":34.1014,"long":-110.9637},{"zip":"85530","city":"Bylas","state":"AZ","lat":33.1265,"long":-110.117},{"zip":"85531","city":"Central","state":"AZ","lat":32.8692,"long":-109.7878},{"zip":"85535","city":"Eden","state":"AZ","lat":32.9751,"long":-109.8974},{"zip":"85536","city":"Fort Thomas","state":"AZ","lat":33.0333,"long":-109.9717},{"zip":"85543","city":"Pima","state":"AZ","lat":32.9097,"long":-109.856},{"zip":"85546","city":"Safford","state":"AZ","lat":32.8295,"long":-109.6266},{"zip":"85548","city":"Safford","state":"AZ","lat":32.797,"long":-109.7522},{"zip":"85551","city":"Solomon","state":"AZ","lat":32.8428,"long":-109.6964},{"zip":"85552","city":"Thatcher","state":"AZ","lat":32.8504,"long":-109.7461},{"zip":"85533","city":"Clifton","state":"AZ","lat":33.1323,"long":-109.2462},{"zip":"85534","city":"Duncan","state":"AZ","lat":32.881,"long":-109.2157},{"zip":"85540","city":"Morenci","state":"AZ","lat":33.0787,"long":-109.3654}]
