[{"zip":"85602","city":"Benson","state":"AZ","lat":31.9883,"long":-110.2941},{"zip":"85603","city":"Bisbee","state":"AZ","lat":31.4086,"long":-109.9117},{"zip":"85605","city":"Bowie","state":"AZ","lat":32.3265,"long":-109.487},{"zip":"85606","city":"Cochise","state":"AZ","lat":32.0979,"long":-109.9239},{"zip":"85607","city":"Douglas","state":"AZ","lat":31.3511,"long":-109.5447},{"zip":"85608","city":"Douglas","state":"AZ","lat":31.4151,"long":-109.596},{"zip":"85609","city":"Dragoon","state":"AZ","lat":32.0281,"long":-110.0387},{"zip":"85610","city":"Elfrida","state":"AZ","lat":31.7139,"long":-109.6193},{"zip":"85613","city":"Fort Huachuca","state":"AZ","lat":31.5587,"long":-110.3441},{"zip":"85615","city":"Hereford","state":"AZ","lat":31.4035,"long":-110.2047},{"zip":"85616","city":"Huachuca City","state":"AZ","lat":31.6639,"long":-110.3334},{"zip":"85617","city":"Mc Neal","state":"AZ","lat":31.5121,"long":-109.8438},{"zip":"85620","city":"Naco","state":"AZ","lat":31.3373,"long":-109.9413},{"zip":"85625","city":"Pearce","state":"AZ","lat":31.8885,"long":-109.6119},{"zip":"85626","city":"Pirtleville","state":"AZ","lat":31.3572,"long":-109.5635},{"zip":"85627","city":"Pomerene","state":"AZ","lat":31.9995,"long":-110.2862},{"zip":"85630","city":"Saint David","state":"AZ","lat":31.8973,"long":-110.2154},{"zip":"85632","city":"San Simon","state":"AZ","lat":32.0423,"long":-109.1748},{"zip":"85635","city":"Sierra Vista","state":"AZ","lat":31.5365,"long":-110.2666},{"zip":"85636","city":"Sierra Vista","state":"AZ","lat":31.6687,"long":-110.2801},{"zip":"85638","city":"Tombstone","state":"AZ","lat":31.7216,"long":-110.0584},{"zip":"85643","city":"Willcox","state":"AZ","lat":32.373,"long":-109.8631},{"zip":"85644","city":"Willcox","state":"AZ","lat":32.2529,"long":-109.832},{"zip":"85650","city":"Sierra Vista","state":"AZ","lat":31.4892,"long":-110.2153},{"zip":"85655","city":"Douglas","state":"AZ","lat":31.3447,"long":-109.5468},{"zip":"85670","city":"Fort Huachuca","state":"AZ","lat":31.8801,"long":-109.7543},{"zip":"85671","city":"Sierra Vista","state":"AZ","lat":31.5545,"long":-110.3037},{"zip":"85601","city":"Arivaca","state":"AZ","lat":31.5885,"long":-111.316},{"zip":"85614","city":"Green Valley","state":"AZ","lat":31.8543,"long":-111.0003},{"zip":"85619","city":"Mount Lemmon","state":"AZ","lat":32.3763,"long":-110.7605},{"zip":"85622","city":"Green Valley","state":"AZ","lat":31.8269,"long":-111.0755},{"zip":"85629","city":"Sahuarita","state":"AZ","lat":31.9452,"long":-111.0002},{"zip":"85633","city":"Sasabe","state":"AZ","lat":31.4887,"long":-111.5421},{"zip":"85634","city":"Sells","state":"AZ","lat":32.0315,"long":-112.0065},{"zip":"85639","city":"Topawa","state":"AZ","lat":31.814,"long":-111.8257},{"zip":"85641","city":"Vail","state":"AZ","lat":32.0027,"long":-110.7053},{"zip":"85652","city":"Cortaro","state":"AZ","lat":32.4201,"long":-111.1132},{"zip":"85653","city":"Marana","state":"AZ","lat":32.4047,"long":-111.2736},{"zip":"85654","city":"Rillito","state":"AZ","lat":32.4148,"long":-111.1562},{"zip":"85618","city":"Mammoth","state":"AZ","lat":32.7239,"long":-110.644},{"zip":"85623","city":"Oracle","state":"AZ","lat":32.6005,"long":-110.7961},{"zip":"85631","city":"San Manuel","state":"AZ","lat":32.6209,"long":-110.5992},{"zip":"85658","city":"Marana","state":"AZ","lat":32.4305,"long":-111.1459},{"zip":"85611","city":"Elgin","state":"AZ","lat":31.6598,"long":-110.5254},{"zip":"85621","city":"Nogales","state":"AZ","lat":31.377,"long":-110.9435},{"zip":"85624","city":"Patagonia","state":"AZ","lat":31.5353,"long":-110.6968},{"zip":"85628","city":"Nogales","state":"AZ","lat":31.532,"long":-110.9093},{"zip":"85637","city":"Sonoita","state":"AZ","lat":31.6731,"long":-110.6188},{"zip":"85640","city":"Tumacacori","state":"AZ","lat":31.5696,"long":-111.0534},{"zip":"85645","city":"Amado","state":"AZ","lat":31.6723,"long":-111.0986},{"zip":"85646","city":"Tubac","state":"AZ","lat":31.6126,"long":-111.0459},{"zip":"85648","city":"Rio Rico","state":"AZ","lat":31.5084,"long":-111.0757},{"zip":"85662","city":"Nogales","state":"AZ","lat":31.532,"long":-110.9093}]
