[{"zip":"85701","city":"Tucson","state":"AZ","lat":32.2139,"long":-110.9694},{"zip":"85702","city":"Tucson","state":"AZ","lat":32.2217,"long":-110.9265},{"zip":"85703","city":"Tucson","state":"AZ","lat":32.2217,"long":-110.9265},{"zip":"85704","city":"Tucson","state":"AZ","lat":32.3379,"long":-110.9855},{"zip":"85705","city":"Tucson","state":"AZ","lat":32.2691,"long":-110.9845},{"zip":"85706","city":"Tucson","state":"AZ","lat":32.1392,"long":-110.9451},{"zip":"85707","city":"Tucson","state":"AZ","lat":32.1696,"long":-110.8751},{"zip":"85708","city":"Tucson","state":"AZ","lat":32.18,"long":-110.8693},{"zip":"85709","city":"Tucson","state":"AZ","lat":32.2008,"long":-110.898},{"zip":"85710","city":"Tucson","state":"AZ","lat":32.2138,"long":-110.824},{"zip":"85711","city":"Tucson","state":"AZ","lat":32.2127,"long":-110.8829},{"zip":"85712","city":"Tucson","state":"AZ","lat":32.25,"long":-110.8869},{"zip":"85713","city":"Tucson","state":"AZ","lat":32.1941,"long":-110.9739},{"zip":"85714","city":"Tucson","state":"AZ","lat":32.1707,"long":-110.9719},{"zip":"85715","city":"Tucson","state":"AZ","lat":32.2519,"long":-110.82},{"zip":"85716","city":"Tucson","state":"AZ","lat":32.2468,"long":-110.9222},{"zip":"85717","city":"Tucson","state":"AZ","lat":32.2217,"long":-110.9265},{"zip":"85718","city":"Tucson","state":"AZ","lat":32.3112,"long":-110.9179},{"zip":"85719","city":"Tucson","state":"AZ","lat":32.2474,"long":-110.9491},{"zip":"85720","city":"Tucson","state":"AZ","lat":32.2217,"long":-110.9265},{"zip":"85721","city":"Tucson","state":"AZ","lat":32.2338,"long":-110.95},{"zip":"85722","city":"Tucson","state":"AZ","lat":32.2217,"long":-110.9265},{"zip":"85723","city":"Tucson","state":"AZ","lat":32.2217,"long":-110.9265},{"zip":"85724","city":"Tucson","state":"AZ","lat":32.2406,"long":-110.9443},{"zip":"85725","city":"Tucson","state":"AZ","lat":32.2217,"long":-110.9265},{"zip":"85726","city":"Tucson","state":"AZ","lat":32.2027,"long":-110.9453},{"zip":"85728","city":"Tucson","state":"AZ","lat":32.2217,"long":-110.9265},{"zip":"85730","city":"Tucson","state":"AZ","lat":32.181,"long":-110.819},{"zip":"85731","city":"Tucson","state":"AZ","lat":32.2217,"long":-110.9265},{"zip":"85732","city":"Tucson","state":"AZ","lat":32.2217,"long":-110.9265},{"zip":"85733","city":"Tucson","state":"AZ","lat":32.2217,"long":-110.9265},{"zip":"85734","city":"Tucson","state":"AZ","lat":32.0651,"long":-110.9353},{"zip":"85735","city":"Tucson","state":"AZ","lat":32.093,"long":-111.3472},{"zip":"85736","city":"Tucson","state":"AZ","lat":31.9011,"long":-111.3702},{"zip":"85737","city":"Tucson","state":"AZ","lat":32.4142,"long":-110.9466},{"zip":"85738","city":"Catalina","state":"AZ","lat":32.5056,"long":-110.9211},{"zip":"85739","city":"Tucson","state":"AZ","lat":32.465,"long":-110.8922},{"zip":"85740","city":"Tucson","state":"AZ","lat":32.2217,"long":-110.9265},{"zip":"85741","city":"Tucson","state":"AZ","lat":32.3472,"long":-111.0419},{"zip":"85742","city":"Tucson","state":"AZ","lat":32.4076,"long":-111.065},{"zip":"85743","city":"Tucson","state":"AZ","lat":32.3366,"long":-111.1771},{"zip":"85744","city":"Tucson","state":"AZ","lat":32.2217,"long":-110.9265},{"zip":"85745","city":"Tucson","state":"AZ","lat":32.2434,"long":-111.0179},{"zip":"85746","city":"Tucson","state":"AZ","lat":32.1422,"long":-111.0506},{"zip":"85747","city":"Tucson","state":"AZ","lat":32.0984,"long":-110.7272},{"zip":"85748","city":"Tucson","state":"AZ","lat":32.215,"long":-110.7758},{"zip":"85749","city":"Tucson","state":"AZ","lat":32.2733,"long":-110.7658},{"zip":"85750","city":"Tucson","state":"AZ","lat":32.2974,"long":-110.8404},{"zip":"85751","city":"Tucson","state":"AZ","lat":32.2217,"long":-110.9265},{"zip":"85752","city":"Tucson","state":"AZ","lat":32.2217,"long":-110.9265},{"zip":"85754","city":"Tucson","state":"AZ","lat":32.2217,"long":-110.9265},{"zip":"85755","city":"Tucson","state":"AZ","lat":32.2217,"long":-110.9265},{"zip":"85756","city":"Tucson","state":"AZ","lat":32.0839,"long":-110.9004},{"zip":"85757","city":"Tucson","state":"AZ","lat":32.1336,"long":-111.0973},{"zip":"85775","city":"Tucson","state":"AZ","lat":32.2217,"long":-110.9265}]
