[{"zip":"85920","city":"Alpine","state":"AZ","lat":33.8279,"long":-109.1283},{"zip":"85924","city":"Concho","state":"AZ","lat":34.4458,"long":-109.6741},{"zip":"85925","city":"Eagar","state":"AZ","lat":34.1077,"long":-109.294},{"zip":"85927","city":"Greer","state":"AZ","lat":34.0052,"long":-109.4664},{"zip":"85930","city":"Mcnary","state":"AZ","lat":34.0754,"long":-109.8532},{"zip":"85932","city":"Nutrioso","state":"AZ","lat":33.9531,"long":-109.2092},{"zip":"85936","city":"Saint Johns","state":"AZ","lat":34.501,"long":-109.3796},{"zip":"85938","city":"Springerville","state":"AZ","lat":34.1702,"long":-109.3315},{"zip":"85940","city":"Vernon","state":"AZ","lat":34.2575,"long":-109.6929},{"zip":"85931","city":"Forest Lakes","state":"AZ","lat":34.4513,"long":-110.8644},{"zip":"85922","city":"Blue","state":"AZ","lat":33.6512,"long":-109.0685},{"zip":"85901","city":"Show Low","state":"AZ","lat":34.2998,"long":-110},{"zip":"85902","city":"Show Low","state":"AZ","lat":34.2981,"long":-110.0352},{"zip":"85911","city":"Cibecue","state":"AZ","lat":34.0448,"long":-110.4854},{"zip":"85912","city":"White Mountain Lake","state":"AZ","lat":34.2666,"long":-110.2031},{"zip":"85923","city":"Clay Springs","state":"AZ","lat":34.3617,"long":-110.2954},{"zip":"85926","city":"Fort Apache","state":"AZ","lat":33.7906,"long":-109.9887},{"zip":"85928","city":"Heber","state":"AZ","lat":34.41,"long":-110.5883},{"zip":"85929","city":"Lakeside","state":"AZ","lat":34.1662,"long":-109.9869},{"zip":"85933","city":"Overgaard","state":"AZ","lat":34.4086,"long":-110.56},{"zip":"85934","city":"Pinedale","state":"AZ","lat":34.3003,"long":-110.2457},{"zip":"85935","city":"Pinetop","state":"AZ","lat":34.1175,"long":-109.9197},{"zip":"85937","city":"Snowflake","state":"AZ","lat":34.4959,"long":-110.0807},{"zip":"85939","city":"Taylor","state":"AZ","lat":34.439,"long":-110.0858},{"zip":"85941","city":"Whiteriver","state":"AZ","lat":33.8021,"long":-109.9937},{"zip":"85942","city":"Woodruff","state":"AZ","lat":34.6475,"long":-110.0806}]
