[{"zip":"86028","city":"Petrified Forest Natl Pk","state":"AZ","lat":35.2375,"long":-109.5229},{"zip":"86502","city":"Chambers","state":"AZ","lat":35.2375,"long":-109.5229},{"zip":"86503","city":"Chinle","state":"AZ","lat":36.1304,"long":-109.6037},{"zip":"86504","city":"Fort Defiance","state":"AZ","lat":35.7445,"long":-109.0765},{"zip":"86505","city":"Ganado","state":"AZ","lat":35.7114,"long":-109.542},{"zip":"86506","city":"Houck","state":"AZ","lat":35.2831,"long":-109.207},{"zip":"86507","city":"Lukachukai","state":"AZ","lat":36.4181,"long":-109.2446},{"zip":"86508","city":"Lupton","state":"AZ","lat":35.3539,"long":-109.0537},{"zip":"86511","city":"Saint Michaels","state":"AZ","lat":35.6447,"long":-109.0956},{"zip":"86512","city":"Sanders","state":"AZ","lat":35.2164,"long":-109.3337},{"zip":"86514","city":"Teec Nos Pos","state":"AZ","lat":36.7797,"long":-109.359},{"zip":"86515","city":"Window Rock","state":"AZ","lat":35.6676,"long":-109.0784},{"zip":"86535","city":"Dennehotso","state":"AZ","lat":36.7773,"long":-109.861},{"zip":"86538","city":"Many Farms","state":"AZ","lat":36.4083,"long":-109.634},{"zip":"86540","city":"Nazlini","state":"AZ","lat":35.8964,"long":-109.4487},{"zip":"86544","city":"Red Valley","state":"AZ","lat":35.2375,"long":-109.5229},{"zip":"86545","city":"Rock Point","state":"AZ","lat":36.7181,"long":-109.6259},{"zip":"86547","city":"Round Rock","state":"AZ","lat":36.5131,"long":-109.4734},{"zip":"86556","city":"Tsaile","state":"AZ","lat":36.3071,"long":-109.2176},{"zip":"86001","city":"Flagstaff","state":"AZ","lat":35.1859,"long":-111.662},{"zip":"86002","city":"Flagstaff","state":"AZ","lat":35.1981,"long":-111.6513},{"zip":"86003","city":"Flagstaff","state":"AZ","lat":35.1981,"long":-111.6513},{"zip":"86004","city":"Flagstaff","state":"AZ","lat":35.2257,"long":-111.5741},{"zip":"86005","city":"Flagstaff","state":"AZ","lat":35.1545,"long":-111.6789},{"zip":"86011","city":"Flagstaff","state":"AZ","lat":35.1981,"long":-111.6513},{"zip":"86015","city":"Bellemont","state":"AZ","lat":35.2381,"long":-111.8335},{"zip":"86016","city":"Gray Mountain","state":"AZ","lat":35.7504,"long":-111.6188},{"zip":"86017","city":"Munds Park","state":"AZ","lat":34.9412,"long":-111.641},{"zip":"86018","city":"Parks","state":"AZ","lat":35.2563,"long":-111.95},{"zip":"86020","city":"Cameron","state":"AZ","lat":35.9922,"long":-111.5038},{"zip":"86022","city":"Fredonia","state":"AZ","lat":36.9044,"long":-112.4979},{"zip":"86023","city":"Grand Canyon","state":"AZ","lat":35.9421,"long":-112.1309},{"zip":"86024","city":"Happy Jack","state":"AZ","lat":34.6616,"long":-111.3404},{"zip":"86035","city":"Leupp","state":"AZ","lat":35.3365,"long":-110.9927},{"zip":"86036","city":"Marble Canyon","state":"AZ","lat":36.737,"long":-111.8229},{"zip":"86038","city":"Mormon Lake","state":"AZ","lat":34.9083,"long":-111.463},{"zip":"86040","city":"Page","state":"AZ","lat":36.9147,"long":-111.4558},{"zip":"86044","city":"Tonalea","state":"AZ","lat":36.7093,"long":-110.8411},{"zip":"86045","city":"Tuba City","state":"AZ","lat":36.1037,"long":-111.2686},{"zip":"86046","city":"Williams","state":"AZ","lat":35.5434,"long":-112.1707},{"zip":"86052","city":"North Rim","state":"AZ","lat":36.2105,"long":-112.0613},{"zip":"86053","city":"Kaibeto","state":"AZ","lat":36.4025,"long":-111.3518},{"zip":"86336","city":"Sedona","state":"AZ","lat":34.8266,"long":-111.7506},{"zip":"86339","city":"Sedona","state":"AZ","lat":34.8697,"long":-111.761},{"zip":"86351","city":"Sedona","state":"AZ","lat":34.7784,"long":-111.7851},{"zip":"86435","city":"Supai","state":"AZ","lat":36.2242,"long":-112.6932},{"zip":"86021","city":"Colorado City","state":"AZ","lat":36.9903,"long":-112.9758},{"zip":"86401","city":"Kingman","state":"AZ","lat":35.1328,"long":-113.7033},{"zip":"86402","city":"Kingman","state":"AZ","lat":35.2632,"long":-114.0637},{"zip":"86403","city":"Lake Havasu City","state":"AZ","lat":34.4814,"long":-114.3483},{"zip":"86404","city":"Lake Havasu City","state":"AZ","lat":34.5575,"long":-114.3307},{"zip":"86405","city":"Lake Havasu City","state":"AZ","lat":34.4839,"long":-114.3225},{"zip":"86406","city":"Lake Havasu City","state":"AZ","lat":34.4228,"long":-114.125},{"zip":"86409","city":"Kingman","state":"AZ","lat":35.2633,"long":-114.0223},{"zip":"86411","city":"Hackberry","state":"AZ","lat":35.3692,"long":-113.7272},{"zip":"86412","city":"Hualapai","state":"AZ","lat":35.3972,"long":-113.8432},{"zip":"86413","city":"Golden Valley","state":"AZ","lat":35.3002,"long":-114.2215},{"zip":"86426","city":"Fort Mohave","state":"AZ","lat":35.0052,"long":-114.5687},{"zip":"86427","city":"Fort Mohave","state":"AZ","lat":35.0043,"long":-114.5812},{"zip":"86429","city":"Bullhead City","state":"AZ","lat":35.1715,"long":-114.5386},{"zip":"86430","city":"Bullhead City","state":"AZ","lat":35.1473,"long":-114.5433},{"zip":"86431","city":"Chloride","state":"AZ","lat":35.3896,"long":-114.2221},{"zip":"86432","city":"Littlefield","state":"AZ","lat":36.8872,"long":-113.9297},{"zip":"86433","city":"Oatman","state":"AZ","lat":35.0285,"long":-114.3837},{"zip":"86434","city":"Peach Springs","state":"AZ","lat":35.5378,"long":-113.4202},{"zip":"86436","city":"Topock","state":"AZ","lat":34.7784,"long":-114.4817},{"zip":"86437","city":"Valentine","state":"AZ","lat":35.3788,"long":-113.6141},{"zip":"86438","city":"Yucca","state":"AZ","lat":34.8722,"long":-114.1494},{"zip":"86439","city":"Bullhead City","state":"AZ","lat":35.1478,"long":-114.5683},{"zip":"86440","city":"Mohave Valley","state":"AZ","lat":34.8929,"long":-114.5951},{"zip":"86441","city":"Dolan Springs","state":"AZ","lat":35.5692,"long":-114.3777},{"zip":"86442","city":"Bullhead City","state":"AZ","lat":35.106,"long":-114.5947},{"zip":"86443","city":"Temple Bar Marina","state":"AZ","lat":35.2106,"long":-114.1792},{"zip":"86444","city":"Meadview","state":"AZ","lat":35.9822,"long":-114.0775},{"zip":"86445","city":"Willow Beach","state":"AZ","lat":35.7759,"long":-114.5001},{"zip":"86446","city":"Mohave Valley","state":"AZ","lat":34.8499,"long":-114.5917},{"zip":"86025","city":"Holbrook","state":"AZ","lat":34.9085,"long":-110.1434},{"zip":"86029","city":"Sun Valley","state":"AZ","lat":34.9806,"long":-110.0582},{"zip":"86030","city":"Hotevilla","state":"AZ","lat":35.9278,"long":-110.6729},{"zip":"86031","city":"Indian Wells","state":"AZ","lat":35.4056,"long":-110.0848},{"zip":"86032","city":"Joseph City","state":"AZ","lat":34.9814,"long":-110.3373},{"zip":"86033","city":"Kayenta","state":"AZ","lat":36.6883,"long":-110.2652},{"zip":"86034","city":"Keams Canyon","state":"AZ","lat":35.8082,"long":-110.2845},{"zip":"86039","city":"Kykotsmovi Village","state":"AZ","lat":35.8742,"long":-110.6235},{"zip":"86042","city":"Polacca","state":"AZ","lat":35.8617,"long":-110.3875},{"zip":"86043","city":"Second Mesa","state":"AZ","lat":35.7933,"long":-110.5051},{"zip":"86047","city":"Winslow","state":"AZ","lat":35.0242,"long":-110.6974},{"zip":"86054","city":"Shonto","state":"AZ","lat":36.6159,"long":-110.6477},{"zip":"86510","city":"Pinon","state":"AZ","lat":36.1002,"long":-110.2211},{"zip":"86520","city":"Blue Gap","state":"AZ","lat":36.1708,"long":-109.9465},{"zip":"86301","city":"Prescott","state":"AZ","lat":34.5917,"long":-112.4265},{"zip":"86302","city":"Prescott","state":"AZ","lat":34.5749,"long":-112.4915},{"zip":"86303","city":"Prescott","state":"AZ","lat":34.4958,"long":-112.3783},{"zip":"86304","city":"Prescott","state":"AZ","lat":34.5967,"long":-112.4907},{"zip":"86305","city":"Prescott","state":"AZ","lat":34.8185,"long":-112.9584},{"zip":"86312","city":"Prescott Valley","state":"AZ","lat":34.6683,"long":-112.3078},{"zip":"86313","city":"Prescott","state":"AZ","lat":34.7067,"long":-112.3977},{"zip":"86314","city":"Prescott Valley","state":"AZ","lat":34.6019,"long":-112.3264},{"zip":"86315","city":"Prescott Valley","state":"AZ","lat":34.7055,"long":-112.2639},{"zip":"86320","city":"Ash Fork","state":"AZ","lat":35.215,"long":-112.5027},{"zip":"86321","city":"Bagdad","state":"AZ","lat":34.5785,"long":-113.1755},{"zip":"86322","city":"Camp Verde","state":"AZ","lat":34.5697,"long":-111.8551},{"zip":"86323","city":"Chino Valley","state":"AZ","lat":34.7757,"long":-112.4731},{"zip":"86324","city":"Clarkdale","state":"AZ","lat":34.7711,"long":-112.0579},{"zip":"86325","city":"Cornville","state":"AZ","lat":34.7256,"long":-111.9086},{"zip":"86326","city":"Cottonwood","state":"AZ","lat":34.7055,"long":-112.0091},{"zip":"86327","city":"Dewey","state":"AZ","lat":34.5368,"long":-112.2567},{"zip":"86329","city":"Humboldt","state":"AZ","lat":34.5009,"long":-112.2374},{"zip":"86331","city":"Jerome","state":"AZ","lat":34.7486,"long":-112.1086},{"zip":"86332","city":"Kirkland","state":"AZ","lat":34.4541,"long":-112.8966},{"zip":"86333","city":"Mayer","state":"AZ","lat":34.3655,"long":-112.1296},{"zip":"86334","city":"Paulden","state":"AZ","lat":35.0313,"long":-112.5441},{"zip":"86335","city":"Rimrock","state":"AZ","lat":34.638,"long":-111.7842},{"zip":"86337","city":"Seligman","state":"AZ","lat":35.3212,"long":-112.9548},{"zip":"86338","city":"Skull Valley","state":"AZ","lat":34.5053,"long":-112.6855},{"zip":"86340","city":"Sedona","state":"AZ","lat":34.7067,"long":-112.3977},{"zip":"86341","city":"Sedona","state":"AZ","lat":34.7766,"long":-111.7679},{"zip":"86342","city":"Lake Montezuma","state":"AZ","lat":34.6417,"long":-111.7872},{"zip":"86343","city":"Crown King","state":"AZ","lat":34.2241,"long":-112.334}]
