[{"zip":"86028","city":"Petrified Forest Natl Pk","state":"AZ","lat":35.2375,"long":-109.5229},{"zip":"86001","city":"Flagstaff","state":"AZ","lat":35.1859,"long":-111.662},{"zip":"86002","city":"Flagstaff","state":"AZ","lat":35.1981,"long":-111.6513},{"zip":"86003","city":"Flagstaff","state":"AZ","lat":35.1981,"long":-111.6513},{"zip":"86004","city":"Flagstaff","state":"AZ","lat":35.2257,"long":-111.5741},{"zip":"86005","city":"Flagstaff","state":"AZ","lat":35.1545,"long":-111.6789},{"zip":"86011","city":"Flagstaff","state":"AZ","lat":35.1981,"long":-111.6513},{"zip":"86015","city":"Bellemont","state":"AZ","lat":35.2381,"long":-111.8335},{"zip":"86016","city":"Gray Mountain","state":"AZ","lat":35.7504,"long":-111.6188},{"zip":"86017","city":"Munds Park","state":"AZ","lat":34.9412,"long":-111.641},{"zip":"86018","city":"Parks","state":"AZ","lat":35.2563,"long":-111.95},{"zip":"86020","city":"Cameron","state":"AZ","lat":35.9922,"long":-111.5038},{"zip":"86022","city":"Fredonia","state":"AZ","lat":36.9044,"long":-112.4979},{"zip":"86023","city":"Grand Canyon","state":"AZ","lat":35.9421,"long":-112.1309},{"zip":"86024","city":"Happy Jack","state":"AZ","lat":34.6616,"long":-111.3404},{"zip":"86035","city":"Leupp","state":"AZ","lat":35.3365,"long":-110.9927},{"zip":"86036","city":"Marble Canyon","state":"AZ","lat":36.737,"long":-111.8229},{"zip":"86038","city":"Mormon Lake","state":"AZ","lat":34.9083,"long":-111.463},{"zip":"86040","city":"Page","state":"AZ","lat":36.9147,"long":-111.4558},{"zip":"86044","city":"Tonalea","state":"AZ","lat":36.7093,"long":-110.8411},{"zip":"86045","city":"Tuba City","state":"AZ","lat":36.1037,"long":-111.2686},{"zip":"86046","city":"Williams","state":"AZ","lat":35.5434,"long":-112.1707},{"zip":"86052","city":"North Rim","state":"AZ","lat":36.2105,"long":-112.0613},{"zip":"86053","city":"Kaibeto","state":"AZ","lat":36.4025,"long":-111.3518},{"zip":"86021","city":"Colorado City","state":"AZ","lat":36.9903,"long":-112.9758},{"zip":"86025","city":"Holbrook","state":"AZ","lat":34.9085,"long":-110.1434},{"zip":"86029","city":"Sun Valley","state":"AZ","lat":34.9806,"long":-110.0582},{"zip":"86030","city":"Hotevilla","state":"AZ","lat":35.9278,"long":-110.6729},{"zip":"86031","city":"Indian Wells","state":"AZ","lat":35.4056,"long":-110.0848},{"zip":"86032","city":"Joseph City","state":"AZ","lat":34.9814,"long":-110.3373},{"zip":"86033","city":"Kayenta","state":"AZ","lat":36.6883,"long":-110.2652},{"zip":"86034","city":"Keams Canyon","state":"AZ","lat":35.8082,"long":-110.2845},{"zip":"86039","city":"Kykotsmovi Village","state":"AZ","lat":35.8742,"long":-110.6235},{"zip":"86042","city":"Polacca","state":"AZ","lat":35.8617,"long":-110.3875},{"zip":"86043","city":"Second Mesa","state":"AZ","lat":35.7933,"long":-110.5051},{"zip":"86047","city":"Winslow","state":"AZ","lat":35.0242,"long":-110.6974},{"zip":"86054","city":"Shonto","state":"AZ","lat":36.6159,"long":-110.6477}]
