[{"zip":"86336","city":"Sedona","state":"AZ","lat":34.8266,"long":-111.7506},{"zip":"86339","city":"Sedona","state":"AZ","lat":34.8697,"long":-111.761},{"zip":"86351","city":"Sedona","state":"AZ","lat":34.7784,"long":-111.7851},{"zip":"86301","city":"Prescott","state":"AZ","lat":34.5917,"long":-112.4265},{"zip":"86302","city":"Prescott","state":"AZ","lat":34.5749,"long":-112.4915},{"zip":"86303","city":"Prescott","state":"AZ","lat":34.4958,"long":-112.3783},{"zip":"86304","city":"Prescott","state":"AZ","lat":34.5967,"long":-112.4907},{"zip":"86305","city":"Prescott","state":"AZ","lat":34.8185,"long":-112.9584},{"zip":"86312","city":"Prescott Valley","state":"AZ","lat":34.6683,"long":-112.3078},{"zip":"86313","city":"Prescott","state":"AZ","lat":34.7067,"long":-112.3977},{"zip":"86314","city":"Prescott Valley","state":"AZ","lat":34.6019,"long":-112.3264},{"zip":"86315","city":"Prescott Valley","state":"AZ","lat":34.7055,"long":-112.2639},{"zip":"86320","city":"Ash Fork","state":"AZ","lat":35.215,"long":-112.5027},{"zip":"86321","city":"Bagdad","state":"AZ","lat":34.5785,"long":-113.1755},{"zip":"86322","city":"Camp Verde","state":"AZ","lat":34.5697,"long":-111.8551},{"zip":"86323","city":"Chino Valley","state":"AZ","lat":34.7757,"long":-112.4731},{"zip":"86324","city":"Clarkdale","state":"AZ","lat":34.7711,"long":-112.0579},{"zip":"86325","city":"Cornville","state":"AZ","lat":34.7256,"long":-111.9086},{"zip":"86326","city":"Cottonwood","state":"AZ","lat":34.7055,"long":-112.0091},{"zip":"86327","city":"Dewey","state":"AZ","lat":34.5368,"long":-112.2567},{"zip":"86329","city":"Humboldt","state":"AZ","lat":34.5009,"long":-112.2374},{"zip":"86331","city":"Jerome","state":"AZ","lat":34.7486,"long":-112.1086},{"zip":"86332","city":"Kirkland","state":"AZ","lat":34.4541,"long":-112.8966},{"zip":"86333","city":"Mayer","state":"AZ","lat":34.3655,"long":-112.1296},{"zip":"86334","city":"Paulden","state":"AZ","lat":35.0313,"long":-112.5441},{"zip":"86335","city":"Rimrock","state":"AZ","lat":34.638,"long":-111.7842},{"zip":"86337","city":"Seligman","state":"AZ","lat":35.3212,"long":-112.9548},{"zip":"86338","city":"Skull Valley","state":"AZ","lat":34.5053,"long":-112.6855},{"zip":"86340","city":"Sedona","state":"AZ","lat":34.7067,"long":-112.3977},{"zip":"86341","city":"Sedona","state":"AZ","lat":34.7766,"long":-111.7679},{"zip":"86342","city":"Lake Montezuma","state":"AZ","lat":34.6417,"long":-111.7872},{"zip":"86343","city":"Crown King","state":"AZ","lat":34.2241,"long":-112.334}]
