[{"zip":"86435","city":"Supai","state":"AZ","lat":36.2242,"long":-112.6932},{"zip":"86401","city":"Kingman","state":"AZ","lat":35.1328,"long":-113.7033},{"zip":"86402","city":"Kingman","state":"AZ","lat":35.2632,"long":-114.0637},{"zip":"86403","city":"Lake Havasu City","state":"AZ","lat":34.4814,"long":-114.3483},{"zip":"86404","city":"Lake Havasu City","state":"AZ","lat":34.5575,"long":-114.3307},{"zip":"86405","city":"Lake Havasu City","state":"AZ","lat":34.4839,"long":-114.3225},{"zip":"86406","city":"Lake Havasu City","state":"AZ","lat":34.4228,"long":-114.125},{"zip":"86409","city":"Kingman","state":"AZ","lat":35.2633,"long":-114.0223},{"zip":"86411","city":"Hackberry","state":"AZ","lat":35.3692,"long":-113.7272},{"zip":"86412","city":"Hualapai","state":"AZ","lat":35.3972,"long":-113.8432},{"zip":"86413","city":"Golden Valley","state":"AZ","lat":35.3002,"long":-114.2215},{"zip":"86426","city":"Fort Mohave","state":"AZ","lat":35.0052,"long":-114.5687},{"zip":"86427","city":"Fort Mohave","state":"AZ","lat":35.0043,"long":-114.5812},{"zip":"86429","city":"Bullhead City","state":"AZ","lat":35.1715,"long":-114.5386},{"zip":"86430","city":"Bullhead City","state":"AZ","lat":35.1473,"long":-114.5433},{"zip":"86431","city":"Chloride","state":"AZ","lat":35.3896,"long":-114.2221},{"zip":"86432","city":"Littlefield","state":"AZ","lat":36.8872,"long":-113.9297},{"zip":"86433","city":"Oatman","state":"AZ","lat":35.0285,"long":-114.3837},{"zip":"86434","city":"Peach Springs","state":"AZ","lat":35.5378,"long":-113.4202},{"zip":"86436","city":"Topock","state":"AZ","lat":34.7784,"long":-114.4817},{"zip":"86437","city":"Valentine","state":"AZ","lat":35.3788,"long":-113.6141},{"zip":"86438","city":"Yucca","state":"AZ","lat":34.8722,"long":-114.1494},{"zip":"86439","city":"Bullhead City","state":"AZ","lat":35.1478,"long":-114.5683},{"zip":"86440","city":"Mohave Valley","state":"AZ","lat":34.8929,"long":-114.5951},{"zip":"86441","city":"Dolan Springs","state":"AZ","lat":35.5692,"long":-114.3777},{"zip":"86442","city":"Bullhead City","state":"AZ","lat":35.106,"long":-114.5947},{"zip":"86443","city":"Temple Bar Marina","state":"AZ","lat":35.2106,"long":-114.1792},{"zip":"86444","city":"Meadview","state":"AZ","lat":35.9822,"long":-114.0775},{"zip":"86445","city":"Willow Beach","state":"AZ","lat":35.7759,"long":-114.5001},{"zip":"86446","city":"Mohave Valley","state":"AZ","lat":34.8499,"long":-114.5917}]
