[{"zip":"86502","city":"Chambers","state":"AZ","lat":35.2375,"long":-109.5229},{"zip":"86503","city":"Chinle","state":"AZ","lat":36.1304,"long":-109.6037},{"zip":"86504","city":"Fort Defiance","state":"AZ","lat":35.7445,"long":-109.0765},{"zip":"86505","city":"Ganado","state":"AZ","lat":35.7114,"long":-109.542},{"zip":"86506","city":"Houck","state":"AZ","lat":35.2831,"long":-109.207},{"zip":"86507","city":"Lukachukai","state":"AZ","lat":36.4181,"long":-109.2446},{"zip":"86508","city":"Lupton","state":"AZ","lat":35.3539,"long":-109.0537},{"zip":"86511","city":"Saint Michaels","state":"AZ","lat":35.6447,"long":-109.0956},{"zip":"86512","city":"Sanders","state":"AZ","lat":35.2164,"long":-109.3337},{"zip":"86514","city":"Teec Nos Pos","state":"AZ","lat":36.7797,"long":-109.359},{"zip":"86515","city":"Window Rock","state":"AZ","lat":35.6676,"long":-109.0784},{"zip":"86535","city":"Dennehotso","state":"AZ","lat":36.7773,"long":-109.861},{"zip":"86538","city":"Many Farms","state":"AZ","lat":36.4083,"long":-109.634},{"zip":"86540","city":"Nazlini","state":"AZ","lat":35.8964,"long":-109.4487},{"zip":"86544","city":"Red Valley","state":"AZ","lat":35.2375,"long":-109.5229},{"zip":"86545","city":"Rock Point","state":"AZ","lat":36.7181,"long":-109.6259},{"zip":"86547","city":"Round Rock","state":"AZ","lat":36.5131,"long":-109.4734},{"zip":"86556","city":"Tsaile","state":"AZ","lat":36.3071,"long":-109.2176},{"zip":"86510","city":"Pinon","state":"AZ","lat":36.1002,"long":-110.2211},{"zip":"86520","city":"Blue Gap","state":"AZ","lat":36.1708,"long":-109.9465}]
