[{"zip":"87008","city":"Cedar Crest","state":"NM","lat":35.1285,"long":-106.3617},{"zip":"87022","city":"Isleta","state":"NM","lat":34.9073,"long":-106.6892},{"zip":"87047","city":"Sandia Park","state":"NM","lat":35.1683,"long":-106.3238},{"zip":"87059","city":"Tijeras","state":"NM","lat":35.0446,"long":-106.3062},{"zip":"87005","city":"Bluewater","state":"NM","lat":35.255,"long":-107.9856},{"zip":"87007","city":"Casa Blanca","state":"NM","lat":35.0456,"long":-107.4714},{"zip":"87014","city":"Cubero","state":"NM","lat":35.0859,"long":-107.5181},{"zip":"87020","city":"Grants","state":"NM","lat":35.1476,"long":-107.8526},{"zip":"87021","city":"Milan","state":"NM","lat":35.1698,"long":-107.8909},{"zip":"87026","city":"Laguna","state":"NM","lat":34.9625,"long":-107.2325},{"zip":"87038","city":"New Laguna","state":"NM","lat":35.0409,"long":-107.422},{"zip":"87040","city":"Paguate","state":"NM","lat":35.1387,"long":-107.3789},{"zip":"87049","city":"San Fidel","state":"NM","lat":35.0823,"long":-107.5992},{"zip":"87051","city":"San Rafael","state":"NM","lat":35.1125,"long":-107.8826},{"zip":"87045","city":"Prewitt","state":"NM","lat":35.3547,"long":-108.1038},{"zip":"87012","city":"Coyote","state":"NM","lat":36.1018,"long":-106.6692},{"zip":"87017","city":"Gallina","state":"NM","lat":36.3202,"long":-106.7687},{"zip":"87029","city":"Lindrith","state":"NM","lat":36.3249,"long":-107.0495},{"zip":"87064","city":"Youngsville","state":"NM","lat":36.1875,"long":-106.5564},{"zip":"87001","city":"Algodones","state":"NM","lat":35.389,"long":-106.3517},{"zip":"87004","city":"Bernalillo","state":"NM","lat":35.3285,"long":-106.5309},{"zip":"87013","city":"Cuba","state":"NM","lat":36.0482,"long":-107.1885},{"zip":"87018","city":"Counselor","state":"NM","lat":36.2092,"long":-107.4578},{"zip":"87024","city":"Jemez Pueblo","state":"NM","lat":35.6243,"long":-106.7219},{"zip":"87025","city":"Jemez Springs","state":"NM","lat":35.8927,"long":-106.7714},{"zip":"87027","city":"La Jara","state":"NM","lat":36.1194,"long":-106.9923},{"zip":"87041","city":"Pena Blanca","state":"NM","lat":35.598,"long":-106.3492},{"zip":"87043","city":"Placitas","state":"NM","lat":35.3092,"long":-106.5293},{"zip":"87044","city":"Ponderosa","state":"NM","lat":35.66,"long":-106.6675},{"zip":"87046","city":"Regina","state":"NM","lat":36.1842,"long":-106.9567},{"zip":"87048","city":"Corrales","state":"NM","lat":35.2339,"long":-106.62},{"zip":"87052","city":"Santo Domingo Pueblo","state":"NM","lat":35.5269,"long":-106.3445},{"zip":"87053","city":"San Ysidro","state":"NM","lat":35.5634,"long":-106.7706},{"zip":"87072","city":"Cochiti Pueblo","state":"NM","lat":35.6089,"long":-106.3518},{"zip":"87083","city":"Cochiti Lake","state":"NM","lat":35.6485,"long":-106.3428},{"zip":"87037","city":"Nageezi","state":"NM","lat":36.1598,"long":-107.7664},{"zip":"87010","city":"Cerrillos","state":"NM","lat":35.423,"long":-106.1317},{"zip":"87015","city":"Edgewood","state":"NM","lat":35.0776,"long":-106.1872},{"zip":"87056","city":"Stanley","state":"NM","lat":35.1295,"long":-106.0283},{"zip":"87011","city":"Claunch","state":"NM","lat":34.0646,"long":-105.9496},{"zip":"87028","city":"La Joya","state":"NM","lat":34.3813,"long":-106.815},{"zip":"87062","city":"Veguita","state":"NM","lat":34.485,"long":-106.7591},{"zip":"87009","city":"Cedarvale","state":"NM","lat":34.3706,"long":-105.702},{"zip":"87016","city":"Estancia","state":"NM","lat":34.77,"long":-106.135},{"zip":"87032","city":"Mcintosh","state":"NM","lat":34.8648,"long":-106.0517},{"zip":"87035","city":"Moriarty","state":"NM","lat":34.9889,"long":-106.0609},{"zip":"87036","city":"Mountainair","state":"NM","lat":34.5158,"long":-106.2577},{"zip":"87061","city":"Torreon","state":"NM","lat":34.6948,"long":-106.3247},{"zip":"87063","city":"Willard","state":"NM","lat":34.5754,"long":-106.0307},{"zip":"87070","city":"Clines Corners","state":"NM","lat":35.0095,"long":-105.6692},{"zip":"87002","city":"Belen","state":"NM","lat":34.6511,"long":-106.6952},{"zip":"87006","city":"Bosque","state":"NM","lat":34.4996,"long":-106.8038},{"zip":"87023","city":"Jarales","state":"NM","lat":34.592,"long":-106.7611},{"zip":"87031","city":"Los Lunas","state":"NM","lat":34.7806,"long":-106.7115},{"zip":"87034","city":"Pueblo Of Acoma","state":"NM","lat":34.8964,"long":-107.5817},{"zip":"87042","city":"Peralta","state":"NM","lat":34.8332,"long":-106.6872},{"zip":"87060","city":"Tome","state":"NM","lat":34.7426,"long":-106.7328},{"zip":"87068","city":"Bosque Farms","state":"NM","lat":34.8764,"long":-106.6975}]
