[{"zip":"87101","city":"Albuquerque","state":"NM","lat":35.1996,"long":-106.6448},{"zip":"87102","city":"Albuquerque","state":"NM","lat":35.0818,"long":-106.6482},{"zip":"87103","city":"Albuquerque","state":"NM","lat":35.0443,"long":-106.6729},{"zip":"87104","city":"Albuquerque","state":"NM","lat":35.1038,"long":-106.6712},{"zip":"87105","city":"Albuquerque","state":"NM","lat":35.0448,"long":-106.6893},{"zip":"87106","city":"Albuquerque","state":"NM","lat":35.079,"long":-106.6169},{"zip":"87107","city":"Albuquerque","state":"NM","lat":35.1347,"long":-106.6427},{"zip":"87108","city":"Albuquerque","state":"NM","lat":35.0726,"long":-106.5749},{"zip":"87109","city":"Albuquerque","state":"NM","lat":35.1506,"long":-106.569},{"zip":"87110","city":"Albuquerque","state":"NM","lat":35.1104,"long":-106.5781},{"zip":"87111","city":"Albuquerque","state":"NM","lat":35.1347,"long":-106.5222},{"zip":"87112","city":"Albuquerque","state":"NM","lat":35.101,"long":-106.5183},{"zip":"87113","city":"Albuquerque","state":"NM","lat":35.1759,"long":-106.6015},{"zip":"87114","city":"Albuquerque","state":"NM","lat":35.1868,"long":-106.6652},{"zip":"87115","city":"Albuquerque","state":"NM","lat":35.0549,"long":-106.5461},{"zip":"87116","city":"Albuquerque","state":"NM","lat":35.0561,"long":-106.5506},{"zip":"87117","city":"Kirtland Afb","state":"NM","lat":35.0203,"long":-106.5503},{"zip":"87119","city":"Albuquerque","state":"NM","lat":35.0443,"long":-106.6729},{"zip":"87120","city":"Albuquerque","state":"NM","lat":35.1421,"long":-106.7041},{"zip":"87121","city":"Albuquerque","state":"NM","lat":35.0512,"long":-106.7269},{"zip":"87122","city":"Albuquerque","state":"NM","lat":35.1787,"long":-106.5102},{"zip":"87123","city":"Albuquerque","state":"NM","lat":35.0717,"long":-106.509},{"zip":"87125","city":"Albuquerque","state":"NM","lat":35.0443,"long":-106.6729},{"zip":"87131","city":"Albuquerque","state":"NM","lat":35.0443,"long":-106.6729},{"zip":"87153","city":"Albuquerque","state":"NM","lat":35.0443,"long":-106.6729},{"zip":"87154","city":"Albuquerque","state":"NM","lat":35.0443,"long":-106.6729},{"zip":"87158","city":"Albuquerque","state":"NM","lat":35.0845,"long":-106.6511},{"zip":"87174","city":"Rio Rancho","state":"NM","lat":35.0443,"long":-106.6729},{"zip":"87176","city":"Albuquerque","state":"NM","lat":35.0443,"long":-106.6729},{"zip":"87181","city":"Albuquerque","state":"NM","lat":35.0443,"long":-106.6729},{"zip":"87184","city":"Albuquerque","state":"NM","lat":35.0443,"long":-106.6729},{"zip":"87185","city":"Albuquerque","state":"NM","lat":35.0443,"long":-106.6729},{"zip":"87187","city":"Albuquerque","state":"NM","lat":35.0443,"long":-106.6729},{"zip":"87190","city":"Albuquerque","state":"NM","lat":35.0443,"long":-106.6729},{"zip":"87191","city":"Albuquerque","state":"NM","lat":35.0443,"long":-106.6729},{"zip":"87192","city":"Albuquerque","state":"NM","lat":35.0443,"long":-106.6729},{"zip":"87193","city":"Albuquerque","state":"NM","lat":35.0443,"long":-106.6729},{"zip":"87194","city":"Albuquerque","state":"NM","lat":35.0443,"long":-106.6729},{"zip":"87195","city":"Albuquerque","state":"NM","lat":35.0443,"long":-106.6729},{"zip":"87196","city":"Albuquerque","state":"NM","lat":35.0443,"long":-106.6729},{"zip":"87197","city":"Albuquerque","state":"NM","lat":35.0845,"long":-106.6511},{"zip":"87198","city":"Albuquerque","state":"NM","lat":35.0845,"long":-106.6511},{"zip":"87199","city":"Albuquerque","state":"NM","lat":35.0443,"long":-106.6729},{"zip":"87124","city":"Rio Rancho","state":"NM","lat":35.2493,"long":-106.6818},{"zip":"87144","city":"Rio Rancho","state":"NM","lat":35.324,"long":-106.7099}]
