[{"zip":"87315","city":"Fence Lake","state":"NM","lat":34.7344,"long":-108.6934},{"zip":"87357","city":"Pinehill","state":"NM","lat":34.9992,"long":-108.4112},{"zip":"87301","city":"Gallup","state":"NM","lat":35.5065,"long":-108.7414},{"zip":"87302","city":"Gallup","state":"NM","lat":35.5281,"long":-108.7426},{"zip":"87305","city":"Gallup","state":"NM","lat":35.4499,"long":-108.7705},{"zip":"87310","city":"Brimhall","state":"NM","lat":35.8005,"long":-108.5815},{"zip":"87311","city":"Church Rock","state":"NM","lat":35.5339,"long":-108.5998},{"zip":"87312","city":"Continental Divide","state":"NM","lat":35.4226,"long":-108.323},{"zip":"87313","city":"Crownpoint","state":"NM","lat":35.7206,"long":-108.0271},{"zip":"87316","city":"Fort Wingate","state":"NM","lat":35.5191,"long":-108.4864},{"zip":"87317","city":"Gamerco","state":"NM","lat":35.5763,"long":-108.7626},{"zip":"87319","city":"Mentmore","state":"NM","lat":35.5042,"long":-108.8317},{"zip":"87320","city":"Mexican Springs","state":"NM","lat":35.7837,"long":-108.819},{"zip":"87321","city":"Ramah","state":"NM","lat":35.1324,"long":-108.492},{"zip":"87322","city":"Rehoboth","state":"NM","lat":35.5289,"long":-108.6548},{"zip":"87323","city":"Thoreau","state":"NM","lat":35.3976,"long":-108.1604},{"zip":"87325","city":"Tohatchi","state":"NM","lat":36.0021,"long":-108.6229},{"zip":"87326","city":"Vanderwagen","state":"NM","lat":35.3509,"long":-108.6985},{"zip":"87327","city":"Zuni","state":"NM","lat":35.0684,"long":-108.8336},{"zip":"87328","city":"Navajo","state":"NM","lat":35.8942,"long":-109.0226},{"zip":"87347","city":"Jamestown","state":"NM","lat":35.4809,"long":-108.1767},{"zip":"87365","city":"Smith Lake","state":"NM","lat":35.4809,"long":-108.1767},{"zip":"87375","city":"Yatahey","state":"NM","lat":35.4809,"long":-108.1767},{"zip":"87364","city":"Sheep Springs","state":"NM","lat":36.142,"long":-108.7064}]
