[{"zip":"87401","city":"Farmington","state":"NM","lat":36.7412,"long":-108.1797},{"zip":"87402","city":"Farmington","state":"NM","lat":36.7685,"long":-108.1478},{"zip":"87410","city":"Aztec","state":"NM","lat":36.8205,"long":-108.011},{"zip":"87412","city":"Blanco","state":"NM","lat":36.7242,"long":-107.8253},{"zip":"87413","city":"Bloomfield","state":"NM","lat":36.6955,"long":-107.9784},{"zip":"87415","city":"Flora Vista","state":"NM","lat":36.8028,"long":-108.0827},{"zip":"87416","city":"Fruitland","state":"NM","lat":36.6933,"long":-108.4218},{"zip":"87417","city":"Kirtland","state":"NM","lat":36.741,"long":-108.351},{"zip":"87418","city":"La Plata","state":"NM","lat":36.9576,"long":-108.1792},{"zip":"87419","city":"Navajo Dam","state":"NM","lat":36.8689,"long":-107.6528},{"zip":"87420","city":"Shiprock","state":"NM","lat":36.656,"long":-108.7355},{"zip":"87421","city":"Waterflow","state":"NM","lat":36.7637,"long":-108.5186},{"zip":"87455","city":"Newcomb","state":"NM","lat":36.2847,"long":-108.7059},{"zip":"87461","city":"Sanostee","state":"NM","lat":36.4247,"long":-108.8743},{"zip":"87499","city":"Farmington","state":"NM","lat":36.7745,"long":-108.0692}]
