[{"zip":"87544","city":"Los Alamos","state":"NM","lat":35.8663,"long":-106.2676},{"zip":"87545","city":"Los Alamos","state":"NM","lat":35.8639,"long":-106.2953},{"zip":"87547","city":"White Rock","state":"NM","lat":35.8275,"long":-106.2039},{"zip":"87510","city":"Abiquiu","state":"NM","lat":36.1769,"long":-106.2449},{"zip":"87511","city":"Alcalde","state":"NM","lat":36.0889,"long":-106.0536},{"zip":"87515","city":"Canjilon","state":"NM","lat":36.4795,"long":-106.4378},{"zip":"87516","city":"Canones","state":"NM","lat":36.1814,"long":-106.4376},{"zip":"87518","city":"Cebolla","state":"NM","lat":36.4654,"long":-106.5785},{"zip":"87520","city":"Chama","state":"NM","lat":36.8962,"long":-106.5829},{"zip":"87522","city":"Chimayo","state":"NM","lat":36.0039,"long":-105.947},{"zip":"87523","city":"Cordova","state":"NM","lat":36.0072,"long":-105.8606},{"zip":"87527","city":"Dixon","state":"NM","lat":36.179,"long":-105.8615},{"zip":"87528","city":"Dulce","state":"NM","lat":36.8598,"long":-107.0602},{"zip":"87530","city":"El Rito","state":"NM","lat":36.3647,"long":-106.2192},{"zip":"87531","city":"Embudo","state":"NM","lat":36.2153,"long":-105.8901},{"zip":"87532","city":"Espanola","state":"NM","lat":35.9872,"long":-106.0717},{"zip":"87533","city":"Espanola","state":"NM","lat":35.9866,"long":-106.0654},{"zip":"87537","city":"Hernandez","state":"NM","lat":36.0738,"long":-106.1396},{"zip":"87539","city":"La Madera","state":"NM","lat":36.4654,"long":-106.5785},{"zip":"87548","city":"Medanales","state":"NM","lat":36.1756,"long":-106.1834},{"zip":"87551","city":"Los Ojos","state":"NM","lat":36.7292,"long":-106.57},{"zip":"87554","city":"Petaca","state":"NM","lat":36.5084,"long":-106.0106},{"zip":"87566","city":"Ohkay Owingeh","state":"NM","lat":36.0508,"long":-106.069},{"zip":"87575","city":"Tierra Amarilla","state":"NM","lat":36.6805,"long":-106.557},{"zip":"87578","city":"Truchas","state":"NM","lat":36.0444,"long":-105.8129},{"zip":"87581","city":"Vallecitos","state":"NM","lat":36.5286,"long":-106.1448},{"zip":"87582","city":"Velarde","state":"NM","lat":36.1589,"long":-105.9747},{"zip":"87538","city":"Ilfeld","state":"NM","lat":35.4212,"long":-105.5589},{"zip":"87552","city":"Pecos","state":"NM","lat":35.571,"long":-105.6701},{"zip":"87560","city":"Ribera","state":"NM","lat":35.3344,"long":-105.4652},{"zip":"87562","city":"Rowe","state":"NM","lat":35.4917,"long":-105.6753},{"zip":"87565","city":"San Jose","state":"NM","lat":35.4569,"long":-105.4383},{"zip":"87569","city":"Serafina","state":"NM","lat":35.3975,"long":-105.3236},{"zip":"87573","city":"Tererro","state":"NM","lat":35.7727,"long":-105.6713},{"zip":"87583","city":"Villanueva","state":"NM","lat":35.2667,"long":-105.3608},{"zip":"87501","city":"Santa Fe","state":"NM","lat":35.6975,"long":-105.9821},{"zip":"87502","city":"Santa Fe","state":"NM","lat":35.687,"long":-105.9378},{"zip":"87503","city":"Santa Fe","state":"NM","lat":35.687,"long":-105.9378},{"zip":"87504","city":"Santa Fe","state":"NM","lat":35.687,"long":-105.9378},{"zip":"87505","city":"Santa Fe","state":"NM","lat":35.6219,"long":-105.8688},{"zip":"87506","city":"Santa Fe","state":"NM","lat":35.8195,"long":-105.9886},{"zip":"87507","city":"Santa Fe","state":"NM","lat":35.6567,"long":-106.0152},{"zip":"87508","city":"Santa Fe","state":"NM","lat":35.5335,"long":-105.926},{"zip":"87509","city":"Santa Fe","state":"NM","lat":35.5212,"long":-105.9818},{"zip":"87535","city":"Glorieta","state":"NM","lat":35.5288,"long":-105.7477},{"zip":"87540","city":"Lamy","state":"NM","lat":35.4311,"long":-105.9409},{"zip":"87567","city":"Santa Cruz","state":"NM","lat":35.986,"long":-106.0318},{"zip":"87574","city":"Tesuque","state":"NM","lat":35.7874,"long":-105.9157},{"zip":"87592","city":"Santa Fe","state":"NM","lat":35.5212,"long":-105.9818},{"zip":"87594","city":"Santa Fe","state":"NM","lat":35.5212,"long":-105.9818},{"zip":"87512","city":"Amalia","state":"NM","lat":36.942,"long":-105.4545},{"zip":"87513","city":"Arroyo Hondo","state":"NM","lat":36.5796,"long":-105.6873},{"zip":"87514","city":"Arroyo Seco","state":"NM","lat":36.52,"long":-105.534},{"zip":"87517","city":"Carson","state":"NM","lat":36.3645,"long":-105.7653},{"zip":"87519","city":"Cerro","state":"NM","lat":36.7539,"long":-105.6128},{"zip":"87521","city":"Chamisal","state":"NM","lat":36.1311,"long":-105.7385},{"zip":"87524","city":"Costilla","state":"NM","lat":36.9324,"long":-105.6723},{"zip":"87525","city":"Taos Ski Valley","state":"NM","lat":36.596,"long":-105.4545},{"zip":"87529","city":"El Prado","state":"NM","lat":36.3492,"long":-105.6244},{"zip":"87543","city":"Llano","state":"NM","lat":36.14,"long":-105.6817},{"zip":"87549","city":"Ojo Caliente","state":"NM","lat":36.3313,"long":-106.0028},{"zip":"87553","city":"Penasco","state":"NM","lat":36.1763,"long":-105.7105},{"zip":"87556","city":"Questa","state":"NM","lat":36.7039,"long":-105.595},{"zip":"87557","city":"Ranchos De Taos","state":"NM","lat":36.3357,"long":-105.6086},{"zip":"87558","city":"Red River","state":"NM","lat":36.6659,"long":-105.4694},{"zip":"87564","city":"San Cristobal","state":"NM","lat":36.6116,"long":-105.636},{"zip":"87571","city":"Taos","state":"NM","lat":36.3953,"long":-105.5847},{"zip":"87576","city":"Trampas","state":"NM","lat":36.1311,"long":-105.7589},{"zip":"87577","city":"Tres Piedras","state":"NM","lat":36.647,"long":-105.9672},{"zip":"87579","city":"Vadito","state":"NM","lat":36.1338,"long":-105.5712},{"zip":"87580","city":"Valdez","state":"NM","lat":36.5701,"long":-105.5658}]
