[{"zip":"87710","city":"Angel Fire","state":"NM","lat":36.3849,"long":-105.2439},{"zip":"87714","city":"Cimarron","state":"NM","lat":36.4574,"long":-105.0697},{"zip":"87718","city":"Eagle Nest","state":"NM","lat":36.5326,"long":-105.2756},{"zip":"87728","city":"Maxwell","state":"NM","lat":36.5434,"long":-104.564},{"zip":"87729","city":"Miami","state":"NM","lat":36.35,"long":-104.7931},{"zip":"87740","city":"Raton","state":"NM","lat":36.8952,"long":-104.4349},{"zip":"87747","city":"Springer","state":"NM","lat":36.3767,"long":-104.5927},{"zip":"87749","city":"Ute Park","state":"NM","lat":36.5581,"long":-105.115},{"zip":"87711","city":"Anton Chico","state":"NM","lat":35.2001,"long":-105.1422},{"zip":"87724","city":"La Loma","state":"NM","lat":35.1734,"long":-105.0775},{"zip":"87730","city":"Mills","state":"NM","lat":36.1281,"long":-104.2277},{"zip":"87733","city":"Mosquero","state":"NM","lat":35.8041,"long":-103.9021},{"zip":"87743","city":"Roy","state":"NM","lat":35.9522,"long":-104.1497},{"zip":"87746","city":"Solano","state":"NM","lat":35.8484,"long":-104.0675},{"zip":"87712","city":"Buena Vista","state":"NM","lat":35.9136,"long":-105.2492},{"zip":"87713","city":"Chacon","state":"NM","lat":36.1388,"long":-105.3854},{"zip":"87715","city":"Cleveland","state":"NM","lat":35.9898,"long":-105.4326},{"zip":"87722","city":"Guadalupita","state":"NM","lat":36.1375,"long":-105.2386},{"zip":"87723","city":"Holman","state":"NM","lat":36.0384,"long":-105.3836},{"zip":"87732","city":"Mora","state":"NM","lat":35.9742,"long":-105.33},{"zip":"87734","city":"Ocate","state":"NM","lat":36.1037,"long":-105.066},{"zip":"87735","city":"Ojo Feliz","state":"NM","lat":36.0578,"long":-105.1183},{"zip":"87736","city":"Rainsville","state":"NM","lat":35.9786,"long":-105.2092},{"zip":"87750","city":"Valmora","state":"NM","lat":35.8164,"long":-104.9231},{"zip":"87752","city":"Wagon Mound","state":"NM","lat":35.9814,"long":-104.691},{"zip":"87753","city":"Watrous","state":"NM","lat":35.7906,"long":-104.9817},{"zip":"87701","city":"Las Vegas","state":"NM","lat":35.5949,"long":-105.2272},{"zip":"87731","city":"Montezuma","state":"NM","lat":35.6523,"long":-105.2764},{"zip":"87742","city":"Rociada","state":"NM","lat":35.8226,"long":-105.3147},{"zip":"87745","city":"Sapello","state":"NM","lat":35.762,"long":-105.1077}]
