[{"zip":"88039","city":"Glenwood","state":"NM","lat":33.3048,"long":-108.7743},{"zip":"88201","city":"Roswell","state":"NM","lat":33.6397,"long":-104.3748},{"zip":"88202","city":"Roswell","state":"NM","lat":33.3038,"long":-104.4318},{"zip":"88203","city":"Roswell","state":"NM","lat":33.3718,"long":-104.5284},{"zip":"88230","city":"Dexter","state":"NM","lat":33.191,"long":-104.3833},{"zip":"88232","city":"Hagerman","state":"NM","lat":33.1076,"long":-104.3298},{"zip":"88253","city":"Lake Arthur","state":"NM","lat":32.9982,"long":-104.3666},{"zip":"88101","city":"Clovis","state":"NM","lat":34.4126,"long":-103.2214},{"zip":"88102","city":"Clovis","state":"NM","lat":34.4048,"long":-103.2052},{"zip":"88103","city":"Cannon Afb","state":"NM","lat":34.3841,"long":-103.3154},{"zip":"88112","city":"Broadview","state":"NM","lat":34.804,"long":-103.1292},{"zip":"88120","city":"Grady","state":"NM","lat":34.8107,"long":-103.298},{"zip":"88124","city":"Melrose","state":"NM","lat":34.4479,"long":-103.6325},{"zip":"88133","city":"Saint Vrain","state":"NM","lat":34.4756,"long":-103.4669},{"zip":"88135","city":"Texico","state":"NM","lat":34.3958,"long":-103.0615},{"zip":"88119","city":"Fort Sumner","state":"NM","lat":34.46,"long":-104.2317},{"zip":"88134","city":"Taiban","state":"NM","lat":34.3271,"long":-104.0159},{"zip":"88136","city":"Yeso","state":"NM","lat":34.455,"long":-104.7452},{"zip":"88001","city":"Las Cruces","state":"NM","lat":32.2901,"long":-106.7539},{"zip":"88002","city":"White Sands Missile Range","state":"NM","lat":32.3839,"long":-106.4937},{"zip":"88003","city":"Las Cruces","state":"NM","lat":32.2738,"long":-106.7472},{"zip":"88004","city":"Las Cruces","state":"NM","lat":32.4181,"long":-106.8201},{"zip":"88005","city":"Las Cruces","state":"NM","lat":32.3161,"long":-106.7991},{"zip":"88006","city":"Las Cruces","state":"NM","lat":32.3052,"long":-106.7863},{"zip":"88007","city":"Las Cruces","state":"NM","lat":32.3224,"long":-106.8041},{"zip":"88008","city":"Santa Teresa","state":"NM","lat":31.8394,"long":-106.6821},{"zip":"88011","city":"Las Cruces","state":"NM","lat":32.3244,"long":-106.6683},{"zip":"88012","city":"Las Cruces","state":"NM","lat":32.5835,"long":-106.7714},{"zip":"88021","city":"Anthony","state":"NM","lat":32.004,"long":-106.6058},{"zip":"88024","city":"Berino","state":"NM","lat":32.0682,"long":-106.631},{"zip":"88027","city":"Chamberino","state":"NM","lat":32.0174,"long":-106.6673},{"zip":"88032","city":"Dona Ana","state":"NM","lat":32.3939,"long":-106.801},{"zip":"88033","city":"Fairacres","state":"NM","lat":32.2984,"long":-106.8812},{"zip":"88044","city":"La Mesa","state":"NM","lat":32.1383,"long":-106.7999},{"zip":"88046","city":"Mesilla","state":"NM","lat":32.268,"long":-106.8059},{"zip":"88047","city":"Mesilla Park","state":"NM","lat":32.21,"long":-106.7147},{"zip":"88048","city":"Mesquite","state":"NM","lat":32.146,"long":-106.6676},{"zip":"88052","city":"Organ","state":"NM","lat":32.4259,"long":-106.6136},{"zip":"88054","city":"Radium Springs","state":"NM","lat":32.4888,"long":-106.9146},{"zip":"88058","city":"San Miguel","state":"NM","lat":32.1554,"long":-106.735},{"zip":"88063","city":"Sunland Park","state":"NM","lat":31.8186,"long":-106.5997},{"zip":"88072","city":"Vado","state":"NM","lat":32.1187,"long":-106.649},{"zip":"88210","city":"Artesia","state":"NM","lat":32.8384,"long":-104.4074},{"zip":"88211","city":"Artesia","state":"NM","lat":32.7536,"long":-104.3281},{"zip":"88220","city":"Carlsbad","state":"NM","lat":32.4119,"long":-104.2395},{"zip":"88221","city":"Carlsbad","state":"NM","lat":32.342,"long":-104.2937},{"zip":"88250","city":"Hope","state":"NM","lat":32.8156,"long":-104.7299},{"zip":"88254","city":"Lakewood","state":"NM","lat":32.6362,"long":-104.365},{"zip":"88255","city":"Loco Hills","state":"NM","lat":32.819,"long":-103.9777},{"zip":"88256","city":"Loving","state":"NM","lat":32.274,"long":-104.0914},{"zip":"88263","city":"Malaga","state":"NM","lat":32.1813,"long":-104.0668},{"zip":"88268","city":"Whites City","state":"NM","lat":32.1757,"long":-104.3766},{"zip":"88022","city":"Arenas Valley","state":"NM","lat":32.7839,"long":-108.1854},{"zip":"88023","city":"Bayard","state":"NM","lat":32.7617,"long":-108.1306},{"zip":"88025","city":"Buckhorn","state":"NM","lat":33.0633,"long":-108.6956},{"zip":"88026","city":"Santa Clara","state":"NM","lat":32.7795,"long":-108.1503},{"zip":"88028","city":"Cliff","state":"NM","lat":32.9623,"long":-108.6112},{"zip":"88034","city":"Faywood","state":"NM","lat":32.6935,"long":-107.9065},{"zip":"88036","city":"Fort Bayard","state":"NM","lat":32.7574,"long":-108.0075},{"zip":"88038","city":"Gila","state":"NM","lat":32.9659,"long":-108.5767},{"zip":"88040","city":"Hachita","state":"NM","lat":31.8904,"long":-108.3316},{"zip":"88041","city":"Hanover","state":"NM","lat":32.8045,"long":-107.9545},{"zip":"88043","city":"Hurley","state":"NM","lat":32.648,"long":-108.1516},{"zip":"88049","city":"Mimbres","state":"NM","lat":32.909,"long":-108.0332},{"zip":"88051","city":"Mule Creek","state":"NM","lat":33.1071,"long":-108.9032},{"zip":"88053","city":"Pinos Altos","state":"NM","lat":32.8614,"long":-108.2192},{"zip":"88055","city":"Redrock","state":"NM","lat":32.6862,"long":-108.7381},{"zip":"88061","city":"Silver City","state":"NM","lat":32.79,"long":-108.2749},{"zip":"88062","city":"Silver City","state":"NM","lat":32.7282,"long":-108.1379},{"zip":"88065","city":"Tyrone","state":"NM","lat":32.7098,"long":-108.302},{"zip":"88353","city":"Vaughn","state":"NM","lat":34.6241,"long":-105.1926},{"zip":"88417","city":"Cuervo","state":"NM","lat":35.0101,"long":-104.3999},{"zip":"88431","city":"Newkirk","state":"NM","lat":35.0847,"long":-104.2433},{"zip":"88435","city":"Santa Rosa","state":"NM","lat":34.8526,"long":-104.5899},{"zip":"88009","city":"Playas","state":"NM","lat":32.055,"long":-108.6291},{"zip":"88020","city":"Animas","state":"NM","lat":32.053,"long":-108.9069},{"zip":"88045","city":"Lordsburg","state":"NM","lat":32.316,"long":-108.723},{"zip":"88056","city":"Rodeo","state":"NM","lat":31.8358,"long":-109.0322},{"zip":"88114","city":"Crossroads","state":"NM","lat":33.5272,"long":-103.3564},{"zip":"88213","city":"Caprock","state":"NM","lat":33.3939,"long":-103.639},{"zip":"88231","city":"Eunice","state":"NM","lat":32.4392,"long":-103.1594},{"zip":"88240","city":"Hobbs","state":"NM","lat":32.7222,"long":-103.1372},{"zip":"88241","city":"Hobbs","state":"NM","lat":32.7475,"long":-103.2165},{"zip":"88242","city":"Hobbs","state":"NM","lat":32.8105,"long":-103.1587},{"zip":"88244","city":"Hobbs","state":"NM","lat":32.7026,"long":-103.136},{"zip":"88252","city":"Jal","state":"NM","lat":32.1128,"long":-103.1997},{"zip":"88260","city":"Lovington","state":"NM","lat":32.9512,"long":-103.3488},{"zip":"88262","city":"Mcdonald","state":"NM","lat":33.1407,"long":-103.3174},{"zip":"88264","city":"Maljamar","state":"NM","lat":32.8562,"long":-103.7627},{"zip":"88265","city":"Monument","state":"NM","lat":32.5874,"long":-103.2703},{"zip":"88267","city":"Tatum","state":"NM","lat":33.26,"long":-103.314},{"zip":"88301","city":"Carrizozo","state":"NM","lat":33.6496,"long":-105.8696},{"zip":"88312","city":"Alto","state":"NM","lat":33.4314,"long":-105.6776},{"zip":"88316","city":"Capitan","state":"NM","lat":33.5602,"long":-105.5269},{"zip":"88318","city":"Corona","state":"NM","lat":34.1693,"long":-105.5339},{"zip":"88323","city":"Fort Stanton","state":"NM","lat":33.4959,"long":-105.523},{"zip":"88324","city":"Glencoe","state":"NM","lat":33.3898,"long":-105.4391},{"zip":"88336","city":"Hondo","state":"NM","lat":33.3876,"long":-105.2708},{"zip":"88338","city":"Lincoln","state":"NM","lat":33.4869,"long":-105.382},{"zip":"88341","city":"Nogal","state":"NM","lat":33.4996,"long":-105.7036},{"zip":"88343","city":"Picacho","state":"NM","lat":33.3518,"long":-105.145},{"zip":"88345","city":"Ruidoso","state":"NM","lat":33.3474,"long":-105.651},{"zip":"88346","city":"Ruidoso Downs","state":"NM","lat":33.3577,"long":-105.5383},{"zip":"88348","city":"San Patricio","state":"NM","lat":33.3877,"long":-105.3498},{"zip":"88351","city":"Tinnie","state":"NM","lat":33.3706,"long":-105.2264},{"zip":"88355","city":"Ruidoso","state":"NM","lat":33.3305,"long":-105.6933},{"zip":"88029","city":"Columbus","state":"NM","lat":31.8276,"long":-107.64},{"zip":"88030","city":"Deming","state":"NM","lat":32.2318,"long":-107.7466},{"zip":"88031","city":"Deming","state":"NM","lat":32.2398,"long":-107.7404},{"zip":"88081","city":"Chaparral","state":"NM","lat":32.2239,"long":-106.2631},{"zip":"88310","city":"Alamogordo","state":"NM","lat":32.8932,"long":-105.9485},{"zip":"88311","city":"Alamogordo","state":"NM","lat":32.8995,"long":-105.9603},{"zip":"88314","city":"Bent","state":"NM","lat":33.148,"long":-105.8635},{"zip":"88317","city":"Cloudcroft","state":"NM","lat":32.8897,"long":-105.6744},{"zip":"88325","city":"High Rolls Mountain Park","state":"NM","lat":32.9396,"long":-105.8189},{"zip":"88330","city":"Holloman Air Force Base","state":"NM","lat":32.8366,"long":-106.0774},{"zip":"88337","city":"La Luz","state":"NM","lat":32.9774,"long":-105.9534},{"zip":"88339","city":"Mayhill","state":"NM","lat":32.907,"long":-105.5181},{"zip":"88340","city":"Mescalero","state":"NM","lat":33.2164,"long":-105.7743},{"zip":"88342","city":"Orogrande","state":"NM","lat":32.4051,"long":-106.0797},{"zip":"88344","city":"Pinon","state":"NM","lat":32.6396,"long":-105.4157},{"zip":"88347","city":"Sacramento","state":"NM","lat":32.8052,"long":-105.6211},{"zip":"88349","city":"Sunspot","state":"NM","lat":32.8672,"long":-105.7811},{"zip":"88350","city":"Timberon","state":"NM","lat":32.6295,"long":-105.6945},{"zip":"88352","city":"Tularosa","state":"NM","lat":33.065,"long":-106.0108},{"zip":"88354","city":"Weed","state":"NM","lat":32.8052,"long":-105.5063},{"zip":"88121","city":"House","state":"NM","lat":34.6952,"long":-103.9203},{"zip":"88401","city":"Tucumcari","state":"NM","lat":35.168,"long":-103.7179},{"zip":"88411","city":"Bard","state":"NM","lat":35.1303,"long":-103.1605},{"zip":"88426","city":"Logan","state":"NM","lat":35.3681,"long":-103.4383},{"zip":"88427","city":"Mcalister","state":"NM","lat":34.6923,"long":-103.7764},{"zip":"88430","city":"Nara Visa","state":"NM","lat":35.618,"long":-103.1317},{"zip":"88433","city":"Quay","state":"NM","lat":34.9167,"long":-103.7782},{"zip":"88434","city":"San Jon","state":"NM","lat":35.1198,"long":-103.2846},{"zip":"88113","city":"Causey","state":"NM","lat":33.7781,"long":-103.0865},{"zip":"88115","city":"Dora","state":"NM","lat":33.9387,"long":-103.3366},{"zip":"88116","city":"Elida","state":"NM","lat":33.9405,"long":-103.6323},{"zip":"88118","city":"Floyd","state":"NM","lat":34.252,"long":-103.5827},{"zip":"88122","city":"Kenna","state":"NM","lat":33.8423,"long":-103.7719},{"zip":"88123","city":"Lingo","state":"NM","lat":33.7176,"long":-103.1451},{"zip":"88125","city":"Milnesand","state":"NM","lat":33.605,"long":-103.2782},{"zip":"88126","city":"Pep","state":"NM","lat":33.8054,"long":-103.2881},{"zip":"88130","city":"Portales","state":"NM","lat":34.1799,"long":-103.3363},{"zip":"88132","city":"Rogers","state":"NM","lat":33.9216,"long":-103.1898},{"zip":"88416","city":"Conchas Dam","state":"NM","lat":35.3786,"long":-104.2052},{"zip":"88421","city":"Garita","state":"NM","lat":35.3502,"long":-104.4419},{"zip":"88439","city":"Trementina","state":"NM","lat":35.4563,"long":-104.6796},{"zip":"88042","city":"Hillsboro","state":"NM","lat":32.9239,"long":-107.6276},{"zip":"88321","city":"Encino","state":"NM","lat":34.615,"long":-105.4839},{"zip":"88410","city":"Amistad","state":"NM","lat":35.8983,"long":-103.213},{"zip":"88414","city":"Capulin","state":"NM","lat":36.7785,"long":-103.9986},{"zip":"88415","city":"Clayton","state":"NM","lat":36.4414,"long":-103.1888},{"zip":"88418","city":"Des Moines","state":"NM","lat":36.7291,"long":-103.8739},{"zip":"88419","city":"Folsom","state":"NM","lat":36.869,"long":-103.8399},{"zip":"88422","city":"Gladstone","state":"NM","lat":36.3048,"long":-103.973},{"zip":"88424","city":"Grenville","state":"NM","lat":36.3698,"long":-103.5055},{"zip":"88436","city":"Sedan","state":"NM","lat":36.226,"long":-103.1449},{"zip":"88901","city":"The Lakes","state":"NV","lat":36.3225,"long":-114.8197},{"zip":"88905","city":"The Lakes","state":"NV","lat":35.9279,"long":-114.9721},{"zip":"88510","city":"El Paso","state":"TX","lat":31.6948,"long":-106.3},{"zip":"88511","city":"El Paso","state":"TX","lat":31.6948,"long":-106.3},{"zip":"88512","city":"El Paso","state":"TX","lat":31.6948,"long":-106.3},{"zip":"88513","city":"El Paso","state":"TX","lat":31.6948,"long":-106.3},{"zip":"88514","city":"El Paso","state":"TX","lat":31.6948,"long":-106.3},{"zip":"88515","city":"El Paso","state":"TX","lat":31.6948,"long":-106.3},{"zip":"88517","city":"El Paso","state":"TX","lat":31.6948,"long":-106.3},{"zip":"88518","city":"El Paso","state":"TX","lat":31.6948,"long":-106.3},{"zip":"88519","city":"El Paso","state":"TX","lat":31.6948,"long":-106.3},{"zip":"88520","city":"El Paso","state":"TX","lat":31.6948,"long":-106.3},{"zip":"88521","city":"El Paso","state":"TX","lat":31.6948,"long":-106.3},{"zip":"88523","city":"El Paso","state":"TX","lat":31.6948,"long":-106.3},{"zip":"88524","city":"El Paso","state":"TX","lat":31.6948,"long":-106.3},{"zip":"88525","city":"El Paso","state":"TX","lat":31.6948,"long":-106.3},{"zip":"88526","city":"El Paso","state":"TX","lat":31.6948,"long":-106.3},{"zip":"88527","city":"El Paso","state":"TX","lat":31.6948,"long":-106.3},{"zip":"88528","city":"El Paso","state":"TX","lat":31.6948,"long":-106.3},{"zip":"88529","city":"El Paso","state":"TX","lat":31.6948,"long":-106.3},{"zip":"88530","city":"El Paso","state":"TX","lat":31.6948,"long":-106.3},{"zip":"88531","city":"El Paso","state":"TX","lat":31.6948,"long":-106.3},{"zip":"88532","city":"El Paso","state":"TX","lat":31.6948,"long":-106.3},{"zip":"88533","city":"El Paso","state":"TX","lat":31.6948,"long":-106.3},{"zip":"88534","city":"El Paso","state":"TX","lat":31.6948,"long":-106.3},{"zip":"88535","city":"El Paso","state":"TX","lat":31.6948,"long":-106.3},{"zip":"88536","city":"El Paso","state":"TX","lat":31.6948,"long":-106.3},{"zip":"88538","city":"El Paso","state":"TX","lat":31.6948,"long":-106.3},{"zip":"88539","city":"El Paso","state":"TX","lat":31.6948,"long":-106.3},{"zip":"88540","city":"El Paso","state":"TX","lat":31.6948,"long":-106.3},{"zip":"88541","city":"El Paso","state":"TX","lat":31.6948,"long":-106.3},{"zip":"88542","city":"El Paso","state":"TX","lat":31.6948,"long":-106.3},{"zip":"88543","city":"El Paso","state":"TX","lat":31.6948,"long":-106.3},{"zip":"88544","city":"El Paso","state":"TX","lat":31.6948,"long":-106.3},{"zip":"88545","city":"El Paso","state":"TX","lat":31.6948,"long":-106.3},{"zip":"88546","city":"El Paso","state":"TX","lat":31.6948,"long":-106.3},{"zip":"88547","city":"El Paso","state":"TX","lat":31.6948,"long":-106.3},{"zip":"88548","city":"El Paso","state":"TX","lat":31.6948,"long":-106.3},{"zip":"88549","city":"El Paso","state":"TX","lat":31.6948,"long":-106.3},{"zip":"88550","city":"El Paso","state":"TX","lat":31.6948,"long":-106.3},{"zip":"88553","city":"El Paso","state":"TX","lat":31.6948,"long":-106.3},{"zip":"88554","city":"El Paso","state":"TX","lat":31.6948,"long":-106.3},{"zip":"88555","city":"El Paso","state":"TX","lat":31.6948,"long":-106.3},{"zip":"88556","city":"El Paso","state":"TX","lat":31.6948,"long":-106.3},{"zip":"88557","city":"El Paso","state":"TX","lat":31.6948,"long":-106.3},{"zip":"88558","city":"El Paso","state":"TX","lat":31.6948,"long":-106.3},{"zip":"88559","city":"El Paso","state":"TX","lat":31.6948,"long":-106.3},{"zip":"88560","city":"El Paso","state":"TX","lat":31.6948,"long":-106.3},{"zip":"88561","city":"El Paso","state":"TX","lat":31.6948,"long":-106.3},{"zip":"88562","city":"El Paso","state":"TX","lat":31.6948,"long":-106.3},{"zip":"88563","city":"El Paso","state":"TX","lat":31.6948,"long":-106.3},{"zip":"88565","city":"El Paso","state":"TX","lat":31.6948,"long":-106.3},{"zip":"88566","city":"El Paso","state":"TX","lat":31.6948,"long":-106.3},{"zip":"88567","city":"El Paso","state":"TX","lat":31.6948,"long":-106.3},{"zip":"88568","city":"El Paso","state":"TX","lat":31.6948,"long":-106.3},{"zip":"88569","city":"El Paso","state":"TX","lat":31.6948,"long":-106.3},{"zip":"88570","city":"El Paso","state":"TX","lat":31.6948,"long":-106.3},{"zip":"88571","city":"El Paso","state":"TX","lat":31.6948,"long":-106.3},{"zip":"88572","city":"El Paso","state":"TX","lat":31.6948,"long":-106.3},{"zip":"88573","city":"El Paso","state":"TX","lat":31.6948,"long":-106.3},{"zip":"88574","city":"El Paso","state":"TX","lat":31.6948,"long":-106.3},{"zip":"88575","city":"El Paso","state":"TX","lat":31.6948,"long":-106.3},{"zip":"88576","city":"El Paso","state":"TX","lat":31.6948,"long":-106.3},{"zip":"88577","city":"El Paso","state":"TX","lat":31.6948,"long":-106.3},{"zip":"88578","city":"El Paso","state":"TX","lat":31.6948,"long":-106.3},{"zip":"88579","city":"El Paso","state":"TX","lat":31.6948,"long":-106.3},{"zip":"88580","city":"El Paso","state":"TX","lat":31.6948,"long":-106.3},{"zip":"88581","city":"El Paso","state":"TX","lat":31.6948,"long":-106.3},{"zip":"88582","city":"El Paso","state":"TX","lat":31.6948,"long":-106.3},{"zip":"88583","city":"El Paso","state":"TX","lat":31.6948,"long":-106.3},{"zip":"88584","city":"El Paso","state":"TX","lat":31.6948,"long":-106.3},{"zip":"88585","city":"El Paso","state":"TX","lat":31.6948,"long":-106.3},{"zip":"88586","city":"El Paso","state":"TX","lat":31.6948,"long":-106.3},{"zip":"88587","city":"El Paso","state":"TX","lat":31.6948,"long":-106.3},{"zip":"88588","city":"El Paso","state":"TX","lat":31.6948,"long":-106.3},{"zip":"88589","city":"El Paso","state":"TX","lat":31.6948,"long":-106.3},{"zip":"88590","city":"El Paso","state":"TX","lat":31.6948,"long":-106.3},{"zip":"88595","city":"El Paso","state":"TX","lat":31.6948,"long":-106.3}]
