[{"zip":"88039","city":"Glenwood","state":"NM","lat":33.3048,"long":-108.7743},{"zip":"88001","city":"Las Cruces","state":"NM","lat":32.2901,"long":-106.7539},{"zip":"88002","city":"White Sands Missile Range","state":"NM","lat":32.3839,"long":-106.4937},{"zip":"88003","city":"Las Cruces","state":"NM","lat":32.2738,"long":-106.7472},{"zip":"88004","city":"Las Cruces","state":"NM","lat":32.4181,"long":-106.8201},{"zip":"88005","city":"Las Cruces","state":"NM","lat":32.3161,"long":-106.7991},{"zip":"88006","city":"Las Cruces","state":"NM","lat":32.3052,"long":-106.7863},{"zip":"88007","city":"Las Cruces","state":"NM","lat":32.3224,"long":-106.8041},{"zip":"88008","city":"Santa Teresa","state":"NM","lat":31.8394,"long":-106.6821},{"zip":"88011","city":"Las Cruces","state":"NM","lat":32.3244,"long":-106.6683},{"zip":"88012","city":"Las Cruces","state":"NM","lat":32.5835,"long":-106.7714},{"zip":"88021","city":"Anthony","state":"NM","lat":32.004,"long":-106.6058},{"zip":"88024","city":"Berino","state":"NM","lat":32.0682,"long":-106.631},{"zip":"88027","city":"Chamberino","state":"NM","lat":32.0174,"long":-106.6673},{"zip":"88032","city":"Dona Ana","state":"NM","lat":32.3939,"long":-106.801},{"zip":"88033","city":"Fairacres","state":"NM","lat":32.2984,"long":-106.8812},{"zip":"88044","city":"La Mesa","state":"NM","lat":32.1383,"long":-106.7999},{"zip":"88046","city":"Mesilla","state":"NM","lat":32.268,"long":-106.8059},{"zip":"88047","city":"Mesilla Park","state":"NM","lat":32.21,"long":-106.7147},{"zip":"88048","city":"Mesquite","state":"NM","lat":32.146,"long":-106.6676},{"zip":"88052","city":"Organ","state":"NM","lat":32.4259,"long":-106.6136},{"zip":"88054","city":"Radium Springs","state":"NM","lat":32.4888,"long":-106.9146},{"zip":"88058","city":"San Miguel","state":"NM","lat":32.1554,"long":-106.735},{"zip":"88063","city":"Sunland Park","state":"NM","lat":31.8186,"long":-106.5997},{"zip":"88072","city":"Vado","state":"NM","lat":32.1187,"long":-106.649},{"zip":"88022","city":"Arenas Valley","state":"NM","lat":32.7839,"long":-108.1854},{"zip":"88023","city":"Bayard","state":"NM","lat":32.7617,"long":-108.1306},{"zip":"88025","city":"Buckhorn","state":"NM","lat":33.0633,"long":-108.6956},{"zip":"88026","city":"Santa Clara","state":"NM","lat":32.7795,"long":-108.1503},{"zip":"88028","city":"Cliff","state":"NM","lat":32.9623,"long":-108.6112},{"zip":"88034","city":"Faywood","state":"NM","lat":32.6935,"long":-107.9065},{"zip":"88036","city":"Fort Bayard","state":"NM","lat":32.7574,"long":-108.0075},{"zip":"88038","city":"Gila","state":"NM","lat":32.9659,"long":-108.5767},{"zip":"88040","city":"Hachita","state":"NM","lat":31.8904,"long":-108.3316},{"zip":"88041","city":"Hanover","state":"NM","lat":32.8045,"long":-107.9545},{"zip":"88043","city":"Hurley","state":"NM","lat":32.648,"long":-108.1516},{"zip":"88049","city":"Mimbres","state":"NM","lat":32.909,"long":-108.0332},{"zip":"88051","city":"Mule Creek","state":"NM","lat":33.1071,"long":-108.9032},{"zip":"88053","city":"Pinos Altos","state":"NM","lat":32.8614,"long":-108.2192},{"zip":"88055","city":"Redrock","state":"NM","lat":32.6862,"long":-108.7381},{"zip":"88061","city":"Silver City","state":"NM","lat":32.79,"long":-108.2749},{"zip":"88062","city":"Silver City","state":"NM","lat":32.7282,"long":-108.1379},{"zip":"88065","city":"Tyrone","state":"NM","lat":32.7098,"long":-108.302},{"zip":"88009","city":"Playas","state":"NM","lat":32.055,"long":-108.6291},{"zip":"88020","city":"Animas","state":"NM","lat":32.053,"long":-108.9069},{"zip":"88045","city":"Lordsburg","state":"NM","lat":32.316,"long":-108.723},{"zip":"88056","city":"Rodeo","state":"NM","lat":31.8358,"long":-109.0322},{"zip":"88029","city":"Columbus","state":"NM","lat":31.8276,"long":-107.64},{"zip":"88030","city":"Deming","state":"NM","lat":32.2318,"long":-107.7466},{"zip":"88031","city":"Deming","state":"NM","lat":32.2398,"long":-107.7404},{"zip":"88081","city":"Chaparral","state":"NM","lat":32.2239,"long":-106.2631},{"zip":"88042","city":"Hillsboro","state":"NM","lat":32.9239,"long":-107.6276}]
