[{"zip":"88101","city":"Clovis","state":"NM","lat":34.4126,"long":-103.2214},{"zip":"88102","city":"Clovis","state":"NM","lat":34.4048,"long":-103.2052},{"zip":"88103","city":"Cannon Afb","state":"NM","lat":34.3841,"long":-103.3154},{"zip":"88112","city":"Broadview","state":"NM","lat":34.804,"long":-103.1292},{"zip":"88120","city":"Grady","state":"NM","lat":34.8107,"long":-103.298},{"zip":"88124","city":"Melrose","state":"NM","lat":34.4479,"long":-103.6325},{"zip":"88133","city":"Saint Vrain","state":"NM","lat":34.4756,"long":-103.4669},{"zip":"88135","city":"Texico","state":"NM","lat":34.3958,"long":-103.0615},{"zip":"88119","city":"Fort Sumner","state":"NM","lat":34.46,"long":-104.2317},{"zip":"88134","city":"Taiban","state":"NM","lat":34.3271,"long":-104.0159},{"zip":"88136","city":"Yeso","state":"NM","lat":34.455,"long":-104.7452},{"zip":"88114","city":"Crossroads","state":"NM","lat":33.5272,"long":-103.3564},{"zip":"88121","city":"House","state":"NM","lat":34.6952,"long":-103.9203},{"zip":"88113","city":"Causey","state":"NM","lat":33.7781,"long":-103.0865},{"zip":"88115","city":"Dora","state":"NM","lat":33.9387,"long":-103.3366},{"zip":"88116","city":"Elida","state":"NM","lat":33.9405,"long":-103.6323},{"zip":"88118","city":"Floyd","state":"NM","lat":34.252,"long":-103.5827},{"zip":"88122","city":"Kenna","state":"NM","lat":33.8423,"long":-103.7719},{"zip":"88123","city":"Lingo","state":"NM","lat":33.7176,"long":-103.1451},{"zip":"88125","city":"Milnesand","state":"NM","lat":33.605,"long":-103.2782},{"zip":"88126","city":"Pep","state":"NM","lat":33.8054,"long":-103.2881},{"zip":"88130","city":"Portales","state":"NM","lat":34.1799,"long":-103.3363},{"zip":"88132","city":"Rogers","state":"NM","lat":33.9216,"long":-103.1898}]
