[{"zip":"88201","city":"Roswell","state":"NM","lat":33.6397,"long":-104.3748},{"zip":"88202","city":"Roswell","state":"NM","lat":33.3038,"long":-104.4318},{"zip":"88203","city":"Roswell","state":"NM","lat":33.3718,"long":-104.5284},{"zip":"88230","city":"Dexter","state":"NM","lat":33.191,"long":-104.3833},{"zip":"88232","city":"Hagerman","state":"NM","lat":33.1076,"long":-104.3298},{"zip":"88253","city":"Lake Arthur","state":"NM","lat":32.9982,"long":-104.3666},{"zip":"88210","city":"Artesia","state":"NM","lat":32.8384,"long":-104.4074},{"zip":"88211","city":"Artesia","state":"NM","lat":32.7536,"long":-104.3281},{"zip":"88220","city":"Carlsbad","state":"NM","lat":32.4119,"long":-104.2395},{"zip":"88221","city":"Carlsbad","state":"NM","lat":32.342,"long":-104.2937},{"zip":"88250","city":"Hope","state":"NM","lat":32.8156,"long":-104.7299},{"zip":"88254","city":"Lakewood","state":"NM","lat":32.6362,"long":-104.365},{"zip":"88255","city":"Loco Hills","state":"NM","lat":32.819,"long":-103.9777},{"zip":"88256","city":"Loving","state":"NM","lat":32.274,"long":-104.0914},{"zip":"88263","city":"Malaga","state":"NM","lat":32.1813,"long":-104.0668},{"zip":"88268","city":"Whites City","state":"NM","lat":32.1757,"long":-104.3766},{"zip":"88213","city":"Caprock","state":"NM","lat":33.3939,"long":-103.639},{"zip":"88231","city":"Eunice","state":"NM","lat":32.4392,"long":-103.1594},{"zip":"88240","city":"Hobbs","state":"NM","lat":32.7222,"long":-103.1372},{"zip":"88241","city":"Hobbs","state":"NM","lat":32.7475,"long":-103.2165},{"zip":"88242","city":"Hobbs","state":"NM","lat":32.8105,"long":-103.1587},{"zip":"88244","city":"Hobbs","state":"NM","lat":32.7026,"long":-103.136},{"zip":"88252","city":"Jal","state":"NM","lat":32.1128,"long":-103.1997},{"zip":"88260","city":"Lovington","state":"NM","lat":32.9512,"long":-103.3488},{"zip":"88262","city":"Mcdonald","state":"NM","lat":33.1407,"long":-103.3174},{"zip":"88264","city":"Maljamar","state":"NM","lat":32.8562,"long":-103.7627},{"zip":"88265","city":"Monument","state":"NM","lat":32.5874,"long":-103.2703},{"zip":"88267","city":"Tatum","state":"NM","lat":33.26,"long":-103.314}]
