[{"zip":"88353","city":"Vaughn","state":"NM","lat":34.6241,"long":-105.1926},{"zip":"88301","city":"Carrizozo","state":"NM","lat":33.6496,"long":-105.8696},{"zip":"88312","city":"Alto","state":"NM","lat":33.4314,"long":-105.6776},{"zip":"88316","city":"Capitan","state":"NM","lat":33.5602,"long":-105.5269},{"zip":"88318","city":"Corona","state":"NM","lat":34.1693,"long":-105.5339},{"zip":"88323","city":"Fort Stanton","state":"NM","lat":33.4959,"long":-105.523},{"zip":"88324","city":"Glencoe","state":"NM","lat":33.3898,"long":-105.4391},{"zip":"88336","city":"Hondo","state":"NM","lat":33.3876,"long":-105.2708},{"zip":"88338","city":"Lincoln","state":"NM","lat":33.4869,"long":-105.382},{"zip":"88341","city":"Nogal","state":"NM","lat":33.4996,"long":-105.7036},{"zip":"88343","city":"Picacho","state":"NM","lat":33.3518,"long":-105.145},{"zip":"88345","city":"Ruidoso","state":"NM","lat":33.3474,"long":-105.651},{"zip":"88346","city":"Ruidoso Downs","state":"NM","lat":33.3577,"long":-105.5383},{"zip":"88348","city":"San Patricio","state":"NM","lat":33.3877,"long":-105.3498},{"zip":"88351","city":"Tinnie","state":"NM","lat":33.3706,"long":-105.2264},{"zip":"88355","city":"Ruidoso","state":"NM","lat":33.3305,"long":-105.6933},{"zip":"88310","city":"Alamogordo","state":"NM","lat":32.8932,"long":-105.9485},{"zip":"88311","city":"Alamogordo","state":"NM","lat":32.8995,"long":-105.9603},{"zip":"88314","city":"Bent","state":"NM","lat":33.148,"long":-105.8635},{"zip":"88317","city":"Cloudcroft","state":"NM","lat":32.8897,"long":-105.6744},{"zip":"88325","city":"High Rolls Mountain Park","state":"NM","lat":32.9396,"long":-105.8189},{"zip":"88330","city":"Holloman Air Force Base","state":"NM","lat":32.8366,"long":-106.0774},{"zip":"88337","city":"La Luz","state":"NM","lat":32.9774,"long":-105.9534},{"zip":"88339","city":"Mayhill","state":"NM","lat":32.907,"long":-105.5181},{"zip":"88340","city":"Mescalero","state":"NM","lat":33.2164,"long":-105.7743},{"zip":"88342","city":"Orogrande","state":"NM","lat":32.4051,"long":-106.0797},{"zip":"88344","city":"Pinon","state":"NM","lat":32.6396,"long":-105.4157},{"zip":"88347","city":"Sacramento","state":"NM","lat":32.8052,"long":-105.6211},{"zip":"88349","city":"Sunspot","state":"NM","lat":32.8672,"long":-105.7811},{"zip":"88350","city":"Timberon","state":"NM","lat":32.6295,"long":-105.6945},{"zip":"88352","city":"Tularosa","state":"NM","lat":33.065,"long":-106.0108},{"zip":"88354","city":"Weed","state":"NM","lat":32.8052,"long":-105.5063},{"zip":"88321","city":"Encino","state":"NM","lat":34.615,"long":-105.4839}]
