[{"zip":"88417","city":"Cuervo","state":"NM","lat":35.0101,"long":-104.3999},{"zip":"88431","city":"Newkirk","state":"NM","lat":35.0847,"long":-104.2433},{"zip":"88435","city":"Santa Rosa","state":"NM","lat":34.8526,"long":-104.5899},{"zip":"88401","city":"Tucumcari","state":"NM","lat":35.168,"long":-103.7179},{"zip":"88411","city":"Bard","state":"NM","lat":35.1303,"long":-103.1605},{"zip":"88426","city":"Logan","state":"NM","lat":35.3681,"long":-103.4383},{"zip":"88427","city":"Mcalister","state":"NM","lat":34.6923,"long":-103.7764},{"zip":"88430","city":"Nara Visa","state":"NM","lat":35.618,"long":-103.1317},{"zip":"88433","city":"Quay","state":"NM","lat":34.9167,"long":-103.7782},{"zip":"88434","city":"San Jon","state":"NM","lat":35.1198,"long":-103.2846},{"zip":"88416","city":"Conchas Dam","state":"NM","lat":35.3786,"long":-104.2052},{"zip":"88421","city":"Garita","state":"NM","lat":35.3502,"long":-104.4419},{"zip":"88439","city":"Trementina","state":"NM","lat":35.4563,"long":-104.6796},{"zip":"88410","city":"Amistad","state":"NM","lat":35.8983,"long":-103.213},{"zip":"88414","city":"Capulin","state":"NM","lat":36.7785,"long":-103.9986},{"zip":"88415","city":"Clayton","state":"NM","lat":36.4414,"long":-103.1888},{"zip":"88418","city":"Des Moines","state":"NM","lat":36.7291,"long":-103.8739},{"zip":"88419","city":"Folsom","state":"NM","lat":36.869,"long":-103.8399},{"zip":"88422","city":"Gladstone","state":"NM","lat":36.3048,"long":-103.973},{"zip":"88424","city":"Grenville","state":"NM","lat":36.3698,"long":-103.5055},{"zip":"88436","city":"Sedan","state":"NM","lat":36.226,"long":-103.1449}]
