[{"zip":"89002","city":"Henderson","state":"NV","lat":36.0008,"long":-114.9588},{"zip":"89004","city":"Blue Diamond","state":"NV","lat":36.0464,"long":-115.4039},{"zip":"89005","city":"Boulder City","state":"NV","lat":35.9727,"long":-114.8344},{"zip":"89006","city":"Boulder City","state":"NV","lat":35.9279,"long":-114.9721},{"zip":"89007","city":"Bunkerville","state":"NV","lat":36.7684,"long":-114.1281},{"zip":"89009","city":"Henderson","state":"NV","lat":35.9279,"long":-114.9721},{"zip":"89011","city":"Henderson","state":"NV","lat":36.1065,"long":-114.9192},{"zip":"89012","city":"Henderson","state":"NV","lat":36.0119,"long":-115.0433},{"zip":"89014","city":"Henderson","state":"NV","lat":36.0564,"long":-115.078},{"zip":"89015","city":"Henderson","state":"NV","lat":36.0357,"long":-114.9718},{"zip":"89016","city":"Henderson","state":"NV","lat":35.9279,"long":-114.9721},{"zip":"89018","city":"Indian Springs","state":"NV","lat":36.5697,"long":-115.6706},{"zip":"89019","city":"Jean","state":"NV","lat":35.7368,"long":-115.5405},{"zip":"89021","city":"Logandale","state":"NV","lat":36.5935,"long":-114.4683},{"zip":"89024","city":"Mesquite","state":"NV","lat":36.8101,"long":-114.0722},{"zip":"89025","city":"Moapa","state":"NV","lat":36.6916,"long":-114.6514},{"zip":"89026","city":"Jean","state":"NV","lat":35.7789,"long":-115.3239},{"zip":"89027","city":"Mesquite","state":"NV","lat":36.8113,"long":-114.1235},{"zip":"89028","city":"Laughlin","state":"NV","lat":35.1604,"long":-114.7464},{"zip":"89029","city":"Laughlin","state":"NV","lat":35.1321,"long":-114.6368},{"zip":"89030","city":"North Las Vegas","state":"NV","lat":36.2115,"long":-115.1241},{"zip":"89031","city":"North Las Vegas","state":"NV","lat":36.2589,"long":-115.1718},{"zip":"89032","city":"North Las Vegas","state":"NV","lat":36.218,"long":-115.1709},{"zip":"89033","city":"North Las Vegas","state":"NV","lat":36.2845,"long":-115.1345},{"zip":"89034","city":"Mesquite","state":"NV","lat":36.809,"long":-114.0591},{"zip":"89036","city":"North Las Vegas","state":"NV","lat":36.1989,"long":-115.1175},{"zip":"89037","city":"Coyote Springs","state":"NV","lat":36.1579,"long":-114.934},{"zip":"89039","city":"Cal Nev Ari","state":"NV","lat":35.2522,"long":-114.8714},{"zip":"89040","city":"Overton","state":"NV","lat":36.5703,"long":-114.4732},{"zip":"89046","city":"Searchlight","state":"NV","lat":35.5132,"long":-114.8866},{"zip":"89052","city":"Henderson","state":"NV","lat":35.9878,"long":-115.1167},{"zip":"89053","city":"Henderson","state":"NV","lat":35.9279,"long":-114.9721},{"zip":"89054","city":"Sloan","state":"NV","lat":35.935,"long":-115.2058},{"zip":"89067","city":"Moapa","state":"NV","lat":36.6591,"long":-114.6656},{"zip":"89070","city":"Indian Springs","state":"NV","lat":36.5697,"long":-115.6706},{"zip":"89074","city":"Henderson","state":"NV","lat":36.0384,"long":-115.0857},{"zip":"89077","city":"Henderson","state":"NV","lat":36.0397,"long":-114.9819},{"zip":"89081","city":"North Las Vegas","state":"NV","lat":36.2583,"long":-115.1068},{"zip":"89084","city":"North Las Vegas","state":"NV","lat":36.2815,"long":-115.1482},{"zip":"89085","city":"North Las Vegas","state":"NV","lat":36.3097,"long":-115.1981},{"zip":"89086","city":"North Las Vegas","state":"NV","lat":36.2809,"long":-115.1349},{"zip":"89087","city":"North Las Vegas","state":"NV","lat":36.2204,"long":-115.1458},{"zip":"89010","city":"Dyer","state":"NV","lat":37.7776,"long":-118.084},{"zip":"89013","city":"Goldfield","state":"NV","lat":37.8344,"long":-117.2694},{"zip":"89047","city":"Silverpeak","state":"NV","lat":37.7225,"long":-117.7965},{"zip":"89001","city":"Alamo","state":"NV","lat":37.3259,"long":-115.308},{"zip":"89008","city":"Caliente","state":"NV","lat":37.6128,"long":-114.5097},{"zip":"89017","city":"Hiko","state":"NV","lat":37.5926,"long":-115.2262},{"zip":"89042","city":"Panaca","state":"NV","lat":37.7905,"long":-114.3894},{"zip":"89043","city":"Pioche","state":"NV","lat":37.8981,"long":-114.3968},{"zip":"89044","city":"Henderson","state":"NV","lat":35.9025,"long":-115.1789},{"zip":"89003","city":"Beatty","state":"NV","lat":36.8199,"long":-116.6094},{"zip":"89020","city":"Amargosa Valley","state":"NV","lat":36.539,"long":-116.5496},{"zip":"89022","city":"Manhattan","state":"NV","lat":38.5388,"long":-117.0734},{"zip":"89023","city":"Mercury","state":"NV","lat":36.6605,"long":-115.9945},{"zip":"89041","city":"Pahrump","state":"NV","lat":36.2083,"long":-115.9839},{"zip":"89045","city":"Round Mountain","state":"NV","lat":38.711,"long":-117.0676},{"zip":"89048","city":"Pahrump","state":"NV","lat":36.1661,"long":-116.0038},{"zip":"89049","city":"Tonopah","state":"NV","lat":38.2626,"long":-116.6248},{"zip":"89060","city":"Pahrump","state":"NV","lat":36.2645,"long":-116.0393},{"zip":"89061","city":"Pahrump","state":"NV","lat":36.1184,"long":-115.9407}]
