[{"zip":"89101","city":"Las Vegas","state":"NV","lat":36.1721,"long":-115.1224},{"zip":"89102","city":"Las Vegas","state":"NV","lat":36.1433,"long":-115.2004},{"zip":"89103","city":"Las Vegas","state":"NV","lat":36.1149,"long":-115.2161},{"zip":"89104","city":"Las Vegas","state":"NV","lat":36.152,"long":-115.1092},{"zip":"89105","city":"Las Vegas","state":"NV","lat":36.086,"long":-115.1471},{"zip":"89106","city":"Las Vegas","state":"NV","lat":36.1847,"long":-115.1617},{"zip":"89107","city":"Las Vegas","state":"NV","lat":36.1705,"long":-115.2176},{"zip":"89108","city":"Las Vegas","state":"NV","lat":36.2044,"long":-115.2233},{"zip":"89109","city":"Las Vegas","state":"NV","lat":36.126,"long":-115.1454},{"zip":"89110","city":"Las Vegas","state":"NV","lat":36.173,"long":-115.0669},{"zip":"89111","city":"Las Vegas","state":"NV","lat":36.175,"long":-115.1372},{"zip":"89112","city":"Las Vegas","state":"NV","lat":36.1578,"long":-115.0256},{"zip":"89113","city":"Las Vegas","state":"NV","lat":36.0854,"long":-115.2566},{"zip":"89114","city":"Las Vegas","state":"NV","lat":36.0113,"long":-115.1015},{"zip":"89115","city":"Las Vegas","state":"NV","lat":36.2158,"long":-115.0671},{"zip":"89116","city":"Las Vegas","state":"NV","lat":36.175,"long":-115.1372},{"zip":"89117","city":"Las Vegas","state":"NV","lat":36.1302,"long":-115.2755},{"zip":"89118","city":"Las Vegas","state":"NV","lat":36.0811,"long":-115.2169},{"zip":"89119","city":"Las Vegas","state":"NV","lat":36.1008,"long":-115.1365},{"zip":"89120","city":"Las Vegas","state":"NV","lat":36.0914,"long":-115.0885},{"zip":"89121","city":"Las Vegas","state":"NV","lat":36.1232,"long":-115.0902},{"zip":"89122","city":"Las Vegas","state":"NV","lat":36.1205,"long":-115.0523},{"zip":"89123","city":"Las Vegas","state":"NV","lat":36.0383,"long":-115.1462},{"zip":"89124","city":"Las Vegas","state":"NV","lat":36.4257,"long":-115.4809},{"zip":"89125","city":"Las Vegas","state":"NV","lat":36.2235,"long":-115.2655},{"zip":"89126","city":"Las Vegas","state":"NV","lat":36.175,"long":-115.1372},{"zip":"89127","city":"Las Vegas","state":"NV","lat":36.175,"long":-115.1372},{"zip":"89128","city":"Las Vegas","state":"NV","lat":36.1968,"long":-115.2644},{"zip":"89129","city":"Las Vegas","state":"NV","lat":36.245,"long":-115.2743},{"zip":"89130","city":"Las Vegas","state":"NV","lat":36.2471,"long":-115.221},{"zip":"89131","city":"Las Vegas","state":"NV","lat":36.2956,"long":-115.2419},{"zip":"89132","city":"Las Vegas","state":"NV","lat":36.019,"long":-115.1519},{"zip":"89133","city":"Las Vegas","state":"NV","lat":36.175,"long":-115.1372},{"zip":"89134","city":"Las Vegas","state":"NV","lat":36.2092,"long":-115.2941},{"zip":"89135","city":"Las Vegas","state":"NV","lat":36.1378,"long":-115.3261},{"zip":"89136","city":"Las Vegas","state":"NV","lat":36.1753,"long":-115.1364},{"zip":"89137","city":"Las Vegas","state":"NV","lat":36.175,"long":-115.1372},{"zip":"89138","city":"Las Vegas","state":"NV","lat":36.1666,"long":-115.3613},{"zip":"89139","city":"Las Vegas","state":"NV","lat":36.0129,"long":-115.2118},{"zip":"89140","city":"Las Vegas","state":"NV","lat":36.086,"long":-115.1471},{"zip":"89141","city":"Las Vegas","state":"NV","lat":36.0104,"long":-115.2073},{"zip":"89142","city":"Las Vegas","state":"NV","lat":36.148,"long":-115.0404},{"zip":"89143","city":"Las Vegas","state":"NV","lat":36.3223,"long":-115.2932},{"zip":"89144","city":"Las Vegas","state":"NV","lat":36.1781,"long":-115.3183},{"zip":"89145","city":"Las Vegas","state":"NV","lat":36.1693,"long":-115.2828},{"zip":"89146","city":"Las Vegas","state":"NV","lat":36.1424,"long":-115.2242},{"zip":"89147","city":"Las Vegas","state":"NV","lat":36.1128,"long":-115.2801},{"zip":"89148","city":"Las Vegas","state":"NV","lat":36.0588,"long":-115.3104},{"zip":"89149","city":"Las Vegas","state":"NV","lat":36.2765,"long":-115.2885},{"zip":"89150","city":"Las Vegas","state":"NV","lat":36.175,"long":-115.1372},{"zip":"89151","city":"Las Vegas","state":"NV","lat":36.175,"long":-115.1372},{"zip":"89152","city":"Las Vegas","state":"NV","lat":36.175,"long":-115.1372},{"zip":"89153","city":"Las Vegas","state":"NV","lat":36.175,"long":-115.1372},{"zip":"89154","city":"Las Vegas","state":"NV","lat":36.175,"long":-115.1372},{"zip":"89155","city":"Las Vegas","state":"NV","lat":36.175,"long":-115.1372},{"zip":"89156","city":"Las Vegas","state":"NV","lat":36.2034,"long":-115.0364},{"zip":"89157","city":"Las Vegas","state":"NV","lat":36.175,"long":-115.1372},{"zip":"89158","city":"Las Vegas","state":"NV","lat":36.175,"long":-115.1372},{"zip":"89159","city":"Las Vegas","state":"NV","lat":36.175,"long":-115.1372},{"zip":"89160","city":"Las Vegas","state":"NV","lat":36.175,"long":-115.1372},{"zip":"89161","city":"Las Vegas","state":"NV","lat":36.0004,"long":-115.3639},{"zip":"89162","city":"Las Vegas","state":"NV","lat":36.1725,"long":-115.1414},{"zip":"89163","city":"The Lakes","state":"NV","lat":36.175,"long":-115.1372},{"zip":"89164","city":"Las Vegas","state":"NV","lat":36.175,"long":-115.1372},{"zip":"89165","city":"Las Vegas","state":"NV","lat":36.3302,"long":-115.3257},{"zip":"89166","city":"Las Vegas","state":"NV","lat":36.3265,"long":-115.3398},{"zip":"89169","city":"Las Vegas","state":"NV","lat":36.1234,"long":-115.1429},{"zip":"89170","city":"Las Vegas","state":"NV","lat":36.175,"long":-115.1372},{"zip":"89173","city":"Las Vegas","state":"NV","lat":36.175,"long":-115.1372},{"zip":"89177","city":"Las Vegas","state":"NV","lat":36.175,"long":-115.1372},{"zip":"89178","city":"Las Vegas","state":"NV","lat":35.9977,"long":-115.2861},{"zip":"89179","city":"Las Vegas","state":"NV","lat":36.2542,"long":-115.5269},{"zip":"89180","city":"Las Vegas","state":"NV","lat":36.175,"long":-115.1372},{"zip":"89183","city":"Las Vegas","state":"NV","lat":35.9959,"long":-115.1576},{"zip":"89185","city":"Las Vegas","state":"NV","lat":36.175,"long":-115.1372},{"zip":"89191","city":"Nellis Afb","state":"NV","lat":36.2395,"long":-115.0257},{"zip":"89193","city":"Las Vegas","state":"NV","lat":36.175,"long":-115.1372},{"zip":"89195","city":"Las Vegas","state":"NV","lat":36.175,"long":-115.1372},{"zip":"89199","city":"Las Vegas","state":"NV","lat":36.175,"long":-115.1372}]
