[{"zip":"89406","city":"Fallon","state":"NV","lat":39.4703,"long":-118.7861},{"zip":"89407","city":"Fallon","state":"NV","lat":39.4735,"long":-118.7774},{"zip":"89496","city":"Fallon","state":"NV","lat":39.4735,"long":-118.7774},{"zip":"89410","city":"Gardnerville","state":"NV","lat":38.8703,"long":-119.6115},{"zip":"89411","city":"Genoa","state":"NV","lat":39.0341,"long":-119.8228},{"zip":"89413","city":"Glenbrook","state":"NV","lat":39.0509,"long":-119.9428},{"zip":"89423","city":"Minden","state":"NV","lat":39.0218,"long":-119.7314},{"zip":"89448","city":"Zephyr Cove","state":"NV","lat":39.0204,"long":-119.9114},{"zip":"89449","city":"Stateline","state":"NV","lat":38.9643,"long":-119.9068},{"zip":"89460","city":"Gardnerville","state":"NV","lat":38.9166,"long":-119.7272},{"zip":"89404","city":"Denio","state":"NV","lat":41.9899,"long":-118.6343},{"zip":"89414","city":"Golconda","state":"NV","lat":40.9683,"long":-117.3349},{"zip":"89421","city":"Mc Dermitt","state":"NV","lat":41.9708,"long":-117.6737},{"zip":"89425","city":"Orovada","state":"NV","lat":41.6654,"long":-117.9083},{"zip":"89426","city":"Paradise Valley","state":"NV","lat":41.5057,"long":-117.5728},{"zip":"89438","city":"Valmy","state":"NV","lat":40.7927,"long":-117.1268},{"zip":"89445","city":"Winnemucca","state":"NV","lat":40.9664,"long":-117.7467},{"zip":"89446","city":"Winnemucca","state":"NV","lat":41.0764,"long":-117.7602},{"zip":"89403","city":"Dayton","state":"NV","lat":39.2806,"long":-119.5287},{"zip":"89408","city":"Fernley","state":"NV","lat":39.6019,"long":-119.235},{"zip":"89428","city":"Silver City","state":"NV","lat":39.2652,"long":-119.6388},{"zip":"89429","city":"Silver Springs","state":"NV","lat":39.38,"long":-119.2705},{"zip":"89430","city":"Smith","state":"NV","lat":38.7733,"long":-119.3029},{"zip":"89444","city":"Wellington","state":"NV","lat":38.8447,"long":-119.3523},{"zip":"89447","city":"Yerington","state":"NV","lat":38.9866,"long":-119.1596},{"zip":"89415","city":"Hawthorne","state":"NV","lat":38.5347,"long":-118.6411},{"zip":"89420","city":"Luning","state":"NV","lat":38.5063,"long":-118.1815},{"zip":"89422","city":"Mina","state":"NV","lat":38.387,"long":-118.1096},{"zip":"89427","city":"Schurz","state":"NV","lat":38.9575,"long":-118.7756},{"zip":"89409","city":"Gabbs","state":"NV","lat":38.8688,"long":-117.9221},{"zip":"89418","city":"Imlay","state":"NV","lat":40.5484,"long":-118.0344},{"zip":"89419","city":"Lovelock","state":"NV","lat":40.1819,"long":-118.4689},{"zip":"89440","city":"Virginia City","state":"NV","lat":39.2965,"long":-119.6587},{"zip":"89402","city":"Crystal Bay","state":"NV","lat":39.226,"long":-120.0041},{"zip":"89405","city":"Empire","state":"NV","lat":40.6132,"long":-119.3485},{"zip":"89412","city":"Gerlach","state":"NV","lat":40.6525,"long":-119.3565},{"zip":"89424","city":"Nixon","state":"NV","lat":39.8272,"long":-119.3605},{"zip":"89431","city":"Sparks","state":"NV","lat":39.5473,"long":-119.7556},{"zip":"89432","city":"Sparks","state":"NV","lat":39.5349,"long":-119.7527},{"zip":"89433","city":"Sun Valley","state":"NV","lat":39.5955,"long":-119.7754},{"zip":"89434","city":"Sparks","state":"NV","lat":39.5502,"long":-119.7178},{"zip":"89435","city":"Sparks","state":"NV","lat":39.5349,"long":-119.7527},{"zip":"89436","city":"Sparks","state":"NV","lat":39.6269,"long":-119.7081},{"zip":"89439","city":"Verdi","state":"NV","lat":39.5165,"long":-119.9833},{"zip":"89441","city":"Sparks","state":"NV","lat":39.6582,"long":-119.6954},{"zip":"89442","city":"Wadsworth","state":"NV","lat":39.6481,"long":-119.2918},{"zip":"89450","city":"Incline Village","state":"NV","lat":39.2564,"long":-119.9464},{"zip":"89451","city":"Incline Village","state":"NV","lat":39.2564,"long":-119.9521},{"zip":"89452","city":"Incline Village","state":"NV","lat":39.2591,"long":-119.9566}]
