[{"zip":"89501","city":"Reno","state":"NV","lat":39.5268,"long":-119.8113},{"zip":"89502","city":"Reno","state":"NV","lat":39.4972,"long":-119.7764},{"zip":"89503","city":"Reno","state":"NV","lat":39.5354,"long":-119.8374},{"zip":"89504","city":"Reno","state":"NV","lat":39.5296,"long":-119.8138},{"zip":"89505","city":"Reno","state":"NV","lat":39.5224,"long":-119.8353},{"zip":"89506","city":"Reno","state":"NV","lat":39.6412,"long":-119.8735},{"zip":"89507","city":"Reno","state":"NV","lat":39.5423,"long":-119.8164},{"zip":"89508","city":"Reno","state":"NV","lat":39.6781,"long":-119.9383},{"zip":"89509","city":"Reno","state":"NV","lat":39.498,"long":-119.8239},{"zip":"89510","city":"Reno","state":"NV","lat":39.7699,"long":-119.6027},{"zip":"89511","city":"Reno","state":"NV","lat":39.4151,"long":-119.7668},{"zip":"89512","city":"Reno","state":"NV","lat":39.5483,"long":-119.7957},{"zip":"89513","city":"Reno","state":"NV","lat":39.53,"long":-119.81},{"zip":"89515","city":"Reno","state":"NV","lat":39.5296,"long":-119.8138},{"zip":"89519","city":"Reno","state":"NV","lat":39.4814,"long":-119.8591},{"zip":"89520","city":"Reno","state":"NV","lat":39.5296,"long":-119.8138},{"zip":"89521","city":"Reno","state":"NV","lat":39.3809,"long":-119.6859},{"zip":"89523","city":"Reno","state":"NV","lat":39.5249,"long":-119.9031},{"zip":"89533","city":"Reno","state":"NV","lat":39.5439,"long":-119.9061},{"zip":"89555","city":"Reno","state":"NV","lat":39.5246,"long":-119.8125},{"zip":"89557","city":"Reno","state":"NV","lat":39.5296,"long":-119.8138},{"zip":"89570","city":"Reno","state":"NV","lat":39.5296,"long":-119.8138},{"zip":"89595","city":"Reno","state":"NV","lat":39.5296,"long":-119.8138},{"zip":"89599","city":"Reno","state":"NV","lat":39.5296,"long":-119.8138}]
