[{"zip":"89801","city":"Elko","state":"NV","lat":40.9056,"long":-115.5344},{"zip":"89802","city":"Elko","state":"NV","lat":40.8324,"long":-115.7631},{"zip":"89803","city":"Elko","state":"NV","lat":40.8324,"long":-115.7631},{"zip":"89815","city":"Spring Creek","state":"NV","lat":40.7519,"long":-115.5956},{"zip":"89822","city":"Carlin","state":"NV","lat":40.7172,"long":-116.1082},{"zip":"89823","city":"Deeth","state":"NV","lat":41.0655,"long":-115.2748},{"zip":"89825","city":"Jackpot","state":"NV","lat":41.8882,"long":-114.7233},{"zip":"89826","city":"Jarbidge","state":"NV","lat":41.8873,"long":-115.3813},{"zip":"89828","city":"Lamoille","state":"NV","lat":40.7505,"long":-115.3631},{"zip":"89830","city":"Montello","state":"NV","lat":41.2613,"long":-114.1942},{"zip":"89831","city":"Mountain City","state":"NV","lat":41.8385,"long":-115.9654},{"zip":"89832","city":"Owyhee","state":"NV","lat":41.9477,"long":-116.0987},{"zip":"89833","city":"Ruby Valley","state":"NV","lat":40.3995,"long":-115.2312},{"zip":"89834","city":"Tuscarora","state":"NV","lat":41.3141,"long":-116.2218},{"zip":"89835","city":"Wells","state":"NV","lat":41.1116,"long":-114.9645},{"zip":"89883","city":"West Wendover","state":"NV","lat":40.7391,"long":-114.0733},{"zip":"89821","city":"Crescent Valley","state":"NV","lat":40.4138,"long":-116.5813},{"zip":"89820","city":"Battle Mountain","state":"NV","lat":40.622,"long":-116.9554}]
