[{"zip":"90001","city":"Los Angeles","state":"CA","lat":33.9731,"long":-118.2479},{"zip":"90002","city":"Los Angeles","state":"CA","lat":33.9497,"long":-118.2462},{"zip":"90003","city":"Los Angeles","state":"CA","lat":33.9653,"long":-118.2727},{"zip":"90004","city":"Los Angeles","state":"CA","lat":34.0762,"long":-118.3029},{"zip":"90005","city":"Los Angeles","state":"CA","lat":34.0585,"long":-118.3012},{"zip":"90006","city":"Los Angeles","state":"CA","lat":34.0493,"long":-118.2917},{"zip":"90007","city":"Los Angeles","state":"CA","lat":34.0294,"long":-118.2871},{"zip":"90008","city":"Los Angeles","state":"CA","lat":34.0116,"long":-118.3411},{"zip":"90009","city":"Los Angeles","state":"CA","lat":34.0522,"long":-118.2437},{"zip":"90010","city":"Los Angeles","state":"CA","lat":34.0606,"long":-118.3027},{"zip":"90011","city":"Los Angeles","state":"CA","lat":34.0079,"long":-118.2582},{"zip":"90012","city":"Los Angeles","state":"CA","lat":34.0614,"long":-118.2385},{"zip":"90013","city":"Los Angeles","state":"CA","lat":34.0448,"long":-118.2434},{"zip":"90014","city":"Los Angeles","state":"CA","lat":34.0443,"long":-118.2509},{"zip":"90015","city":"Los Angeles","state":"CA","lat":34.0434,"long":-118.2716},{"zip":"90016","city":"Los Angeles","state":"CA","lat":34.0298,"long":-118.3528},{"zip":"90017","city":"Los Angeles","state":"CA","lat":34.0559,"long":-118.2666},{"zip":"90018","city":"Los Angeles","state":"CA","lat":34.029,"long":-118.3152},{"zip":"90019","city":"Los Angeles","state":"CA","lat":34.0482,"long":-118.3343},{"zip":"90020","city":"Los Angeles","state":"CA","lat":34.0665,"long":-118.3022},{"zip":"90021","city":"Los Angeles","state":"CA","lat":34.0333,"long":-118.2447},{"zip":"90022","city":"Los Angeles","state":"CA","lat":34.0245,"long":-118.1561},{"zip":"90023","city":"Los Angeles","state":"CA","lat":34.0245,"long":-118.1975},{"zip":"90024","city":"Los Angeles","state":"CA","lat":34.0637,"long":-118.4408},{"zip":"90025","city":"Los Angeles","state":"CA","lat":34.0447,"long":-118.4487},{"zip":"90026","city":"Los Angeles","state":"CA","lat":34.0766,"long":-118.2646},{"zip":"90027","city":"Los Angeles","state":"CA","lat":34.104,"long":-118.2925},{"zip":"90028","city":"Los Angeles","state":"CA","lat":34.1005,"long":-118.3254},{"zip":"90029","city":"Los Angeles","state":"CA","lat":34.09,"long":-118.2944},{"zip":"90030","city":"Los Angeles","state":"CA","lat":34.0522,"long":-118.2437},{"zip":"90031","city":"Los Angeles","state":"CA","lat":34.0783,"long":-118.2113},{"zip":"90032","city":"Los Angeles","state":"CA","lat":34.0818,"long":-118.1753},{"zip":"90033","city":"Los Angeles","state":"CA","lat":34.0487,"long":-118.2084},{"zip":"90034","city":"Los Angeles","state":"CA","lat":34.029,"long":-118.4005},{"zip":"90035","city":"Los Angeles","state":"CA","lat":34.0531,"long":-118.3806},{"zip":"90036","city":"Los Angeles","state":"CA","lat":34.0699,"long":-118.3492},{"zip":"90037","city":"Los Angeles","state":"CA","lat":34.003,"long":-118.2863},{"zip":"90038","city":"Los Angeles","state":"CA","lat":34.0898,"long":-118.3215},{"zip":"90039","city":"Los Angeles","state":"CA","lat":34.1121,"long":-118.2594},{"zip":"90040","city":"Los Angeles","state":"CA","lat":33.9909,"long":-118.1532},{"zip":"90041","city":"Los Angeles","state":"CA","lat":34.1339,"long":-118.2082},{"zip":"90042","city":"Los Angeles","state":"CA","lat":34.1145,"long":-118.1929},{"zip":"90043","city":"Los Angeles","state":"CA","lat":33.9871,"long":-118.3321},{"zip":"90044","city":"Los Angeles","state":"CA","lat":33.9551,"long":-118.2901},{"zip":"90045","city":"Los Angeles","state":"CA","lat":33.9631,"long":-118.3941},{"zip":"90046","city":"Los Angeles","state":"CA","lat":34.1074,"long":-118.3652},{"zip":"90047","city":"Los Angeles","state":"CA","lat":33.9569,"long":-118.3073},{"zip":"90048","city":"Los Angeles","state":"CA","lat":34.0737,"long":-118.372},{"zip":"90049","city":"Los Angeles","state":"CA","lat":34.066,"long":-118.474},{"zip":"90050","city":"Los Angeles","state":"CA","lat":34.0522,"long":-118.2437},{"zip":"90051","city":"Los Angeles","state":"CA","lat":34.0522,"long":-118.2437},{"zip":"90052","city":"Los Angeles","state":"CA","lat":34.0522,"long":-118.2437},{"zip":"90053","city":"Los Angeles","state":"CA","lat":34.0522,"long":-118.2437},{"zip":"90054","city":"Los Angeles","state":"CA","lat":34.0522,"long":-118.2437},{"zip":"90055","city":"Los Angeles","state":"CA","lat":34.0522,"long":-118.2437},{"zip":"90056","city":"Los Angeles","state":"CA","lat":33.9853,"long":-118.3707},{"zip":"90057","city":"Los Angeles","state":"CA","lat":34.0622,"long":-118.2763},{"zip":"90058","city":"Los Angeles","state":"CA","lat":33.9994,"long":-118.2133},{"zip":"90059","city":"Los Angeles","state":"CA","lat":33.9293,"long":-118.2463},{"zip":"90060","city":"Los Angeles","state":"CA","lat":34.0522,"long":-118.2437},{"zip":"90061","city":"Los Angeles","state":"CA","lat":33.9245,"long":-118.2716},{"zip":"90062","city":"Los Angeles","state":"CA","lat":34.0032,"long":-118.3073},{"zip":"90063","city":"Los Angeles","state":"CA","lat":34.0451,"long":-118.1859},{"zip":"90064","city":"Los Angeles","state":"CA","lat":34.0353,"long":-118.4259},{"zip":"90065","city":"Los Angeles","state":"CA","lat":34.1073,"long":-118.2266},{"zip":"90066","city":"Los Angeles","state":"CA","lat":34.003,"long":-118.4298},{"zip":"90067","city":"Los Angeles","state":"CA","lat":34.0551,"long":-118.4095},{"zip":"90068","city":"Los Angeles","state":"CA","lat":34.1156,"long":-118.3305},{"zip":"90069","city":"West Hollywood","state":"CA","lat":34.0906,"long":-118.3788},{"zip":"90070","city":"Los Angeles","state":"CA","lat":34.0522,"long":-118.2437},{"zip":"90071","city":"Los Angeles","state":"CA","lat":34.0529,"long":-118.2549},{"zip":"90072","city":"Los Angeles","state":"CA","lat":34.0522,"long":-118.2437},{"zip":"90073","city":"Los Angeles","state":"CA","lat":33.7866,"long":-118.2987},{"zip":"90074","city":"Los Angeles","state":"CA","lat":34.0522,"long":-118.2437},{"zip":"90075","city":"Los Angeles","state":"CA","lat":34.0522,"long":-118.2437},{"zip":"90076","city":"Los Angeles","state":"CA","lat":34.0522,"long":-118.2437},{"zip":"90077","city":"Los Angeles","state":"CA","lat":34.1112,"long":-118.4502},{"zip":"90078","city":"Los Angeles","state":"CA","lat":34.0522,"long":-118.2437},{"zip":"90079","city":"Los Angeles","state":"CA","lat":33.7866,"long":-118.2987},{"zip":"90080","city":"Los Angeles","state":"CA","lat":34.0522,"long":-118.2437},{"zip":"90081","city":"Los Angeles","state":"CA","lat":34.0522,"long":-118.2437},{"zip":"90082","city":"Los Angeles","state":"CA","lat":34.0522,"long":-118.2437},{"zip":"90083","city":"Los Angeles","state":"CA","lat":34.0522,"long":-118.2437},{"zip":"90084","city":"Los Angeles","state":"CA","lat":34.0522,"long":-118.2437},{"zip":"90086","city":"Los Angeles","state":"CA","lat":34.0522,"long":-118.2437},{"zip":"90087","city":"Los Angeles","state":"CA","lat":34.0522,"long":-118.2437},{"zip":"90088","city":"Los Angeles","state":"CA","lat":34.0522,"long":-118.2437},{"zip":"90089","city":"Los Angeles","state":"CA","lat":33.7866,"long":-118.2987},{"zip":"90090","city":"Dodgertown","state":"CA","lat":34.0725,"long":-118.2418},{"zip":"90091","city":"Los Angeles","state":"CA","lat":34.0522,"long":-118.2437},{"zip":"90093","city":"Los Angeles","state":"CA","lat":34.0522,"long":-118.2437},{"zip":"90094","city":"Playa Vista","state":"CA","lat":33.9728,"long":-118.4276},{"zip":"90095","city":"Los Angeles","state":"CA","lat":33.7866,"long":-118.2987},{"zip":"90096","city":"Los Angeles","state":"CA","lat":34.0522,"long":-118.2437},{"zip":"90099","city":"Los Angeles","state":"CA","lat":34.0522,"long":-118.2437},{"zip":"90189","city":"Los Angeles","state":"CA","lat":34.0515,"long":-118.2559},{"zip":"90201","city":"Bell Gardens","state":"CA","lat":33.9653,"long":-118.1515},{"zip":"90202","city":"Bell","state":"CA","lat":33.9775,"long":-118.187},{"zip":"90209","city":"Beverly Hills","state":"CA","lat":34.0736,"long":-118.4004},{"zip":"90210","city":"Beverly Hills","state":"CA","lat":34.0901,"long":-118.4065},{"zip":"90211","city":"Beverly Hills","state":"CA","lat":34.0652,"long":-118.383},{"zip":"90212","city":"Beverly Hills","state":"CA","lat":34.0619,"long":-118.3995},{"zip":"90213","city":"Beverly Hills","state":"CA","lat":34.0736,"long":-118.4004},{"zip":"90220","city":"Compton","state":"CA","lat":33.8748,"long":-118.2402},{"zip":"90221","city":"Compton","state":"CA","lat":33.8796,"long":-118.2168},{"zip":"90222","city":"Compton","state":"CA","lat":33.9099,"long":-118.2357},{"zip":"90223","city":"Compton","state":"CA","lat":33.8958,"long":-118.2201},{"zip":"90224","city":"Compton","state":"CA","lat":33.7866,"long":-118.2987},{"zip":"90230","city":"Culver City","state":"CA","lat":33.9949,"long":-118.3991},{"zip":"90231","city":"Culver City","state":"CA","lat":34.0211,"long":-118.3965},{"zip":"90232","city":"Culver City","state":"CA","lat":34.0168,"long":-118.3973},{"zip":"90233","city":"Culver City","state":"CA","lat":34.0211,"long":-118.3965},{"zip":"90239","city":"Downey","state":"CA","lat":33.94,"long":-118.1326},{"zip":"90240","city":"Downey","state":"CA","lat":33.9581,"long":-118.1174},{"zip":"90241","city":"Downey","state":"CA","lat":33.9416,"long":-118.1306},{"zip":"90242","city":"Downey","state":"CA","lat":33.9218,"long":-118.1395},{"zip":"90245","city":"El Segundo","state":"CA","lat":33.9243,"long":-118.4119},{"zip":"90247","city":"Gardena","state":"CA","lat":33.8925,"long":-118.2961},{"zip":"90248","city":"Gardena","state":"CA","lat":33.8766,"long":-118.2835},{"zip":"90249","city":"Gardena","state":"CA","lat":33.8998,"long":-118.3199},{"zip":"90250","city":"Hawthorne","state":"CA","lat":33.9143,"long":-118.3493},{"zip":"90251","city":"Hawthorne","state":"CA","lat":33.9164,"long":-118.3526},{"zip":"90254","city":"Hermosa Beach","state":"CA","lat":33.8643,"long":-118.3955},{"zip":"90255","city":"Huntington Park","state":"CA","lat":33.9769,"long":-118.2161},{"zip":"90260","city":"Lawndale","state":"CA","lat":33.8879,"long":-118.351},{"zip":"90261","city":"Lawndale","state":"CA","lat":33.8872,"long":-118.3526},{"zip":"90262","city":"Lynwood","state":"CA","lat":33.9241,"long":-118.2013},{"zip":"90263","city":"Malibu","state":"CA","lat":34.005,"long":-118.8101},{"zip":"90264","city":"Malibu","state":"CA","lat":34.005,"long":-118.8101},{"zip":"90265","city":"Malibu","state":"CA","lat":34.0402,"long":-118.7351},{"zip":"90266","city":"Manhattan Beach","state":"CA","lat":33.8896,"long":-118.3996},{"zip":"90267","city":"Manhattan Beach","state":"CA","lat":33.7866,"long":-118.2987},{"zip":"90270","city":"Maywood","state":"CA","lat":33.989,"long":-118.1877},{"zip":"90272","city":"Pacific Palisades","state":"CA","lat":34.0481,"long":-118.5265},{"zip":"90274","city":"Palos Verdes Peninsula","state":"CA","lat":33.7866,"long":-118.2987},{"zip":"90275","city":"Rancho Palos Verdes","state":"CA","lat":33.7515,"long":-118.367},{"zip":"90277","city":"Redondo Beach","state":"CA","lat":33.8307,"long":-118.3832},{"zip":"90278","city":"Redondo Beach","state":"CA","lat":33.8707,"long":-118.3715},{"zip":"90280","city":"South Gate","state":"CA","lat":33.9462,"long":-118.2013},{"zip":"90290","city":"Topanga","state":"CA","lat":34.1076,"long":-118.6023},{"zip":"90291","city":"Venice","state":"CA","lat":33.9938,"long":-118.4635},{"zip":"90292","city":"Marina Del Rey","state":"CA","lat":33.9779,"long":-118.4525},{"zip":"90293","city":"Playa Del Rey","state":"CA","lat":33.9577,"long":-118.4373},{"zip":"90294","city":"Venice","state":"CA","lat":33.9908,"long":-118.4601},{"zip":"90295","city":"Marina Del Rey","state":"CA","lat":33.7866,"long":-118.2987},{"zip":"90296","city":"Playa Del Rey","state":"CA","lat":33.7866,"long":-118.2987},{"zip":"90301","city":"Inglewood","state":"CA","lat":33.955,"long":-118.3556},{"zip":"90302","city":"Inglewood","state":"CA","lat":33.9745,"long":-118.3548},{"zip":"90303","city":"Inglewood","state":"CA","lat":33.9377,"long":-118.3321},{"zip":"90304","city":"Inglewood","state":"CA","lat":33.9379,"long":-118.3586},{"zip":"90305","city":"Inglewood","state":"CA","lat":33.9583,"long":-118.3259},{"zip":"90306","city":"Inglewood","state":"CA","lat":33.9617,"long":-118.3531},{"zip":"90307","city":"Inglewood","state":"CA","lat":33.7866,"long":-118.2987},{"zip":"90308","city":"Inglewood","state":"CA","lat":33.9617,"long":-118.3531},{"zip":"90309","city":"Inglewood","state":"CA","lat":33.7866,"long":-118.2987},{"zip":"90310","city":"Inglewood","state":"CA","lat":33.7866,"long":-118.2987},{"zip":"90311","city":"Inglewood","state":"CA","lat":33.9617,"long":-118.3531},{"zip":"90312","city":"Inglewood","state":"CA","lat":33.9617,"long":-118.3531},{"zip":"90401","city":"Santa Monica","state":"CA","lat":34.0176,"long":-118.4907},{"zip":"90402","city":"Santa Monica","state":"CA","lat":34.0349,"long":-118.503},{"zip":"90403","city":"Santa Monica","state":"CA","lat":34.0287,"long":-118.4924},{"zip":"90404","city":"Santa Monica","state":"CA","lat":34.0268,"long":-118.4733},{"zip":"90405","city":"Santa Monica","state":"CA","lat":34.01,"long":-118.4717},{"zip":"90406","city":"Santa Monica","state":"CA","lat":34.0195,"long":-118.4912},{"zip":"90407","city":"Santa Monica","state":"CA","lat":34.0195,"long":-118.4912},{"zip":"90408","city":"Santa Monica","state":"CA","lat":34.0195,"long":-118.4912},{"zip":"90409","city":"Santa Monica","state":"CA","lat":34.0195,"long":-118.4912},{"zip":"90410","city":"Santa Monica","state":"CA","lat":34.0195,"long":-118.4912},{"zip":"90411","city":"Santa Monica","state":"CA","lat":34.0195,"long":-118.4912},{"zip":"90501","city":"Torrance","state":"CA","lat":33.8268,"long":-118.3118},{"zip":"90502","city":"Torrance","state":"CA","lat":33.8286,"long":-118.292},{"zip":"90503","city":"Torrance","state":"CA","lat":33.8397,"long":-118.3542},{"zip":"90504","city":"Torrance","state":"CA","lat":33.8708,"long":-118.3295},{"zip":"90505","city":"Torrance","state":"CA","lat":33.8106,"long":-118.3507},{"zip":"90506","city":"Torrance","state":"CA","lat":33.7866,"long":-118.2987},{"zip":"90507","city":"Torrance","state":"CA","lat":33.7866,"long":-118.2987},{"zip":"90508","city":"Torrance","state":"CA","lat":33.7866,"long":-118.2987},{"zip":"90509","city":"Torrance","state":"CA","lat":33.7866,"long":-118.2987},{"zip":"90510","city":"Torrance","state":"CA","lat":33.7866,"long":-118.2987},{"zip":"90601","city":"Whittier","state":"CA","lat":34.0011,"long":-118.0371},{"zip":"90602","city":"Whittier","state":"CA","lat":33.9693,"long":-118.0337},{"zip":"90603","city":"Whittier","state":"CA","lat":33.9432,"long":-117.9927},{"zip":"90604","city":"Whittier","state":"CA","lat":33.9299,"long":-118.0121},{"zip":"90605","city":"Whittier","state":"CA","lat":33.9413,"long":-118.0356},{"zip":"90606","city":"Whittier","state":"CA","lat":33.9777,"long":-118.0658},{"zip":"90607","city":"Whittier","state":"CA","lat":33.9792,"long":-118.0328},{"zip":"90608","city":"Whittier","state":"CA","lat":33.9792,"long":-118.0328},{"zip":"90609","city":"Whittier","state":"CA","lat":33.9792,"long":-118.0328},{"zip":"90610","city":"Whittier","state":"CA","lat":33.9792,"long":-118.0328},{"zip":"90637","city":"La Mirada","state":"CA","lat":33.9172,"long":-118.012},{"zip":"90638","city":"La Mirada","state":"CA","lat":33.9067,"long":-118.0101},{"zip":"90639","city":"La Mirada","state":"CA","lat":33.9058,"long":-118.0182},{"zip":"90640","city":"Montebello","state":"CA","lat":34.0133,"long":-118.113},{"zip":"90650","city":"Norwalk","state":"CA","lat":33.9056,"long":-118.0818},{"zip":"90651","city":"Norwalk","state":"CA","lat":33.9022,"long":-118.0817},{"zip":"90652","city":"Norwalk","state":"CA","lat":33.9022,"long":-118.0817},{"zip":"90660","city":"Pico Rivera","state":"CA","lat":33.9886,"long":-118.0883},{"zip":"90661","city":"Pico Rivera","state":"CA","lat":33.9831,"long":-118.0967},{"zip":"90662","city":"Pico Rivera","state":"CA","lat":33.9831,"long":-118.0967},{"zip":"90670","city":"Santa Fe Springs","state":"CA","lat":33.9464,"long":-118.0838},{"zip":"90671","city":"Santa Fe Springs","state":"CA","lat":33.9472,"long":-118.0853},{"zip":"90701","city":"Artesia","state":"CA","lat":33.8654,"long":-118.0731},{"zip":"90702","city":"Artesia","state":"CA","lat":33.8658,"long":-118.0831},{"zip":"90703","city":"Cerritos","state":"CA","lat":33.8669,"long":-118.0686},{"zip":"90704","city":"Avalon","state":"CA","lat":33.332,"long":-118.3437},{"zip":"90706","city":"Bellflower","state":"CA","lat":33.8867,"long":-118.1265},{"zip":"90707","city":"Bellflower","state":"CA","lat":33.8817,"long":-118.117},{"zip":"90710","city":"Harbor City","state":"CA","lat":33.797,"long":-118.2991},{"zip":"90711","city":"Lakewood","state":"CA","lat":33.7866,"long":-118.2987},{"zip":"90712","city":"Lakewood","state":"CA","lat":33.8512,"long":-118.1457},{"zip":"90713","city":"Lakewood","state":"CA","lat":33.8473,"long":-118.1115},{"zip":"90714","city":"Lakewood","state":"CA","lat":33.8512,"long":-118.1339},{"zip":"90715","city":"Lakewood","state":"CA","lat":33.8405,"long":-118.0767},{"zip":"90716","city":"Hawaiian Gardens","state":"CA","lat":33.8296,"long":-118.073},{"zip":"90717","city":"Lomita","state":"CA","lat":33.7938,"long":-118.3172},{"zip":"90723","city":"Paramount","state":"CA","lat":33.8969,"long":-118.1632},{"zip":"90731","city":"San Pedro","state":"CA","lat":33.7339,"long":-118.2914},{"zip":"90732","city":"San Pedro","state":"CA","lat":33.742,"long":-118.3121},{"zip":"90733","city":"San Pedro","state":"CA","lat":33.7866,"long":-118.2987},{"zip":"90734","city":"San Pedro","state":"CA","lat":33.7866,"long":-118.2987},{"zip":"90744","city":"Wilmington","state":"CA","lat":33.7855,"long":-118.2645},{"zip":"90745","city":"Carson","state":"CA","lat":33.823,"long":-118.2684},{"zip":"90746","city":"Carson","state":"CA","lat":33.8584,"long":-118.2554},{"zip":"90747","city":"Carson","state":"CA","lat":33.8671,"long":-118.2538},{"zip":"90748","city":"Wilmington","state":"CA","lat":33.78,"long":-118.2626},{"zip":"90749","city":"Carson","state":"CA","lat":33.7866,"long":-118.2987},{"zip":"90755","city":"Signal Hill","state":"CA","lat":33.8029,"long":-118.1677},{"zip":"90801","city":"Long Beach","state":"CA","lat":33.767,"long":-118.1892},{"zip":"90802","city":"Long Beach","state":"CA","lat":33.7706,"long":-118.182},{"zip":"90803","city":"Long Beach","state":"CA","lat":33.7619,"long":-118.1341},{"zip":"90804","city":"Long Beach","state":"CA","lat":33.7857,"long":-118.1357},{"zip":"90805","city":"Long Beach","state":"CA","lat":33.8635,"long":-118.1801},{"zip":"90806","city":"Long Beach","state":"CA","lat":33.8045,"long":-118.1876},{"zip":"90807","city":"Long Beach","state":"CA","lat":33.8315,"long":-118.1811},{"zip":"90808","city":"Long Beach","state":"CA","lat":33.8241,"long":-118.1103},{"zip":"90809","city":"Long Beach","state":"CA","lat":33.7866,"long":-118.2987},{"zip":"90810","city":"Long Beach","state":"CA","lat":33.8193,"long":-118.2325},{"zip":"90813","city":"Long Beach","state":"CA","lat":33.782,"long":-118.1835},{"zip":"90814","city":"Long Beach","state":"CA","lat":33.7716,"long":-118.148},{"zip":"90815","city":"Long Beach","state":"CA","lat":33.7939,"long":-118.1192},{"zip":"90822","city":"Long Beach","state":"CA","lat":33.7927,"long":-118.1638},{"zip":"90831","city":"Long Beach","state":"CA","lat":33.7678,"long":-118.1994},{"zip":"90832","city":"Long Beach","state":"CA","lat":33.767,"long":-118.1892},{"zip":"90833","city":"Long Beach","state":"CA","lat":33.7678,"long":-118.1994},{"zip":"90834","city":"Long Beach","state":"CA","lat":33.7678,"long":-118.1994},{"zip":"90835","city":"Long Beach","state":"CA","lat":33.7678,"long":-118.1994},{"zip":"90840","city":"Long Beach","state":"CA","lat":33.7843,"long":-118.1157},{"zip":"90842","city":"Long Beach","state":"CA","lat":33.7866,"long":-118.2987},{"zip":"90844","city":"Long Beach","state":"CA","lat":33.767,"long":-118.1892},{"zip":"90846","city":"Long Beach","state":"CA","lat":33.8249,"long":-118.1504},{"zip":"90847","city":"Long Beach","state":"CA","lat":33.7866,"long":-118.2987},{"zip":"90848","city":"Long Beach","state":"CA","lat":33.7866,"long":-118.2987},{"zip":"90853","city":"Long Beach","state":"CA","lat":33.7866,"long":-118.2987},{"zip":"90895","city":"Carson","state":"CA","lat":33.8392,"long":-118.2202},{"zip":"90899","city":"Long Beach","state":"CA","lat":33.767,"long":-118.1892},{"zip":"90620","city":"Buena Park","state":"CA","lat":33.8439,"long":-118.008},{"zip":"90621","city":"Buena Park","state":"CA","lat":33.8772,"long":-117.9893},{"zip":"90622","city":"Buena Park","state":"CA","lat":33.8462,"long":-118.0031},{"zip":"90623","city":"La Palma","state":"CA","lat":33.8491,"long":-118.0398},{"zip":"90624","city":"Buena Park","state":"CA","lat":33.8584,"long":-118.0033},{"zip":"90630","city":"Cypress","state":"CA","lat":33.8181,"long":-118.0357},{"zip":"90631","city":"La Habra","state":"CA","lat":33.9331,"long":-117.9493},{"zip":"90632","city":"La Habra","state":"CA","lat":33.9143,"long":-117.9547},{"zip":"90633","city":"La Habra","state":"CA","lat":33.9345,"long":-117.9452},{"zip":"90680","city":"Stanton","state":"CA","lat":33.7991,"long":-117.9956},{"zip":"90720","city":"Los Alamitos","state":"CA","lat":33.7956,"long":-118.0648},{"zip":"90721","city":"Los Alamitos","state":"CA","lat":33.8023,"long":-118.069},{"zip":"90740","city":"Seal Beach","state":"CA","lat":33.7602,"long":-118.0808},{"zip":"90742","city":"Sunset Beach","state":"CA","lat":33.7164,"long":-118.069},{"zip":"90743","city":"Surfside","state":"CA","lat":33.7264,"long":-118.0833}]
