[{"zip":"90001","city":"Los Angeles","state":"CA","lat":33.9731,"long":-118.2479},{"zip":"90002","city":"Los Angeles","state":"CA","lat":33.9497,"long":-118.2462},{"zip":"90003","city":"Los Angeles","state":"CA","lat":33.9653,"long":-118.2727},{"zip":"90004","city":"Los Angeles","state":"CA","lat":34.0762,"long":-118.3029},{"zip":"90005","city":"Los Angeles","state":"CA","lat":34.0585,"long":-118.3012},{"zip":"90006","city":"Los Angeles","state":"CA","lat":34.0493,"long":-118.2917},{"zip":"90007","city":"Los Angeles","state":"CA","lat":34.0294,"long":-118.2871},{"zip":"90008","city":"Los Angeles","state":"CA","lat":34.0116,"long":-118.3411},{"zip":"90009","city":"Los Angeles","state":"CA","lat":34.0522,"long":-118.2437},{"zip":"90010","city":"Los Angeles","state":"CA","lat":34.0606,"long":-118.3027},{"zip":"90011","city":"Los Angeles","state":"CA","lat":34.0079,"long":-118.2582},{"zip":"90012","city":"Los Angeles","state":"CA","lat":34.0614,"long":-118.2385},{"zip":"90013","city":"Los Angeles","state":"CA","lat":34.0448,"long":-118.2434},{"zip":"90014","city":"Los Angeles","state":"CA","lat":34.0443,"long":-118.2509},{"zip":"90015","city":"Los Angeles","state":"CA","lat":34.0434,"long":-118.2716},{"zip":"90016","city":"Los Angeles","state":"CA","lat":34.0298,"long":-118.3528},{"zip":"90017","city":"Los Angeles","state":"CA","lat":34.0559,"long":-118.2666},{"zip":"90018","city":"Los Angeles","state":"CA","lat":34.029,"long":-118.3152},{"zip":"90019","city":"Los Angeles","state":"CA","lat":34.0482,"long":-118.3343},{"zip":"90020","city":"Los Angeles","state":"CA","lat":34.0665,"long":-118.3022},{"zip":"90021","city":"Los Angeles","state":"CA","lat":34.0333,"long":-118.2447},{"zip":"90022","city":"Los Angeles","state":"CA","lat":34.0245,"long":-118.1561},{"zip":"90023","city":"Los Angeles","state":"CA","lat":34.0245,"long":-118.1975},{"zip":"90024","city":"Los Angeles","state":"CA","lat":34.0637,"long":-118.4408},{"zip":"90025","city":"Los Angeles","state":"CA","lat":34.0447,"long":-118.4487},{"zip":"90026","city":"Los Angeles","state":"CA","lat":34.0766,"long":-118.2646},{"zip":"90027","city":"Los Angeles","state":"CA","lat":34.104,"long":-118.2925},{"zip":"90028","city":"Los Angeles","state":"CA","lat":34.1005,"long":-118.3254},{"zip":"90029","city":"Los Angeles","state":"CA","lat":34.09,"long":-118.2944},{"zip":"90030","city":"Los Angeles","state":"CA","lat":34.0522,"long":-118.2437},{"zip":"90031","city":"Los Angeles","state":"CA","lat":34.0783,"long":-118.2113},{"zip":"90032","city":"Los Angeles","state":"CA","lat":34.0818,"long":-118.1753},{"zip":"90033","city":"Los Angeles","state":"CA","lat":34.0487,"long":-118.2084},{"zip":"90034","city":"Los Angeles","state":"CA","lat":34.029,"long":-118.4005},{"zip":"90035","city":"Los Angeles","state":"CA","lat":34.0531,"long":-118.3806},{"zip":"90036","city":"Los Angeles","state":"CA","lat":34.0699,"long":-118.3492},{"zip":"90037","city":"Los Angeles","state":"CA","lat":34.003,"long":-118.2863},{"zip":"90038","city":"Los Angeles","state":"CA","lat":34.0898,"long":-118.3215},{"zip":"90039","city":"Los Angeles","state":"CA","lat":34.1121,"long":-118.2594},{"zip":"90040","city":"Los Angeles","state":"CA","lat":33.9909,"long":-118.1532},{"zip":"90041","city":"Los Angeles","state":"CA","lat":34.1339,"long":-118.2082},{"zip":"90042","city":"Los Angeles","state":"CA","lat":34.1145,"long":-118.1929},{"zip":"90043","city":"Los Angeles","state":"CA","lat":33.9871,"long":-118.3321},{"zip":"90044","city":"Los Angeles","state":"CA","lat":33.9551,"long":-118.2901},{"zip":"90045","city":"Los Angeles","state":"CA","lat":33.9631,"long":-118.3941},{"zip":"90046","city":"Los Angeles","state":"CA","lat":34.1074,"long":-118.3652},{"zip":"90047","city":"Los Angeles","state":"CA","lat":33.9569,"long":-118.3073},{"zip":"90048","city":"Los Angeles","state":"CA","lat":34.0737,"long":-118.372},{"zip":"90049","city":"Los Angeles","state":"CA","lat":34.066,"long":-118.474},{"zip":"90050","city":"Los Angeles","state":"CA","lat":34.0522,"long":-118.2437},{"zip":"90051","city":"Los Angeles","state":"CA","lat":34.0522,"long":-118.2437},{"zip":"90052","city":"Los Angeles","state":"CA","lat":34.0522,"long":-118.2437},{"zip":"90053","city":"Los Angeles","state":"CA","lat":34.0522,"long":-118.2437},{"zip":"90054","city":"Los Angeles","state":"CA","lat":34.0522,"long":-118.2437},{"zip":"90055","city":"Los Angeles","state":"CA","lat":34.0522,"long":-118.2437},{"zip":"90056","city":"Los Angeles","state":"CA","lat":33.9853,"long":-118.3707},{"zip":"90057","city":"Los Angeles","state":"CA","lat":34.0622,"long":-118.2763},{"zip":"90058","city":"Los Angeles","state":"CA","lat":33.9994,"long":-118.2133},{"zip":"90059","city":"Los Angeles","state":"CA","lat":33.9293,"long":-118.2463},{"zip":"90060","city":"Los Angeles","state":"CA","lat":34.0522,"long":-118.2437},{"zip":"90061","city":"Los Angeles","state":"CA","lat":33.9245,"long":-118.2716},{"zip":"90062","city":"Los Angeles","state":"CA","lat":34.0032,"long":-118.3073},{"zip":"90063","city":"Los Angeles","state":"CA","lat":34.0451,"long":-118.1859},{"zip":"90064","city":"Los Angeles","state":"CA","lat":34.0353,"long":-118.4259},{"zip":"90065","city":"Los Angeles","state":"CA","lat":34.1073,"long":-118.2266},{"zip":"90066","city":"Los Angeles","state":"CA","lat":34.003,"long":-118.4298},{"zip":"90067","city":"Los Angeles","state":"CA","lat":34.0551,"long":-118.4095},{"zip":"90068","city":"Los Angeles","state":"CA","lat":34.1156,"long":-118.3305},{"zip":"90069","city":"West Hollywood","state":"CA","lat":34.0906,"long":-118.3788},{"zip":"90070","city":"Los Angeles","state":"CA","lat":34.0522,"long":-118.2437},{"zip":"90071","city":"Los Angeles","state":"CA","lat":34.0529,"long":-118.2549},{"zip":"90072","city":"Los Angeles","state":"CA","lat":34.0522,"long":-118.2437},{"zip":"90073","city":"Los Angeles","state":"CA","lat":33.7866,"long":-118.2987},{"zip":"90074","city":"Los Angeles","state":"CA","lat":34.0522,"long":-118.2437},{"zip":"90075","city":"Los Angeles","state":"CA","lat":34.0522,"long":-118.2437},{"zip":"90076","city":"Los Angeles","state":"CA","lat":34.0522,"long":-118.2437},{"zip":"90077","city":"Los Angeles","state":"CA","lat":34.1112,"long":-118.4502},{"zip":"90078","city":"Los Angeles","state":"CA","lat":34.0522,"long":-118.2437},{"zip":"90079","city":"Los Angeles","state":"CA","lat":33.7866,"long":-118.2987},{"zip":"90080","city":"Los Angeles","state":"CA","lat":34.0522,"long":-118.2437},{"zip":"90081","city":"Los Angeles","state":"CA","lat":34.0522,"long":-118.2437},{"zip":"90082","city":"Los Angeles","state":"CA","lat":34.0522,"long":-118.2437},{"zip":"90083","city":"Los Angeles","state":"CA","lat":34.0522,"long":-118.2437},{"zip":"90084","city":"Los Angeles","state":"CA","lat":34.0522,"long":-118.2437},{"zip":"90086","city":"Los Angeles","state":"CA","lat":34.0522,"long":-118.2437},{"zip":"90087","city":"Los Angeles","state":"CA","lat":34.0522,"long":-118.2437},{"zip":"90088","city":"Los Angeles","state":"CA","lat":34.0522,"long":-118.2437},{"zip":"90089","city":"Los Angeles","state":"CA","lat":33.7866,"long":-118.2987},{"zip":"90090","city":"Dodgertown","state":"CA","lat":34.0725,"long":-118.2418},{"zip":"90091","city":"Los Angeles","state":"CA","lat":34.0522,"long":-118.2437},{"zip":"90093","city":"Los Angeles","state":"CA","lat":34.0522,"long":-118.2437},{"zip":"90094","city":"Playa Vista","state":"CA","lat":33.9728,"long":-118.4276},{"zip":"90095","city":"Los Angeles","state":"CA","lat":33.7866,"long":-118.2987},{"zip":"90096","city":"Los Angeles","state":"CA","lat":34.0522,"long":-118.2437},{"zip":"90099","city":"Los Angeles","state":"CA","lat":34.0522,"long":-118.2437}]
