[{"zip":"90601","city":"Whittier","state":"CA","lat":34.0011,"long":-118.0371},{"zip":"90602","city":"Whittier","state":"CA","lat":33.9693,"long":-118.0337},{"zip":"90603","city":"Whittier","state":"CA","lat":33.9432,"long":-117.9927},{"zip":"90604","city":"Whittier","state":"CA","lat":33.9299,"long":-118.0121},{"zip":"90605","city":"Whittier","state":"CA","lat":33.9413,"long":-118.0356},{"zip":"90606","city":"Whittier","state":"CA","lat":33.9777,"long":-118.0658},{"zip":"90607","city":"Whittier","state":"CA","lat":33.9792,"long":-118.0328},{"zip":"90608","city":"Whittier","state":"CA","lat":33.9792,"long":-118.0328},{"zip":"90609","city":"Whittier","state":"CA","lat":33.9792,"long":-118.0328},{"zip":"90610","city":"Whittier","state":"CA","lat":33.9792,"long":-118.0328},{"zip":"90637","city":"La Mirada","state":"CA","lat":33.9172,"long":-118.012},{"zip":"90638","city":"La Mirada","state":"CA","lat":33.9067,"long":-118.0101},{"zip":"90639","city":"La Mirada","state":"CA","lat":33.9058,"long":-118.0182},{"zip":"90640","city":"Montebello","state":"CA","lat":34.0133,"long":-118.113},{"zip":"90650","city":"Norwalk","state":"CA","lat":33.9056,"long":-118.0818},{"zip":"90651","city":"Norwalk","state":"CA","lat":33.9022,"long":-118.0817},{"zip":"90652","city":"Norwalk","state":"CA","lat":33.9022,"long":-118.0817},{"zip":"90660","city":"Pico Rivera","state":"CA","lat":33.9886,"long":-118.0883},{"zip":"90661","city":"Pico Rivera","state":"CA","lat":33.9831,"long":-118.0967},{"zip":"90662","city":"Pico Rivera","state":"CA","lat":33.9831,"long":-118.0967},{"zip":"90670","city":"Santa Fe Springs","state":"CA","lat":33.9464,"long":-118.0838},{"zip":"90671","city":"Santa Fe Springs","state":"CA","lat":33.9472,"long":-118.0853},{"zip":"90620","city":"Buena Park","state":"CA","lat":33.8439,"long":-118.008},{"zip":"90621","city":"Buena Park","state":"CA","lat":33.8772,"long":-117.9893},{"zip":"90622","city":"Buena Park","state":"CA","lat":33.8462,"long":-118.0031},{"zip":"90623","city":"La Palma","state":"CA","lat":33.8491,"long":-118.0398},{"zip":"90624","city":"Buena Park","state":"CA","lat":33.8584,"long":-118.0033},{"zip":"90630","city":"Cypress","state":"CA","lat":33.8181,"long":-118.0357},{"zip":"90631","city":"La Habra","state":"CA","lat":33.9331,"long":-117.9493},{"zip":"90632","city":"La Habra","state":"CA","lat":33.9143,"long":-117.9547},{"zip":"90633","city":"La Habra","state":"CA","lat":33.9345,"long":-117.9452},{"zip":"90680","city":"Stanton","state":"CA","lat":33.7991,"long":-117.9956}]
