[{"zip":"90701","city":"Artesia","state":"CA","lat":33.8654,"long":-118.0731},{"zip":"90702","city":"Artesia","state":"CA","lat":33.8658,"long":-118.0831},{"zip":"90703","city":"Cerritos","state":"CA","lat":33.8669,"long":-118.0686},{"zip":"90704","city":"Avalon","state":"CA","lat":33.332,"long":-118.3437},{"zip":"90706","city":"Bellflower","state":"CA","lat":33.8867,"long":-118.1265},{"zip":"90707","city":"Bellflower","state":"CA","lat":33.8817,"long":-118.117},{"zip":"90710","city":"Harbor City","state":"CA","lat":33.797,"long":-118.2991},{"zip":"90711","city":"Lakewood","state":"CA","lat":33.7866,"long":-118.2987},{"zip":"90712","city":"Lakewood","state":"CA","lat":33.8512,"long":-118.1457},{"zip":"90713","city":"Lakewood","state":"CA","lat":33.8473,"long":-118.1115},{"zip":"90714","city":"Lakewood","state":"CA","lat":33.8512,"long":-118.1339},{"zip":"90715","city":"Lakewood","state":"CA","lat":33.8405,"long":-118.0767},{"zip":"90716","city":"Hawaiian Gardens","state":"CA","lat":33.8296,"long":-118.073},{"zip":"90717","city":"Lomita","state":"CA","lat":33.7938,"long":-118.3172},{"zip":"90723","city":"Paramount","state":"CA","lat":33.8969,"long":-118.1632},{"zip":"90731","city":"San Pedro","state":"CA","lat":33.7339,"long":-118.2914},{"zip":"90732","city":"San Pedro","state":"CA","lat":33.742,"long":-118.3121},{"zip":"90733","city":"San Pedro","state":"CA","lat":33.7866,"long":-118.2987},{"zip":"90734","city":"San Pedro","state":"CA","lat":33.7866,"long":-118.2987},{"zip":"90744","city":"Wilmington","state":"CA","lat":33.7855,"long":-118.2645},{"zip":"90745","city":"Carson","state":"CA","lat":33.823,"long":-118.2684},{"zip":"90746","city":"Carson","state":"CA","lat":33.8584,"long":-118.2554},{"zip":"90747","city":"Carson","state":"CA","lat":33.8671,"long":-118.2538},{"zip":"90748","city":"Wilmington","state":"CA","lat":33.78,"long":-118.2626},{"zip":"90749","city":"Carson","state":"CA","lat":33.7866,"long":-118.2987},{"zip":"90755","city":"Signal Hill","state":"CA","lat":33.8029,"long":-118.1677},{"zip":"90720","city":"Los Alamitos","state":"CA","lat":33.7956,"long":-118.0648},{"zip":"90721","city":"Los Alamitos","state":"CA","lat":33.8023,"long":-118.069},{"zip":"90740","city":"Seal Beach","state":"CA","lat":33.7602,"long":-118.0808},{"zip":"90742","city":"Sunset Beach","state":"CA","lat":33.7164,"long":-118.069},{"zip":"90743","city":"Surfside","state":"CA","lat":33.7264,"long":-118.0833}]
