[{"zip":"90801","city":"Long Beach","state":"CA","lat":33.767,"long":-118.1892},{"zip":"90802","city":"Long Beach","state":"CA","lat":33.7706,"long":-118.182},{"zip":"90803","city":"Long Beach","state":"CA","lat":33.7619,"long":-118.1341},{"zip":"90804","city":"Long Beach","state":"CA","lat":33.7857,"long":-118.1357},{"zip":"90805","city":"Long Beach","state":"CA","lat":33.8635,"long":-118.1801},{"zip":"90806","city":"Long Beach","state":"CA","lat":33.8045,"long":-118.1876},{"zip":"90807","city":"Long Beach","state":"CA","lat":33.8315,"long":-118.1811},{"zip":"90808","city":"Long Beach","state":"CA","lat":33.8241,"long":-118.1103},{"zip":"90809","city":"Long Beach","state":"CA","lat":33.7866,"long":-118.2987},{"zip":"90810","city":"Long Beach","state":"CA","lat":33.8193,"long":-118.2325},{"zip":"90813","city":"Long Beach","state":"CA","lat":33.782,"long":-118.1835},{"zip":"90814","city":"Long Beach","state":"CA","lat":33.7716,"long":-118.148},{"zip":"90815","city":"Long Beach","state":"CA","lat":33.7939,"long":-118.1192},{"zip":"90822","city":"Long Beach","state":"CA","lat":33.7927,"long":-118.1638},{"zip":"90831","city":"Long Beach","state":"CA","lat":33.7678,"long":-118.1994},{"zip":"90832","city":"Long Beach","state":"CA","lat":33.767,"long":-118.1892},{"zip":"90833","city":"Long Beach","state":"CA","lat":33.7678,"long":-118.1994},{"zip":"90834","city":"Long Beach","state":"CA","lat":33.7678,"long":-118.1994},{"zip":"90835","city":"Long Beach","state":"CA","lat":33.7678,"long":-118.1994},{"zip":"90840","city":"Long Beach","state":"CA","lat":33.7843,"long":-118.1157},{"zip":"90842","city":"Long Beach","state":"CA","lat":33.7866,"long":-118.2987},{"zip":"90844","city":"Long Beach","state":"CA","lat":33.767,"long":-118.1892},{"zip":"90846","city":"Long Beach","state":"CA","lat":33.8249,"long":-118.1504},{"zip":"90847","city":"Long Beach","state":"CA","lat":33.7866,"long":-118.2987},{"zip":"90848","city":"Long Beach","state":"CA","lat":33.7866,"long":-118.2987},{"zip":"90853","city":"Long Beach","state":"CA","lat":33.7866,"long":-118.2987},{"zip":"90895","city":"Carson","state":"CA","lat":33.8392,"long":-118.2202},{"zip":"90899","city":"Long Beach","state":"CA","lat":33.767,"long":-118.1892}]
