[{"zip":"91001","city":"Altadena","state":"CA","lat":34.1912,"long":-118.1392},{"zip":"91003","city":"Altadena","state":"CA","lat":34.1897,"long":-118.1312},{"zip":"91006","city":"Arcadia","state":"CA","lat":34.1324,"long":-118.0264},{"zip":"91007","city":"Arcadia","state":"CA","lat":34.1243,"long":-118.0515},{"zip":"91008","city":"Duarte","state":"CA","lat":34.149,"long":-117.9644},{"zip":"91009","city":"Duarte","state":"CA","lat":34.1395,"long":-117.9773},{"zip":"91010","city":"Duarte","state":"CA","lat":34.1407,"long":-117.9567},{"zip":"91011","city":"La Canada Flintridge","state":"CA","lat":34.2217,"long":-118.2051},{"zip":"91012","city":"La Canada Flintridge","state":"CA","lat":34.1992,"long":-118.1879},{"zip":"91016","city":"Monrovia","state":"CA","lat":34.144,"long":-118.0014},{"zip":"91017","city":"Monrovia","state":"CA","lat":34.1481,"long":-117.999},{"zip":"91020","city":"Montrose","state":"CA","lat":34.2114,"long":-118.2305},{"zip":"91021","city":"Montrose","state":"CA","lat":34.2064,"long":-118.2242},{"zip":"91023","city":"Mount Wilson","state":"CA","lat":34.2264,"long":-118.0662},{"zip":"91024","city":"Sierra Madre","state":"CA","lat":34.1651,"long":-118.0519},{"zip":"91025","city":"Sierra Madre","state":"CA","lat":34.1617,"long":-118.0528},{"zip":"91030","city":"South Pasadena","state":"CA","lat":34.1109,"long":-118.1547},{"zip":"91031","city":"South Pasadena","state":"CA","lat":34.1161,"long":-118.1503},{"zip":"91040","city":"Sunland","state":"CA","lat":34.2618,"long":-118.3371},{"zip":"91041","city":"Sunland","state":"CA","lat":34.2669,"long":-118.3023},{"zip":"91042","city":"Tujunga","state":"CA","lat":34.2544,"long":-118.2849},{"zip":"91043","city":"Tujunga","state":"CA","lat":34.2522,"long":-118.2884},{"zip":"91046","city":"Verdugo City","state":"CA","lat":34.2114,"long":-118.2395},{"zip":"91066","city":"Arcadia","state":"CA","lat":34.1397,"long":-118.0353},{"zip":"91077","city":"Arcadia","state":"CA","lat":34.1397,"long":-118.0353}]
