[{"zip":"91101","city":"Pasadena","state":"CA","lat":34.1468,"long":-118.1391},{"zip":"91102","city":"Pasadena","state":"CA","lat":34.1478,"long":-118.1445},{"zip":"91103","city":"Pasadena","state":"CA","lat":34.1669,"long":-118.1551},{"zip":"91104","city":"Pasadena","state":"CA","lat":34.1678,"long":-118.1261},{"zip":"91105","city":"Pasadena","state":"CA","lat":34.1355,"long":-118.1636},{"zip":"91106","city":"Pasadena","state":"CA","lat":34.1435,"long":-118.1266},{"zip":"91107","city":"Pasadena","state":"CA","lat":34.151,"long":-118.0889},{"zip":"91108","city":"San Marino","state":"CA","lat":34.1207,"long":-118.1117},{"zip":"91109","city":"Pasadena","state":"CA","lat":34.1478,"long":-118.1445},{"zip":"91110","city":"Pasadena","state":"CA","lat":34.1478,"long":-118.1445},{"zip":"91114","city":"Pasadena","state":"CA","lat":34.1478,"long":-118.1445},{"zip":"91115","city":"Pasadena","state":"CA","lat":34.1478,"long":-118.1445},{"zip":"91116","city":"Pasadena","state":"CA","lat":34.1478,"long":-118.1445},{"zip":"91117","city":"Pasadena","state":"CA","lat":34.1478,"long":-118.1445},{"zip":"91118","city":"San Marino","state":"CA","lat":34.1214,"long":-118.1065},{"zip":"91121","city":"Pasadena","state":"CA","lat":34.1478,"long":-118.1445},{"zip":"91123","city":"Pasadena","state":"CA","lat":34.1478,"long":-118.1445},{"zip":"91124","city":"Pasadena","state":"CA","lat":34.1478,"long":-118.1445},{"zip":"91125","city":"Pasadena","state":"CA","lat":34.1478,"long":-118.1445},{"zip":"91126","city":"Pasadena","state":"CA","lat":34.1478,"long":-118.1445},{"zip":"91129","city":"Pasadena","state":"CA","lat":34.1478,"long":-118.1445},{"zip":"91182","city":"Pasadena","state":"CA","lat":34.1478,"long":-118.1445},{"zip":"91184","city":"Pasadena","state":"CA","lat":34.1478,"long":-118.1445},{"zip":"91185","city":"Pasadena","state":"CA","lat":34.1478,"long":-118.1445},{"zip":"91188","city":"Pasadena","state":"CA","lat":34.1478,"long":-118.1445},{"zip":"91189","city":"Pasadena","state":"CA","lat":34.1478,"long":-118.1445},{"zip":"91199","city":"Pasadena","state":"CA","lat":34.1478,"long":-118.1436}]
