[{"zip":"91201","city":"Glendale","state":"CA","lat":34.1716,"long":-118.2899},{"zip":"91202","city":"Glendale","state":"CA","lat":34.1652,"long":-118.2656},{"zip":"91203","city":"Glendale","state":"CA","lat":34.1517,"long":-118.2636},{"zip":"91204","city":"Glendale","state":"CA","lat":34.1379,"long":-118.2599},{"zip":"91205","city":"Glendale","state":"CA","lat":34.1378,"long":-118.2425},{"zip":"91206","city":"Glendale","state":"CA","lat":34.1556,"long":-118.2322},{"zip":"91207","city":"Glendale","state":"CA","lat":34.1649,"long":-118.2451},{"zip":"91208","city":"Glendale","state":"CA","lat":34.1921,"long":-118.235},{"zip":"91209","city":"Glendale","state":"CA","lat":34.1425,"long":-118.2551},{"zip":"91210","city":"Glendale","state":"CA","lat":34.1425,"long":-118.2551},{"zip":"91214","city":"La Crescenta","state":"CA","lat":34.2316,"long":-118.2457},{"zip":"91221","city":"Glendale","state":"CA","lat":34.1425,"long":-118.2551},{"zip":"91222","city":"Glendale","state":"CA","lat":34.1425,"long":-118.2551},{"zip":"91224","city":"La Crescenta","state":"CA","lat":34.2242,"long":-118.2401},{"zip":"91225","city":"Glendale","state":"CA","lat":34.1425,"long":-118.2551},{"zip":"91226","city":"Glendale","state":"CA","lat":34.1425,"long":-118.2551}]
