[{"zip":"91301","city":"Agoura Hills","state":"CA","lat":34.1227,"long":-118.7573},{"zip":"91302","city":"Calabasas","state":"CA","lat":34.1419,"long":-118.6641},{"zip":"91303","city":"Canoga Park","state":"CA","lat":34.1993,"long":-118.5983},{"zip":"91304","city":"Canoga Park","state":"CA","lat":34.2197,"long":-118.6111},{"zip":"91305","city":"Canoga Park","state":"CA","lat":34.2011,"long":-118.5981},{"zip":"91306","city":"Winnetka","state":"CA","lat":34.2092,"long":-118.5749},{"zip":"91307","city":"West Hills","state":"CA","lat":34.1963,"long":-118.6389},{"zip":"91308","city":"West Hills","state":"CA","lat":34.1973,"long":-118.644},{"zip":"91309","city":"Canoga Park","state":"CA","lat":34.2011,"long":-118.5981},{"zip":"91310","city":"Castaic","state":"CA","lat":34.4889,"long":-118.6229},{"zip":"91311","city":"Chatsworth","state":"CA","lat":34.2583,"long":-118.5914},{"zip":"91313","city":"Chatsworth","state":"CA","lat":34.2572,"long":-118.6012},{"zip":"91316","city":"Encino","state":"CA","lat":34.1655,"long":-118.5175},{"zip":"91321","city":"Newhall","state":"CA","lat":34.3795,"long":-118.523},{"zip":"91322","city":"Newhall","state":"CA","lat":34.3847,"long":-118.5309},{"zip":"91324","city":"Northridge","state":"CA","lat":34.2367,"long":-118.5466},{"zip":"91325","city":"Northridge","state":"CA","lat":34.2353,"long":-118.5188},{"zip":"91326","city":"Porter Ranch","state":"CA","lat":34.2619,"long":-118.582},{"zip":"91327","city":"Northridge","state":"CA","lat":34.2283,"long":-118.5368},{"zip":"91328","city":"Northridge","state":"CA","lat":34.2283,"long":-118.5368},{"zip":"91329","city":"Northridge","state":"CA","lat":34.2283,"long":-118.5368},{"zip":"91330","city":"Northridge","state":"CA","lat":34.2283,"long":-118.5368},{"zip":"91331","city":"Pacoima","state":"CA","lat":34.2556,"long":-118.4208},{"zip":"91333","city":"Pacoima","state":"CA","lat":34.2625,"long":-118.427},{"zip":"91334","city":"Pacoima","state":"CA","lat":34.2625,"long":-118.427},{"zip":"91335","city":"Reseda","state":"CA","lat":34.2007,"long":-118.5391},{"zip":"91337","city":"Reseda","state":"CA","lat":34.2011,"long":-118.5365},{"zip":"91340","city":"San Fernando","state":"CA","lat":34.2875,"long":-118.4352},{"zip":"91341","city":"San Fernando","state":"CA","lat":34.2819,"long":-118.439},{"zip":"91342","city":"Sylmar","state":"CA","lat":34.3054,"long":-118.4322},{"zip":"91343","city":"North Hills","state":"CA","lat":34.2366,"long":-118.4758},{"zip":"91344","city":"Granada Hills","state":"CA","lat":34.2771,"long":-118.4992},{"zip":"91345","city":"Mission Hills","state":"CA","lat":34.2619,"long":-118.4587},{"zip":"91346","city":"Mission Hills","state":"CA","lat":34.2572,"long":-118.467},{"zip":"91350","city":"Santa Clarita","state":"CA","lat":34.4336,"long":-118.5007},{"zip":"91351","city":"Canyon Country","state":"CA","lat":34.4262,"long":-118.449},{"zip":"91352","city":"Sun Valley","state":"CA","lat":34.2209,"long":-118.3699},{"zip":"91353","city":"Sun Valley","state":"CA","lat":34.2175,"long":-118.3704},{"zip":"91354","city":"Valencia","state":"CA","lat":34.4466,"long":-118.5374},{"zip":"91355","city":"Valencia","state":"CA","lat":34.3985,"long":-118.5535},{"zip":"91356","city":"Tarzana","state":"CA","lat":34.1671,"long":-118.5414},{"zip":"91357","city":"Tarzana","state":"CA","lat":34.1733,"long":-118.554},{"zip":"91364","city":"Woodland Hills","state":"CA","lat":34.1557,"long":-118.6},{"zip":"91365","city":"Woodland Hills","state":"CA","lat":34.1683,"long":-118.6059},{"zip":"91367","city":"Woodland Hills","state":"CA","lat":34.1767,"long":-118.6159},{"zip":"91371","city":"Woodland Hills","state":"CA","lat":34.1683,"long":-118.6059},{"zip":"91372","city":"Calabasas","state":"CA","lat":34.1578,"long":-118.6384},{"zip":"91376","city":"Agoura Hills","state":"CA","lat":34.1364,"long":-118.7745},{"zip":"91380","city":"Santa Clarita","state":"CA","lat":34.3917,"long":-118.5426},{"zip":"91381","city":"Stevenson Ranch","state":"CA","lat":34.3775,"long":-118.6131},{"zip":"91382","city":"Santa Clarita","state":"CA","lat":34.3917,"long":-118.5426},{"zip":"91383","city":"Santa Clarita","state":"CA","lat":34.3917,"long":-118.5426},{"zip":"91384","city":"Castaic","state":"CA","lat":34.4827,"long":-118.6254},{"zip":"91385","city":"Valencia","state":"CA","lat":34.4436,"long":-118.6095},{"zip":"91386","city":"Canyon Country","state":"CA","lat":34.4233,"long":-118.472},{"zip":"91387","city":"Canyon Country","state":"CA","lat":34.4132,"long":-118.426},{"zip":"91390","city":"Santa Clarita","state":"CA","lat":34.4684,"long":-118.5261},{"zip":"91392","city":"Sylmar","state":"CA","lat":34.3078,"long":-118.4492},{"zip":"91393","city":"North Hills","state":"CA","lat":34.2364,"long":-118.4847},{"zip":"91394","city":"Granada Hills","state":"CA","lat":34.2647,"long":-118.5231},{"zip":"91395","city":"Mission Hills","state":"CA","lat":34.2572,"long":-118.467},{"zip":"91396","city":"Winnetka","state":"CA","lat":34.2133,"long":-118.572},{"zip":"91319","city":"Newbury Park","state":"CA","lat":34.1842,"long":-118.9107},{"zip":"91320","city":"Newbury Park","state":"CA","lat":34.1774,"long":-118.9358},{"zip":"91358","city":"Thousand Oaks","state":"CA","lat":34.1706,"long":-118.8376},{"zip":"91359","city":"Westlake Village","state":"CA","lat":34.1458,"long":-118.8056},{"zip":"91360","city":"Thousand Oaks","state":"CA","lat":34.2092,"long":-118.8739},{"zip":"91361","city":"Westlake Village","state":"CA","lat":34.1472,"long":-118.8383},{"zip":"91362","city":"Thousand Oaks","state":"CA","lat":34.1948,"long":-118.8232},{"zip":"91377","city":"Oak Park","state":"CA","lat":34.185,"long":-118.7669}]
