[{"zip":"91401","city":"Van Nuys","state":"CA","lat":34.1802,"long":-118.4324},{"zip":"91402","city":"Panorama City","state":"CA","lat":34.2262,"long":-118.447},{"zip":"91403","city":"Sherman Oaks","state":"CA","lat":34.1514,"long":-118.4603},{"zip":"91404","city":"Van Nuys","state":"CA","lat":34.1867,"long":-118.449},{"zip":"91405","city":"Van Nuys","state":"CA","lat":34.2001,"long":-118.4456},{"zip":"91406","city":"Van Nuys","state":"CA","lat":34.2006,"long":-118.4868},{"zip":"91407","city":"Van Nuys","state":"CA","lat":34.1867,"long":-118.449},{"zip":"91408","city":"Van Nuys","state":"CA","lat":34.1867,"long":-118.449},{"zip":"91409","city":"Van Nuys","state":"CA","lat":34.1867,"long":-118.449},{"zip":"91410","city":"Van Nuys","state":"CA","lat":34.1867,"long":-118.449},{"zip":"91411","city":"Van Nuys","state":"CA","lat":34.1781,"long":-118.4574},{"zip":"91412","city":"Panorama City","state":"CA","lat":34.2247,"long":-118.4498},{"zip":"91413","city":"Sherman Oaks","state":"CA","lat":34.1511,"long":-118.4492},{"zip":"91416","city":"Encino","state":"CA","lat":34.1592,"long":-118.5012},{"zip":"91423","city":"Sherman Oaks","state":"CA","lat":34.1526,"long":-118.4322},{"zip":"91426","city":"Encino","state":"CA","lat":34.1592,"long":-118.5012},{"zip":"91436","city":"Encino","state":"CA","lat":34.151,"long":-118.4882},{"zip":"91470","city":"Van Nuys","state":"CA","lat":34.1867,"long":-118.449},{"zip":"91482","city":"Van Nuys","state":"CA","lat":34.1867,"long":-118.449},{"zip":"91495","city":"Sherman Oaks","state":"CA","lat":34.1511,"long":-118.4492},{"zip":"91496","city":"Van Nuys","state":"CA","lat":34.1867,"long":-118.449},{"zip":"91499","city":"Van Nuys","state":"CA","lat":34.1867,"long":-118.449}]
