[{"zip":"91702","city":"Azusa","state":"CA","lat":34.1248,"long":-117.9031},{"zip":"91706","city":"Baldwin Park","state":"CA","lat":34.0964,"long":-117.9682},{"zip":"91711","city":"Claremont","state":"CA","lat":34.1092,"long":-117.7183},{"zip":"91714","city":"City Of Industry","state":"CA","lat":34.0197,"long":-117.9587},{"zip":"91715","city":"City Of Industry","state":"CA","lat":34.0197,"long":-117.9587},{"zip":"91716","city":"City Of Industry","state":"CA","lat":34.0197,"long":-117.9587},{"zip":"91722","city":"Covina","state":"CA","lat":34.0972,"long":-117.9065},{"zip":"91723","city":"Covina","state":"CA","lat":34.086,"long":-117.8843},{"zip":"91724","city":"Covina","state":"CA","lat":34.0938,"long":-117.856},{"zip":"91731","city":"El Monte","state":"CA","lat":34.0791,"long":-118.0371},{"zip":"91732","city":"El Monte","state":"CA","lat":34.0705,"long":-118.0149},{"zip":"91733","city":"South El Monte","state":"CA","lat":34.0557,"long":-118.0444},{"zip":"91734","city":"El Monte","state":"CA","lat":34.0686,"long":-118.0276},{"zip":"91735","city":"El Monte","state":"CA","lat":34.0686,"long":-118.0276},{"zip":"91740","city":"Glendora","state":"CA","lat":34.1287,"long":-117.8552},{"zip":"91741","city":"Glendora","state":"CA","lat":34.1537,"long":-117.8437},{"zip":"91744","city":"La Puente","state":"CA","lat":34.0289,"long":-117.9373},{"zip":"91745","city":"Hacienda Heights","state":"CA","lat":33.9977,"long":-117.9652},{"zip":"91746","city":"La Puente","state":"CA","lat":34.0443,"long":-117.9862},{"zip":"91747","city":"La Puente","state":"CA","lat":34.02,"long":-117.9495},{"zip":"91748","city":"Rowland Heights","state":"CA","lat":33.9818,"long":-117.8969},{"zip":"91749","city":"La Puente","state":"CA","lat":34.02,"long":-117.9495},{"zip":"91750","city":"La Verne","state":"CA","lat":34.1159,"long":-117.7708},{"zip":"91754","city":"Monterey Park","state":"CA","lat":34.0534,"long":-118.1271},{"zip":"91755","city":"Monterey Park","state":"CA","lat":34.048,"long":-118.115},{"zip":"91756","city":"Monterey Park","state":"CA","lat":34.0625,"long":-118.1228},{"zip":"91759","city":"Mt Baldy","state":"CA","lat":33.7866,"long":-118.2987},{"zip":"91765","city":"Diamond Bar","state":"CA","lat":34.0066,"long":-117.8098},{"zip":"91766","city":"Pomona","state":"CA","lat":34.0418,"long":-117.7569},{"zip":"91767","city":"Pomona","state":"CA","lat":34.0812,"long":-117.7362},{"zip":"91768","city":"Pomona","state":"CA","lat":34.0662,"long":-117.7763},{"zip":"91769","city":"Pomona","state":"CA","lat":34.0553,"long":-117.7523},{"zip":"91770","city":"Rosemead","state":"CA","lat":34.0658,"long":-118.0853},{"zip":"91771","city":"Rosemead","state":"CA","lat":34.0806,"long":-118.0728},{"zip":"91772","city":"Rosemead","state":"CA","lat":34.0806,"long":-118.0728},{"zip":"91773","city":"San Dimas","state":"CA","lat":34.1023,"long":-117.8169},{"zip":"91775","city":"San Gabriel","state":"CA","lat":34.1155,"long":-118.0857},{"zip":"91776","city":"San Gabriel","state":"CA","lat":34.089,"long":-118.0955},{"zip":"91778","city":"San Gabriel","state":"CA","lat":34.0961,"long":-118.1058},{"zip":"91780","city":"Temple City","state":"CA","lat":34.1016,"long":-118.0537},{"zip":"91788","city":"Walnut","state":"CA","lat":34.0203,"long":-117.8653},{"zip":"91789","city":"Walnut","state":"CA","lat":34.0183,"long":-117.8546},{"zip":"91790","city":"West Covina","state":"CA","lat":34.0673,"long":-117.9366},{"zip":"91791","city":"West Covina","state":"CA","lat":34.0653,"long":-117.8978},{"zip":"91792","city":"West Covina","state":"CA","lat":34.0229,"long":-117.8975},{"zip":"91793","city":"West Covina","state":"CA","lat":34.0686,"long":-117.939},{"zip":"91752","city":"Mira Loma","state":"CA","lat":33.9938,"long":-117.5236},{"zip":"91701","city":"Rancho Cucamonga","state":"CA","lat":34.1376,"long":-117.5999},{"zip":"91708","city":"Chino","state":"CA","lat":33.954,"long":-117.6404},{"zip":"91709","city":"Chino Hills","state":"CA","lat":33.9797,"long":-117.7308},{"zip":"91710","city":"Chino","state":"CA","lat":34.0125,"long":-117.6844},{"zip":"91729","city":"Rancho Cucamonga","state":"CA","lat":34.1064,"long":-117.5931},{"zip":"91730","city":"Rancho Cucamonga","state":"CA","lat":34.107,"long":-117.5941},{"zip":"91737","city":"Rancho Cucamonga","state":"CA","lat":34.1467,"long":-117.5803},{"zip":"91739","city":"Rancho Cucamonga","state":"CA","lat":34.1705,"long":-117.5182},{"zip":"91743","city":"Guasti","state":"CA","lat":34.065,"long":-117.5864},{"zip":"91758","city":"Ontario","state":"CA","lat":34.0633,"long":-117.6509},{"zip":"91761","city":"Ontario","state":"CA","lat":34.0316,"long":-117.6187},{"zip":"91762","city":"Ontario","state":"CA","lat":34.0584,"long":-117.6665},{"zip":"91763","city":"Montclair","state":"CA","lat":34.0733,"long":-117.6987},{"zip":"91764","city":"Ontario","state":"CA","lat":34.0763,"long":-117.6254},{"zip":"91784","city":"Upland","state":"CA","lat":34.141,"long":-117.6581},{"zip":"91785","city":"Upland","state":"CA","lat":34.1144,"long":-117.6583},{"zip":"91786","city":"Upland","state":"CA","lat":34.1144,"long":-117.6583}]
