[{"zip":"91901","city":"Alpine","state":"CA","lat":32.8282,"long":-116.7543},{"zip":"91902","city":"Bonita","state":"CA","lat":32.6671,"long":-117.0221},{"zip":"91903","city":"Alpine","state":"CA","lat":32.8351,"long":-116.7664},{"zip":"91905","city":"Boulevard","state":"CA","lat":32.6719,"long":-116.32},{"zip":"91906","city":"Campo","state":"CA","lat":32.6605,"long":-116.4905},{"zip":"91908","city":"Bonita","state":"CA","lat":32.6578,"long":-117.03},{"zip":"91909","city":"Chula Vista","state":"CA","lat":32.6401,"long":-117.0842},{"zip":"91910","city":"Chula Vista","state":"CA","lat":32.6371,"long":-117.0676},{"zip":"91911","city":"Chula Vista","state":"CA","lat":32.6084,"long":-117.0565},{"zip":"91912","city":"Chula Vista","state":"CA","lat":32.6401,"long":-117.0842},{"zip":"91913","city":"Chula Vista","state":"CA","lat":32.6513,"long":-116.9852},{"zip":"91914","city":"Chula Vista","state":"CA","lat":32.6587,"long":-116.9652},{"zip":"91915","city":"Chula Vista","state":"CA","lat":32.6315,"long":-116.9408},{"zip":"91916","city":"Descanso","state":"CA","lat":32.873,"long":-116.6027},{"zip":"91917","city":"Dulzura","state":"CA","lat":32.6152,"long":-116.7285},{"zip":"91921","city":"Chula Vista","state":"CA","lat":32.6401,"long":-117.0842},{"zip":"91931","city":"Guatay","state":"CA","lat":32.8497,"long":-116.5583},{"zip":"91932","city":"Imperial Beach","state":"CA","lat":32.5783,"long":-117.1148},{"zip":"91933","city":"Imperial Beach","state":"CA","lat":32.5839,"long":-117.1131},{"zip":"91934","city":"Jacumba","state":"CA","lat":32.6249,"long":-116.1952},{"zip":"91935","city":"Jamul","state":"CA","lat":32.7163,"long":-116.8323},{"zip":"91941","city":"La Mesa","state":"CA","lat":32.7604,"long":-117.0115},{"zip":"91942","city":"La Mesa","state":"CA","lat":32.7835,"long":-117.0189},{"zip":"91943","city":"La Mesa","state":"CA","lat":32.7678,"long":-117.0231},{"zip":"91944","city":"La Mesa","state":"CA","lat":32.7678,"long":-117.0231},{"zip":"91945","city":"Lemon Grove","state":"CA","lat":32.7332,"long":-117.0326},{"zip":"91946","city":"Lemon Grove","state":"CA","lat":32.7426,"long":-117.0314},{"zip":"91948","city":"Mount Laguna","state":"CA","lat":32.8676,"long":-116.4206},{"zip":"91950","city":"National City","state":"CA","lat":32.6749,"long":-117.0897},{"zip":"91951","city":"National City","state":"CA","lat":32.6781,"long":-117.0992},{"zip":"91962","city":"Pine Valley","state":"CA","lat":32.835,"long":-116.5127},{"zip":"91963","city":"Potrero","state":"CA","lat":32.6205,"long":-116.6037},{"zip":"91976","city":"Spring Valley","state":"CA","lat":32.7448,"long":-116.9989},{"zip":"91977","city":"Spring Valley","state":"CA","lat":32.724,"long":-116.9976},{"zip":"91978","city":"Spring Valley","state":"CA","lat":32.7329,"long":-116.9596},{"zip":"91979","city":"Spring Valley","state":"CA","lat":32.7448,"long":-116.9989},{"zip":"91980","city":"Tecate","state":"CA","lat":32.5889,"long":-116.6192},{"zip":"91987","city":"Tecate","state":"CA","lat":32.5773,"long":-116.6275}]
