[{"zip":"92222","city":"Bard","state":"CA","lat":32.7822,"long":-114.5619},{"zip":"92227","city":"Brawley","state":"CA","lat":32.9792,"long":-115.5296},{"zip":"92231","city":"Calexico","state":"CA","lat":32.6832,"long":-115.5028},{"zip":"92232","city":"Calexico","state":"CA","lat":32.6789,"long":-115.4989},{"zip":"92233","city":"Calipatria","state":"CA","lat":33.167,"long":-115.5114},{"zip":"92243","city":"El Centro","state":"CA","lat":32.7893,"long":-115.5665},{"zip":"92244","city":"El Centro","state":"CA","lat":32.7948,"long":-115.6927},{"zip":"92249","city":"Heber","state":"CA","lat":32.7218,"long":-115.4383},{"zip":"92250","city":"Holtville","state":"CA","lat":32.8104,"long":-115.3775},{"zip":"92251","city":"Imperial","state":"CA","lat":32.847,"long":-115.573},{"zip":"92257","city":"Niland","state":"CA","lat":33.3784,"long":-115.6965},{"zip":"92259","city":"Ocotillo","state":"CA","lat":32.7387,"long":-115.9942},{"zip":"92266","city":"Palo Verde","state":"CA","lat":33.3696,"long":-114.7355},{"zip":"92273","city":"Seeley","state":"CA","lat":32.7941,"long":-115.6948},{"zip":"92275","city":"Salton City","state":"CA","lat":33.3092,"long":-115.9578},{"zip":"92281","city":"Westmorland","state":"CA","lat":33.038,"long":-115.5914},{"zip":"92283","city":"Winterhaven","state":"CA","lat":32.9818,"long":-114.6854},{"zip":"92331","city":"Fontana","state":"CA","lat":34.0922,"long":-117.4612},{"zip":"92328","city":"Death Valley","state":"CA","lat":36.4672,"long":-116.8937},{"zip":"92384","city":"Shoshone","state":"CA","lat":35.8992,"long":-116.2645},{"zip":"92389","city":"Tecopa","state":"CA","lat":35.9021,"long":-116.1544},{"zip":"92602","city":"Irvine","state":"CA","lat":33.7419,"long":-117.7467},{"zip":"92603","city":"Irvine","state":"CA","lat":33.6245,"long":-117.794},{"zip":"92604","city":"Irvine","state":"CA","lat":33.6899,"long":-117.7868},{"zip":"92605","city":"Huntington Beach","state":"CA","lat":33.7151,"long":-118.0077},{"zip":"92606","city":"Irvine","state":"CA","lat":33.6951,"long":-117.8224},{"zip":"92607","city":"Laguna Niguel","state":"CA","lat":33.5269,"long":-117.7117},{"zip":"92609","city":"El Toro","state":"CA","lat":33.624,"long":-117.6908},{"zip":"92610","city":"Foothill Ranch","state":"CA","lat":33.6748,"long":-117.6649},{"zip":"92612","city":"Irvine","state":"CA","lat":33.6607,"long":-117.8264},{"zip":"92614","city":"Irvine","state":"CA","lat":33.6829,"long":-117.8298},{"zip":"92615","city":"Huntington Beach","state":"CA","lat":33.6566,"long":-117.9699},{"zip":"92616","city":"Irvine","state":"CA","lat":33.6519,"long":-117.8361},{"zip":"92617","city":"Irvine","state":"CA","lat":33.6425,"long":-117.8417},{"zip":"92618","city":"Irvine","state":"CA","lat":33.7074,"long":-117.7054},{"zip":"92619","city":"Irvine","state":"CA","lat":33.6706,"long":-117.7645},{"zip":"92620","city":"Irvine","state":"CA","lat":33.7009,"long":-117.7564},{"zip":"92623","city":"Irvine","state":"CA","lat":33.6942,"long":-117.8126},{"zip":"92624","city":"Capistrano Beach","state":"CA","lat":33.46,"long":-117.6632},{"zip":"92625","city":"Corona Del Mar","state":"CA","lat":33.6021,"long":-117.8743},{"zip":"92626","city":"Costa Mesa","state":"CA","lat":33.6801,"long":-117.9085},{"zip":"92627","city":"Costa Mesa","state":"CA","lat":33.6483,"long":-117.9155},{"zip":"92628","city":"Costa Mesa","state":"CA","lat":33.6401,"long":-117.9159},{"zip":"92629","city":"Dana Point","state":"CA","lat":33.4743,"long":-117.6964},{"zip":"92630","city":"Lake Forest","state":"CA","lat":33.6437,"long":-117.6868},{"zip":"92637","city":"Laguna Woods","state":"CA","lat":33.6103,"long":-117.7253},{"zip":"92646","city":"Huntington Beach","state":"CA","lat":33.6654,"long":-117.9686},{"zip":"92647","city":"Huntington Beach","state":"CA","lat":33.721,"long":-118.0033},{"zip":"92648","city":"Huntington Beach","state":"CA","lat":33.6773,"long":-118.0051},{"zip":"92649","city":"Huntington Beach","state":"CA","lat":33.718,"long":-118.0505},{"zip":"92650","city":"East Irvine","state":"CA","lat":33.6795,"long":-117.7609},{"zip":"92651","city":"Laguna Beach","state":"CA","lat":33.5429,"long":-117.7813},{"zip":"92652","city":"Laguna Beach","state":"CA","lat":33.543,"long":-117.7815},{"zip":"92653","city":"Laguna Hills","state":"CA","lat":33.5916,"long":-117.6985},{"zip":"92654","city":"Laguna Hills","state":"CA","lat":33.6042,"long":-117.7154},{"zip":"92655","city":"Midway City","state":"CA","lat":33.7446,"long":-117.984},{"zip":"92656","city":"Aliso Viejo","state":"CA","lat":33.5701,"long":-117.7086},{"zip":"92657","city":"Newport Coast","state":"CA","lat":33.5943,"long":-117.8334},{"zip":"92658","city":"Newport Beach","state":"CA","lat":33.6422,"long":-117.8631},{"zip":"92659","city":"Newport Beach","state":"CA","lat":33.6222,"long":-117.9235},{"zip":"92660","city":"Newport Beach","state":"CA","lat":33.6295,"long":-117.8684},{"zip":"92661","city":"Newport Beach","state":"CA","lat":33.6045,"long":-117.9021},{"zip":"92662","city":"Newport Beach","state":"CA","lat":33.6062,"long":-117.8931},{"zip":"92663","city":"Newport Beach","state":"CA","lat":33.621,"long":-117.9321},{"zip":"92672","city":"San Clemente","state":"CA","lat":33.4361,"long":-117.6231},{"zip":"92673","city":"San Clemente","state":"CA","lat":33.4615,"long":-117.6375},{"zip":"92674","city":"San Clemente","state":"CA","lat":33.4409,"long":-117.6211},{"zip":"92675","city":"San Juan Capistrano","state":"CA","lat":33.5085,"long":-117.6565},{"zip":"92676","city":"Silverado","state":"CA","lat":33.7451,"long":-117.6153},{"zip":"92677","city":"Laguna Niguel","state":"CA","lat":33.5145,"long":-117.7084},{"zip":"92678","city":"Trabuco Canyon","state":"CA","lat":33.6643,"long":-117.5896},{"zip":"92679","city":"Trabuco Canyon","state":"CA","lat":33.6415,"long":-117.5894},{"zip":"92683","city":"Westminster","state":"CA","lat":33.7524,"long":-117.9939},{"zip":"92684","city":"Westminster","state":"CA","lat":33.7627,"long":-118.0072},{"zip":"92685","city":"Westminster","state":"CA","lat":33.7528,"long":-117.9951},{"zip":"92688","city":"Rancho Santa Margarita","state":"CA","lat":33.6512,"long":-117.5938},{"zip":"92690","city":"Mission Viejo","state":"CA","lat":33.6117,"long":-117.643},{"zip":"92691","city":"Mission Viejo","state":"CA","lat":33.6128,"long":-117.6622},{"zip":"92692","city":"Mission Viejo","state":"CA","lat":33.6144,"long":-117.6433},{"zip":"92693","city":"San Juan Capistrano","state":"CA","lat":33.4977,"long":-117.6651},{"zip":"92694","city":"Ladera Ranch","state":"CA","lat":33.5472,"long":-117.6238},{"zip":"92697","city":"Irvine","state":"CA","lat":33.6485,"long":-117.8387},{"zip":"92698","city":"Aliso Viejo","state":"CA","lat":33.6686,"long":-117.8386},{"zip":"92701","city":"Santa Ana","state":"CA","lat":33.7523,"long":-117.8541},{"zip":"92702","city":"Santa Ana","state":"CA","lat":33.7365,"long":-117.8714},{"zip":"92703","city":"Santa Ana","state":"CA","lat":33.7489,"long":-117.9072},{"zip":"92704","city":"Santa Ana","state":"CA","lat":33.7249,"long":-117.909},{"zip":"92705","city":"Santa Ana","state":"CA","lat":33.754,"long":-117.7919},{"zip":"92706","city":"Santa Ana","state":"CA","lat":33.7691,"long":-117.8855},{"zip":"92707","city":"Santa Ana","state":"CA","lat":33.7086,"long":-117.8701},{"zip":"92708","city":"Fountain Valley","state":"CA","lat":33.7102,"long":-117.9503},{"zip":"92711","city":"Santa Ana","state":"CA","lat":33.7669,"long":-117.8043},{"zip":"92712","city":"Santa Ana","state":"CA","lat":33.7496,"long":-117.875},{"zip":"92728","city":"Fountain Valley","state":"CA","lat":33.714,"long":-117.9284},{"zip":"92735","city":"Santa Ana","state":"CA","lat":33.7188,"long":-117.8546},{"zip":"92780","city":"Tustin","state":"CA","lat":33.7364,"long":-117.8229},{"zip":"92781","city":"Tustin","state":"CA","lat":33.7369,"long":-117.8181},{"zip":"92782","city":"Tustin","state":"CA","lat":33.7346,"long":-117.7869},{"zip":"92799","city":"Santa Ana","state":"CA","lat":33.7205,"long":-117.9098},{"zip":"92801","city":"Anaheim","state":"CA","lat":33.8428,"long":-117.9546},{"zip":"92802","city":"Anaheim","state":"CA","lat":33.8085,"long":-117.9228},{"zip":"92803","city":"Anaheim","state":"CA","lat":33.8397,"long":-117.9388},{"zip":"92804","city":"Anaheim","state":"CA","lat":33.8186,"long":-117.9729},{"zip":"92805","city":"Anaheim","state":"CA","lat":33.8359,"long":-117.9086},{"zip":"92806","city":"Anaheim","state":"CA","lat":33.8356,"long":-117.8681},{"zip":"92807","city":"Anaheim","state":"CA","lat":33.8544,"long":-117.7858},{"zip":"92808","city":"Anaheim","state":"CA","lat":33.8579,"long":-117.7513},{"zip":"92809","city":"Anaheim","state":"CA","lat":33.8426,"long":-117.9388},{"zip":"92811","city":"Atwood","state":"CA","lat":33.8674,"long":-117.831},{"zip":"92812","city":"Anaheim","state":"CA","lat":33.817,"long":-117.9286},{"zip":"92814","city":"Anaheim","state":"CA","lat":33.8173,"long":-117.9607},{"zip":"92815","city":"Anaheim","state":"CA","lat":33.8319,"long":-117.9121},{"zip":"92816","city":"Anaheim","state":"CA","lat":33.8401,"long":-117.8867},{"zip":"92817","city":"Anaheim","state":"CA","lat":33.8512,"long":-117.7915},{"zip":"92821","city":"Brea","state":"CA","lat":33.9291,"long":-117.8845},{"zip":"92822","city":"Brea","state":"CA","lat":33.9187,"long":-117.8892},{"zip":"92823","city":"Brea","state":"CA","lat":33.923,"long":-117.798},{"zip":"92825","city":"Anaheim","state":"CA","lat":33.8356,"long":-117.9132},{"zip":"92831","city":"Fullerton","state":"CA","lat":33.8873,"long":-117.8946},{"zip":"92832","city":"Fullerton","state":"CA","lat":33.868,"long":-117.9265},{"zip":"92833","city":"Fullerton","state":"CA","lat":33.8766,"long":-117.9551},{"zip":"92834","city":"Fullerton","state":"CA","lat":33.8768,"long":-117.897},{"zip":"92835","city":"Fullerton","state":"CA","lat":33.8994,"long":-117.9063},{"zip":"92836","city":"Fullerton","state":"CA","lat":33.8755,"long":-117.9038},{"zip":"92837","city":"Fullerton","state":"CA","lat":33.8695,"long":-117.9611},{"zip":"92838","city":"Fullerton","state":"CA","lat":33.8934,"long":-117.931},{"zip":"92840","city":"Garden Grove","state":"CA","lat":33.7869,"long":-117.9273},{"zip":"92841","city":"Garden Grove","state":"CA","lat":33.7817,"long":-117.9766},{"zip":"92842","city":"Garden Grove","state":"CA","lat":33.7783,"long":-117.9456},{"zip":"92843","city":"Garden Grove","state":"CA","lat":33.7671,"long":-117.929},{"zip":"92844","city":"Garden Grove","state":"CA","lat":33.7661,"long":-117.9738},{"zip":"92845","city":"Garden Grove","state":"CA","lat":33.7787,"long":-118.0267},{"zip":"92846","city":"Garden Grove","state":"CA","lat":33.788,"long":-118.0325},{"zip":"92850","city":"Anaheim","state":"CA","lat":33.8442,"long":-117.9555},{"zip":"92856","city":"Orange","state":"CA","lat":33.7841,"long":-117.8435},{"zip":"92857","city":"Orange","state":"CA","lat":33.8317,"long":-117.8491},{"zip":"92859","city":"Orange","state":"CA","lat":33.8027,"long":-117.7867},{"zip":"92861","city":"Villa Park","state":"CA","lat":33.8205,"long":-117.8104},{"zip":"92862","city":"Orange","state":"CA","lat":33.7915,"long":-117.714},{"zip":"92863","city":"Orange","state":"CA","lat":33.8153,"long":-117.8273},{"zip":"92864","city":"Orange","state":"CA","lat":33.8143,"long":-117.8308},{"zip":"92865","city":"Orange","state":"CA","lat":33.8263,"long":-117.8511},{"zip":"92866","city":"Orange","state":"CA","lat":33.7877,"long":-117.8423},{"zip":"92867","city":"Orange","state":"CA","lat":33.811,"long":-117.8493},{"zip":"92868","city":"Orange","state":"CA","lat":33.7875,"long":-117.8776},{"zip":"92869","city":"Orange","state":"CA","lat":33.7868,"long":-117.7934},{"zip":"92870","city":"Placentia","state":"CA","lat":33.8744,"long":-117.8543},{"zip":"92871","city":"Placentia","state":"CA","lat":33.8829,"long":-117.8557},{"zip":"92885","city":"Yorba Linda","state":"CA","lat":33.8911,"long":-117.8222},{"zip":"92886","city":"Yorba Linda","state":"CA","lat":33.9058,"long":-117.7865},{"zip":"92887","city":"Yorba Linda","state":"CA","lat":33.8841,"long":-117.7304},{"zip":"92899","city":"Anaheim","state":"CA","lat":33.8373,"long":-117.8712},{"zip":"92201","city":"Indio","state":"CA","lat":33.7207,"long":-116.2168},{"zip":"92202","city":"Indio","state":"CA","lat":33.7529,"long":-116.0556},{"zip":"92203","city":"Indio","state":"CA","lat":33.7532,"long":-116.2676},{"zip":"92210","city":"Indian Wells","state":"CA","lat":33.7163,"long":-116.3381},{"zip":"92211","city":"Palm Desert","state":"CA","lat":33.7644,"long":-116.3398},{"zip":"92220","city":"Banning","state":"CA","lat":33.9282,"long":-116.8899},{"zip":"92223","city":"Beaumont","state":"CA","lat":33.9504,"long":-116.9701},{"zip":"92225","city":"Blythe","state":"CA","lat":33.6103,"long":-114.5963},{"zip":"92226","city":"Blythe","state":"CA","lat":33.5987,"long":-114.6525},{"zip":"92230","city":"Cabazon","state":"CA","lat":33.9086,"long":-116.7739},{"zip":"92234","city":"Cathedral City","state":"CA","lat":33.8098,"long":-116.4665},{"zip":"92235","city":"Cathedral City","state":"CA","lat":33.7797,"long":-116.4653},{"zip":"92236","city":"Coachella","state":"CA","lat":33.675,"long":-116.1772},{"zip":"92239","city":"Desert Center","state":"CA","lat":33.809,"long":-115.3666},{"zip":"92240","city":"Desert Hot Springs","state":"CA","lat":33.9531,"long":-116.5219},{"zip":"92241","city":"Desert Hot Springs","state":"CA","lat":33.8763,"long":-116.354},{"zip":"92247","city":"La Quinta","state":"CA","lat":33.6736,"long":-116.2951},{"zip":"92253","city":"La Quinta","state":"CA","lat":33.6685,"long":-116.3081},{"zip":"92254","city":"Mecca","state":"CA","lat":33.545,"long":-116.0187},{"zip":"92255","city":"Palm Desert","state":"CA","lat":33.7225,"long":-116.377},{"zip":"92258","city":"North Palm Springs","state":"CA","lat":33.9228,"long":-116.5431},{"zip":"92260","city":"Palm Desert","state":"CA","lat":33.7225,"long":-116.377},{"zip":"92261","city":"Palm Desert","state":"CA","lat":33.6604,"long":-116.4082},{"zip":"92262","city":"Palm Springs","state":"CA","lat":33.8414,"long":-116.5347},{"zip":"92263","city":"Palm Springs","state":"CA","lat":33.7611,"long":-116.5359},{"zip":"92264","city":"Palm Springs","state":"CA","lat":33.8018,"long":-116.517},{"zip":"92270","city":"Rancho Mirage","state":"CA","lat":33.7643,"long":-116.4225},{"zip":"92274","city":"Thermal","state":"CA","lat":33.5578,"long":-116.1572},{"zip":"92276","city":"Thousand Palms","state":"CA","lat":33.8082,"long":-116.3713},{"zip":"92282","city":"Whitewater","state":"CA","lat":33.989,"long":-116.6566},{"zip":"92320","city":"Calimesa","state":"CA","lat":33.9946,"long":-117.043},{"zip":"92501","city":"Riverside","state":"CA","lat":33.9924,"long":-117.3694},{"zip":"92502","city":"Riverside","state":"CA","lat":33.9533,"long":-117.3962},{"zip":"92503","city":"Riverside","state":"CA","lat":33.9208,"long":-117.4589},{"zip":"92504","city":"Riverside","state":"CA","lat":33.9315,"long":-117.4119},{"zip":"92505","city":"Riverside","state":"CA","lat":33.9228,"long":-117.4867},{"zip":"92506","city":"Riverside","state":"CA","lat":33.9455,"long":-117.3757},{"zip":"92507","city":"Riverside","state":"CA","lat":33.9761,"long":-117.3389},{"zip":"92508","city":"Riverside","state":"CA","lat":33.8897,"long":-117.3043},{"zip":"92509","city":"Riverside","state":"CA","lat":34.0033,"long":-117.445},{"zip":"92513","city":"Riverside","state":"CA","lat":33.9533,"long":-117.3962},{"zip":"92514","city":"Riverside","state":"CA","lat":33.9533,"long":-117.3962},{"zip":"92515","city":"Riverside","state":"CA","lat":33.9533,"long":-117.3962},{"zip":"92516","city":"Riverside","state":"CA","lat":33.9533,"long":-117.3962},{"zip":"92517","city":"Riverside","state":"CA","lat":33.9533,"long":-117.3962},{"zip":"92518","city":"March Air Reserve Base","state":"CA","lat":33.9533,"long":-117.3962},{"zip":"92519","city":"Riverside","state":"CA","lat":33.9533,"long":-117.3962},{"zip":"92521","city":"Riverside","state":"CA","lat":33.9533,"long":-117.3962},{"zip":"92522","city":"Riverside","state":"CA","lat":33.9533,"long":-117.3962},{"zip":"92530","city":"Lake Elsinore","state":"CA","lat":33.6598,"long":-117.3485},{"zip":"92531","city":"Lake Elsinore","state":"CA","lat":33.6681,"long":-117.3273},{"zip":"92532","city":"Lake Elsinore","state":"CA","lat":33.6927,"long":-117.303},{"zip":"92536","city":"Aguanga","state":"CA","lat":33.4473,"long":-116.7997},{"zip":"92539","city":"Anza","state":"CA","lat":33.5688,"long":-116.7135},{"zip":"92543","city":"Hemet","state":"CA","lat":33.7416,"long":-116.973},{"zip":"92544","city":"Hemet","state":"CA","lat":33.739,"long":-116.9243},{"zip":"92545","city":"Hemet","state":"CA","lat":33.7399,"long":-117.0151},{"zip":"92546","city":"Hemet","state":"CA","lat":33.7476,"long":-116.9731},{"zip":"92548","city":"Homeland","state":"CA","lat":33.7453,"long":-117.1118},{"zip":"92549","city":"Idyllwild","state":"CA","lat":33.7304,"long":-116.7107},{"zip":"92551","city":"Moreno Valley","state":"CA","lat":33.8814,"long":-117.2261},{"zip":"92552","city":"Moreno Valley","state":"CA","lat":33.9375,"long":-117.2306},{"zip":"92553","city":"Moreno Valley","state":"CA","lat":33.9157,"long":-117.2351},{"zip":"92554","city":"Moreno Valley","state":"CA","lat":33.9375,"long":-117.2306},{"zip":"92555","city":"Moreno Valley","state":"CA","lat":33.9377,"long":-117.1851},{"zip":"92556","city":"Moreno Valley","state":"CA","lat":33.9375,"long":-117.2306},{"zip":"92557","city":"Moreno Valley","state":"CA","lat":33.9553,"long":-117.2457},{"zip":"92561","city":"Mountain Center","state":"CA","lat":33.7042,"long":-116.7259},{"zip":"92562","city":"Murrieta","state":"CA","lat":33.5631,"long":-117.2738},{"zip":"92563","city":"Murrieta","state":"CA","lat":33.569,"long":-117.1783},{"zip":"92564","city":"Murrieta","state":"CA","lat":33.5539,"long":-117.2139},{"zip":"92567","city":"Nuevo","state":"CA","lat":33.8123,"long":-117.1048},{"zip":"92570","city":"Perris","state":"CA","lat":33.7852,"long":-117.3166},{"zip":"92571","city":"Perris","state":"CA","lat":33.811,"long":-117.218},{"zip":"92572","city":"Perris","state":"CA","lat":33.7825,"long":-117.2286},{"zip":"92581","city":"San Jacinto","state":"CA","lat":33.7839,"long":-116.9586},{"zip":"92582","city":"San Jacinto","state":"CA","lat":33.7883,"long":-116.9819},{"zip":"92583","city":"San Jacinto","state":"CA","lat":33.7967,"long":-116.9324},{"zip":"92584","city":"Menifee","state":"CA","lat":33.6647,"long":-117.1743},{"zip":"92585","city":"Sun City","state":"CA","lat":33.7467,"long":-117.1721},{"zip":"92586","city":"Sun City","state":"CA","lat":33.7044,"long":-117.1969},{"zip":"92587","city":"Quail Valley","state":"CA","lat":33.707,"long":-117.245},{"zip":"92589","city":"Temecula","state":"CA","lat":33.4936,"long":-117.1484},{"zip":"92590","city":"Temecula","state":"CA","lat":33.4903,"long":-117.1824},{"zip":"92591","city":"Temecula","state":"CA","lat":33.5217,"long":-117.1286},{"zip":"92592","city":"Temecula","state":"CA","lat":33.4983,"long":-117.0958},{"zip":"92593","city":"Temecula","state":"CA","lat":33.4936,"long":-117.1484},{"zip":"92595","city":"Wildomar","state":"CA","lat":33.6021,"long":-117.264},{"zip":"92596","city":"Winchester","state":"CA","lat":33.6243,"long":-117.0885},{"zip":"92599","city":"Perris","state":"CA","lat":33.7825,"long":-117.2286},{"zip":"92860","city":"Norco","state":"CA","lat":33.9247,"long":-117.5517},{"zip":"92877","city":"Corona","state":"CA","lat":33.8753,"long":-117.5664},{"zip":"92878","city":"Corona","state":"CA","lat":33.8753,"long":-117.5664},{"zip":"92879","city":"Corona","state":"CA","lat":33.8797,"long":-117.5354},{"zip":"92880","city":"Corona","state":"CA","lat":33.9208,"long":-117.6096},{"zip":"92881","city":"Corona","state":"CA","lat":33.8241,"long":-117.5198},{"zip":"92882","city":"Corona","state":"CA","lat":33.8419,"long":-117.6043},{"zip":"92883","city":"Corona","state":"CA","lat":33.7541,"long":-117.474},{"zip":"92242","city":"Earp","state":"CA","lat":34.1652,"long":-114.3197},{"zip":"92248","city":"La Quinta","state":"CA","lat":33.6736,"long":-116.2951},{"zip":"92252","city":"Joshua Tree","state":"CA","lat":34.1502,"long":-116.3038},{"zip":"92256","city":"Morongo Valley","state":"CA","lat":34.0606,"long":-116.5656},{"zip":"92267","city":"Parker Dam","state":"CA","lat":34.2872,"long":-114.143},{"zip":"92268","city":"Pioneertown","state":"CA","lat":34.1887,"long":-116.5048},{"zip":"92277","city":"Twentynine Palms","state":"CA","lat":34.1455,"long":-116.0601},{"zip":"92278","city":"Twentynine Palms","state":"CA","lat":34.238,"long":-116.0604},{"zip":"92280","city":"Vidal","state":"CA","lat":34.1561,"long":-114.5656},{"zip":"92284","city":"Yucca Valley","state":"CA","lat":34.1559,"long":-116.4313},{"zip":"92285","city":"Landers","state":"CA","lat":34.3103,"long":-116.5241},{"zip":"92286","city":"Yucca Valley","state":"CA","lat":34.1803,"long":-116.35},{"zip":"92301","city":"Adelanto","state":"CA","lat":34.5841,"long":-117.4242},{"zip":"92304","city":"Amboy","state":"CA","lat":34.5578,"long":-115.7444},{"zip":"92305","city":"Angelus Oaks","state":"CA","lat":34.1531,"long":-116.9485},{"zip":"92307","city":"Apple Valley","state":"CA","lat":34.5291,"long":-117.2132},{"zip":"92308","city":"Apple Valley","state":"CA","lat":34.4698,"long":-117.1927},{"zip":"92309","city":"Baker","state":"CA","lat":35.3606,"long":-116.0638},{"zip":"92310","city":"Fort Irwin","state":"CA","lat":35.2625,"long":-116.6966},{"zip":"92311","city":"Barstow","state":"CA","lat":34.8914,"long":-117.0387},{"zip":"92312","city":"Barstow","state":"CA","lat":34.8986,"long":-117.0228},{"zip":"92313","city":"Grand Terrace","state":"CA","lat":34.031,"long":-117.3129},{"zip":"92314","city":"Big Bear City","state":"CA","lat":34.261,"long":-116.8131},{"zip":"92315","city":"Big Bear Lake","state":"CA","lat":34.235,"long":-116.9053},{"zip":"92316","city":"Bloomington","state":"CA","lat":34.0662,"long":-117.3993},{"zip":"92317","city":"Blue Jay","state":"CA","lat":34.2112,"long":-117.0796},{"zip":"92318","city":"Bryn Mawr","state":"CA","lat":34.0483,"long":-117.2309},{"zip":"92321","city":"Cedar Glen","state":"CA","lat":34.2545,"long":-117.1533},{"zip":"92322","city":"Cedarpines Park","state":"CA","lat":34.2544,"long":-117.3265},{"zip":"92323","city":"Cima","state":"CA","lat":35.2378,"long":-115.4992},{"zip":"92324","city":"Colton","state":"CA","lat":34.0315,"long":-117.2874},{"zip":"92325","city":"Crestline","state":"CA","lat":34.2433,"long":-117.2811},{"zip":"92327","city":"Daggett","state":"CA","lat":34.8668,"long":-116.8876},{"zip":"92329","city":"Phelan","state":"CA","lat":34.4261,"long":-117.5723},{"zip":"92332","city":"Essex","state":"CA","lat":34.5881,"long":-115.5771},{"zip":"92333","city":"Fawnskin","state":"CA","lat":34.2583,"long":-116.9515},{"zip":"92334","city":"Fontana","state":"CA","lat":34.0922,"long":-117.435},{"zip":"92335","city":"Fontana","state":"CA","lat":34.0794,"long":-117.4551},{"zip":"92336","city":"Fontana","state":"CA","lat":34.1173,"long":-117.4378},{"zip":"92337","city":"Fontana","state":"CA","lat":34.0498,"long":-117.4706},{"zip":"92338","city":"Ludlow","state":"CA","lat":34.7211,"long":-116.16},{"zip":"92339","city":"Forest Falls","state":"CA","lat":34.0937,"long":-116.9362},{"zip":"92340","city":"Hesperia","state":"CA","lat":34.4264,"long":-117.3009},{"zip":"92341","city":"Green Valley Lake","state":"CA","lat":34.2348,"long":-117.066},{"zip":"92342","city":"Helendale","state":"CA","lat":34.7499,"long":-117.3367},{"zip":"92344","city":"Hesperia","state":"CA","lat":34.4239,"long":-117.4075},{"zip":"92345","city":"Hesperia","state":"CA","lat":34.4222,"long":-117.3025},{"zip":"92346","city":"Highland","state":"CA","lat":34.1283,"long":-117.2087},{"zip":"92347","city":"Hinkley","state":"CA","lat":34.9279,"long":-117.1809},{"zip":"92350","city":"Loma Linda","state":"CA","lat":34.0483,"long":-117.2612},{"zip":"92352","city":"Lake Arrowhead","state":"CA","lat":34.2606,"long":-117.2016},{"zip":"92354","city":"Loma Linda","state":"CA","lat":34.0528,"long":-117.2513},{"zip":"92356","city":"Lucerne Valley","state":"CA","lat":34.447,"long":-116.9189},{"zip":"92357","city":"Loma Linda","state":"CA","lat":34.0483,"long":-117.2612},{"zip":"92358","city":"Lytle Creek","state":"CA","lat":34.2558,"long":-117.5186},{"zip":"92359","city":"Mentone","state":"CA","lat":34.0774,"long":-117.1126},{"zip":"92363","city":"Needles","state":"CA","lat":34.7824,"long":-114.5871},{"zip":"92364","city":"Nipton","state":"CA","lat":35.4667,"long":-115.2722},{"zip":"92365","city":"Newberry Springs","state":"CA","lat":34.885,"long":-116.7464},{"zip":"92366","city":"Mountain Pass","state":"CA","lat":35.4703,"long":-115.545},{"zip":"92368","city":"Oro Grande","state":"CA","lat":34.6178,"long":-117.3327},{"zip":"92369","city":"Patton","state":"CA","lat":34.1358,"long":-117.2239},{"zip":"92371","city":"Phelan","state":"CA","lat":34.4449,"long":-117.5196},{"zip":"92372","city":"Pinon Hills","state":"CA","lat":34.4429,"long":-117.6403},{"zip":"92373","city":"Redlands","state":"CA","lat":34.0397,"long":-117.1804},{"zip":"92374","city":"Redlands","state":"CA","lat":34.065,"long":-117.1672},{"zip":"92375","city":"Redlands","state":"CA","lat":34.0556,"long":-117.1825},{"zip":"92376","city":"Rialto","state":"CA","lat":34.1132,"long":-117.3771},{"zip":"92377","city":"Rialto","state":"CA","lat":34.1561,"long":-117.4042},{"zip":"92378","city":"Rimforest","state":"CA","lat":34.2297,"long":-117.225},{"zip":"92382","city":"Running Springs","state":"CA","lat":34.2102,"long":-117.1109},{"zip":"92385","city":"Skyforest","state":"CA","lat":34.2353,"long":-117.1792},{"zip":"92386","city":"Sugarloaf","state":"CA","lat":34.2372,"long":-116.8277},{"zip":"92391","city":"Twin Peaks","state":"CA","lat":34.2379,"long":-117.2348},{"zip":"92392","city":"Victorville","state":"CA","lat":34.4802,"long":-117.4082},{"zip":"92393","city":"Victorville","state":"CA","lat":34.5361,"long":-117.2912},{"zip":"92394","city":"Victorville","state":"CA","lat":34.5563,"long":-117.3528},{"zip":"92395","city":"Victorville","state":"CA","lat":34.5016,"long":-117.2944},{"zip":"92397","city":"Wrightwood","state":"CA","lat":34.3628,"long":-117.6249},{"zip":"92398","city":"Yermo","state":"CA","lat":34.905,"long":-116.8203},{"zip":"92399","city":"Yucaipa","state":"CA","lat":34.0282,"long":-117.0489},{"zip":"92401","city":"San Bernardino","state":"CA","lat":34.1105,"long":-117.2898},{"zip":"92402","city":"San Bernardino","state":"CA","lat":34.1083,"long":-117.2898},{"zip":"92403","city":"San Bernardino","state":"CA","lat":34.1083,"long":-117.2898},{"zip":"92404","city":"San Bernardino","state":"CA","lat":34.1426,"long":-117.2606},{"zip":"92405","city":"San Bernardino","state":"CA","lat":34.1446,"long":-117.3013},{"zip":"92406","city":"San Bernardino","state":"CA","lat":34.1083,"long":-117.2898},{"zip":"92407","city":"San Bernardino","state":"CA","lat":34.2166,"long":-117.3908},{"zip":"92408","city":"San Bernardino","state":"CA","lat":34.0831,"long":-117.2711},{"zip":"92410","city":"San Bernardino","state":"CA","lat":34.1069,"long":-117.2975},{"zip":"92411","city":"San Bernardino","state":"CA","lat":34.1214,"long":-117.3172},{"zip":"92413","city":"San Bernardino","state":"CA","lat":34.1083,"long":-117.2898},{"zip":"92415","city":"San Bernardino","state":"CA","lat":34.1083,"long":-117.2898},{"zip":"92418","city":"San Bernardino","state":"CA","lat":34.1083,"long":-117.2898},{"zip":"92423","city":"San Bernardino","state":"CA","lat":34.1083,"long":-117.2898},{"zip":"92427","city":"San Bernardino","state":"CA","lat":34.1083,"long":-117.2898},{"zip":"92003","city":"Bonsall","state":"CA","lat":33.294,"long":-117.1897},{"zip":"92004","city":"Borrego Springs","state":"CA","lat":33.2386,"long":-116.3514},{"zip":"92007","city":"Cardiff By The Sea","state":"CA","lat":33.023,"long":-117.2745},{"zip":"92008","city":"Carlsbad","state":"CA","lat":33.1602,"long":-117.325},{"zip":"92009","city":"Carlsbad","state":"CA","lat":33.0954,"long":-117.2619},{"zip":"92010","city":"Carlsbad","state":"CA","lat":33.1639,"long":-117.3009},{"zip":"92011","city":"Carlsbad","state":"CA","lat":33.1072,"long":-117.2943},{"zip":"92013","city":"Carlsbad","state":"CA","lat":33.1581,"long":-117.3506},{"zip":"92014","city":"Del Mar","state":"CA","lat":32.9665,"long":-117.249},{"zip":"92018","city":"Carlsbad","state":"CA","lat":33.1581,"long":-117.3506},{"zip":"92019","city":"El Cajon","state":"CA","lat":32.7777,"long":-116.9191},{"zip":"92020","city":"El Cajon","state":"CA","lat":32.7928,"long":-116.9665},{"zip":"92021","city":"El Cajon","state":"CA","lat":32.8178,"long":-116.9223},{"zip":"92022","city":"El Cajon","state":"CA","lat":32.7948,"long":-116.9625},{"zip":"92023","city":"Encinitas","state":"CA","lat":33.036,"long":-117.292},{"zip":"92024","city":"Encinitas","state":"CA","lat":33.0535,"long":-117.2689},{"zip":"92025","city":"Escondido","state":"CA","lat":33.1101,"long":-117.07},{"zip":"92026","city":"Escondido","state":"CA","lat":33.1605,"long":-117.0978},{"zip":"92027","city":"Escondido","state":"CA","lat":33.1388,"long":-117.052},{"zip":"92028","city":"Fallbrook","state":"CA","lat":33.369,"long":-117.229},{"zip":"92029","city":"Escondido","state":"CA","lat":33.0895,"long":-117.1128},{"zip":"92030","city":"Escondido","state":"CA","lat":33.1192,"long":-117.0864},{"zip":"92033","city":"Escondido","state":"CA","lat":33.1192,"long":-117.0864},{"zip":"92036","city":"Julian","state":"CA","lat":33.0534,"long":-116.5658},{"zip":"92037","city":"La Jolla","state":"CA","lat":32.8455,"long":-117.2521},{"zip":"92038","city":"La Jolla","state":"CA","lat":32.8473,"long":-117.2742},{"zip":"92039","city":"La Jolla","state":"CA","lat":32.8473,"long":-117.2742},{"zip":"92040","city":"Lakeside","state":"CA","lat":32.8562,"long":-116.9201},{"zip":"92046","city":"Escondido","state":"CA","lat":33.1192,"long":-117.0864},{"zip":"92049","city":"Oceanside","state":"CA","lat":33.1959,"long":-117.3795},{"zip":"92051","city":"Oceanside","state":"CA","lat":33.1959,"long":-117.3795},{"zip":"92052","city":"Oceanside","state":"CA","lat":33.1959,"long":-117.3795},{"zip":"92054","city":"Oceanside","state":"CA","lat":33.2072,"long":-117.3573},{"zip":"92055","city":"Camp Pendleton","state":"CA","lat":33.0169,"long":-116.846},{"zip":"92056","city":"Oceanside","state":"CA","lat":33.1968,"long":-117.2831},{"zip":"92057","city":"Oceanside","state":"CA","lat":33.2407,"long":-117.3025},{"zip":"92058","city":"Oceanside","state":"CA","lat":33.2696,"long":-117.3423},{"zip":"92059","city":"Pala","state":"CA","lat":33.3777,"long":-117.0717},{"zip":"92060","city":"Palomar Mountain","state":"CA","lat":33.3228,"long":-116.8786},{"zip":"92061","city":"Pauma Valley","state":"CA","lat":33.3063,"long":-116.9596},{"zip":"92064","city":"Poway","state":"CA","lat":32.9756,"long":-117.0402},{"zip":"92065","city":"Ramona","state":"CA","lat":33.0293,"long":-116.8535},{"zip":"92066","city":"Ranchita","state":"CA","lat":33.21,"long":-116.5167},{"zip":"92067","city":"Rancho Santa Fe","state":"CA","lat":33.005,"long":-117.2157},{"zip":"92068","city":"San Luis Rey","state":"CA","lat":33.232,"long":-117.3236},{"zip":"92069","city":"San Marcos","state":"CA","lat":33.1444,"long":-117.1697},{"zip":"92070","city":"Santa Ysabel","state":"CA","lat":33.1476,"long":-116.6963},{"zip":"92071","city":"Santee","state":"CA","lat":32.8486,"long":-116.9862},{"zip":"92072","city":"Santee","state":"CA","lat":32.8384,"long":-116.9739},{"zip":"92074","city":"Poway","state":"CA","lat":32.9628,"long":-117.0359},{"zip":"92075","city":"Solana Beach","state":"CA","lat":32.9937,"long":-117.2598},{"zip":"92078","city":"San Marcos","state":"CA","lat":33.1193,"long":-117.185},{"zip":"92079","city":"San Marcos","state":"CA","lat":33.1434,"long":-117.1661},{"zip":"92081","city":"Vista","state":"CA","lat":33.1644,"long":-117.2403},{"zip":"92082","city":"Valley Center","state":"CA","lat":33.249,"long":-117.0122},{"zip":"92083","city":"Vista","state":"CA","lat":33.1978,"long":-117.2482},{"zip":"92084","city":"Vista","state":"CA","lat":33.2131,"long":-117.2243},{"zip":"92085","city":"Vista","state":"CA","lat":33.2,"long":-117.2425},{"zip":"92086","city":"Warner Springs","state":"CA","lat":33.3096,"long":-116.6527},{"zip":"92088","city":"Fallbrook","state":"CA","lat":33.3764,"long":-117.2511},{"zip":"92091","city":"Rancho Santa Fe","state":"CA","lat":32.9623,"long":-117.0462},{"zip":"92092","city":"La Jolla","state":"CA","lat":32.8473,"long":-117.2742},{"zip":"92093","city":"La Jolla","state":"CA","lat":32.8473,"long":-117.2742},{"zip":"92096","city":"San Marcos","state":"CA","lat":33.1434,"long":-117.1661},{"zip":"92101","city":"San Diego","state":"CA","lat":32.7185,"long":-117.1593},{"zip":"92102","city":"San Diego","state":"CA","lat":32.7139,"long":-117.1219},{"zip":"92103","city":"San Diego","state":"CA","lat":32.7466,"long":-117.1636},{"zip":"92104","city":"San Diego","state":"CA","lat":32.7454,"long":-117.1272},{"zip":"92105","city":"San Diego","state":"CA","lat":32.7423,"long":-117.0947},{"zip":"92106","city":"San Diego","state":"CA","lat":32.7272,"long":-117.2268},{"zip":"92107","city":"San Diego","state":"CA","lat":32.7425,"long":-117.2433},{"zip":"92108","city":"San Diego","state":"CA","lat":32.7783,"long":-117.1335},{"zip":"92109","city":"San Diego","state":"CA","lat":32.7969,"long":-117.2405},{"zip":"92110","city":"San Diego","state":"CA","lat":32.7635,"long":-117.2028},{"zip":"92111","city":"San Diego","state":"CA","lat":32.7972,"long":-117.1708},{"zip":"92112","city":"San Diego","state":"CA","lat":32.7153,"long":-117.1573},{"zip":"92113","city":"San Diego","state":"CA","lat":32.697,"long":-117.1153},{"zip":"92114","city":"San Diego","state":"CA","lat":32.7059,"long":-117.0524},{"zip":"92115","city":"San Diego","state":"CA","lat":32.7607,"long":-117.0721},{"zip":"92116","city":"San Diego","state":"CA","lat":32.7624,"long":-117.1242},{"zip":"92117","city":"San Diego","state":"CA","lat":32.8239,"long":-117.1965},{"zip":"92118","city":"Coronado","state":"CA","lat":32.6807,"long":-117.1698},{"zip":"92119","city":"San Diego","state":"CA","lat":32.8036,"long":-117.0261},{"zip":"92120","city":"San Diego","state":"CA","lat":32.7958,"long":-117.0707},{"zip":"92121","city":"San Diego","state":"CA","lat":32.8919,"long":-117.2035},{"zip":"92122","city":"San Diego","state":"CA","lat":32.8577,"long":-117.2115},{"zip":"92123","city":"San Diego","state":"CA","lat":32.7973,"long":-117.1392},{"zip":"92124","city":"San Diego","state":"CA","lat":32.8201,"long":-117.0986},{"zip":"92126","city":"San Diego","state":"CA","lat":32.9161,"long":-117.1402},{"zip":"92127","city":"San Diego","state":"CA","lat":33.0279,"long":-117.0856},{"zip":"92128","city":"San Diego","state":"CA","lat":33.0067,"long":-117.069},{"zip":"92129","city":"San Diego","state":"CA","lat":32.9652,"long":-117.1213},{"zip":"92130","city":"San Diego","state":"CA","lat":32.9555,"long":-117.2252},{"zip":"92131","city":"San Diego","state":"CA","lat":32.9123,"long":-117.0898},{"zip":"92132","city":"San Diego","state":"CA","lat":32.6437,"long":-117.1384},{"zip":"92134","city":"San Diego","state":"CA","lat":32.7242,"long":-117.1466},{"zip":"92135","city":"San Diego","state":"CA","lat":32.7153,"long":-117.1573},{"zip":"92136","city":"San Diego","state":"CA","lat":32.6834,"long":-117.1219},{"zip":"92137","city":"San Diego","state":"CA","lat":32.8538,"long":-117.1197},{"zip":"92138","city":"San Diego","state":"CA","lat":32.7153,"long":-117.1573},{"zip":"92139","city":"San Diego","state":"CA","lat":32.6806,"long":-117.0474},{"zip":"92140","city":"San Diego","state":"CA","lat":32.7434,"long":-117.2004},{"zip":"92142","city":"San Diego","state":"CA","lat":32.7153,"long":-117.1573},{"zip":"92143","city":"San Ysidro","state":"CA","lat":33.2553,"long":-116.5664},{"zip":"92145","city":"San Diego","state":"CA","lat":32.8891,"long":-117.1005},{"zip":"92147","city":"San Diego","state":"CA","lat":32.7153,"long":-117.1573},{"zip":"92149","city":"San Diego","state":"CA","lat":32.7153,"long":-117.1573},{"zip":"92150","city":"San Diego","state":"CA","lat":32.7153,"long":-117.1573},{"zip":"92152","city":"San Diego","state":"CA","lat":32.7153,"long":-117.1573},{"zip":"92153","city":"San Diego","state":"CA","lat":32.7153,"long":-117.1573},{"zip":"92154","city":"San Diego","state":"CA","lat":32.5753,"long":-117.0707},{"zip":"92155","city":"San Diego","state":"CA","lat":32.6716,"long":-117.1657},{"zip":"92158","city":"San Diego","state":"CA","lat":32.7153,"long":-117.1573},{"zip":"92159","city":"San Diego","state":"CA","lat":32.7153,"long":-117.1573},{"zip":"92160","city":"San Diego","state":"CA","lat":32.7153,"long":-117.1573},{"zip":"92161","city":"San Diego","state":"CA","lat":32.8718,"long":-117.2291},{"zip":"92163","city":"San Diego","state":"CA","lat":32.7153,"long":-117.1573},{"zip":"92165","city":"San Diego","state":"CA","lat":32.7153,"long":-117.1573},{"zip":"92166","city":"San Diego","state":"CA","lat":32.7153,"long":-117.1573},{"zip":"92167","city":"San Diego","state":"CA","lat":32.7153,"long":-117.1573},{"zip":"92168","city":"San Diego","state":"CA","lat":32.7153,"long":-117.1573},{"zip":"92169","city":"San Diego","state":"CA","lat":32.7153,"long":-117.1573},{"zip":"92170","city":"San Diego","state":"CA","lat":32.7153,"long":-117.1573},{"zip":"92171","city":"San Diego","state":"CA","lat":32.7153,"long":-117.1573},{"zip":"92172","city":"San Diego","state":"CA","lat":32.7153,"long":-117.1573},{"zip":"92173","city":"San Ysidro","state":"CA","lat":32.5626,"long":-117.043},{"zip":"92174","city":"San Diego","state":"CA","lat":32.7153,"long":-117.1573},{"zip":"92175","city":"San Diego","state":"CA","lat":32.7153,"long":-117.1573},{"zip":"92176","city":"San Diego","state":"CA","lat":32.7153,"long":-117.1573},{"zip":"92177","city":"San Diego","state":"CA","lat":32.7153,"long":-117.1573},{"zip":"92178","city":"Coronado","state":"CA","lat":32.6859,"long":-117.1831},{"zip":"92179","city":"San Diego","state":"CA","lat":32.7153,"long":-117.1573},{"zip":"92182","city":"San Diego","state":"CA","lat":32.7751,"long":-117.0762},{"zip":"92186","city":"San Diego","state":"CA","lat":32.7153,"long":-117.1573},{"zip":"92187","city":"San Diego","state":"CA","lat":32.7153,"long":-117.1573},{"zip":"92190","city":"San Diego","state":"CA","lat":32.7153,"long":-117.1573},{"zip":"92191","city":"San Diego","state":"CA","lat":32.7153,"long":-117.1573},{"zip":"92192","city":"San Diego","state":"CA","lat":32.7153,"long":-117.1573},{"zip":"92193","city":"San Diego","state":"CA","lat":32.7153,"long":-117.1573},{"zip":"92195","city":"San Diego","state":"CA","lat":32.7153,"long":-117.1573},{"zip":"92196","city":"San Diego","state":"CA","lat":32.7153,"long":-117.1573},{"zip":"92197","city":"San Diego","state":"CA","lat":32.7153,"long":-117.1573},{"zip":"92198","city":"San Diego","state":"CA","lat":32.7153,"long":-117.1573},{"zip":"92199","city":"San Diego","state":"CA","lat":32.7516,"long":-117.1918}]
