[{"zip":"92101","city":"San Diego","state":"CA","lat":32.7185,"long":-117.1593},{"zip":"92102","city":"San Diego","state":"CA","lat":32.7139,"long":-117.1219},{"zip":"92103","city":"San Diego","state":"CA","lat":32.7466,"long":-117.1636},{"zip":"92104","city":"San Diego","state":"CA","lat":32.7454,"long":-117.1272},{"zip":"92105","city":"San Diego","state":"CA","lat":32.7423,"long":-117.0947},{"zip":"92106","city":"San Diego","state":"CA","lat":32.7272,"long":-117.2268},{"zip":"92107","city":"San Diego","state":"CA","lat":32.7425,"long":-117.2433},{"zip":"92108","city":"San Diego","state":"CA","lat":32.7783,"long":-117.1335},{"zip":"92109","city":"San Diego","state":"CA","lat":32.7969,"long":-117.2405},{"zip":"92110","city":"San Diego","state":"CA","lat":32.7635,"long":-117.2028},{"zip":"92111","city":"San Diego","state":"CA","lat":32.7972,"long":-117.1708},{"zip":"92112","city":"San Diego","state":"CA","lat":32.7153,"long":-117.1573},{"zip":"92113","city":"San Diego","state":"CA","lat":32.697,"long":-117.1153},{"zip":"92114","city":"San Diego","state":"CA","lat":32.7059,"long":-117.0524},{"zip":"92115","city":"San Diego","state":"CA","lat":32.7607,"long":-117.0721},{"zip":"92116","city":"San Diego","state":"CA","lat":32.7624,"long":-117.1242},{"zip":"92117","city":"San Diego","state":"CA","lat":32.8239,"long":-117.1965},{"zip":"92118","city":"Coronado","state":"CA","lat":32.6807,"long":-117.1698},{"zip":"92119","city":"San Diego","state":"CA","lat":32.8036,"long":-117.0261},{"zip":"92120","city":"San Diego","state":"CA","lat":32.7958,"long":-117.0707},{"zip":"92121","city":"San Diego","state":"CA","lat":32.8919,"long":-117.2035},{"zip":"92122","city":"San Diego","state":"CA","lat":32.8577,"long":-117.2115},{"zip":"92123","city":"San Diego","state":"CA","lat":32.7973,"long":-117.1392},{"zip":"92124","city":"San Diego","state":"CA","lat":32.8201,"long":-117.0986},{"zip":"92126","city":"San Diego","state":"CA","lat":32.9161,"long":-117.1402},{"zip":"92127","city":"San Diego","state":"CA","lat":33.0279,"long":-117.0856},{"zip":"92128","city":"San Diego","state":"CA","lat":33.0067,"long":-117.069},{"zip":"92129","city":"San Diego","state":"CA","lat":32.9652,"long":-117.1213},{"zip":"92130","city":"San Diego","state":"CA","lat":32.9555,"long":-117.2252},{"zip":"92131","city":"San Diego","state":"CA","lat":32.9123,"long":-117.0898},{"zip":"92132","city":"San Diego","state":"CA","lat":32.6437,"long":-117.1384},{"zip":"92134","city":"San Diego","state":"CA","lat":32.7242,"long":-117.1466},{"zip":"92135","city":"San Diego","state":"CA","lat":32.7153,"long":-117.1573},{"zip":"92136","city":"San Diego","state":"CA","lat":32.6834,"long":-117.1219},{"zip":"92137","city":"San Diego","state":"CA","lat":32.8538,"long":-117.1197},{"zip":"92138","city":"San Diego","state":"CA","lat":32.7153,"long":-117.1573},{"zip":"92139","city":"San Diego","state":"CA","lat":32.6806,"long":-117.0474},{"zip":"92140","city":"San Diego","state":"CA","lat":32.7434,"long":-117.2004},{"zip":"92142","city":"San Diego","state":"CA","lat":32.7153,"long":-117.1573},{"zip":"92143","city":"San Ysidro","state":"CA","lat":33.2553,"long":-116.5664},{"zip":"92145","city":"San Diego","state":"CA","lat":32.8891,"long":-117.1005},{"zip":"92147","city":"San Diego","state":"CA","lat":32.7153,"long":-117.1573},{"zip":"92149","city":"San Diego","state":"CA","lat":32.7153,"long":-117.1573},{"zip":"92150","city":"San Diego","state":"CA","lat":32.7153,"long":-117.1573},{"zip":"92152","city":"San Diego","state":"CA","lat":32.7153,"long":-117.1573},{"zip":"92153","city":"San Diego","state":"CA","lat":32.7153,"long":-117.1573},{"zip":"92154","city":"San Diego","state":"CA","lat":32.5753,"long":-117.0707},{"zip":"92155","city":"San Diego","state":"CA","lat":32.6716,"long":-117.1657},{"zip":"92158","city":"San Diego","state":"CA","lat":32.7153,"long":-117.1573},{"zip":"92159","city":"San Diego","state":"CA","lat":32.7153,"long":-117.1573},{"zip":"92160","city":"San Diego","state":"CA","lat":32.7153,"long":-117.1573},{"zip":"92161","city":"San Diego","state":"CA","lat":32.8718,"long":-117.2291},{"zip":"92163","city":"San Diego","state":"CA","lat":32.7153,"long":-117.1573},{"zip":"92165","city":"San Diego","state":"CA","lat":32.7153,"long":-117.1573},{"zip":"92166","city":"San Diego","state":"CA","lat":32.7153,"long":-117.1573},{"zip":"92167","city":"San Diego","state":"CA","lat":32.7153,"long":-117.1573},{"zip":"92168","city":"San Diego","state":"CA","lat":32.7153,"long":-117.1573},{"zip":"92169","city":"San Diego","state":"CA","lat":32.7153,"long":-117.1573},{"zip":"92170","city":"San Diego","state":"CA","lat":32.7153,"long":-117.1573},{"zip":"92171","city":"San Diego","state":"CA","lat":32.7153,"long":-117.1573},{"zip":"92172","city":"San Diego","state":"CA","lat":32.7153,"long":-117.1573},{"zip":"92173","city":"San Ysidro","state":"CA","lat":32.5626,"long":-117.043},{"zip":"92174","city":"San Diego","state":"CA","lat":32.7153,"long":-117.1573},{"zip":"92175","city":"San Diego","state":"CA","lat":32.7153,"long":-117.1573},{"zip":"92176","city":"San Diego","state":"CA","lat":32.7153,"long":-117.1573},{"zip":"92177","city":"San Diego","state":"CA","lat":32.7153,"long":-117.1573},{"zip":"92178","city":"Coronado","state":"CA","lat":32.6859,"long":-117.1831},{"zip":"92179","city":"San Diego","state":"CA","lat":32.7153,"long":-117.1573},{"zip":"92182","city":"San Diego","state":"CA","lat":32.7751,"long":-117.0762},{"zip":"92186","city":"San Diego","state":"CA","lat":32.7153,"long":-117.1573},{"zip":"92187","city":"San Diego","state":"CA","lat":32.7153,"long":-117.1573},{"zip":"92190","city":"San Diego","state":"CA","lat":32.7153,"long":-117.1573},{"zip":"92191","city":"San Diego","state":"CA","lat":32.7153,"long":-117.1573},{"zip":"92192","city":"San Diego","state":"CA","lat":32.7153,"long":-117.1573},{"zip":"92193","city":"San Diego","state":"CA","lat":32.7153,"long":-117.1573},{"zip":"92195","city":"San Diego","state":"CA","lat":32.7153,"long":-117.1573},{"zip":"92196","city":"San Diego","state":"CA","lat":32.7153,"long":-117.1573},{"zip":"92197","city":"San Diego","state":"CA","lat":32.7153,"long":-117.1573},{"zip":"92198","city":"San Diego","state":"CA","lat":32.7153,"long":-117.1573},{"zip":"92199","city":"San Diego","state":"CA","lat":32.7516,"long":-117.1918}]
