[{"zip":"92222","city":"Bard","state":"CA","lat":32.7822,"long":-114.5619},{"zip":"92227","city":"Brawley","state":"CA","lat":32.9792,"long":-115.5296},{"zip":"92231","city":"Calexico","state":"CA","lat":32.6832,"long":-115.5028},{"zip":"92232","city":"Calexico","state":"CA","lat":32.6789,"long":-115.4989},{"zip":"92233","city":"Calipatria","state":"CA","lat":33.167,"long":-115.5114},{"zip":"92243","city":"El Centro","state":"CA","lat":32.7893,"long":-115.5665},{"zip":"92244","city":"El Centro","state":"CA","lat":32.7948,"long":-115.6927},{"zip":"92249","city":"Heber","state":"CA","lat":32.7218,"long":-115.4383},{"zip":"92250","city":"Holtville","state":"CA","lat":32.8104,"long":-115.3775},{"zip":"92251","city":"Imperial","state":"CA","lat":32.847,"long":-115.573},{"zip":"92257","city":"Niland","state":"CA","lat":33.3784,"long":-115.6965},{"zip":"92259","city":"Ocotillo","state":"CA","lat":32.7387,"long":-115.9942},{"zip":"92266","city":"Palo Verde","state":"CA","lat":33.3696,"long":-114.7355},{"zip":"92273","city":"Seeley","state":"CA","lat":32.7941,"long":-115.6948},{"zip":"92275","city":"Salton City","state":"CA","lat":33.3092,"long":-115.9578},{"zip":"92281","city":"Westmorland","state":"CA","lat":33.038,"long":-115.5914},{"zip":"92283","city":"Winterhaven","state":"CA","lat":32.9818,"long":-114.6854},{"zip":"92201","city":"Indio","state":"CA","lat":33.7207,"long":-116.2168},{"zip":"92202","city":"Indio","state":"CA","lat":33.7529,"long":-116.0556},{"zip":"92203","city":"Indio","state":"CA","lat":33.7532,"long":-116.2676},{"zip":"92210","city":"Indian Wells","state":"CA","lat":33.7163,"long":-116.3381},{"zip":"92211","city":"Palm Desert","state":"CA","lat":33.7644,"long":-116.3398},{"zip":"92220","city":"Banning","state":"CA","lat":33.9282,"long":-116.8899},{"zip":"92223","city":"Beaumont","state":"CA","lat":33.9504,"long":-116.9701},{"zip":"92225","city":"Blythe","state":"CA","lat":33.6103,"long":-114.5963},{"zip":"92226","city":"Blythe","state":"CA","lat":33.5987,"long":-114.6525},{"zip":"92230","city":"Cabazon","state":"CA","lat":33.9086,"long":-116.7739},{"zip":"92234","city":"Cathedral City","state":"CA","lat":33.8098,"long":-116.4665},{"zip":"92235","city":"Cathedral City","state":"CA","lat":33.7797,"long":-116.4653},{"zip":"92236","city":"Coachella","state":"CA","lat":33.675,"long":-116.1772},{"zip":"92239","city":"Desert Center","state":"CA","lat":33.809,"long":-115.3666},{"zip":"92240","city":"Desert Hot Springs","state":"CA","lat":33.9531,"long":-116.5219},{"zip":"92241","city":"Desert Hot Springs","state":"CA","lat":33.8763,"long":-116.354},{"zip":"92247","city":"La Quinta","state":"CA","lat":33.6736,"long":-116.2951},{"zip":"92253","city":"La Quinta","state":"CA","lat":33.6685,"long":-116.3081},{"zip":"92254","city":"Mecca","state":"CA","lat":33.545,"long":-116.0187},{"zip":"92255","city":"Palm Desert","state":"CA","lat":33.7225,"long":-116.377},{"zip":"92258","city":"North Palm Springs","state":"CA","lat":33.9228,"long":-116.5431},{"zip":"92260","city":"Palm Desert","state":"CA","lat":33.7225,"long":-116.377},{"zip":"92261","city":"Palm Desert","state":"CA","lat":33.6604,"long":-116.4082},{"zip":"92262","city":"Palm Springs","state":"CA","lat":33.8414,"long":-116.5347},{"zip":"92263","city":"Palm Springs","state":"CA","lat":33.7611,"long":-116.5359},{"zip":"92264","city":"Palm Springs","state":"CA","lat":33.8018,"long":-116.517},{"zip":"92270","city":"Rancho Mirage","state":"CA","lat":33.7643,"long":-116.4225},{"zip":"92274","city":"Thermal","state":"CA","lat":33.5578,"long":-116.1572},{"zip":"92276","city":"Thousand Palms","state":"CA","lat":33.8082,"long":-116.3713},{"zip":"92282","city":"Whitewater","state":"CA","lat":33.989,"long":-116.6566},{"zip":"92242","city":"Earp","state":"CA","lat":34.1652,"long":-114.3197},{"zip":"92248","city":"La Quinta","state":"CA","lat":33.6736,"long":-116.2951},{"zip":"92252","city":"Joshua Tree","state":"CA","lat":34.1502,"long":-116.3038},{"zip":"92256","city":"Morongo Valley","state":"CA","lat":34.0606,"long":-116.5656},{"zip":"92267","city":"Parker Dam","state":"CA","lat":34.2872,"long":-114.143},{"zip":"92268","city":"Pioneertown","state":"CA","lat":34.1887,"long":-116.5048},{"zip":"92277","city":"Twentynine Palms","state":"CA","lat":34.1455,"long":-116.0601},{"zip":"92278","city":"Twentynine Palms","state":"CA","lat":34.238,"long":-116.0604},{"zip":"92280","city":"Vidal","state":"CA","lat":34.1561,"long":-114.5656},{"zip":"92284","city":"Yucca Valley","state":"CA","lat":34.1559,"long":-116.4313},{"zip":"92285","city":"Landers","state":"CA","lat":34.3103,"long":-116.5241},{"zip":"92286","city":"Yucca Valley","state":"CA","lat":34.1803,"long":-116.35}]
