[{"zip":"92331","city":"Fontana","state":"CA","lat":34.0922,"long":-117.4612},{"zip":"92328","city":"Death Valley","state":"CA","lat":36.4672,"long":-116.8937},{"zip":"92384","city":"Shoshone","state":"CA","lat":35.8992,"long":-116.2645},{"zip":"92389","city":"Tecopa","state":"CA","lat":35.9021,"long":-116.1544},{"zip":"92320","city":"Calimesa","state":"CA","lat":33.9946,"long":-117.043},{"zip":"92301","city":"Adelanto","state":"CA","lat":34.5841,"long":-117.4242},{"zip":"92304","city":"Amboy","state":"CA","lat":34.5578,"long":-115.7444},{"zip":"92305","city":"Angelus Oaks","state":"CA","lat":34.1531,"long":-116.9485},{"zip":"92307","city":"Apple Valley","state":"CA","lat":34.5291,"long":-117.2132},{"zip":"92308","city":"Apple Valley","state":"CA","lat":34.4698,"long":-117.1927},{"zip":"92309","city":"Baker","state":"CA","lat":35.3606,"long":-116.0638},{"zip":"92310","city":"Fort Irwin","state":"CA","lat":35.2625,"long":-116.6966},{"zip":"92311","city":"Barstow","state":"CA","lat":34.8914,"long":-117.0387},{"zip":"92312","city":"Barstow","state":"CA","lat":34.8986,"long":-117.0228},{"zip":"92313","city":"Grand Terrace","state":"CA","lat":34.031,"long":-117.3129},{"zip":"92314","city":"Big Bear City","state":"CA","lat":34.261,"long":-116.8131},{"zip":"92315","city":"Big Bear Lake","state":"CA","lat":34.235,"long":-116.9053},{"zip":"92316","city":"Bloomington","state":"CA","lat":34.0662,"long":-117.3993},{"zip":"92317","city":"Blue Jay","state":"CA","lat":34.2112,"long":-117.0796},{"zip":"92318","city":"Bryn Mawr","state":"CA","lat":34.0483,"long":-117.2309},{"zip":"92321","city":"Cedar Glen","state":"CA","lat":34.2545,"long":-117.1533},{"zip":"92322","city":"Cedarpines Park","state":"CA","lat":34.2544,"long":-117.3265},{"zip":"92323","city":"Cima","state":"CA","lat":35.2378,"long":-115.4992},{"zip":"92324","city":"Colton","state":"CA","lat":34.0315,"long":-117.2874},{"zip":"92325","city":"Crestline","state":"CA","lat":34.2433,"long":-117.2811},{"zip":"92327","city":"Daggett","state":"CA","lat":34.8668,"long":-116.8876},{"zip":"92329","city":"Phelan","state":"CA","lat":34.4261,"long":-117.5723},{"zip":"92332","city":"Essex","state":"CA","lat":34.5881,"long":-115.5771},{"zip":"92333","city":"Fawnskin","state":"CA","lat":34.2583,"long":-116.9515},{"zip":"92334","city":"Fontana","state":"CA","lat":34.0922,"long":-117.435},{"zip":"92335","city":"Fontana","state":"CA","lat":34.0794,"long":-117.4551},{"zip":"92336","city":"Fontana","state":"CA","lat":34.1173,"long":-117.4378},{"zip":"92337","city":"Fontana","state":"CA","lat":34.0498,"long":-117.4706},{"zip":"92338","city":"Ludlow","state":"CA","lat":34.7211,"long":-116.16},{"zip":"92339","city":"Forest Falls","state":"CA","lat":34.0937,"long":-116.9362},{"zip":"92340","city":"Hesperia","state":"CA","lat":34.4264,"long":-117.3009},{"zip":"92341","city":"Green Valley Lake","state":"CA","lat":34.2348,"long":-117.066},{"zip":"92342","city":"Helendale","state":"CA","lat":34.7499,"long":-117.3367},{"zip":"92344","city":"Hesperia","state":"CA","lat":34.4239,"long":-117.4075},{"zip":"92345","city":"Hesperia","state":"CA","lat":34.4222,"long":-117.3025},{"zip":"92346","city":"Highland","state":"CA","lat":34.1283,"long":-117.2087},{"zip":"92347","city":"Hinkley","state":"CA","lat":34.9279,"long":-117.1809},{"zip":"92350","city":"Loma Linda","state":"CA","lat":34.0483,"long":-117.2612},{"zip":"92352","city":"Lake Arrowhead","state":"CA","lat":34.2606,"long":-117.2016},{"zip":"92354","city":"Loma Linda","state":"CA","lat":34.0528,"long":-117.2513},{"zip":"92356","city":"Lucerne Valley","state":"CA","lat":34.447,"long":-116.9189},{"zip":"92357","city":"Loma Linda","state":"CA","lat":34.0483,"long":-117.2612},{"zip":"92358","city":"Lytle Creek","state":"CA","lat":34.2558,"long":-117.5186},{"zip":"92359","city":"Mentone","state":"CA","lat":34.0774,"long":-117.1126},{"zip":"92363","city":"Needles","state":"CA","lat":34.7824,"long":-114.5871},{"zip":"92364","city":"Nipton","state":"CA","lat":35.4667,"long":-115.2722},{"zip":"92365","city":"Newberry Springs","state":"CA","lat":34.885,"long":-116.7464},{"zip":"92366","city":"Mountain Pass","state":"CA","lat":35.4703,"long":-115.545},{"zip":"92368","city":"Oro Grande","state":"CA","lat":34.6178,"long":-117.3327},{"zip":"92369","city":"Patton","state":"CA","lat":34.1358,"long":-117.2239},{"zip":"92371","city":"Phelan","state":"CA","lat":34.4449,"long":-117.5196},{"zip":"92372","city":"Pinon Hills","state":"CA","lat":34.4429,"long":-117.6403},{"zip":"92373","city":"Redlands","state":"CA","lat":34.0397,"long":-117.1804},{"zip":"92374","city":"Redlands","state":"CA","lat":34.065,"long":-117.1672},{"zip":"92375","city":"Redlands","state":"CA","lat":34.0556,"long":-117.1825},{"zip":"92376","city":"Rialto","state":"CA","lat":34.1132,"long":-117.3771},{"zip":"92377","city":"Rialto","state":"CA","lat":34.1561,"long":-117.4042},{"zip":"92378","city":"Rimforest","state":"CA","lat":34.2297,"long":-117.225},{"zip":"92382","city":"Running Springs","state":"CA","lat":34.2102,"long":-117.1109},{"zip":"92385","city":"Skyforest","state":"CA","lat":34.2353,"long":-117.1792},{"zip":"92386","city":"Sugarloaf","state":"CA","lat":34.2372,"long":-116.8277},{"zip":"92391","city":"Twin Peaks","state":"CA","lat":34.2379,"long":-117.2348},{"zip":"92392","city":"Victorville","state":"CA","lat":34.4802,"long":-117.4082},{"zip":"92393","city":"Victorville","state":"CA","lat":34.5361,"long":-117.2912},{"zip":"92394","city":"Victorville","state":"CA","lat":34.5563,"long":-117.3528},{"zip":"92395","city":"Victorville","state":"CA","lat":34.5016,"long":-117.2944},{"zip":"92397","city":"Wrightwood","state":"CA","lat":34.3628,"long":-117.6249},{"zip":"92398","city":"Yermo","state":"CA","lat":34.905,"long":-116.8203},{"zip":"92399","city":"Yucaipa","state":"CA","lat":34.0282,"long":-117.0489}]
