[{"zip":"92501","city":"Riverside","state":"CA","lat":33.9924,"long":-117.3694},{"zip":"92502","city":"Riverside","state":"CA","lat":33.9533,"long":-117.3962},{"zip":"92503","city":"Riverside","state":"CA","lat":33.9208,"long":-117.4589},{"zip":"92504","city":"Riverside","state":"CA","lat":33.9315,"long":-117.4119},{"zip":"92505","city":"Riverside","state":"CA","lat":33.9228,"long":-117.4867},{"zip":"92506","city":"Riverside","state":"CA","lat":33.9455,"long":-117.3757},{"zip":"92507","city":"Riverside","state":"CA","lat":33.9761,"long":-117.3389},{"zip":"92508","city":"Riverside","state":"CA","lat":33.8897,"long":-117.3043},{"zip":"92509","city":"Riverside","state":"CA","lat":34.0033,"long":-117.445},{"zip":"92513","city":"Riverside","state":"CA","lat":33.9533,"long":-117.3962},{"zip":"92514","city":"Riverside","state":"CA","lat":33.9533,"long":-117.3962},{"zip":"92515","city":"Riverside","state":"CA","lat":33.9533,"long":-117.3962},{"zip":"92516","city":"Riverside","state":"CA","lat":33.9533,"long":-117.3962},{"zip":"92517","city":"Riverside","state":"CA","lat":33.9533,"long":-117.3962},{"zip":"92518","city":"March Air Reserve Base","state":"CA","lat":33.9533,"long":-117.3962},{"zip":"92519","city":"Riverside","state":"CA","lat":33.9533,"long":-117.3962},{"zip":"92521","city":"Riverside","state":"CA","lat":33.9533,"long":-117.3962},{"zip":"92522","city":"Riverside","state":"CA","lat":33.9533,"long":-117.3962},{"zip":"92530","city":"Lake Elsinore","state":"CA","lat":33.6598,"long":-117.3485},{"zip":"92531","city":"Lake Elsinore","state":"CA","lat":33.6681,"long":-117.3273},{"zip":"92532","city":"Lake Elsinore","state":"CA","lat":33.6927,"long":-117.303},{"zip":"92536","city":"Aguanga","state":"CA","lat":33.4473,"long":-116.7997},{"zip":"92539","city":"Anza","state":"CA","lat":33.5688,"long":-116.7135},{"zip":"92543","city":"Hemet","state":"CA","lat":33.7416,"long":-116.973},{"zip":"92544","city":"Hemet","state":"CA","lat":33.739,"long":-116.9243},{"zip":"92545","city":"Hemet","state":"CA","lat":33.7399,"long":-117.0151},{"zip":"92546","city":"Hemet","state":"CA","lat":33.7476,"long":-116.9731},{"zip":"92548","city":"Homeland","state":"CA","lat":33.7453,"long":-117.1118},{"zip":"92549","city":"Idyllwild","state":"CA","lat":33.7304,"long":-116.7107},{"zip":"92551","city":"Moreno Valley","state":"CA","lat":33.8814,"long":-117.2261},{"zip":"92552","city":"Moreno Valley","state":"CA","lat":33.9375,"long":-117.2306},{"zip":"92553","city":"Moreno Valley","state":"CA","lat":33.9157,"long":-117.2351},{"zip":"92554","city":"Moreno Valley","state":"CA","lat":33.9375,"long":-117.2306},{"zip":"92555","city":"Moreno Valley","state":"CA","lat":33.9377,"long":-117.1851},{"zip":"92556","city":"Moreno Valley","state":"CA","lat":33.9375,"long":-117.2306},{"zip":"92557","city":"Moreno Valley","state":"CA","lat":33.9553,"long":-117.2457},{"zip":"92561","city":"Mountain Center","state":"CA","lat":33.7042,"long":-116.7259},{"zip":"92562","city":"Murrieta","state":"CA","lat":33.5631,"long":-117.2738},{"zip":"92563","city":"Murrieta","state":"CA","lat":33.569,"long":-117.1783},{"zip":"92564","city":"Murrieta","state":"CA","lat":33.5539,"long":-117.2139},{"zip":"92567","city":"Nuevo","state":"CA","lat":33.8123,"long":-117.1048},{"zip":"92570","city":"Perris","state":"CA","lat":33.7852,"long":-117.3166},{"zip":"92571","city":"Perris","state":"CA","lat":33.811,"long":-117.218},{"zip":"92572","city":"Perris","state":"CA","lat":33.7825,"long":-117.2286},{"zip":"92581","city":"San Jacinto","state":"CA","lat":33.7839,"long":-116.9586},{"zip":"92582","city":"San Jacinto","state":"CA","lat":33.7883,"long":-116.9819},{"zip":"92583","city":"San Jacinto","state":"CA","lat":33.7967,"long":-116.9324},{"zip":"92584","city":"Menifee","state":"CA","lat":33.6647,"long":-117.1743},{"zip":"92585","city":"Sun City","state":"CA","lat":33.7467,"long":-117.1721},{"zip":"92586","city":"Sun City","state":"CA","lat":33.7044,"long":-117.1969},{"zip":"92587","city":"Quail Valley","state":"CA","lat":33.707,"long":-117.245},{"zip":"92589","city":"Temecula","state":"CA","lat":33.4936,"long":-117.1484},{"zip":"92590","city":"Temecula","state":"CA","lat":33.4903,"long":-117.1824},{"zip":"92591","city":"Temecula","state":"CA","lat":33.5217,"long":-117.1286},{"zip":"92592","city":"Temecula","state":"CA","lat":33.4983,"long":-117.0958},{"zip":"92593","city":"Temecula","state":"CA","lat":33.4936,"long":-117.1484},{"zip":"92595","city":"Wildomar","state":"CA","lat":33.6021,"long":-117.264},{"zip":"92596","city":"Winchester","state":"CA","lat":33.6243,"long":-117.0885},{"zip":"92599","city":"Perris","state":"CA","lat":33.7825,"long":-117.2286}]
