[{"zip":"92602","city":"Irvine","state":"CA","lat":33.7419,"long":-117.7467},{"zip":"92603","city":"Irvine","state":"CA","lat":33.6245,"long":-117.794},{"zip":"92604","city":"Irvine","state":"CA","lat":33.6899,"long":-117.7868},{"zip":"92605","city":"Huntington Beach","state":"CA","lat":33.7151,"long":-118.0077},{"zip":"92606","city":"Irvine","state":"CA","lat":33.6951,"long":-117.8224},{"zip":"92607","city":"Laguna Niguel","state":"CA","lat":33.5269,"long":-117.7117},{"zip":"92609","city":"El Toro","state":"CA","lat":33.624,"long":-117.6908},{"zip":"92610","city":"Foothill Ranch","state":"CA","lat":33.6748,"long":-117.6649},{"zip":"92612","city":"Irvine","state":"CA","lat":33.6607,"long":-117.8264},{"zip":"92614","city":"Irvine","state":"CA","lat":33.6829,"long":-117.8298},{"zip":"92615","city":"Huntington Beach","state":"CA","lat":33.6566,"long":-117.9699},{"zip":"92616","city":"Irvine","state":"CA","lat":33.6519,"long":-117.8361},{"zip":"92617","city":"Irvine","state":"CA","lat":33.6425,"long":-117.8417},{"zip":"92618","city":"Irvine","state":"CA","lat":33.7074,"long":-117.7054},{"zip":"92619","city":"Irvine","state":"CA","lat":33.6706,"long":-117.7645},{"zip":"92620","city":"Irvine","state":"CA","lat":33.7009,"long":-117.7564},{"zip":"92623","city":"Irvine","state":"CA","lat":33.6942,"long":-117.8126},{"zip":"92624","city":"Capistrano Beach","state":"CA","lat":33.46,"long":-117.6632},{"zip":"92625","city":"Corona Del Mar","state":"CA","lat":33.6021,"long":-117.8743},{"zip":"92626","city":"Costa Mesa","state":"CA","lat":33.6801,"long":-117.9085},{"zip":"92627","city":"Costa Mesa","state":"CA","lat":33.6483,"long":-117.9155},{"zip":"92628","city":"Costa Mesa","state":"CA","lat":33.6401,"long":-117.9159},{"zip":"92629","city":"Dana Point","state":"CA","lat":33.4743,"long":-117.6964},{"zip":"92630","city":"Lake Forest","state":"CA","lat":33.6437,"long":-117.6868},{"zip":"92637","city":"Laguna Woods","state":"CA","lat":33.6103,"long":-117.7253},{"zip":"92646","city":"Huntington Beach","state":"CA","lat":33.6654,"long":-117.9686},{"zip":"92647","city":"Huntington Beach","state":"CA","lat":33.721,"long":-118.0033},{"zip":"92648","city":"Huntington Beach","state":"CA","lat":33.6773,"long":-118.0051},{"zip":"92649","city":"Huntington Beach","state":"CA","lat":33.718,"long":-118.0505},{"zip":"92650","city":"East Irvine","state":"CA","lat":33.6795,"long":-117.7609},{"zip":"92651","city":"Laguna Beach","state":"CA","lat":33.5429,"long":-117.7813},{"zip":"92652","city":"Laguna Beach","state":"CA","lat":33.543,"long":-117.7815},{"zip":"92653","city":"Laguna Hills","state":"CA","lat":33.5916,"long":-117.6985},{"zip":"92654","city":"Laguna Hills","state":"CA","lat":33.6042,"long":-117.7154},{"zip":"92655","city":"Midway City","state":"CA","lat":33.7446,"long":-117.984},{"zip":"92656","city":"Aliso Viejo","state":"CA","lat":33.5701,"long":-117.7086},{"zip":"92657","city":"Newport Coast","state":"CA","lat":33.5943,"long":-117.8334},{"zip":"92658","city":"Newport Beach","state":"CA","lat":33.6422,"long":-117.8631},{"zip":"92659","city":"Newport Beach","state":"CA","lat":33.6222,"long":-117.9235},{"zip":"92660","city":"Newport Beach","state":"CA","lat":33.6295,"long":-117.8684},{"zip":"92661","city":"Newport Beach","state":"CA","lat":33.6045,"long":-117.9021},{"zip":"92662","city":"Newport Beach","state":"CA","lat":33.6062,"long":-117.8931},{"zip":"92663","city":"Newport Beach","state":"CA","lat":33.621,"long":-117.9321},{"zip":"92672","city":"San Clemente","state":"CA","lat":33.4361,"long":-117.6231},{"zip":"92673","city":"San Clemente","state":"CA","lat":33.4615,"long":-117.6375},{"zip":"92674","city":"San Clemente","state":"CA","lat":33.4409,"long":-117.6211},{"zip":"92675","city":"San Juan Capistrano","state":"CA","lat":33.5085,"long":-117.6565},{"zip":"92676","city":"Silverado","state":"CA","lat":33.7451,"long":-117.6153},{"zip":"92677","city":"Laguna Niguel","state":"CA","lat":33.5145,"long":-117.7084},{"zip":"92678","city":"Trabuco Canyon","state":"CA","lat":33.6643,"long":-117.5896},{"zip":"92679","city":"Trabuco Canyon","state":"CA","lat":33.6415,"long":-117.5894},{"zip":"92683","city":"Westminster","state":"CA","lat":33.7524,"long":-117.9939},{"zip":"92684","city":"Westminster","state":"CA","lat":33.7627,"long":-118.0072},{"zip":"92685","city":"Westminster","state":"CA","lat":33.7528,"long":-117.9951},{"zip":"92688","city":"Rancho Santa Margarita","state":"CA","lat":33.6512,"long":-117.5938},{"zip":"92690","city":"Mission Viejo","state":"CA","lat":33.6117,"long":-117.643},{"zip":"92691","city":"Mission Viejo","state":"CA","lat":33.6128,"long":-117.6622},{"zip":"92692","city":"Mission Viejo","state":"CA","lat":33.6144,"long":-117.6433},{"zip":"92693","city":"San Juan Capistrano","state":"CA","lat":33.4977,"long":-117.6651},{"zip":"92694","city":"Ladera Ranch","state":"CA","lat":33.5472,"long":-117.6238},{"zip":"92697","city":"Irvine","state":"CA","lat":33.6485,"long":-117.8387},{"zip":"92698","city":"Aliso Viejo","state":"CA","lat":33.6686,"long":-117.8386}]
