[{"zip":"92701","city":"Santa Ana","state":"CA","lat":33.7523,"long":-117.8541},{"zip":"92702","city":"Santa Ana","state":"CA","lat":33.7365,"long":-117.8714},{"zip":"92703","city":"Santa Ana","state":"CA","lat":33.7489,"long":-117.9072},{"zip":"92704","city":"Santa Ana","state":"CA","lat":33.7249,"long":-117.909},{"zip":"92705","city":"Santa Ana","state":"CA","lat":33.754,"long":-117.7919},{"zip":"92706","city":"Santa Ana","state":"CA","lat":33.7691,"long":-117.8855},{"zip":"92707","city":"Santa Ana","state":"CA","lat":33.7086,"long":-117.8701},{"zip":"92708","city":"Fountain Valley","state":"CA","lat":33.7102,"long":-117.9503},{"zip":"92711","city":"Santa Ana","state":"CA","lat":33.7669,"long":-117.8043},{"zip":"92712","city":"Santa Ana","state":"CA","lat":33.7496,"long":-117.875},{"zip":"92728","city":"Fountain Valley","state":"CA","lat":33.714,"long":-117.9284},{"zip":"92735","city":"Santa Ana","state":"CA","lat":33.7188,"long":-117.8546},{"zip":"92780","city":"Tustin","state":"CA","lat":33.7364,"long":-117.8229},{"zip":"92781","city":"Tustin","state":"CA","lat":33.7369,"long":-117.8181},{"zip":"92782","city":"Tustin","state":"CA","lat":33.7346,"long":-117.7869},{"zip":"92799","city":"Santa Ana","state":"CA","lat":33.7205,"long":-117.9098}]
