[{"zip":"92801","city":"Anaheim","state":"CA","lat":33.8428,"long":-117.9546},{"zip":"92802","city":"Anaheim","state":"CA","lat":33.8085,"long":-117.9228},{"zip":"92803","city":"Anaheim","state":"CA","lat":33.8397,"long":-117.9388},{"zip":"92804","city":"Anaheim","state":"CA","lat":33.8186,"long":-117.9729},{"zip":"92805","city":"Anaheim","state":"CA","lat":33.8359,"long":-117.9086},{"zip":"92806","city":"Anaheim","state":"CA","lat":33.8356,"long":-117.8681},{"zip":"92807","city":"Anaheim","state":"CA","lat":33.8544,"long":-117.7858},{"zip":"92808","city":"Anaheim","state":"CA","lat":33.8579,"long":-117.7513},{"zip":"92809","city":"Anaheim","state":"CA","lat":33.8426,"long":-117.9388},{"zip":"92811","city":"Atwood","state":"CA","lat":33.8674,"long":-117.831},{"zip":"92812","city":"Anaheim","state":"CA","lat":33.817,"long":-117.9286},{"zip":"92814","city":"Anaheim","state":"CA","lat":33.8173,"long":-117.9607},{"zip":"92815","city":"Anaheim","state":"CA","lat":33.8319,"long":-117.9121},{"zip":"92816","city":"Anaheim","state":"CA","lat":33.8401,"long":-117.8867},{"zip":"92817","city":"Anaheim","state":"CA","lat":33.8512,"long":-117.7915},{"zip":"92821","city":"Brea","state":"CA","lat":33.9291,"long":-117.8845},{"zip":"92822","city":"Brea","state":"CA","lat":33.9187,"long":-117.8892},{"zip":"92823","city":"Brea","state":"CA","lat":33.923,"long":-117.798},{"zip":"92825","city":"Anaheim","state":"CA","lat":33.8356,"long":-117.9132},{"zip":"92831","city":"Fullerton","state":"CA","lat":33.8873,"long":-117.8946},{"zip":"92832","city":"Fullerton","state":"CA","lat":33.868,"long":-117.9265},{"zip":"92833","city":"Fullerton","state":"CA","lat":33.8766,"long":-117.9551},{"zip":"92834","city":"Fullerton","state":"CA","lat":33.8768,"long":-117.897},{"zip":"92835","city":"Fullerton","state":"CA","lat":33.8994,"long":-117.9063},{"zip":"92836","city":"Fullerton","state":"CA","lat":33.8755,"long":-117.9038},{"zip":"92837","city":"Fullerton","state":"CA","lat":33.8695,"long":-117.9611},{"zip":"92838","city":"Fullerton","state":"CA","lat":33.8934,"long":-117.931},{"zip":"92840","city":"Garden Grove","state":"CA","lat":33.7869,"long":-117.9273},{"zip":"92841","city":"Garden Grove","state":"CA","lat":33.7817,"long":-117.9766},{"zip":"92842","city":"Garden Grove","state":"CA","lat":33.7783,"long":-117.9456},{"zip":"92843","city":"Garden Grove","state":"CA","lat":33.7671,"long":-117.929},{"zip":"92844","city":"Garden Grove","state":"CA","lat":33.7661,"long":-117.9738},{"zip":"92845","city":"Garden Grove","state":"CA","lat":33.7787,"long":-118.0267},{"zip":"92846","city":"Garden Grove","state":"CA","lat":33.788,"long":-118.0325},{"zip":"92850","city":"Anaheim","state":"CA","lat":33.8442,"long":-117.9555},{"zip":"92856","city":"Orange","state":"CA","lat":33.7841,"long":-117.8435},{"zip":"92857","city":"Orange","state":"CA","lat":33.8317,"long":-117.8491},{"zip":"92859","city":"Orange","state":"CA","lat":33.8027,"long":-117.7867},{"zip":"92861","city":"Villa Park","state":"CA","lat":33.8205,"long":-117.8104},{"zip":"92862","city":"Orange","state":"CA","lat":33.7915,"long":-117.714},{"zip":"92863","city":"Orange","state":"CA","lat":33.8153,"long":-117.8273},{"zip":"92864","city":"Orange","state":"CA","lat":33.8143,"long":-117.8308},{"zip":"92865","city":"Orange","state":"CA","lat":33.8263,"long":-117.8511},{"zip":"92866","city":"Orange","state":"CA","lat":33.7877,"long":-117.8423},{"zip":"92867","city":"Orange","state":"CA","lat":33.811,"long":-117.8493},{"zip":"92868","city":"Orange","state":"CA","lat":33.7875,"long":-117.8776},{"zip":"92869","city":"Orange","state":"CA","lat":33.7868,"long":-117.7934},{"zip":"92870","city":"Placentia","state":"CA","lat":33.8744,"long":-117.8543},{"zip":"92871","city":"Placentia","state":"CA","lat":33.8829,"long":-117.8557},{"zip":"92885","city":"Yorba Linda","state":"CA","lat":33.8911,"long":-117.8222},{"zip":"92886","city":"Yorba Linda","state":"CA","lat":33.9058,"long":-117.7865},{"zip":"92887","city":"Yorba Linda","state":"CA","lat":33.8841,"long":-117.7304},{"zip":"92899","city":"Anaheim","state":"CA","lat":33.8373,"long":-117.8712},{"zip":"92860","city":"Norco","state":"CA","lat":33.9247,"long":-117.5517},{"zip":"92877","city":"Corona","state":"CA","lat":33.8753,"long":-117.5664},{"zip":"92878","city":"Corona","state":"CA","lat":33.8753,"long":-117.5664},{"zip":"92879","city":"Corona","state":"CA","lat":33.8797,"long":-117.5354},{"zip":"92880","city":"Corona","state":"CA","lat":33.9208,"long":-117.6096},{"zip":"92881","city":"Corona","state":"CA","lat":33.8241,"long":-117.5198},{"zip":"92882","city":"Corona","state":"CA","lat":33.8419,"long":-117.6043},{"zip":"92883","city":"Corona","state":"CA","lat":33.7541,"long":-117.474}]
