[{"zip":"93210","city":"Coalinga","state":"CA","lat":36.1624,"long":-120.3489},{"zip":"93234","city":"Huron","state":"CA","lat":36.2371,"long":-120.102},{"zip":"93242","city":"Laton","state":"CA","lat":36.4378,"long":-119.7156},{"zip":"93602","city":"Auberry","state":"CA","lat":37.0726,"long":-119.4572},{"zip":"93605","city":"Big Creek","state":"CA","lat":37.2032,"long":-119.2492},{"zip":"93606","city":"Biola","state":"CA","lat":36.8032,"long":-120.0185},{"zip":"93607","city":"Burrel","state":"CA","lat":36.5898,"long":-119.8994},{"zip":"93608","city":"Cantua Creek","state":"CA","lat":36.4921,"long":-120.3353},{"zip":"93609","city":"Caruthers","state":"CA","lat":36.5358,"long":-119.8446},{"zip":"93611","city":"Clovis","state":"CA","lat":36.8253,"long":-119.6802},{"zip":"93612","city":"Clovis","state":"CA","lat":36.8149,"long":-119.7106},{"zip":"93613","city":"Clovis","state":"CA","lat":36.8252,"long":-119.7029},{"zip":"93616","city":"Del Rey","state":"CA","lat":36.6543,"long":-119.5929},{"zip":"93621","city":"Dunlap","state":"CA","lat":36.7446,"long":-119.0899},{"zip":"93622","city":"Firebaugh","state":"CA","lat":36.8651,"long":-120.47},{"zip":"93624","city":"Five Points","state":"CA","lat":36.3386,"long":-120.1118},{"zip":"93625","city":"Fowler","state":"CA","lat":36.6282,"long":-119.671},{"zip":"93626","city":"Friant","state":"CA","lat":37.0422,"long":-119.6807},{"zip":"93627","city":"Helm","state":"CA","lat":36.4992,"long":-120.0936},{"zip":"93628","city":"Hume","state":"CA","lat":36.7515,"long":-118.9575},{"zip":"93630","city":"Kerman","state":"CA","lat":36.7306,"long":-120.0724},{"zip":"93631","city":"Kingsburg","state":"CA","lat":36.508,"long":-119.5433},{"zip":"93634","city":"Lakeshore","state":"CA","lat":37.253,"long":-119.1748},{"zip":"93640","city":"Mendota","state":"CA","lat":36.7424,"long":-120.4093},{"zip":"93641","city":"Miramonte","state":"CA","lat":36.6894,"long":-119.0477},{"zip":"93642","city":"Mono Hot Springs","state":"CA","lat":37.3266,"long":-119.0176},{"zip":"93646","city":"Orange Cove","state":"CA","lat":36.6255,"long":-119.3204},{"zip":"93648","city":"Parlier","state":"CA","lat":36.6103,"long":-119.5375},{"zip":"93649","city":"Piedra","state":"CA","lat":36.8417,"long":-119.3496},{"zip":"93650","city":"Fresno","state":"CA","lat":36.8411,"long":-119.801},{"zip":"93651","city":"Prather","state":"CA","lat":36.9938,"long":-119.5268},{"zip":"93652","city":"Raisin City","state":"CA","lat":36.6024,"long":-119.904},{"zip":"93654","city":"Reedley","state":"CA","lat":36.6044,"long":-119.4378},{"zip":"93656","city":"Riverdale","state":"CA","lat":36.4295,"long":-119.872},{"zip":"93657","city":"Sanger","state":"CA","lat":36.7243,"long":-119.5478},{"zip":"93660","city":"San Joaquin","state":"CA","lat":36.6059,"long":-120.1889},{"zip":"93662","city":"Selma","state":"CA","lat":36.5695,"long":-119.617},{"zip":"93664","city":"Shaver Lake","state":"CA","lat":37.1397,"long":-119.273},{"zip":"93667","city":"Tollhouse","state":"CA","lat":36.9943,"long":-119.3914},{"zip":"93668","city":"Tranquillity","state":"CA","lat":36.6584,"long":-120.2617},{"zip":"93675","city":"Squaw Valley","state":"CA","lat":36.7071,"long":-119.1814},{"zip":"93701","city":"Fresno","state":"CA","lat":36.7487,"long":-119.7867},{"zip":"93702","city":"Fresno","state":"CA","lat":36.74,"long":-119.7532},{"zip":"93703","city":"Fresno","state":"CA","lat":36.7684,"long":-119.7594},{"zip":"93704","city":"Fresno","state":"CA","lat":36.7991,"long":-119.8016},{"zip":"93705","city":"Fresno","state":"CA","lat":36.7863,"long":-119.8286},{"zip":"93706","city":"Fresno","state":"CA","lat":36.6486,"long":-119.9987},{"zip":"93707","city":"Fresno","state":"CA","lat":36.7464,"long":-119.6397},{"zip":"93708","city":"Fresno","state":"CA","lat":36.7464,"long":-119.6397},{"zip":"93709","city":"Fresno","state":"CA","lat":36.7464,"long":-119.6397},{"zip":"93710","city":"Fresno","state":"CA","lat":36.8236,"long":-119.7621},{"zip":"93711","city":"Fresno","state":"CA","lat":36.8303,"long":-119.8319},{"zip":"93712","city":"Fresno","state":"CA","lat":36.7464,"long":-119.6397},{"zip":"93714","city":"Fresno","state":"CA","lat":36.7464,"long":-119.6397},{"zip":"93715","city":"Fresno","state":"CA","lat":36.7464,"long":-119.6397},{"zip":"93716","city":"Fresno","state":"CA","lat":36.7464,"long":-119.6397},{"zip":"93717","city":"Fresno","state":"CA","lat":36.7464,"long":-119.6397},{"zip":"93718","city":"Fresno","state":"CA","lat":36.7464,"long":-119.6397},{"zip":"93720","city":"Fresno","state":"CA","lat":36.8579,"long":-119.7655},{"zip":"93721","city":"Fresno","state":"CA","lat":36.7377,"long":-119.7843},{"zip":"93722","city":"Fresno","state":"CA","lat":36.7918,"long":-119.8801},{"zip":"93723","city":"Fresno","state":"CA","lat":36.7863,"long":-119.9532},{"zip":"93724","city":"Fresno","state":"CA","lat":36.7464,"long":-119.6397},{"zip":"93725","city":"Fresno","state":"CA","lat":36.6207,"long":-119.7308},{"zip":"93726","city":"Fresno","state":"CA","lat":36.7949,"long":-119.7604},{"zip":"93727","city":"Fresno","state":"CA","lat":36.7528,"long":-119.7061},{"zip":"93728","city":"Fresno","state":"CA","lat":36.7581,"long":-119.8113},{"zip":"93729","city":"Fresno","state":"CA","lat":36.7464,"long":-119.6397},{"zip":"93730","city":"Fresno","state":"CA","lat":36.8878,"long":-119.7589},{"zip":"93737","city":"Fresno","state":"CA","lat":36.7477,"long":-119.7724},{"zip":"93740","city":"Fresno","state":"CA","lat":36.7464,"long":-119.6397},{"zip":"93741","city":"Fresno","state":"CA","lat":36.7464,"long":-119.6397},{"zip":"93744","city":"Fresno","state":"CA","lat":36.7464,"long":-119.6397},{"zip":"93745","city":"Fresno","state":"CA","lat":36.7464,"long":-119.6397},{"zip":"93747","city":"Fresno","state":"CA","lat":36.7464,"long":-119.6397},{"zip":"93750","city":"Fresno","state":"CA","lat":36.7464,"long":-119.6397},{"zip":"93755","city":"Fresno","state":"CA","lat":36.7464,"long":-119.6397},{"zip":"93760","city":"Fresno","state":"CA","lat":36.7464,"long":-119.6397},{"zip":"93761","city":"Fresno","state":"CA","lat":36.7464,"long":-119.6397},{"zip":"93764","city":"Fresno","state":"CA","lat":36.7464,"long":-119.6397},{"zip":"93765","city":"Fresno","state":"CA","lat":36.7464,"long":-119.6397},{"zip":"93771","city":"Fresno","state":"CA","lat":36.7464,"long":-119.6397},{"zip":"93772","city":"Fresno","state":"CA","lat":36.7464,"long":-119.6397},{"zip":"93773","city":"Fresno","state":"CA","lat":36.7464,"long":-119.6397},{"zip":"93774","city":"Fresno","state":"CA","lat":36.7464,"long":-119.6397},{"zip":"93775","city":"Fresno","state":"CA","lat":36.7464,"long":-119.6397},{"zip":"93776","city":"Fresno","state":"CA","lat":36.7464,"long":-119.6397},{"zip":"93777","city":"Fresno","state":"CA","lat":36.7464,"long":-119.6397},{"zip":"93778","city":"Fresno","state":"CA","lat":36.7464,"long":-119.6397},{"zip":"93779","city":"Fresno","state":"CA","lat":36.7464,"long":-119.6397},{"zip":"93786","city":"Fresno","state":"CA","lat":36.7464,"long":-119.6397},{"zip":"93790","city":"Fresno","state":"CA","lat":36.7464,"long":-119.6397},{"zip":"93791","city":"Fresno","state":"CA","lat":36.7464,"long":-119.6397},{"zip":"93792","city":"Fresno","state":"CA","lat":36.7464,"long":-119.6397},{"zip":"93793","city":"Fresno","state":"CA","lat":36.7464,"long":-119.6397},{"zip":"93794","city":"Fresno","state":"CA","lat":36.7464,"long":-119.6397},{"zip":"93844","city":"Fresno","state":"CA","lat":36.7464,"long":-119.6397},{"zip":"93888","city":"Fresno","state":"CA","lat":36.7464,"long":-119.6397},{"zip":"93513","city":"Big Pine","state":"CA","lat":37.1679,"long":-118.2916},{"zip":"93514","city":"Bishop","state":"CA","lat":37.5014,"long":-118.4048},{"zip":"93515","city":"Bishop","state":"CA","lat":37.3635,"long":-118.3951},{"zip":"93522","city":"Darwin","state":"CA","lat":36.2948,"long":-117.5957},{"zip":"93526","city":"Independence","state":"CA","lat":36.8396,"long":-118.2048},{"zip":"93530","city":"Keeler","state":"CA","lat":36.4886,"long":-117.8741},{"zip":"93542","city":"Little Lake","state":"CA","lat":35.9366,"long":-117.9067},{"zip":"93545","city":"Lone Pine","state":"CA","lat":36.5798,"long":-118.0578},{"zip":"93549","city":"Olancha","state":"CA","lat":36.23,"long":-117.9552},{"zip":"93203","city":"Arvin","state":"CA","lat":35.1966,"long":-118.8336},{"zip":"93205","city":"Bodfish","state":"CA","lat":35.587,"long":-118.4847},{"zip":"93206","city":"Buttonwillow","state":"CA","lat":35.4033,"long":-119.4659},{"zip":"93215","city":"Delano","state":"CA","lat":35.7715,"long":-119.2459},{"zip":"93216","city":"Delano","state":"CA","lat":35.7688,"long":-119.2471},{"zip":"93220","city":"Edison","state":"CA","lat":35.3475,"long":-118.8718},{"zip":"93222","city":"Pine Mountain Club","state":"CA","lat":34.8469,"long":-119.1568},{"zip":"93224","city":"Fellows","state":"CA","lat":35.1786,"long":-119.5412},{"zip":"93225","city":"Frazier Park","state":"CA","lat":34.8265,"long":-119.0355},{"zip":"93226","city":"Glennville","state":"CA","lat":35.7377,"long":-118.7169},{"zip":"93238","city":"Kernville","state":"CA","lat":35.755,"long":-118.4047},{"zip":"93240","city":"Lake Isabella","state":"CA","lat":35.669,"long":-118.457},{"zip":"93241","city":"Lamont","state":"CA","lat":35.2571,"long":-118.9124},{"zip":"93243","city":"Lebec","state":"CA","lat":34.8818,"long":-118.8566},{"zip":"93249","city":"Lost Hills","state":"CA","lat":35.6163,"long":-119.6943},{"zip":"93250","city":"Mc Farland","state":"CA","lat":35.6758,"long":-119.2272},{"zip":"93251","city":"Mc Kittrick","state":"CA","lat":35.3031,"long":-119.6366},{"zip":"93252","city":"Maricopa","state":"CA","lat":35.0589,"long":-119.401},{"zip":"93255","city":"Onyx","state":"CA","lat":35.6824,"long":-118.0959},{"zip":"93263","city":"Shafter","state":"CA","lat":35.497,"long":-119.2801},{"zip":"93268","city":"Taft","state":"CA","lat":35.1482,"long":-119.4557},{"zip":"93276","city":"Tupman","state":"CA","lat":35.2992,"long":-119.3584},{"zip":"93280","city":"Wasco","state":"CA","lat":35.648,"long":-119.4487},{"zip":"93283","city":"Weldon","state":"CA","lat":35.6391,"long":-118.2859},{"zip":"93285","city":"Wofford Heights","state":"CA","lat":35.7246,"long":-118.4559},{"zip":"93287","city":"Woody","state":"CA","lat":35.7068,"long":-118.8439},{"zip":"93301","city":"Bakersfield","state":"CA","lat":35.3866,"long":-119.0171},{"zip":"93302","city":"Bakersfield","state":"CA","lat":35.3733,"long":-119.0187},{"zip":"93303","city":"Bakersfield","state":"CA","lat":35.2944,"long":-118.9052},{"zip":"93304","city":"Bakersfield","state":"CA","lat":35.3396,"long":-119.0218},{"zip":"93305","city":"Bakersfield","state":"CA","lat":35.3855,"long":-118.986},{"zip":"93306","city":"Bakersfield","state":"CA","lat":35.3867,"long":-118.9391},{"zip":"93307","city":"Bakersfield","state":"CA","lat":35.3275,"long":-118.9839},{"zip":"93308","city":"Bakersfield","state":"CA","lat":35.4244,"long":-119.0433},{"zip":"93309","city":"Bakersfield","state":"CA","lat":35.3384,"long":-119.0627},{"zip":"93311","city":"Bakersfield","state":"CA","lat":35.3039,"long":-119.1056},{"zip":"93312","city":"Bakersfield","state":"CA","lat":35.3935,"long":-119.1205},{"zip":"93313","city":"Bakersfield","state":"CA","lat":35.2974,"long":-119.0509},{"zip":"93314","city":"Bakersfield","state":"CA","lat":35.3863,"long":-119.17},{"zip":"93380","city":"Bakersfield","state":"CA","lat":35.2944,"long":-118.9052},{"zip":"93383","city":"Bakersfield","state":"CA","lat":35.2944,"long":-118.9052},{"zip":"93384","city":"Bakersfield","state":"CA","lat":35.3733,"long":-119.0187},{"zip":"93385","city":"Bakersfield","state":"CA","lat":35.2944,"long":-118.9052},{"zip":"93386","city":"Bakersfield","state":"CA","lat":35.2944,"long":-118.9052},{"zip":"93387","city":"Bakersfield","state":"CA","lat":35.2944,"long":-118.9052},{"zip":"93388","city":"Bakersfield","state":"CA","lat":35.2944,"long":-118.9052},{"zip":"93389","city":"Bakersfield","state":"CA","lat":35.2944,"long":-118.9052},{"zip":"93390","city":"Bakersfield","state":"CA","lat":35.2944,"long":-118.9052},{"zip":"93501","city":"Mojave","state":"CA","lat":35.0478,"long":-118.1735},{"zip":"93502","city":"Mojave","state":"CA","lat":35.0525,"long":-118.174},{"zip":"93504","city":"California City","state":"CA","lat":35.1871,"long":-117.8854},{"zip":"93505","city":"California City","state":"CA","lat":35.1278,"long":-117.9651},{"zip":"93516","city":"Boron","state":"CA","lat":35.0037,"long":-117.6629},{"zip":"93518","city":"Caliente","state":"CA","lat":35.3701,"long":-118.4612},{"zip":"93519","city":"Cantil","state":"CA","lat":35.3089,"long":-117.9684},{"zip":"93523","city":"Edwards","state":"CA","lat":34.9261,"long":-117.9351},{"zip":"93524","city":"Edwards","state":"CA","lat":34.932,"long":-117.9071},{"zip":"93527","city":"Inyokern","state":"CA","lat":35.6397,"long":-117.857},{"zip":"93528","city":"Johannesburg","state":"CA","lat":35.3708,"long":-117.6427},{"zip":"93531","city":"Keene","state":"CA","lat":35.2375,"long":-118.6076},{"zip":"93554","city":"Randsburg","state":"CA","lat":35.3866,"long":-117.7159},{"zip":"93555","city":"Ridgecrest","state":"CA","lat":35.6225,"long":-117.6709},{"zip":"93556","city":"Ridgecrest","state":"CA","lat":35.6225,"long":-117.6709},{"zip":"93560","city":"Rosamond","state":"CA","lat":34.8664,"long":-118.3409},{"zip":"93561","city":"Tehachapi","state":"CA","lat":35.1322,"long":-118.449},{"zip":"93581","city":"Tehachapi","state":"CA","lat":35.1322,"long":-118.449},{"zip":"93596","city":"Boron","state":"CA","lat":34.9994,"long":-117.6498},{"zip":"93202","city":"Armona","state":"CA","lat":36.3095,"long":-119.7053},{"zip":"93204","city":"Avenal","state":"CA","lat":35.9877,"long":-120.1227},{"zip":"93212","city":"Corcoran","state":"CA","lat":36.0865,"long":-119.5607},{"zip":"93230","city":"Hanford","state":"CA","lat":36.3314,"long":-119.6491},{"zip":"93232","city":"Hanford","state":"CA","lat":36.3275,"long":-119.6457},{"zip":"93239","city":"Kettleman City","state":"CA","lat":36.0083,"long":-119.9618},{"zip":"93245","city":"Lemoore","state":"CA","lat":36.2682,"long":-119.8173},{"zip":"93246","city":"Lemoore","state":"CA","lat":36.1389,"long":-119.8947},{"zip":"93266","city":"Stratford","state":"CA","lat":36.179,"long":-119.8236},{"zip":"93510","city":"Acton","state":"CA","lat":34.4835,"long":-118.1959},{"zip":"93532","city":"Lake Hughes","state":"CA","lat":34.6847,"long":-118.5442},{"zip":"93534","city":"Lancaster","state":"CA","lat":34.6909,"long":-118.1491},{"zip":"93535","city":"Lancaster","state":"CA","lat":34.7131,"long":-117.8783},{"zip":"93536","city":"Lancaster","state":"CA","lat":34.7471,"long":-118.3687},{"zip":"93539","city":"Lancaster","state":"CA","lat":34.698,"long":-118.1367},{"zip":"93543","city":"Littlerock","state":"CA","lat":34.4891,"long":-117.9708},{"zip":"93544","city":"Llano","state":"CA","lat":34.493,"long":-117.7543},{"zip":"93550","city":"Palmdale","state":"CA","lat":34.4133,"long":-118.0917},{"zip":"93551","city":"Palmdale","state":"CA","lat":34.6017,"long":-118.231},{"zip":"93552","city":"Palmdale","state":"CA","lat":34.5715,"long":-118.0231},{"zip":"93553","city":"Pearblossom","state":"CA","lat":34.4225,"long":-117.9055},{"zip":"93563","city":"Valyermo","state":"CA","lat":34.3966,"long":-117.7604},{"zip":"93584","city":"Lancaster","state":"CA","lat":34.698,"long":-118.1367},{"zip":"93586","city":"Lancaster","state":"CA","lat":34.698,"long":-118.1367},{"zip":"93590","city":"Palmdale","state":"CA","lat":34.5794,"long":-118.1165},{"zip":"93591","city":"Palmdale","state":"CA","lat":34.6019,"long":-117.8123},{"zip":"93599","city":"Palmdale","state":"CA","lat":34.5794,"long":-118.1165},{"zip":"93601","city":"Ahwahnee","state":"CA","lat":37.4076,"long":-119.7233},{"zip":"93604","city":"Bass Lake","state":"CA","lat":37.3244,"long":-119.5568},{"zip":"93610","city":"Chowchilla","state":"CA","lat":37.1014,"long":-120.2691},{"zip":"93614","city":"Coarsegold","state":"CA","lat":37.2214,"long":-119.7455},{"zip":"93637","city":"Madera","state":"CA","lat":36.9403,"long":-120.082},{"zip":"93638","city":"Madera","state":"CA","lat":37.0402,"long":-120.0335},{"zip":"93639","city":"Madera","state":"CA","lat":36.9613,"long":-120.0607},{"zip":"93643","city":"North Fork","state":"CA","lat":37.2125,"long":-119.5143},{"zip":"93644","city":"Oakhurst","state":"CA","lat":37.3476,"long":-119.6449},{"zip":"93645","city":"O Neals","state":"CA","lat":37.1639,"long":-119.6652},{"zip":"93653","city":"Raymond","state":"CA","lat":37.279,"long":-119.8766},{"zip":"93669","city":"Wishon","state":"CA","lat":37.281,"long":-119.557},{"zip":"93623","city":"Fish Camp","state":"CA","lat":37.4785,"long":-119.6404},{"zip":"93620","city":"Dos Palos","state":"CA","lat":37.0025,"long":-120.6333},{"zip":"93635","city":"Los Banos","state":"CA","lat":37.0627,"long":-120.8544},{"zip":"93636","city":"Madera","state":"CA","lat":36.9528,"long":-119.8806},{"zip":"93661","city":"Santa Rita Park","state":"CA","lat":37.1869,"long":-120.6504},{"zip":"93665","city":"South Dos Palos","state":"CA","lat":36.9644,"long":-120.6532},{"zip":"93512","city":"Benton","state":"CA","lat":37.8926,"long":-118.5647},{"zip":"93517","city":"Bridgeport","state":"CA","lat":38.2566,"long":-119.208},{"zip":"93529","city":"June Lake","state":"CA","lat":37.7773,"long":-119.0825},{"zip":"93541","city":"Lee Vining","state":"CA","lat":37.989,"long":-119.1234},{"zip":"93546","city":"Mammoth Lakes","state":"CA","lat":37.6094,"long":-118.8656},{"zip":"93426","city":"Bradley","state":"CA","lat":35.8093,"long":-120.9728},{"zip":"93450","city":"San Ardo","state":"CA","lat":35.9857,"long":-120.8612},{"zip":"93901","city":"Salinas","state":"CA","lat":36.6677,"long":-121.6596},{"zip":"93902","city":"Salinas","state":"CA","lat":36.6777,"long":-121.6555},{"zip":"93905","city":"Salinas","state":"CA","lat":36.6811,"long":-121.6176},{"zip":"93906","city":"Salinas","state":"CA","lat":36.7103,"long":-121.6438},{"zip":"93907","city":"Salinas","state":"CA","lat":36.7563,"long":-121.6703},{"zip":"93908","city":"Salinas","state":"CA","lat":36.6011,"long":-121.6729},{"zip":"93912","city":"Salinas","state":"CA","lat":36.6777,"long":-121.6555},{"zip":"93915","city":"Salinas","state":"CA","lat":36.6777,"long":-121.6555},{"zip":"93920","city":"Big Sur","state":"CA","lat":36.2458,"long":-121.7009},{"zip":"93921","city":"Carmel By The Sea","state":"CA","lat":36.5552,"long":-121.9233},{"zip":"93922","city":"Carmel","state":"CA","lat":36.5433,"long":-121.9263},{"zip":"93923","city":"Carmel","state":"CA","lat":36.5457,"long":-121.8949},{"zip":"93924","city":"Carmel Valley","state":"CA","lat":36.4787,"long":-121.7244},{"zip":"93925","city":"Chualar","state":"CA","lat":36.595,"long":-121.432},{"zip":"93926","city":"Gonzales","state":"CA","lat":36.49,"long":-121.4103},{"zip":"93927","city":"Greenfield","state":"CA","lat":36.3202,"long":-121.2451},{"zip":"93928","city":"Jolon","state":"CA","lat":36.0235,"long":-121.2138},{"zip":"93930","city":"King City","state":"CA","lat":36.2028,"long":-121.1273},{"zip":"93932","city":"Lockwood","state":"CA","lat":35.95,"long":-121.0626},{"zip":"93933","city":"Marina","state":"CA","lat":36.6849,"long":-121.7934},{"zip":"93940","city":"Monterey","state":"CA","lat":36.5802,"long":-121.8443},{"zip":"93942","city":"Monterey","state":"CA","lat":36.6002,"long":-121.8947},{"zip":"93943","city":"Monterey","state":"CA","lat":36.597,"long":-121.8741},{"zip":"93944","city":"Monterey","state":"CA","lat":36.6062,"long":-121.9089},{"zip":"93950","city":"Pacific Grove","state":"CA","lat":36.6167,"long":-121.922},{"zip":"93953","city":"Pebble Beach","state":"CA","lat":36.5907,"long":-121.942},{"zip":"93954","city":"San Lucas","state":"CA","lat":36.1289,"long":-121.0205},{"zip":"93955","city":"Seaside","state":"CA","lat":36.6217,"long":-121.7935},{"zip":"93960","city":"Soledad","state":"CA","lat":36.4196,"long":-121.3243},{"zip":"93962","city":"Spreckels","state":"CA","lat":36.6261,"long":-121.6555},{"zip":"93558","city":"Red Mountain","state":"CA","lat":35.3479,"long":-117.6214},{"zip":"93562","city":"Trona","state":"CA","lat":35.7481,"long":-117.3808},{"zip":"93592","city":"Trona","state":"CA","lat":35.7627,"long":-117.3728},{"zip":"93401","city":"San Luis Obispo","state":"CA","lat":35.2635,"long":-120.6509},{"zip":"93402","city":"Los Osos","state":"CA","lat":35.3172,"long":-120.8333},{"zip":"93403","city":"San Luis Obispo","state":"CA","lat":35.2828,"long":-120.6596},{"zip":"93405","city":"San Luis Obispo","state":"CA","lat":35.2901,"long":-120.6817},{"zip":"93406","city":"San Luis Obispo","state":"CA","lat":35.2828,"long":-120.6596},{"zip":"93407","city":"San Luis Obispo","state":"CA","lat":35.2828,"long":-120.6596},{"zip":"93408","city":"San Luis Obispo","state":"CA","lat":35.2828,"long":-120.6596},{"zip":"93409","city":"San Luis Obispo","state":"CA","lat":35.2211,"long":-120.6364},{"zip":"93410","city":"San Luis Obispo","state":"CA","lat":35.3471,"long":-120.4553},{"zip":"93412","city":"Los Osos","state":"CA","lat":35.3111,"long":-120.8324},{"zip":"93420","city":"Arroyo Grande","state":"CA","lat":35.1661,"long":-120.4651},{"zip":"93421","city":"Arroyo Grande","state":"CA","lat":35.1186,"long":-120.5907},{"zip":"93422","city":"Atascadero","state":"CA","lat":35.4754,"long":-120.6638},{"zip":"93423","city":"Atascadero","state":"CA","lat":35.4282,"long":-120.7695},{"zip":"93424","city":"Avila Beach","state":"CA","lat":35.18,"long":-120.7318},{"zip":"93428","city":"Cambria","state":"CA","lat":35.5566,"long":-121.084},{"zip":"93430","city":"Cayucos","state":"CA","lat":35.4446,"long":-120.8908},{"zip":"93432","city":"Creston","state":"CA","lat":35.4779,"long":-120.4361},{"zip":"93433","city":"Grover Beach","state":"CA","lat":35.121,"long":-120.6173},{"zip":"93435","city":"Harmony","state":"CA","lat":35.4919,"long":-120.9763},{"zip":"93442","city":"Morro Bay","state":"CA","lat":35.3795,"long":-120.8447},{"zip":"93443","city":"Morro Bay","state":"CA","lat":35.3658,"long":-120.8499},{"zip":"93444","city":"Nipomo","state":"CA","lat":35.0298,"long":-120.4894},{"zip":"93445","city":"Oceano","state":"CA","lat":35.1019,"long":-120.608},{"zip":"93446","city":"Paso Robles","state":"CA","lat":35.6406,"long":-120.7003},{"zip":"93447","city":"Paso Robles","state":"CA","lat":35.7562,"long":-120.6935},{"zip":"93448","city":"Pismo Beach","state":"CA","lat":35.1428,"long":-120.6413},{"zip":"93449","city":"Pismo Beach","state":"CA","lat":35.1578,"long":-120.6522},{"zip":"93451","city":"San Miguel","state":"CA","lat":35.9004,"long":-120.5929},{"zip":"93452","city":"San Simeon","state":"CA","lat":35.6668,"long":-121.144},{"zip":"93453","city":"Santa Margarita","state":"CA","lat":35.3584,"long":-120.2596},{"zip":"93461","city":"Shandon","state":"CA","lat":35.6513,"long":-120.372},{"zip":"93465","city":"Templeton","state":"CA","lat":35.5551,"long":-120.7107},{"zip":"93475","city":"Oceano","state":"CA","lat":35.1004,"long":-120.6111},{"zip":"93483","city":"Grover Beach","state":"CA","lat":35.1216,"long":-120.6213},{"zip":"93013","city":"Carpinteria","state":"CA","lat":34.4036,"long":-119.5183},{"zip":"93014","city":"Carpinteria","state":"CA","lat":34.3989,"long":-119.5185},{"zip":"93067","city":"Summerland","state":"CA","lat":34.4214,"long":-119.5965},{"zip":"93101","city":"Santa Barbara","state":"CA","lat":34.4197,"long":-119.7078},{"zip":"93102","city":"Santa Barbara","state":"CA","lat":34.4208,"long":-119.6982},{"zip":"93103","city":"Santa Barbara","state":"CA","lat":34.4291,"long":-119.6833},{"zip":"93105","city":"Santa Barbara","state":"CA","lat":34.4369,"long":-119.7285},{"zip":"93106","city":"Santa Barbara","state":"CA","lat":34.4329,"long":-119.8371},{"zip":"93107","city":"Santa Barbara","state":"CA","lat":34.4218,"long":-119.8637},{"zip":"93108","city":"Santa Barbara","state":"CA","lat":34.4378,"long":-119.6159},{"zip":"93109","city":"Santa Barbara","state":"CA","lat":34.4038,"long":-119.7194},{"zip":"93110","city":"Santa Barbara","state":"CA","lat":34.4418,"long":-119.7647},{"zip":"93111","city":"Santa Barbara","state":"CA","lat":34.4453,"long":-119.8025},{"zip":"93116","city":"Goleta","state":"CA","lat":34.4358,"long":-119.8276},{"zip":"93117","city":"Goleta","state":"CA","lat":34.4296,"long":-119.8612},{"zip":"93118","city":"Goleta","state":"CA","lat":34.4358,"long":-119.8276},{"zip":"93120","city":"Santa Barbara","state":"CA","lat":34.4208,"long":-119.6982},{"zip":"93121","city":"Santa Barbara","state":"CA","lat":34.4208,"long":-119.6982},{"zip":"93130","city":"Santa Barbara","state":"CA","lat":34.4208,"long":-119.6982},{"zip":"93140","city":"Santa Barbara","state":"CA","lat":34.4208,"long":-119.6982},{"zip":"93150","city":"Santa Barbara","state":"CA","lat":34.4208,"long":-119.6982},{"zip":"93160","city":"Santa Barbara","state":"CA","lat":34.4208,"long":-119.6982},{"zip":"93190","city":"Santa Barbara","state":"CA","lat":34.4208,"long":-119.6982},{"zip":"93199","city":"Goleta","state":"CA","lat":34.2628,"long":-119.8486},{"zip":"93254","city":"New Cuyama","state":"CA","lat":34.9967,"long":-119.8238},{"zip":"93427","city":"Buellton","state":"CA","lat":34.6209,"long":-120.1922},{"zip":"93429","city":"Casmalia","state":"CA","lat":34.8458,"long":-120.535},{"zip":"93434","city":"Guadalupe","state":"CA","lat":34.96,"long":-120.5703},{"zip":"93436","city":"Lompoc","state":"CA","lat":34.6583,"long":-120.4506},{"zip":"93437","city":"Lompoc","state":"CA","lat":34.7532,"long":-120.5171},{"zip":"93438","city":"Lompoc","state":"CA","lat":34.6392,"long":-120.4579},{"zip":"93440","city":"Los Alamos","state":"CA","lat":34.7457,"long":-120.2049},{"zip":"93441","city":"Los Olivos","state":"CA","lat":34.6678,"long":-120.1149},{"zip":"93454","city":"Santa Maria","state":"CA","lat":34.9545,"long":-120.4325},{"zip":"93455","city":"Santa Maria","state":"CA","lat":34.8286,"long":-120.4268},{"zip":"93456","city":"Santa Maria","state":"CA","lat":34.953,"long":-120.4357},{"zip":"93457","city":"Santa Maria","state":"CA","lat":34.953,"long":-120.4357},{"zip":"93458","city":"Santa Maria","state":"CA","lat":34.9535,"long":-120.4957},{"zip":"93460","city":"Santa Ynez","state":"CA","lat":34.624,"long":-120.0713},{"zip":"93463","city":"Solvang","state":"CA","lat":34.6488,"long":-120.1701},{"zip":"93464","city":"Solvang","state":"CA","lat":34.6744,"long":-120.1115},{"zip":"93201","city":"Alpaugh","state":"CA","lat":35.8877,"long":-119.4873},{"zip":"93207","city":"California Hot Springs","state":"CA","lat":35.8818,"long":-118.6561},{"zip":"93208","city":"Camp Nelson","state":"CA","lat":36.1427,"long":-118.6093},{"zip":"93218","city":"Ducor","state":"CA","lat":35.8916,"long":-119.0473},{"zip":"93219","city":"Earlimart","state":"CA","lat":35.8744,"long":-119.281},{"zip":"93221","city":"Exeter","state":"CA","lat":36.3041,"long":-119.1293},{"zip":"93223","city":"Farmersville","state":"CA","lat":36.3002,"long":-119.2054},{"zip":"93227","city":"Goshen","state":"CA","lat":36.3572,"long":-119.4254},{"zip":"93235","city":"Ivanhoe","state":"CA","lat":36.3856,"long":-119.2189},{"zip":"93237","city":"Kaweah","state":"CA","lat":36.4727,"long":-118.9029},{"zip":"93244","city":"Lemon Cove","state":"CA","lat":36.4969,"long":-118.9941},{"zip":"93247","city":"Lindsay","state":"CA","lat":36.2096,"long":-119.0884},{"zip":"93256","city":"Pixley","state":"CA","lat":35.9553,"long":-119.2564},{"zip":"93257","city":"Porterville","state":"CA","lat":36.0686,"long":-119.0315},{"zip":"93258","city":"Porterville","state":"CA","lat":36.0331,"long":-119.0073},{"zip":"93260","city":"Posey","state":"CA","lat":35.8135,"long":-118.6643},{"zip":"93261","city":"Richgrove","state":"CA","lat":35.805,"long":-119.1315},{"zip":"93262","city":"Sequoia National Park","state":"CA","lat":36.6007,"long":-118.711},{"zip":"93265","city":"Springville","state":"CA","lat":36.1363,"long":-118.7961},{"zip":"93267","city":"Strathmore","state":"CA","lat":36.1472,"long":-119.0792},{"zip":"93270","city":"Terra Bella","state":"CA","lat":35.957,"long":-119.0312},{"zip":"93271","city":"Three Rivers","state":"CA","lat":36.4377,"long":-118.8875},{"zip":"93272","city":"Tipton","state":"CA","lat":36.0546,"long":-119.3078},{"zip":"93274","city":"Tulare","state":"CA","lat":36.2022,"long":-119.338},{"zip":"93275","city":"Tulare","state":"CA","lat":36.2077,"long":-119.3473},{"zip":"93277","city":"Visalia","state":"CA","lat":36.3114,"long":-119.3065},{"zip":"93278","city":"Visalia","state":"CA","lat":36.3302,"long":-119.2921},{"zip":"93279","city":"Visalia","state":"CA","lat":36.3302,"long":-119.2921},{"zip":"93282","city":"Waukena","state":"CA","lat":36.1296,"long":-119.5161},{"zip":"93286","city":"Woodlake","state":"CA","lat":36.4313,"long":-119.0918},{"zip":"93290","city":"Visalia","state":"CA","lat":36.3291,"long":-119.2925},{"zip":"93291","city":"Visalia","state":"CA","lat":36.3551,"long":-119.301},{"zip":"93292","city":"Visalia","state":"CA","lat":36.1946,"long":-119.2283},{"zip":"93603","city":"Badger","state":"CA","lat":36.6313,"long":-119.0132},{"zip":"93615","city":"Cutler","state":"CA","lat":36.5243,"long":-119.287},{"zip":"93618","city":"Dinuba","state":"CA","lat":36.5349,"long":-119.3909},{"zip":"93619","city":"Clovis","state":"CA","lat":36.8432,"long":-119.6518},{"zip":"93633","city":"Kings Canyon National Pk","state":"CA","lat":36.7341,"long":-118.9588},{"zip":"93647","city":"Orosi","state":"CA","lat":36.5464,"long":-119.2815},{"zip":"93666","city":"Sultana","state":"CA","lat":36.5455,"long":-119.3401},{"zip":"93670","city":"Yettem","state":"CA","lat":36.4718,"long":-119.2594},{"zip":"93673","city":"Traver","state":"CA","lat":36.4552,"long":-119.4848},{"zip":"93001","city":"Ventura","state":"CA","lat":34.3308,"long":-119.3584},{"zip":"93002","city":"Ventura","state":"CA","lat":34.2783,"long":-119.2932},{"zip":"93003","city":"Ventura","state":"CA","lat":34.2846,"long":-119.2222},{"zip":"93004","city":"Ventura","state":"CA","lat":34.2788,"long":-119.1651},{"zip":"93005","city":"Ventura","state":"CA","lat":34.2783,"long":-119.2932},{"zip":"93006","city":"Ventura","state":"CA","lat":34.2783,"long":-119.2932},{"zip":"93007","city":"Ventura","state":"CA","lat":34.2783,"long":-119.2932},{"zip":"93009","city":"Ventura","state":"CA","lat":34.3562,"long":-119.1462},{"zip":"93010","city":"Camarillo","state":"CA","lat":34.2313,"long":-119.0464},{"zip":"93011","city":"Camarillo","state":"CA","lat":34.2164,"long":-119.0376},{"zip":"93012","city":"Camarillo","state":"CA","lat":34.2218,"long":-118.9866},{"zip":"93015","city":"Fillmore","state":"CA","lat":34.3992,"long":-118.9182},{"zip":"93016","city":"Fillmore","state":"CA","lat":34.3992,"long":-118.9182},{"zip":"93020","city":"Moorpark","state":"CA","lat":34.2856,"long":-118.882},{"zip":"93021","city":"Moorpark","state":"CA","lat":34.2784,"long":-118.8771},{"zip":"93022","city":"Oak View","state":"CA","lat":34.402,"long":-119.2982},{"zip":"93023","city":"Ojai","state":"CA","lat":34.4451,"long":-119.2565},{"zip":"93024","city":"Ojai","state":"CA","lat":34.448,"long":-119.2429},{"zip":"93030","city":"Oxnard","state":"CA","lat":34.2141,"long":-119.175},{"zip":"93031","city":"Oxnard","state":"CA","lat":34.0324,"long":-119.1343},{"zip":"93032","city":"Oxnard","state":"CA","lat":34.1975,"long":-119.1771},{"zip":"93033","city":"Oxnard","state":"CA","lat":34.1685,"long":-119.1717},{"zip":"93034","city":"Oxnard","state":"CA","lat":34.0324,"long":-119.1343},{"zip":"93035","city":"Oxnard","state":"CA","lat":34.1822,"long":-119.216},{"zip":"93036","city":"Oxnard","state":"CA","lat":34.2351,"long":-119.182},{"zip":"93040","city":"Piru","state":"CA","lat":34.4352,"long":-118.7855},{"zip":"93041","city":"Port Hueneme","state":"CA","lat":34.1626,"long":-119.1973},{"zip":"93042","city":"Point Mugu Nawc","state":"CA","lat":34.1134,"long":-119.1124},{"zip":"93043","city":"Port Hueneme Cbc Base","state":"CA","lat":34.1621,"long":-119.2074},{"zip":"93044","city":"Port Hueneme","state":"CA","lat":34.1478,"long":-119.1951},{"zip":"93060","city":"Santa Paula","state":"CA","lat":34.3547,"long":-119.0713},{"zip":"93061","city":"Santa Paula","state":"CA","lat":34.3542,"long":-119.0593},{"zip":"93062","city":"Simi Valley","state":"CA","lat":34.2694,"long":-118.7815},{"zip":"93063","city":"Simi Valley","state":"CA","lat":34.3046,"long":-118.6844},{"zip":"93064","city":"Brandeis","state":"CA","lat":34.2582,"long":-118.7107},{"zip":"93065","city":"Simi Valley","state":"CA","lat":34.2656,"long":-118.7653},{"zip":"93066","city":"Somis","state":"CA","lat":34.2798,"long":-119.0115},{"zip":"93094","city":"Simi Valley","state":"CA","lat":34.2694,"long":-118.7815},{"zip":"93099","city":"Simi Valley","state":"CA","lat":34.2694,"long":-118.7815}]
