[{"zip":"93013","city":"Carpinteria","state":"CA","lat":34.4036,"long":-119.5183},{"zip":"93014","city":"Carpinteria","state":"CA","lat":34.3989,"long":-119.5185},{"zip":"93067","city":"Summerland","state":"CA","lat":34.4214,"long":-119.5965},{"zip":"93001","city":"Ventura","state":"CA","lat":34.3308,"long":-119.3584},{"zip":"93002","city":"Ventura","state":"CA","lat":34.2783,"long":-119.2932},{"zip":"93003","city":"Ventura","state":"CA","lat":34.2846,"long":-119.2222},{"zip":"93004","city":"Ventura","state":"CA","lat":34.2788,"long":-119.1651},{"zip":"93005","city":"Ventura","state":"CA","lat":34.2783,"long":-119.2932},{"zip":"93006","city":"Ventura","state":"CA","lat":34.2783,"long":-119.2932},{"zip":"93007","city":"Ventura","state":"CA","lat":34.2783,"long":-119.2932},{"zip":"93009","city":"Ventura","state":"CA","lat":34.3562,"long":-119.1462},{"zip":"93010","city":"Camarillo","state":"CA","lat":34.2313,"long":-119.0464},{"zip":"93011","city":"Camarillo","state":"CA","lat":34.2164,"long":-119.0376},{"zip":"93012","city":"Camarillo","state":"CA","lat":34.2218,"long":-118.9866},{"zip":"93015","city":"Fillmore","state":"CA","lat":34.3992,"long":-118.9182},{"zip":"93016","city":"Fillmore","state":"CA","lat":34.3992,"long":-118.9182},{"zip":"93020","city":"Moorpark","state":"CA","lat":34.2856,"long":-118.882},{"zip":"93021","city":"Moorpark","state":"CA","lat":34.2784,"long":-118.8771},{"zip":"93022","city":"Oak View","state":"CA","lat":34.402,"long":-119.2982},{"zip":"93023","city":"Ojai","state":"CA","lat":34.4451,"long":-119.2565},{"zip":"93024","city":"Ojai","state":"CA","lat":34.448,"long":-119.2429},{"zip":"93030","city":"Oxnard","state":"CA","lat":34.2141,"long":-119.175},{"zip":"93031","city":"Oxnard","state":"CA","lat":34.0324,"long":-119.1343},{"zip":"93032","city":"Oxnard","state":"CA","lat":34.1975,"long":-119.1771},{"zip":"93033","city":"Oxnard","state":"CA","lat":34.1685,"long":-119.1717},{"zip":"93034","city":"Oxnard","state":"CA","lat":34.0324,"long":-119.1343},{"zip":"93035","city":"Oxnard","state":"CA","lat":34.1822,"long":-119.216},{"zip":"93036","city":"Oxnard","state":"CA","lat":34.2351,"long":-119.182},{"zip":"93040","city":"Piru","state":"CA","lat":34.4352,"long":-118.7855},{"zip":"93041","city":"Port Hueneme","state":"CA","lat":34.1626,"long":-119.1973},{"zip":"93042","city":"Point Mugu Nawc","state":"CA","lat":34.1134,"long":-119.1124},{"zip":"93043","city":"Port Hueneme Cbc Base","state":"CA","lat":34.1621,"long":-119.2074},{"zip":"93044","city":"Port Hueneme","state":"CA","lat":34.1478,"long":-119.1951},{"zip":"93060","city":"Santa Paula","state":"CA","lat":34.3547,"long":-119.0713},{"zip":"93061","city":"Santa Paula","state":"CA","lat":34.3542,"long":-119.0593},{"zip":"93062","city":"Simi Valley","state":"CA","lat":34.2694,"long":-118.7815},{"zip":"93063","city":"Simi Valley","state":"CA","lat":34.3046,"long":-118.6844},{"zip":"93064","city":"Brandeis","state":"CA","lat":34.2582,"long":-118.7107},{"zip":"93065","city":"Simi Valley","state":"CA","lat":34.2656,"long":-118.7653},{"zip":"93066","city":"Somis","state":"CA","lat":34.2798,"long":-119.0115},{"zip":"93094","city":"Simi Valley","state":"CA","lat":34.2694,"long":-118.7815},{"zip":"93099","city":"Simi Valley","state":"CA","lat":34.2694,"long":-118.7815}]
