[{"zip":"93101","city":"Santa Barbara","state":"CA","lat":34.4197,"long":-119.7078},{"zip":"93102","city":"Santa Barbara","state":"CA","lat":34.4208,"long":-119.6982},{"zip":"93103","city":"Santa Barbara","state":"CA","lat":34.4291,"long":-119.6833},{"zip":"93105","city":"Santa Barbara","state":"CA","lat":34.4369,"long":-119.7285},{"zip":"93106","city":"Santa Barbara","state":"CA","lat":34.4329,"long":-119.8371},{"zip":"93107","city":"Santa Barbara","state":"CA","lat":34.4218,"long":-119.8637},{"zip":"93108","city":"Santa Barbara","state":"CA","lat":34.4378,"long":-119.6159},{"zip":"93109","city":"Santa Barbara","state":"CA","lat":34.4038,"long":-119.7194},{"zip":"93110","city":"Santa Barbara","state":"CA","lat":34.4418,"long":-119.7647},{"zip":"93111","city":"Santa Barbara","state":"CA","lat":34.4453,"long":-119.8025},{"zip":"93116","city":"Goleta","state":"CA","lat":34.4358,"long":-119.8276},{"zip":"93117","city":"Goleta","state":"CA","lat":34.4296,"long":-119.8612},{"zip":"93118","city":"Goleta","state":"CA","lat":34.4358,"long":-119.8276},{"zip":"93120","city":"Santa Barbara","state":"CA","lat":34.4208,"long":-119.6982},{"zip":"93121","city":"Santa Barbara","state":"CA","lat":34.4208,"long":-119.6982},{"zip":"93130","city":"Santa Barbara","state":"CA","lat":34.4208,"long":-119.6982},{"zip":"93140","city":"Santa Barbara","state":"CA","lat":34.4208,"long":-119.6982},{"zip":"93150","city":"Santa Barbara","state":"CA","lat":34.4208,"long":-119.6982},{"zip":"93160","city":"Santa Barbara","state":"CA","lat":34.4208,"long":-119.6982},{"zip":"93190","city":"Santa Barbara","state":"CA","lat":34.4208,"long":-119.6982},{"zip":"93199","city":"Goleta","state":"CA","lat":34.2628,"long":-119.8486}]
