[{"zip":"93210","city":"Coalinga","state":"CA","lat":36.1624,"long":-120.3489},{"zip":"93234","city":"Huron","state":"CA","lat":36.2371,"long":-120.102},{"zip":"93242","city":"Laton","state":"CA","lat":36.4378,"long":-119.7156},{"zip":"93203","city":"Arvin","state":"CA","lat":35.1966,"long":-118.8336},{"zip":"93205","city":"Bodfish","state":"CA","lat":35.587,"long":-118.4847},{"zip":"93206","city":"Buttonwillow","state":"CA","lat":35.4033,"long":-119.4659},{"zip":"93215","city":"Delano","state":"CA","lat":35.7715,"long":-119.2459},{"zip":"93216","city":"Delano","state":"CA","lat":35.7688,"long":-119.2471},{"zip":"93220","city":"Edison","state":"CA","lat":35.3475,"long":-118.8718},{"zip":"93222","city":"Pine Mountain Club","state":"CA","lat":34.8469,"long":-119.1568},{"zip":"93224","city":"Fellows","state":"CA","lat":35.1786,"long":-119.5412},{"zip":"93225","city":"Frazier Park","state":"CA","lat":34.8265,"long":-119.0355},{"zip":"93226","city":"Glennville","state":"CA","lat":35.7377,"long":-118.7169},{"zip":"93238","city":"Kernville","state":"CA","lat":35.755,"long":-118.4047},{"zip":"93240","city":"Lake Isabella","state":"CA","lat":35.669,"long":-118.457},{"zip":"93241","city":"Lamont","state":"CA","lat":35.2571,"long":-118.9124},{"zip":"93243","city":"Lebec","state":"CA","lat":34.8818,"long":-118.8566},{"zip":"93249","city":"Lost Hills","state":"CA","lat":35.6163,"long":-119.6943},{"zip":"93250","city":"Mc Farland","state":"CA","lat":35.6758,"long":-119.2272},{"zip":"93251","city":"Mc Kittrick","state":"CA","lat":35.3031,"long":-119.6366},{"zip":"93252","city":"Maricopa","state":"CA","lat":35.0589,"long":-119.401},{"zip":"93255","city":"Onyx","state":"CA","lat":35.6824,"long":-118.0959},{"zip":"93263","city":"Shafter","state":"CA","lat":35.497,"long":-119.2801},{"zip":"93268","city":"Taft","state":"CA","lat":35.1482,"long":-119.4557},{"zip":"93276","city":"Tupman","state":"CA","lat":35.2992,"long":-119.3584},{"zip":"93280","city":"Wasco","state":"CA","lat":35.648,"long":-119.4487},{"zip":"93283","city":"Weldon","state":"CA","lat":35.6391,"long":-118.2859},{"zip":"93285","city":"Wofford Heights","state":"CA","lat":35.7246,"long":-118.4559},{"zip":"93287","city":"Woody","state":"CA","lat":35.7068,"long":-118.8439},{"zip":"93202","city":"Armona","state":"CA","lat":36.3095,"long":-119.7053},{"zip":"93204","city":"Avenal","state":"CA","lat":35.9877,"long":-120.1227},{"zip":"93212","city":"Corcoran","state":"CA","lat":36.0865,"long":-119.5607},{"zip":"93230","city":"Hanford","state":"CA","lat":36.3314,"long":-119.6491},{"zip":"93232","city":"Hanford","state":"CA","lat":36.3275,"long":-119.6457},{"zip":"93239","city":"Kettleman City","state":"CA","lat":36.0083,"long":-119.9618},{"zip":"93245","city":"Lemoore","state":"CA","lat":36.2682,"long":-119.8173},{"zip":"93246","city":"Lemoore","state":"CA","lat":36.1389,"long":-119.8947},{"zip":"93266","city":"Stratford","state":"CA","lat":36.179,"long":-119.8236},{"zip":"93254","city":"New Cuyama","state":"CA","lat":34.9967,"long":-119.8238},{"zip":"93201","city":"Alpaugh","state":"CA","lat":35.8877,"long":-119.4873},{"zip":"93207","city":"California Hot Springs","state":"CA","lat":35.8818,"long":-118.6561},{"zip":"93208","city":"Camp Nelson","state":"CA","lat":36.1427,"long":-118.6093},{"zip":"93218","city":"Ducor","state":"CA","lat":35.8916,"long":-119.0473},{"zip":"93219","city":"Earlimart","state":"CA","lat":35.8744,"long":-119.281},{"zip":"93221","city":"Exeter","state":"CA","lat":36.3041,"long":-119.1293},{"zip":"93223","city":"Farmersville","state":"CA","lat":36.3002,"long":-119.2054},{"zip":"93227","city":"Goshen","state":"CA","lat":36.3572,"long":-119.4254},{"zip":"93235","city":"Ivanhoe","state":"CA","lat":36.3856,"long":-119.2189},{"zip":"93237","city":"Kaweah","state":"CA","lat":36.4727,"long":-118.9029},{"zip":"93244","city":"Lemon Cove","state":"CA","lat":36.4969,"long":-118.9941},{"zip":"93247","city":"Lindsay","state":"CA","lat":36.2096,"long":-119.0884},{"zip":"93256","city":"Pixley","state":"CA","lat":35.9553,"long":-119.2564},{"zip":"93257","city":"Porterville","state":"CA","lat":36.0686,"long":-119.0315},{"zip":"93258","city":"Porterville","state":"CA","lat":36.0331,"long":-119.0073},{"zip":"93260","city":"Posey","state":"CA","lat":35.8135,"long":-118.6643},{"zip":"93261","city":"Richgrove","state":"CA","lat":35.805,"long":-119.1315},{"zip":"93262","city":"Sequoia National Park","state":"CA","lat":36.6007,"long":-118.711},{"zip":"93265","city":"Springville","state":"CA","lat":36.1363,"long":-118.7961},{"zip":"93267","city":"Strathmore","state":"CA","lat":36.1472,"long":-119.0792},{"zip":"93270","city":"Terra Bella","state":"CA","lat":35.957,"long":-119.0312},{"zip":"93271","city":"Three Rivers","state":"CA","lat":36.4377,"long":-118.8875},{"zip":"93272","city":"Tipton","state":"CA","lat":36.0546,"long":-119.3078},{"zip":"93274","city":"Tulare","state":"CA","lat":36.2022,"long":-119.338},{"zip":"93275","city":"Tulare","state":"CA","lat":36.2077,"long":-119.3473},{"zip":"93277","city":"Visalia","state":"CA","lat":36.3114,"long":-119.3065},{"zip":"93278","city":"Visalia","state":"CA","lat":36.3302,"long":-119.2921},{"zip":"93279","city":"Visalia","state":"CA","lat":36.3302,"long":-119.2921},{"zip":"93282","city":"Waukena","state":"CA","lat":36.1296,"long":-119.5161},{"zip":"93286","city":"Woodlake","state":"CA","lat":36.4313,"long":-119.0918},{"zip":"93290","city":"Visalia","state":"CA","lat":36.3291,"long":-119.2925},{"zip":"93291","city":"Visalia","state":"CA","lat":36.3551,"long":-119.301},{"zip":"93292","city":"Visalia","state":"CA","lat":36.1946,"long":-119.2283}]
