[{"zip":"93301","city":"Bakersfield","state":"CA","lat":35.3866,"long":-119.0171},{"zip":"93302","city":"Bakersfield","state":"CA","lat":35.3733,"long":-119.0187},{"zip":"93303","city":"Bakersfield","state":"CA","lat":35.2944,"long":-118.9052},{"zip":"93304","city":"Bakersfield","state":"CA","lat":35.3396,"long":-119.0218},{"zip":"93305","city":"Bakersfield","state":"CA","lat":35.3855,"long":-118.986},{"zip":"93306","city":"Bakersfield","state":"CA","lat":35.3867,"long":-118.9391},{"zip":"93307","city":"Bakersfield","state":"CA","lat":35.3275,"long":-118.9839},{"zip":"93308","city":"Bakersfield","state":"CA","lat":35.4244,"long":-119.0433},{"zip":"93309","city":"Bakersfield","state":"CA","lat":35.3384,"long":-119.0627},{"zip":"93311","city":"Bakersfield","state":"CA","lat":35.3039,"long":-119.1056},{"zip":"93312","city":"Bakersfield","state":"CA","lat":35.3935,"long":-119.1205},{"zip":"93313","city":"Bakersfield","state":"CA","lat":35.2974,"long":-119.0509},{"zip":"93314","city":"Bakersfield","state":"CA","lat":35.3863,"long":-119.17},{"zip":"93380","city":"Bakersfield","state":"CA","lat":35.2944,"long":-118.9052},{"zip":"93383","city":"Bakersfield","state":"CA","lat":35.2944,"long":-118.9052},{"zip":"93384","city":"Bakersfield","state":"CA","lat":35.3733,"long":-119.0187},{"zip":"93385","city":"Bakersfield","state":"CA","lat":35.2944,"long":-118.9052},{"zip":"93386","city":"Bakersfield","state":"CA","lat":35.2944,"long":-118.9052},{"zip":"93387","city":"Bakersfield","state":"CA","lat":35.2944,"long":-118.9052},{"zip":"93388","city":"Bakersfield","state":"CA","lat":35.2944,"long":-118.9052},{"zip":"93389","city":"Bakersfield","state":"CA","lat":35.2944,"long":-118.9052},{"zip":"93390","city":"Bakersfield","state":"CA","lat":35.2944,"long":-118.9052}]
