[{"zip":"93513","city":"Big Pine","state":"CA","lat":37.1679,"long":-118.2916},{"zip":"93514","city":"Bishop","state":"CA","lat":37.5014,"long":-118.4048},{"zip":"93515","city":"Bishop","state":"CA","lat":37.3635,"long":-118.3951},{"zip":"93522","city":"Darwin","state":"CA","lat":36.2948,"long":-117.5957},{"zip":"93526","city":"Independence","state":"CA","lat":36.8396,"long":-118.2048},{"zip":"93530","city":"Keeler","state":"CA","lat":36.4886,"long":-117.8741},{"zip":"93542","city":"Little Lake","state":"CA","lat":35.9366,"long":-117.9067},{"zip":"93545","city":"Lone Pine","state":"CA","lat":36.5798,"long":-118.0578},{"zip":"93549","city":"Olancha","state":"CA","lat":36.23,"long":-117.9552},{"zip":"93501","city":"Mojave","state":"CA","lat":35.0478,"long":-118.1735},{"zip":"93502","city":"Mojave","state":"CA","lat":35.0525,"long":-118.174},{"zip":"93504","city":"California City","state":"CA","lat":35.1871,"long":-117.8854},{"zip":"93505","city":"California City","state":"CA","lat":35.1278,"long":-117.9651},{"zip":"93516","city":"Boron","state":"CA","lat":35.0037,"long":-117.6629},{"zip":"93518","city":"Caliente","state":"CA","lat":35.3701,"long":-118.4612},{"zip":"93519","city":"Cantil","state":"CA","lat":35.3089,"long":-117.9684},{"zip":"93523","city":"Edwards","state":"CA","lat":34.9261,"long":-117.9351},{"zip":"93524","city":"Edwards","state":"CA","lat":34.932,"long":-117.9071},{"zip":"93527","city":"Inyokern","state":"CA","lat":35.6397,"long":-117.857},{"zip":"93528","city":"Johannesburg","state":"CA","lat":35.3708,"long":-117.6427},{"zip":"93531","city":"Keene","state":"CA","lat":35.2375,"long":-118.6076},{"zip":"93554","city":"Randsburg","state":"CA","lat":35.3866,"long":-117.7159},{"zip":"93555","city":"Ridgecrest","state":"CA","lat":35.6225,"long":-117.6709},{"zip":"93556","city":"Ridgecrest","state":"CA","lat":35.6225,"long":-117.6709},{"zip":"93560","city":"Rosamond","state":"CA","lat":34.8664,"long":-118.3409},{"zip":"93561","city":"Tehachapi","state":"CA","lat":35.1322,"long":-118.449},{"zip":"93581","city":"Tehachapi","state":"CA","lat":35.1322,"long":-118.449},{"zip":"93596","city":"Boron","state":"CA","lat":34.9994,"long":-117.6498},{"zip":"93510","city":"Acton","state":"CA","lat":34.4835,"long":-118.1959},{"zip":"93532","city":"Lake Hughes","state":"CA","lat":34.6847,"long":-118.5442},{"zip":"93534","city":"Lancaster","state":"CA","lat":34.6909,"long":-118.1491},{"zip":"93535","city":"Lancaster","state":"CA","lat":34.7131,"long":-117.8783},{"zip":"93536","city":"Lancaster","state":"CA","lat":34.7471,"long":-118.3687},{"zip":"93539","city":"Lancaster","state":"CA","lat":34.698,"long":-118.1367},{"zip":"93543","city":"Littlerock","state":"CA","lat":34.4891,"long":-117.9708},{"zip":"93544","city":"Llano","state":"CA","lat":34.493,"long":-117.7543},{"zip":"93550","city":"Palmdale","state":"CA","lat":34.4133,"long":-118.0917},{"zip":"93551","city":"Palmdale","state":"CA","lat":34.6017,"long":-118.231},{"zip":"93552","city":"Palmdale","state":"CA","lat":34.5715,"long":-118.0231},{"zip":"93553","city":"Pearblossom","state":"CA","lat":34.4225,"long":-117.9055},{"zip":"93563","city":"Valyermo","state":"CA","lat":34.3966,"long":-117.7604},{"zip":"93584","city":"Lancaster","state":"CA","lat":34.698,"long":-118.1367},{"zip":"93586","city":"Lancaster","state":"CA","lat":34.698,"long":-118.1367},{"zip":"93590","city":"Palmdale","state":"CA","lat":34.5794,"long":-118.1165},{"zip":"93591","city":"Palmdale","state":"CA","lat":34.6019,"long":-117.8123},{"zip":"93599","city":"Palmdale","state":"CA","lat":34.5794,"long":-118.1165},{"zip":"93512","city":"Benton","state":"CA","lat":37.8926,"long":-118.5647},{"zip":"93517","city":"Bridgeport","state":"CA","lat":38.2566,"long":-119.208},{"zip":"93529","city":"June Lake","state":"CA","lat":37.7773,"long":-119.0825},{"zip":"93541","city":"Lee Vining","state":"CA","lat":37.989,"long":-119.1234},{"zip":"93546","city":"Mammoth Lakes","state":"CA","lat":37.6094,"long":-118.8656},{"zip":"93558","city":"Red Mountain","state":"CA","lat":35.3479,"long":-117.6214},{"zip":"93562","city":"Trona","state":"CA","lat":35.7481,"long":-117.3808},{"zip":"93592","city":"Trona","state":"CA","lat":35.7627,"long":-117.3728}]
