[{"zip":"93602","city":"Auberry","state":"CA","lat":37.0726,"long":-119.4572},{"zip":"93605","city":"Big Creek","state":"CA","lat":37.2032,"long":-119.2492},{"zip":"93606","city":"Biola","state":"CA","lat":36.8032,"long":-120.0185},{"zip":"93607","city":"Burrel","state":"CA","lat":36.5898,"long":-119.8994},{"zip":"93608","city":"Cantua Creek","state":"CA","lat":36.4921,"long":-120.3353},{"zip":"93609","city":"Caruthers","state":"CA","lat":36.5358,"long":-119.8446},{"zip":"93611","city":"Clovis","state":"CA","lat":36.8253,"long":-119.6802},{"zip":"93612","city":"Clovis","state":"CA","lat":36.8149,"long":-119.7106},{"zip":"93613","city":"Clovis","state":"CA","lat":36.8252,"long":-119.7029},{"zip":"93616","city":"Del Rey","state":"CA","lat":36.6543,"long":-119.5929},{"zip":"93621","city":"Dunlap","state":"CA","lat":36.7446,"long":-119.0899},{"zip":"93622","city":"Firebaugh","state":"CA","lat":36.8651,"long":-120.47},{"zip":"93624","city":"Five Points","state":"CA","lat":36.3386,"long":-120.1118},{"zip":"93625","city":"Fowler","state":"CA","lat":36.6282,"long":-119.671},{"zip":"93626","city":"Friant","state":"CA","lat":37.0422,"long":-119.6807},{"zip":"93627","city":"Helm","state":"CA","lat":36.4992,"long":-120.0936},{"zip":"93628","city":"Hume","state":"CA","lat":36.7515,"long":-118.9575},{"zip":"93630","city":"Kerman","state":"CA","lat":36.7306,"long":-120.0724},{"zip":"93631","city":"Kingsburg","state":"CA","lat":36.508,"long":-119.5433},{"zip":"93634","city":"Lakeshore","state":"CA","lat":37.253,"long":-119.1748},{"zip":"93640","city":"Mendota","state":"CA","lat":36.7424,"long":-120.4093},{"zip":"93641","city":"Miramonte","state":"CA","lat":36.6894,"long":-119.0477},{"zip":"93642","city":"Mono Hot Springs","state":"CA","lat":37.3266,"long":-119.0176},{"zip":"93646","city":"Orange Cove","state":"CA","lat":36.6255,"long":-119.3204},{"zip":"93648","city":"Parlier","state":"CA","lat":36.6103,"long":-119.5375},{"zip":"93649","city":"Piedra","state":"CA","lat":36.8417,"long":-119.3496},{"zip":"93650","city":"Fresno","state":"CA","lat":36.8411,"long":-119.801},{"zip":"93651","city":"Prather","state":"CA","lat":36.9938,"long":-119.5268},{"zip":"93652","city":"Raisin City","state":"CA","lat":36.6024,"long":-119.904},{"zip":"93654","city":"Reedley","state":"CA","lat":36.6044,"long":-119.4378},{"zip":"93656","city":"Riverdale","state":"CA","lat":36.4295,"long":-119.872},{"zip":"93657","city":"Sanger","state":"CA","lat":36.7243,"long":-119.5478},{"zip":"93660","city":"San Joaquin","state":"CA","lat":36.6059,"long":-120.1889},{"zip":"93662","city":"Selma","state":"CA","lat":36.5695,"long":-119.617},{"zip":"93664","city":"Shaver Lake","state":"CA","lat":37.1397,"long":-119.273},{"zip":"93667","city":"Tollhouse","state":"CA","lat":36.9943,"long":-119.3914},{"zip":"93668","city":"Tranquillity","state":"CA","lat":36.6584,"long":-120.2617},{"zip":"93675","city":"Squaw Valley","state":"CA","lat":36.7071,"long":-119.1814},{"zip":"93601","city":"Ahwahnee","state":"CA","lat":37.4076,"long":-119.7233},{"zip":"93604","city":"Bass Lake","state":"CA","lat":37.3244,"long":-119.5568},{"zip":"93610","city":"Chowchilla","state":"CA","lat":37.1014,"long":-120.2691},{"zip":"93614","city":"Coarsegold","state":"CA","lat":37.2214,"long":-119.7455},{"zip":"93637","city":"Madera","state":"CA","lat":36.9403,"long":-120.082},{"zip":"93638","city":"Madera","state":"CA","lat":37.0402,"long":-120.0335},{"zip":"93639","city":"Madera","state":"CA","lat":36.9613,"long":-120.0607},{"zip":"93643","city":"North Fork","state":"CA","lat":37.2125,"long":-119.5143},{"zip":"93644","city":"Oakhurst","state":"CA","lat":37.3476,"long":-119.6449},{"zip":"93645","city":"O Neals","state":"CA","lat":37.1639,"long":-119.6652},{"zip":"93653","city":"Raymond","state":"CA","lat":37.279,"long":-119.8766},{"zip":"93669","city":"Wishon","state":"CA","lat":37.281,"long":-119.557},{"zip":"93623","city":"Fish Camp","state":"CA","lat":37.4785,"long":-119.6404},{"zip":"93620","city":"Dos Palos","state":"CA","lat":37.0025,"long":-120.6333},{"zip":"93635","city":"Los Banos","state":"CA","lat":37.0627,"long":-120.8544},{"zip":"93636","city":"Madera","state":"CA","lat":36.9528,"long":-119.8806},{"zip":"93661","city":"Santa Rita Park","state":"CA","lat":37.1869,"long":-120.6504},{"zip":"93665","city":"South Dos Palos","state":"CA","lat":36.9644,"long":-120.6532},{"zip":"93603","city":"Badger","state":"CA","lat":36.6313,"long":-119.0132},{"zip":"93615","city":"Cutler","state":"CA","lat":36.5243,"long":-119.287},{"zip":"93618","city":"Dinuba","state":"CA","lat":36.5349,"long":-119.3909},{"zip":"93619","city":"Clovis","state":"CA","lat":36.8432,"long":-119.6518},{"zip":"93633","city":"Kings Canyon National Pk","state":"CA","lat":36.7341,"long":-118.9588},{"zip":"93647","city":"Orosi","state":"CA","lat":36.5464,"long":-119.2815},{"zip":"93666","city":"Sultana","state":"CA","lat":36.5455,"long":-119.3401},{"zip":"93670","city":"Yettem","state":"CA","lat":36.4718,"long":-119.2594},{"zip":"93673","city":"Traver","state":"CA","lat":36.4552,"long":-119.4848}]
