[{"zip":"93901","city":"Salinas","state":"CA","lat":36.6677,"long":-121.6596},{"zip":"93902","city":"Salinas","state":"CA","lat":36.6777,"long":-121.6555},{"zip":"93905","city":"Salinas","state":"CA","lat":36.6811,"long":-121.6176},{"zip":"93906","city":"Salinas","state":"CA","lat":36.7103,"long":-121.6438},{"zip":"93907","city":"Salinas","state":"CA","lat":36.7563,"long":-121.6703},{"zip":"93908","city":"Salinas","state":"CA","lat":36.6011,"long":-121.6729},{"zip":"93912","city":"Salinas","state":"CA","lat":36.6777,"long":-121.6555},{"zip":"93915","city":"Salinas","state":"CA","lat":36.6777,"long":-121.6555},{"zip":"93920","city":"Big Sur","state":"CA","lat":36.2458,"long":-121.7009},{"zip":"93921","city":"Carmel By The Sea","state":"CA","lat":36.5552,"long":-121.9233},{"zip":"93922","city":"Carmel","state":"CA","lat":36.5433,"long":-121.9263},{"zip":"93923","city":"Carmel","state":"CA","lat":36.5457,"long":-121.8949},{"zip":"93924","city":"Carmel Valley","state":"CA","lat":36.4787,"long":-121.7244},{"zip":"93925","city":"Chualar","state":"CA","lat":36.595,"long":-121.432},{"zip":"93926","city":"Gonzales","state":"CA","lat":36.49,"long":-121.4103},{"zip":"93927","city":"Greenfield","state":"CA","lat":36.3202,"long":-121.2451},{"zip":"93928","city":"Jolon","state":"CA","lat":36.0235,"long":-121.2138},{"zip":"93930","city":"King City","state":"CA","lat":36.2028,"long":-121.1273},{"zip":"93932","city":"Lockwood","state":"CA","lat":35.95,"long":-121.0626},{"zip":"93933","city":"Marina","state":"CA","lat":36.6849,"long":-121.7934},{"zip":"93940","city":"Monterey","state":"CA","lat":36.5802,"long":-121.8443},{"zip":"93942","city":"Monterey","state":"CA","lat":36.6002,"long":-121.8947},{"zip":"93943","city":"Monterey","state":"CA","lat":36.597,"long":-121.8741},{"zip":"93944","city":"Monterey","state":"CA","lat":36.6062,"long":-121.9089},{"zip":"93950","city":"Pacific Grove","state":"CA","lat":36.6167,"long":-121.922},{"zip":"93953","city":"Pebble Beach","state":"CA","lat":36.5907,"long":-121.942},{"zip":"93954","city":"San Lucas","state":"CA","lat":36.1289,"long":-121.0205},{"zip":"93955","city":"Seaside","state":"CA","lat":36.6217,"long":-121.7935},{"zip":"93960","city":"Soledad","state":"CA","lat":36.4196,"long":-121.3243},{"zip":"93962","city":"Spreckels","state":"CA","lat":36.6261,"long":-121.6555}]
