[{"zip":"94002","city":"Belmont","state":"CA","lat":37.5174,"long":-122.2927},{"zip":"94005","city":"Brisbane","state":"CA","lat":37.6811,"long":-122.4001},{"zip":"94010","city":"Burlingame","state":"CA","lat":37.5671,"long":-122.3676},{"zip":"94011","city":"Burlingame","state":"CA","lat":37.5841,"long":-122.3661},{"zip":"94014","city":"Daly City","state":"CA","lat":37.6875,"long":-122.4388},{"zip":"94015","city":"Daly City","state":"CA","lat":37.6787,"long":-122.478},{"zip":"94016","city":"Daly City","state":"CA","lat":37.7058,"long":-122.4619},{"zip":"94017","city":"Daly City","state":"CA","lat":37.7058,"long":-122.4619},{"zip":"94018","city":"El Granada","state":"CA","lat":37.5101,"long":-122.4734},{"zip":"94019","city":"Half Moon Bay","state":"CA","lat":37.4791,"long":-122.4459},{"zip":"94020","city":"La Honda","state":"CA","lat":37.2726,"long":-122.2495},{"zip":"94021","city":"Loma Mar","state":"CA","lat":37.2708,"long":-122.2807},{"zip":"94025","city":"Menlo Park","state":"CA","lat":37.4396,"long":-122.1864},{"zip":"94026","city":"Menlo Park","state":"CA","lat":37.3811,"long":-122.3348},{"zip":"94027","city":"Atherton","state":"CA","lat":37.4563,"long":-122.2002},{"zip":"94028","city":"Portola Valley","state":"CA","lat":37.3702,"long":-122.2182},{"zip":"94030","city":"Millbrae","state":"CA","lat":37.6004,"long":-122.402},{"zip":"94037","city":"Montara","state":"CA","lat":37.5428,"long":-122.5052},{"zip":"94038","city":"Moss Beach","state":"CA","lat":37.531,"long":-122.5068},{"zip":"94044","city":"Pacifica","state":"CA","lat":37.6196,"long":-122.4816},{"zip":"94060","city":"Pescadero","state":"CA","lat":37.2065,"long":-122.3649},{"zip":"94061","city":"Redwood City","state":"CA","lat":37.4647,"long":-122.2304},{"zip":"94062","city":"Redwood City","state":"CA","lat":37.4245,"long":-122.296},{"zip":"94063","city":"Redwood City","state":"CA","lat":37.4815,"long":-122.2091},{"zip":"94064","city":"Redwood City","state":"CA","lat":37.3811,"long":-122.3348},{"zip":"94065","city":"Redwood City","state":"CA","lat":37.5331,"long":-122.2486},{"zip":"94066","city":"San Bruno","state":"CA","lat":37.6247,"long":-122.429},{"zip":"94070","city":"San Carlos","state":"CA","lat":37.4969,"long":-122.2674},{"zip":"94074","city":"San Gregorio","state":"CA","lat":37.3255,"long":-122.3556},{"zip":"94080","city":"South San Francisco","state":"CA","lat":37.6574,"long":-122.4235},{"zip":"94083","city":"South San Francisco","state":"CA","lat":37.6547,"long":-122.4077},{"zip":"94022","city":"Los Altos","state":"CA","lat":37.3814,"long":-122.1258},{"zip":"94023","city":"Los Altos","state":"CA","lat":37.3852,"long":-122.1141},{"zip":"94024","city":"Los Altos","state":"CA","lat":37.3547,"long":-122.0862},{"zip":"94035","city":"Mountain View","state":"CA","lat":37.3861,"long":-122.0839},{"zip":"94039","city":"Mountain View","state":"CA","lat":37.3861,"long":-122.0839},{"zip":"94040","city":"Mountain View","state":"CA","lat":37.3855,"long":-122.088},{"zip":"94041","city":"Mountain View","state":"CA","lat":37.3893,"long":-122.0783},{"zip":"94042","city":"Mountain View","state":"CA","lat":37.3861,"long":-122.0839},{"zip":"94043","city":"Mountain View","state":"CA","lat":37.4056,"long":-122.0775},{"zip":"94085","city":"Sunnyvale","state":"CA","lat":37.3886,"long":-122.0177},{"zip":"94086","city":"Sunnyvale","state":"CA","lat":37.3764,"long":-122.0238},{"zip":"94087","city":"Sunnyvale","state":"CA","lat":37.3502,"long":-122.0349},{"zip":"94088","city":"Sunnyvale","state":"CA","lat":37.3688,"long":-122.0363},{"zip":"94089","city":"Sunnyvale","state":"CA","lat":37.3983,"long":-122.0006}]
