[{"zip":"94102","city":"San Francisco","state":"CA","lat":37.7813,"long":-122.4167},{"zip":"94103","city":"San Francisco","state":"CA","lat":37.7725,"long":-122.4147},{"zip":"94104","city":"San Francisco","state":"CA","lat":37.7915,"long":-122.4018},{"zip":"94105","city":"San Francisco","state":"CA","lat":37.7864,"long":-122.3892},{"zip":"94107","city":"San Francisco","state":"CA","lat":37.7621,"long":-122.3971},{"zip":"94108","city":"San Francisco","state":"CA","lat":37.7929,"long":-122.4079},{"zip":"94109","city":"San Francisco","state":"CA","lat":37.7917,"long":-122.4186},{"zip":"94110","city":"San Francisco","state":"CA","lat":37.7509,"long":-122.4153},{"zip":"94111","city":"San Francisco","state":"CA","lat":37.7974,"long":-122.4001},{"zip":"94112","city":"San Francisco","state":"CA","lat":37.7195,"long":-122.4411},{"zip":"94114","city":"San Francisco","state":"CA","lat":37.7587,"long":-122.433},{"zip":"94115","city":"San Francisco","state":"CA","lat":37.7856,"long":-122.4358},{"zip":"94116","city":"San Francisco","state":"CA","lat":37.7441,"long":-122.4863},{"zip":"94117","city":"San Francisco","state":"CA","lat":37.7712,"long":-122.4413},{"zip":"94118","city":"San Francisco","state":"CA","lat":37.7812,"long":-122.4614},{"zip":"94119","city":"San Francisco","state":"CA","lat":37.7749,"long":-122.4194},{"zip":"94120","city":"San Francisco","state":"CA","lat":37.7749,"long":-122.4194},{"zip":"94121","city":"San Francisco","state":"CA","lat":37.7786,"long":-122.4892},{"zip":"94122","city":"San Francisco","state":"CA","lat":37.7593,"long":-122.4836},{"zip":"94123","city":"San Francisco","state":"CA","lat":37.7999,"long":-122.4342},{"zip":"94124","city":"San Francisco","state":"CA","lat":37.7309,"long":-122.3886},{"zip":"94125","city":"San Francisco","state":"CA","lat":37.7749,"long":-122.4194},{"zip":"94126","city":"San Francisco","state":"CA","lat":37.7749,"long":-122.4194},{"zip":"94127","city":"San Francisco","state":"CA","lat":37.7354,"long":-122.4571},{"zip":"94129","city":"San Francisco","state":"CA","lat":37.8005,"long":-122.465},{"zip":"94130","city":"San Francisco","state":"CA","lat":37.8231,"long":-122.3693},{"zip":"94131","city":"San Francisco","state":"CA","lat":37.745,"long":-122.4383},{"zip":"94132","city":"San Francisco","state":"CA","lat":37.7211,"long":-122.4754},{"zip":"94133","city":"San Francisco","state":"CA","lat":37.8002,"long":-122.4091},{"zip":"94134","city":"San Francisco","state":"CA","lat":37.719,"long":-122.4096},{"zip":"94137","city":"San Francisco","state":"CA","lat":37.7749,"long":-122.4194},{"zip":"94139","city":"San Francisco","state":"CA","lat":37.7749,"long":-122.4194},{"zip":"94140","city":"San Francisco","state":"CA","lat":37.7749,"long":-122.4194},{"zip":"94141","city":"San Francisco","state":"CA","lat":37.7749,"long":-122.4194},{"zip":"94142","city":"San Francisco","state":"CA","lat":37.7749,"long":-122.4194},{"zip":"94143","city":"San Francisco","state":"CA","lat":37.7631,"long":-122.4586},{"zip":"94144","city":"San Francisco","state":"CA","lat":37.7749,"long":-122.4194},{"zip":"94145","city":"San Francisco","state":"CA","lat":37.7749,"long":-122.4194},{"zip":"94146","city":"San Francisco","state":"CA","lat":37.7749,"long":-122.4194},{"zip":"94147","city":"San Francisco","state":"CA","lat":37.7749,"long":-122.4194},{"zip":"94151","city":"San Francisco","state":"CA","lat":37.7749,"long":-122.4194},{"zip":"94158","city":"San Francisco","state":"CA","lat":37.7694,"long":-122.3867},{"zip":"94159","city":"San Francisco","state":"CA","lat":37.7749,"long":-122.4194},{"zip":"94160","city":"San Francisco","state":"CA","lat":37.7749,"long":-122.4194},{"zip":"94161","city":"San Francisco","state":"CA","lat":37.7749,"long":-122.4194},{"zip":"94163","city":"San Francisco","state":"CA","lat":37.7749,"long":-122.4194},{"zip":"94164","city":"San Francisco","state":"CA","lat":37.7749,"long":-122.4194},{"zip":"94172","city":"San Francisco","state":"CA","lat":37.7749,"long":-122.4194},{"zip":"94177","city":"San Francisco","state":"CA","lat":37.7749,"long":-122.4194},{"zip":"94188","city":"San Francisco","state":"CA","lat":37.7749,"long":-122.4194},{"zip":"94128","city":"San Francisco","state":"CA","lat":37.6216,"long":-122.3929}]
