[{"zip":"94203","city":"Sacramento","state":"CA","lat":38.5816,"long":-121.4944},{"zip":"94204","city":"Sacramento","state":"CA","lat":38.5816,"long":-121.4944},{"zip":"94205","city":"Sacramento","state":"CA","lat":38.5816,"long":-121.4944},{"zip":"94206","city":"Sacramento","state":"CA","lat":38.5816,"long":-121.4944},{"zip":"94207","city":"Sacramento","state":"CA","lat":38.5816,"long":-121.4944},{"zip":"94208","city":"Sacramento","state":"CA","lat":38.5816,"long":-121.4944},{"zip":"94209","city":"Sacramento","state":"CA","lat":38.5816,"long":-121.4944},{"zip":"94211","city":"Sacramento","state":"CA","lat":38.5816,"long":-121.4944},{"zip":"94229","city":"Sacramento","state":"CA","lat":38.5816,"long":-121.4944},{"zip":"94230","city":"Sacramento","state":"CA","lat":38.5816,"long":-121.4944},{"zip":"94232","city":"Sacramento","state":"CA","lat":38.5816,"long":-121.4944},{"zip":"94234","city":"Sacramento","state":"CA","lat":38.5816,"long":-121.4944},{"zip":"94235","city":"Sacramento","state":"CA","lat":38.5816,"long":-121.4944},{"zip":"94236","city":"Sacramento","state":"CA","lat":38.5816,"long":-121.4944},{"zip":"94237","city":"Sacramento","state":"CA","lat":38.5816,"long":-121.4944},{"zip":"94239","city":"Sacramento","state":"CA","lat":38.5816,"long":-121.4944},{"zip":"94240","city":"Sacramento","state":"CA","lat":38.5816,"long":-121.4944},{"zip":"94244","city":"Sacramento","state":"CA","lat":38.5816,"long":-121.4944},{"zip":"94245","city":"Sacramento","state":"CA","lat":38.5816,"long":-121.4944},{"zip":"94247","city":"Sacramento","state":"CA","lat":38.5816,"long":-121.4944},{"zip":"94248","city":"Sacramento","state":"CA","lat":38.5816,"long":-121.4944},{"zip":"94249","city":"Sacramento","state":"CA","lat":38.5816,"long":-121.4944},{"zip":"94250","city":"Sacramento","state":"CA","lat":38.5816,"long":-121.4944},{"zip":"94252","city":"Sacramento","state":"CA","lat":38.5816,"long":-121.4944},{"zip":"94254","city":"Sacramento","state":"CA","lat":38.5816,"long":-121.4944},{"zip":"94256","city":"Sacramento","state":"CA","lat":38.5816,"long":-121.4944},{"zip":"94257","city":"Sacramento","state":"CA","lat":38.5816,"long":-121.4944},{"zip":"94258","city":"Sacramento","state":"CA","lat":38.5816,"long":-121.4944},{"zip":"94259","city":"Sacramento","state":"CA","lat":38.5816,"long":-121.4944},{"zip":"94261","city":"Sacramento","state":"CA","lat":38.5816,"long":-121.4944},{"zip":"94262","city":"Sacramento","state":"CA","lat":38.5816,"long":-121.4944},{"zip":"94263","city":"Sacramento","state":"CA","lat":38.5816,"long":-121.4944},{"zip":"94267","city":"Sacramento","state":"CA","lat":38.5816,"long":-121.4944},{"zip":"94268","city":"Sacramento","state":"CA","lat":38.5816,"long":-121.4944},{"zip":"94269","city":"Sacramento","state":"CA","lat":38.5816,"long":-121.4944},{"zip":"94271","city":"Sacramento","state":"CA","lat":38.5816,"long":-121.4944},{"zip":"94273","city":"Sacramento","state":"CA","lat":38.5816,"long":-121.4944},{"zip":"94274","city":"Sacramento","state":"CA","lat":38.5816,"long":-121.4944},{"zip":"94277","city":"Sacramento","state":"CA","lat":38.5816,"long":-121.4944},{"zip":"94278","city":"Sacramento","state":"CA","lat":38.5816,"long":-121.4944},{"zip":"94279","city":"Sacramento","state":"CA","lat":38.5816,"long":-121.4944},{"zip":"94280","city":"Sacramento","state":"CA","lat":38.5816,"long":-121.4944},{"zip":"94282","city":"Sacramento","state":"CA","lat":38.5816,"long":-121.4944},{"zip":"94283","city":"Sacramento","state":"CA","lat":38.5816,"long":-121.4944},{"zip":"94284","city":"Sacramento","state":"CA","lat":38.5816,"long":-121.4944},{"zip":"94285","city":"Sacramento","state":"CA","lat":38.5816,"long":-121.4944},{"zip":"94286","city":"Sacramento","state":"CA","lat":38.5816,"long":-121.4944},{"zip":"94287","city":"Sacramento","state":"CA","lat":38.5816,"long":-121.4944},{"zip":"94288","city":"Sacramento","state":"CA","lat":38.5816,"long":-121.4944},{"zip":"94289","city":"Sacramento","state":"CA","lat":38.5816,"long":-121.4944},{"zip":"94290","city":"Sacramento","state":"CA","lat":38.5816,"long":-121.4944},{"zip":"94291","city":"Sacramento","state":"CA","lat":38.5816,"long":-121.4944},{"zip":"94293","city":"Sacramento","state":"CA","lat":38.5816,"long":-121.4944},{"zip":"94294","city":"Sacramento","state":"CA","lat":38.5816,"long":-121.4944},{"zip":"94295","city":"Sacramento","state":"CA","lat":38.5816,"long":-121.4944},{"zip":"94296","city":"Sacramento","state":"CA","lat":38.5816,"long":-121.4944},{"zip":"94297","city":"Sacramento","state":"CA","lat":38.5816,"long":-121.4944},{"zip":"94298","city":"Sacramento","state":"CA","lat":38.5816,"long":-121.4944},{"zip":"94299","city":"Sacramento","state":"CA","lat":38.5816,"long":-121.4944}]
