[{"zip":"94601","city":"Oakland","state":"CA","lat":37.7806,"long":-122.2166},{"zip":"94602","city":"Oakland","state":"CA","lat":37.8011,"long":-122.2104},{"zip":"94603","city":"Oakland","state":"CA","lat":37.7402,"long":-122.171},{"zip":"94604","city":"Oakland","state":"CA","lat":37.8044,"long":-122.2708},{"zip":"94605","city":"Oakland","state":"CA","lat":37.7641,"long":-122.1633},{"zip":"94606","city":"Oakland","state":"CA","lat":37.7957,"long":-122.2429},{"zip":"94607","city":"Oakland","state":"CA","lat":37.8071,"long":-122.2851},{"zip":"94608","city":"Emeryville","state":"CA","lat":37.8365,"long":-122.2804},{"zip":"94609","city":"Oakland","state":"CA","lat":37.8361,"long":-122.2637},{"zip":"94610","city":"Oakland","state":"CA","lat":37.8126,"long":-122.2443},{"zip":"94611","city":"Oakland","state":"CA","lat":37.8471,"long":-122.2223},{"zip":"94612","city":"Oakland","state":"CA","lat":37.8085,"long":-122.2668},{"zip":"94613","city":"Oakland","state":"CA","lat":37.7811,"long":-122.1866},{"zip":"94614","city":"Oakland","state":"CA","lat":37.7277,"long":-122.2046},{"zip":"94615","city":"Oakland","state":"CA","lat":37.8067,"long":-122.3004},{"zip":"94617","city":"Oakland","state":"CA","lat":37.8078,"long":-122.2717},{"zip":"94618","city":"Oakland","state":"CA","lat":37.8431,"long":-122.2402},{"zip":"94619","city":"Oakland","state":"CA","lat":37.7878,"long":-122.1884},{"zip":"94620","city":"Piedmont","state":"CA","lat":37.8244,"long":-122.2316},{"zip":"94621","city":"Oakland","state":"CA","lat":37.7589,"long":-122.1853},{"zip":"94622","city":"Oakland","state":"CA","lat":37.799,"long":-122.2337},{"zip":"94623","city":"Oakland","state":"CA","lat":37.8044,"long":-122.2708},{"zip":"94624","city":"Oakland","state":"CA","lat":37.8044,"long":-122.2708},{"zip":"94649","city":"Oakland","state":"CA","lat":37.8044,"long":-122.2708},{"zip":"94659","city":"Oakland","state":"CA","lat":37.8044,"long":-122.2708},{"zip":"94660","city":"Oakland","state":"CA","lat":37.8044,"long":-122.2708},{"zip":"94661","city":"Oakland","state":"CA","lat":37.8044,"long":-122.2708},{"zip":"94662","city":"Emeryville","state":"CA","lat":37.8313,"long":-122.2852},{"zip":"94666","city":"Oakland","state":"CA","lat":37.8044,"long":-122.2708}]
