[{"zip":"94901","city":"San Rafael","state":"CA","lat":37.9691,"long":-122.5105},{"zip":"94903","city":"San Rafael","state":"CA","lat":38.0339,"long":-122.5855},{"zip":"94904","city":"Greenbrae","state":"CA","lat":37.9479,"long":-122.5363},{"zip":"94912","city":"San Rafael","state":"CA","lat":37.9735,"long":-122.5311},{"zip":"94913","city":"San Rafael","state":"CA","lat":37.9735,"long":-122.5311},{"zip":"94914","city":"Kentfield","state":"CA","lat":37.9521,"long":-122.5572},{"zip":"94915","city":"San Rafael","state":"CA","lat":38.0739,"long":-122.5594},{"zip":"94920","city":"Belvedere Tiburon","state":"CA","lat":37.8843,"long":-122.4637},{"zip":"94924","city":"Bolinas","state":"CA","lat":37.9079,"long":-122.6947},{"zip":"94925","city":"Corte Madera","state":"CA","lat":37.9223,"long":-122.5132},{"zip":"94929","city":"Dillon Beach","state":"CA","lat":38.2508,"long":-122.9653},{"zip":"94930","city":"Fairfax","state":"CA","lat":37.9883,"long":-122.5937},{"zip":"94933","city":"Forest Knolls","state":"CA","lat":38.0122,"long":-122.6907},{"zip":"94937","city":"Inverness","state":"CA","lat":38.1126,"long":-122.8877},{"zip":"94938","city":"Lagunitas","state":"CA","lat":38.0139,"long":-122.7016},{"zip":"94939","city":"Larkspur","state":"CA","lat":37.9367,"long":-122.5362},{"zip":"94940","city":"Marshall","state":"CA","lat":38.1762,"long":-122.89},{"zip":"94941","city":"Mill Valley","state":"CA","lat":37.8958,"long":-122.5339},{"zip":"94942","city":"Mill Valley","state":"CA","lat":37.906,"long":-122.545},{"zip":"94945","city":"Novato","state":"CA","lat":38.1163,"long":-122.5714},{"zip":"94946","city":"Nicasio","state":"CA","lat":38.0546,"long":-122.6964},{"zip":"94947","city":"Novato","state":"CA","lat":38.0973,"long":-122.5837},{"zip":"94948","city":"Novato","state":"CA","lat":38.1489,"long":-122.5737},{"zip":"94949","city":"Novato","state":"CA","lat":38.0618,"long":-122.5404},{"zip":"94950","city":"Olema","state":"CA","lat":38.0467,"long":-122.7699},{"zip":"94956","city":"Point Reyes Station","state":"CA","lat":38.0691,"long":-122.8069},{"zip":"94957","city":"Ross","state":"CA","lat":38.0223,"long":-122.5617},{"zip":"94960","city":"San Anselmo","state":"CA","lat":37.9846,"long":-122.5711},{"zip":"94963","city":"San Geronimo","state":"CA","lat":38.0133,"long":-122.6639},{"zip":"94964","city":"San Quentin","state":"CA","lat":37.9416,"long":-122.4844},{"zip":"94965","city":"Sausalito","state":"CA","lat":37.8601,"long":-122.4946},{"zip":"94966","city":"Sausalito","state":"CA","lat":37.8591,"long":-122.4853},{"zip":"94970","city":"Stinson Beach","state":"CA","lat":37.902,"long":-122.6393},{"zip":"94971","city":"Tomales","state":"CA","lat":38.2427,"long":-122.9145},{"zip":"94973","city":"Woodacre","state":"CA","lat":38.0069,"long":-122.6382},{"zip":"94974","city":"San Quentin","state":"CA","lat":37.9413,"long":-122.485},{"zip":"94976","city":"Corte Madera","state":"CA","lat":37.9255,"long":-122.5275},{"zip":"94977","city":"Larkspur","state":"CA","lat":37.9341,"long":-122.5353},{"zip":"94978","city":"Fairfax","state":"CA","lat":37.9871,"long":-122.5889},{"zip":"94979","city":"San Anselmo","state":"CA","lat":37.9746,"long":-122.5616},{"zip":"94998","city":"Novato","state":"CA","lat":38.1173,"long":-122.5684},{"zip":"94922","city":"Bodega","state":"CA","lat":38.3514,"long":-122.9741},{"zip":"94923","city":"Bodega Bay","state":"CA","lat":38.3309,"long":-123.0373},{"zip":"94926","city":"Rohnert Park","state":"CA","lat":38.3396,"long":-122.7011},{"zip":"94927","city":"Rohnert Park","state":"CA","lat":38.3396,"long":-122.7011},{"zip":"94928","city":"Rohnert Park","state":"CA","lat":38.347,"long":-122.6941},{"zip":"94931","city":"Cotati","state":"CA","lat":38.3259,"long":-122.7048},{"zip":"94951","city":"Penngrove","state":"CA","lat":38.3153,"long":-122.6483},{"zip":"94952","city":"Petaluma","state":"CA","lat":38.2403,"long":-122.6777},{"zip":"94953","city":"Petaluma","state":"CA","lat":38.2324,"long":-122.6367},{"zip":"94954","city":"Petaluma","state":"CA","lat":38.2507,"long":-122.6155},{"zip":"94955","city":"Petaluma","state":"CA","lat":38.2324,"long":-122.6367},{"zip":"94972","city":"Valley Ford","state":"CA","lat":38.3072,"long":-122.8558},{"zip":"94975","city":"Petaluma","state":"CA","lat":38.2324,"long":-122.6367},{"zip":"94999","city":"Petaluma","state":"CA","lat":38.2675,"long":-122.6581}]
