[{"zip":"95646","city":"Kirkwood","state":"CA","lat":38.6918,"long":-120.0736},{"zip":"95601","city":"Amador City","state":"CA","lat":38.4194,"long":-120.823},{"zip":"95629","city":"Fiddletown","state":"CA","lat":38.5234,"long":-120.6763},{"zip":"95640","city":"Ione","state":"CA","lat":38.3324,"long":-120.9418},{"zip":"95642","city":"Jackson","state":"CA","lat":38.3545,"long":-120.7573},{"zip":"95644","city":"Kit Carson","state":"CA","lat":38.6707,"long":-120.1135},{"zip":"95654","city":"Martell","state":"CA","lat":38.3515,"long":-120.7752},{"zip":"95665","city":"Pine Grove","state":"CA","lat":38.4049,"long":-120.6544},{"zip":"95666","city":"Pioneer","state":"CA","lat":38.4319,"long":-120.5719},{"zip":"95669","city":"Plymouth","state":"CA","lat":38.4916,"long":-120.8819},{"zip":"95675","city":"River Pines","state":"CA","lat":38.5463,"long":-120.743},{"zip":"95685","city":"Sutter Creek","state":"CA","lat":38.4175,"long":-120.7951},{"zip":"95689","city":"Volcano","state":"CA","lat":38.4765,"long":-120.6017},{"zip":"95699","city":"Drytown","state":"CA","lat":38.4411,"long":-120.8533},{"zip":"95914","city":"Bangor","state":"CA","lat":39.3885,"long":-121.4052},{"zip":"95916","city":"Berry Creek","state":"CA","lat":39.6776,"long":-121.3689},{"zip":"95917","city":"Biggs","state":"CA","lat":39.4162,"long":-121.7189},{"zip":"95926","city":"Chico","state":"CA","lat":39.7458,"long":-121.8444},{"zip":"95927","city":"Chico","state":"CA","lat":39.8117,"long":-121.9398},{"zip":"95928","city":"Chico","state":"CA","lat":39.7224,"long":-121.8113},{"zip":"95929","city":"Chico","state":"CA","lat":39.7301,"long":-121.8414},{"zip":"95930","city":"Clipper Mills","state":"CA","lat":39.5302,"long":-121.1675},{"zip":"95938","city":"Durham","state":"CA","lat":39.633,"long":-121.7886},{"zip":"95940","city":"Feather Falls","state":"CA","lat":39.622,"long":-121.2669},{"zip":"95941","city":"Forbestown","state":"CA","lat":39.521,"long":-121.2423},{"zip":"95942","city":"Forest Ranch","state":"CA","lat":39.8821,"long":-121.6728},{"zip":"95948","city":"Gridley","state":"CA","lat":39.3532,"long":-121.7137},{"zip":"95954","city":"Magalia","state":"CA","lat":39.8912,"long":-121.58},{"zip":"95958","city":"Nelson","state":"CA","lat":39.5522,"long":-121.7644},{"zip":"95965","city":"Oroville","state":"CA","lat":39.6054,"long":-121.5751},{"zip":"95966","city":"Oroville","state":"CA","lat":39.4877,"long":-121.4698},{"zip":"95967","city":"Paradise","state":"CA","lat":39.7155,"long":-121.6551},{"zip":"95968","city":"Palermo","state":"CA","lat":39.4361,"long":-121.5454},{"zip":"95969","city":"Paradise","state":"CA","lat":39.7555,"long":-121.6069},{"zip":"95973","city":"Chico","state":"CA","lat":39.8032,"long":-121.8673},{"zip":"95974","city":"Richvale","state":"CA","lat":39.4959,"long":-121.748},{"zip":"95976","city":"Chico","state":"CA","lat":39.7346,"long":-121.8331},{"zip":"95978","city":"Stirling City","state":"CA","lat":39.9077,"long":-121.5269},{"zip":"95221","city":"Altaville","state":"CA","lat":38.0838,"long":-120.5608},{"zip":"95222","city":"Angels Camp","state":"CA","lat":38.071,"long":-120.5722},{"zip":"95223","city":"Arnold","state":"CA","lat":38.3086,"long":-120.268},{"zip":"95224","city":"Avery","state":"CA","lat":38.2044,"long":-120.3688},{"zip":"95225","city":"Burson","state":"CA","lat":38.1838,"long":-120.8894},{"zip":"95226","city":"Campo Seco","state":"CA","lat":38.2271,"long":-120.8533},{"zip":"95228","city":"Copperopolis","state":"CA","lat":37.944,"long":-120.6423},{"zip":"95229","city":"Douglas Flat","state":"CA","lat":38.1144,"long":-120.4538},{"zip":"95232","city":"Glencoe","state":"CA","lat":38.3554,"long":-120.5778},{"zip":"95233","city":"Hathaway Pines","state":"CA","lat":38.1919,"long":-120.3644},{"zip":"95245","city":"Mokelumne Hill","state":"CA","lat":38.3152,"long":-120.5591},{"zip":"95246","city":"Mountain Ranch","state":"CA","lat":38.2328,"long":-120.4994},{"zip":"95247","city":"Murphys","state":"CA","lat":38.1345,"long":-120.4516},{"zip":"95248","city":"Rail Road Flat","state":"CA","lat":38.3405,"long":-120.5161},{"zip":"95249","city":"San Andreas","state":"CA","lat":38.1904,"long":-120.6441},{"zip":"95251","city":"Vallecito","state":"CA","lat":38.1013,"long":-120.4676},{"zip":"95252","city":"Valley Springs","state":"CA","lat":38.162,"long":-120.8572},{"zip":"95254","city":"Wallace","state":"CA","lat":38.1983,"long":-120.9793},{"zip":"95255","city":"West Point","state":"CA","lat":38.4197,"long":-120.4759},{"zip":"95257","city":"Wilseyville","state":"CA","lat":38.3793,"long":-120.4627},{"zip":"95912","city":"Arbuckle","state":"CA","lat":39.0138,"long":-122.0274},{"zip":"95932","city":"Colusa","state":"CA","lat":39.2345,"long":-122.0277},{"zip":"95950","city":"Grimes","state":"CA","lat":39.0744,"long":-121.8927},{"zip":"95955","city":"Maxwell","state":"CA","lat":39.3163,"long":-122.1849},{"zip":"95970","city":"Princeton","state":"CA","lat":39.4168,"long":-122.0519},{"zip":"95979","city":"Stonyford","state":"CA","lat":39.3176,"long":-122.5393},{"zip":"95987","city":"Williams","state":"CA","lat":39.1337,"long":-122.2162},{"zip":"95531","city":"Crescent City","state":"CA","lat":41.7817,"long":-124.1332},{"zip":"95532","city":"Crescent City","state":"CA","lat":41.7561,"long":-124.2005},{"zip":"95538","city":"Fort Dick","state":"CA","lat":41.8679,"long":-124.149},{"zip":"95543","city":"Gasquet","state":"CA","lat":41.9056,"long":-123.831},{"zip":"95548","city":"Klamath","state":"CA","lat":41.5804,"long":-124.0387},{"zip":"95567","city":"Smith River","state":"CA","lat":41.9404,"long":-124.1587},{"zip":"95613","city":"Coloma","state":"CA","lat":38.8,"long":-120.8891},{"zip":"95614","city":"Cool","state":"CA","lat":38.8923,"long":-120.9802},{"zip":"95619","city":"Diamond Springs","state":"CA","lat":38.6865,"long":-120.8145},{"zip":"95623","city":"El Dorado","state":"CA","lat":38.633,"long":-120.8498},{"zip":"95633","city":"Garden Valley","state":"CA","lat":38.8665,"long":-120.8567},{"zip":"95634","city":"Georgetown","state":"CA","lat":38.9185,"long":-120.7599},{"zip":"95635","city":"Greenwood","state":"CA","lat":38.9143,"long":-120.9001},{"zip":"95636","city":"Grizzly Flats","state":"CA","lat":38.6489,"long":-120.5098},{"zip":"95651","city":"Lotus","state":"CA","lat":38.8278,"long":-120.9238},{"zip":"95656","city":"Mount Aukum","state":"CA","lat":38.55,"long":-120.7304},{"zip":"95664","city":"Pilot Hill","state":"CA","lat":38.8135,"long":-121.0308},{"zip":"95667","city":"Placerville","state":"CA","lat":38.7195,"long":-120.8046},{"zip":"95672","city":"Rescue","state":"CA","lat":38.7194,"long":-120.9945},{"zip":"95682","city":"Shingle Springs","state":"CA","lat":38.6465,"long":-120.9641},{"zip":"95684","city":"Somerset","state":"CA","lat":38.5953,"long":-120.5949},{"zip":"95709","city":"Camino","state":"CA","lat":38.747,"long":-120.6743},{"zip":"95720","city":"Kyburz","state":"CA","lat":38.7825,"long":-120.2569},{"zip":"95721","city":"Echo Lake","state":"CA","lat":38.8338,"long":-120.0416},{"zip":"95726","city":"Pollock Pines","state":"CA","lat":38.7708,"long":-120.5427},{"zip":"95735","city":"Twin Bridges","state":"CA","lat":38.8092,"long":-120.1242},{"zip":"95762","city":"El Dorado Hills","state":"CA","lat":38.685,"long":-121.068},{"zip":"95913","city":"Artois","state":"CA","lat":39.6197,"long":-122.1927},{"zip":"95920","city":"Butte City","state":"CA","lat":39.4568,"long":-121.9515},{"zip":"95939","city":"Elk Creek","state":"CA","lat":39.5306,"long":-122.6124},{"zip":"95943","city":"Glenn","state":"CA","lat":39.6069,"long":-122.0384},{"zip":"95951","city":"Hamilton City","state":"CA","lat":39.7386,"long":-122.0085},{"zip":"95963","city":"Orland","state":"CA","lat":39.7314,"long":-122.2534},{"zip":"95988","city":"Willows","state":"CA","lat":39.5353,"long":-122.2597},{"zip":"95501","city":"Eureka","state":"CA","lat":40.7938,"long":-124.1573},{"zip":"95502","city":"Eureka","state":"CA","lat":40.7965,"long":-124.1737},{"zip":"95503","city":"Eureka","state":"CA","lat":40.7592,"long":-124.1593},{"zip":"95511","city":"Alderpoint","state":"CA","lat":40.1676,"long":-123.6192},{"zip":"95514","city":"Blocksburg","state":"CA","lat":40.2987,"long":-123.6576},{"zip":"95518","city":"Arcata","state":"CA","lat":40.8685,"long":-124.0856},{"zip":"95519","city":"Mckinleyville","state":"CA","lat":40.9465,"long":-124.0834},{"zip":"95521","city":"Arcata","state":"CA","lat":40.8742,"long":-124.0765},{"zip":"95524","city":"Bayside","state":"CA","lat":40.8266,"long":-124.0552},{"zip":"95525","city":"Blue Lake","state":"CA","lat":40.9374,"long":-123.8913},{"zip":"95526","city":"Bridgeville","state":"CA","lat":40.4693,"long":-123.7998},{"zip":"95528","city":"Carlotta","state":"CA","lat":40.507,"long":-123.9743},{"zip":"95534","city":"Cutten","state":"CA","lat":40.7965,"long":-124.1737},{"zip":"95536","city":"Ferndale","state":"CA","lat":40.5259,"long":-124.2514},{"zip":"95537","city":"Fields Landing","state":"CA","lat":40.7268,"long":-124.2174},{"zip":"95540","city":"Fortuna","state":"CA","lat":40.5835,"long":-124.1473},{"zip":"95542","city":"Garberville","state":"CA","lat":40.0864,"long":-123.7991},{"zip":"95545","city":"Honeydew","state":"CA","lat":40.2421,"long":-124.0972},{"zip":"95546","city":"Hoopa","state":"CA","lat":41.0504,"long":-123.6742},{"zip":"95547","city":"Hydesville","state":"CA","lat":40.5485,"long":-124.0847},{"zip":"95549","city":"Kneeland","state":"CA","lat":40.6405,"long":-123.8826},{"zip":"95550","city":"Korbel","state":"CA","lat":40.7775,"long":-123.8486},{"zip":"95551","city":"Loleta","state":"CA","lat":40.6589,"long":-124.2251},{"zip":"95553","city":"Miranda","state":"CA","lat":40.2397,"long":-123.8077},{"zip":"95554","city":"Myers Flat","state":"CA","lat":40.2841,"long":-123.7945},{"zip":"95555","city":"Orick","state":"CA","lat":41.3596,"long":-124.0317},{"zip":"95556","city":"Orleans","state":"CA","lat":41.3115,"long":-123.5399},{"zip":"95558","city":"Petrolia","state":"CA","lat":40.2868,"long":-124.2271},{"zip":"95559","city":"Phillipsville","state":"CA","lat":40.2008,"long":-123.7735},{"zip":"95560","city":"Redway","state":"CA","lat":40.1201,"long":-123.8234},{"zip":"95562","city":"Rio Dell","state":"CA","lat":40.4987,"long":-124.1102},{"zip":"95564","city":"Samoa","state":"CA","lat":40.8037,"long":-124.1936},{"zip":"95565","city":"Scotia","state":"CA","lat":40.4583,"long":-124.0517},{"zip":"95569","city":"Redcrest","state":"CA","lat":40.3437,"long":-123.9095},{"zip":"95570","city":"Trinidad","state":"CA","lat":41.0593,"long":-124.1431},{"zip":"95571","city":"Weott","state":"CA","lat":40.3218,"long":-123.9217},{"zip":"95573","city":"Willow Creek","state":"CA","lat":40.9484,"long":-123.6276},{"zip":"95589","city":"Whitethorn","state":"CA","lat":40.0231,"long":-124.0139},{"zip":"95422","city":"Clearlake","state":"CA","lat":38.9576,"long":-122.636},{"zip":"95423","city":"Clearlake Oaks","state":"CA","lat":39.0664,"long":-122.6558},{"zip":"95424","city":"Clearlake Park","state":"CA","lat":38.9666,"long":-122.65},{"zip":"95426","city":"Cobb","state":"CA","lat":38.8155,"long":-122.7132},{"zip":"95435","city":"Finley","state":"CA","lat":38.9639,"long":-122.9009},{"zip":"95443","city":"Glenhaven","state":"CA","lat":39.0263,"long":-122.733},{"zip":"95451","city":"Kelseyville","state":"CA","lat":38.9421,"long":-122.7777},{"zip":"95453","city":"Lakeport","state":"CA","lat":39.047,"long":-122.9328},{"zip":"95457","city":"Lower Lake","state":"CA","lat":38.8915,"long":-122.5914},{"zip":"95458","city":"Lucerne","state":"CA","lat":39.0783,"long":-122.7846},{"zip":"95461","city":"Middletown","state":"CA","lat":38.7824,"long":-122.6487},{"zip":"95464","city":"Nice","state":"CA","lat":39.1194,"long":-122.8315},{"zip":"95467","city":"Hidden Valley Lake","state":"CA","lat":38.8036,"long":-122.5407},{"zip":"95485","city":"Upper Lake","state":"CA","lat":39.1804,"long":-122.9144},{"zip":"95493","city":"Witter Springs","state":"CA","lat":39.1821,"long":-122.9711},{"zip":"95306","city":"Catheys Valley","state":"CA","lat":37.4404,"long":-120.1438},{"zip":"95311","city":"Coulterville","state":"CA","lat":37.7197,"long":-120.1197},{"zip":"95318","city":"El Portal","state":"CA","lat":37.6747,"long":-119.7841},{"zip":"95325","city":"Hornitos","state":"CA","lat":37.4676,"long":-120.2793},{"zip":"95338","city":"Mariposa","state":"CA","lat":37.4931,"long":-119.9219},{"zip":"95345","city":"Midpines","state":"CA","lat":37.5757,"long":-119.9601},{"zip":"95389","city":"Yosemite National Park","state":"CA","lat":37.7314,"long":-119.6489},{"zip":"95410","city":"Albion","state":"CA","lat":39.2131,"long":-123.72},{"zip":"95415","city":"Boonville","state":"CA","lat":39.0197,"long":-123.3856},{"zip":"95417","city":"Branscomb","state":"CA","lat":39.6949,"long":-123.5527},{"zip":"95418","city":"Calpella","state":"CA","lat":39.2214,"long":-123.2154},{"zip":"95420","city":"Caspar","state":"CA","lat":39.3629,"long":-123.7944},{"zip":"95427","city":"Comptche","state":"CA","lat":39.2767,"long":-123.5873},{"zip":"95428","city":"Covelo","state":"CA","lat":39.82,"long":-123.0585},{"zip":"95429","city":"Dos Rios","state":"CA","lat":39.7168,"long":-123.3533},{"zip":"95432","city":"Elk","state":"CA","lat":39.1593,"long":-123.7219},{"zip":"95437","city":"Fort Bragg","state":"CA","lat":39.4402,"long":-123.7703},{"zip":"95445","city":"Gualala","state":"CA","lat":38.8251,"long":-123.5399},{"zip":"95449","city":"Hopland","state":"CA","lat":38.938,"long":-123.0703},{"zip":"95454","city":"Laytonville","state":"CA","lat":39.6627,"long":-123.4929},{"zip":"95456","city":"Little River","state":"CA","lat":39.2707,"long":-123.7883},{"zip":"95459","city":"Manchester","state":"CA","lat":39.0097,"long":-123.6523},{"zip":"95460","city":"Mendocino","state":"CA","lat":39.3173,"long":-123.7739},{"zip":"95463","city":"Navarro","state":"CA","lat":39.185,"long":-123.5268},{"zip":"95466","city":"Philo","state":"CA","lat":39.0657,"long":-123.445},{"zip":"95468","city":"Point Arena","state":"CA","lat":38.9152,"long":-123.6},{"zip":"95469","city":"Potter Valley","state":"CA","lat":39.3932,"long":-123.0647},{"zip":"95470","city":"Redwood Valley","state":"CA","lat":39.2779,"long":-123.2243},{"zip":"95481","city":"Talmage","state":"CA","lat":39.1269,"long":-123.1658},{"zip":"95482","city":"Ukiah","state":"CA","lat":39.1552,"long":-123.1951},{"zip":"95488","city":"Westport","state":"CA","lat":39.6843,"long":-123.7686},{"zip":"95490","city":"Willits","state":"CA","lat":39.4493,"long":-123.3679},{"zip":"95494","city":"Yorkville","state":"CA","lat":38.9235,"long":-123.2973},{"zip":"95585","city":"Leggett","state":"CA","lat":39.8481,"long":-123.6615},{"zip":"95587","city":"Piercy","state":"CA","lat":39.9465,"long":-123.7552},{"zip":"95301","city":"Atwater","state":"CA","lat":37.3489,"long":-120.6028},{"zip":"95303","city":"Ballico","state":"CA","lat":37.4548,"long":-120.6931},{"zip":"95312","city":"Cressey","state":"CA","lat":37.4197,"long":-120.6663},{"zip":"95315","city":"Delhi","state":"CA","lat":37.4273,"long":-120.7752},{"zip":"95317","city":"El Nido","state":"CA","lat":37.1391,"long":-120.5251},{"zip":"95322","city":"Gustine","state":"CA","lat":37.2001,"long":-121.0047},{"zip":"95324","city":"Hilmar","state":"CA","lat":37.4002,"long":-120.8723},{"zip":"95333","city":"Le Grand","state":"CA","lat":37.2496,"long":-120.2667},{"zip":"95334","city":"Livingston","state":"CA","lat":37.3763,"long":-120.7252},{"zip":"95340","city":"Merced","state":"CA","lat":37.2983,"long":-120.4649},{"zip":"95341","city":"Merced","state":"CA","lat":37.2308,"long":-120.5144},{"zip":"95343","city":"Merced","state":"CA","lat":37.3082,"long":-120.48},{"zip":"95344","city":"Merced","state":"CA","lat":37.3082,"long":-120.48},{"zip":"95348","city":"Merced","state":"CA","lat":37.3302,"long":-120.508},{"zip":"95365","city":"Planada","state":"CA","lat":37.2908,"long":-120.3185},{"zip":"95369","city":"Snelling","state":"CA","lat":37.5354,"long":-120.378},{"zip":"95374","city":"Stevinson","state":"CA","lat":37.3283,"long":-120.8764},{"zip":"95388","city":"Winton","state":"CA","lat":37.4014,"long":-120.6045},{"zip":"95004","city":"Aromas","state":"CA","lat":36.8769,"long":-121.6324},{"zip":"95012","city":"Castroville","state":"CA","lat":36.7658,"long":-121.758},{"zip":"95039","city":"Moss Landing","state":"CA","lat":36.8175,"long":-121.7773},{"zip":"95712","city":"Chicago Park","state":"CA","lat":39.143,"long":-120.9666},{"zip":"95724","city":"Norden","state":"CA","lat":39.2966,"long":-120.4317},{"zip":"95728","city":"Soda Springs","state":"CA","lat":39.317,"long":-120.4259},{"zip":"95924","city":"Cedar Ridge","state":"CA","lat":39.1988,"long":-121.02},{"zip":"95945","city":"Grass Valley","state":"CA","lat":39.2081,"long":-121.0069},{"zip":"95946","city":"Penn Valley","state":"CA","lat":39.2019,"long":-121.2026},{"zip":"95949","city":"Grass Valley","state":"CA","lat":39.1193,"long":-121.0938},{"zip":"95959","city":"Nevada City","state":"CA","lat":39.3017,"long":-120.9717},{"zip":"95960","city":"North San Juan","state":"CA","lat":39.3765,"long":-121.0891},{"zip":"95975","city":"Rough And Ready","state":"CA","lat":39.2286,"long":-121.1509},{"zip":"95977","city":"Smartsville","state":"CA","lat":39.3019,"long":-120.7657},{"zip":"95986","city":"Washington","state":"CA","lat":39.3569,"long":-120.8},{"zip":"95602","city":"Auburn","state":"CA","lat":38.9829,"long":-121.0944},{"zip":"95603","city":"Auburn","state":"CA","lat":38.9115,"long":-121.08},{"zip":"95604","city":"Auburn","state":"CA","lat":38.9029,"long":-121.067},{"zip":"95631","city":"Foresthill","state":"CA","lat":39.0682,"long":-120.7224},{"zip":"95648","city":"Lincoln","state":"CA","lat":38.8942,"long":-121.2908},{"zip":"95650","city":"Loomis","state":"CA","lat":38.8071,"long":-121.1698},{"zip":"95658","city":"Newcastle","state":"CA","lat":38.8763,"long":-121.143},{"zip":"95661","city":"Roseville","state":"CA","lat":38.7346,"long":-121.234},{"zip":"95663","city":"Penryn","state":"CA","lat":38.8567,"long":-121.1791},{"zip":"95677","city":"Rocklin","state":"CA","lat":38.7877,"long":-121.2366},{"zip":"95678","city":"Roseville","state":"CA","lat":38.7609,"long":-121.2867},{"zip":"95681","city":"Sheridan","state":"CA","lat":38.9953,"long":-121.368},{"zip":"95701","city":"Alta","state":"CA","lat":39.2441,"long":-120.7531},{"zip":"95703","city":"Applegate","state":"CA","lat":39.0007,"long":-120.9924},{"zip":"95713","city":"Colfax","state":"CA","lat":39.0783,"long":-120.9549},{"zip":"95714","city":"Dutch Flat","state":"CA","lat":39.1978,"long":-120.8262},{"zip":"95715","city":"Emigrant Gap","state":"CA","lat":39.2968,"long":-120.6727},{"zip":"95717","city":"Gold Run","state":"CA","lat":39.171,"long":-120.8601},{"zip":"95722","city":"Meadow Vista","state":"CA","lat":39.0031,"long":-121.0292},{"zip":"95736","city":"Weimar","state":"CA","lat":39.0375,"long":-120.9713},{"zip":"95746","city":"Granite Bay","state":"CA","lat":38.7435,"long":-121.1897},{"zip":"95747","city":"Roseville","state":"CA","lat":38.7703,"long":-121.3372},{"zip":"95765","city":"Rocklin","state":"CA","lat":38.8136,"long":-121.2677},{"zip":"95915","city":"Belden","state":"CA","lat":40.006,"long":-121.2491},{"zip":"95923","city":"Canyon Dam","state":"CA","lat":39.5645,"long":-121.5751},{"zip":"95934","city":"Crescent Mills","state":"CA","lat":40.0673,"long":-120.9248},{"zip":"95947","city":"Greenville","state":"CA","lat":40.1699,"long":-120.9014},{"zip":"95956","city":"Meadow Valley","state":"CA","lat":39.9296,"long":-121.0608},{"zip":"95971","city":"Quincy","state":"CA","lat":39.9284,"long":-120.9698},{"zip":"95980","city":"Storrie","state":"CA","lat":39.9175,"long":-121.3222},{"zip":"95983","city":"Taylorsville","state":"CA","lat":40.0357,"long":-120.7353},{"zip":"95984","city":"Twain","state":"CA","lat":40.0509,"long":-121.1268},{"zip":"95608","city":"Carmichael","state":"CA","lat":38.6284,"long":-121.3287},{"zip":"95609","city":"Carmichael","state":"CA","lat":38.6257,"long":-121.3272},{"zip":"95610","city":"Citrus Heights","state":"CA","lat":38.6946,"long":-121.2692},{"zip":"95611","city":"Citrus Heights","state":"CA","lat":38.7072,"long":-121.28},{"zip":"95615","city":"Courtland","state":"CA","lat":38.3137,"long":-121.563},{"zip":"95621","city":"Citrus Heights","state":"CA","lat":38.6952,"long":-121.3075},{"zip":"95624","city":"Elk Grove","state":"CA","lat":38.4232,"long":-121.3599},{"zip":"95626","city":"Elverta","state":"CA","lat":38.7233,"long":-121.4497},{"zip":"95628","city":"Fair Oaks","state":"CA","lat":38.6554,"long":-121.2611},{"zip":"95630","city":"Folsom","state":"CA","lat":38.6709,"long":-121.1529},{"zip":"95632","city":"Galt","state":"CA","lat":38.2691,"long":-121.3},{"zip":"95638","city":"Herald","state":"CA","lat":38.3119,"long":-121.1729},{"zip":"95639","city":"Hood","state":"CA","lat":38.3702,"long":-121.5143},{"zip":"95641","city":"Isleton","state":"CA","lat":38.157,"long":-121.6066},{"zip":"95652","city":"Mcclellan","state":"CA","lat":38.6621,"long":-121.3955},{"zip":"95655","city":"Mather","state":"CA","lat":38.5579,"long":-121.291},{"zip":"95660","city":"North Highlands","state":"CA","lat":38.6707,"long":-121.3781},{"zip":"95662","city":"Orangevale","state":"CA","lat":38.6845,"long":-121.2256},{"zip":"95670","city":"Rancho Cordova","state":"CA","lat":38.6072,"long":-121.2761},{"zip":"95671","city":"Represa","state":"CA","lat":38.7065,"long":-121.1694},{"zip":"95673","city":"Rio Linda","state":"CA","lat":38.6895,"long":-121.4479},{"zip":"95680","city":"Ryde","state":"CA","lat":38.2386,"long":-121.5594},{"zip":"95683","city":"Sloughhouse","state":"CA","lat":38.5143,"long":-121.0964},{"zip":"95690","city":"Walnut Grove","state":"CA","lat":38.2396,"long":-121.5443},{"zip":"95693","city":"Wilton","state":"CA","lat":38.3983,"long":-121.2303},{"zip":"95741","city":"Rancho Cordova","state":"CA","lat":38.5891,"long":-121.3016},{"zip":"95742","city":"Rancho Cordova","state":"CA","lat":38.5981,"long":-121.2153},{"zip":"95757","city":"Elk Grove","state":"CA","lat":38.4081,"long":-121.4294},{"zip":"95758","city":"Elk Grove","state":"CA","lat":38.4243,"long":-121.437},{"zip":"95759","city":"Elk Grove","state":"CA","lat":38.407,"long":-121.3752},{"zip":"95763","city":"Folsom","state":"CA","lat":38.678,"long":-121.175},{"zip":"95811","city":"Sacramento","state":"CA","lat":38.5762,"long":-121.488},{"zip":"95812","city":"Sacramento","state":"CA","lat":38.5822,"long":-121.4943},{"zip":"95813","city":"Sacramento","state":"CA","lat":38.6026,"long":-121.4475},{"zip":"95814","city":"Sacramento","state":"CA","lat":38.5804,"long":-121.4922},{"zip":"95815","city":"Sacramento","state":"CA","lat":38.6093,"long":-121.4443},{"zip":"95816","city":"Sacramento","state":"CA","lat":38.5728,"long":-121.4675},{"zip":"95817","city":"Sacramento","state":"CA","lat":38.5498,"long":-121.4583},{"zip":"95818","city":"Sacramento","state":"CA","lat":38.5568,"long":-121.4929},{"zip":"95819","city":"Sacramento","state":"CA","lat":38.5683,"long":-121.4366},{"zip":"95820","city":"Sacramento","state":"CA","lat":38.5347,"long":-121.4451},{"zip":"95821","city":"Sacramento","state":"CA","lat":38.6239,"long":-121.3837},{"zip":"95822","city":"Sacramento","state":"CA","lat":38.5091,"long":-121.4935},{"zip":"95823","city":"Sacramento","state":"CA","lat":38.4797,"long":-121.4438},{"zip":"95824","city":"Sacramento","state":"CA","lat":38.5178,"long":-121.4419},{"zip":"95825","city":"Sacramento","state":"CA","lat":38.5892,"long":-121.4057},{"zip":"95826","city":"Sacramento","state":"CA","lat":38.5539,"long":-121.3693},{"zip":"95827","city":"Sacramento","state":"CA","lat":38.5662,"long":-121.3286},{"zip":"95828","city":"Sacramento","state":"CA","lat":38.4826,"long":-121.4006},{"zip":"95829","city":"Sacramento","state":"CA","lat":38.4689,"long":-121.344},{"zip":"95830","city":"Sacramento","state":"CA","lat":38.4896,"long":-121.2772},{"zip":"95831","city":"Sacramento","state":"CA","lat":38.4962,"long":-121.5297},{"zip":"95832","city":"Sacramento","state":"CA","lat":38.4695,"long":-121.4883},{"zip":"95833","city":"Sacramento","state":"CA","lat":38.6157,"long":-121.5053},{"zip":"95834","city":"Sacramento","state":"CA","lat":38.6383,"long":-121.5072},{"zip":"95835","city":"Sacramento","state":"CA","lat":38.6626,"long":-121.4834},{"zip":"95836","city":"Sacramento","state":"CA","lat":38.7198,"long":-121.5343},{"zip":"95837","city":"Sacramento","state":"CA","lat":38.6817,"long":-121.603},{"zip":"95838","city":"Sacramento","state":"CA","lat":38.6406,"long":-121.444},{"zip":"95840","city":"Sacramento","state":"CA","lat":38.5816,"long":-121.4933},{"zip":"95841","city":"Sacramento","state":"CA","lat":38.6627,"long":-121.3406},{"zip":"95842","city":"Sacramento","state":"CA","lat":38.6865,"long":-121.3494},{"zip":"95843","city":"Antelope","state":"CA","lat":38.7159,"long":-121.3648},{"zip":"95851","city":"Sacramento","state":"CA","lat":38.6026,"long":-121.4475},{"zip":"95852","city":"Sacramento","state":"CA","lat":38.6026,"long":-121.4475},{"zip":"95853","city":"Sacramento","state":"CA","lat":38.6026,"long":-121.4475},{"zip":"95860","city":"Sacramento","state":"CA","lat":38.6105,"long":-121.3799},{"zip":"95864","city":"Sacramento","state":"CA","lat":38.5878,"long":-121.3769},{"zip":"95865","city":"Sacramento","state":"CA","lat":38.596,"long":-121.3978},{"zip":"95866","city":"Sacramento","state":"CA","lat":38.596,"long":-121.3978},{"zip":"95867","city":"Sacramento","state":"CA","lat":38.5816,"long":-121.4933},{"zip":"95894","city":"Sacramento","state":"CA","lat":38.5816,"long":-121.4933},{"zip":"95899","city":"Sacramento","state":"CA","lat":38.5383,"long":-121.5549},{"zip":"95023","city":"Hollister","state":"CA","lat":36.8337,"long":-121.3439},{"zip":"95024","city":"Hollister","state":"CA","lat":36.8586,"long":-121.3982},{"zip":"95043","city":"Paicines","state":"CA","lat":36.4985,"long":-120.9744},{"zip":"95045","city":"San Juan Bautista","state":"CA","lat":36.8463,"long":-121.5346},{"zip":"95075","city":"Tres Pinos","state":"CA","lat":36.767,"long":-121.3017},{"zip":"95201","city":"Stockton","state":"CA","lat":37.958,"long":-121.2876},{"zip":"95202","city":"Stockton","state":"CA","lat":37.9606,"long":-121.2871},{"zip":"95203","city":"Stockton","state":"CA","lat":37.9532,"long":-121.3116},{"zip":"95204","city":"Stockton","state":"CA","lat":37.9743,"long":-121.3154},{"zip":"95205","city":"Stockton","state":"CA","lat":37.9625,"long":-121.2624},{"zip":"95206","city":"Stockton","state":"CA","lat":37.9177,"long":-121.3123},{"zip":"95207","city":"Stockton","state":"CA","lat":38.0024,"long":-121.3238},{"zip":"95208","city":"Stockton","state":"CA","lat":37.9304,"long":-121.436},{"zip":"95209","city":"Stockton","state":"CA","lat":38.0377,"long":-121.3445},{"zip":"95210","city":"Stockton","state":"CA","lat":38.025,"long":-121.2972},{"zip":"95211","city":"Stockton","state":"CA","lat":37.9809,"long":-121.311},{"zip":"95212","city":"Stockton","state":"CA","lat":38.0315,"long":-121.2589},{"zip":"95213","city":"Stockton","state":"CA","lat":37.9054,"long":-121.2222},{"zip":"95215","city":"Stockton","state":"CA","lat":37.9551,"long":-121.2041},{"zip":"95219","city":"Stockton","state":"CA","lat":38.01,"long":-121.3698},{"zip":"95220","city":"Acampo","state":"CA","lat":38.2004,"long":-121.2186},{"zip":"95227","city":"Clements","state":"CA","lat":38.1929,"long":-121.0811},{"zip":"95230","city":"Farmington","state":"CA","lat":37.9299,"long":-121.0002},{"zip":"95231","city":"French Camp","state":"CA","lat":37.878,"long":-121.2827},{"zip":"95234","city":"Holt","state":"CA","lat":37.9344,"long":-121.4261},{"zip":"95236","city":"Linden","state":"CA","lat":38.032,"long":-121.0493},{"zip":"95237","city":"Lockeford","state":"CA","lat":38.1613,"long":-121.1424},{"zip":"95240","city":"Lodi","state":"CA","lat":38.1222,"long":-121.2555},{"zip":"95241","city":"Lodi","state":"CA","lat":38.1327,"long":-121.2724},{"zip":"95242","city":"Lodi","state":"CA","lat":38.1308,"long":-121.3345},{"zip":"95253","city":"Victor","state":"CA","lat":38.138,"long":-121.205},{"zip":"95258","city":"Woodbridge","state":"CA","lat":38.1551,"long":-121.3086},{"zip":"95267","city":"Stockton","state":"CA","lat":38.0003,"long":-121.3174},{"zip":"95269","city":"Stockton","state":"CA","lat":38.0187,"long":-121.3225},{"zip":"95296","city":"Stockton","state":"CA","lat":37.9577,"long":-121.2908},{"zip":"95297","city":"Stockton","state":"CA","lat":38.0025,"long":-121.324},{"zip":"95304","city":"Tracy","state":"CA","lat":37.7319,"long":-121.4096},{"zip":"95320","city":"Escalon","state":"CA","lat":37.7983,"long":-121.0006},{"zip":"95330","city":"Lathrop","state":"CA","lat":37.8209,"long":-121.2827},{"zip":"95336","city":"Manteca","state":"CA","lat":37.8134,"long":-121.2132},{"zip":"95337","city":"Manteca","state":"CA","lat":37.7808,"long":-121.2344},{"zip":"95366","city":"Ripon","state":"CA","lat":37.7491,"long":-121.1284},{"zip":"95376","city":"Tracy","state":"CA","lat":37.7383,"long":-121.4345},{"zip":"95377","city":"Tracy","state":"CA","lat":37.6567,"long":-121.4955},{"zip":"95378","city":"Tracy","state":"CA","lat":37.6761,"long":-121.433},{"zip":"95385","city":"Vernalis","state":"CA","lat":37.6176,"long":-121.2581},{"zip":"95391","city":"Tracy","state":"CA","lat":37.7695,"long":-121.5397},{"zip":"95686","city":"Thornton","state":"CA","lat":38.2261,"long":-121.4236},{"zip":"95002","city":"Alviso","state":"CA","lat":37.426,"long":-121.9736},{"zip":"95008","city":"Campbell","state":"CA","lat":37.2803,"long":-121.9539},{"zip":"95009","city":"Campbell","state":"CA","lat":37.2872,"long":-121.9488},{"zip":"95011","city":"Campbell","state":"CA","lat":37.294,"long":-121.9571},{"zip":"95013","city":"Coyote","state":"CA","lat":37.2123,"long":-121.7416},{"zip":"95014","city":"Cupertino","state":"CA","lat":37.318,"long":-122.0449},{"zip":"95015","city":"Cupertino","state":"CA","lat":37.323,"long":-122.0527},{"zip":"95020","city":"Gilroy","state":"CA","lat":37.0139,"long":-121.5773},{"zip":"95021","city":"Gilroy","state":"CA","lat":37.0095,"long":-121.5705},{"zip":"95026","city":"Holy City","state":"CA","lat":37.1584,"long":-121.986},{"zip":"95030","city":"Los Gatos","state":"CA","lat":37.2296,"long":-121.9834},{"zip":"95031","city":"Los Gatos","state":"CA","lat":37.1574,"long":-121.9676},{"zip":"95032","city":"Los Gatos","state":"CA","lat":37.2417,"long":-121.9554},{"zip":"95033","city":"Los Gatos","state":"CA","lat":37.1539,"long":-121.9816},{"zip":"95035","city":"Milpitas","state":"CA","lat":37.4352,"long":-121.895},{"zip":"95036","city":"Milpitas","state":"CA","lat":37.424,"long":-121.906},{"zip":"95037","city":"Morgan Hill","state":"CA","lat":37.1353,"long":-121.6501},{"zip":"95038","city":"Morgan Hill","state":"CA","lat":37.1525,"long":-121.6722},{"zip":"95042","city":"New Almaden","state":"CA","lat":37.1771,"long":-121.8207},{"zip":"95044","city":"Redwood Estates","state":"CA","lat":37.1584,"long":-121.986},{"zip":"95046","city":"San Martin","state":"CA","lat":37.0911,"long":-121.5999},{"zip":"95050","city":"Santa Clara","state":"CA","lat":37.3492,"long":-121.953},{"zip":"95051","city":"Santa Clara","state":"CA","lat":37.3483,"long":-121.9844},{"zip":"95052","city":"Santa Clara","state":"CA","lat":37.3522,"long":-121.9583},{"zip":"95053","city":"Santa Clara","state":"CA","lat":37.3498,"long":-121.9378},{"zip":"95054","city":"Santa Clara","state":"CA","lat":37.3924,"long":-121.9623},{"zip":"95055","city":"Santa Clara","state":"CA","lat":37.3451,"long":-121.9769},{"zip":"95056","city":"Santa Clara","state":"CA","lat":37.3997,"long":-121.9608},{"zip":"95070","city":"Saratoga","state":"CA","lat":37.2713,"long":-122.0227},{"zip":"95071","city":"Saratoga","state":"CA","lat":37.2593,"long":-122.0302},{"zip":"95101","city":"San Jose","state":"CA","lat":37.3894,"long":-121.8868},{"zip":"95103","city":"San Jose","state":"CA","lat":37.3378,"long":-121.8908},{"zip":"95106","city":"San Jose","state":"CA","lat":37.3378,"long":-121.8908},{"zip":"95108","city":"San Jose","state":"CA","lat":37.3378,"long":-121.8908},{"zip":"95109","city":"San Jose","state":"CA","lat":37.3378,"long":-121.8908},{"zip":"95110","city":"San Jose","state":"CA","lat":37.3391,"long":-121.9016},{"zip":"95111","city":"San Jose","state":"CA","lat":37.2827,"long":-121.8265},{"zip":"95112","city":"San Jose","state":"CA","lat":37.3476,"long":-121.887},{"zip":"95113","city":"San Jose","state":"CA","lat":37.3329,"long":-121.8916},{"zip":"95115","city":"San Jose","state":"CA","lat":37.3378,"long":-121.8908},{"zip":"95116","city":"San Jose","state":"CA","lat":37.3518,"long":-121.8508},{"zip":"95117","city":"San Jose","state":"CA","lat":37.3108,"long":-121.9623},{"zip":"95118","city":"San Jose","state":"CA","lat":37.2568,"long":-121.8896},{"zip":"95119","city":"San Jose","state":"CA","lat":37.2329,"long":-121.7875},{"zip":"95120","city":"San Jose","state":"CA","lat":37.2144,"long":-121.8574},{"zip":"95121","city":"San Jose","state":"CA","lat":37.3042,"long":-121.8099},{"zip":"95122","city":"San Jose","state":"CA","lat":37.3293,"long":-121.8339},{"zip":"95123","city":"San Jose","state":"CA","lat":37.2458,"long":-121.8306},{"zip":"95124","city":"San Jose","state":"CA","lat":37.2563,"long":-121.9229},{"zip":"95125","city":"San Jose","state":"CA","lat":37.296,"long":-121.8939},{"zip":"95126","city":"San Jose","state":"CA","lat":37.3249,"long":-121.9153},{"zip":"95127","city":"San Jose","state":"CA","lat":37.3692,"long":-121.8208},{"zip":"95128","city":"San Jose","state":"CA","lat":37.3163,"long":-121.9356},{"zip":"95129","city":"San Jose","state":"CA","lat":37.3066,"long":-122.0002},{"zip":"95130","city":"San Jose","state":"CA","lat":37.2886,"long":-121.9818},{"zip":"95131","city":"San Jose","state":"CA","lat":37.3864,"long":-121.88},{"zip":"95132","city":"San Jose","state":"CA","lat":37.4031,"long":-121.8585},{"zip":"95133","city":"San Jose","state":"CA","lat":37.3729,"long":-121.856},{"zip":"95134","city":"San Jose","state":"CA","lat":37.4087,"long":-121.9406},{"zip":"95135","city":"San Jose","state":"CA","lat":37.2974,"long":-121.7562},{"zip":"95136","city":"San Jose","state":"CA","lat":37.2685,"long":-121.849},{"zip":"95138","city":"San Jose","state":"CA","lat":37.2602,"long":-121.7709},{"zip":"95139","city":"San Jose","state":"CA","lat":37.2252,"long":-121.7687},{"zip":"95140","city":"Mount Hamilton","state":"CA","lat":37.3511,"long":-121.6384},{"zip":"95141","city":"San Jose","state":"CA","lat":37.3394,"long":-121.895},{"zip":"95148","city":"San Jose","state":"CA","lat":37.3304,"long":-121.7913},{"zip":"95150","city":"San Jose","state":"CA","lat":37.3866,"long":-121.897},{"zip":"95151","city":"San Jose","state":"CA","lat":37.3198,"long":-121.8262},{"zip":"95152","city":"San Jose","state":"CA","lat":37.4022,"long":-121.847},{"zip":"95153","city":"San Jose","state":"CA","lat":37.2488,"long":-121.8459},{"zip":"95154","city":"San Jose","state":"CA","lat":37.2649,"long":-121.9139},{"zip":"95155","city":"San Jose","state":"CA","lat":37.31,"long":-121.9011},{"zip":"95156","city":"San Jose","state":"CA","lat":37.3576,"long":-121.8416},{"zip":"95157","city":"San Jose","state":"CA","lat":37.3008,"long":-121.9777},{"zip":"95158","city":"San Jose","state":"CA","lat":37.2625,"long":-121.8779},{"zip":"95159","city":"San Jose","state":"CA","lat":37.3179,"long":-121.9349},{"zip":"95160","city":"San Jose","state":"CA","lat":37.2187,"long":-121.8601},{"zip":"95161","city":"San Jose","state":"CA","lat":37.3894,"long":-121.8868},{"zip":"95164","city":"San Jose","state":"CA","lat":37.3916,"long":-121.9203},{"zip":"95170","city":"San Jose","state":"CA","lat":37.3103,"long":-122.0093},{"zip":"95172","city":"San Jose","state":"CA","lat":37.334,"long":-121.8847},{"zip":"95173","city":"San Jose","state":"CA","lat":37.3352,"long":-121.8938},{"zip":"95190","city":"San Jose","state":"CA","lat":37.3894,"long":-121.8868},{"zip":"95191","city":"San Jose","state":"CA","lat":37.3262,"long":-121.9158},{"zip":"95192","city":"San Jose","state":"CA","lat":37.3383,"long":-121.8801},{"zip":"95193","city":"San Jose","state":"CA","lat":37.2441,"long":-121.8287},{"zip":"95194","city":"San Jose","state":"CA","lat":37.3894,"long":-121.8868},{"zip":"95196","city":"San Jose","state":"CA","lat":37.3338,"long":-121.8894},{"zip":"95001","city":"Aptos","state":"CA","lat":36.979,"long":-121.898},{"zip":"95003","city":"Aptos","state":"CA","lat":36.9797,"long":-121.8902},{"zip":"95005","city":"Ben Lomond","state":"CA","lat":37.0882,"long":-122.0887},{"zip":"95006","city":"Boulder Creek","state":"CA","lat":37.1547,"long":-122.1365},{"zip":"95007","city":"Brookdale","state":"CA","lat":37.1063,"long":-122.105},{"zip":"95010","city":"Capitola","state":"CA","lat":36.9767,"long":-121.9555},{"zip":"95017","city":"Davenport","state":"CA","lat":37.0423,"long":-122.2137},{"zip":"95018","city":"Felton","state":"CA","lat":37.0662,"long":-122.0618},{"zip":"95019","city":"Freedom","state":"CA","lat":36.9356,"long":-121.7767},{"zip":"95041","city":"Mount Hermon","state":"CA","lat":37.0511,"long":-122.0575},{"zip":"95060","city":"Santa Cruz","state":"CA","lat":37.0313,"long":-122.1198},{"zip":"95061","city":"Santa Cruz","state":"CA","lat":36.9741,"long":-122.0308},{"zip":"95062","city":"Santa Cruz","state":"CA","lat":36.9721,"long":-121.9881},{"zip":"95063","city":"Santa Cruz","state":"CA","lat":36.9792,"long":-122.0088},{"zip":"95064","city":"Santa Cruz","state":"CA","lat":36.9959,"long":-122.0578},{"zip":"95065","city":"Santa Cruz","state":"CA","lat":37.0089,"long":-121.9849},{"zip":"95066","city":"Scotts Valley","state":"CA","lat":37.0597,"long":-122.0152},{"zip":"95067","city":"Scotts Valley","state":"CA","lat":37.0511,"long":-122.0136},{"zip":"95073","city":"Soquel","state":"CA","lat":37.0048,"long":-121.9507},{"zip":"95076","city":"Watsonville","state":"CA","lat":36.9102,"long":-121.7569},{"zip":"95077","city":"Watsonville","state":"CA","lat":36.9116,"long":-121.7575},{"zip":"95910","city":"Alleghany","state":"CA","lat":39.4826,"long":-120.8483},{"zip":"95936","city":"Downieville","state":"CA","lat":39.569,"long":-120.8344},{"zip":"95944","city":"Goodyears Bar","state":"CA","lat":39.5399,"long":-120.8844},{"zip":"95568","city":"Somes Bar","state":"CA","lat":41.4533,"long":-123.4634},{"zip":"95620","city":"Dixon","state":"CA","lat":38.4403,"long":-121.8088},{"zip":"95625","city":"Elmira","state":"CA","lat":38.3482,"long":-121.91},{"zip":"95687","city":"Vacaville","state":"CA","lat":38.3482,"long":-121.9538},{"zip":"95688","city":"Vacaville","state":"CA","lat":38.3847,"long":-121.9887},{"zip":"95696","city":"Vacaville","state":"CA","lat":38.43,"long":-122.0168},{"zip":"95401","city":"Santa Rosa","state":"CA","lat":38.4432,"long":-122.7547},{"zip":"95402","city":"Santa Rosa","state":"CA","lat":38.4399,"long":-122.7096},{"zip":"95403","city":"Santa Rosa","state":"CA","lat":38.4822,"long":-122.7473},{"zip":"95404","city":"Santa Rosa","state":"CA","lat":38.4534,"long":-122.6878},{"zip":"95405","city":"Santa Rosa","state":"CA","lat":38.4386,"long":-122.6727},{"zip":"95406","city":"Santa Rosa","state":"CA","lat":38.4399,"long":-122.7096},{"zip":"95407","city":"Santa Rosa","state":"CA","lat":38.4089,"long":-122.7339},{"zip":"95409","city":"Santa Rosa","state":"CA","lat":38.4592,"long":-122.6393},{"zip":"95412","city":"Annapolis","state":"CA","lat":38.7026,"long":-123.3539},{"zip":"95416","city":"Boyes Hot Springs","state":"CA","lat":38.3141,"long":-122.4843},{"zip":"95419","city":"Camp Meeker","state":"CA","lat":38.425,"long":-122.9485},{"zip":"95421","city":"Cazadero","state":"CA","lat":38.5918,"long":-123.1965},{"zip":"95425","city":"Cloverdale","state":"CA","lat":38.7931,"long":-123.0074},{"zip":"95430","city":"Duncans Mills","state":"CA","lat":38.3929,"long":-123.0057},{"zip":"95431","city":"Eldridge","state":"CA","lat":38.3348,"long":-122.5055},{"zip":"95433","city":"El Verano","state":"CA","lat":38.2993,"long":-122.4867},{"zip":"95436","city":"Forestville","state":"CA","lat":38.4923,"long":-122.9042},{"zip":"95439","city":"Fulton","state":"CA","lat":38.4947,"long":-122.7761},{"zip":"95441","city":"Geyserville","state":"CA","lat":38.7173,"long":-122.8834},{"zip":"95442","city":"Glen Ellen","state":"CA","lat":38.3662,"long":-122.5196},{"zip":"95444","city":"Graton","state":"CA","lat":38.4335,"long":-122.8676},{"zip":"95446","city":"Guerneville","state":"CA","lat":38.5055,"long":-122.9965},{"zip":"95448","city":"Healdsburg","state":"CA","lat":38.6184,"long":-122.862},{"zip":"95450","city":"Jenner","state":"CA","lat":38.4987,"long":-123.1974},{"zip":"95452","city":"Kenwood","state":"CA","lat":38.4168,"long":-122.5547},{"zip":"95462","city":"Monte Rio","state":"CA","lat":38.4706,"long":-123.0172},{"zip":"95465","city":"Occidental","state":"CA","lat":38.4087,"long":-122.9954},{"zip":"95471","city":"Rio Nido","state":"CA","lat":38.4905,"long":-123.0331},{"zip":"95472","city":"Sebastopol","state":"CA","lat":38.3941,"long":-122.8433},{"zip":"95473","city":"Sebastopol","state":"CA","lat":38.4022,"long":-122.8227},{"zip":"95476","city":"Sonoma","state":"CA","lat":38.2849,"long":-122.4696},{"zip":"95480","city":"Stewarts Point","state":"CA","lat":38.7082,"long":-123.3478},{"zip":"95486","city":"Villa Grande","state":"CA","lat":38.4741,"long":-123.0242},{"zip":"95487","city":"Vineburg","state":"CA","lat":38.2725,"long":-122.4375},{"zip":"95492","city":"Windsor","state":"CA","lat":38.5443,"long":-122.8073},{"zip":"95497","city":"The Sea Ranch","state":"CA","lat":38.7256,"long":-123.4675},{"zip":"95307","city":"Ceres","state":"CA","lat":37.5833,"long":-120.9496},{"zip":"95313","city":"Crows Landing","state":"CA","lat":37.4218,"long":-121.0411},{"zip":"95316","city":"Denair","state":"CA","lat":37.539,"long":-120.7758},{"zip":"95319","city":"Empire","state":"CA","lat":37.6382,"long":-120.9005},{"zip":"95323","city":"Hickman","state":"CA","lat":37.6156,"long":-120.7011},{"zip":"95326","city":"Hughson","state":"CA","lat":37.5964,"long":-120.8627},{"zip":"95328","city":"Keyes","state":"CA","lat":37.5591,"long":-120.9148},{"zip":"95329","city":"La Grange","state":"CA","lat":37.6899,"long":-120.3851},{"zip":"95350","city":"Modesto","state":"CA","lat":37.6746,"long":-121.0113},{"zip":"95351","city":"Modesto","state":"CA","lat":37.6236,"long":-120.9966},{"zip":"95352","city":"Modesto","state":"CA","lat":37.6566,"long":-121.0191},{"zip":"95353","city":"Modesto","state":"CA","lat":37.6424,"long":-120.9999},{"zip":"95354","city":"Modesto","state":"CA","lat":37.6409,"long":-120.9749},{"zip":"95355","city":"Modesto","state":"CA","lat":37.6717,"long":-120.9482},{"zip":"95356","city":"Modesto","state":"CA","lat":37.7005,"long":-121.0252},{"zip":"95357","city":"Modesto","state":"CA","lat":37.6693,"long":-120.8817},{"zip":"95358","city":"Modesto","state":"CA","lat":37.6237,"long":-121.0438},{"zip":"95360","city":"Newman","state":"CA","lat":37.3097,"long":-121.0805},{"zip":"95361","city":"Oakdale","state":"CA","lat":37.7741,"long":-120.8377},{"zip":"95363","city":"Patterson","state":"CA","lat":37.4826,"long":-121.1648},{"zip":"95367","city":"Riverbank","state":"CA","lat":37.7298,"long":-120.942},{"zip":"95368","city":"Salida","state":"CA","lat":37.7083,"long":-121.0864},{"zip":"95380","city":"Turlock","state":"CA","lat":37.4888,"long":-120.8535},{"zip":"95381","city":"Turlock","state":"CA","lat":37.4994,"long":-120.8428},{"zip":"95382","city":"Turlock","state":"CA","lat":37.5239,"long":-120.8517},{"zip":"95386","city":"Waterford","state":"CA","lat":37.652,"long":-120.7292},{"zip":"95387","city":"Westley","state":"CA","lat":37.5452,"long":-121.2255},{"zip":"95397","city":"Modesto","state":"CA","lat":37.6566,"long":-121.0191},{"zip":"95659","city":"Nicolaus","state":"CA","lat":38.8657,"long":-121.557},{"zip":"95668","city":"Pleasant Grove","state":"CA","lat":38.8115,"long":-121.4982},{"zip":"95674","city":"Rio Oso","state":"CA","lat":38.967,"long":-121.4773},{"zip":"95676","city":"Robbins","state":"CA","lat":38.8702,"long":-121.7052},{"zip":"95953","city":"Live Oak","state":"CA","lat":39.2601,"long":-121.6923},{"zip":"95957","city":"Meridian","state":"CA","lat":39.052,"long":-121.8061},{"zip":"95982","city":"Sutter","state":"CA","lat":39.1779,"long":-121.7758},{"zip":"95991","city":"Yuba City","state":"CA","lat":39.1051,"long":-121.6202},{"zip":"95992","city":"Yuba City","state":"CA","lat":39.023,"long":-121.6116},{"zip":"95993","city":"Yuba City","state":"CA","lat":39.1237,"long":-121.6611},{"zip":"95527","city":"Burnt Ranch","state":"CA","lat":40.7897,"long":-123.4113},{"zip":"95552","city":"Mad River","state":"CA","lat":40.3316,"long":-123.3904},{"zip":"95563","city":"Salyer","state":"CA","lat":40.8558,"long":-123.573},{"zip":"95595","city":"Zenia","state":"CA","lat":40.2147,"long":-123.3911},{"zip":"95305","city":"Big Oak Flat","state":"CA","lat":37.8235,"long":-120.2582},{"zip":"95309","city":"Chinese Camp","state":"CA","lat":37.8594,"long":-120.4069},{"zip":"95310","city":"Columbia","state":"CA","lat":38.044,"long":-120.3971},{"zip":"95321","city":"Groveland","state":"CA","lat":37.8298,"long":-120.1037},{"zip":"95327","city":"Jamestown","state":"CA","lat":37.8906,"long":-120.4717},{"zip":"95335","city":"Long Barn","state":"CA","lat":38.093,"long":-120.1344},{"zip":"95346","city":"Mi Wuk Village","state":"CA","lat":38.0675,"long":-120.1794},{"zip":"95347","city":"Moccasin","state":"CA","lat":37.8108,"long":-120.2988},{"zip":"95364","city":"Pinecrest","state":"CA","lat":38.1889,"long":-119.9924},{"zip":"95370","city":"Sonora","state":"CA","lat":37.9957,"long":-120.3368},{"zip":"95372","city":"Soulsbyville","state":"CA","lat":37.9926,"long":-120.2624},{"zip":"95373","city":"Standard","state":"CA","lat":37.9666,"long":-120.3108},{"zip":"95375","city":"Strawberry","state":"CA","lat":38.2042,"long":-120.0101},{"zip":"95379","city":"Tuolumne","state":"CA","lat":37.9678,"long":-120.2357},{"zip":"95383","city":"Twain Harte","state":"CA","lat":38.0454,"long":-120.2178},{"zip":"95605","city":"West Sacramento","state":"CA","lat":38.5927,"long":-121.5325},{"zip":"95606","city":"Brooks","state":"CA","lat":38.8065,"long":-122.2039},{"zip":"95607","city":"Capay","state":"CA","lat":38.7209,"long":-122.0912},{"zip":"95612","city":"Clarksburg","state":"CA","lat":38.3945,"long":-121.5641},{"zip":"95616","city":"Davis","state":"CA","lat":38.5538,"long":-121.7418},{"zip":"95617","city":"Davis","state":"CA","lat":38.5494,"long":-121.7253},{"zip":"95618","city":"Davis","state":"CA","lat":38.5449,"long":-121.7405},{"zip":"95627","city":"Esparto","state":"CA","lat":38.7061,"long":-122.0152},{"zip":"95637","city":"Guinda","state":"CA","lat":38.8407,"long":-122.2036},{"zip":"95645","city":"Knights Landing","state":"CA","lat":38.8517,"long":-121.7334},{"zip":"95653","city":"Madison","state":"CA","lat":38.6802,"long":-121.9721},{"zip":"95679","city":"Rumsey","state":"CA","lat":38.8953,"long":-122.3079},{"zip":"95691","city":"West Sacramento","state":"CA","lat":38.5673,"long":-121.5516},{"zip":"95694","city":"Winters","state":"CA","lat":38.5322,"long":-121.9676},{"zip":"95695","city":"Woodland","state":"CA","lat":38.6816,"long":-121.8052},{"zip":"95697","city":"Yolo","state":"CA","lat":38.7343,"long":-121.8066},{"zip":"95698","city":"Zamora","state":"CA","lat":38.8204,"long":-121.9191},{"zip":"95776","city":"Woodland","state":"CA","lat":38.6808,"long":-121.7411},{"zip":"95798","city":"West Sacramento","state":"CA","lat":38.5805,"long":-121.5291},{"zip":"95799","city":"West Sacramento","state":"CA","lat":38.5713,"long":-121.5715},{"zip":"95937","city":"Dunnigan","state":"CA","lat":38.887,"long":-121.9992},{"zip":"95692","city":"Wheatland","state":"CA","lat":39.0337,"long":-121.4235},{"zip":"95901","city":"Marysville","state":"CA","lat":39.1663,"long":-121.5105},{"zip":"95903","city":"Beale Afb","state":"CA","lat":39.1115,"long":-121.3604},{"zip":"95918","city":"Browns Valley","state":"CA","lat":39.2882,"long":-121.3303},{"zip":"95919","city":"Brownsville","state":"CA","lat":39.4525,"long":-121.2612},{"zip":"95922","city":"Camptonville","state":"CA","lat":39.4518,"long":-121.0486},{"zip":"95925","city":"Challenge","state":"CA","lat":39.4685,"long":-121.1936},{"zip":"95935","city":"Dobbins","state":"CA","lat":39.3662,"long":-121.2256},{"zip":"95961","city":"Olivehurst","state":"CA","lat":39.0861,"long":-121.5497},{"zip":"95962","city":"Oregon House","state":"CA","lat":39.3459,"long":-121.2663},{"zip":"95972","city":"Rackerby","state":"CA","lat":39.4256,"long":-121.3252},{"zip":"95981","city":"Strawberry Valley","state":"CA","lat":39.687,"long":-121.045}]
