[{"zip":"95004","city":"Aromas","state":"CA","lat":36.8769,"long":-121.6324},{"zip":"95012","city":"Castroville","state":"CA","lat":36.7658,"long":-121.758},{"zip":"95039","city":"Moss Landing","state":"CA","lat":36.8175,"long":-121.7773},{"zip":"95023","city":"Hollister","state":"CA","lat":36.8337,"long":-121.3439},{"zip":"95024","city":"Hollister","state":"CA","lat":36.8586,"long":-121.3982},{"zip":"95043","city":"Paicines","state":"CA","lat":36.4985,"long":-120.9744},{"zip":"95045","city":"San Juan Bautista","state":"CA","lat":36.8463,"long":-121.5346},{"zip":"95075","city":"Tres Pinos","state":"CA","lat":36.767,"long":-121.3017},{"zip":"95002","city":"Alviso","state":"CA","lat":37.426,"long":-121.9736},{"zip":"95008","city":"Campbell","state":"CA","lat":37.2803,"long":-121.9539},{"zip":"95009","city":"Campbell","state":"CA","lat":37.2872,"long":-121.9488},{"zip":"95011","city":"Campbell","state":"CA","lat":37.294,"long":-121.9571},{"zip":"95013","city":"Coyote","state":"CA","lat":37.2123,"long":-121.7416},{"zip":"95014","city":"Cupertino","state":"CA","lat":37.318,"long":-122.0449},{"zip":"95015","city":"Cupertino","state":"CA","lat":37.323,"long":-122.0527},{"zip":"95020","city":"Gilroy","state":"CA","lat":37.0139,"long":-121.5773},{"zip":"95021","city":"Gilroy","state":"CA","lat":37.0095,"long":-121.5705},{"zip":"95026","city":"Holy City","state":"CA","lat":37.1584,"long":-121.986},{"zip":"95030","city":"Los Gatos","state":"CA","lat":37.2296,"long":-121.9834},{"zip":"95031","city":"Los Gatos","state":"CA","lat":37.1574,"long":-121.9676},{"zip":"95032","city":"Los Gatos","state":"CA","lat":37.2417,"long":-121.9554},{"zip":"95033","city":"Los Gatos","state":"CA","lat":37.1539,"long":-121.9816},{"zip":"95035","city":"Milpitas","state":"CA","lat":37.4352,"long":-121.895},{"zip":"95036","city":"Milpitas","state":"CA","lat":37.424,"long":-121.906},{"zip":"95037","city":"Morgan Hill","state":"CA","lat":37.1353,"long":-121.6501},{"zip":"95038","city":"Morgan Hill","state":"CA","lat":37.1525,"long":-121.6722},{"zip":"95042","city":"New Almaden","state":"CA","lat":37.1771,"long":-121.8207},{"zip":"95044","city":"Redwood Estates","state":"CA","lat":37.1584,"long":-121.986},{"zip":"95046","city":"San Martin","state":"CA","lat":37.0911,"long":-121.5999},{"zip":"95050","city":"Santa Clara","state":"CA","lat":37.3492,"long":-121.953},{"zip":"95051","city":"Santa Clara","state":"CA","lat":37.3483,"long":-121.9844},{"zip":"95052","city":"Santa Clara","state":"CA","lat":37.3522,"long":-121.9583},{"zip":"95053","city":"Santa Clara","state":"CA","lat":37.3498,"long":-121.9378},{"zip":"95054","city":"Santa Clara","state":"CA","lat":37.3924,"long":-121.9623},{"zip":"95055","city":"Santa Clara","state":"CA","lat":37.3451,"long":-121.9769},{"zip":"95056","city":"Santa Clara","state":"CA","lat":37.3997,"long":-121.9608},{"zip":"95070","city":"Saratoga","state":"CA","lat":37.2713,"long":-122.0227},{"zip":"95071","city":"Saratoga","state":"CA","lat":37.2593,"long":-122.0302},{"zip":"95001","city":"Aptos","state":"CA","lat":36.979,"long":-121.898},{"zip":"95003","city":"Aptos","state":"CA","lat":36.9797,"long":-121.8902},{"zip":"95005","city":"Ben Lomond","state":"CA","lat":37.0882,"long":-122.0887},{"zip":"95006","city":"Boulder Creek","state":"CA","lat":37.1547,"long":-122.1365},{"zip":"95007","city":"Brookdale","state":"CA","lat":37.1063,"long":-122.105},{"zip":"95010","city":"Capitola","state":"CA","lat":36.9767,"long":-121.9555},{"zip":"95017","city":"Davenport","state":"CA","lat":37.0423,"long":-122.2137},{"zip":"95018","city":"Felton","state":"CA","lat":37.0662,"long":-122.0618},{"zip":"95019","city":"Freedom","state":"CA","lat":36.9356,"long":-121.7767},{"zip":"95041","city":"Mount Hermon","state":"CA","lat":37.0511,"long":-122.0575},{"zip":"95060","city":"Santa Cruz","state":"CA","lat":37.0313,"long":-122.1198},{"zip":"95061","city":"Santa Cruz","state":"CA","lat":36.9741,"long":-122.0308},{"zip":"95062","city":"Santa Cruz","state":"CA","lat":36.9721,"long":-121.9881},{"zip":"95063","city":"Santa Cruz","state":"CA","lat":36.9792,"long":-122.0088},{"zip":"95064","city":"Santa Cruz","state":"CA","lat":36.9959,"long":-122.0578},{"zip":"95065","city":"Santa Cruz","state":"CA","lat":37.0089,"long":-121.9849},{"zip":"95066","city":"Scotts Valley","state":"CA","lat":37.0597,"long":-122.0152},{"zip":"95067","city":"Scotts Valley","state":"CA","lat":37.0511,"long":-122.0136},{"zip":"95073","city":"Soquel","state":"CA","lat":37.0048,"long":-121.9507},{"zip":"95076","city":"Watsonville","state":"CA","lat":36.9102,"long":-121.7569},{"zip":"95077","city":"Watsonville","state":"CA","lat":36.9116,"long":-121.7575}]
