[{"zip":"95101","city":"San Jose","state":"CA","lat":37.3894,"long":-121.8868},{"zip":"95103","city":"San Jose","state":"CA","lat":37.3378,"long":-121.8908},{"zip":"95106","city":"San Jose","state":"CA","lat":37.3378,"long":-121.8908},{"zip":"95108","city":"San Jose","state":"CA","lat":37.3378,"long":-121.8908},{"zip":"95109","city":"San Jose","state":"CA","lat":37.3378,"long":-121.8908},{"zip":"95110","city":"San Jose","state":"CA","lat":37.3391,"long":-121.9016},{"zip":"95111","city":"San Jose","state":"CA","lat":37.2827,"long":-121.8265},{"zip":"95112","city":"San Jose","state":"CA","lat":37.3476,"long":-121.887},{"zip":"95113","city":"San Jose","state":"CA","lat":37.3329,"long":-121.8916},{"zip":"95115","city":"San Jose","state":"CA","lat":37.3378,"long":-121.8908},{"zip":"95116","city":"San Jose","state":"CA","lat":37.3518,"long":-121.8508},{"zip":"95117","city":"San Jose","state":"CA","lat":37.3108,"long":-121.9623},{"zip":"95118","city":"San Jose","state":"CA","lat":37.2568,"long":-121.8896},{"zip":"95119","city":"San Jose","state":"CA","lat":37.2329,"long":-121.7875},{"zip":"95120","city":"San Jose","state":"CA","lat":37.2144,"long":-121.8574},{"zip":"95121","city":"San Jose","state":"CA","lat":37.3042,"long":-121.8099},{"zip":"95122","city":"San Jose","state":"CA","lat":37.3293,"long":-121.8339},{"zip":"95123","city":"San Jose","state":"CA","lat":37.2458,"long":-121.8306},{"zip":"95124","city":"San Jose","state":"CA","lat":37.2563,"long":-121.9229},{"zip":"95125","city":"San Jose","state":"CA","lat":37.296,"long":-121.8939},{"zip":"95126","city":"San Jose","state":"CA","lat":37.3249,"long":-121.9153},{"zip":"95127","city":"San Jose","state":"CA","lat":37.3692,"long":-121.8208},{"zip":"95128","city":"San Jose","state":"CA","lat":37.3163,"long":-121.9356},{"zip":"95129","city":"San Jose","state":"CA","lat":37.3066,"long":-122.0002},{"zip":"95130","city":"San Jose","state":"CA","lat":37.2886,"long":-121.9818},{"zip":"95131","city":"San Jose","state":"CA","lat":37.3864,"long":-121.88},{"zip":"95132","city":"San Jose","state":"CA","lat":37.4031,"long":-121.8585},{"zip":"95133","city":"San Jose","state":"CA","lat":37.3729,"long":-121.856},{"zip":"95134","city":"San Jose","state":"CA","lat":37.4087,"long":-121.9406},{"zip":"95135","city":"San Jose","state":"CA","lat":37.2974,"long":-121.7562},{"zip":"95136","city":"San Jose","state":"CA","lat":37.2685,"long":-121.849},{"zip":"95138","city":"San Jose","state":"CA","lat":37.2602,"long":-121.7709},{"zip":"95139","city":"San Jose","state":"CA","lat":37.2252,"long":-121.7687},{"zip":"95140","city":"Mount Hamilton","state":"CA","lat":37.3511,"long":-121.6384},{"zip":"95141","city":"San Jose","state":"CA","lat":37.3394,"long":-121.895},{"zip":"95148","city":"San Jose","state":"CA","lat":37.3304,"long":-121.7913},{"zip":"95150","city":"San Jose","state":"CA","lat":37.3866,"long":-121.897},{"zip":"95151","city":"San Jose","state":"CA","lat":37.3198,"long":-121.8262},{"zip":"95152","city":"San Jose","state":"CA","lat":37.4022,"long":-121.847},{"zip":"95153","city":"San Jose","state":"CA","lat":37.2488,"long":-121.8459},{"zip":"95154","city":"San Jose","state":"CA","lat":37.2649,"long":-121.9139},{"zip":"95155","city":"San Jose","state":"CA","lat":37.31,"long":-121.9011},{"zip":"95156","city":"San Jose","state":"CA","lat":37.3576,"long":-121.8416},{"zip":"95157","city":"San Jose","state":"CA","lat":37.3008,"long":-121.9777},{"zip":"95158","city":"San Jose","state":"CA","lat":37.2625,"long":-121.8779},{"zip":"95159","city":"San Jose","state":"CA","lat":37.3179,"long":-121.9349},{"zip":"95160","city":"San Jose","state":"CA","lat":37.2187,"long":-121.8601},{"zip":"95161","city":"San Jose","state":"CA","lat":37.3894,"long":-121.8868},{"zip":"95164","city":"San Jose","state":"CA","lat":37.3916,"long":-121.9203},{"zip":"95170","city":"San Jose","state":"CA","lat":37.3103,"long":-122.0093},{"zip":"95172","city":"San Jose","state":"CA","lat":37.334,"long":-121.8847},{"zip":"95173","city":"San Jose","state":"CA","lat":37.3352,"long":-121.8938},{"zip":"95190","city":"San Jose","state":"CA","lat":37.3894,"long":-121.8868},{"zip":"95191","city":"San Jose","state":"CA","lat":37.3262,"long":-121.9158},{"zip":"95192","city":"San Jose","state":"CA","lat":37.3383,"long":-121.8801},{"zip":"95193","city":"San Jose","state":"CA","lat":37.2441,"long":-121.8287},{"zip":"95194","city":"San Jose","state":"CA","lat":37.3894,"long":-121.8868},{"zip":"95196","city":"San Jose","state":"CA","lat":37.3338,"long":-121.8894}]
