[{"zip":"95221","city":"Altaville","state":"CA","lat":38.0838,"long":-120.5608},{"zip":"95222","city":"Angels Camp","state":"CA","lat":38.071,"long":-120.5722},{"zip":"95223","city":"Arnold","state":"CA","lat":38.3086,"long":-120.268},{"zip":"95224","city":"Avery","state":"CA","lat":38.2044,"long":-120.3688},{"zip":"95225","city":"Burson","state":"CA","lat":38.1838,"long":-120.8894},{"zip":"95226","city":"Campo Seco","state":"CA","lat":38.2271,"long":-120.8533},{"zip":"95228","city":"Copperopolis","state":"CA","lat":37.944,"long":-120.6423},{"zip":"95229","city":"Douglas Flat","state":"CA","lat":38.1144,"long":-120.4538},{"zip":"95232","city":"Glencoe","state":"CA","lat":38.3554,"long":-120.5778},{"zip":"95233","city":"Hathaway Pines","state":"CA","lat":38.1919,"long":-120.3644},{"zip":"95245","city":"Mokelumne Hill","state":"CA","lat":38.3152,"long":-120.5591},{"zip":"95246","city":"Mountain Ranch","state":"CA","lat":38.2328,"long":-120.4994},{"zip":"95247","city":"Murphys","state":"CA","lat":38.1345,"long":-120.4516},{"zip":"95248","city":"Rail Road Flat","state":"CA","lat":38.3405,"long":-120.5161},{"zip":"95249","city":"San Andreas","state":"CA","lat":38.1904,"long":-120.6441},{"zip":"95251","city":"Vallecito","state":"CA","lat":38.1013,"long":-120.4676},{"zip":"95252","city":"Valley Springs","state":"CA","lat":38.162,"long":-120.8572},{"zip":"95254","city":"Wallace","state":"CA","lat":38.1983,"long":-120.9793},{"zip":"95255","city":"West Point","state":"CA","lat":38.4197,"long":-120.4759},{"zip":"95257","city":"Wilseyville","state":"CA","lat":38.3793,"long":-120.4627},{"zip":"95201","city":"Stockton","state":"CA","lat":37.958,"long":-121.2876},{"zip":"95202","city":"Stockton","state":"CA","lat":37.9606,"long":-121.2871},{"zip":"95203","city":"Stockton","state":"CA","lat":37.9532,"long":-121.3116},{"zip":"95204","city":"Stockton","state":"CA","lat":37.9743,"long":-121.3154},{"zip":"95205","city":"Stockton","state":"CA","lat":37.9625,"long":-121.2624},{"zip":"95206","city":"Stockton","state":"CA","lat":37.9177,"long":-121.3123},{"zip":"95207","city":"Stockton","state":"CA","lat":38.0024,"long":-121.3238},{"zip":"95208","city":"Stockton","state":"CA","lat":37.9304,"long":-121.436},{"zip":"95209","city":"Stockton","state":"CA","lat":38.0377,"long":-121.3445},{"zip":"95210","city":"Stockton","state":"CA","lat":38.025,"long":-121.2972},{"zip":"95211","city":"Stockton","state":"CA","lat":37.9809,"long":-121.311},{"zip":"95212","city":"Stockton","state":"CA","lat":38.0315,"long":-121.2589},{"zip":"95213","city":"Stockton","state":"CA","lat":37.9054,"long":-121.2222},{"zip":"95215","city":"Stockton","state":"CA","lat":37.9551,"long":-121.2041},{"zip":"95219","city":"Stockton","state":"CA","lat":38.01,"long":-121.3698},{"zip":"95220","city":"Acampo","state":"CA","lat":38.2004,"long":-121.2186},{"zip":"95227","city":"Clements","state":"CA","lat":38.1929,"long":-121.0811},{"zip":"95230","city":"Farmington","state":"CA","lat":37.9299,"long":-121.0002},{"zip":"95231","city":"French Camp","state":"CA","lat":37.878,"long":-121.2827},{"zip":"95234","city":"Holt","state":"CA","lat":37.9344,"long":-121.4261},{"zip":"95236","city":"Linden","state":"CA","lat":38.032,"long":-121.0493},{"zip":"95237","city":"Lockeford","state":"CA","lat":38.1613,"long":-121.1424},{"zip":"95240","city":"Lodi","state":"CA","lat":38.1222,"long":-121.2555},{"zip":"95241","city":"Lodi","state":"CA","lat":38.1327,"long":-121.2724},{"zip":"95242","city":"Lodi","state":"CA","lat":38.1308,"long":-121.3345},{"zip":"95253","city":"Victor","state":"CA","lat":38.138,"long":-121.205},{"zip":"95258","city":"Woodbridge","state":"CA","lat":38.1551,"long":-121.3086},{"zip":"95267","city":"Stockton","state":"CA","lat":38.0003,"long":-121.3174},{"zip":"95269","city":"Stockton","state":"CA","lat":38.0187,"long":-121.3225},{"zip":"95296","city":"Stockton","state":"CA","lat":37.9577,"long":-121.2908},{"zip":"95297","city":"Stockton","state":"CA","lat":38.0025,"long":-121.324}]
