[{"zip":"95306","city":"Catheys Valley","state":"CA","lat":37.4404,"long":-120.1438},{"zip":"95311","city":"Coulterville","state":"CA","lat":37.7197,"long":-120.1197},{"zip":"95318","city":"El Portal","state":"CA","lat":37.6747,"long":-119.7841},{"zip":"95325","city":"Hornitos","state":"CA","lat":37.4676,"long":-120.2793},{"zip":"95338","city":"Mariposa","state":"CA","lat":37.4931,"long":-119.9219},{"zip":"95345","city":"Midpines","state":"CA","lat":37.5757,"long":-119.9601},{"zip":"95389","city":"Yosemite National Park","state":"CA","lat":37.7314,"long":-119.6489},{"zip":"95301","city":"Atwater","state":"CA","lat":37.3489,"long":-120.6028},{"zip":"95303","city":"Ballico","state":"CA","lat":37.4548,"long":-120.6931},{"zip":"95312","city":"Cressey","state":"CA","lat":37.4197,"long":-120.6663},{"zip":"95315","city":"Delhi","state":"CA","lat":37.4273,"long":-120.7752},{"zip":"95317","city":"El Nido","state":"CA","lat":37.1391,"long":-120.5251},{"zip":"95322","city":"Gustine","state":"CA","lat":37.2001,"long":-121.0047},{"zip":"95324","city":"Hilmar","state":"CA","lat":37.4002,"long":-120.8723},{"zip":"95333","city":"Le Grand","state":"CA","lat":37.2496,"long":-120.2667},{"zip":"95334","city":"Livingston","state":"CA","lat":37.3763,"long":-120.7252},{"zip":"95340","city":"Merced","state":"CA","lat":37.2983,"long":-120.4649},{"zip":"95341","city":"Merced","state":"CA","lat":37.2308,"long":-120.5144},{"zip":"95343","city":"Merced","state":"CA","lat":37.3082,"long":-120.48},{"zip":"95344","city":"Merced","state":"CA","lat":37.3082,"long":-120.48},{"zip":"95348","city":"Merced","state":"CA","lat":37.3302,"long":-120.508},{"zip":"95365","city":"Planada","state":"CA","lat":37.2908,"long":-120.3185},{"zip":"95369","city":"Snelling","state":"CA","lat":37.5354,"long":-120.378},{"zip":"95374","city":"Stevinson","state":"CA","lat":37.3283,"long":-120.8764},{"zip":"95388","city":"Winton","state":"CA","lat":37.4014,"long":-120.6045},{"zip":"95304","city":"Tracy","state":"CA","lat":37.7319,"long":-121.4096},{"zip":"95320","city":"Escalon","state":"CA","lat":37.7983,"long":-121.0006},{"zip":"95330","city":"Lathrop","state":"CA","lat":37.8209,"long":-121.2827},{"zip":"95336","city":"Manteca","state":"CA","lat":37.8134,"long":-121.2132},{"zip":"95337","city":"Manteca","state":"CA","lat":37.7808,"long":-121.2344},{"zip":"95366","city":"Ripon","state":"CA","lat":37.7491,"long":-121.1284},{"zip":"95376","city":"Tracy","state":"CA","lat":37.7383,"long":-121.4345},{"zip":"95377","city":"Tracy","state":"CA","lat":37.6567,"long":-121.4955},{"zip":"95378","city":"Tracy","state":"CA","lat":37.6761,"long":-121.433},{"zip":"95385","city":"Vernalis","state":"CA","lat":37.6176,"long":-121.2581},{"zip":"95391","city":"Tracy","state":"CA","lat":37.7695,"long":-121.5397},{"zip":"95307","city":"Ceres","state":"CA","lat":37.5833,"long":-120.9496},{"zip":"95313","city":"Crows Landing","state":"CA","lat":37.4218,"long":-121.0411},{"zip":"95316","city":"Denair","state":"CA","lat":37.539,"long":-120.7758},{"zip":"95319","city":"Empire","state":"CA","lat":37.6382,"long":-120.9005},{"zip":"95323","city":"Hickman","state":"CA","lat":37.6156,"long":-120.7011},{"zip":"95326","city":"Hughson","state":"CA","lat":37.5964,"long":-120.8627},{"zip":"95328","city":"Keyes","state":"CA","lat":37.5591,"long":-120.9148},{"zip":"95329","city":"La Grange","state":"CA","lat":37.6899,"long":-120.3851},{"zip":"95350","city":"Modesto","state":"CA","lat":37.6746,"long":-121.0113},{"zip":"95351","city":"Modesto","state":"CA","lat":37.6236,"long":-120.9966},{"zip":"95352","city":"Modesto","state":"CA","lat":37.6566,"long":-121.0191},{"zip":"95353","city":"Modesto","state":"CA","lat":37.6424,"long":-120.9999},{"zip":"95354","city":"Modesto","state":"CA","lat":37.6409,"long":-120.9749},{"zip":"95355","city":"Modesto","state":"CA","lat":37.6717,"long":-120.9482},{"zip":"95356","city":"Modesto","state":"CA","lat":37.7005,"long":-121.0252},{"zip":"95357","city":"Modesto","state":"CA","lat":37.6693,"long":-120.8817},{"zip":"95358","city":"Modesto","state":"CA","lat":37.6237,"long":-121.0438},{"zip":"95360","city":"Newman","state":"CA","lat":37.3097,"long":-121.0805},{"zip":"95361","city":"Oakdale","state":"CA","lat":37.7741,"long":-120.8377},{"zip":"95363","city":"Patterson","state":"CA","lat":37.4826,"long":-121.1648},{"zip":"95367","city":"Riverbank","state":"CA","lat":37.7298,"long":-120.942},{"zip":"95368","city":"Salida","state":"CA","lat":37.7083,"long":-121.0864},{"zip":"95380","city":"Turlock","state":"CA","lat":37.4888,"long":-120.8535},{"zip":"95381","city":"Turlock","state":"CA","lat":37.4994,"long":-120.8428},{"zip":"95382","city":"Turlock","state":"CA","lat":37.5239,"long":-120.8517},{"zip":"95386","city":"Waterford","state":"CA","lat":37.652,"long":-120.7292},{"zip":"95387","city":"Westley","state":"CA","lat":37.5452,"long":-121.2255},{"zip":"95397","city":"Modesto","state":"CA","lat":37.6566,"long":-121.0191},{"zip":"95305","city":"Big Oak Flat","state":"CA","lat":37.8235,"long":-120.2582},{"zip":"95309","city":"Chinese Camp","state":"CA","lat":37.8594,"long":-120.4069},{"zip":"95310","city":"Columbia","state":"CA","lat":38.044,"long":-120.3971},{"zip":"95321","city":"Groveland","state":"CA","lat":37.8298,"long":-120.1037},{"zip":"95327","city":"Jamestown","state":"CA","lat":37.8906,"long":-120.4717},{"zip":"95335","city":"Long Barn","state":"CA","lat":38.093,"long":-120.1344},{"zip":"95346","city":"Mi Wuk Village","state":"CA","lat":38.0675,"long":-120.1794},{"zip":"95347","city":"Moccasin","state":"CA","lat":37.8108,"long":-120.2988},{"zip":"95364","city":"Pinecrest","state":"CA","lat":38.1889,"long":-119.9924},{"zip":"95370","city":"Sonora","state":"CA","lat":37.9957,"long":-120.3368},{"zip":"95372","city":"Soulsbyville","state":"CA","lat":37.9926,"long":-120.2624},{"zip":"95373","city":"Standard","state":"CA","lat":37.9666,"long":-120.3108},{"zip":"95375","city":"Strawberry","state":"CA","lat":38.2042,"long":-120.0101},{"zip":"95379","city":"Tuolumne","state":"CA","lat":37.9678,"long":-120.2357},{"zip":"95383","city":"Twain Harte","state":"CA","lat":38.0454,"long":-120.2178}]
