[{"zip":"95422","city":"Clearlake","state":"CA","lat":38.9576,"long":-122.636},{"zip":"95423","city":"Clearlake Oaks","state":"CA","lat":39.0664,"long":-122.6558},{"zip":"95424","city":"Clearlake Park","state":"CA","lat":38.9666,"long":-122.65},{"zip":"95426","city":"Cobb","state":"CA","lat":38.8155,"long":-122.7132},{"zip":"95435","city":"Finley","state":"CA","lat":38.9639,"long":-122.9009},{"zip":"95443","city":"Glenhaven","state":"CA","lat":39.0263,"long":-122.733},{"zip":"95451","city":"Kelseyville","state":"CA","lat":38.9421,"long":-122.7777},{"zip":"95453","city":"Lakeport","state":"CA","lat":39.047,"long":-122.9328},{"zip":"95457","city":"Lower Lake","state":"CA","lat":38.8915,"long":-122.5914},{"zip":"95458","city":"Lucerne","state":"CA","lat":39.0783,"long":-122.7846},{"zip":"95461","city":"Middletown","state":"CA","lat":38.7824,"long":-122.6487},{"zip":"95464","city":"Nice","state":"CA","lat":39.1194,"long":-122.8315},{"zip":"95467","city":"Hidden Valley Lake","state":"CA","lat":38.8036,"long":-122.5407},{"zip":"95485","city":"Upper Lake","state":"CA","lat":39.1804,"long":-122.9144},{"zip":"95493","city":"Witter Springs","state":"CA","lat":39.1821,"long":-122.9711},{"zip":"95410","city":"Albion","state":"CA","lat":39.2131,"long":-123.72},{"zip":"95415","city":"Boonville","state":"CA","lat":39.0197,"long":-123.3856},{"zip":"95417","city":"Branscomb","state":"CA","lat":39.6949,"long":-123.5527},{"zip":"95418","city":"Calpella","state":"CA","lat":39.2214,"long":-123.2154},{"zip":"95420","city":"Caspar","state":"CA","lat":39.3629,"long":-123.7944},{"zip":"95427","city":"Comptche","state":"CA","lat":39.2767,"long":-123.5873},{"zip":"95428","city":"Covelo","state":"CA","lat":39.82,"long":-123.0585},{"zip":"95429","city":"Dos Rios","state":"CA","lat":39.7168,"long":-123.3533},{"zip":"95432","city":"Elk","state":"CA","lat":39.1593,"long":-123.7219},{"zip":"95437","city":"Fort Bragg","state":"CA","lat":39.4402,"long":-123.7703},{"zip":"95445","city":"Gualala","state":"CA","lat":38.8251,"long":-123.5399},{"zip":"95449","city":"Hopland","state":"CA","lat":38.938,"long":-123.0703},{"zip":"95454","city":"Laytonville","state":"CA","lat":39.6627,"long":-123.4929},{"zip":"95456","city":"Little River","state":"CA","lat":39.2707,"long":-123.7883},{"zip":"95459","city":"Manchester","state":"CA","lat":39.0097,"long":-123.6523},{"zip":"95460","city":"Mendocino","state":"CA","lat":39.3173,"long":-123.7739},{"zip":"95463","city":"Navarro","state":"CA","lat":39.185,"long":-123.5268},{"zip":"95466","city":"Philo","state":"CA","lat":39.0657,"long":-123.445},{"zip":"95468","city":"Point Arena","state":"CA","lat":38.9152,"long":-123.6},{"zip":"95469","city":"Potter Valley","state":"CA","lat":39.3932,"long":-123.0647},{"zip":"95470","city":"Redwood Valley","state":"CA","lat":39.2779,"long":-123.2243},{"zip":"95481","city":"Talmage","state":"CA","lat":39.1269,"long":-123.1658},{"zip":"95482","city":"Ukiah","state":"CA","lat":39.1552,"long":-123.1951},{"zip":"95488","city":"Westport","state":"CA","lat":39.6843,"long":-123.7686},{"zip":"95490","city":"Willits","state":"CA","lat":39.4493,"long":-123.3679},{"zip":"95494","city":"Yorkville","state":"CA","lat":38.9235,"long":-123.2973},{"zip":"95401","city":"Santa Rosa","state":"CA","lat":38.4432,"long":-122.7547},{"zip":"95402","city":"Santa Rosa","state":"CA","lat":38.4399,"long":-122.7096},{"zip":"95403","city":"Santa Rosa","state":"CA","lat":38.4822,"long":-122.7473},{"zip":"95404","city":"Santa Rosa","state":"CA","lat":38.4534,"long":-122.6878},{"zip":"95405","city":"Santa Rosa","state":"CA","lat":38.4386,"long":-122.6727},{"zip":"95406","city":"Santa Rosa","state":"CA","lat":38.4399,"long":-122.7096},{"zip":"95407","city":"Santa Rosa","state":"CA","lat":38.4089,"long":-122.7339},{"zip":"95409","city":"Santa Rosa","state":"CA","lat":38.4592,"long":-122.6393},{"zip":"95412","city":"Annapolis","state":"CA","lat":38.7026,"long":-123.3539},{"zip":"95416","city":"Boyes Hot Springs","state":"CA","lat":38.3141,"long":-122.4843},{"zip":"95419","city":"Camp Meeker","state":"CA","lat":38.425,"long":-122.9485},{"zip":"95421","city":"Cazadero","state":"CA","lat":38.5918,"long":-123.1965},{"zip":"95425","city":"Cloverdale","state":"CA","lat":38.7931,"long":-123.0074},{"zip":"95430","city":"Duncans Mills","state":"CA","lat":38.3929,"long":-123.0057},{"zip":"95431","city":"Eldridge","state":"CA","lat":38.3348,"long":-122.5055},{"zip":"95433","city":"El Verano","state":"CA","lat":38.2993,"long":-122.4867},{"zip":"95436","city":"Forestville","state":"CA","lat":38.4923,"long":-122.9042},{"zip":"95439","city":"Fulton","state":"CA","lat":38.4947,"long":-122.7761},{"zip":"95441","city":"Geyserville","state":"CA","lat":38.7173,"long":-122.8834},{"zip":"95442","city":"Glen Ellen","state":"CA","lat":38.3662,"long":-122.5196},{"zip":"95444","city":"Graton","state":"CA","lat":38.4335,"long":-122.8676},{"zip":"95446","city":"Guerneville","state":"CA","lat":38.5055,"long":-122.9965},{"zip":"95448","city":"Healdsburg","state":"CA","lat":38.6184,"long":-122.862},{"zip":"95450","city":"Jenner","state":"CA","lat":38.4987,"long":-123.1974},{"zip":"95452","city":"Kenwood","state":"CA","lat":38.4168,"long":-122.5547},{"zip":"95462","city":"Monte Rio","state":"CA","lat":38.4706,"long":-123.0172},{"zip":"95465","city":"Occidental","state":"CA","lat":38.4087,"long":-122.9954},{"zip":"95471","city":"Rio Nido","state":"CA","lat":38.4905,"long":-123.0331},{"zip":"95472","city":"Sebastopol","state":"CA","lat":38.3941,"long":-122.8433},{"zip":"95473","city":"Sebastopol","state":"CA","lat":38.4022,"long":-122.8227},{"zip":"95476","city":"Sonoma","state":"CA","lat":38.2849,"long":-122.4696},{"zip":"95480","city":"Stewarts Point","state":"CA","lat":38.7082,"long":-123.3478},{"zip":"95486","city":"Villa Grande","state":"CA","lat":38.4741,"long":-123.0242},{"zip":"95487","city":"Vineburg","state":"CA","lat":38.2725,"long":-122.4375},{"zip":"95492","city":"Windsor","state":"CA","lat":38.5443,"long":-122.8073},{"zip":"95497","city":"The Sea Ranch","state":"CA","lat":38.7256,"long":-123.4675}]
