[{"zip":"95646","city":"Kirkwood","state":"CA","lat":38.6918,"long":-120.0736},{"zip":"95601","city":"Amador City","state":"CA","lat":38.4194,"long":-120.823},{"zip":"95629","city":"Fiddletown","state":"CA","lat":38.5234,"long":-120.6763},{"zip":"95640","city":"Ione","state":"CA","lat":38.3324,"long":-120.9418},{"zip":"95642","city":"Jackson","state":"CA","lat":38.3545,"long":-120.7573},{"zip":"95644","city":"Kit Carson","state":"CA","lat":38.6707,"long":-120.1135},{"zip":"95654","city":"Martell","state":"CA","lat":38.3515,"long":-120.7752},{"zip":"95665","city":"Pine Grove","state":"CA","lat":38.4049,"long":-120.6544},{"zip":"95666","city":"Pioneer","state":"CA","lat":38.4319,"long":-120.5719},{"zip":"95669","city":"Plymouth","state":"CA","lat":38.4916,"long":-120.8819},{"zip":"95675","city":"River Pines","state":"CA","lat":38.5463,"long":-120.743},{"zip":"95685","city":"Sutter Creek","state":"CA","lat":38.4175,"long":-120.7951},{"zip":"95689","city":"Volcano","state":"CA","lat":38.4765,"long":-120.6017},{"zip":"95699","city":"Drytown","state":"CA","lat":38.4411,"long":-120.8533},{"zip":"95613","city":"Coloma","state":"CA","lat":38.8,"long":-120.8891},{"zip":"95614","city":"Cool","state":"CA","lat":38.8923,"long":-120.9802},{"zip":"95619","city":"Diamond Springs","state":"CA","lat":38.6865,"long":-120.8145},{"zip":"95623","city":"El Dorado","state":"CA","lat":38.633,"long":-120.8498},{"zip":"95633","city":"Garden Valley","state":"CA","lat":38.8665,"long":-120.8567},{"zip":"95634","city":"Georgetown","state":"CA","lat":38.9185,"long":-120.7599},{"zip":"95635","city":"Greenwood","state":"CA","lat":38.9143,"long":-120.9001},{"zip":"95636","city":"Grizzly Flats","state":"CA","lat":38.6489,"long":-120.5098},{"zip":"95651","city":"Lotus","state":"CA","lat":38.8278,"long":-120.9238},{"zip":"95656","city":"Mount Aukum","state":"CA","lat":38.55,"long":-120.7304},{"zip":"95664","city":"Pilot Hill","state":"CA","lat":38.8135,"long":-121.0308},{"zip":"95667","city":"Placerville","state":"CA","lat":38.7195,"long":-120.8046},{"zip":"95672","city":"Rescue","state":"CA","lat":38.7194,"long":-120.9945},{"zip":"95682","city":"Shingle Springs","state":"CA","lat":38.6465,"long":-120.9641},{"zip":"95684","city":"Somerset","state":"CA","lat":38.5953,"long":-120.5949},{"zip":"95602","city":"Auburn","state":"CA","lat":38.9829,"long":-121.0944},{"zip":"95603","city":"Auburn","state":"CA","lat":38.9115,"long":-121.08},{"zip":"95604","city":"Auburn","state":"CA","lat":38.9029,"long":-121.067},{"zip":"95631","city":"Foresthill","state":"CA","lat":39.0682,"long":-120.7224},{"zip":"95648","city":"Lincoln","state":"CA","lat":38.8942,"long":-121.2908},{"zip":"95650","city":"Loomis","state":"CA","lat":38.8071,"long":-121.1698},{"zip":"95658","city":"Newcastle","state":"CA","lat":38.8763,"long":-121.143},{"zip":"95661","city":"Roseville","state":"CA","lat":38.7346,"long":-121.234},{"zip":"95663","city":"Penryn","state":"CA","lat":38.8567,"long":-121.1791},{"zip":"95677","city":"Rocklin","state":"CA","lat":38.7877,"long":-121.2366},{"zip":"95678","city":"Roseville","state":"CA","lat":38.7609,"long":-121.2867},{"zip":"95681","city":"Sheridan","state":"CA","lat":38.9953,"long":-121.368},{"zip":"95608","city":"Carmichael","state":"CA","lat":38.6284,"long":-121.3287},{"zip":"95609","city":"Carmichael","state":"CA","lat":38.6257,"long":-121.3272},{"zip":"95610","city":"Citrus Heights","state":"CA","lat":38.6946,"long":-121.2692},{"zip":"95611","city":"Citrus Heights","state":"CA","lat":38.7072,"long":-121.28},{"zip":"95615","city":"Courtland","state":"CA","lat":38.3137,"long":-121.563},{"zip":"95621","city":"Citrus Heights","state":"CA","lat":38.6952,"long":-121.3075},{"zip":"95624","city":"Elk Grove","state":"CA","lat":38.4232,"long":-121.3599},{"zip":"95626","city":"Elverta","state":"CA","lat":38.7233,"long":-121.4497},{"zip":"95628","city":"Fair Oaks","state":"CA","lat":38.6554,"long":-121.2611},{"zip":"95630","city":"Folsom","state":"CA","lat":38.6709,"long":-121.1529},{"zip":"95632","city":"Galt","state":"CA","lat":38.2691,"long":-121.3},{"zip":"95638","city":"Herald","state":"CA","lat":38.3119,"long":-121.1729},{"zip":"95639","city":"Hood","state":"CA","lat":38.3702,"long":-121.5143},{"zip":"95641","city":"Isleton","state":"CA","lat":38.157,"long":-121.6066},{"zip":"95652","city":"Mcclellan","state":"CA","lat":38.6621,"long":-121.3955},{"zip":"95655","city":"Mather","state":"CA","lat":38.5579,"long":-121.291},{"zip":"95660","city":"North Highlands","state":"CA","lat":38.6707,"long":-121.3781},{"zip":"95662","city":"Orangevale","state":"CA","lat":38.6845,"long":-121.2256},{"zip":"95670","city":"Rancho Cordova","state":"CA","lat":38.6072,"long":-121.2761},{"zip":"95671","city":"Represa","state":"CA","lat":38.7065,"long":-121.1694},{"zip":"95673","city":"Rio Linda","state":"CA","lat":38.6895,"long":-121.4479},{"zip":"95680","city":"Ryde","state":"CA","lat":38.2386,"long":-121.5594},{"zip":"95683","city":"Sloughhouse","state":"CA","lat":38.5143,"long":-121.0964},{"zip":"95690","city":"Walnut Grove","state":"CA","lat":38.2396,"long":-121.5443},{"zip":"95693","city":"Wilton","state":"CA","lat":38.3983,"long":-121.2303},{"zip":"95686","city":"Thornton","state":"CA","lat":38.2261,"long":-121.4236},{"zip":"95620","city":"Dixon","state":"CA","lat":38.4403,"long":-121.8088},{"zip":"95625","city":"Elmira","state":"CA","lat":38.3482,"long":-121.91},{"zip":"95687","city":"Vacaville","state":"CA","lat":38.3482,"long":-121.9538},{"zip":"95688","city":"Vacaville","state":"CA","lat":38.3847,"long":-121.9887},{"zip":"95696","city":"Vacaville","state":"CA","lat":38.43,"long":-122.0168},{"zip":"95659","city":"Nicolaus","state":"CA","lat":38.8657,"long":-121.557},{"zip":"95668","city":"Pleasant Grove","state":"CA","lat":38.8115,"long":-121.4982},{"zip":"95674","city":"Rio Oso","state":"CA","lat":38.967,"long":-121.4773},{"zip":"95676","city":"Robbins","state":"CA","lat":38.8702,"long":-121.7052},{"zip":"95605","city":"West Sacramento","state":"CA","lat":38.5927,"long":-121.5325},{"zip":"95606","city":"Brooks","state":"CA","lat":38.8065,"long":-122.2039},{"zip":"95607","city":"Capay","state":"CA","lat":38.7209,"long":-122.0912},{"zip":"95612","city":"Clarksburg","state":"CA","lat":38.3945,"long":-121.5641},{"zip":"95616","city":"Davis","state":"CA","lat":38.5538,"long":-121.7418},{"zip":"95617","city":"Davis","state":"CA","lat":38.5494,"long":-121.7253},{"zip":"95618","city":"Davis","state":"CA","lat":38.5449,"long":-121.7405},{"zip":"95627","city":"Esparto","state":"CA","lat":38.7061,"long":-122.0152},{"zip":"95637","city":"Guinda","state":"CA","lat":38.8407,"long":-122.2036},{"zip":"95645","city":"Knights Landing","state":"CA","lat":38.8517,"long":-121.7334},{"zip":"95653","city":"Madison","state":"CA","lat":38.6802,"long":-121.9721},{"zip":"95679","city":"Rumsey","state":"CA","lat":38.8953,"long":-122.3079},{"zip":"95691","city":"West Sacramento","state":"CA","lat":38.5673,"long":-121.5516},{"zip":"95694","city":"Winters","state":"CA","lat":38.5322,"long":-121.9676},{"zip":"95695","city":"Woodland","state":"CA","lat":38.6816,"long":-121.8052},{"zip":"95697","city":"Yolo","state":"CA","lat":38.7343,"long":-121.8066},{"zip":"95698","city":"Zamora","state":"CA","lat":38.8204,"long":-121.9191},{"zip":"95692","city":"Wheatland","state":"CA","lat":39.0337,"long":-121.4235}]
