[{"zip":"95709","city":"Camino","state":"CA","lat":38.747,"long":-120.6743},{"zip":"95720","city":"Kyburz","state":"CA","lat":38.7825,"long":-120.2569},{"zip":"95721","city":"Echo Lake","state":"CA","lat":38.8338,"long":-120.0416},{"zip":"95726","city":"Pollock Pines","state":"CA","lat":38.7708,"long":-120.5427},{"zip":"95735","city":"Twin Bridges","state":"CA","lat":38.8092,"long":-120.1242},{"zip":"95762","city":"El Dorado Hills","state":"CA","lat":38.685,"long":-121.068},{"zip":"95712","city":"Chicago Park","state":"CA","lat":39.143,"long":-120.9666},{"zip":"95724","city":"Norden","state":"CA","lat":39.2966,"long":-120.4317},{"zip":"95728","city":"Soda Springs","state":"CA","lat":39.317,"long":-120.4259},{"zip":"95701","city":"Alta","state":"CA","lat":39.2441,"long":-120.7531},{"zip":"95703","city":"Applegate","state":"CA","lat":39.0007,"long":-120.9924},{"zip":"95713","city":"Colfax","state":"CA","lat":39.0783,"long":-120.9549},{"zip":"95714","city":"Dutch Flat","state":"CA","lat":39.1978,"long":-120.8262},{"zip":"95715","city":"Emigrant Gap","state":"CA","lat":39.2968,"long":-120.6727},{"zip":"95717","city":"Gold Run","state":"CA","lat":39.171,"long":-120.8601},{"zip":"95722","city":"Meadow Vista","state":"CA","lat":39.0031,"long":-121.0292},{"zip":"95736","city":"Weimar","state":"CA","lat":39.0375,"long":-120.9713},{"zip":"95746","city":"Granite Bay","state":"CA","lat":38.7435,"long":-121.1897},{"zip":"95747","city":"Roseville","state":"CA","lat":38.7703,"long":-121.3372},{"zip":"95765","city":"Rocklin","state":"CA","lat":38.8136,"long":-121.2677},{"zip":"95741","city":"Rancho Cordova","state":"CA","lat":38.5891,"long":-121.3016},{"zip":"95742","city":"Rancho Cordova","state":"CA","lat":38.5981,"long":-121.2153},{"zip":"95757","city":"Elk Grove","state":"CA","lat":38.4081,"long":-121.4294},{"zip":"95758","city":"Elk Grove","state":"CA","lat":38.4243,"long":-121.437},{"zip":"95759","city":"Elk Grove","state":"CA","lat":38.407,"long":-121.3752},{"zip":"95763","city":"Folsom","state":"CA","lat":38.678,"long":-121.175},{"zip":"95776","city":"Woodland","state":"CA","lat":38.6808,"long":-121.7411},{"zip":"95798","city":"West Sacramento","state":"CA","lat":38.5805,"long":-121.5291},{"zip":"95799","city":"West Sacramento","state":"CA","lat":38.5713,"long":-121.5715}]
