[{"zip":"95811","city":"Sacramento","state":"CA","lat":38.5762,"long":-121.488},{"zip":"95812","city":"Sacramento","state":"CA","lat":38.5822,"long":-121.4943},{"zip":"95813","city":"Sacramento","state":"CA","lat":38.6026,"long":-121.4475},{"zip":"95814","city":"Sacramento","state":"CA","lat":38.5804,"long":-121.4922},{"zip":"95815","city":"Sacramento","state":"CA","lat":38.6093,"long":-121.4443},{"zip":"95816","city":"Sacramento","state":"CA","lat":38.5728,"long":-121.4675},{"zip":"95817","city":"Sacramento","state":"CA","lat":38.5498,"long":-121.4583},{"zip":"95818","city":"Sacramento","state":"CA","lat":38.5568,"long":-121.4929},{"zip":"95819","city":"Sacramento","state":"CA","lat":38.5683,"long":-121.4366},{"zip":"95820","city":"Sacramento","state":"CA","lat":38.5347,"long":-121.4451},{"zip":"95821","city":"Sacramento","state":"CA","lat":38.6239,"long":-121.3837},{"zip":"95822","city":"Sacramento","state":"CA","lat":38.5091,"long":-121.4935},{"zip":"95823","city":"Sacramento","state":"CA","lat":38.4797,"long":-121.4438},{"zip":"95824","city":"Sacramento","state":"CA","lat":38.5178,"long":-121.4419},{"zip":"95825","city":"Sacramento","state":"CA","lat":38.5892,"long":-121.4057},{"zip":"95826","city":"Sacramento","state":"CA","lat":38.5539,"long":-121.3693},{"zip":"95827","city":"Sacramento","state":"CA","lat":38.5662,"long":-121.3286},{"zip":"95828","city":"Sacramento","state":"CA","lat":38.4826,"long":-121.4006},{"zip":"95829","city":"Sacramento","state":"CA","lat":38.4689,"long":-121.344},{"zip":"95830","city":"Sacramento","state":"CA","lat":38.4896,"long":-121.2772},{"zip":"95831","city":"Sacramento","state":"CA","lat":38.4962,"long":-121.5297},{"zip":"95832","city":"Sacramento","state":"CA","lat":38.4695,"long":-121.4883},{"zip":"95833","city":"Sacramento","state":"CA","lat":38.6157,"long":-121.5053},{"zip":"95834","city":"Sacramento","state":"CA","lat":38.6383,"long":-121.5072},{"zip":"95835","city":"Sacramento","state":"CA","lat":38.6626,"long":-121.4834},{"zip":"95836","city":"Sacramento","state":"CA","lat":38.7198,"long":-121.5343},{"zip":"95837","city":"Sacramento","state":"CA","lat":38.6817,"long":-121.603},{"zip":"95838","city":"Sacramento","state":"CA","lat":38.6406,"long":-121.444},{"zip":"95840","city":"Sacramento","state":"CA","lat":38.5816,"long":-121.4933},{"zip":"95841","city":"Sacramento","state":"CA","lat":38.6627,"long":-121.3406},{"zip":"95842","city":"Sacramento","state":"CA","lat":38.6865,"long":-121.3494},{"zip":"95843","city":"Antelope","state":"CA","lat":38.7159,"long":-121.3648},{"zip":"95851","city":"Sacramento","state":"CA","lat":38.6026,"long":-121.4475},{"zip":"95852","city":"Sacramento","state":"CA","lat":38.6026,"long":-121.4475},{"zip":"95853","city":"Sacramento","state":"CA","lat":38.6026,"long":-121.4475},{"zip":"95860","city":"Sacramento","state":"CA","lat":38.6105,"long":-121.3799},{"zip":"95864","city":"Sacramento","state":"CA","lat":38.5878,"long":-121.3769},{"zip":"95865","city":"Sacramento","state":"CA","lat":38.596,"long":-121.3978},{"zip":"95866","city":"Sacramento","state":"CA","lat":38.596,"long":-121.3978},{"zip":"95867","city":"Sacramento","state":"CA","lat":38.5816,"long":-121.4933},{"zip":"95894","city":"Sacramento","state":"CA","lat":38.5816,"long":-121.4933},{"zip":"95899","city":"Sacramento","state":"CA","lat":38.5383,"long":-121.5549}]
