[{"zip":"95914","city":"Bangor","state":"CA","lat":39.3885,"long":-121.4052},{"zip":"95916","city":"Berry Creek","state":"CA","lat":39.6776,"long":-121.3689},{"zip":"95917","city":"Biggs","state":"CA","lat":39.4162,"long":-121.7189},{"zip":"95926","city":"Chico","state":"CA","lat":39.7458,"long":-121.8444},{"zip":"95927","city":"Chico","state":"CA","lat":39.8117,"long":-121.9398},{"zip":"95928","city":"Chico","state":"CA","lat":39.7224,"long":-121.8113},{"zip":"95929","city":"Chico","state":"CA","lat":39.7301,"long":-121.8414},{"zip":"95930","city":"Clipper Mills","state":"CA","lat":39.5302,"long":-121.1675},{"zip":"95938","city":"Durham","state":"CA","lat":39.633,"long":-121.7886},{"zip":"95940","city":"Feather Falls","state":"CA","lat":39.622,"long":-121.2669},{"zip":"95941","city":"Forbestown","state":"CA","lat":39.521,"long":-121.2423},{"zip":"95942","city":"Forest Ranch","state":"CA","lat":39.8821,"long":-121.6728},{"zip":"95948","city":"Gridley","state":"CA","lat":39.3532,"long":-121.7137},{"zip":"95954","city":"Magalia","state":"CA","lat":39.8912,"long":-121.58},{"zip":"95958","city":"Nelson","state":"CA","lat":39.5522,"long":-121.7644},{"zip":"95965","city":"Oroville","state":"CA","lat":39.6054,"long":-121.5751},{"zip":"95966","city":"Oroville","state":"CA","lat":39.4877,"long":-121.4698},{"zip":"95967","city":"Paradise","state":"CA","lat":39.7155,"long":-121.6551},{"zip":"95968","city":"Palermo","state":"CA","lat":39.4361,"long":-121.5454},{"zip":"95969","city":"Paradise","state":"CA","lat":39.7555,"long":-121.6069},{"zip":"95973","city":"Chico","state":"CA","lat":39.8032,"long":-121.8673},{"zip":"95974","city":"Richvale","state":"CA","lat":39.4959,"long":-121.748},{"zip":"95976","city":"Chico","state":"CA","lat":39.7346,"long":-121.8331},{"zip":"95978","city":"Stirling City","state":"CA","lat":39.9077,"long":-121.5269},{"zip":"95912","city":"Arbuckle","state":"CA","lat":39.0138,"long":-122.0274},{"zip":"95932","city":"Colusa","state":"CA","lat":39.2345,"long":-122.0277},{"zip":"95950","city":"Grimes","state":"CA","lat":39.0744,"long":-121.8927},{"zip":"95955","city":"Maxwell","state":"CA","lat":39.3163,"long":-122.1849},{"zip":"95970","city":"Princeton","state":"CA","lat":39.4168,"long":-122.0519},{"zip":"95979","city":"Stonyford","state":"CA","lat":39.3176,"long":-122.5393},{"zip":"95987","city":"Williams","state":"CA","lat":39.1337,"long":-122.2162},{"zip":"95913","city":"Artois","state":"CA","lat":39.6197,"long":-122.1927},{"zip":"95920","city":"Butte City","state":"CA","lat":39.4568,"long":-121.9515},{"zip":"95939","city":"Elk Creek","state":"CA","lat":39.5306,"long":-122.6124},{"zip":"95943","city":"Glenn","state":"CA","lat":39.6069,"long":-122.0384},{"zip":"95951","city":"Hamilton City","state":"CA","lat":39.7386,"long":-122.0085},{"zip":"95963","city":"Orland","state":"CA","lat":39.7314,"long":-122.2534},{"zip":"95988","city":"Willows","state":"CA","lat":39.5353,"long":-122.2597},{"zip":"95924","city":"Cedar Ridge","state":"CA","lat":39.1988,"long":-121.02},{"zip":"95945","city":"Grass Valley","state":"CA","lat":39.2081,"long":-121.0069},{"zip":"95946","city":"Penn Valley","state":"CA","lat":39.2019,"long":-121.2026},{"zip":"95949","city":"Grass Valley","state":"CA","lat":39.1193,"long":-121.0938},{"zip":"95959","city":"Nevada City","state":"CA","lat":39.3017,"long":-120.9717},{"zip":"95960","city":"North San Juan","state":"CA","lat":39.3765,"long":-121.0891},{"zip":"95975","city":"Rough And Ready","state":"CA","lat":39.2286,"long":-121.1509},{"zip":"95977","city":"Smartsville","state":"CA","lat":39.3019,"long":-120.7657},{"zip":"95986","city":"Washington","state":"CA","lat":39.3569,"long":-120.8},{"zip":"95915","city":"Belden","state":"CA","lat":40.006,"long":-121.2491},{"zip":"95923","city":"Canyon Dam","state":"CA","lat":39.5645,"long":-121.5751},{"zip":"95934","city":"Crescent Mills","state":"CA","lat":40.0673,"long":-120.9248},{"zip":"95947","city":"Greenville","state":"CA","lat":40.1699,"long":-120.9014},{"zip":"95956","city":"Meadow Valley","state":"CA","lat":39.9296,"long":-121.0608},{"zip":"95971","city":"Quincy","state":"CA","lat":39.9284,"long":-120.9698},{"zip":"95980","city":"Storrie","state":"CA","lat":39.9175,"long":-121.3222},{"zip":"95983","city":"Taylorsville","state":"CA","lat":40.0357,"long":-120.7353},{"zip":"95984","city":"Twain","state":"CA","lat":40.0509,"long":-121.1268},{"zip":"95910","city":"Alleghany","state":"CA","lat":39.4826,"long":-120.8483},{"zip":"95936","city":"Downieville","state":"CA","lat":39.569,"long":-120.8344},{"zip":"95944","city":"Goodyears Bar","state":"CA","lat":39.5399,"long":-120.8844},{"zip":"95953","city":"Live Oak","state":"CA","lat":39.2601,"long":-121.6923},{"zip":"95957","city":"Meridian","state":"CA","lat":39.052,"long":-121.8061},{"zip":"95982","city":"Sutter","state":"CA","lat":39.1779,"long":-121.7758},{"zip":"95991","city":"Yuba City","state":"CA","lat":39.1051,"long":-121.6202},{"zip":"95992","city":"Yuba City","state":"CA","lat":39.023,"long":-121.6116},{"zip":"95993","city":"Yuba City","state":"CA","lat":39.1237,"long":-121.6611},{"zip":"95937","city":"Dunnigan","state":"CA","lat":38.887,"long":-121.9992},{"zip":"95901","city":"Marysville","state":"CA","lat":39.1663,"long":-121.5105},{"zip":"95903","city":"Beale Afb","state":"CA","lat":39.1115,"long":-121.3604},{"zip":"95918","city":"Browns Valley","state":"CA","lat":39.2882,"long":-121.3303},{"zip":"95919","city":"Brownsville","state":"CA","lat":39.4525,"long":-121.2612},{"zip":"95922","city":"Camptonville","state":"CA","lat":39.4518,"long":-121.0486},{"zip":"95925","city":"Challenge","state":"CA","lat":39.4685,"long":-121.1936},{"zip":"95935","city":"Dobbins","state":"CA","lat":39.3662,"long":-121.2256},{"zip":"95961","city":"Olivehurst","state":"CA","lat":39.0861,"long":-121.5497},{"zip":"95962","city":"Oregon House","state":"CA","lat":39.3459,"long":-121.2663},{"zip":"95972","city":"Rackerby","state":"CA","lat":39.4256,"long":-121.3252},{"zip":"95981","city":"Strawberry Valley","state":"CA","lat":39.687,"long":-121.045}]
