[{"zip":"96373","city":"FPO","state":"AP","lat":19.111,"long":-155.7982},{"zip":"96337","city":"APO","state":"AP","lat":35.3541,"long":-113.038},{"zip":"96507","city":"FPO","state":"AP","lat":41.7206,"long":-85.82},{"zip":"96208","city":"APO","state":"AP","lat":33.2116,"long":-97.0876},{"zip":"96120","city":"Markleeville","state":"CA","lat":38.7713,"long":-119.8327},{"zip":"96142","city":"Tahoma","state":"CA","lat":39.0644,"long":-120.1357},{"zip":"96150","city":"South Lake Tahoe","state":"CA","lat":38.917,"long":-119.9865},{"zip":"96151","city":"South Lake Tahoe","state":"CA","lat":38.9039,"long":-119.995},{"zip":"96152","city":"South Lake Tahoe","state":"CA","lat":38.9271,"long":-119.999},{"zip":"96154","city":"South Lake Tahoe","state":"CA","lat":38.8753,"long":-120.0188},{"zip":"96155","city":"South Lake Tahoe","state":"CA","lat":38.8449,"long":-120.043},{"zip":"96156","city":"South Lake Tahoe","state":"CA","lat":38.9352,"long":-119.9676},{"zip":"96157","city":"South Lake Tahoe","state":"CA","lat":38.9344,"long":-119.9767},{"zip":"96158","city":"South Lake Tahoe","state":"CA","lat":38.8981,"long":-119.9984},{"zip":"96009","city":"Bieber","state":"CA","lat":41.1315,"long":-121.1286},{"zip":"96068","city":"Nubieber","state":"CA","lat":41.0957,"long":-121.183},{"zip":"96109","city":"Doyle","state":"CA","lat":40.0008,"long":-120.1077},{"zip":"96113","city":"Herlong","state":"CA","lat":40.1485,"long":-120.1713},{"zip":"96114","city":"Janesville","state":"CA","lat":40.2963,"long":-120.5098},{"zip":"96117","city":"Litchfield","state":"CA","lat":40.4073,"long":-120.4092},{"zip":"96119","city":"Madeline","state":"CA","lat":40.9766,"long":-120.5548},{"zip":"96121","city":"Milford","state":"CA","lat":40.1828,"long":-120.3895},{"zip":"96123","city":"Ravendale","state":"CA","lat":40.8317,"long":-120.16},{"zip":"96127","city":"Susanville","state":"CA","lat":40.4163,"long":-120.653},{"zip":"96128","city":"Standish","state":"CA","lat":40.3509,"long":-120.4068},{"zip":"96130","city":"Susanville","state":"CA","lat":40.3983,"long":-120.6464},{"zip":"96132","city":"Termo","state":"CA","lat":40.9509,"long":-120.613},{"zip":"96136","city":"Wendel","state":"CA","lat":40.3406,"long":-120.2824},{"zip":"96137","city":"Westwood","state":"CA","lat":40.3038,"long":-121.0226},{"zip":"96006","city":"Adin","state":"CA","lat":41.2175,"long":-120.9432},{"zip":"96015","city":"Canby","state":"CA","lat":41.4664,"long":-120.9218},{"zip":"96054","city":"Lookout","state":"CA","lat":41.2347,"long":-121.2156},{"zip":"96101","city":"Alturas","state":"CA","lat":41.4767,"long":-120.5456},{"zip":"96104","city":"Cedarville","state":"CA","lat":41.4759,"long":-120.1516},{"zip":"96108","city":"Davis Creek","state":"CA","lat":41.7336,"long":-120.3741},{"zip":"96110","city":"Eagleville","state":"CA","lat":41.3163,"long":-120.1158},{"zip":"96112","city":"Fort Bidwell","state":"CA","lat":41.8644,"long":-120.162},{"zip":"96115","city":"Lake City","state":"CA","lat":41.6682,"long":-120.1814},{"zip":"96116","city":"Likely","state":"CA","lat":41.2329,"long":-120.5079},{"zip":"96107","city":"Coleville","state":"CA","lat":38.5029,"long":-119.4828},{"zip":"96133","city":"Topaz","state":"CA","lat":38.6415,"long":-119.5122},{"zip":"96111","city":"Floriston","state":"CA","lat":39.3928,"long":-120.0212},{"zip":"96160","city":"Truckee","state":"CA","lat":39.328,"long":-120.1833},{"zip":"96161","city":"Truckee","state":"CA","lat":39.3385,"long":-120.1729},{"zip":"96162","city":"Truckee","state":"CA","lat":39.328,"long":-120.1833},{"zip":"96140","city":"Carnelian Bay","state":"CA","lat":39.2319,"long":-120.0753},{"zip":"96141","city":"Homewood","state":"CA","lat":39.0786,"long":-120.1734},{"zip":"96143","city":"Kings Beach","state":"CA","lat":39.2401,"long":-120.0233},{"zip":"96145","city":"Tahoe City","state":"CA","lat":39.1806,"long":-120.1445},{"zip":"96146","city":"Olympic Valley","state":"CA","lat":39.1752,"long":-120.1954},{"zip":"96148","city":"Tahoe Vista","state":"CA","lat":39.2448,"long":-120.0521},{"zip":"96020","city":"Chester","state":"CA","lat":40.2975,"long":-121.2273},{"zip":"96103","city":"Blairsden Graeagle","state":"CA","lat":40.1919,"long":-120.1746},{"zip":"96105","city":"Chilcoot","state":"CA","lat":39.7977,"long":-120.1396},{"zip":"96106","city":"Clio","state":"CA","lat":39.7546,"long":-120.5951},{"zip":"96122","city":"Portola","state":"CA","lat":39.8105,"long":-120.4691},{"zip":"96129","city":"Beckwourth","state":"CA","lat":39.7721,"long":-120.4051},{"zip":"96135","city":"Vinton","state":"CA","lat":39.8043,"long":-120.1783},{"zip":"96001","city":"Redding","state":"CA","lat":40.5605,"long":-122.4116},{"zip":"96002","city":"Redding","state":"CA","lat":40.5486,"long":-122.3339},{"zip":"96003","city":"Redding","state":"CA","lat":40.6278,"long":-122.353},{"zip":"96007","city":"Anderson","state":"CA","lat":40.4574,"long":-122.3282},{"zip":"96008","city":"Bella Vista","state":"CA","lat":40.7409,"long":-122.0725},{"zip":"96011","city":"Big Bend","state":"CA","lat":40.9749,"long":-121.825},{"zip":"96013","city":"Burney","state":"CA","lat":40.8949,"long":-121.655},{"zip":"96016","city":"Cassel","state":"CA","lat":40.9337,"long":-121.5677},{"zip":"96017","city":"Castella","state":"CA","lat":41.1103,"long":-122.3161},{"zip":"96019","city":"Shasta Lake","state":"CA","lat":40.6969,"long":-122.3683},{"zip":"96022","city":"Cottonwood","state":"CA","lat":40.3691,"long":-122.3375},{"zip":"96028","city":"Fall River Mills","state":"CA","lat":41.0393,"long":-121.4606},{"zip":"96033","city":"French Gulch","state":"CA","lat":40.7035,"long":-122.6229},{"zip":"96040","city":"Hat Creek","state":"CA","lat":40.7677,"long":-121.4637},{"zip":"96047","city":"Igo","state":"CA","lat":40.4318,"long":-122.654},{"zip":"96049","city":"Redding","state":"CA","lat":40.7098,"long":-122.3116},{"zip":"96051","city":"Lakehead","state":"CA","lat":40.9105,"long":-122.4106},{"zip":"96056","city":"Mcarthur","state":"CA","lat":41.0502,"long":-121.3991},{"zip":"96062","city":"Millville","state":"CA","lat":40.5653,"long":-122.1111},{"zip":"96065","city":"Montgomery Creek","state":"CA","lat":40.9124,"long":-121.9233},{"zip":"96069","city":"Oak Run","state":"CA","lat":40.6863,"long":-122.0409},{"zip":"96070","city":"Obrien","state":"CA","lat":40.7352,"long":-122.1944},{"zip":"96071","city":"Old Station","state":"CA","lat":40.6256,"long":-121.4585},{"zip":"96073","city":"Palo Cedro","state":"CA","lat":40.5767,"long":-122.2398},{"zip":"96076","city":"Platina","state":"CA","lat":40.376,"long":-122.937},{"zip":"96079","city":"Shasta Lake","state":"CA","lat":40.6866,"long":-122.3348},{"zip":"96084","city":"Round Mountain","state":"CA","lat":40.794,"long":-121.9419},{"zip":"96087","city":"Shasta","state":"CA","lat":40.6109,"long":-122.4968},{"zip":"96088","city":"Shingletown","state":"CA","lat":40.505,"long":-121.8857},{"zip":"96089","city":"Shasta Lake","state":"CA","lat":40.6579,"long":-122.4273},{"zip":"96095","city":"Whiskeytown","state":"CA","lat":40.6388,"long":-122.5597},{"zip":"96096","city":"Whitmore","state":"CA","lat":40.6525,"long":-121.8771},{"zip":"96099","city":"Redding","state":"CA","lat":40.7043,"long":-122.3878},{"zip":"96118","city":"Loyalton","state":"CA","lat":39.663,"long":-120.2297},{"zip":"96124","city":"Calpine","state":"CA","lat":39.6139,"long":-120.4046},{"zip":"96125","city":"Sierra City","state":"CA","lat":39.5936,"long":-120.6269},{"zip":"96126","city":"Sierraville","state":"CA","lat":39.5825,"long":-120.3711},{"zip":"96014","city":"Callahan","state":"CA","lat":41.3833,"long":-122.764},{"zip":"96023","city":"Dorris","state":"CA","lat":41.9194,"long":-121.9739},{"zip":"96025","city":"Dunsmuir","state":"CA","lat":41.2124,"long":-122.2734},{"zip":"96027","city":"Etna","state":"CA","lat":41.4463,"long":-123.01},{"zip":"96031","city":"Forks Of Salmon","state":"CA","lat":41.2191,"long":-123.2363},{"zip":"96032","city":"Fort Jones","state":"CA","lat":41.617,"long":-122.8832},{"zip":"96034","city":"Gazelle","state":"CA","lat":41.5105,"long":-122.5371},{"zip":"96037","city":"Greenview","state":"CA","lat":41.5403,"long":-122.9366},{"zip":"96038","city":"Grenada","state":"CA","lat":41.6125,"long":-122.5258},{"zip":"96039","city":"Happy Camp","state":"CA","lat":41.8018,"long":-123.388},{"zip":"96044","city":"Hornbrook","state":"CA","lat":41.9077,"long":-122.5265},{"zip":"96050","city":"Klamath River","state":"CA","lat":41.8637,"long":-122.8197},{"zip":"96057","city":"Mccloud","state":"CA","lat":41.2475,"long":-122.1128},{"zip":"96058","city":"Macdoel","state":"CA","lat":41.883,"long":-121.9445},{"zip":"96064","city":"Montague","state":"CA","lat":41.7243,"long":-122.4638},{"zip":"96067","city":"Mount Shasta","state":"CA","lat":41.3174,"long":-122.324},{"zip":"96085","city":"Scott Bar","state":"CA","lat":41.7736,"long":-122.9882},{"zip":"96086","city":"Seiad Valley","state":"CA","lat":41.8866,"long":-123.2438},{"zip":"96094","city":"Weed","state":"CA","lat":41.4226,"long":-122.3861},{"zip":"96097","city":"Yreka","state":"CA","lat":41.7206,"long":-122.6376},{"zip":"96134","city":"Tulelake","state":"CA","lat":41.9316,"long":-121.4347},{"zip":"96021","city":"Corning","state":"CA","lat":39.9296,"long":-122.196},{"zip":"96029","city":"Flournoy","state":"CA","lat":39.9024,"long":-122.4918},{"zip":"96035","city":"Gerber","state":"CA","lat":40.043,"long":-122.1649},{"zip":"96055","city":"Los Molinos","state":"CA","lat":40.0497,"long":-122.0992},{"zip":"96059","city":"Manton","state":"CA","lat":40.4331,"long":-121.8365},{"zip":"96061","city":"Mill Creek","state":"CA","lat":40.3263,"long":-121.5228},{"zip":"96063","city":"Mineral","state":"CA","lat":40.3564,"long":-121.571},{"zip":"96074","city":"Paskenta","state":"CA","lat":39.8772,"long":-122.5814},{"zip":"96075","city":"Paynes Creek","state":"CA","lat":40.3514,"long":-121.765},{"zip":"96078","city":"Proberta","state":"CA","lat":40.0815,"long":-122.1705},{"zip":"96080","city":"Red Bluff","state":"CA","lat":40.1795,"long":-122.2383},{"zip":"96090","city":"Tehama","state":"CA","lat":40.0271,"long":-122.1233},{"zip":"96092","city":"Vina","state":"CA","lat":39.9272,"long":-122.025},{"zip":"96010","city":"Big Bar","state":"CA","lat":40.748,"long":-123.229},{"zip":"96024","city":"Douglas City","state":"CA","lat":40.6342,"long":-122.9239},{"zip":"96041","city":"Hayfork","state":"CA","lat":40.5504,"long":-123.1634},{"zip":"96046","city":"Hyampom","state":"CA","lat":40.6137,"long":-123.4488},{"zip":"96048","city":"Junction City","state":"CA","lat":40.7411,"long":-123.0718},{"zip":"96052","city":"Lewiston","state":"CA","lat":40.746,"long":-122.8426},{"zip":"96091","city":"Trinity Center","state":"CA","lat":41.0615,"long":-122.7239},{"zip":"96093","city":"Weaverville","state":"CA","lat":40.7317,"long":-122.9353},{"zip":"96941","city":"Pohnpei","state":"FM","lat":null,"long":151.5031},{"zip":"96942","city":"Chuuk","state":"FM","lat":null,"long":151.5031},{"zip":"96943","city":"Yap","state":"FM","lat":null,"long":151.5031},{"zip":"96944","city":"Kosrae","state":"FM","lat":null,"long":151.5031},{"zip":"96912","city":"DEDEDO","state":"GU","lat":39.0176,"long":-122.0666},{"zip":"96704","city":"Captain Cook","state":"HI","lat":19.4386,"long":-155.8875},{"zip":"96710","city":"Hakalau","state":"HI","lat":19.8882,"long":-155.1333},{"zip":"96718","city":"Hawaii National Park","state":"HI","lat":19.5935,"long":-155.438},{"zip":"96719","city":"Hawi","state":"HI","lat":20.238,"long":-155.838},{"zip":"96720","city":"Hilo","state":"HI","lat":19.7025,"long":-155.0939},{"zip":"96721","city":"Hilo","state":"HI","lat":19.7299,"long":-155.0907},{"zip":"96725","city":"Holualoa","state":"HI","lat":19.6103,"long":-155.9176},{"zip":"96726","city":"Honaunau","state":"HI","lat":19.2783,"long":-155.8453},{"zip":"96727","city":"Honokaa","state":"HI","lat":20.0827,"long":-155.488},{"zip":"96728","city":"Honomu","state":"HI","lat":19.8728,"long":-155.1177},{"zip":"96737","city":"Ocean View","state":"HI","lat":19.1002,"long":-155.7258},{"zip":"96738","city":"Waikoloa","state":"HI","lat":19.9724,"long":-155.818},{"zip":"96739","city":"Keauhou","state":"HI","lat":19.5606,"long":-155.9623},{"zip":"96740","city":"Kailua Kona","state":"HI","lat":19.6531,"long":-155.9798},{"zip":"96743","city":"Kamuela","state":"HI","lat":20.0081,"long":-155.7052},{"zip":"96745","city":"Kailua Kona","state":"HI","lat":19.5935,"long":-155.438},{"zip":"96749","city":"Keaau","state":"HI","lat":19.5893,"long":-154.9926},{"zip":"96750","city":"Kealakekua","state":"HI","lat":19.5261,"long":-155.93},{"zip":"96755","city":"Kapaau","state":"HI","lat":20.2183,"long":-155.799},{"zip":"96760","city":"Kurtistown","state":"HI","lat":19.5693,"long":-155.0349},{"zip":"96764","city":"Laupahoehoe","state":"HI","lat":19.9802,"long":-155.2323},{"zip":"96771","city":"Mountain View","state":"HI","lat":19.5506,"long":-155.0864},{"zip":"96772","city":"Naalehu","state":"HI","lat":19.0668,"long":-155.6575},{"zip":"96773","city":"Ninole","state":"HI","lat":19.935,"long":-155.1668},{"zip":"96774","city":"Ookala","state":"HI","lat":20.0119,"long":-155.2747},{"zip":"96776","city":"Paauilo","state":"HI","lat":20.0271,"long":-155.3697},{"zip":"96777","city":"Pahala","state":"HI","lat":19.2079,"long":-155.4815},{"zip":"96778","city":"Pahoa","state":"HI","lat":19.5089,"long":-154.9231},{"zip":"96780","city":"Papaaloa","state":"HI","lat":19.9751,"long":-155.2203},{"zip":"96781","city":"Papaikou","state":"HI","lat":19.7916,"long":-155.0984},{"zip":"96783","city":"Pepeekeo","state":"HI","lat":19.8353,"long":-155.113},{"zip":"96785","city":"Volcano","state":"HI","lat":19.4801,"long":-155.1974},{"zip":"96701","city":"Aiea","state":"HI","lat":21.3908,"long":-157.9332},{"zip":"96706","city":"Ewa Beach","state":"HI","lat":21.3274,"long":-158.0103},{"zip":"96707","city":"Kapolei","state":"HI","lat":21.3453,"long":-158.087},{"zip":"96709","city":"Kapolei","state":"HI","lat":21.3233,"long":-158.0058},{"zip":"96712","city":"Haleiwa","state":"HI","lat":21.6312,"long":-158.0693},{"zip":"96717","city":"Hauula","state":"HI","lat":21.6139,"long":-157.9157},{"zip":"96730","city":"Kaaawa","state":"HI","lat":21.5481,"long":-157.8495},{"zip":"96731","city":"Kahuku","state":"HI","lat":21.675,"long":-157.9725},{"zip":"96734","city":"Kailua","state":"HI","lat":21.4063,"long":-157.7448},{"zip":"96744","city":"Kaneohe","state":"HI","lat":21.4228,"long":-157.8115},{"zip":"96759","city":"Kunia","state":"HI","lat":21.463,"long":-158.0639},{"zip":"96762","city":"Laie","state":"HI","lat":21.6253,"long":-157.941},{"zip":"96782","city":"Pearl City","state":"HI","lat":21.4084,"long":-157.9652},{"zip":"96786","city":"Wahiawa","state":"HI","lat":21.5006,"long":-158.0435},{"zip":"96789","city":"Mililani","state":"HI","lat":21.4531,"long":-158.0174},{"zip":"96791","city":"Waialua","state":"HI","lat":21.5766,"long":-158.1267},{"zip":"96792","city":"Waianae","state":"HI","lat":21.4352,"long":-158.1781},{"zip":"96795","city":"Waimanalo","state":"HI","lat":21.3418,"long":-157.7131},{"zip":"96797","city":"Waipahu","state":"HI","lat":21.3982,"long":-158.0124},{"zip":"96801","city":"Honolulu","state":"HI","lat":21.3278,"long":-157.8294},{"zip":"96802","city":"Honolulu","state":"HI","lat":21.306,"long":-157.8587},{"zip":"96803","city":"Honolulu","state":"HI","lat":21.306,"long":-157.8585},{"zip":"96804","city":"Honolulu","state":"HI","lat":21.306,"long":-157.8585},{"zip":"96805","city":"Honolulu","state":"HI","lat":21.3062,"long":-157.8585},{"zip":"96806","city":"Honolulu","state":"HI","lat":21.3062,"long":-157.8585},{"zip":"96807","city":"Honolulu","state":"HI","lat":21.3062,"long":-157.8585},{"zip":"96808","city":"Honolulu","state":"HI","lat":21.3062,"long":-157.8585},{"zip":"96809","city":"Honolulu","state":"HI","lat":21.3062,"long":-157.8585},{"zip":"96810","city":"Honolulu","state":"HI","lat":21.3062,"long":-157.8585},{"zip":"96811","city":"Honolulu","state":"HI","lat":21.3278,"long":-157.8294},{"zip":"96812","city":"Honolulu","state":"HI","lat":21.3061,"long":-157.8585},{"zip":"96813","city":"Honolulu","state":"HI","lat":21.3179,"long":-157.8521},{"zip":"96814","city":"Honolulu","state":"HI","lat":21.2998,"long":-157.8439},{"zip":"96815","city":"Honolulu","state":"HI","lat":21.2811,"long":-157.8266},{"zip":"96816","city":"Honolulu","state":"HI","lat":21.2887,"long":-157.8006},{"zip":"96817","city":"Honolulu","state":"HI","lat":21.3295,"long":-157.8615},{"zip":"96818","city":"Honolulu","state":"HI","lat":21.3532,"long":-157.9269},{"zip":"96819","city":"Honolulu","state":"HI","lat":21.3488,"long":-157.8759},{"zip":"96820","city":"Honolulu","state":"HI","lat":21.351,"long":-157.8795},{"zip":"96821","city":"Honolulu","state":"HI","lat":21.2928,"long":-157.7552},{"zip":"96822","city":"Honolulu","state":"HI","lat":21.3117,"long":-157.8298},{"zip":"96823","city":"Honolulu","state":"HI","lat":21.3072,"long":-157.8465},{"zip":"96824","city":"Honolulu","state":"HI","lat":21.2808,"long":-157.7552},{"zip":"96825","city":"Honolulu","state":"HI","lat":21.2987,"long":-157.6985},{"zip":"96826","city":"Honolulu","state":"HI","lat":21.2941,"long":-157.8284},{"zip":"96828","city":"Honolulu","state":"HI","lat":21.294,"long":-157.8226},{"zip":"96830","city":"Honolulu","state":"HI","lat":21.2841,"long":-157.834},{"zip":"96836","city":"Honolulu","state":"HI","lat":21.2899,"long":-157.8384},{"zip":"96837","city":"Honolulu","state":"HI","lat":21.315,"long":-157.8633},{"zip":"96838","city":"Honolulu","state":"HI","lat":21.349,"long":-157.875},{"zip":"96839","city":"Honolulu","state":"HI","lat":21.3206,"long":-157.8126},{"zip":"96840","city":"Honolulu","state":"HI","lat":21.3068,"long":-157.8607},{"zip":"96841","city":"Honolulu","state":"HI","lat":21.3103,"long":-157.8594},{"zip":"96843","city":"Honolulu","state":"HI","lat":21.3055,"long":-157.853},{"zip":"96844","city":"Honolulu","state":"HI","lat":21.2951,"long":-157.8162},{"zip":"96846","city":"Honolulu","state":"HI","lat":21.3206,"long":-157.8699},{"zip":"96847","city":"Honolulu","state":"HI","lat":21.3022,"long":-157.8443},{"zip":"96848","city":"Honolulu","state":"HI","lat":21.3206,"long":-157.8126},{"zip":"96849","city":"Honolulu","state":"HI","lat":21.3341,"long":-157.9172},{"zip":"96850","city":"Honolulu","state":"HI","lat":21.3095,"long":-157.863},{"zip":"96853","city":"Jbphh","state":"HI","lat":21.4061,"long":-157.9609},{"zip":"96854","city":"Wheeler Army Airfield","state":"HI","lat":21.4877,"long":-158.0351},{"zip":"96857","city":"Schofield Barracks","state":"HI","lat":21.4963,"long":-158.0646},{"zip":"96858","city":"Fort Shafter","state":"HI","lat":21.3416,"long":-157.8918},{"zip":"96859","city":"Tripler Army Medical Center","state":"HI","lat":21.4061,"long":-157.9609},{"zip":"96860","city":"Jbphh","state":"HI","lat":21.316,"long":-157.8677},{"zip":"96861","city":"Camp H M Smith","state":"HI","lat":21.3967,"long":-157.8994},{"zip":"96863","city":"Mcbh Kaneohe Bay","state":"HI","lat":21.316,"long":-157.8677},{"zip":"96898","city":"Wake Island","state":"HI","lat":19.2836,"long":166.6419},{"zip":"96703","city":"Anahola","state":"HI","lat":22.1423,"long":-159.3139},{"zip":"96705","city":"Eleele","state":"HI","lat":21.9074,"long":-159.5832},{"zip":"96714","city":"Hanalei","state":"HI","lat":22.1603,"long":-159.5471},{"zip":"96715","city":"Hanamaulu","state":"HI","lat":21.9977,"long":-159.3592},{"zip":"96716","city":"Hanapepe","state":"HI","lat":21.9156,"long":-159.592},{"zip":"96722","city":"Princeville","state":"HI","lat":22.2192,"long":-159.4866},{"zip":"96741","city":"Kalaheo","state":"HI","lat":21.9259,"long":-159.5303},{"zip":"96746","city":"Kapaa","state":"HI","lat":22.0868,"long":-159.3448},{"zip":"96747","city":"Kaumakani","state":"HI","lat":21.9213,"long":-159.6241},{"zip":"96751","city":"Kealia","state":"HI","lat":22.106,"long":-159.3085},{"zip":"96752","city":"Kekaha","state":"HI","lat":21.9735,"long":-159.7199},{"zip":"96754","city":"Kilauea","state":"HI","lat":22.2073,"long":-159.3954},{"zip":"96756","city":"Koloa","state":"HI","lat":21.9083,"long":-159.4749},{"zip":"96765","city":"Lawai","state":"HI","lat":21.9309,"long":-159.4993},{"zip":"96766","city":"Lihue","state":"HI","lat":21.9816,"long":-159.3683},{"zip":"96769","city":"Makaweli","state":"HI","lat":21.9454,"long":-159.9214},{"zip":"96796","city":"Waimea","state":"HI","lat":21.9685,"long":-159.6694},{"zip":"96708","city":"Haiku","state":"HI","lat":20.9071,"long":-156.3},{"zip":"96713","city":"Hana","state":"HI","lat":20.7616,"long":-156.0397},{"zip":"96729","city":"Hoolehua","state":"HI","lat":21.173,"long":-157.0791},{"zip":"96732","city":"Kahului","state":"HI","lat":20.8814,"long":-156.4783},{"zip":"96733","city":"Kahului","state":"HI","lat":20.8895,"long":-156.4743},{"zip":"96742","city":"Kalaupapa","state":"HI","lat":21.1929,"long":-156.9835},{"zip":"96748","city":"Kaunakakai","state":"HI","lat":21.0905,"long":-156.969},{"zip":"96753","city":"Kihei","state":"HI","lat":20.7441,"long":-156.4475},{"zip":"96757","city":"Kualapuu","state":"HI","lat":21.1601,"long":-157.0277},{"zip":"96761","city":"Lahaina","state":"HI","lat":20.9174,"long":-156.6772},{"zip":"96763","city":"Lanai City","state":"HI","lat":20.8293,"long":-156.921},{"zip":"96767","city":"Lahaina","state":"HI","lat":20.8666,"long":-156.6467},{"zip":"96768","city":"Makawao","state":"HI","lat":20.8469,"long":-156.3327},{"zip":"96770","city":"Maunaloa","state":"HI","lat":21.1422,"long":-157.2193},{"zip":"96779","city":"Paia","state":"HI","lat":20.9154,"long":-156.3802},{"zip":"96784","city":"Puunene","state":"HI","lat":20.8666,"long":-156.6467},{"zip":"96788","city":"Pukalani","state":"HI","lat":20.8559,"long":-156.3259},{"zip":"96790","city":"Kula","state":"HI","lat":20.7534,"long":-156.326},{"zip":"96793","city":"Wailuku","state":"HI","lat":20.8966,"long":-156.5036},{"zip":"96960","city":"Marshall Islands","state":"MH","lat":null,"long":171.237},{"zip":"96970","city":"Ebeye","state":"MH","lat":null,"long":167.7365},{"zip":"96950","city":"Saipan","state":"MP","lat":15.1917,"long":145.7472},{"zip":"96952","city":"Tinian","state":"MP","lat":15.0125,"long":145.625},{"zip":"96951","city":"Rota","state":"MP","lat":31.8243,"long":-101.0372},{"zip":"96940","city":"Palau","state":"PW","lat":null,"long":134.3622},{"zip":"96691","city":"FPO","state":"AP","lat":0,"long":0}]
