[{"zip":"96009","city":"Bieber","state":"CA","lat":41.1315,"long":-121.1286},{"zip":"96068","city":"Nubieber","state":"CA","lat":41.0957,"long":-121.183},{"zip":"96006","city":"Adin","state":"CA","lat":41.2175,"long":-120.9432},{"zip":"96015","city":"Canby","state":"CA","lat":41.4664,"long":-120.9218},{"zip":"96054","city":"Lookout","state":"CA","lat":41.2347,"long":-121.2156},{"zip":"96020","city":"Chester","state":"CA","lat":40.2975,"long":-121.2273},{"zip":"96001","city":"Redding","state":"CA","lat":40.5605,"long":-122.4116},{"zip":"96002","city":"Redding","state":"CA","lat":40.5486,"long":-122.3339},{"zip":"96003","city":"Redding","state":"CA","lat":40.6278,"long":-122.353},{"zip":"96007","city":"Anderson","state":"CA","lat":40.4574,"long":-122.3282},{"zip":"96008","city":"Bella Vista","state":"CA","lat":40.7409,"long":-122.0725},{"zip":"96011","city":"Big Bend","state":"CA","lat":40.9749,"long":-121.825},{"zip":"96013","city":"Burney","state":"CA","lat":40.8949,"long":-121.655},{"zip":"96016","city":"Cassel","state":"CA","lat":40.9337,"long":-121.5677},{"zip":"96017","city":"Castella","state":"CA","lat":41.1103,"long":-122.3161},{"zip":"96019","city":"Shasta Lake","state":"CA","lat":40.6969,"long":-122.3683},{"zip":"96022","city":"Cottonwood","state":"CA","lat":40.3691,"long":-122.3375},{"zip":"96028","city":"Fall River Mills","state":"CA","lat":41.0393,"long":-121.4606},{"zip":"96033","city":"French Gulch","state":"CA","lat":40.7035,"long":-122.6229},{"zip":"96040","city":"Hat Creek","state":"CA","lat":40.7677,"long":-121.4637},{"zip":"96047","city":"Igo","state":"CA","lat":40.4318,"long":-122.654},{"zip":"96049","city":"Redding","state":"CA","lat":40.7098,"long":-122.3116},{"zip":"96051","city":"Lakehead","state":"CA","lat":40.9105,"long":-122.4106},{"zip":"96056","city":"Mcarthur","state":"CA","lat":41.0502,"long":-121.3991},{"zip":"96062","city":"Millville","state":"CA","lat":40.5653,"long":-122.1111},{"zip":"96065","city":"Montgomery Creek","state":"CA","lat":40.9124,"long":-121.9233},{"zip":"96069","city":"Oak Run","state":"CA","lat":40.6863,"long":-122.0409},{"zip":"96070","city":"Obrien","state":"CA","lat":40.7352,"long":-122.1944},{"zip":"96071","city":"Old Station","state":"CA","lat":40.6256,"long":-121.4585},{"zip":"96073","city":"Palo Cedro","state":"CA","lat":40.5767,"long":-122.2398},{"zip":"96076","city":"Platina","state":"CA","lat":40.376,"long":-122.937},{"zip":"96079","city":"Shasta Lake","state":"CA","lat":40.6866,"long":-122.3348},{"zip":"96084","city":"Round Mountain","state":"CA","lat":40.794,"long":-121.9419},{"zip":"96087","city":"Shasta","state":"CA","lat":40.6109,"long":-122.4968},{"zip":"96088","city":"Shingletown","state":"CA","lat":40.505,"long":-121.8857},{"zip":"96089","city":"Shasta Lake","state":"CA","lat":40.6579,"long":-122.4273},{"zip":"96095","city":"Whiskeytown","state":"CA","lat":40.6388,"long":-122.5597},{"zip":"96096","city":"Whitmore","state":"CA","lat":40.6525,"long":-121.8771},{"zip":"96099","city":"Redding","state":"CA","lat":40.7043,"long":-122.3878},{"zip":"96014","city":"Callahan","state":"CA","lat":41.3833,"long":-122.764},{"zip":"96023","city":"Dorris","state":"CA","lat":41.9194,"long":-121.9739},{"zip":"96025","city":"Dunsmuir","state":"CA","lat":41.2124,"long":-122.2734},{"zip":"96027","city":"Etna","state":"CA","lat":41.4463,"long":-123.01},{"zip":"96031","city":"Forks Of Salmon","state":"CA","lat":41.2191,"long":-123.2363},{"zip":"96032","city":"Fort Jones","state":"CA","lat":41.617,"long":-122.8832},{"zip":"96034","city":"Gazelle","state":"CA","lat":41.5105,"long":-122.5371},{"zip":"96037","city":"Greenview","state":"CA","lat":41.5403,"long":-122.9366},{"zip":"96038","city":"Grenada","state":"CA","lat":41.6125,"long":-122.5258},{"zip":"96039","city":"Happy Camp","state":"CA","lat":41.8018,"long":-123.388},{"zip":"96044","city":"Hornbrook","state":"CA","lat":41.9077,"long":-122.5265},{"zip":"96050","city":"Klamath River","state":"CA","lat":41.8637,"long":-122.8197},{"zip":"96057","city":"Mccloud","state":"CA","lat":41.2475,"long":-122.1128},{"zip":"96058","city":"Macdoel","state":"CA","lat":41.883,"long":-121.9445},{"zip":"96064","city":"Montague","state":"CA","lat":41.7243,"long":-122.4638},{"zip":"96067","city":"Mount Shasta","state":"CA","lat":41.3174,"long":-122.324},{"zip":"96085","city":"Scott Bar","state":"CA","lat":41.7736,"long":-122.9882},{"zip":"96086","city":"Seiad Valley","state":"CA","lat":41.8866,"long":-123.2438},{"zip":"96094","city":"Weed","state":"CA","lat":41.4226,"long":-122.3861},{"zip":"96097","city":"Yreka","state":"CA","lat":41.7206,"long":-122.6376},{"zip":"96021","city":"Corning","state":"CA","lat":39.9296,"long":-122.196},{"zip":"96029","city":"Flournoy","state":"CA","lat":39.9024,"long":-122.4918},{"zip":"96035","city":"Gerber","state":"CA","lat":40.043,"long":-122.1649},{"zip":"96055","city":"Los Molinos","state":"CA","lat":40.0497,"long":-122.0992},{"zip":"96059","city":"Manton","state":"CA","lat":40.4331,"long":-121.8365},{"zip":"96061","city":"Mill Creek","state":"CA","lat":40.3263,"long":-121.5228},{"zip":"96063","city":"Mineral","state":"CA","lat":40.3564,"long":-121.571},{"zip":"96074","city":"Paskenta","state":"CA","lat":39.8772,"long":-122.5814},{"zip":"96075","city":"Paynes Creek","state":"CA","lat":40.3514,"long":-121.765},{"zip":"96078","city":"Proberta","state":"CA","lat":40.0815,"long":-122.1705},{"zip":"96080","city":"Red Bluff","state":"CA","lat":40.1795,"long":-122.2383},{"zip":"96090","city":"Tehama","state":"CA","lat":40.0271,"long":-122.1233},{"zip":"96092","city":"Vina","state":"CA","lat":39.9272,"long":-122.025},{"zip":"96010","city":"Big Bar","state":"CA","lat":40.748,"long":-123.229},{"zip":"96024","city":"Douglas City","state":"CA","lat":40.6342,"long":-122.9239},{"zip":"96041","city":"Hayfork","state":"CA","lat":40.5504,"long":-123.1634},{"zip":"96046","city":"Hyampom","state":"CA","lat":40.6137,"long":-123.4488},{"zip":"96048","city":"Junction City","state":"CA","lat":40.7411,"long":-123.0718},{"zip":"96052","city":"Lewiston","state":"CA","lat":40.746,"long":-122.8426},{"zip":"96091","city":"Trinity Center","state":"CA","lat":41.0615,"long":-122.7239},{"zip":"96093","city":"Weaverville","state":"CA","lat":40.7317,"long":-122.9353}]
