[{"zip":"96120","city":"Markleeville","state":"CA","lat":38.7713,"long":-119.8327},{"zip":"96142","city":"Tahoma","state":"CA","lat":39.0644,"long":-120.1357},{"zip":"96150","city":"South Lake Tahoe","state":"CA","lat":38.917,"long":-119.9865},{"zip":"96151","city":"South Lake Tahoe","state":"CA","lat":38.9039,"long":-119.995},{"zip":"96152","city":"South Lake Tahoe","state":"CA","lat":38.9271,"long":-119.999},{"zip":"96154","city":"South Lake Tahoe","state":"CA","lat":38.8753,"long":-120.0188},{"zip":"96155","city":"South Lake Tahoe","state":"CA","lat":38.8449,"long":-120.043},{"zip":"96156","city":"South Lake Tahoe","state":"CA","lat":38.9352,"long":-119.9676},{"zip":"96157","city":"South Lake Tahoe","state":"CA","lat":38.9344,"long":-119.9767},{"zip":"96158","city":"South Lake Tahoe","state":"CA","lat":38.8981,"long":-119.9984},{"zip":"96109","city":"Doyle","state":"CA","lat":40.0008,"long":-120.1077},{"zip":"96113","city":"Herlong","state":"CA","lat":40.1485,"long":-120.1713},{"zip":"96114","city":"Janesville","state":"CA","lat":40.2963,"long":-120.5098},{"zip":"96117","city":"Litchfield","state":"CA","lat":40.4073,"long":-120.4092},{"zip":"96119","city":"Madeline","state":"CA","lat":40.9766,"long":-120.5548},{"zip":"96121","city":"Milford","state":"CA","lat":40.1828,"long":-120.3895},{"zip":"96123","city":"Ravendale","state":"CA","lat":40.8317,"long":-120.16},{"zip":"96127","city":"Susanville","state":"CA","lat":40.4163,"long":-120.653},{"zip":"96128","city":"Standish","state":"CA","lat":40.3509,"long":-120.4068},{"zip":"96130","city":"Susanville","state":"CA","lat":40.3983,"long":-120.6464},{"zip":"96132","city":"Termo","state":"CA","lat":40.9509,"long":-120.613},{"zip":"96136","city":"Wendel","state":"CA","lat":40.3406,"long":-120.2824},{"zip":"96137","city":"Westwood","state":"CA","lat":40.3038,"long":-121.0226},{"zip":"96101","city":"Alturas","state":"CA","lat":41.4767,"long":-120.5456},{"zip":"96104","city":"Cedarville","state":"CA","lat":41.4759,"long":-120.1516},{"zip":"96108","city":"Davis Creek","state":"CA","lat":41.7336,"long":-120.3741},{"zip":"96110","city":"Eagleville","state":"CA","lat":41.3163,"long":-120.1158},{"zip":"96112","city":"Fort Bidwell","state":"CA","lat":41.8644,"long":-120.162},{"zip":"96115","city":"Lake City","state":"CA","lat":41.6682,"long":-120.1814},{"zip":"96116","city":"Likely","state":"CA","lat":41.2329,"long":-120.5079},{"zip":"96107","city":"Coleville","state":"CA","lat":38.5029,"long":-119.4828},{"zip":"96133","city":"Topaz","state":"CA","lat":38.6415,"long":-119.5122},{"zip":"96111","city":"Floriston","state":"CA","lat":39.3928,"long":-120.0212},{"zip":"96160","city":"Truckee","state":"CA","lat":39.328,"long":-120.1833},{"zip":"96161","city":"Truckee","state":"CA","lat":39.3385,"long":-120.1729},{"zip":"96162","city":"Truckee","state":"CA","lat":39.328,"long":-120.1833},{"zip":"96140","city":"Carnelian Bay","state":"CA","lat":39.2319,"long":-120.0753},{"zip":"96141","city":"Homewood","state":"CA","lat":39.0786,"long":-120.1734},{"zip":"96143","city":"Kings Beach","state":"CA","lat":39.2401,"long":-120.0233},{"zip":"96145","city":"Tahoe City","state":"CA","lat":39.1806,"long":-120.1445},{"zip":"96146","city":"Olympic Valley","state":"CA","lat":39.1752,"long":-120.1954},{"zip":"96148","city":"Tahoe Vista","state":"CA","lat":39.2448,"long":-120.0521},{"zip":"96103","city":"Blairsden Graeagle","state":"CA","lat":40.1919,"long":-120.1746},{"zip":"96105","city":"Chilcoot","state":"CA","lat":39.7977,"long":-120.1396},{"zip":"96106","city":"Clio","state":"CA","lat":39.7546,"long":-120.5951},{"zip":"96122","city":"Portola","state":"CA","lat":39.8105,"long":-120.4691},{"zip":"96129","city":"Beckwourth","state":"CA","lat":39.7721,"long":-120.4051},{"zip":"96135","city":"Vinton","state":"CA","lat":39.8043,"long":-120.1783},{"zip":"96118","city":"Loyalton","state":"CA","lat":39.663,"long":-120.2297},{"zip":"96124","city":"Calpine","state":"CA","lat":39.6139,"long":-120.4046},{"zip":"96125","city":"Sierra City","state":"CA","lat":39.5936,"long":-120.6269},{"zip":"96126","city":"Sierraville","state":"CA","lat":39.5825,"long":-120.3711},{"zip":"96134","city":"Tulelake","state":"CA","lat":41.9316,"long":-121.4347}]
