[{"zip":"96704","city":"Captain Cook","state":"HI","lat":19.4386,"long":-155.8875},{"zip":"96710","city":"Hakalau","state":"HI","lat":19.8882,"long":-155.1333},{"zip":"96718","city":"Hawaii National Park","state":"HI","lat":19.5935,"long":-155.438},{"zip":"96719","city":"Hawi","state":"HI","lat":20.238,"long":-155.838},{"zip":"96720","city":"Hilo","state":"HI","lat":19.7025,"long":-155.0939},{"zip":"96721","city":"Hilo","state":"HI","lat":19.7299,"long":-155.0907},{"zip":"96725","city":"Holualoa","state":"HI","lat":19.6103,"long":-155.9176},{"zip":"96726","city":"Honaunau","state":"HI","lat":19.2783,"long":-155.8453},{"zip":"96727","city":"Honokaa","state":"HI","lat":20.0827,"long":-155.488},{"zip":"96728","city":"Honomu","state":"HI","lat":19.8728,"long":-155.1177},{"zip":"96737","city":"Ocean View","state":"HI","lat":19.1002,"long":-155.7258},{"zip":"96738","city":"Waikoloa","state":"HI","lat":19.9724,"long":-155.818},{"zip":"96739","city":"Keauhou","state":"HI","lat":19.5606,"long":-155.9623},{"zip":"96740","city":"Kailua Kona","state":"HI","lat":19.6531,"long":-155.9798},{"zip":"96743","city":"Kamuela","state":"HI","lat":20.0081,"long":-155.7052},{"zip":"96745","city":"Kailua Kona","state":"HI","lat":19.5935,"long":-155.438},{"zip":"96749","city":"Keaau","state":"HI","lat":19.5893,"long":-154.9926},{"zip":"96750","city":"Kealakekua","state":"HI","lat":19.5261,"long":-155.93},{"zip":"96755","city":"Kapaau","state":"HI","lat":20.2183,"long":-155.799},{"zip":"96760","city":"Kurtistown","state":"HI","lat":19.5693,"long":-155.0349},{"zip":"96764","city":"Laupahoehoe","state":"HI","lat":19.9802,"long":-155.2323},{"zip":"96771","city":"Mountain View","state":"HI","lat":19.5506,"long":-155.0864},{"zip":"96772","city":"Naalehu","state":"HI","lat":19.0668,"long":-155.6575},{"zip":"96773","city":"Ninole","state":"HI","lat":19.935,"long":-155.1668},{"zip":"96774","city":"Ookala","state":"HI","lat":20.0119,"long":-155.2747},{"zip":"96776","city":"Paauilo","state":"HI","lat":20.0271,"long":-155.3697},{"zip":"96777","city":"Pahala","state":"HI","lat":19.2079,"long":-155.4815},{"zip":"96778","city":"Pahoa","state":"HI","lat":19.5089,"long":-154.9231},{"zip":"96780","city":"Papaaloa","state":"HI","lat":19.9751,"long":-155.2203},{"zip":"96781","city":"Papaikou","state":"HI","lat":19.7916,"long":-155.0984},{"zip":"96783","city":"Pepeekeo","state":"HI","lat":19.8353,"long":-155.113},{"zip":"96785","city":"Volcano","state":"HI","lat":19.4801,"long":-155.1974},{"zip":"96701","city":"Aiea","state":"HI","lat":21.3908,"long":-157.9332},{"zip":"96706","city":"Ewa Beach","state":"HI","lat":21.3274,"long":-158.0103},{"zip":"96707","city":"Kapolei","state":"HI","lat":21.3453,"long":-158.087},{"zip":"96709","city":"Kapolei","state":"HI","lat":21.3233,"long":-158.0058},{"zip":"96712","city":"Haleiwa","state":"HI","lat":21.6312,"long":-158.0693},{"zip":"96717","city":"Hauula","state":"HI","lat":21.6139,"long":-157.9157},{"zip":"96730","city":"Kaaawa","state":"HI","lat":21.5481,"long":-157.8495},{"zip":"96731","city":"Kahuku","state":"HI","lat":21.675,"long":-157.9725},{"zip":"96734","city":"Kailua","state":"HI","lat":21.4063,"long":-157.7448},{"zip":"96744","city":"Kaneohe","state":"HI","lat":21.4228,"long":-157.8115},{"zip":"96759","city":"Kunia","state":"HI","lat":21.463,"long":-158.0639},{"zip":"96762","city":"Laie","state":"HI","lat":21.6253,"long":-157.941},{"zip":"96782","city":"Pearl City","state":"HI","lat":21.4084,"long":-157.9652},{"zip":"96786","city":"Wahiawa","state":"HI","lat":21.5006,"long":-158.0435},{"zip":"96789","city":"Mililani","state":"HI","lat":21.4531,"long":-158.0174},{"zip":"96791","city":"Waialua","state":"HI","lat":21.5766,"long":-158.1267},{"zip":"96792","city":"Waianae","state":"HI","lat":21.4352,"long":-158.1781},{"zip":"96795","city":"Waimanalo","state":"HI","lat":21.3418,"long":-157.7131},{"zip":"96797","city":"Waipahu","state":"HI","lat":21.3982,"long":-158.0124},{"zip":"96703","city":"Anahola","state":"HI","lat":22.1423,"long":-159.3139},{"zip":"96705","city":"Eleele","state":"HI","lat":21.9074,"long":-159.5832},{"zip":"96714","city":"Hanalei","state":"HI","lat":22.1603,"long":-159.5471},{"zip":"96715","city":"Hanamaulu","state":"HI","lat":21.9977,"long":-159.3592},{"zip":"96716","city":"Hanapepe","state":"HI","lat":21.9156,"long":-159.592},{"zip":"96722","city":"Princeville","state":"HI","lat":22.2192,"long":-159.4866},{"zip":"96741","city":"Kalaheo","state":"HI","lat":21.9259,"long":-159.5303},{"zip":"96746","city":"Kapaa","state":"HI","lat":22.0868,"long":-159.3448},{"zip":"96747","city":"Kaumakani","state":"HI","lat":21.9213,"long":-159.6241},{"zip":"96751","city":"Kealia","state":"HI","lat":22.106,"long":-159.3085},{"zip":"96752","city":"Kekaha","state":"HI","lat":21.9735,"long":-159.7199},{"zip":"96754","city":"Kilauea","state":"HI","lat":22.2073,"long":-159.3954},{"zip":"96756","city":"Koloa","state":"HI","lat":21.9083,"long":-159.4749},{"zip":"96765","city":"Lawai","state":"HI","lat":21.9309,"long":-159.4993},{"zip":"96766","city":"Lihue","state":"HI","lat":21.9816,"long":-159.3683},{"zip":"96769","city":"Makaweli","state":"HI","lat":21.9454,"long":-159.9214},{"zip":"96796","city":"Waimea","state":"HI","lat":21.9685,"long":-159.6694},{"zip":"96708","city":"Haiku","state":"HI","lat":20.9071,"long":-156.3},{"zip":"96713","city":"Hana","state":"HI","lat":20.7616,"long":-156.0397},{"zip":"96729","city":"Hoolehua","state":"HI","lat":21.173,"long":-157.0791},{"zip":"96732","city":"Kahului","state":"HI","lat":20.8814,"long":-156.4783},{"zip":"96733","city":"Kahului","state":"HI","lat":20.8895,"long":-156.4743},{"zip":"96742","city":"Kalaupapa","state":"HI","lat":21.1929,"long":-156.9835},{"zip":"96748","city":"Kaunakakai","state":"HI","lat":21.0905,"long":-156.969},{"zip":"96753","city":"Kihei","state":"HI","lat":20.7441,"long":-156.4475},{"zip":"96757","city":"Kualapuu","state":"HI","lat":21.1601,"long":-157.0277},{"zip":"96761","city":"Lahaina","state":"HI","lat":20.9174,"long":-156.6772},{"zip":"96763","city":"Lanai City","state":"HI","lat":20.8293,"long":-156.921},{"zip":"96767","city":"Lahaina","state":"HI","lat":20.8666,"long":-156.6467},{"zip":"96768","city":"Makawao","state":"HI","lat":20.8469,"long":-156.3327},{"zip":"96770","city":"Maunaloa","state":"HI","lat":21.1422,"long":-157.2193},{"zip":"96779","city":"Paia","state":"HI","lat":20.9154,"long":-156.3802},{"zip":"96784","city":"Puunene","state":"HI","lat":20.8666,"long":-156.6467},{"zip":"96788","city":"Pukalani","state":"HI","lat":20.8559,"long":-156.3259},{"zip":"96790","city":"Kula","state":"HI","lat":20.7534,"long":-156.326},{"zip":"96793","city":"Wailuku","state":"HI","lat":20.8966,"long":-156.5036}]
