[{"zip":"96801","city":"Honolulu","state":"HI","lat":21.3278,"long":-157.8294},{"zip":"96802","city":"Honolulu","state":"HI","lat":21.306,"long":-157.8587},{"zip":"96803","city":"Honolulu","state":"HI","lat":21.306,"long":-157.8585},{"zip":"96804","city":"Honolulu","state":"HI","lat":21.306,"long":-157.8585},{"zip":"96805","city":"Honolulu","state":"HI","lat":21.3062,"long":-157.8585},{"zip":"96806","city":"Honolulu","state":"HI","lat":21.3062,"long":-157.8585},{"zip":"96807","city":"Honolulu","state":"HI","lat":21.3062,"long":-157.8585},{"zip":"96808","city":"Honolulu","state":"HI","lat":21.3062,"long":-157.8585},{"zip":"96809","city":"Honolulu","state":"HI","lat":21.3062,"long":-157.8585},{"zip":"96810","city":"Honolulu","state":"HI","lat":21.3062,"long":-157.8585},{"zip":"96811","city":"Honolulu","state":"HI","lat":21.3278,"long":-157.8294},{"zip":"96812","city":"Honolulu","state":"HI","lat":21.3061,"long":-157.8585},{"zip":"96813","city":"Honolulu","state":"HI","lat":21.3179,"long":-157.8521},{"zip":"96814","city":"Honolulu","state":"HI","lat":21.2998,"long":-157.8439},{"zip":"96815","city":"Honolulu","state":"HI","lat":21.2811,"long":-157.8266},{"zip":"96816","city":"Honolulu","state":"HI","lat":21.2887,"long":-157.8006},{"zip":"96817","city":"Honolulu","state":"HI","lat":21.3295,"long":-157.8615},{"zip":"96818","city":"Honolulu","state":"HI","lat":21.3532,"long":-157.9269},{"zip":"96819","city":"Honolulu","state":"HI","lat":21.3488,"long":-157.8759},{"zip":"96820","city":"Honolulu","state":"HI","lat":21.351,"long":-157.8795},{"zip":"96821","city":"Honolulu","state":"HI","lat":21.2928,"long":-157.7552},{"zip":"96822","city":"Honolulu","state":"HI","lat":21.3117,"long":-157.8298},{"zip":"96823","city":"Honolulu","state":"HI","lat":21.3072,"long":-157.8465},{"zip":"96824","city":"Honolulu","state":"HI","lat":21.2808,"long":-157.7552},{"zip":"96825","city":"Honolulu","state":"HI","lat":21.2987,"long":-157.6985},{"zip":"96826","city":"Honolulu","state":"HI","lat":21.2941,"long":-157.8284},{"zip":"96828","city":"Honolulu","state":"HI","lat":21.294,"long":-157.8226},{"zip":"96830","city":"Honolulu","state":"HI","lat":21.2841,"long":-157.834},{"zip":"96836","city":"Honolulu","state":"HI","lat":21.2899,"long":-157.8384},{"zip":"96837","city":"Honolulu","state":"HI","lat":21.315,"long":-157.8633},{"zip":"96838","city":"Honolulu","state":"HI","lat":21.349,"long":-157.875},{"zip":"96839","city":"Honolulu","state":"HI","lat":21.3206,"long":-157.8126},{"zip":"96840","city":"Honolulu","state":"HI","lat":21.3068,"long":-157.8607},{"zip":"96841","city":"Honolulu","state":"HI","lat":21.3103,"long":-157.8594},{"zip":"96843","city":"Honolulu","state":"HI","lat":21.3055,"long":-157.853},{"zip":"96844","city":"Honolulu","state":"HI","lat":21.2951,"long":-157.8162},{"zip":"96846","city":"Honolulu","state":"HI","lat":21.3206,"long":-157.8699},{"zip":"96847","city":"Honolulu","state":"HI","lat":21.3022,"long":-157.8443},{"zip":"96848","city":"Honolulu","state":"HI","lat":21.3206,"long":-157.8126},{"zip":"96849","city":"Honolulu","state":"HI","lat":21.3341,"long":-157.9172},{"zip":"96850","city":"Honolulu","state":"HI","lat":21.3095,"long":-157.863},{"zip":"96853","city":"Jbphh","state":"HI","lat":21.4061,"long":-157.9609},{"zip":"96854","city":"Wheeler Army Airfield","state":"HI","lat":21.4877,"long":-158.0351},{"zip":"96857","city":"Schofield Barracks","state":"HI","lat":21.4963,"long":-158.0646},{"zip":"96858","city":"Fort Shafter","state":"HI","lat":21.3416,"long":-157.8918},{"zip":"96859","city":"Tripler Army Medical Center","state":"HI","lat":21.4061,"long":-157.9609},{"zip":"96860","city":"Jbphh","state":"HI","lat":21.316,"long":-157.8677},{"zip":"96861","city":"Camp H M Smith","state":"HI","lat":21.3967,"long":-157.8994},{"zip":"96863","city":"Mcbh Kaneohe Bay","state":"HI","lat":21.316,"long":-157.8677},{"zip":"96898","city":"Wake Island","state":"HI","lat":19.2836,"long":166.6419}]
