[{"zip":"97814","city":"Baker City","state":"OR","lat":44.7749,"long":-117.8344},{"zip":"97819","city":"Bridgeport","state":"OR","lat":44.4931,"long":-117.7655},{"zip":"97833","city":"Haines","state":"OR","lat":44.8776,"long":-117.9756},{"zip":"97834","city":"Halfway","state":"OR","lat":44.8953,"long":-117.1132},{"zip":"97837","city":"Hereford","state":"OR","lat":44.5304,"long":-118.0293},{"zip":"97840","city":"Oxbow","state":"OR","lat":44.9749,"long":-116.8629},{"zip":"97870","city":"Richland","state":"OR","lat":44.797,"long":-117.3018},{"zip":"97877","city":"Sumpter","state":"OR","lat":44.7457,"long":-118.2022},{"zip":"97884","city":"Unity","state":"OR","lat":44.4374,"long":-118.1927},{"zip":"97905","city":"Durkee","state":"OR","lat":44.4988,"long":-117.4129},{"zip":"97907","city":"Huntington","state":"OR","lat":44.3811,"long":-117.3097},{"zip":"97324","city":"Alsea","state":"OR","lat":44.3691,"long":-123.6089},{"zip":"97326","city":"Blodgett","state":"OR","lat":44.6281,"long":-123.6067},{"zip":"97330","city":"Corvallis","state":"OR","lat":44.5904,"long":-123.2722},{"zip":"97331","city":"Corvallis","state":"OR","lat":44.5638,"long":-123.2779},{"zip":"97333","city":"Corvallis","state":"OR","lat":44.5393,"long":-123.2799},{"zip":"97339","city":"Corvallis","state":"OR","lat":44.5646,"long":-123.262},{"zip":"97370","city":"Philomath","state":"OR","lat":44.5488,"long":-123.3923},{"zip":"97456","city":"Monroe","state":"OR","lat":44.3245,"long":-123.3203},{"zip":"97004","city":"Beavercreek","state":"OR","lat":45.2597,"long":-122.4751},{"zip":"97009","city":"Boring","state":"OR","lat":45.4297,"long":-122.3807},{"zip":"97011","city":"Brightwood","state":"OR","lat":45.3652,"long":-122.0036},{"zip":"97013","city":"Canby","state":"OR","lat":45.2514,"long":-122.6832},{"zip":"97015","city":"Clackamas","state":"OR","lat":45.415,"long":-122.52},{"zip":"97017","city":"Colton","state":"OR","lat":45.1573,"long":-122.4248},{"zip":"97022","city":"Eagle Creek","state":"OR","lat":45.3582,"long":-122.3381},{"zip":"97023","city":"Estacada","state":"OR","lat":45.2872,"long":-122.3259},{"zip":"97027","city":"Gladstone","state":"OR","lat":45.3899,"long":-122.5902},{"zip":"97028","city":"Government Camp","state":"OR","lat":45.2972,"long":-121.739},{"zip":"97034","city":"Lake Oswego","state":"OR","lat":45.4093,"long":-122.6847},{"zip":"97035","city":"Lake Oswego","state":"OR","lat":45.4147,"long":-122.7227},{"zip":"97036","city":"Marylhurst","state":"OR","lat":45.4012,"long":-122.6512},{"zip":"97038","city":"Molalla","state":"OR","lat":45.1223,"long":-122.5756},{"zip":"97042","city":"Mulino","state":"OR","lat":45.213,"long":-122.5351},{"zip":"97045","city":"Oregon City","state":"OR","lat":45.3377,"long":-122.57},{"zip":"97049","city":"Rhododendron","state":"OR","lat":45.3465,"long":-121.9151},{"zip":"97055","city":"Sandy","state":"OR","lat":45.379,"long":-122.223},{"zip":"97067","city":"Welches","state":"OR","lat":45.3399,"long":-121.9598},{"zip":"97068","city":"West Linn","state":"OR","lat":45.3669,"long":-122.648},{"zip":"97070","city":"Wilsonville","state":"OR","lat":45.2986,"long":-122.7699},{"zip":"97089","city":"Damascus","state":"OR","lat":45.4176,"long":-122.459},{"zip":"97222","city":"Portland","state":"OR","lat":45.4373,"long":-122.6147},{"zip":"97267","city":"Portland","state":"OR","lat":45.4021,"long":-122.6144},{"zip":"97268","city":"Portland","state":"OR","lat":45.5235,"long":-122.6762},{"zip":"97269","city":"Portland","state":"OR","lat":45.5235,"long":-122.6762},{"zip":"97102","city":"Arch Cape","state":"OR","lat":45.8109,"long":-123.963},{"zip":"97103","city":"Astoria","state":"OR","lat":46.1558,"long":-123.798},{"zip":"97110","city":"Cannon Beach","state":"OR","lat":45.8918,"long":-123.9615},{"zip":"97121","city":"Hammond","state":"OR","lat":46.198,"long":-123.9527},{"zip":"97138","city":"Seaside","state":"OR","lat":45.9932,"long":-123.9226},{"zip":"97145","city":"Tolovana Park","state":"OR","lat":45.8663,"long":-123.9595},{"zip":"97146","city":"Warrenton","state":"OR","lat":46.145,"long":-123.9254},{"zip":"97016","city":"Clatskanie","state":"OR","lat":46.0665,"long":-123.2059},{"zip":"97018","city":"Columbia City","state":"OR","lat":45.8925,"long":-122.8122},{"zip":"97048","city":"Rainier","state":"OR","lat":46.0646,"long":-122.9671},{"zip":"97051","city":"Saint Helens","state":"OR","lat":45.8608,"long":-122.8282},{"zip":"97053","city":"Warren","state":"OR","lat":45.826,"long":-122.8634},{"zip":"97054","city":"Deer Island","state":"OR","lat":45.9356,"long":-122.8985},{"zip":"97056","city":"Scappoose","state":"OR","lat":45.7655,"long":-122.8928},{"zip":"97064","city":"Vernonia","state":"OR","lat":45.8573,"long":-123.1967},{"zip":"97407","city":"Allegany","state":"OR","lat":43.4259,"long":-124.0323},{"zip":"97411","city":"Bandon","state":"OR","lat":43.0968,"long":-124.4037},{"zip":"97414","city":"Broadbent","state":"OR","lat":42.985,"long":-124.1189},{"zip":"97420","city":"Coos Bay","state":"OR","lat":43.2151,"long":-124.1984},{"zip":"97423","city":"Coquille","state":"OR","lat":43.1884,"long":-124.2014},{"zip":"97449","city":"Lakeside","state":"OR","lat":43.5833,"long":-124.1624},{"zip":"97458","city":"Myrtle Point","state":"OR","lat":43.0667,"long":-124.1213},{"zip":"97459","city":"North Bend","state":"OR","lat":43.4327,"long":-124.2131},{"zip":"97466","city":"Powers","state":"OR","lat":42.88,"long":-124.0709},{"zip":"97751","city":"Paulina","state":"OR","lat":44.2102,"long":-119.7828},{"zip":"97752","city":"Post","state":"OR","lat":44.0793,"long":-120.2998},{"zip":"97753","city":"Powell Butte","state":"OR","lat":44.2415,"long":-121.0113},{"zip":"97754","city":"Prineville","state":"OR","lat":44.3045,"long":-120.8336},{"zip":"97406","city":"Agness","state":"OR","lat":42.5748,"long":-124.0648},{"zip":"97415","city":"Brookings","state":"OR","lat":42.0526,"long":-124.284},{"zip":"97444","city":"Gold Beach","state":"OR","lat":42.4073,"long":-124.4218},{"zip":"97450","city":"Langlois","state":"OR","lat":42.9154,"long":-124.4413},{"zip":"97464","city":"Ophir","state":"OR","lat":42.5632,"long":-124.3829},{"zip":"97465","city":"Port Orford","state":"OR","lat":42.7572,"long":-124.4913},{"zip":"97476","city":"Sixes","state":"OR","lat":42.825,"long":-124.4409},{"zip":"97491","city":"Wedderburn","state":"OR","lat":42.6093,"long":-124.3886},{"zip":"97701","city":"Bend","state":"OR","lat":44.0928,"long":-121.2936},{"zip":"97702","city":"Bend","state":"OR","lat":44.0223,"long":-121.2985},{"zip":"97703","city":"Bend","state":"OR","lat":44.0915,"long":-121.4073},{"zip":"97707","city":"Bend","state":"OR","lat":43.8431,"long":-121.5764},{"zip":"97708","city":"Bend","state":"OR","lat":44.0582,"long":-121.3153},{"zip":"97709","city":"Bend","state":"OR","lat":44.0582,"long":-121.3153},{"zip":"97712","city":"Brothers","state":"OR","lat":43.7789,"long":-120.477},{"zip":"97739","city":"La Pine","state":"OR","lat":43.7091,"long":-121.5194},{"zip":"97756","city":"Redmond","state":"OR","lat":44.2767,"long":-121.1896},{"zip":"97759","city":"Sisters","state":"OR","lat":44.3165,"long":-121.5091},{"zip":"97760","city":"Terrebonne","state":"OR","lat":44.3909,"long":-121.2379},{"zip":"97410","city":"Azalea","state":"OR","lat":42.845,"long":-123.155},{"zip":"97416","city":"Camas Valley","state":"OR","lat":43.0557,"long":-123.6655},{"zip":"97417","city":"Canyonville","state":"OR","lat":42.9307,"long":-123.278},{"zip":"97429","city":"Days Creek","state":"OR","lat":42.9819,"long":-123.1439},{"zip":"97432","city":"Dillard","state":"OR","lat":43.1135,"long":-123.4181},{"zip":"97435","city":"Drain","state":"OR","lat":43.6877,"long":-123.2929},{"zip":"97436","city":"Elkton","state":"OR","lat":43.6378,"long":-123.59},{"zip":"97441","city":"Gardiner","state":"OR","lat":43.7301,"long":-124.1104},{"zip":"97442","city":"Glendale","state":"OR","lat":42.7518,"long":-123.3943},{"zip":"97443","city":"Glide","state":"OR","lat":43.3015,"long":-123.1012},{"zip":"97447","city":"Idleyld Park","state":"OR","lat":43.3237,"long":-123.024},{"zip":"97457","city":"Myrtle Creek","state":"OR","lat":43.0162,"long":-123.2851},{"zip":"97462","city":"Oakland","state":"OR","lat":43.453,"long":-123.3558},{"zip":"97467","city":"Reedsport","state":"OR","lat":43.7023,"long":-124.0968},{"zip":"97469","city":"Riddle","state":"OR","lat":42.9389,"long":-123.3612},{"zip":"97470","city":"Roseburg","state":"OR","lat":43.2297,"long":-123.2343},{"zip":"97471","city":"Roseburg","state":"OR","lat":43.227,"long":-123.5158},{"zip":"97473","city":"Scottsburg","state":"OR","lat":43.6765,"long":-123.8041},{"zip":"97479","city":"Sutherlin","state":"OR","lat":43.3904,"long":-123.2974},{"zip":"97481","city":"Tenmile","state":"OR","lat":43.114,"long":-123.5294},{"zip":"97484","city":"Tiller","state":"OR","lat":42.9177,"long":-122.9079},{"zip":"97486","city":"Umpqua","state":"OR","lat":43.3745,"long":-123.5358},{"zip":"97494","city":"Wilbur","state":"OR","lat":43.3284,"long":-123.3332},{"zip":"97495","city":"Winchester","state":"OR","lat":43.2878,"long":-123.3055},{"zip":"97496","city":"Winston","state":"OR","lat":43.1049,"long":-123.4325},{"zip":"97499","city":"Yoncalla","state":"OR","lat":43.6043,"long":-123.2926},{"zip":"97812","city":"Arlington","state":"OR","lat":45.6664,"long":-120.1971},{"zip":"97823","city":"Condon","state":"OR","lat":45.2306,"long":-120.1898},{"zip":"97861","city":"Mikkalo","state":"OR","lat":45.4388,"long":-120.2067},{"zip":"97817","city":"Bates","state":"OR","lat":44.7138,"long":-118.6469},{"zip":"97820","city":"Canyon City","state":"OR","lat":44.3911,"long":-118.9465},{"zip":"97825","city":"Dayville","state":"OR","lat":44.4663,"long":-119.5312},{"zip":"97845","city":"John Day","state":"OR","lat":44.416,"long":-118.953},{"zip":"97848","city":"Kimberly","state":"OR","lat":44.7226,"long":-119.5965},{"zip":"97856","city":"Long Creek","state":"OR","lat":44.7554,"long":-119.097},{"zip":"97864","city":"Monument","state":"OR","lat":44.8189,"long":-119.4192},{"zip":"97865","city":"Mount Vernon","state":"OR","lat":44.4171,"long":-119.1121},{"zip":"97869","city":"Prairie City","state":"OR","lat":44.457,"long":-118.6952},{"zip":"97873","city":"Seneca","state":"OR","lat":44.1346,"long":-118.9716},{"zip":"97710","city":"Fields","state":"OR","lat":42.1862,"long":-118.4758},{"zip":"97720","city":"Burns","state":"OR","lat":43.5145,"long":-119.0504},{"zip":"97721","city":"Princeton","state":"OR","lat":43.0198,"long":-119.0696},{"zip":"97722","city":"Diamond","state":"OR","lat":42.9508,"long":-118.695},{"zip":"97732","city":"Crane","state":"OR","lat":43.4262,"long":-118.4642},{"zip":"97736","city":"Frenchglen","state":"OR","lat":42.7147,"long":-119.0058},{"zip":"97738","city":"Hines","state":"OR","lat":43.5558,"long":-119.0816},{"zip":"97758","city":"Riley","state":"OR","lat":43.3886,"long":-119.8798},{"zip":"97904","city":"Drewsey","state":"OR","lat":43.8643,"long":-118.4707},{"zip":"97014","city":"Cascade Locks","state":"OR","lat":45.671,"long":-121.8686},{"zip":"97031","city":"Hood River","state":"OR","lat":45.6711,"long":-121.5391},{"zip":"97041","city":"Mount Hood Parkdale","state":"OR","lat":45.4929,"long":-121.5983},{"zip":"97044","city":"Odell","state":"OR","lat":45.6437,"long":-121.5367},{"zip":"97501","city":"Medford","state":"OR","lat":42.2818,"long":-122.9054},{"zip":"97502","city":"Central Point","state":"OR","lat":42.3899,"long":-122.9222},{"zip":"97503","city":"White City","state":"OR","lat":42.4319,"long":-122.8296},{"zip":"97504","city":"Medford","state":"OR","lat":42.3363,"long":-122.8398},{"zip":"97520","city":"Ashland","state":"OR","lat":42.1885,"long":-122.693},{"zip":"97522","city":"Butte Falls","state":"OR","lat":42.5492,"long":-122.5638},{"zip":"97524","city":"Eagle Point","state":"OR","lat":42.4935,"long":-122.8088},{"zip":"97525","city":"Gold Hill","state":"OR","lat":42.4244,"long":-123.0854},{"zip":"97530","city":"Jacksonville","state":"OR","lat":42.1813,"long":-123.0241},{"zip":"97535","city":"Phoenix","state":"OR","lat":42.2766,"long":-122.8227},{"zip":"97536","city":"Prospect","state":"OR","lat":42.7544,"long":-122.509},{"zip":"97537","city":"Rogue River","state":"OR","lat":42.4889,"long":-123.1587},{"zip":"97539","city":"Shady Cove","state":"OR","lat":42.6107,"long":-122.8125},{"zip":"97540","city":"Talent","state":"OR","lat":42.2363,"long":-122.7861},{"zip":"97541","city":"Trail","state":"OR","lat":42.6864,"long":-122.816},{"zip":"97711","city":"Ashwood","state":"OR","lat":44.7195,"long":-120.7192},{"zip":"97730","city":"Camp Sherman","state":"OR","lat":44.4604,"long":-121.6412},{"zip":"97734","city":"Culver","state":"OR","lat":44.4818,"long":-121.2344},{"zip":"97741","city":"Madras","state":"OR","lat":44.6376,"long":-121.1349},{"zip":"97761","city":"Warm Springs","state":"OR","lat":44.7468,"long":-121.2909},{"zip":"97497","city":"Wolf Creek","state":"OR","lat":42.6522,"long":-123.425},{"zip":"97523","city":"Cave Junction","state":"OR","lat":42.1348,"long":-123.6272},{"zip":"97526","city":"Grants Pass","state":"OR","lat":42.4638,"long":-123.3457},{"zip":"97527","city":"Grants Pass","state":"OR","lat":42.3989,"long":-123.3538},{"zip":"97528","city":"Grants Pass","state":"OR","lat":42.4393,"long":-123.3307},{"zip":"97531","city":"Kerby","state":"OR","lat":42.2093,"long":-123.6573},{"zip":"97532","city":"Merlin","state":"OR","lat":42.5297,"long":-123.4393},{"zip":"97533","city":"Murphy","state":"OR","lat":42.308,"long":-123.3273},{"zip":"97534","city":"O Brien","state":"OR","lat":42.0879,"long":-123.689},{"zip":"97538","city":"Selma","state":"OR","lat":42.2654,"long":-123.5515},{"zip":"97543","city":"Wilderville","state":"OR","lat":42.3751,"long":-123.5621},{"zip":"97544","city":"Williams","state":"OR","lat":42.223,"long":-123.2829},{"zip":"97601","city":"Klamath Falls","state":"OR","lat":42.2933,"long":-121.8169},{"zip":"97602","city":"Klamath Falls","state":"OR","lat":42.2249,"long":-121.7817},{"zip":"97603","city":"Klamath Falls","state":"OR","lat":42.1919,"long":-121.7241},{"zip":"97604","city":"Crater Lake","state":"OR","lat":42.9465,"long":-122.1769},{"zip":"97621","city":"Beatty","state":"OR","lat":42.4369,"long":-121.22},{"zip":"97622","city":"Bly","state":"OR","lat":42.3995,"long":-121.0806},{"zip":"97623","city":"Bonanza","state":"OR","lat":42.2463,"long":-121.3336},{"zip":"97624","city":"Chiloquin","state":"OR","lat":42.5463,"long":-121.745},{"zip":"97625","city":"Dairy","state":"OR","lat":42.2351,"long":-121.5211},{"zip":"97626","city":"Fort Klamath","state":"OR","lat":42.6415,"long":-122.038},{"zip":"97627","city":"Keno","state":"OR","lat":42.1265,"long":-121.93},{"zip":"97632","city":"Malin","state":"OR","lat":42.0195,"long":-121.4221},{"zip":"97633","city":"Merrill","state":"OR","lat":42.0295,"long":-121.5985},{"zip":"97634","city":"Midland","state":"OR","lat":42.1307,"long":-121.8203},{"zip":"97639","city":"Sprague River","state":"OR","lat":42.4514,"long":-121.4365},{"zip":"97731","city":"Chemult","state":"OR","lat":43.146,"long":-121.7974},{"zip":"97733","city":"Crescent","state":"OR","lat":43.4442,"long":-121.7109},{"zip":"97737","city":"Gilchrist","state":"OR","lat":43.3725,"long":-121.6583},{"zip":"97620","city":"Adel","state":"OR","lat":42.1487,"long":-119.8833},{"zip":"97630","city":"Lakeview","state":"OR","lat":42.1854,"long":-120.3775},{"zip":"97635","city":"New Pine Creek","state":"OR","lat":41.9941,"long":-120.2972},{"zip":"97636","city":"Paisley","state":"OR","lat":42.7031,"long":-120.5532},{"zip":"97637","city":"Plush","state":"OR","lat":42.5035,"long":-119.8947},{"zip":"97638","city":"Silver Lake","state":"OR","lat":43.1395,"long":-120.9984},{"zip":"97640","city":"Summer Lake","state":"OR","lat":42.9447,"long":-120.7946},{"zip":"97641","city":"Christmas Valley","state":"OR","lat":43.2363,"long":-120.6369},{"zip":"97735","city":"Fort Rock","state":"OR","lat":43.3565,"long":-121.0539},{"zip":"97401","city":"Eugene","state":"OR","lat":44.0682,"long":-123.0819},{"zip":"97402","city":"Eugene","state":"OR","lat":44.0612,"long":-123.1555},{"zip":"97403","city":"Eugene","state":"OR","lat":44.0385,"long":-123.0614},{"zip":"97404","city":"Eugene","state":"OR","lat":44.1005,"long":-123.1334},{"zip":"97405","city":"Eugene","state":"OR","lat":44.0185,"long":-123.0998},{"zip":"97408","city":"Eugene","state":"OR","lat":44.1445,"long":-123.0545},{"zip":"97409","city":"Alvadore","state":"OR","lat":44.1276,"long":-123.2666},{"zip":"97412","city":"Blachly","state":"OR","lat":44.1966,"long":-123.5348},{"zip":"97413","city":"Blue River","state":"OR","lat":44.1755,"long":-122.1217},{"zip":"97419","city":"Cheshire","state":"OR","lat":44.1782,"long":-123.3715},{"zip":"97424","city":"Cottage Grove","state":"OR","lat":43.7839,"long":-123.0529},{"zip":"97426","city":"Creswell","state":"OR","lat":43.9058,"long":-123.0284},{"zip":"97430","city":"Deadwood","state":"OR","lat":44.1462,"long":-123.6816},{"zip":"97431","city":"Dexter","state":"OR","lat":43.9217,"long":-122.8424},{"zip":"97434","city":"Dorena","state":"OR","lat":43.7361,"long":-122.8946},{"zip":"97437","city":"Elmira","state":"OR","lat":44.0873,"long":-123.3671},{"zip":"97438","city":"Fall Creek","state":"OR","lat":43.9509,"long":-122.6884},{"zip":"97439","city":"Florence","state":"OR","lat":43.9881,"long":-124.0993},{"zip":"97440","city":"Eugene","state":"OR","lat":44.0521,"long":-123.0868},{"zip":"97448","city":"Junction City","state":"OR","lat":44.1988,"long":-123.23},{"zip":"97451","city":"Lorane","state":"OR","lat":43.829,"long":-123.2477},{"zip":"97452","city":"Lowell","state":"OR","lat":43.921,"long":-122.7806},{"zip":"97453","city":"Mapleton","state":"OR","lat":44.0312,"long":-123.8657},{"zip":"97454","city":"Marcola","state":"OR","lat":44.2064,"long":-122.8246},{"zip":"97455","city":"Pleasant Hill","state":"OR","lat":43.9458,"long":-122.9285},{"zip":"97461","city":"Noti","state":"OR","lat":44.0992,"long":-123.4684},{"zip":"97463","city":"Oakridge","state":"OR","lat":43.7376,"long":-122.4377},{"zip":"97475","city":"Springfield","state":"OR","lat":44.0462,"long":-123.022},{"zip":"97477","city":"Springfield","state":"OR","lat":44.0611,"long":-123.0153},{"zip":"97478","city":"Springfield","state":"OR","lat":44.0561,"long":-122.9171},{"zip":"97480","city":"Swisshome","state":"OR","lat":44.0899,"long":-123.8279},{"zip":"97487","city":"Veneta","state":"OR","lat":44.0382,"long":-123.3516},{"zip":"97488","city":"Vida","state":"OR","lat":44.13,"long":-122.5044},{"zip":"97489","city":"Walterville","state":"OR","lat":44.1288,"long":-122.6376},{"zip":"97490","city":"Walton","state":"OR","lat":44.0282,"long":-123.5893},{"zip":"97492","city":"Westfir","state":"OR","lat":43.7575,"long":-122.481},{"zip":"97493","city":"Westlake","state":"OR","lat":43.914,"long":-124.0334},{"zip":"97341","city":"Depoe Bay","state":"OR","lat":44.8322,"long":-124.0503},{"zip":"97343","city":"Eddyville","state":"OR","lat":44.6371,"long":-123.7531},{"zip":"97357","city":"Logsden","state":"OR","lat":44.7432,"long":-123.7943},{"zip":"97364","city":"Neotsu","state":"OR","lat":44.9988,"long":-123.9843},{"zip":"97365","city":"Newport","state":"OR","lat":44.6487,"long":-124.0509},{"zip":"97366","city":"South Beach","state":"OR","lat":44.5712,"long":-124.06},{"zip":"97367","city":"Lincoln City","state":"OR","lat":44.9089,"long":-123.9888},{"zip":"97368","city":"Otis","state":"OR","lat":45.0138,"long":-123.9332},{"zip":"97369","city":"Otter Rock","state":"OR","lat":44.7588,"long":-124.0633},{"zip":"97376","city":"Seal Rock","state":"OR","lat":44.4874,"long":-123.9567},{"zip":"97380","city":"Siletz","state":"OR","lat":44.7313,"long":-123.9062},{"zip":"97388","city":"Gleneden Beach","state":"OR","lat":44.8812,"long":-124.0343},{"zip":"97390","city":"Tidewater","state":"OR","lat":44.4055,"long":-123.9149},{"zip":"97391","city":"Toledo","state":"OR","lat":44.6271,"long":-123.9301},{"zip":"97394","city":"Waldport","state":"OR","lat":44.4085,"long":-124.0351},{"zip":"97498","city":"Yachats","state":"OR","lat":44.3256,"long":-124.0863},{"zip":"97321","city":"Albany","state":"OR","lat":44.652,"long":-123.1333},{"zip":"97322","city":"Albany","state":"OR","lat":44.626,"long":-123.057},{"zip":"97327","city":"Brownsville","state":"OR","lat":44.377,"long":-122.9485},{"zip":"97329","city":"Cascadia","state":"OR","lat":44.3995,"long":-122.3636},{"zip":"97335","city":"Crabtree","state":"OR","lat":44.6344,"long":-122.8933},{"zip":"97336","city":"Crawfordsville","state":"OR","lat":44.3593,"long":-122.8508},{"zip":"97345","city":"Foster","state":"OR","lat":44.3836,"long":-122.5449},{"zip":"97348","city":"Halsey","state":"OR","lat":44.3862,"long":-123.1251},{"zip":"97355","city":"Lebanon","state":"OR","lat":44.5316,"long":-122.8821},{"zip":"97358","city":"Lyons","state":"OR","lat":44.7499,"long":-122.595},{"zip":"97360","city":"Mill City","state":"OR","lat":44.7516,"long":-122.4768},{"zip":"97374","city":"Scio","state":"OR","lat":44.7168,"long":-122.7684},{"zip":"97377","city":"Shedd","state":"OR","lat":44.453,"long":-123.1065},{"zip":"97386","city":"Sweet Home","state":"OR","lat":44.3981,"long":-122.7286},{"zip":"97389","city":"Tangent","state":"OR","lat":44.5497,"long":-123.1108},{"zip":"97446","city":"Harrisburg","state":"OR","lat":44.2717,"long":-123.1432},{"zip":"97901","city":"Adrian","state":"OR","lat":43.6537,"long":-117.0602},{"zip":"97902","city":"Arock","state":"OR","lat":42.9156,"long":-117.498},{"zip":"97903","city":"Brogan","state":"OR","lat":44.1994,"long":-117.5904},{"zip":"97906","city":"Harper","state":"OR","lat":43.8734,"long":-117.5284},{"zip":"97908","city":"Ironside","state":"OR","lat":44.3009,"long":-117.9444},{"zip":"97909","city":"Jamieson","state":"OR","lat":44.2161,"long":-117.4813},{"zip":"97910","city":"Jordan Valley","state":"OR","lat":42.8801,"long":-117.281},{"zip":"97911","city":"Juntura","state":"OR","lat":43.8253,"long":-118.0921},{"zip":"97913","city":"Nyssa","state":"OR","lat":43.8604,"long":-117.0251},{"zip":"97914","city":"Ontario","state":"OR","lat":44.0416,"long":-116.9783},{"zip":"97917","city":"Riverside","state":"OR","lat":43.5099,"long":-118.0986},{"zip":"97918","city":"Vale","state":"OR","lat":44.0039,"long":-117.2674},{"zip":"97920","city":"Westfall","state":"OR","lat":43.9922,"long":-117.6877},{"zip":"97002","city":"Aurora","state":"OR","lat":45.2284,"long":-122.8039},{"zip":"97020","city":"Donald","state":"OR","lat":45.2199,"long":-122.8405},{"zip":"97026","city":"Gervais","state":"OR","lat":45.1086,"long":-122.8962},{"zip":"97032","city":"Hubbard","state":"OR","lat":45.1823,"long":-122.8079},{"zip":"97071","city":"Woodburn","state":"OR","lat":45.1446,"long":-122.8583},{"zip":"97137","city":"Saint Paul","state":"OR","lat":45.196,"long":-122.9674},{"zip":"97301","city":"Salem","state":"OR","lat":44.949,"long":-123.004},{"zip":"97302","city":"Salem","state":"OR","lat":44.9039,"long":-123.0445},{"zip":"97303","city":"Salem","state":"OR","lat":44.9927,"long":-123.0167},{"zip":"97305","city":"Salem","state":"OR","lat":44.9961,"long":-122.9124},{"zip":"97306","city":"Salem","state":"OR","lat":44.8685,"long":-123.0438},{"zip":"97307","city":"Keizer","state":"OR","lat":44.9901,"long":-123.0262},{"zip":"97308","city":"Salem","state":"OR","lat":44.9429,"long":-123.0351},{"zip":"97309","city":"Salem","state":"OR","lat":44.9429,"long":-123.0351},{"zip":"97310","city":"Salem","state":"OR","lat":44.9271,"long":-122.9861},{"zip":"97311","city":"Salem","state":"OR","lat":44.9438,"long":-123.0286},{"zip":"97312","city":"Salem","state":"OR","lat":44.9364,"long":-123.0381},{"zip":"97313","city":"Salem","state":"OR","lat":44.9849,"long":-122.9988},{"zip":"97314","city":"Salem","state":"OR","lat":44.9655,"long":-123.0066},{"zip":"97317","city":"Salem","state":"OR","lat":44.9026,"long":-122.9074},{"zip":"97325","city":"Aumsville","state":"OR","lat":44.8313,"long":-122.8517},{"zip":"97342","city":"Detroit","state":"OR","lat":44.734,"long":-122.1498},{"zip":"97346","city":"Gates","state":"OR","lat":44.7527,"long":-122.3995},{"zip":"97350","city":"Idanha","state":"OR","lat":44.7001,"long":-122.074},{"zip":"97352","city":"Jefferson","state":"OR","lat":44.7495,"long":-123.006},{"zip":"97362","city":"Mount Angel","state":"OR","lat":45.0737,"long":-122.7856},{"zip":"97373","city":"Saint Benedict","state":"OR","lat":44.9845,"long":-122.457},{"zip":"97375","city":"Scotts Mills","state":"OR","lat":44.9897,"long":-122.6187},{"zip":"97381","city":"Silverton","state":"OR","lat":44.991,"long":-122.7627},{"zip":"97383","city":"Stayton","state":"OR","lat":44.8021,"long":-122.7624},{"zip":"97384","city":"Mehama","state":"OR","lat":44.7903,"long":-122.6187},{"zip":"97385","city":"Sublimity","state":"OR","lat":44.8425,"long":-122.8007},{"zip":"97392","city":"Turner","state":"OR","lat":44.8476,"long":-122.9501},{"zip":"97818","city":"Boardman","state":"OR","lat":45.8272,"long":-119.7206},{"zip":"97836","city":"Heppner","state":"OR","lat":45.3486,"long":-119.5369},{"zip":"97839","city":"Lexington","state":"OR","lat":45.4264,"long":-119.7464},{"zip":"97843","city":"Ione","state":"OR","lat":45.5403,"long":-119.769},{"zip":"97844","city":"Irrigon","state":"OR","lat":45.8877,"long":-119.507},{"zip":"97010","city":"Bridal Veil","state":"OR","lat":45.583,"long":-122.1011},{"zip":"97019","city":"Corbett","state":"OR","lat":45.5221,"long":-122.2417},{"zip":"97024","city":"Fairview","state":"OR","lat":45.5473,"long":-122.4414},{"zip":"97030","city":"Gresham","state":"OR","lat":45.5154,"long":-122.4203},{"zip":"97060","city":"Troutdale","state":"OR","lat":45.5254,"long":-122.3739},{"zip":"97080","city":"Gresham","state":"OR","lat":45.4817,"long":-122.4156},{"zip":"97086","city":"Happy Valley","state":"OR","lat":45.4446,"long":-122.5372},{"zip":"97201","city":"Portland","state":"OR","lat":45.5078,"long":-122.6897},{"zip":"97202","city":"Portland","state":"OR","lat":45.484,"long":-122.6365},{"zip":"97203","city":"Portland","state":"OR","lat":45.5889,"long":-122.7347},{"zip":"97204","city":"Portland","state":"OR","lat":45.5181,"long":-122.6745},{"zip":"97205","city":"Portland","state":"OR","lat":45.5207,"long":-122.6888},{"zip":"97206","city":"Portland","state":"OR","lat":45.484,"long":-122.5973},{"zip":"97207","city":"Portland","state":"OR","lat":45.5235,"long":-122.6762},{"zip":"97208","city":"Portland","state":"OR","lat":45.5322,"long":-122.5648},{"zip":"97209","city":"Portland","state":"OR","lat":45.527,"long":-122.6854},{"zip":"97210","city":"Portland","state":"OR","lat":45.5303,"long":-122.7033},{"zip":"97211","city":"Portland","state":"OR","lat":45.5653,"long":-122.6448},{"zip":"97212","city":"Portland","state":"OR","lat":45.5441,"long":-122.6423},{"zip":"97213","city":"Portland","state":"OR","lat":45.5373,"long":-122.5987},{"zip":"97214","city":"Portland","state":"OR","lat":45.5142,"long":-122.6364},{"zip":"97215","city":"Portland","state":"OR","lat":45.5143,"long":-122.599},{"zip":"97216","city":"Portland","state":"OR","lat":45.5137,"long":-122.5569},{"zip":"97217","city":"Portland","state":"OR","lat":45.5742,"long":-122.6842},{"zip":"97218","city":"Portland","state":"OR","lat":45.56,"long":-122.6001},{"zip":"97219","city":"Portland","state":"OR","lat":45.458,"long":-122.7074},{"zip":"97220","city":"Portland","state":"OR","lat":45.5411,"long":-122.5566},{"zip":"97221","city":"Portland","state":"OR","lat":45.4918,"long":-122.7267},{"zip":"97227","city":"Portland","state":"OR","lat":45.5496,"long":-122.6743},{"zip":"97228","city":"Portland","state":"OR","lat":45.5235,"long":-122.6762},{"zip":"97230","city":"Portland","state":"OR","lat":45.5472,"long":-122.5001},{"zip":"97231","city":"Portland","state":"OR","lat":45.6401,"long":-122.838},{"zip":"97232","city":"Portland","state":"OR","lat":45.5287,"long":-122.6363},{"zip":"97233","city":"Portland","state":"OR","lat":45.5142,"long":-122.4985},{"zip":"97236","city":"Portland","state":"OR","lat":45.4887,"long":-122.5091},{"zip":"97238","city":"Portland","state":"OR","lat":45.5235,"long":-122.6762},{"zip":"97239","city":"Portland","state":"OR","lat":45.4983,"long":-122.6913},{"zip":"97240","city":"Portland","state":"OR","lat":45.5235,"long":-122.6762},{"zip":"97242","city":"Portland","state":"OR","lat":45.5235,"long":-122.6762},{"zip":"97250","city":"Portland","state":"OR","lat":45.5235,"long":-122.6762},{"zip":"97252","city":"Portland","state":"OR","lat":45.5235,"long":-122.6762},{"zip":"97253","city":"Portland","state":"OR","lat":45.5235,"long":-122.6762},{"zip":"97254","city":"Portland","state":"OR","lat":45.5967,"long":-122.5942},{"zip":"97256","city":"Portland","state":"OR","lat":45.5235,"long":-122.6762},{"zip":"97258","city":"Portland","state":"OR","lat":45.5235,"long":-122.6762},{"zip":"97266","city":"Portland","state":"OR","lat":45.4762,"long":-122.5596},{"zip":"97280","city":"Portland","state":"OR","lat":45.5235,"long":-122.6762},{"zip":"97282","city":"Portland","state":"OR","lat":45.5235,"long":-122.6762},{"zip":"97283","city":"Portland","state":"OR","lat":45.5235,"long":-122.6762},{"zip":"97286","city":"Portland","state":"OR","lat":45.5235,"long":-122.6762},{"zip":"97290","city":"Portland","state":"OR","lat":45.5235,"long":-122.6762},{"zip":"97292","city":"Portland","state":"OR","lat":45.5235,"long":-122.6762},{"zip":"97293","city":"Portland","state":"OR","lat":45.5235,"long":-122.6762},{"zip":"97294","city":"Portland","state":"OR","lat":45.5235,"long":-122.6762},{"zip":"97296","city":"Portland","state":"OR","lat":45.5235,"long":-122.6762},{"zip":"97304","city":"Salem","state":"OR","lat":44.9588,"long":-123.0753},{"zip":"97338","city":"Dallas","state":"OR","lat":44.9225,"long":-123.32},{"zip":"97344","city":"Falls City","state":"OR","lat":44.8706,"long":-123.4461},{"zip":"97347","city":"Grand Ronde","state":"OR","lat":45.075,"long":-123.6335},{"zip":"97351","city":"Independence","state":"OR","lat":44.8481,"long":-123.1879},{"zip":"97361","city":"Monmouth","state":"OR","lat":44.8377,"long":-123.2512},{"zip":"97371","city":"Rickreall","state":"OR","lat":45.02,"long":-123.2064},{"zip":"97029","city":"Grass Valley","state":"OR","lat":45.3013,"long":-120.7478},{"zip":"97033","city":"Kent","state":"OR","lat":45.0838,"long":-120.6649},{"zip":"97039","city":"Moro","state":"OR","lat":45.4853,"long":-120.6957},{"zip":"97050","city":"Rufus","state":"OR","lat":45.6948,"long":-120.7359},{"zip":"97065","city":"Wasco","state":"OR","lat":45.5974,"long":-120.7304},{"zip":"97107","city":"Bay City","state":"OR","lat":45.5197,"long":-123.8761},{"zip":"97108","city":"Beaver","state":"OR","lat":45.2767,"long":-123.8234},{"zip":"97112","city":"Cloverdale","state":"OR","lat":45.2858,"long":-123.8356},{"zip":"97118","city":"Garibaldi","state":"OR","lat":45.5626,"long":-123.9001},{"zip":"97122","city":"Hebo","state":"OR","lat":45.1768,"long":-123.846},{"zip":"97130","city":"Manzanita","state":"OR","lat":45.7184,"long":-123.9351},{"zip":"97131","city":"Nehalem","state":"OR","lat":45.7216,"long":-123.9049},{"zip":"97134","city":"Oceanside","state":"OR","lat":45.4549,"long":-123.965},{"zip":"97135","city":"Pacific City","state":"OR","lat":45.205,"long":-123.959},{"zip":"97136","city":"Rockaway Beach","state":"OR","lat":45.6134,"long":-123.9429},{"zip":"97141","city":"Tillamook","state":"OR","lat":45.4492,"long":-123.8189},{"zip":"97143","city":"Netarts","state":"OR","lat":45.434,"long":-123.9458},{"zip":"97147","city":"Wheeler","state":"OR","lat":45.6888,"long":-123.8816},{"zip":"97149","city":"Neskowin","state":"OR","lat":45.097,"long":-123.9434},{"zip":"97801","city":"Pendleton","state":"OR","lat":45.6605,"long":-118.7831},{"zip":"97810","city":"Adams","state":"OR","lat":45.7674,"long":-118.5625},{"zip":"97813","city":"Athena","state":"OR","lat":45.8289,"long":-118.4971},{"zip":"97826","city":"Echo","state":"OR","lat":45.7411,"long":-119.1949},{"zip":"97835","city":"Helix","state":"OR","lat":45.8665,"long":-118.7222},{"zip":"97838","city":"Hermiston","state":"OR","lat":45.845,"long":-119.2849},{"zip":"97859","city":"Meacham","state":"OR","lat":45.5215,"long":-118.4335},{"zip":"97862","city":"Milton Freewater","state":"OR","lat":45.9486,"long":-118.3912},{"zip":"97868","city":"Pilot Rock","state":"OR","lat":45.4227,"long":-118.8483},{"zip":"97875","city":"Stanfield","state":"OR","lat":45.786,"long":-119.2116},{"zip":"97880","city":"Ukiah","state":"OR","lat":45.0836,"long":-118.894},{"zip":"97882","city":"Umatilla","state":"OR","lat":45.8998,"long":-119.3553},{"zip":"97886","city":"Weston","state":"OR","lat":45.8074,"long":-118.3733},{"zip":"97824","city":"Cove","state":"OR","lat":45.3199,"long":-117.8147},{"zip":"97827","city":"Elgin","state":"OR","lat":45.5941,"long":-117.9112},{"zip":"97841","city":"Imbler","state":"OR","lat":45.4599,"long":-117.9544},{"zip":"97850","city":"La Grande","state":"OR","lat":45.3304,"long":-118.0852},{"zip":"97867","city":"North Powder","state":"OR","lat":45.0317,"long":-117.9337},{"zip":"97876","city":"Summerville","state":"OR","lat":45.5077,"long":-118.027},{"zip":"97883","city":"Union","state":"OR","lat":45.2019,"long":-117.8536},{"zip":"97828","city":"Enterprise","state":"OR","lat":45.437,"long":-117.2888},{"zip":"97842","city":"Imnaha","state":"OR","lat":45.5137,"long":-116.8257},{"zip":"97846","city":"Joseph","state":"OR","lat":45.3494,"long":-117.2128},{"zip":"97857","city":"Lostine","state":"OR","lat":45.4939,"long":-117.4359},{"zip":"97885","city":"Wallowa","state":"OR","lat":45.5717,"long":-117.5357},{"zip":"97001","city":"Antelope","state":"OR","lat":44.8892,"long":-120.7914},{"zip":"97021","city":"Dufur","state":"OR","lat":45.3913,"long":-121.1432},{"zip":"97037","city":"Maupin","state":"OR","lat":45.0742,"long":-121.2282},{"zip":"97040","city":"Mosier","state":"OR","lat":45.6508,"long":-121.379},{"zip":"97057","city":"Shaniko","state":"OR","lat":45.0027,"long":-120.75},{"zip":"97058","city":"The Dalles","state":"OR","lat":45.5995,"long":-121.1905},{"zip":"97063","city":"Tygh Valley","state":"OR","lat":45.2229,"long":-121.2927},{"zip":"97003","city":"Beaverton","state":"OR","lat":45.5201,"long":-122.8604},{"zip":"97005","city":"Beaverton","state":"OR","lat":45.4963,"long":-122.8001},{"zip":"97006","city":"Beaverton","state":"OR","lat":45.5201,"long":-122.8604},{"zip":"97007","city":"Beaverton","state":"OR","lat":45.4505,"long":-122.8652},{"zip":"97008","city":"Beaverton","state":"OR","lat":45.456,"long":-122.7996},{"zip":"97062","city":"Tualatin","state":"OR","lat":45.3727,"long":-122.7631},{"zip":"97075","city":"Beaverton","state":"OR","lat":45.4871,"long":-122.8037},{"zip":"97076","city":"Beaverton","state":"OR","lat":45.4871,"long":-122.8037},{"zip":"97077","city":"Beaverton","state":"OR","lat":45.4871,"long":-122.8037},{"zip":"97078","city":"Beaverton","state":"OR","lat":45.452,"long":-122.7893},{"zip":"97106","city":"Banks","state":"OR","lat":45.6535,"long":-123.121},{"zip":"97109","city":"Buxton","state":"OR","lat":45.737,"long":-123.2146},{"zip":"97113","city":"Cornelius","state":"OR","lat":45.529,"long":-123.0415},{"zip":"97116","city":"Forest Grove","state":"OR","lat":45.5981,"long":-123.1818},{"zip":"97117","city":"Gales Creek","state":"OR","lat":45.5957,"long":-123.234},{"zip":"97119","city":"Gaston","state":"OR","lat":45.4427,"long":-123.1666},{"zip":"97123","city":"Hillsboro","state":"OR","lat":45.4984,"long":-122.957},{"zip":"97124","city":"Hillsboro","state":"OR","lat":45.5387,"long":-122.9636},{"zip":"97125","city":"Manning","state":"OR","lat":45.6592,"long":-123.1917},{"zip":"97133","city":"North Plains","state":"OR","lat":45.6686,"long":-123.0281},{"zip":"97140","city":"Sherwood","state":"OR","lat":45.3514,"long":-122.8567},{"zip":"97144","city":"Timber","state":"OR","lat":45.727,"long":-123.3119},{"zip":"97223","city":"Portland","state":"OR","lat":45.4403,"long":-122.7793},{"zip":"97224","city":"Portland","state":"OR","lat":45.4094,"long":-122.8014},{"zip":"97225","city":"Portland","state":"OR","lat":45.4985,"long":-122.7787},{"zip":"97229","city":"Portland","state":"OR","lat":45.5483,"long":-122.8276},{"zip":"97281","city":"Portland","state":"OR","lat":45.5235,"long":-122.6762},{"zip":"97291","city":"Portland","state":"OR","lat":45.5235,"long":-122.6762},{"zip":"97298","city":"Portland","state":"OR","lat":45.5235,"long":-122.6762},{"zip":"97750","city":"Mitchell","state":"OR","lat":44.5657,"long":-120.1456},{"zip":"97830","city":"Fossil","state":"OR","lat":44.9286,"long":-120.1309},{"zip":"97874","city":"Spray","state":"OR","lat":44.8242,"long":-119.8303},{"zip":"97101","city":"Amity","state":"OR","lat":45.1157,"long":-123.1744},{"zip":"97111","city":"Carlton","state":"OR","lat":45.2859,"long":-123.1523},{"zip":"97114","city":"Dayton","state":"OR","lat":45.1977,"long":-123.0753},{"zip":"97115","city":"Dundee","state":"OR","lat":45.2776,"long":-123.0152},{"zip":"97127","city":"Lafayette","state":"OR","lat":45.2466,"long":-123.1114},{"zip":"97128","city":"Mcminnville","state":"OR","lat":45.2097,"long":-123.2043},{"zip":"97132","city":"Newberg","state":"OR","lat":45.3099,"long":-122.9685},{"zip":"97148","city":"Yamhill","state":"OR","lat":45.335,"long":-123.2036},{"zip":"97378","city":"Sheridan","state":"OR","lat":45.0897,"long":-123.4003},{"zip":"97396","city":"Willamina","state":"OR","lat":45.0826,"long":-123.5047}]
