[{"zip":"97004","city":"Beavercreek","state":"OR","lat":45.2597,"long":-122.4751},{"zip":"97009","city":"Boring","state":"OR","lat":45.4297,"long":-122.3807},{"zip":"97011","city":"Brightwood","state":"OR","lat":45.3652,"long":-122.0036},{"zip":"97013","city":"Canby","state":"OR","lat":45.2514,"long":-122.6832},{"zip":"97015","city":"Clackamas","state":"OR","lat":45.415,"long":-122.52},{"zip":"97017","city":"Colton","state":"OR","lat":45.1573,"long":-122.4248},{"zip":"97022","city":"Eagle Creek","state":"OR","lat":45.3582,"long":-122.3381},{"zip":"97023","city":"Estacada","state":"OR","lat":45.2872,"long":-122.3259},{"zip":"97027","city":"Gladstone","state":"OR","lat":45.3899,"long":-122.5902},{"zip":"97028","city":"Government Camp","state":"OR","lat":45.2972,"long":-121.739},{"zip":"97034","city":"Lake Oswego","state":"OR","lat":45.4093,"long":-122.6847},{"zip":"97035","city":"Lake Oswego","state":"OR","lat":45.4147,"long":-122.7227},{"zip":"97036","city":"Marylhurst","state":"OR","lat":45.4012,"long":-122.6512},{"zip":"97038","city":"Molalla","state":"OR","lat":45.1223,"long":-122.5756},{"zip":"97042","city":"Mulino","state":"OR","lat":45.213,"long":-122.5351},{"zip":"97045","city":"Oregon City","state":"OR","lat":45.3377,"long":-122.57},{"zip":"97049","city":"Rhododendron","state":"OR","lat":45.3465,"long":-121.9151},{"zip":"97055","city":"Sandy","state":"OR","lat":45.379,"long":-122.223},{"zip":"97067","city":"Welches","state":"OR","lat":45.3399,"long":-121.9598},{"zip":"97068","city":"West Linn","state":"OR","lat":45.3669,"long":-122.648},{"zip":"97070","city":"Wilsonville","state":"OR","lat":45.2986,"long":-122.7699},{"zip":"97089","city":"Damascus","state":"OR","lat":45.4176,"long":-122.459},{"zip":"97016","city":"Clatskanie","state":"OR","lat":46.0665,"long":-123.2059},{"zip":"97018","city":"Columbia City","state":"OR","lat":45.8925,"long":-122.8122},{"zip":"97048","city":"Rainier","state":"OR","lat":46.0646,"long":-122.9671},{"zip":"97051","city":"Saint Helens","state":"OR","lat":45.8608,"long":-122.8282},{"zip":"97053","city":"Warren","state":"OR","lat":45.826,"long":-122.8634},{"zip":"97054","city":"Deer Island","state":"OR","lat":45.9356,"long":-122.8985},{"zip":"97056","city":"Scappoose","state":"OR","lat":45.7655,"long":-122.8928},{"zip":"97064","city":"Vernonia","state":"OR","lat":45.8573,"long":-123.1967},{"zip":"97014","city":"Cascade Locks","state":"OR","lat":45.671,"long":-121.8686},{"zip":"97031","city":"Hood River","state":"OR","lat":45.6711,"long":-121.5391},{"zip":"97041","city":"Mount Hood Parkdale","state":"OR","lat":45.4929,"long":-121.5983},{"zip":"97044","city":"Odell","state":"OR","lat":45.6437,"long":-121.5367},{"zip":"97002","city":"Aurora","state":"OR","lat":45.2284,"long":-122.8039},{"zip":"97020","city":"Donald","state":"OR","lat":45.2199,"long":-122.8405},{"zip":"97026","city":"Gervais","state":"OR","lat":45.1086,"long":-122.8962},{"zip":"97032","city":"Hubbard","state":"OR","lat":45.1823,"long":-122.8079},{"zip":"97071","city":"Woodburn","state":"OR","lat":45.1446,"long":-122.8583},{"zip":"97010","city":"Bridal Veil","state":"OR","lat":45.583,"long":-122.1011},{"zip":"97019","city":"Corbett","state":"OR","lat":45.5221,"long":-122.2417},{"zip":"97024","city":"Fairview","state":"OR","lat":45.5473,"long":-122.4414},{"zip":"97030","city":"Gresham","state":"OR","lat":45.5154,"long":-122.4203},{"zip":"97060","city":"Troutdale","state":"OR","lat":45.5254,"long":-122.3739},{"zip":"97080","city":"Gresham","state":"OR","lat":45.4817,"long":-122.4156},{"zip":"97086","city":"Happy Valley","state":"OR","lat":45.4446,"long":-122.5372},{"zip":"97029","city":"Grass Valley","state":"OR","lat":45.3013,"long":-120.7478},{"zip":"97033","city":"Kent","state":"OR","lat":45.0838,"long":-120.6649},{"zip":"97039","city":"Moro","state":"OR","lat":45.4853,"long":-120.6957},{"zip":"97050","city":"Rufus","state":"OR","lat":45.6948,"long":-120.7359},{"zip":"97065","city":"Wasco","state":"OR","lat":45.5974,"long":-120.7304},{"zip":"97001","city":"Antelope","state":"OR","lat":44.8892,"long":-120.7914},{"zip":"97021","city":"Dufur","state":"OR","lat":45.3913,"long":-121.1432},{"zip":"97037","city":"Maupin","state":"OR","lat":45.0742,"long":-121.2282},{"zip":"97040","city":"Mosier","state":"OR","lat":45.6508,"long":-121.379},{"zip":"97057","city":"Shaniko","state":"OR","lat":45.0027,"long":-120.75},{"zip":"97058","city":"The Dalles","state":"OR","lat":45.5995,"long":-121.1905},{"zip":"97063","city":"Tygh Valley","state":"OR","lat":45.2229,"long":-121.2927},{"zip":"97003","city":"Beaverton","state":"OR","lat":45.5201,"long":-122.8604},{"zip":"97005","city":"Beaverton","state":"OR","lat":45.4963,"long":-122.8001},{"zip":"97006","city":"Beaverton","state":"OR","lat":45.5201,"long":-122.8604},{"zip":"97007","city":"Beaverton","state":"OR","lat":45.4505,"long":-122.8652},{"zip":"97008","city":"Beaverton","state":"OR","lat":45.456,"long":-122.7996},{"zip":"97062","city":"Tualatin","state":"OR","lat":45.3727,"long":-122.7631},{"zip":"97075","city":"Beaverton","state":"OR","lat":45.4871,"long":-122.8037},{"zip":"97076","city":"Beaverton","state":"OR","lat":45.4871,"long":-122.8037},{"zip":"97077","city":"Beaverton","state":"OR","lat":45.4871,"long":-122.8037},{"zip":"97078","city":"Beaverton","state":"OR","lat":45.452,"long":-122.7893}]
