[{"zip":"97102","city":"Arch Cape","state":"OR","lat":45.8109,"long":-123.963},{"zip":"97103","city":"Astoria","state":"OR","lat":46.1558,"long":-123.798},{"zip":"97110","city":"Cannon Beach","state":"OR","lat":45.8918,"long":-123.9615},{"zip":"97121","city":"Hammond","state":"OR","lat":46.198,"long":-123.9527},{"zip":"97138","city":"Seaside","state":"OR","lat":45.9932,"long":-123.9226},{"zip":"97145","city":"Tolovana Park","state":"OR","lat":45.8663,"long":-123.9595},{"zip":"97146","city":"Warrenton","state":"OR","lat":46.145,"long":-123.9254},{"zip":"97137","city":"Saint Paul","state":"OR","lat":45.196,"long":-122.9674},{"zip":"97107","city":"Bay City","state":"OR","lat":45.5197,"long":-123.8761},{"zip":"97108","city":"Beaver","state":"OR","lat":45.2767,"long":-123.8234},{"zip":"97112","city":"Cloverdale","state":"OR","lat":45.2858,"long":-123.8356},{"zip":"97118","city":"Garibaldi","state":"OR","lat":45.5626,"long":-123.9001},{"zip":"97122","city":"Hebo","state":"OR","lat":45.1768,"long":-123.846},{"zip":"97130","city":"Manzanita","state":"OR","lat":45.7184,"long":-123.9351},{"zip":"97131","city":"Nehalem","state":"OR","lat":45.7216,"long":-123.9049},{"zip":"97134","city":"Oceanside","state":"OR","lat":45.4549,"long":-123.965},{"zip":"97135","city":"Pacific City","state":"OR","lat":45.205,"long":-123.959},{"zip":"97136","city":"Rockaway Beach","state":"OR","lat":45.6134,"long":-123.9429},{"zip":"97141","city":"Tillamook","state":"OR","lat":45.4492,"long":-123.8189},{"zip":"97143","city":"Netarts","state":"OR","lat":45.434,"long":-123.9458},{"zip":"97147","city":"Wheeler","state":"OR","lat":45.6888,"long":-123.8816},{"zip":"97149","city":"Neskowin","state":"OR","lat":45.097,"long":-123.9434},{"zip":"97106","city":"Banks","state":"OR","lat":45.6535,"long":-123.121},{"zip":"97109","city":"Buxton","state":"OR","lat":45.737,"long":-123.2146},{"zip":"97113","city":"Cornelius","state":"OR","lat":45.529,"long":-123.0415},{"zip":"97116","city":"Forest Grove","state":"OR","lat":45.5981,"long":-123.1818},{"zip":"97117","city":"Gales Creek","state":"OR","lat":45.5957,"long":-123.234},{"zip":"97119","city":"Gaston","state":"OR","lat":45.4427,"long":-123.1666},{"zip":"97123","city":"Hillsboro","state":"OR","lat":45.4984,"long":-122.957},{"zip":"97124","city":"Hillsboro","state":"OR","lat":45.5387,"long":-122.9636},{"zip":"97125","city":"Manning","state":"OR","lat":45.6592,"long":-123.1917},{"zip":"97133","city":"North Plains","state":"OR","lat":45.6686,"long":-123.0281},{"zip":"97140","city":"Sherwood","state":"OR","lat":45.3514,"long":-122.8567},{"zip":"97144","city":"Timber","state":"OR","lat":45.727,"long":-123.3119},{"zip":"97101","city":"Amity","state":"OR","lat":45.1157,"long":-123.1744},{"zip":"97111","city":"Carlton","state":"OR","lat":45.2859,"long":-123.1523},{"zip":"97114","city":"Dayton","state":"OR","lat":45.1977,"long":-123.0753},{"zip":"97115","city":"Dundee","state":"OR","lat":45.2776,"long":-123.0152},{"zip":"97127","city":"Lafayette","state":"OR","lat":45.2466,"long":-123.1114},{"zip":"97128","city":"Mcminnville","state":"OR","lat":45.2097,"long":-123.2043},{"zip":"97132","city":"Newberg","state":"OR","lat":45.3099,"long":-122.9685},{"zip":"97148","city":"Yamhill","state":"OR","lat":45.335,"long":-123.2036}]
