[{"zip":"97324","city":"Alsea","state":"OR","lat":44.3691,"long":-123.6089},{"zip":"97326","city":"Blodgett","state":"OR","lat":44.6281,"long":-123.6067},{"zip":"97330","city":"Corvallis","state":"OR","lat":44.5904,"long":-123.2722},{"zip":"97331","city":"Corvallis","state":"OR","lat":44.5638,"long":-123.2779},{"zip":"97333","city":"Corvallis","state":"OR","lat":44.5393,"long":-123.2799},{"zip":"97339","city":"Corvallis","state":"OR","lat":44.5646,"long":-123.262},{"zip":"97370","city":"Philomath","state":"OR","lat":44.5488,"long":-123.3923},{"zip":"97341","city":"Depoe Bay","state":"OR","lat":44.8322,"long":-124.0503},{"zip":"97343","city":"Eddyville","state":"OR","lat":44.6371,"long":-123.7531},{"zip":"97357","city":"Logsden","state":"OR","lat":44.7432,"long":-123.7943},{"zip":"97364","city":"Neotsu","state":"OR","lat":44.9988,"long":-123.9843},{"zip":"97365","city":"Newport","state":"OR","lat":44.6487,"long":-124.0509},{"zip":"97366","city":"South Beach","state":"OR","lat":44.5712,"long":-124.06},{"zip":"97367","city":"Lincoln City","state":"OR","lat":44.9089,"long":-123.9888},{"zip":"97368","city":"Otis","state":"OR","lat":45.0138,"long":-123.9332},{"zip":"97369","city":"Otter Rock","state":"OR","lat":44.7588,"long":-124.0633},{"zip":"97376","city":"Seal Rock","state":"OR","lat":44.4874,"long":-123.9567},{"zip":"97380","city":"Siletz","state":"OR","lat":44.7313,"long":-123.9062},{"zip":"97388","city":"Gleneden Beach","state":"OR","lat":44.8812,"long":-124.0343},{"zip":"97390","city":"Tidewater","state":"OR","lat":44.4055,"long":-123.9149},{"zip":"97391","city":"Toledo","state":"OR","lat":44.6271,"long":-123.9301},{"zip":"97394","city":"Waldport","state":"OR","lat":44.4085,"long":-124.0351},{"zip":"97321","city":"Albany","state":"OR","lat":44.652,"long":-123.1333},{"zip":"97322","city":"Albany","state":"OR","lat":44.626,"long":-123.057},{"zip":"97327","city":"Brownsville","state":"OR","lat":44.377,"long":-122.9485},{"zip":"97329","city":"Cascadia","state":"OR","lat":44.3995,"long":-122.3636},{"zip":"97335","city":"Crabtree","state":"OR","lat":44.6344,"long":-122.8933},{"zip":"97336","city":"Crawfordsville","state":"OR","lat":44.3593,"long":-122.8508},{"zip":"97345","city":"Foster","state":"OR","lat":44.3836,"long":-122.5449},{"zip":"97348","city":"Halsey","state":"OR","lat":44.3862,"long":-123.1251},{"zip":"97355","city":"Lebanon","state":"OR","lat":44.5316,"long":-122.8821},{"zip":"97358","city":"Lyons","state":"OR","lat":44.7499,"long":-122.595},{"zip":"97360","city":"Mill City","state":"OR","lat":44.7516,"long":-122.4768},{"zip":"97374","city":"Scio","state":"OR","lat":44.7168,"long":-122.7684},{"zip":"97377","city":"Shedd","state":"OR","lat":44.453,"long":-123.1065},{"zip":"97386","city":"Sweet Home","state":"OR","lat":44.3981,"long":-122.7286},{"zip":"97389","city":"Tangent","state":"OR","lat":44.5497,"long":-123.1108},{"zip":"97301","city":"Salem","state":"OR","lat":44.949,"long":-123.004},{"zip":"97302","city":"Salem","state":"OR","lat":44.9039,"long":-123.0445},{"zip":"97303","city":"Salem","state":"OR","lat":44.9927,"long":-123.0167},{"zip":"97305","city":"Salem","state":"OR","lat":44.9961,"long":-122.9124},{"zip":"97306","city":"Salem","state":"OR","lat":44.8685,"long":-123.0438},{"zip":"97307","city":"Keizer","state":"OR","lat":44.9901,"long":-123.0262},{"zip":"97308","city":"Salem","state":"OR","lat":44.9429,"long":-123.0351},{"zip":"97309","city":"Salem","state":"OR","lat":44.9429,"long":-123.0351},{"zip":"97310","city":"Salem","state":"OR","lat":44.9271,"long":-122.9861},{"zip":"97311","city":"Salem","state":"OR","lat":44.9438,"long":-123.0286},{"zip":"97312","city":"Salem","state":"OR","lat":44.9364,"long":-123.0381},{"zip":"97313","city":"Salem","state":"OR","lat":44.9849,"long":-122.9988},{"zip":"97314","city":"Salem","state":"OR","lat":44.9655,"long":-123.0066},{"zip":"97317","city":"Salem","state":"OR","lat":44.9026,"long":-122.9074},{"zip":"97325","city":"Aumsville","state":"OR","lat":44.8313,"long":-122.8517},{"zip":"97342","city":"Detroit","state":"OR","lat":44.734,"long":-122.1498},{"zip":"97346","city":"Gates","state":"OR","lat":44.7527,"long":-122.3995},{"zip":"97350","city":"Idanha","state":"OR","lat":44.7001,"long":-122.074},{"zip":"97352","city":"Jefferson","state":"OR","lat":44.7495,"long":-123.006},{"zip":"97362","city":"Mount Angel","state":"OR","lat":45.0737,"long":-122.7856},{"zip":"97373","city":"Saint Benedict","state":"OR","lat":44.9845,"long":-122.457},{"zip":"97375","city":"Scotts Mills","state":"OR","lat":44.9897,"long":-122.6187},{"zip":"97381","city":"Silverton","state":"OR","lat":44.991,"long":-122.7627},{"zip":"97383","city":"Stayton","state":"OR","lat":44.8021,"long":-122.7624},{"zip":"97384","city":"Mehama","state":"OR","lat":44.7903,"long":-122.6187},{"zip":"97385","city":"Sublimity","state":"OR","lat":44.8425,"long":-122.8007},{"zip":"97392","city":"Turner","state":"OR","lat":44.8476,"long":-122.9501},{"zip":"97304","city":"Salem","state":"OR","lat":44.9588,"long":-123.0753},{"zip":"97338","city":"Dallas","state":"OR","lat":44.9225,"long":-123.32},{"zip":"97344","city":"Falls City","state":"OR","lat":44.8706,"long":-123.4461},{"zip":"97347","city":"Grand Ronde","state":"OR","lat":45.075,"long":-123.6335},{"zip":"97351","city":"Independence","state":"OR","lat":44.8481,"long":-123.1879},{"zip":"97361","city":"Monmouth","state":"OR","lat":44.8377,"long":-123.2512},{"zip":"97371","city":"Rickreall","state":"OR","lat":45.02,"long":-123.2064},{"zip":"97378","city":"Sheridan","state":"OR","lat":45.0897,"long":-123.4003},{"zip":"97396","city":"Willamina","state":"OR","lat":45.0826,"long":-123.5047}]
