[{"zip":"97456","city":"Monroe","state":"OR","lat":44.3245,"long":-123.3203},{"zip":"97407","city":"Allegany","state":"OR","lat":43.4259,"long":-124.0323},{"zip":"97411","city":"Bandon","state":"OR","lat":43.0968,"long":-124.4037},{"zip":"97414","city":"Broadbent","state":"OR","lat":42.985,"long":-124.1189},{"zip":"97420","city":"Coos Bay","state":"OR","lat":43.2151,"long":-124.1984},{"zip":"97423","city":"Coquille","state":"OR","lat":43.1884,"long":-124.2014},{"zip":"97449","city":"Lakeside","state":"OR","lat":43.5833,"long":-124.1624},{"zip":"97458","city":"Myrtle Point","state":"OR","lat":43.0667,"long":-124.1213},{"zip":"97459","city":"North Bend","state":"OR","lat":43.4327,"long":-124.2131},{"zip":"97466","city":"Powers","state":"OR","lat":42.88,"long":-124.0709},{"zip":"97406","city":"Agness","state":"OR","lat":42.5748,"long":-124.0648},{"zip":"97415","city":"Brookings","state":"OR","lat":42.0526,"long":-124.284},{"zip":"97444","city":"Gold Beach","state":"OR","lat":42.4073,"long":-124.4218},{"zip":"97450","city":"Langlois","state":"OR","lat":42.9154,"long":-124.4413},{"zip":"97464","city":"Ophir","state":"OR","lat":42.5632,"long":-124.3829},{"zip":"97465","city":"Port Orford","state":"OR","lat":42.7572,"long":-124.4913},{"zip":"97476","city":"Sixes","state":"OR","lat":42.825,"long":-124.4409},{"zip":"97491","city":"Wedderburn","state":"OR","lat":42.6093,"long":-124.3886},{"zip":"97410","city":"Azalea","state":"OR","lat":42.845,"long":-123.155},{"zip":"97416","city":"Camas Valley","state":"OR","lat":43.0557,"long":-123.6655},{"zip":"97417","city":"Canyonville","state":"OR","lat":42.9307,"long":-123.278},{"zip":"97429","city":"Days Creek","state":"OR","lat":42.9819,"long":-123.1439},{"zip":"97432","city":"Dillard","state":"OR","lat":43.1135,"long":-123.4181},{"zip":"97435","city":"Drain","state":"OR","lat":43.6877,"long":-123.2929},{"zip":"97436","city":"Elkton","state":"OR","lat":43.6378,"long":-123.59},{"zip":"97441","city":"Gardiner","state":"OR","lat":43.7301,"long":-124.1104},{"zip":"97442","city":"Glendale","state":"OR","lat":42.7518,"long":-123.3943},{"zip":"97443","city":"Glide","state":"OR","lat":43.3015,"long":-123.1012},{"zip":"97447","city":"Idleyld Park","state":"OR","lat":43.3237,"long":-123.024},{"zip":"97457","city":"Myrtle Creek","state":"OR","lat":43.0162,"long":-123.2851},{"zip":"97462","city":"Oakland","state":"OR","lat":43.453,"long":-123.3558},{"zip":"97467","city":"Reedsport","state":"OR","lat":43.7023,"long":-124.0968},{"zip":"97469","city":"Riddle","state":"OR","lat":42.9389,"long":-123.3612},{"zip":"97470","city":"Roseburg","state":"OR","lat":43.2297,"long":-123.2343},{"zip":"97471","city":"Roseburg","state":"OR","lat":43.227,"long":-123.5158},{"zip":"97473","city":"Scottsburg","state":"OR","lat":43.6765,"long":-123.8041},{"zip":"97479","city":"Sutherlin","state":"OR","lat":43.3904,"long":-123.2974},{"zip":"97481","city":"Tenmile","state":"OR","lat":43.114,"long":-123.5294},{"zip":"97484","city":"Tiller","state":"OR","lat":42.9177,"long":-122.9079},{"zip":"97486","city":"Umpqua","state":"OR","lat":43.3745,"long":-123.5358},{"zip":"97494","city":"Wilbur","state":"OR","lat":43.3284,"long":-123.3332},{"zip":"97495","city":"Winchester","state":"OR","lat":43.2878,"long":-123.3055},{"zip":"97496","city":"Winston","state":"OR","lat":43.1049,"long":-123.4325},{"zip":"97499","city":"Yoncalla","state":"OR","lat":43.6043,"long":-123.2926},{"zip":"97497","city":"Wolf Creek","state":"OR","lat":42.6522,"long":-123.425},{"zip":"97401","city":"Eugene","state":"OR","lat":44.0682,"long":-123.0819},{"zip":"97402","city":"Eugene","state":"OR","lat":44.0612,"long":-123.1555},{"zip":"97403","city":"Eugene","state":"OR","lat":44.0385,"long":-123.0614},{"zip":"97404","city":"Eugene","state":"OR","lat":44.1005,"long":-123.1334},{"zip":"97405","city":"Eugene","state":"OR","lat":44.0185,"long":-123.0998},{"zip":"97408","city":"Eugene","state":"OR","lat":44.1445,"long":-123.0545},{"zip":"97409","city":"Alvadore","state":"OR","lat":44.1276,"long":-123.2666},{"zip":"97412","city":"Blachly","state":"OR","lat":44.1966,"long":-123.5348},{"zip":"97413","city":"Blue River","state":"OR","lat":44.1755,"long":-122.1217},{"zip":"97419","city":"Cheshire","state":"OR","lat":44.1782,"long":-123.3715},{"zip":"97424","city":"Cottage Grove","state":"OR","lat":43.7839,"long":-123.0529},{"zip":"97426","city":"Creswell","state":"OR","lat":43.9058,"long":-123.0284},{"zip":"97430","city":"Deadwood","state":"OR","lat":44.1462,"long":-123.6816},{"zip":"97431","city":"Dexter","state":"OR","lat":43.9217,"long":-122.8424},{"zip":"97434","city":"Dorena","state":"OR","lat":43.7361,"long":-122.8946},{"zip":"97437","city":"Elmira","state":"OR","lat":44.0873,"long":-123.3671},{"zip":"97438","city":"Fall Creek","state":"OR","lat":43.9509,"long":-122.6884},{"zip":"97439","city":"Florence","state":"OR","lat":43.9881,"long":-124.0993},{"zip":"97440","city":"Eugene","state":"OR","lat":44.0521,"long":-123.0868},{"zip":"97448","city":"Junction City","state":"OR","lat":44.1988,"long":-123.23},{"zip":"97451","city":"Lorane","state":"OR","lat":43.829,"long":-123.2477},{"zip":"97452","city":"Lowell","state":"OR","lat":43.921,"long":-122.7806},{"zip":"97453","city":"Mapleton","state":"OR","lat":44.0312,"long":-123.8657},{"zip":"97454","city":"Marcola","state":"OR","lat":44.2064,"long":-122.8246},{"zip":"97455","city":"Pleasant Hill","state":"OR","lat":43.9458,"long":-122.9285},{"zip":"97461","city":"Noti","state":"OR","lat":44.0992,"long":-123.4684},{"zip":"97463","city":"Oakridge","state":"OR","lat":43.7376,"long":-122.4377},{"zip":"97475","city":"Springfield","state":"OR","lat":44.0462,"long":-123.022},{"zip":"97477","city":"Springfield","state":"OR","lat":44.0611,"long":-123.0153},{"zip":"97478","city":"Springfield","state":"OR","lat":44.0561,"long":-122.9171},{"zip":"97480","city":"Swisshome","state":"OR","lat":44.0899,"long":-123.8279},{"zip":"97487","city":"Veneta","state":"OR","lat":44.0382,"long":-123.3516},{"zip":"97488","city":"Vida","state":"OR","lat":44.13,"long":-122.5044},{"zip":"97489","city":"Walterville","state":"OR","lat":44.1288,"long":-122.6376},{"zip":"97490","city":"Walton","state":"OR","lat":44.0282,"long":-123.5893},{"zip":"97492","city":"Westfir","state":"OR","lat":43.7575,"long":-122.481},{"zip":"97493","city":"Westlake","state":"OR","lat":43.914,"long":-124.0334},{"zip":"97498","city":"Yachats","state":"OR","lat":44.3256,"long":-124.0863},{"zip":"97446","city":"Harrisburg","state":"OR","lat":44.2717,"long":-123.1432}]
