[{"zip":"97601","city":"Klamath Falls","state":"OR","lat":42.2933,"long":-121.8169},{"zip":"97602","city":"Klamath Falls","state":"OR","lat":42.2249,"long":-121.7817},{"zip":"97603","city":"Klamath Falls","state":"OR","lat":42.1919,"long":-121.7241},{"zip":"97604","city":"Crater Lake","state":"OR","lat":42.9465,"long":-122.1769},{"zip":"97621","city":"Beatty","state":"OR","lat":42.4369,"long":-121.22},{"zip":"97622","city":"Bly","state":"OR","lat":42.3995,"long":-121.0806},{"zip":"97623","city":"Bonanza","state":"OR","lat":42.2463,"long":-121.3336},{"zip":"97624","city":"Chiloquin","state":"OR","lat":42.5463,"long":-121.745},{"zip":"97625","city":"Dairy","state":"OR","lat":42.2351,"long":-121.5211},{"zip":"97626","city":"Fort Klamath","state":"OR","lat":42.6415,"long":-122.038},{"zip":"97627","city":"Keno","state":"OR","lat":42.1265,"long":-121.93},{"zip":"97632","city":"Malin","state":"OR","lat":42.0195,"long":-121.4221},{"zip":"97633","city":"Merrill","state":"OR","lat":42.0295,"long":-121.5985},{"zip":"97634","city":"Midland","state":"OR","lat":42.1307,"long":-121.8203},{"zip":"97639","city":"Sprague River","state":"OR","lat":42.4514,"long":-121.4365},{"zip":"97620","city":"Adel","state":"OR","lat":42.1487,"long":-119.8833},{"zip":"97630","city":"Lakeview","state":"OR","lat":42.1854,"long":-120.3775},{"zip":"97635","city":"New Pine Creek","state":"OR","lat":41.9941,"long":-120.2972},{"zip":"97636","city":"Paisley","state":"OR","lat":42.7031,"long":-120.5532},{"zip":"97637","city":"Plush","state":"OR","lat":42.5035,"long":-119.8947},{"zip":"97638","city":"Silver Lake","state":"OR","lat":43.1395,"long":-120.9984},{"zip":"97640","city":"Summer Lake","state":"OR","lat":42.9447,"long":-120.7946},{"zip":"97641","city":"Christmas Valley","state":"OR","lat":43.2363,"long":-120.6369}]
