[{"zip":"97751","city":"Paulina","state":"OR","lat":44.2102,"long":-119.7828},{"zip":"97752","city":"Post","state":"OR","lat":44.0793,"long":-120.2998},{"zip":"97753","city":"Powell Butte","state":"OR","lat":44.2415,"long":-121.0113},{"zip":"97754","city":"Prineville","state":"OR","lat":44.3045,"long":-120.8336},{"zip":"97701","city":"Bend","state":"OR","lat":44.0928,"long":-121.2936},{"zip":"97702","city":"Bend","state":"OR","lat":44.0223,"long":-121.2985},{"zip":"97703","city":"Bend","state":"OR","lat":44.0915,"long":-121.4073},{"zip":"97707","city":"Bend","state":"OR","lat":43.8431,"long":-121.5764},{"zip":"97708","city":"Bend","state":"OR","lat":44.0582,"long":-121.3153},{"zip":"97709","city":"Bend","state":"OR","lat":44.0582,"long":-121.3153},{"zip":"97712","city":"Brothers","state":"OR","lat":43.7789,"long":-120.477},{"zip":"97739","city":"La Pine","state":"OR","lat":43.7091,"long":-121.5194},{"zip":"97756","city":"Redmond","state":"OR","lat":44.2767,"long":-121.1896},{"zip":"97759","city":"Sisters","state":"OR","lat":44.3165,"long":-121.5091},{"zip":"97760","city":"Terrebonne","state":"OR","lat":44.3909,"long":-121.2379},{"zip":"97710","city":"Fields","state":"OR","lat":42.1862,"long":-118.4758},{"zip":"97720","city":"Burns","state":"OR","lat":43.5145,"long":-119.0504},{"zip":"97721","city":"Princeton","state":"OR","lat":43.0198,"long":-119.0696},{"zip":"97722","city":"Diamond","state":"OR","lat":42.9508,"long":-118.695},{"zip":"97732","city":"Crane","state":"OR","lat":43.4262,"long":-118.4642},{"zip":"97736","city":"Frenchglen","state":"OR","lat":42.7147,"long":-119.0058},{"zip":"97738","city":"Hines","state":"OR","lat":43.5558,"long":-119.0816},{"zip":"97758","city":"Riley","state":"OR","lat":43.3886,"long":-119.8798},{"zip":"97711","city":"Ashwood","state":"OR","lat":44.7195,"long":-120.7192},{"zip":"97730","city":"Camp Sherman","state":"OR","lat":44.4604,"long":-121.6412},{"zip":"97734","city":"Culver","state":"OR","lat":44.4818,"long":-121.2344},{"zip":"97741","city":"Madras","state":"OR","lat":44.6376,"long":-121.1349},{"zip":"97761","city":"Warm Springs","state":"OR","lat":44.7468,"long":-121.2909},{"zip":"97731","city":"Chemult","state":"OR","lat":43.146,"long":-121.7974},{"zip":"97733","city":"Crescent","state":"OR","lat":43.4442,"long":-121.7109},{"zip":"97737","city":"Gilchrist","state":"OR","lat":43.3725,"long":-121.6583},{"zip":"97735","city":"Fort Rock","state":"OR","lat":43.3565,"long":-121.0539},{"zip":"97750","city":"Mitchell","state":"OR","lat":44.5657,"long":-120.1456}]
