[{"zip":"97814","city":"Baker City","state":"OR","lat":44.7749,"long":-117.8344},{"zip":"97819","city":"Bridgeport","state":"OR","lat":44.4931,"long":-117.7655},{"zip":"97833","city":"Haines","state":"OR","lat":44.8776,"long":-117.9756},{"zip":"97834","city":"Halfway","state":"OR","lat":44.8953,"long":-117.1132},{"zip":"97837","city":"Hereford","state":"OR","lat":44.5304,"long":-118.0293},{"zip":"97840","city":"Oxbow","state":"OR","lat":44.9749,"long":-116.8629},{"zip":"97870","city":"Richland","state":"OR","lat":44.797,"long":-117.3018},{"zip":"97877","city":"Sumpter","state":"OR","lat":44.7457,"long":-118.2022},{"zip":"97884","city":"Unity","state":"OR","lat":44.4374,"long":-118.1927},{"zip":"97812","city":"Arlington","state":"OR","lat":45.6664,"long":-120.1971},{"zip":"97823","city":"Condon","state":"OR","lat":45.2306,"long":-120.1898},{"zip":"97861","city":"Mikkalo","state":"OR","lat":45.4388,"long":-120.2067},{"zip":"97817","city":"Bates","state":"OR","lat":44.7138,"long":-118.6469},{"zip":"97820","city":"Canyon City","state":"OR","lat":44.3911,"long":-118.9465},{"zip":"97825","city":"Dayville","state":"OR","lat":44.4663,"long":-119.5312},{"zip":"97845","city":"John Day","state":"OR","lat":44.416,"long":-118.953},{"zip":"97848","city":"Kimberly","state":"OR","lat":44.7226,"long":-119.5965},{"zip":"97856","city":"Long Creek","state":"OR","lat":44.7554,"long":-119.097},{"zip":"97864","city":"Monument","state":"OR","lat":44.8189,"long":-119.4192},{"zip":"97865","city":"Mount Vernon","state":"OR","lat":44.4171,"long":-119.1121},{"zip":"97869","city":"Prairie City","state":"OR","lat":44.457,"long":-118.6952},{"zip":"97873","city":"Seneca","state":"OR","lat":44.1346,"long":-118.9716},{"zip":"97818","city":"Boardman","state":"OR","lat":45.8272,"long":-119.7206},{"zip":"97836","city":"Heppner","state":"OR","lat":45.3486,"long":-119.5369},{"zip":"97839","city":"Lexington","state":"OR","lat":45.4264,"long":-119.7464},{"zip":"97843","city":"Ione","state":"OR","lat":45.5403,"long":-119.769},{"zip":"97844","city":"Irrigon","state":"OR","lat":45.8877,"long":-119.507},{"zip":"97801","city":"Pendleton","state":"OR","lat":45.6605,"long":-118.7831},{"zip":"97810","city":"Adams","state":"OR","lat":45.7674,"long":-118.5625},{"zip":"97813","city":"Athena","state":"OR","lat":45.8289,"long":-118.4971},{"zip":"97826","city":"Echo","state":"OR","lat":45.7411,"long":-119.1949},{"zip":"97835","city":"Helix","state":"OR","lat":45.8665,"long":-118.7222},{"zip":"97838","city":"Hermiston","state":"OR","lat":45.845,"long":-119.2849},{"zip":"97859","city":"Meacham","state":"OR","lat":45.5215,"long":-118.4335},{"zip":"97862","city":"Milton Freewater","state":"OR","lat":45.9486,"long":-118.3912},{"zip":"97868","city":"Pilot Rock","state":"OR","lat":45.4227,"long":-118.8483},{"zip":"97875","city":"Stanfield","state":"OR","lat":45.786,"long":-119.2116},{"zip":"97880","city":"Ukiah","state":"OR","lat":45.0836,"long":-118.894},{"zip":"97882","city":"Umatilla","state":"OR","lat":45.8998,"long":-119.3553},{"zip":"97886","city":"Weston","state":"OR","lat":45.8074,"long":-118.3733},{"zip":"97824","city":"Cove","state":"OR","lat":45.3199,"long":-117.8147},{"zip":"97827","city":"Elgin","state":"OR","lat":45.5941,"long":-117.9112},{"zip":"97841","city":"Imbler","state":"OR","lat":45.4599,"long":-117.9544},{"zip":"97850","city":"La Grande","state":"OR","lat":45.3304,"long":-118.0852},{"zip":"97867","city":"North Powder","state":"OR","lat":45.0317,"long":-117.9337},{"zip":"97876","city":"Summerville","state":"OR","lat":45.5077,"long":-118.027},{"zip":"97883","city":"Union","state":"OR","lat":45.2019,"long":-117.8536},{"zip":"97828","city":"Enterprise","state":"OR","lat":45.437,"long":-117.2888},{"zip":"97842","city":"Imnaha","state":"OR","lat":45.5137,"long":-116.8257},{"zip":"97846","city":"Joseph","state":"OR","lat":45.3494,"long":-117.2128},{"zip":"97857","city":"Lostine","state":"OR","lat":45.4939,"long":-117.4359},{"zip":"97885","city":"Wallowa","state":"OR","lat":45.5717,"long":-117.5357},{"zip":"97830","city":"Fossil","state":"OR","lat":44.9286,"long":-120.1309},{"zip":"97874","city":"Spray","state":"OR","lat":44.8242,"long":-119.8303}]
