[{"zip":"97905","city":"Durkee","state":"OR","lat":44.4988,"long":-117.4129},{"zip":"97907","city":"Huntington","state":"OR","lat":44.3811,"long":-117.3097},{"zip":"97904","city":"Drewsey","state":"OR","lat":43.8643,"long":-118.4707},{"zip":"97901","city":"Adrian","state":"OR","lat":43.6537,"long":-117.0602},{"zip":"97902","city":"Arock","state":"OR","lat":42.9156,"long":-117.498},{"zip":"97903","city":"Brogan","state":"OR","lat":44.1994,"long":-117.5904},{"zip":"97906","city":"Harper","state":"OR","lat":43.8734,"long":-117.5284},{"zip":"97908","city":"Ironside","state":"OR","lat":44.3009,"long":-117.9444},{"zip":"97909","city":"Jamieson","state":"OR","lat":44.2161,"long":-117.4813},{"zip":"97910","city":"Jordan Valley","state":"OR","lat":42.8801,"long":-117.281},{"zip":"97911","city":"Juntura","state":"OR","lat":43.8253,"long":-118.0921},{"zip":"97913","city":"Nyssa","state":"OR","lat":43.8604,"long":-117.0251},{"zip":"97914","city":"Ontario","state":"OR","lat":44.0416,"long":-116.9783},{"zip":"97917","city":"Riverside","state":"OR","lat":43.5099,"long":-118.0986},{"zip":"97918","city":"Vale","state":"OR","lat":44.0039,"long":-117.2674},{"zip":"97920","city":"Westfall","state":"OR","lat":43.9922,"long":-117.6877}]
