[{"zip":"98801","city":"Wenatchee","state":"WA","lat":47.4253,"long":-120.3273},{"zip":"98807","city":"Wenatchee","state":"WA","lat":47.4235,"long":-120.3103},{"zip":"98811","city":"Ardenvoir","state":"WA","lat":47.7373,"long":-120.369},{"zip":"98815","city":"Cashmere","state":"WA","lat":47.5173,"long":-120.5033},{"zip":"98816","city":"Chelan","state":"WA","lat":47.8483,"long":-120.0273},{"zip":"98817","city":"Chelan Falls","state":"WA","lat":47.8015,"long":-119.9859},{"zip":"98821","city":"Dryden","state":"WA","lat":47.5412,"long":-120.5609},{"zip":"98822","city":"Entiat","state":"WA","lat":47.7057,"long":-120.276},{"zip":"98826","city":"Leavenworth","state":"WA","lat":47.6438,"long":-120.6748},{"zip":"98828","city":"Malaga","state":"WA","lat":47.3553,"long":-120.2086},{"zip":"98831","city":"Manson","state":"WA","lat":47.8958,"long":-120.149},{"zip":"98836","city":"Monitor","state":"WA","lat":47.4852,"long":-120.4158},{"zip":"98847","city":"Peshastin","state":"WA","lat":47.5458,"long":-120.5961},{"zip":"98852","city":"Stehekin","state":"WA","lat":48.3093,"long":-120.6565},{"zip":"98305","city":"Beaver","state":"WA","lat":48.0673,"long":-124.3054},{"zip":"98324","city":"Carlsborg","state":"WA","lat":48.0906,"long":-123.1721},{"zip":"98326","city":"Clallam Bay","state":"WA","lat":48.2255,"long":-124.2015},{"zip":"98331","city":"Forks","state":"WA","lat":47.9287,"long":-124.3989},{"zip":"98343","city":"Joyce","state":"WA","lat":48.1362,"long":-123.7354},{"zip":"98350","city":"La Push","state":"WA","lat":47.9052,"long":-124.6261},{"zip":"98357","city":"Neah Bay","state":"WA","lat":48.328,"long":-124.6151},{"zip":"98362","city":"Port Angeles","state":"WA","lat":48.1065,"long":-123.4384},{"zip":"98363","city":"Port Angeles","state":"WA","lat":48.0557,"long":-123.9178},{"zip":"98381","city":"Sekiu","state":"WA","lat":48.3032,"long":-124.4685},{"zip":"98382","city":"Sequim","state":"WA","lat":48.0881,"long":-123.1198},{"zip":"98601","city":"Amboy","state":"WA","lat":45.9195,"long":-122.4574},{"zip":"98604","city":"Battle Ground","state":"WA","lat":45.7907,"long":-122.5318},{"zip":"98606","city":"Brush Prairie","state":"WA","lat":45.7304,"long":-122.4843},{"zip":"98607","city":"Camas","state":"WA","lat":45.6058,"long":-122.4142},{"zip":"98622","city":"Heisson","state":"WA","lat":45.8248,"long":-122.4912},{"zip":"98629","city":"La Center","state":"WA","lat":45.8806,"long":-122.624},{"zip":"98642","city":"Ridgefield","state":"WA","lat":45.7846,"long":-122.6934},{"zip":"98660","city":"Vancouver","state":"WA","lat":45.6418,"long":-122.6801},{"zip":"98661","city":"Vancouver","state":"WA","lat":45.6418,"long":-122.6251},{"zip":"98662","city":"Vancouver","state":"WA","lat":45.6914,"long":-122.5805},{"zip":"98663","city":"Vancouver","state":"WA","lat":45.6514,"long":-122.6604},{"zip":"98664","city":"Vancouver","state":"WA","lat":45.6231,"long":-122.5767},{"zip":"98665","city":"Vancouver","state":"WA","lat":45.6892,"long":-122.6616},{"zip":"98666","city":"Vancouver","state":"WA","lat":45.6387,"long":-122.6615},{"zip":"98668","city":"Vancouver","state":"WA","lat":45.6387,"long":-122.6615},{"zip":"98671","city":"Washougal","state":"WA","lat":45.5959,"long":-122.3104},{"zip":"98675","city":"Yacolt","state":"WA","lat":45.8622,"long":-122.4275},{"zip":"98682","city":"Vancouver","state":"WA","lat":45.6644,"long":-122.5212},{"zip":"98683","city":"Vancouver","state":"WA","lat":45.6032,"long":-122.5133},{"zip":"98684","city":"Vancouver","state":"WA","lat":45.6359,"long":-122.5155},{"zip":"98685","city":"Vancouver","state":"WA","lat":45.7162,"long":-122.6899},{"zip":"98686","city":"Vancouver","state":"WA","lat":45.712,"long":-122.6322},{"zip":"98687","city":"Vancouver","state":"WA","lat":45.6387,"long":-122.6615},{"zip":"98581","city":"Ryderwood","state":"WA","lat":46.3752,"long":-123.0431},{"zip":"98603","city":"Ariel","state":"WA","lat":45.9952,"long":-122.4677},{"zip":"98609","city":"Carrolls","state":"WA","lat":46.0715,"long":-122.8648},{"zip":"98611","city":"Castle Rock","state":"WA","lat":46.2783,"long":-122.9139},{"zip":"98616","city":"Cougar","state":"WA","lat":46.0515,"long":-122.2995},{"zip":"98625","city":"Kalama","state":"WA","lat":46.0112,"long":-122.8166},{"zip":"98626","city":"Kelso","state":"WA","lat":46.1485,"long":-122.887},{"zip":"98632","city":"Longview","state":"WA","lat":46.1514,"long":-122.9634},{"zip":"98645","city":"Silverlake","state":"WA","lat":46.3163,"long":-122.7649},{"zip":"98649","city":"Toutle","state":"WA","lat":46.2956,"long":-122.6477},{"zip":"98674","city":"Woodland","state":"WA","lat":45.9219,"long":-122.7126},{"zip":"98802","city":"East Wenatchee","state":"WA","lat":47.4186,"long":-120.2731},{"zip":"98813","city":"Bridgeport","state":"WA","lat":48.0082,"long":-119.6712},{"zip":"98830","city":"Mansfield","state":"WA","lat":47.9021,"long":-119.4053},{"zip":"98843","city":"Orondo","state":"WA","lat":47.6969,"long":-120.1721},{"zip":"98845","city":"Palisades","state":"WA","lat":47.419,"long":-119.9145},{"zip":"98850","city":"Rock Island","state":"WA","lat":47.3706,"long":-120.1378},{"zip":"98858","city":"Waterville","state":"WA","lat":47.6295,"long":-119.9887},{"zip":"98823","city":"Ephrata","state":"WA","lat":47.2771,"long":-119.5336},{"zip":"98824","city":"George","state":"WA","lat":47.0792,"long":-119.8601},{"zip":"98832","city":"Marlin","state":"WA","lat":47.3014,"long":-119.064},{"zip":"98837","city":"Moses Lake","state":"WA","lat":47.1374,"long":-119.2891},{"zip":"98848","city":"Quincy","state":"WA","lat":47.1976,"long":-119.8459},{"zip":"98851","city":"Soap Lake","state":"WA","lat":47.383,"long":-119.486},{"zip":"98853","city":"Stratford","state":"WA","lat":47.4043,"long":-119.313},{"zip":"98857","city":"Warden","state":"WA","lat":46.977,"long":-119.0539},{"zip":"98860","city":"Wilson Creek","state":"WA","lat":47.4739,"long":-119.1847},{"zip":"98520","city":"Aberdeen","state":"WA","lat":46.9843,"long":-123.7963},{"zip":"98526","city":"Amanda Park","state":"WA","lat":47.4859,"long":-123.9206},{"zip":"98535","city":"Copalis Beach","state":"WA","lat":47.1126,"long":-124.1738},{"zip":"98536","city":"Copalis Crossing","state":"WA","lat":47.1591,"long":-124.1352},{"zip":"98537","city":"Cosmopolis","state":"WA","lat":46.9538,"long":-123.7739},{"zip":"98541","city":"Elma","state":"WA","lat":47.0058,"long":-123.3997},{"zip":"98547","city":"Grayland","state":"WA","lat":46.8264,"long":-124.094},{"zip":"98550","city":"Hoquiam","state":"WA","lat":46.9823,"long":-123.8842},{"zip":"98552","city":"Humptulips","state":"WA","lat":47.3429,"long":-123.9291},{"zip":"98557","city":"Mccleary","state":"WA","lat":47.0297,"long":-123.273},{"zip":"98559","city":"Malone","state":"WA","lat":46.9589,"long":-123.3268},{"zip":"98562","city":"Moclips","state":"WA","lat":47.2387,"long":-124.2039},{"zip":"98563","city":"Montesano","state":"WA","lat":47.0901,"long":-123.5006},{"zip":"98566","city":"Neilton","state":"WA","lat":47.3877,"long":-123.8903},{"zip":"98568","city":"Oakville","state":"WA","lat":46.8434,"long":-123.2493},{"zip":"98569","city":"Ocean Shores","state":"WA","lat":46.9737,"long":-124.1563},{"zip":"98571","city":"Pacific Beach","state":"WA","lat":47.2195,"long":-124.1915},{"zip":"98575","city":"Quinault","state":"WA","lat":47.4603,"long":-123.8307},{"zip":"98583","city":"Satsop","state":"WA","lat":47.0022,"long":-123.4836},{"zip":"98587","city":"Taholah","state":"WA","lat":47.3407,"long":-124.2827},{"zip":"98595","city":"Westport","state":"WA","lat":46.8836,"long":-124.1061},{"zip":"98236","city":"Clinton","state":"WA","lat":47.9508,"long":-122.3916},{"zip":"98239","city":"Coupeville","state":"WA","lat":48.2189,"long":-122.6823},{"zip":"98249","city":"Freeland","state":"WA","lat":48.0342,"long":-122.5641},{"zip":"98253","city":"Greenbank","state":"WA","lat":48.1004,"long":-122.5761},{"zip":"98260","city":"Langley","state":"WA","lat":48.0187,"long":-122.453},{"zip":"98277","city":"Oak Harbor","state":"WA","lat":48.3151,"long":-122.6374},{"zip":"98278","city":"Oak Harbor","state":"WA","lat":48.3402,"long":-122.6695},{"zip":"98320","city":"Brinnon","state":"WA","lat":47.6776,"long":-122.9375},{"zip":"98325","city":"Chimacum","state":"WA","lat":47.9861,"long":-122.7883},{"zip":"98339","city":"Port Hadlock","state":"WA","lat":48.0345,"long":-122.7682},{"zip":"98358","city":"Nordland","state":"WA","lat":48.0432,"long":-122.6926},{"zip":"98365","city":"Port Ludlow","state":"WA","lat":47.9222,"long":-122.6896},{"zip":"98368","city":"Port Townsend","state":"WA","lat":48.104,"long":-122.7945},{"zip":"98376","city":"Quilcene","state":"WA","lat":47.8324,"long":-122.8583},{"zip":"98001","city":"Auburn","state":"WA","lat":47.3099,"long":-122.2653},{"zip":"98002","city":"Auburn","state":"WA","lat":47.305,"long":-122.2067},{"zip":"98003","city":"Federal Way","state":"WA","lat":47.3203,"long":-122.3117},{"zip":"98004","city":"Bellevue","state":"WA","lat":47.6155,"long":-122.2072},{"zip":"98005","city":"Bellevue","state":"WA","lat":47.615,"long":-122.1663},{"zip":"98006","city":"Bellevue","state":"WA","lat":47.5614,"long":-122.1552},{"zip":"98007","city":"Bellevue","state":"WA","lat":47.6174,"long":-122.1426},{"zip":"98008","city":"Bellevue","state":"WA","lat":47.6115,"long":-122.1162},{"zip":"98009","city":"Bellevue","state":"WA","lat":47.6104,"long":-122.2007},{"zip":"98010","city":"Black Diamond","state":"WA","lat":47.3114,"long":-122.0053},{"zip":"98011","city":"Bothell","state":"WA","lat":47.7497,"long":-122.2159},{"zip":"98013","city":"Burton","state":"WA","lat":47.389,"long":-122.4607},{"zip":"98014","city":"Carnation","state":"WA","lat":47.638,"long":-121.9111},{"zip":"98015","city":"Bellevue","state":"WA","lat":47.6104,"long":-122.2007},{"zip":"98019","city":"Duvall","state":"WA","lat":47.725,"long":-121.9369},{"zip":"98022","city":"Enumclaw","state":"WA","lat":47.2665,"long":-122.0314},{"zip":"98023","city":"Federal Way","state":"WA","lat":47.3104,"long":-122.3612},{"zip":"98024","city":"Fall City","state":"WA","lat":47.5682,"long":-121.8896},{"zip":"98025","city":"Hobart","state":"WA","lat":47.4218,"long":-121.9729},{"zip":"98027","city":"Issaquah","state":"WA","lat":47.4974,"long":-122.0107},{"zip":"98028","city":"Kenmore","state":"WA","lat":47.7542,"long":-122.2475},{"zip":"98029","city":"Issaquah","state":"WA","lat":47.5585,"long":-122.0055},{"zip":"98030","city":"Kent","state":"WA","lat":47.3866,"long":-122.2109},{"zip":"98031","city":"Kent","state":"WA","lat":47.388,"long":-122.1932},{"zip":"98032","city":"Kent","state":"WA","lat":47.3776,"long":-122.2854},{"zip":"98033","city":"Kirkland","state":"WA","lat":47.6786,"long":-122.1894},{"zip":"98034","city":"Kirkland","state":"WA","lat":47.7188,"long":-122.1966},{"zip":"98035","city":"Kent","state":"WA","lat":47.3809,"long":-122.2348},{"zip":"98038","city":"Maple Valley","state":"WA","lat":47.3845,"long":-122.0574},{"zip":"98039","city":"Medina","state":"WA","lat":47.6269,"long":-122.2314},{"zip":"98040","city":"Mercer Island","state":"WA","lat":47.5603,"long":-122.2281},{"zip":"98041","city":"Bothell","state":"WA","lat":47.7623,"long":-122.2054},{"zip":"98042","city":"Kent","state":"WA","lat":47.368,"long":-122.1206},{"zip":"98045","city":"North Bend","state":"WA","lat":47.4755,"long":-121.7571},{"zip":"98047","city":"Pacific","state":"WA","lat":47.2666,"long":-122.2435},{"zip":"98050","city":"Preston","state":"WA","lat":47.536,"long":-121.9312},{"zip":"98051","city":"Ravensdale","state":"WA","lat":47.3407,"long":-121.8874},{"zip":"98052","city":"Redmond","state":"WA","lat":47.6718,"long":-122.1232},{"zip":"98053","city":"Redmond","state":"WA","lat":47.6462,"long":-122.0386},{"zip":"98055","city":"Renton","state":"WA","lat":47.4648,"long":-122.2075},{"zip":"98056","city":"Renton","state":"WA","lat":47.5073,"long":-122.1819},{"zip":"98057","city":"Renton","state":"WA","lat":47.4714,"long":-122.2203},{"zip":"98058","city":"Renton","state":"WA","lat":47.4465,"long":-122.1216},{"zip":"98059","city":"Renton","state":"WA","lat":47.5058,"long":-122.1157},{"zip":"98062","city":"Seahurst","state":"WA","lat":47.4693,"long":-122.3621},{"zip":"98063","city":"Federal Way","state":"WA","lat":47.3223,"long":-122.3126},{"zip":"98064","city":"Kent","state":"WA","lat":47.3809,"long":-122.2348},{"zip":"98065","city":"Snoqualmie","state":"WA","lat":47.5293,"long":-121.8225},{"zip":"98068","city":"Snoqualmie Pass","state":"WA","lat":47.4452,"long":-121.431},{"zip":"98070","city":"Vashon","state":"WA","lat":47.4259,"long":-122.4644},{"zip":"98071","city":"Auburn","state":"WA","lat":47.3073,"long":-122.2285},{"zip":"98072","city":"Woodinville","state":"WA","lat":47.7684,"long":-122.1271},{"zip":"98073","city":"Redmond","state":"WA","lat":47.674,"long":-122.1215},{"zip":"98074","city":"Sammamish","state":"WA","lat":47.6254,"long":-122.0462},{"zip":"98075","city":"Sammamish","state":"WA","lat":47.5857,"long":-122.0345},{"zip":"98083","city":"Kirkland","state":"WA","lat":47.6815,"long":-122.2087},{"zip":"98089","city":"Kent","state":"WA","lat":47.3871,"long":-122.2023},{"zip":"98092","city":"Auburn","state":"WA","lat":47.2884,"long":-122.098},{"zip":"98093","city":"Federal Way","state":"WA","lat":47.311,"long":-122.1138},{"zip":"98101","city":"Seattle","state":"WA","lat":47.6114,"long":-122.3305},{"zip":"98102","city":"Seattle","state":"WA","lat":47.6302,"long":-122.321},{"zip":"98103","city":"Seattle","state":"WA","lat":47.6733,"long":-122.3426},{"zip":"98104","city":"Seattle","state":"WA","lat":47.6036,"long":-122.3256},{"zip":"98105","city":"Seattle","state":"WA","lat":47.6633,"long":-122.3022},{"zip":"98106","city":"Seattle","state":"WA","lat":47.5344,"long":-122.3547},{"zip":"98107","city":"Seattle","state":"WA","lat":47.6701,"long":-122.3763},{"zip":"98108","city":"Seattle","state":"WA","lat":47.5413,"long":-122.3129},{"zip":"98109","city":"Seattle","state":"WA","lat":47.6339,"long":-122.3476},{"zip":"98111","city":"Seattle","state":"WA","lat":47.6062,"long":-122.3321},{"zip":"98112","city":"Seattle","state":"WA","lat":47.6301,"long":-122.2972},{"zip":"98113","city":"Seattle","state":"WA","lat":47.6716,"long":-122.3411},{"zip":"98114","city":"Seattle","state":"WA","lat":47.6062,"long":-122.3321},{"zip":"98115","city":"Seattle","state":"WA","lat":47.6849,"long":-122.2968},{"zip":"98116","city":"Seattle","state":"WA","lat":47.5746,"long":-122.3934},{"zip":"98117","city":"Seattle","state":"WA","lat":47.6873,"long":-122.3772},{"zip":"98118","city":"Seattle","state":"WA","lat":47.5412,"long":-122.275},{"zip":"98119","city":"Seattle","state":"WA","lat":47.6379,"long":-122.3643},{"zip":"98121","city":"Seattle","state":"WA","lat":47.6151,"long":-122.3447},{"zip":"98122","city":"Seattle","state":"WA","lat":47.6116,"long":-122.3056},{"zip":"98124","city":"Seattle","state":"WA","lat":47.6062,"long":-122.3321},{"zip":"98125","city":"Seattle","state":"WA","lat":47.717,"long":-122.3015},{"zip":"98126","city":"Seattle","state":"WA","lat":47.5444,"long":-122.3735},{"zip":"98127","city":"Seattle","state":"WA","lat":47.6063,"long":-122.3308},{"zip":"98129","city":"Seattle","state":"WA","lat":47.6062,"long":-122.3321},{"zip":"98131","city":"Seattle","state":"WA","lat":47.6062,"long":-122.3321},{"zip":"98133","city":"Seattle","state":"WA","lat":47.7377,"long":-122.3431},{"zip":"98134","city":"Seattle","state":"WA","lat":47.5903,"long":-122.3263},{"zip":"98136","city":"Seattle","state":"WA","lat":47.5398,"long":-122.3878},{"zip":"98138","city":"Seattle","state":"WA","lat":47.6062,"long":-122.3321},{"zip":"98139","city":"Seattle","state":"WA","lat":47.6473,"long":-122.3999},{"zip":"98141","city":"Seattle","state":"WA","lat":47.6157,"long":-122.3445},{"zip":"98144","city":"Seattle","state":"WA","lat":47.5846,"long":-122.3005},{"zip":"98145","city":"Seattle","state":"WA","lat":47.6062,"long":-122.3321},{"zip":"98146","city":"Seattle","state":"WA","lat":47.4995,"long":-122.3603},{"zip":"98148","city":"Seattle","state":"WA","lat":47.4441,"long":-122.3249},{"zip":"98154","city":"Seattle","state":"WA","lat":47.6062,"long":-122.3321},{"zip":"98155","city":"Seattle","state":"WA","lat":47.7559,"long":-122.3003},{"zip":"98158","city":"Seattle","state":"WA","lat":47.4497,"long":-122.3076},{"zip":"98160","city":"Seattle","state":"WA","lat":47.6062,"long":-122.3321},{"zip":"98161","city":"Seattle","state":"WA","lat":47.6062,"long":-122.3321},{"zip":"98164","city":"Seattle","state":"WA","lat":47.606,"long":-122.332},{"zip":"98165","city":"Seattle","state":"WA","lat":47.7161,"long":-122.3004},{"zip":"98166","city":"Seattle","state":"WA","lat":47.4511,"long":-122.353},{"zip":"98168","city":"Seattle","state":"WA","lat":47.4889,"long":-122.3012},{"zip":"98170","city":"Seattle","state":"WA","lat":47.6096,"long":-122.3317},{"zip":"98174","city":"Seattle","state":"WA","lat":47.6062,"long":-122.3321},{"zip":"98175","city":"Seattle","state":"WA","lat":47.7161,"long":-122.3004},{"zip":"98177","city":"Seattle","state":"WA","lat":47.7467,"long":-122.3686},{"zip":"98178","city":"Seattle","state":"WA","lat":47.4924,"long":-122.2359},{"zip":"98181","city":"Seattle","state":"WA","lat":47.6062,"long":-122.3321},{"zip":"98185","city":"Seattle","state":"WA","lat":47.6062,"long":-122.3321},{"zip":"98188","city":"Seattle","state":"WA","lat":47.4483,"long":-122.2731},{"zip":"98190","city":"Seattle","state":"WA","lat":47.6062,"long":-122.3321},{"zip":"98191","city":"Seattle","state":"WA","lat":47.6062,"long":-122.3321},{"zip":"98194","city":"Seattle","state":"WA","lat":47.6024,"long":-122.326},{"zip":"98195","city":"Seattle","state":"WA","lat":47.6564,"long":-122.3048},{"zip":"98198","city":"Seattle","state":"WA","lat":47.3929,"long":-122.3129},{"zip":"98199","city":"Seattle","state":"WA","lat":47.6488,"long":-122.3964},{"zip":"98224","city":"Baring","state":"WA","lat":47.7671,"long":-121.4814},{"zip":"98288","city":"Skykomish","state":"WA","lat":47.6922,"long":-121.3713},{"zip":"98061","city":"Rollingbay","state":"WA","lat":47.6808,"long":-122.5762},{"zip":"98110","city":"Bainbridge Island","state":"WA","lat":47.6478,"long":-122.538},{"zip":"98310","city":"Bremerton","state":"WA","lat":47.6019,"long":-122.6299},{"zip":"98311","city":"Bremerton","state":"WA","lat":47.6271,"long":-122.6373},{"zip":"98312","city":"Bremerton","state":"WA","lat":47.5754,"long":-122.6958},{"zip":"98314","city":"Bremerton","state":"WA","lat":47.5593,"long":-122.6492},{"zip":"98315","city":"Silverdale","state":"WA","lat":47.692,"long":-122.7161},{"zip":"98322","city":"Burley","state":"WA","lat":47.4179,"long":-122.631},{"zip":"98337","city":"Bremerton","state":"WA","lat":47.5686,"long":-122.6373},{"zip":"98340","city":"Hansville","state":"WA","lat":47.9061,"long":-122.5655},{"zip":"98342","city":"Indianola","state":"WA","lat":47.7514,"long":-122.5196},{"zip":"98345","city":"Keyport","state":"WA","lat":47.698,"long":-122.6255},{"zip":"98346","city":"Kingston","state":"WA","lat":47.8108,"long":-122.5255},{"zip":"98353","city":"Manchester","state":"WA","lat":47.5952,"long":-122.6225},{"zip":"98359","city":"Olalla","state":"WA","lat":47.4241,"long":-122.5745},{"zip":"98364","city":"Port Gamble","state":"WA","lat":47.8344,"long":-122.5928},{"zip":"98366","city":"Port Orchard","state":"WA","lat":47.5427,"long":-122.5871},{"zip":"98367","city":"Port Orchard","state":"WA","lat":47.4707,"long":-122.651},{"zip":"98370","city":"Poulsbo","state":"WA","lat":47.7423,"long":-122.6277},{"zip":"98378","city":"Retsil","state":"WA","lat":47.5459,"long":-122.6112},{"zip":"98380","city":"Seabeck","state":"WA","lat":47.5913,"long":-122.8686},{"zip":"98383","city":"Silverdale","state":"WA","lat":47.6621,"long":-122.6981},{"zip":"98384","city":"South Colby","state":"WA","lat":47.5218,"long":-122.5396},{"zip":"98386","city":"Southworth","state":"WA","lat":47.5104,"long":-122.4991},{"zip":"98392","city":"Suquamish","state":"WA","lat":47.7343,"long":-122.5573},{"zip":"98393","city":"Tracyton","state":"WA","lat":47.6267,"long":-122.65},{"zip":"98922","city":"Cle Elum","state":"WA","lat":47.2063,"long":-120.9685},{"zip":"98925","city":"Easton","state":"WA","lat":47.233,"long":-121.1772},{"zip":"98926","city":"Ellensburg","state":"WA","lat":46.9996,"long":-120.5163},{"zip":"98934","city":"Kittitas","state":"WA","lat":46.9806,"long":-120.4163},{"zip":"98940","city":"Ronald","state":"WA","lat":47.2503,"long":-121.0456},{"zip":"98941","city":"Roslyn","state":"WA","lat":47.2233,"long":-121.0025},{"zip":"98943","city":"South Cle Elum","state":"WA","lat":47.1886,"long":-120.9537},{"zip":"98946","city":"Thorp","state":"WA","lat":47.0679,"long":-120.6712},{"zip":"98950","city":"Vantage","state":"WA","lat":46.8714,"long":-119.9859},{"zip":"98602","city":"Appleton","state":"WA","lat":45.8504,"long":-121.3129},{"zip":"98605","city":"Bingen","state":"WA","lat":45.7751,"long":-121.6328},{"zip":"98613","city":"Centerville","state":"WA","lat":45.7032,"long":-120.946},{"zip":"98617","city":"Dallesport","state":"WA","lat":45.6327,"long":-121.1717},{"zip":"98619","city":"Glenwood","state":"WA","lat":46.0071,"long":-121.2885},{"zip":"98620","city":"Goldendale","state":"WA","lat":45.832,"long":-120.813},{"zip":"98623","city":"Husum","state":"WA","lat":45.8076,"long":-121.4877},{"zip":"98628","city":"Klickitat","state":"WA","lat":45.8171,"long":-121.1526},{"zip":"98635","city":"Lyle","state":"WA","lat":45.745,"long":-121.2501},{"zip":"98650","city":"Trout Lake","state":"WA","lat":45.9828,"long":-121.5163},{"zip":"98670","city":"Wahkiacus","state":"WA","lat":45.859,"long":-121.1409},{"zip":"98672","city":"White Salmon","state":"WA","lat":45.7551,"long":-121.4795},{"zip":"98673","city":"Wishram","state":"WA","lat":45.6573,"long":-120.9667},{"zip":"98336","city":"Glenoma","state":"WA","lat":46.5283,"long":-122.099},{"zip":"98355","city":"Mineral","state":"WA","lat":46.7096,"long":-122.1861},{"zip":"98356","city":"Morton","state":"WA","lat":46.5581,"long":-122.2496},{"zip":"98361","city":"Packwood","state":"WA","lat":46.65,"long":-121.6553},{"zip":"98377","city":"Randle","state":"WA","lat":46.5492,"long":-121.8555},{"zip":"98522","city":"Adna","state":"WA","lat":46.629,"long":-123.0612},{"zip":"98531","city":"Centralia","state":"WA","lat":46.7246,"long":-122.9671},{"zip":"98532","city":"Chehalis","state":"WA","lat":46.6382,"long":-122.9658},{"zip":"98533","city":"Cinebar","state":"WA","lat":46.5793,"long":-122.5687},{"zip":"98538","city":"Curtis","state":"WA","lat":46.4956,"long":-123.1468},{"zip":"98539","city":"Doty","state":"WA","lat":46.6378,"long":-123.2804},{"zip":"98542","city":"Ethel","state":"WA","lat":46.53,"long":-122.724},{"zip":"98544","city":"Galvin","state":"WA","lat":46.7423,"long":-123.0271},{"zip":"98564","city":"Mossyrock","state":"WA","lat":46.5131,"long":-122.4789},{"zip":"98565","city":"Napavine","state":"WA","lat":46.5745,"long":-122.9082},{"zip":"98570","city":"Onalaska","state":"WA","lat":46.573,"long":-122.7075},{"zip":"98572","city":"Pe Ell","state":"WA","lat":46.5829,"long":-123.3147},{"zip":"98582","city":"Salkum","state":"WA","lat":46.5321,"long":-122.6259},{"zip":"98585","city":"Silver Creek","state":"WA","lat":46.5491,"long":-122.4757},{"zip":"98591","city":"Toledo","state":"WA","lat":46.4396,"long":-122.8266},{"zip":"98593","city":"Vader","state":"WA","lat":46.3985,"long":-122.9585},{"zip":"98596","city":"Winlock","state":"WA","lat":46.494,"long":-122.9158},{"zip":"98524","city":"Allyn","state":"WA","lat":47.3571,"long":-122.8587},{"zip":"98528","city":"Belfair","state":"WA","lat":47.4325,"long":-122.9289},{"zip":"98546","city":"Grapeview","state":"WA","lat":47.3273,"long":-122.9163},{"zip":"98548","city":"Hoodsport","state":"WA","lat":47.4235,"long":-123.1739},{"zip":"98555","city":"Lilliwaup","state":"WA","lat":47.5128,"long":-123.0631},{"zip":"98560","city":"Matlock","state":"WA","lat":47.2636,"long":-123.4412},{"zip":"98584","city":"Shelton","state":"WA","lat":47.2151,"long":-123.1007},{"zip":"98588","city":"Tahuya","state":"WA","lat":47.4446,"long":-123.0232},{"zip":"98592","city":"Union","state":"WA","lat":47.3368,"long":-123.075},{"zip":"98812","city":"Brewster","state":"WA","lat":48.1206,"long":-119.772},{"zip":"98814","city":"Carlton","state":"WA","lat":48.2526,"long":-120.1055},{"zip":"98819","city":"Conconully","state":"WA","lat":48.5469,"long":-119.7526},{"zip":"98827","city":"Loomis","state":"WA","lat":48.8696,"long":-119.6427},{"zip":"98829","city":"Malott","state":"WA","lat":48.248,"long":-119.7525},{"zip":"98833","city":"Mazama","state":"WA","lat":48.5977,"long":-120.388},{"zip":"98834","city":"Methow","state":"WA","lat":48.1171,"long":-120.0891},{"zip":"98840","city":"Okanogan","state":"WA","lat":48.3513,"long":-119.6046},{"zip":"98841","city":"Omak","state":"WA","lat":48.4143,"long":-119.5272},{"zip":"98844","city":"Oroville","state":"WA","lat":48.9397,"long":-119.4032},{"zip":"98846","city":"Pateros","state":"WA","lat":48.034,"long":-119.9785},{"zip":"98849","city":"Riverside","state":"WA","lat":48.4876,"long":-119.5803},{"zip":"98855","city":"Tonasket","state":"WA","lat":48.7194,"long":-119.3943},{"zip":"98856","city":"Twisp","state":"WA","lat":48.3632,"long":-120.135},{"zip":"98859","city":"Wauconda","state":"WA","lat":48.8224,"long":-118.9469},{"zip":"98862","city":"Winthrop","state":"WA","lat":48.4756,"long":-120.1805},{"zip":"98527","city":"Bay Center","state":"WA","lat":46.6315,"long":-123.9549},{"zip":"98554","city":"Lebam","state":"WA","lat":46.5614,"long":-123.5479},{"zip":"98561","city":"Menlo","state":"WA","lat":46.6215,"long":-123.6471},{"zip":"98577","city":"Raymond","state":"WA","lat":46.671,"long":-123.6929},{"zip":"98586","city":"South Bend","state":"WA","lat":46.6544,"long":-123.8203},{"zip":"98590","city":"Tokeland","state":"WA","lat":46.7065,"long":-123.9818},{"zip":"98614","city":"Chinook","state":"WA","lat":46.2729,"long":-123.9454},{"zip":"98624","city":"Ilwaco","state":"WA","lat":46.3142,"long":-124.0282},{"zip":"98631","city":"Long Beach","state":"WA","lat":46.3774,"long":-124.047},{"zip":"98637","city":"Nahcotta","state":"WA","lat":46.4984,"long":-124.0335},{"zip":"98638","city":"Naselle","state":"WA","lat":46.3528,"long":-123.8044},{"zip":"98640","city":"Ocean Park","state":"WA","lat":46.5029,"long":-124.0436},{"zip":"98641","city":"Oysterville","state":"WA","lat":46.5448,"long":-124.0427},{"zip":"98644","city":"Seaview","state":"WA","lat":46.3308,"long":-124.0455},{"zip":"98303","city":"Anderson Island","state":"WA","lat":47.1563,"long":-122.7067},{"zip":"98304","city":"Ashford","state":"WA","lat":46.7531,"long":-121.9898},{"zip":"98321","city":"Buckley","state":"WA","lat":47.1524,"long":-122.0621},{"zip":"98323","city":"Carbonado","state":"WA","lat":47.0802,"long":-122.0513},{"zip":"98327","city":"Dupont","state":"WA","lat":47.0968,"long":-122.6312},{"zip":"98328","city":"Eatonville","state":"WA","lat":46.8708,"long":-122.2696},{"zip":"98329","city":"Gig Harbor","state":"WA","lat":47.3786,"long":-122.7},{"zip":"98330","city":"Elbe","state":"WA","lat":46.7777,"long":-122.2023},{"zip":"98332","city":"Gig Harbor","state":"WA","lat":47.3607,"long":-122.6001},{"zip":"98333","city":"Fox Island","state":"WA","lat":47.248,"long":-122.629},{"zip":"98335","city":"Gig Harbor","state":"WA","lat":47.3002,"long":-122.6084},{"zip":"98338","city":"Graham","state":"WA","lat":47.0246,"long":-122.2936},{"zip":"98344","city":"Kapowsin","state":"WA","lat":46.9899,"long":-122.2226},{"zip":"98348","city":"La Grande","state":"WA","lat":46.8343,"long":-122.3187},{"zip":"98349","city":"Lakebay","state":"WA","lat":47.2886,"long":-122.7776},{"zip":"98351","city":"Longbranch","state":"WA","lat":47.2007,"long":-122.7561},{"zip":"98352","city":"Sumner","state":"WA","lat":47.0662,"long":-122.1132},{"zip":"98354","city":"Milton","state":"WA","lat":47.2483,"long":-122.3155},{"zip":"98360","city":"Orting","state":"WA","lat":47.0822,"long":-122.186},{"zip":"98371","city":"Puyallup","state":"WA","lat":47.1991,"long":-122.3151},{"zip":"98372","city":"Puyallup","state":"WA","lat":47.2042,"long":-122.2734},{"zip":"98373","city":"Puyallup","state":"WA","lat":47.1284,"long":-122.3219},{"zip":"98374","city":"Puyallup","state":"WA","lat":47.1424,"long":-122.2652},{"zip":"98375","city":"Puyallup","state":"WA","lat":47.1037,"long":-122.3235},{"zip":"98385","city":"South Prairie","state":"WA","lat":47.1383,"long":-122.0968},{"zip":"98387","city":"Spanaway","state":"WA","lat":47.0732,"long":-122.3943},{"zip":"98388","city":"Steilacoom","state":"WA","lat":47.1704,"long":-122.5888},{"zip":"98390","city":"Sumner","state":"WA","lat":47.2099,"long":-122.228},{"zip":"98391","city":"Bonney Lake","state":"WA","lat":47.143,"long":-122.1644},{"zip":"98394","city":"Vaughn","state":"WA","lat":47.3309,"long":-122.7736},{"zip":"98395","city":"Wauna","state":"WA","lat":47.379,"long":-122.6426},{"zip":"98396","city":"Wilkeson","state":"WA","lat":47.1095,"long":-122.037},{"zip":"98397","city":"Longmire","state":"WA","lat":46.7498,"long":-121.8126},{"zip":"98398","city":"Paradise Inn","state":"WA","lat":47.0662,"long":-122.1132},{"zip":"98401","city":"Tacoma","state":"WA","lat":47.2537,"long":-122.4443},{"zip":"98402","city":"Tacoma","state":"WA","lat":47.2545,"long":-122.4405},{"zip":"98403","city":"Tacoma","state":"WA","lat":47.2643,"long":-122.4575},{"zip":"98404","city":"Tacoma","state":"WA","lat":47.2113,"long":-122.4126},{"zip":"98405","city":"Tacoma","state":"WA","lat":47.2484,"long":-122.4643},{"zip":"98406","city":"Tacoma","state":"WA","lat":47.2632,"long":-122.4993},{"zip":"98407","city":"Tacoma","state":"WA","lat":47.2825,"long":-122.5039},{"zip":"98408","city":"Tacoma","state":"WA","lat":47.2073,"long":-122.4444},{"zip":"98409","city":"Tacoma","state":"WA","lat":47.2038,"long":-122.4825},{"zip":"98411","city":"Tacoma","state":"WA","lat":47.2529,"long":-122.4443},{"zip":"98412","city":"Tacoma","state":"WA","lat":47.2529,"long":-122.4443},{"zip":"98413","city":"Tacoma","state":"WA","lat":47.2529,"long":-122.4443},{"zip":"98415","city":"Tacoma","state":"WA","lat":47.2529,"long":-122.4443},{"zip":"98416","city":"Tacoma","state":"WA","lat":47.2646,"long":-122.4821},{"zip":"98417","city":"Tacoma","state":"WA","lat":47.2061,"long":-122.4822},{"zip":"98418","city":"Tacoma","state":"WA","lat":47.2232,"long":-122.4465},{"zip":"98419","city":"Tacoma","state":"WA","lat":47.2061,"long":-122.4822},{"zip":"98421","city":"Tacoma","state":"WA","lat":47.2664,"long":-122.4015},{"zip":"98422","city":"Tacoma","state":"WA","lat":47.2948,"long":-122.3983},{"zip":"98424","city":"Tacoma","state":"WA","lat":47.2325,"long":-122.3594},{"zip":"98430","city":"Camp Murray","state":"WA","lat":47.0662,"long":-122.1132},{"zip":"98431","city":"Tacoma","state":"WA","lat":47.2529,"long":-122.4443},{"zip":"98433","city":"Tacoma","state":"WA","lat":47.1125,"long":-122.5891},{"zip":"98438","city":"Mcchord Afb","state":"WA","lat":47.2258,"long":-122.469},{"zip":"98439","city":"Lakewood","state":"WA","lat":47.1287,"long":-122.5103},{"zip":"98443","city":"Tacoma","state":"WA","lat":47.2044,"long":-122.3728},{"zip":"98444","city":"Tacoma","state":"WA","lat":47.1464,"long":-122.4572},{"zip":"98445","city":"Tacoma","state":"WA","lat":47.1291,"long":-122.4094},{"zip":"98446","city":"Tacoma","state":"WA","lat":47.1285,"long":-122.3736},{"zip":"98447","city":"Tacoma","state":"WA","lat":47.1441,"long":-122.4434},{"zip":"98448","city":"Tacoma","state":"WA","lat":47.2061,"long":-122.4822},{"zip":"98464","city":"Tacoma","state":"WA","lat":47.2529,"long":-122.4443},{"zip":"98465","city":"Tacoma","state":"WA","lat":47.2491,"long":-122.5273},{"zip":"98466","city":"Tacoma","state":"WA","lat":47.228,"long":-122.5396},{"zip":"98467","city":"University Place","state":"WA","lat":47.2033,"long":-122.5688},{"zip":"98471","city":"Tacoma","state":"WA","lat":47.2529,"long":-122.4443},{"zip":"98481","city":"Tacoma","state":"WA","lat":47.2529,"long":-122.4443},{"zip":"98490","city":"Tacoma","state":"WA","lat":47.2061,"long":-122.4822},{"zip":"98493","city":"Tacoma","state":"WA","lat":47.2529,"long":-122.4443},{"zip":"98496","city":"Lakewood","state":"WA","lat":47.1666,"long":-122.5089},{"zip":"98497","city":"Lakewood","state":"WA","lat":47.1718,"long":-122.5185},{"zip":"98498","city":"Lakewood","state":"WA","lat":47.1591,"long":-122.5485},{"zip":"98499","city":"Lakewood","state":"WA","lat":47.1677,"long":-122.5024},{"zip":"98558","city":"Mckenna","state":"WA","lat":46.9348,"long":-122.5565},{"zip":"98580","city":"Roy","state":"WA","lat":46.956,"long":-122.4483},{"zip":"98222","city":"Blakely Island","state":"WA","lat":48.5618,"long":-122.812},{"zip":"98243","city":"Deer Harbor","state":"WA","lat":48.6201,"long":-122.9999},{"zip":"98245","city":"Eastsound","state":"WA","lat":48.6968,"long":-122.9055},{"zip":"98250","city":"Friday Harbor","state":"WA","lat":48.5454,"long":-123.0947},{"zip":"98261","city":"Lopez Island","state":"WA","lat":48.4988,"long":-122.8743},{"zip":"98279","city":"Olga","state":"WA","lat":48.6195,"long":-122.8355},{"zip":"98280","city":"Orcas","state":"WA","lat":48.5979,"long":-122.9446},{"zip":"98286","city":"Shaw Island","state":"WA","lat":48.5578,"long":-122.9837},{"zip":"98297","city":"Waldron","state":"WA","lat":48.6876,"long":-123.0369},{"zip":"98221","city":"Anacortes","state":"WA","lat":48.5004,"long":-122.6309},{"zip":"98232","city":"Bow","state":"WA","lat":48.562,"long":-122.4134},{"zip":"98233","city":"Burlington","state":"WA","lat":48.4786,"long":-122.3345},{"zip":"98235","city":"Clearlake","state":"WA","lat":48.4701,"long":-122.2388},{"zip":"98237","city":"Concrete","state":"WA","lat":48.531,"long":-121.6643},{"zip":"98238","city":"Conway","state":"WA","lat":48.34,"long":-122.3456},{"zip":"98255","city":"Hamilton","state":"WA","lat":48.5255,"long":-121.9887},{"zip":"98257","city":"La Conner","state":"WA","lat":48.4093,"long":-122.5313},{"zip":"98263","city":"Lyman","state":"WA","lat":48.5345,"long":-122.0586},{"zip":"98267","city":"Marblemount","state":"WA","lat":48.4435,"long":-121.3163},{"zip":"98273","city":"Mount Vernon","state":"WA","lat":48.4352,"long":-122.2082},{"zip":"98274","city":"Mount Vernon","state":"WA","lat":48.3643,"long":-122.1403},{"zip":"98283","city":"Rockport","state":"WA","lat":48.4704,"long":-121.5554},{"zip":"98284","city":"Sedro Woolley","state":"WA","lat":48.5274,"long":-122.2329},{"zip":"98610","city":"Carson","state":"WA","lat":45.7493,"long":-121.8351},{"zip":"98639","city":"North Bonneville","state":"WA","lat":45.6373,"long":-121.9712},{"zip":"98648","city":"Stevenson","state":"WA","lat":45.6882,"long":-121.9093},{"zip":"98651","city":"Underwood","state":"WA","lat":45.7409,"long":-121.5974},{"zip":"98012","city":"Bothell","state":"WA","lat":47.8401,"long":-122.1972},{"zip":"98020","city":"Edmonds","state":"WA","lat":47.8061,"long":-122.3724},{"zip":"98021","city":"Bothell","state":"WA","lat":47.7918,"long":-122.2243},{"zip":"98026","city":"Edmonds","state":"WA","lat":47.8353,"long":-122.327},{"zip":"98036","city":"Lynnwood","state":"WA","lat":47.8049,"long":-122.2855},{"zip":"98037","city":"Lynnwood","state":"WA","lat":47.8392,"long":-122.2855},{"zip":"98043","city":"Mountlake Terrace","state":"WA","lat":47.7933,"long":-122.3076},{"zip":"98046","city":"Lynnwood","state":"WA","lat":47.8209,"long":-122.3151},{"zip":"98077","city":"Woodinville","state":"WA","lat":47.7529,"long":-122.0582},{"zip":"98082","city":"Mill Creek","state":"WA","lat":47.8601,"long":-122.2043},{"zip":"98087","city":"Lynnwood","state":"WA","lat":47.862,"long":-122.2532},{"zip":"98201","city":"Everett","state":"WA","lat":47.9884,"long":-122.2006},{"zip":"98203","city":"Everett","state":"WA","lat":47.9419,"long":-122.2218},{"zip":"98204","city":"Everett","state":"WA","lat":47.9017,"long":-122.2472},{"zip":"98206","city":"Everett","state":"WA","lat":47.8599,"long":-122.2848},{"zip":"98207","city":"Everett","state":"WA","lat":47.979,"long":-122.2021},{"zip":"98208","city":"Everett","state":"WA","lat":47.8948,"long":-122.1987},{"zip":"98213","city":"Everett","state":"WA","lat":47.9451,"long":-122.2269},{"zip":"98223","city":"Arlington","state":"WA","lat":48.1829,"long":-122.1121},{"zip":"98241","city":"Darrington","state":"WA","lat":48.2395,"long":-121.5892},{"zip":"98251","city":"Gold Bar","state":"WA","lat":47.8331,"long":-121.6365},{"zip":"98252","city":"Granite Falls","state":"WA","lat":48.079,"long":-121.9428},{"zip":"98256","city":"Index","state":"WA","lat":47.8118,"long":-121.5497},{"zip":"98258","city":"Lake Stevens","state":"WA","lat":48.0171,"long":-122.0672},{"zip":"98259","city":"North Lakewood","state":"WA","lat":48.152,"long":-122.2074},{"zip":"98270","city":"Marysville","state":"WA","lat":48.0656,"long":-122.1562},{"zip":"98271","city":"Marysville","state":"WA","lat":48.0966,"long":-122.198},{"zip":"98272","city":"Monroe","state":"WA","lat":47.8585,"long":-121.9474},{"zip":"98275","city":"Mukilteo","state":"WA","lat":47.9199,"long":-122.3019},{"zip":"98282","city":"Camano Island","state":"WA","lat":48.1761,"long":-122.521},{"zip":"98287","city":"Silvana","state":"WA","lat":48.2023,"long":-122.2538},{"zip":"98290","city":"Snohomish","state":"WA","lat":47.8954,"long":-122.0716},{"zip":"98291","city":"Snohomish","state":"WA","lat":47.9095,"long":-122.0501},{"zip":"98292","city":"Stanwood","state":"WA","lat":48.2011,"long":-122.378},{"zip":"98293","city":"Startup","state":"WA","lat":47.8703,"long":-121.7685},{"zip":"98294","city":"Sultan","state":"WA","lat":47.8589,"long":-121.7369},{"zip":"98296","city":"Snohomish","state":"WA","lat":47.8579,"long":-122.092},{"zip":"98501","city":"Olympia","state":"WA","lat":47.0129,"long":-122.8763},{"zip":"98502","city":"Olympia","state":"WA","lat":47.1043,"long":-123.0552},{"zip":"98503","city":"Lacey","state":"WA","lat":47.024,"long":-122.7827},{"zip":"98504","city":"Olympia","state":"WA","lat":47.0379,"long":-122.9007},{"zip":"98505","city":"Olympia","state":"WA","lat":47.0654,"long":-122.9762},{"zip":"98506","city":"Olympia","state":"WA","lat":47.1042,"long":-122.87},{"zip":"98507","city":"Olympia","state":"WA","lat":47.0379,"long":-122.9007},{"zip":"98508","city":"Olympia","state":"WA","lat":47.0379,"long":-122.9007},{"zip":"98509","city":"Lacey","state":"WA","lat":46.9781,"long":-122.7024},{"zip":"98511","city":"Tumwater","state":"WA","lat":46.9616,"long":-123.0283},{"zip":"98512","city":"Olympia","state":"WA","lat":46.9498,"long":-123.0212},{"zip":"98513","city":"Olympia","state":"WA","lat":46.9939,"long":-122.743},{"zip":"98516","city":"Olympia","state":"WA","lat":47.1126,"long":-122.7794},{"zip":"98530","city":"Bucoda","state":"WA","lat":46.7982,"long":-122.8718},{"zip":"98540","city":"East Olympia","state":"WA","lat":46.9781,"long":-122.7024},{"zip":"98556","city":"Littlerock","state":"WA","lat":46.9024,"long":-123.017},{"zip":"98576","city":"Rainier","state":"WA","lat":46.8829,"long":-122.6795},{"zip":"98579","city":"Rochester","state":"WA","lat":46.8193,"long":-123.0406},{"zip":"98589","city":"Tenino","state":"WA","lat":46.8641,"long":-122.8493},{"zip":"98597","city":"Yelm","state":"WA","lat":46.9206,"long":-122.588},{"zip":"98599","city":"Olympia","state":"WA","lat":47.0379,"long":-122.9007},{"zip":"98612","city":"Cathlamet","state":"WA","lat":46.1954,"long":-123.3627},{"zip":"98621","city":"Grays River","state":"WA","lat":46.3535,"long":-123.5888},{"zip":"98643","city":"Rosburg","state":"WA","lat":46.3071,"long":-123.6571},{"zip":"98647","city":"Skamokawa","state":"WA","lat":46.2952,"long":-123.4332},{"zip":"98220","city":"Acme","state":"WA","lat":48.6752,"long":-122.1914},{"zip":"98225","city":"Bellingham","state":"WA","lat":48.749,"long":-122.4887},{"zip":"98226","city":"Bellingham","state":"WA","lat":48.7974,"long":-122.4448},{"zip":"98227","city":"Bellingham","state":"WA","lat":48.7596,"long":-122.4882},{"zip":"98228","city":"Bellingham","state":"WA","lat":48.7596,"long":-122.4882},{"zip":"98229","city":"Bellingham","state":"WA","lat":48.6952,"long":-122.4124},{"zip":"98230","city":"Blaine","state":"WA","lat":48.9636,"long":-122.7323},{"zip":"98231","city":"Blaine","state":"WA","lat":48.9937,"long":-122.7471},{"zip":"98240","city":"Custer","state":"WA","lat":48.9374,"long":-122.6226},{"zip":"98244","city":"Deming","state":"WA","lat":48.8018,"long":-122.0918},{"zip":"98247","city":"Everson","state":"WA","lat":48.9045,"long":-122.3325},{"zip":"98248","city":"Ferndale","state":"WA","lat":48.8625,"long":-122.5953},{"zip":"98262","city":"Lummi Island","state":"WA","lat":48.7128,"long":-122.6823},{"zip":"98264","city":"Lynden","state":"WA","lat":48.9372,"long":-122.4592},{"zip":"98266","city":"Maple Falls","state":"WA","lat":48.9533,"long":-122.1283},{"zip":"98276","city":"Nooksack","state":"WA","lat":48.8342,"long":-122.3357},{"zip":"98281","city":"Point Roberts","state":"WA","lat":48.9879,"long":-123.0555},{"zip":"98295","city":"Sumas","state":"WA","lat":48.9708,"long":-122.2074},{"zip":"98901","city":"Yakima","state":"WA","lat":46.6021,"long":-120.5059},{"zip":"98902","city":"Yakima","state":"WA","lat":46.5934,"long":-120.5311},{"zip":"98903","city":"Yakima","state":"WA","lat":46.5445,"long":-120.7444},{"zip":"98904","city":"Yakima","state":"WA","lat":46.5645,"long":-120.6947},{"zip":"98907","city":"Yakima","state":"WA","lat":46.6288,"long":-120.574},{"zip":"98908","city":"Yakima","state":"WA","lat":46.6165,"long":-120.7094},{"zip":"98909","city":"Yakima","state":"WA","lat":46.6021,"long":-120.5059},{"zip":"98920","city":"Brownstown","state":"WA","lat":46.4043,"long":-120.607},{"zip":"98921","city":"Buena","state":"WA","lat":46.4287,"long":-120.3134},{"zip":"98923","city":"Cowiche","state":"WA","lat":46.6661,"long":-120.7149},{"zip":"98930","city":"Grandview","state":"WA","lat":46.2538,"long":-119.9157},{"zip":"98932","city":"Granger","state":"WA","lat":46.348,"long":-120.1818},{"zip":"98933","city":"Harrah","state":"WA","lat":46.4104,"long":-120.5736},{"zip":"98935","city":"Mabton","state":"WA","lat":46.2121,"long":-120.0151},{"zip":"98936","city":"Moxee","state":"WA","lat":46.5542,"long":-120.3685},{"zip":"98937","city":"Naches","state":"WA","lat":46.8058,"long":-120.9921},{"zip":"98938","city":"Outlook","state":"WA","lat":46.3525,"long":-120.097},{"zip":"98939","city":"Parker","state":"WA","lat":46.501,"long":-120.4653},{"zip":"98942","city":"Selah","state":"WA","lat":46.6767,"long":-120.5408},{"zip":"98944","city":"Sunnyside","state":"WA","lat":46.3213,"long":-120.0126},{"zip":"98947","city":"Tieton","state":"WA","lat":46.7063,"long":-120.7473},{"zip":"98948","city":"Toppenish","state":"WA","lat":46.3751,"long":-120.3305},{"zip":"98951","city":"Wapato","state":"WA","lat":46.4507,"long":-120.4265},{"zip":"98952","city":"White Swan","state":"WA","lat":46.3716,"long":-120.7453},{"zip":"98953","city":"Zillah","state":"WA","lat":46.4158,"long":-120.2662}]
