[{"zip":"98101","city":"Seattle","state":"WA","lat":47.6114,"long":-122.3305},{"zip":"98102","city":"Seattle","state":"WA","lat":47.6302,"long":-122.321},{"zip":"98103","city":"Seattle","state":"WA","lat":47.6733,"long":-122.3426},{"zip":"98104","city":"Seattle","state":"WA","lat":47.6036,"long":-122.3256},{"zip":"98105","city":"Seattle","state":"WA","lat":47.6633,"long":-122.3022},{"zip":"98106","city":"Seattle","state":"WA","lat":47.5344,"long":-122.3547},{"zip":"98107","city":"Seattle","state":"WA","lat":47.6701,"long":-122.3763},{"zip":"98108","city":"Seattle","state":"WA","lat":47.5413,"long":-122.3129},{"zip":"98109","city":"Seattle","state":"WA","lat":47.6339,"long":-122.3476},{"zip":"98111","city":"Seattle","state":"WA","lat":47.6062,"long":-122.3321},{"zip":"98112","city":"Seattle","state":"WA","lat":47.6301,"long":-122.2972},{"zip":"98113","city":"Seattle","state":"WA","lat":47.6716,"long":-122.3411},{"zip":"98114","city":"Seattle","state":"WA","lat":47.6062,"long":-122.3321},{"zip":"98115","city":"Seattle","state":"WA","lat":47.6849,"long":-122.2968},{"zip":"98116","city":"Seattle","state":"WA","lat":47.5746,"long":-122.3934},{"zip":"98117","city":"Seattle","state":"WA","lat":47.6873,"long":-122.3772},{"zip":"98118","city":"Seattle","state":"WA","lat":47.5412,"long":-122.275},{"zip":"98119","city":"Seattle","state":"WA","lat":47.6379,"long":-122.3643},{"zip":"98121","city":"Seattle","state":"WA","lat":47.6151,"long":-122.3447},{"zip":"98122","city":"Seattle","state":"WA","lat":47.6116,"long":-122.3056},{"zip":"98124","city":"Seattle","state":"WA","lat":47.6062,"long":-122.3321},{"zip":"98125","city":"Seattle","state":"WA","lat":47.717,"long":-122.3015},{"zip":"98126","city":"Seattle","state":"WA","lat":47.5444,"long":-122.3735},{"zip":"98127","city":"Seattle","state":"WA","lat":47.6063,"long":-122.3308},{"zip":"98129","city":"Seattle","state":"WA","lat":47.6062,"long":-122.3321},{"zip":"98131","city":"Seattle","state":"WA","lat":47.6062,"long":-122.3321},{"zip":"98133","city":"Seattle","state":"WA","lat":47.7377,"long":-122.3431},{"zip":"98134","city":"Seattle","state":"WA","lat":47.5903,"long":-122.3263},{"zip":"98136","city":"Seattle","state":"WA","lat":47.5398,"long":-122.3878},{"zip":"98138","city":"Seattle","state":"WA","lat":47.6062,"long":-122.3321},{"zip":"98139","city":"Seattle","state":"WA","lat":47.6473,"long":-122.3999},{"zip":"98141","city":"Seattle","state":"WA","lat":47.6157,"long":-122.3445},{"zip":"98144","city":"Seattle","state":"WA","lat":47.5846,"long":-122.3005},{"zip":"98145","city":"Seattle","state":"WA","lat":47.6062,"long":-122.3321},{"zip":"98146","city":"Seattle","state":"WA","lat":47.4995,"long":-122.3603},{"zip":"98148","city":"Seattle","state":"WA","lat":47.4441,"long":-122.3249},{"zip":"98154","city":"Seattle","state":"WA","lat":47.6062,"long":-122.3321},{"zip":"98155","city":"Seattle","state":"WA","lat":47.7559,"long":-122.3003},{"zip":"98158","city":"Seattle","state":"WA","lat":47.4497,"long":-122.3076},{"zip":"98160","city":"Seattle","state":"WA","lat":47.6062,"long":-122.3321},{"zip":"98161","city":"Seattle","state":"WA","lat":47.6062,"long":-122.3321},{"zip":"98164","city":"Seattle","state":"WA","lat":47.606,"long":-122.332},{"zip":"98165","city":"Seattle","state":"WA","lat":47.7161,"long":-122.3004},{"zip":"98166","city":"Seattle","state":"WA","lat":47.4511,"long":-122.353},{"zip":"98168","city":"Seattle","state":"WA","lat":47.4889,"long":-122.3012},{"zip":"98170","city":"Seattle","state":"WA","lat":47.6096,"long":-122.3317},{"zip":"98174","city":"Seattle","state":"WA","lat":47.6062,"long":-122.3321},{"zip":"98175","city":"Seattle","state":"WA","lat":47.7161,"long":-122.3004},{"zip":"98177","city":"Seattle","state":"WA","lat":47.7467,"long":-122.3686},{"zip":"98178","city":"Seattle","state":"WA","lat":47.4924,"long":-122.2359},{"zip":"98181","city":"Seattle","state":"WA","lat":47.6062,"long":-122.3321},{"zip":"98185","city":"Seattle","state":"WA","lat":47.6062,"long":-122.3321},{"zip":"98188","city":"Seattle","state":"WA","lat":47.4483,"long":-122.2731},{"zip":"98190","city":"Seattle","state":"WA","lat":47.6062,"long":-122.3321},{"zip":"98191","city":"Seattle","state":"WA","lat":47.6062,"long":-122.3321},{"zip":"98194","city":"Seattle","state":"WA","lat":47.6024,"long":-122.326},{"zip":"98195","city":"Seattle","state":"WA","lat":47.6564,"long":-122.3048},{"zip":"98198","city":"Seattle","state":"WA","lat":47.3929,"long":-122.3129},{"zip":"98199","city":"Seattle","state":"WA","lat":47.6488,"long":-122.3964},{"zip":"98110","city":"Bainbridge Island","state":"WA","lat":47.6478,"long":-122.538}]
