[{"zip":"98305","city":"Beaver","state":"WA","lat":48.0673,"long":-124.3054},{"zip":"98324","city":"Carlsborg","state":"WA","lat":48.0906,"long":-123.1721},{"zip":"98326","city":"Clallam Bay","state":"WA","lat":48.2255,"long":-124.2015},{"zip":"98331","city":"Forks","state":"WA","lat":47.9287,"long":-124.3989},{"zip":"98343","city":"Joyce","state":"WA","lat":48.1362,"long":-123.7354},{"zip":"98350","city":"La Push","state":"WA","lat":47.9052,"long":-124.6261},{"zip":"98357","city":"Neah Bay","state":"WA","lat":48.328,"long":-124.6151},{"zip":"98362","city":"Port Angeles","state":"WA","lat":48.1065,"long":-123.4384},{"zip":"98363","city":"Port Angeles","state":"WA","lat":48.0557,"long":-123.9178},{"zip":"98381","city":"Sekiu","state":"WA","lat":48.3032,"long":-124.4685},{"zip":"98382","city":"Sequim","state":"WA","lat":48.0881,"long":-123.1198},{"zip":"98320","city":"Brinnon","state":"WA","lat":47.6776,"long":-122.9375},{"zip":"98325","city":"Chimacum","state":"WA","lat":47.9861,"long":-122.7883},{"zip":"98339","city":"Port Hadlock","state":"WA","lat":48.0345,"long":-122.7682},{"zip":"98358","city":"Nordland","state":"WA","lat":48.0432,"long":-122.6926},{"zip":"98365","city":"Port Ludlow","state":"WA","lat":47.9222,"long":-122.6896},{"zip":"98368","city":"Port Townsend","state":"WA","lat":48.104,"long":-122.7945},{"zip":"98376","city":"Quilcene","state":"WA","lat":47.8324,"long":-122.8583},{"zip":"98310","city":"Bremerton","state":"WA","lat":47.6019,"long":-122.6299},{"zip":"98311","city":"Bremerton","state":"WA","lat":47.6271,"long":-122.6373},{"zip":"98312","city":"Bremerton","state":"WA","lat":47.5754,"long":-122.6958},{"zip":"98314","city":"Bremerton","state":"WA","lat":47.5593,"long":-122.6492},{"zip":"98315","city":"Silverdale","state":"WA","lat":47.692,"long":-122.7161},{"zip":"98322","city":"Burley","state":"WA","lat":47.4179,"long":-122.631},{"zip":"98337","city":"Bremerton","state":"WA","lat":47.5686,"long":-122.6373},{"zip":"98340","city":"Hansville","state":"WA","lat":47.9061,"long":-122.5655},{"zip":"98342","city":"Indianola","state":"WA","lat":47.7514,"long":-122.5196},{"zip":"98345","city":"Keyport","state":"WA","lat":47.698,"long":-122.6255},{"zip":"98346","city":"Kingston","state":"WA","lat":47.8108,"long":-122.5255},{"zip":"98353","city":"Manchester","state":"WA","lat":47.5952,"long":-122.6225},{"zip":"98359","city":"Olalla","state":"WA","lat":47.4241,"long":-122.5745},{"zip":"98364","city":"Port Gamble","state":"WA","lat":47.8344,"long":-122.5928},{"zip":"98366","city":"Port Orchard","state":"WA","lat":47.5427,"long":-122.5871},{"zip":"98367","city":"Port Orchard","state":"WA","lat":47.4707,"long":-122.651},{"zip":"98370","city":"Poulsbo","state":"WA","lat":47.7423,"long":-122.6277},{"zip":"98378","city":"Retsil","state":"WA","lat":47.5459,"long":-122.6112},{"zip":"98380","city":"Seabeck","state":"WA","lat":47.5913,"long":-122.8686},{"zip":"98383","city":"Silverdale","state":"WA","lat":47.6621,"long":-122.6981},{"zip":"98384","city":"South Colby","state":"WA","lat":47.5218,"long":-122.5396},{"zip":"98386","city":"Southworth","state":"WA","lat":47.5104,"long":-122.4991},{"zip":"98392","city":"Suquamish","state":"WA","lat":47.7343,"long":-122.5573},{"zip":"98393","city":"Tracyton","state":"WA","lat":47.6267,"long":-122.65},{"zip":"98336","city":"Glenoma","state":"WA","lat":46.5283,"long":-122.099},{"zip":"98355","city":"Mineral","state":"WA","lat":46.7096,"long":-122.1861},{"zip":"98356","city":"Morton","state":"WA","lat":46.5581,"long":-122.2496},{"zip":"98361","city":"Packwood","state":"WA","lat":46.65,"long":-121.6553},{"zip":"98377","city":"Randle","state":"WA","lat":46.5492,"long":-121.8555},{"zip":"98303","city":"Anderson Island","state":"WA","lat":47.1563,"long":-122.7067},{"zip":"98304","city":"Ashford","state":"WA","lat":46.7531,"long":-121.9898},{"zip":"98321","city":"Buckley","state":"WA","lat":47.1524,"long":-122.0621},{"zip":"98323","city":"Carbonado","state":"WA","lat":47.0802,"long":-122.0513},{"zip":"98327","city":"Dupont","state":"WA","lat":47.0968,"long":-122.6312},{"zip":"98328","city":"Eatonville","state":"WA","lat":46.8708,"long":-122.2696},{"zip":"98329","city":"Gig Harbor","state":"WA","lat":47.3786,"long":-122.7},{"zip":"98330","city":"Elbe","state":"WA","lat":46.7777,"long":-122.2023},{"zip":"98332","city":"Gig Harbor","state":"WA","lat":47.3607,"long":-122.6001},{"zip":"98333","city":"Fox Island","state":"WA","lat":47.248,"long":-122.629},{"zip":"98335","city":"Gig Harbor","state":"WA","lat":47.3002,"long":-122.6084},{"zip":"98338","city":"Graham","state":"WA","lat":47.0246,"long":-122.2936},{"zip":"98344","city":"Kapowsin","state":"WA","lat":46.9899,"long":-122.2226},{"zip":"98348","city":"La Grande","state":"WA","lat":46.8343,"long":-122.3187},{"zip":"98349","city":"Lakebay","state":"WA","lat":47.2886,"long":-122.7776},{"zip":"98351","city":"Longbranch","state":"WA","lat":47.2007,"long":-122.7561},{"zip":"98352","city":"Sumner","state":"WA","lat":47.0662,"long":-122.1132},{"zip":"98354","city":"Milton","state":"WA","lat":47.2483,"long":-122.3155},{"zip":"98360","city":"Orting","state":"WA","lat":47.0822,"long":-122.186},{"zip":"98371","city":"Puyallup","state":"WA","lat":47.1991,"long":-122.3151},{"zip":"98372","city":"Puyallup","state":"WA","lat":47.2042,"long":-122.2734},{"zip":"98373","city":"Puyallup","state":"WA","lat":47.1284,"long":-122.3219},{"zip":"98374","city":"Puyallup","state":"WA","lat":47.1424,"long":-122.2652},{"zip":"98375","city":"Puyallup","state":"WA","lat":47.1037,"long":-122.3235},{"zip":"98385","city":"South Prairie","state":"WA","lat":47.1383,"long":-122.0968},{"zip":"98387","city":"Spanaway","state":"WA","lat":47.0732,"long":-122.3943},{"zip":"98388","city":"Steilacoom","state":"WA","lat":47.1704,"long":-122.5888},{"zip":"98390","city":"Sumner","state":"WA","lat":47.2099,"long":-122.228},{"zip":"98391","city":"Bonney Lake","state":"WA","lat":47.143,"long":-122.1644},{"zip":"98394","city":"Vaughn","state":"WA","lat":47.3309,"long":-122.7736},{"zip":"98395","city":"Wauna","state":"WA","lat":47.379,"long":-122.6426},{"zip":"98396","city":"Wilkeson","state":"WA","lat":47.1095,"long":-122.037},{"zip":"98397","city":"Longmire","state":"WA","lat":46.7498,"long":-121.8126},{"zip":"98398","city":"Paradise Inn","state":"WA","lat":47.0662,"long":-122.1132}]
