[{"zip":"98401","city":"Tacoma","state":"WA","lat":47.2537,"long":-122.4443},{"zip":"98402","city":"Tacoma","state":"WA","lat":47.2545,"long":-122.4405},{"zip":"98403","city":"Tacoma","state":"WA","lat":47.2643,"long":-122.4575},{"zip":"98404","city":"Tacoma","state":"WA","lat":47.2113,"long":-122.4126},{"zip":"98405","city":"Tacoma","state":"WA","lat":47.2484,"long":-122.4643},{"zip":"98406","city":"Tacoma","state":"WA","lat":47.2632,"long":-122.4993},{"zip":"98407","city":"Tacoma","state":"WA","lat":47.2825,"long":-122.5039},{"zip":"98408","city":"Tacoma","state":"WA","lat":47.2073,"long":-122.4444},{"zip":"98409","city":"Tacoma","state":"WA","lat":47.2038,"long":-122.4825},{"zip":"98411","city":"Tacoma","state":"WA","lat":47.2529,"long":-122.4443},{"zip":"98412","city":"Tacoma","state":"WA","lat":47.2529,"long":-122.4443},{"zip":"98413","city":"Tacoma","state":"WA","lat":47.2529,"long":-122.4443},{"zip":"98415","city":"Tacoma","state":"WA","lat":47.2529,"long":-122.4443},{"zip":"98416","city":"Tacoma","state":"WA","lat":47.2646,"long":-122.4821},{"zip":"98417","city":"Tacoma","state":"WA","lat":47.2061,"long":-122.4822},{"zip":"98418","city":"Tacoma","state":"WA","lat":47.2232,"long":-122.4465},{"zip":"98419","city":"Tacoma","state":"WA","lat":47.2061,"long":-122.4822},{"zip":"98421","city":"Tacoma","state":"WA","lat":47.2664,"long":-122.4015},{"zip":"98422","city":"Tacoma","state":"WA","lat":47.2948,"long":-122.3983},{"zip":"98424","city":"Tacoma","state":"WA","lat":47.2325,"long":-122.3594},{"zip":"98430","city":"Camp Murray","state":"WA","lat":47.0662,"long":-122.1132},{"zip":"98431","city":"Tacoma","state":"WA","lat":47.2529,"long":-122.4443},{"zip":"98433","city":"Tacoma","state":"WA","lat":47.1125,"long":-122.5891},{"zip":"98438","city":"Mcchord Afb","state":"WA","lat":47.2258,"long":-122.469},{"zip":"98439","city":"Lakewood","state":"WA","lat":47.1287,"long":-122.5103},{"zip":"98443","city":"Tacoma","state":"WA","lat":47.2044,"long":-122.3728},{"zip":"98444","city":"Tacoma","state":"WA","lat":47.1464,"long":-122.4572},{"zip":"98445","city":"Tacoma","state":"WA","lat":47.1291,"long":-122.4094},{"zip":"98446","city":"Tacoma","state":"WA","lat":47.1285,"long":-122.3736},{"zip":"98447","city":"Tacoma","state":"WA","lat":47.1441,"long":-122.4434},{"zip":"98448","city":"Tacoma","state":"WA","lat":47.2061,"long":-122.4822},{"zip":"98464","city":"Tacoma","state":"WA","lat":47.2529,"long":-122.4443},{"zip":"98465","city":"Tacoma","state":"WA","lat":47.2491,"long":-122.5273},{"zip":"98466","city":"Tacoma","state":"WA","lat":47.228,"long":-122.5396},{"zip":"98467","city":"University Place","state":"WA","lat":47.2033,"long":-122.5688},{"zip":"98471","city":"Tacoma","state":"WA","lat":47.2529,"long":-122.4443},{"zip":"98481","city":"Tacoma","state":"WA","lat":47.2529,"long":-122.4443},{"zip":"98490","city":"Tacoma","state":"WA","lat":47.2061,"long":-122.4822},{"zip":"98493","city":"Tacoma","state":"WA","lat":47.2529,"long":-122.4443},{"zip":"98496","city":"Lakewood","state":"WA","lat":47.1666,"long":-122.5089},{"zip":"98497","city":"Lakewood","state":"WA","lat":47.1718,"long":-122.5185},{"zip":"98498","city":"Lakewood","state":"WA","lat":47.1591,"long":-122.5485},{"zip":"98499","city":"Lakewood","state":"WA","lat":47.1677,"long":-122.5024}]
