[{"zip":"98581","city":"Ryderwood","state":"WA","lat":46.3752,"long":-123.0431},{"zip":"98520","city":"Aberdeen","state":"WA","lat":46.9843,"long":-123.7963},{"zip":"98526","city":"Amanda Park","state":"WA","lat":47.4859,"long":-123.9206},{"zip":"98535","city":"Copalis Beach","state":"WA","lat":47.1126,"long":-124.1738},{"zip":"98536","city":"Copalis Crossing","state":"WA","lat":47.1591,"long":-124.1352},{"zip":"98537","city":"Cosmopolis","state":"WA","lat":46.9538,"long":-123.7739},{"zip":"98541","city":"Elma","state":"WA","lat":47.0058,"long":-123.3997},{"zip":"98547","city":"Grayland","state":"WA","lat":46.8264,"long":-124.094},{"zip":"98550","city":"Hoquiam","state":"WA","lat":46.9823,"long":-123.8842},{"zip":"98552","city":"Humptulips","state":"WA","lat":47.3429,"long":-123.9291},{"zip":"98557","city":"Mccleary","state":"WA","lat":47.0297,"long":-123.273},{"zip":"98559","city":"Malone","state":"WA","lat":46.9589,"long":-123.3268},{"zip":"98562","city":"Moclips","state":"WA","lat":47.2387,"long":-124.2039},{"zip":"98563","city":"Montesano","state":"WA","lat":47.0901,"long":-123.5006},{"zip":"98566","city":"Neilton","state":"WA","lat":47.3877,"long":-123.8903},{"zip":"98568","city":"Oakville","state":"WA","lat":46.8434,"long":-123.2493},{"zip":"98569","city":"Ocean Shores","state":"WA","lat":46.9737,"long":-124.1563},{"zip":"98571","city":"Pacific Beach","state":"WA","lat":47.2195,"long":-124.1915},{"zip":"98575","city":"Quinault","state":"WA","lat":47.4603,"long":-123.8307},{"zip":"98583","city":"Satsop","state":"WA","lat":47.0022,"long":-123.4836},{"zip":"98587","city":"Taholah","state":"WA","lat":47.3407,"long":-124.2827},{"zip":"98595","city":"Westport","state":"WA","lat":46.8836,"long":-124.1061},{"zip":"98522","city":"Adna","state":"WA","lat":46.629,"long":-123.0612},{"zip":"98531","city":"Centralia","state":"WA","lat":46.7246,"long":-122.9671},{"zip":"98532","city":"Chehalis","state":"WA","lat":46.6382,"long":-122.9658},{"zip":"98533","city":"Cinebar","state":"WA","lat":46.5793,"long":-122.5687},{"zip":"98538","city":"Curtis","state":"WA","lat":46.4956,"long":-123.1468},{"zip":"98539","city":"Doty","state":"WA","lat":46.6378,"long":-123.2804},{"zip":"98542","city":"Ethel","state":"WA","lat":46.53,"long":-122.724},{"zip":"98544","city":"Galvin","state":"WA","lat":46.7423,"long":-123.0271},{"zip":"98564","city":"Mossyrock","state":"WA","lat":46.5131,"long":-122.4789},{"zip":"98565","city":"Napavine","state":"WA","lat":46.5745,"long":-122.9082},{"zip":"98570","city":"Onalaska","state":"WA","lat":46.573,"long":-122.7075},{"zip":"98572","city":"Pe Ell","state":"WA","lat":46.5829,"long":-123.3147},{"zip":"98582","city":"Salkum","state":"WA","lat":46.5321,"long":-122.6259},{"zip":"98585","city":"Silver Creek","state":"WA","lat":46.5491,"long":-122.4757},{"zip":"98591","city":"Toledo","state":"WA","lat":46.4396,"long":-122.8266},{"zip":"98593","city":"Vader","state":"WA","lat":46.3985,"long":-122.9585},{"zip":"98596","city":"Winlock","state":"WA","lat":46.494,"long":-122.9158},{"zip":"98524","city":"Allyn","state":"WA","lat":47.3571,"long":-122.8587},{"zip":"98528","city":"Belfair","state":"WA","lat":47.4325,"long":-122.9289},{"zip":"98546","city":"Grapeview","state":"WA","lat":47.3273,"long":-122.9163},{"zip":"98548","city":"Hoodsport","state":"WA","lat":47.4235,"long":-123.1739},{"zip":"98555","city":"Lilliwaup","state":"WA","lat":47.5128,"long":-123.0631},{"zip":"98560","city":"Matlock","state":"WA","lat":47.2636,"long":-123.4412},{"zip":"98584","city":"Shelton","state":"WA","lat":47.2151,"long":-123.1007},{"zip":"98588","city":"Tahuya","state":"WA","lat":47.4446,"long":-123.0232},{"zip":"98592","city":"Union","state":"WA","lat":47.3368,"long":-123.075},{"zip":"98527","city":"Bay Center","state":"WA","lat":46.6315,"long":-123.9549},{"zip":"98554","city":"Lebam","state":"WA","lat":46.5614,"long":-123.5479},{"zip":"98561","city":"Menlo","state":"WA","lat":46.6215,"long":-123.6471},{"zip":"98577","city":"Raymond","state":"WA","lat":46.671,"long":-123.6929},{"zip":"98586","city":"South Bend","state":"WA","lat":46.6544,"long":-123.8203},{"zip":"98590","city":"Tokeland","state":"WA","lat":46.7065,"long":-123.9818},{"zip":"98558","city":"Mckenna","state":"WA","lat":46.9348,"long":-122.5565},{"zip":"98580","city":"Roy","state":"WA","lat":46.956,"long":-122.4483},{"zip":"98501","city":"Olympia","state":"WA","lat":47.0129,"long":-122.8763},{"zip":"98502","city":"Olympia","state":"WA","lat":47.1043,"long":-123.0552},{"zip":"98503","city":"Lacey","state":"WA","lat":47.024,"long":-122.7827},{"zip":"98504","city":"Olympia","state":"WA","lat":47.0379,"long":-122.9007},{"zip":"98505","city":"Olympia","state":"WA","lat":47.0654,"long":-122.9762},{"zip":"98506","city":"Olympia","state":"WA","lat":47.1042,"long":-122.87},{"zip":"98507","city":"Olympia","state":"WA","lat":47.0379,"long":-122.9007},{"zip":"98508","city":"Olympia","state":"WA","lat":47.0379,"long":-122.9007},{"zip":"98509","city":"Lacey","state":"WA","lat":46.9781,"long":-122.7024},{"zip":"98511","city":"Tumwater","state":"WA","lat":46.9616,"long":-123.0283},{"zip":"98512","city":"Olympia","state":"WA","lat":46.9498,"long":-123.0212},{"zip":"98513","city":"Olympia","state":"WA","lat":46.9939,"long":-122.743},{"zip":"98516","city":"Olympia","state":"WA","lat":47.1126,"long":-122.7794},{"zip":"98530","city":"Bucoda","state":"WA","lat":46.7982,"long":-122.8718},{"zip":"98540","city":"East Olympia","state":"WA","lat":46.9781,"long":-122.7024},{"zip":"98556","city":"Littlerock","state":"WA","lat":46.9024,"long":-123.017},{"zip":"98576","city":"Rainier","state":"WA","lat":46.8829,"long":-122.6795},{"zip":"98579","city":"Rochester","state":"WA","lat":46.8193,"long":-123.0406},{"zip":"98589","city":"Tenino","state":"WA","lat":46.8641,"long":-122.8493},{"zip":"98597","city":"Yelm","state":"WA","lat":46.9206,"long":-122.588},{"zip":"98599","city":"Olympia","state":"WA","lat":47.0379,"long":-122.9007}]
