[{"zip":"98601","city":"Amboy","state":"WA","lat":45.9195,"long":-122.4574},{"zip":"98604","city":"Battle Ground","state":"WA","lat":45.7907,"long":-122.5318},{"zip":"98606","city":"Brush Prairie","state":"WA","lat":45.7304,"long":-122.4843},{"zip":"98607","city":"Camas","state":"WA","lat":45.6058,"long":-122.4142},{"zip":"98622","city":"Heisson","state":"WA","lat":45.8248,"long":-122.4912},{"zip":"98629","city":"La Center","state":"WA","lat":45.8806,"long":-122.624},{"zip":"98642","city":"Ridgefield","state":"WA","lat":45.7846,"long":-122.6934},{"zip":"98660","city":"Vancouver","state":"WA","lat":45.6418,"long":-122.6801},{"zip":"98661","city":"Vancouver","state":"WA","lat":45.6418,"long":-122.6251},{"zip":"98662","city":"Vancouver","state":"WA","lat":45.6914,"long":-122.5805},{"zip":"98663","city":"Vancouver","state":"WA","lat":45.6514,"long":-122.6604},{"zip":"98664","city":"Vancouver","state":"WA","lat":45.6231,"long":-122.5767},{"zip":"98665","city":"Vancouver","state":"WA","lat":45.6892,"long":-122.6616},{"zip":"98666","city":"Vancouver","state":"WA","lat":45.6387,"long":-122.6615},{"zip":"98668","city":"Vancouver","state":"WA","lat":45.6387,"long":-122.6615},{"zip":"98671","city":"Washougal","state":"WA","lat":45.5959,"long":-122.3104},{"zip":"98675","city":"Yacolt","state":"WA","lat":45.8622,"long":-122.4275},{"zip":"98682","city":"Vancouver","state":"WA","lat":45.6644,"long":-122.5212},{"zip":"98683","city":"Vancouver","state":"WA","lat":45.6032,"long":-122.5133},{"zip":"98684","city":"Vancouver","state":"WA","lat":45.6359,"long":-122.5155},{"zip":"98685","city":"Vancouver","state":"WA","lat":45.7162,"long":-122.6899},{"zip":"98686","city":"Vancouver","state":"WA","lat":45.712,"long":-122.6322},{"zip":"98687","city":"Vancouver","state":"WA","lat":45.6387,"long":-122.6615},{"zip":"98603","city":"Ariel","state":"WA","lat":45.9952,"long":-122.4677},{"zip":"98609","city":"Carrolls","state":"WA","lat":46.0715,"long":-122.8648},{"zip":"98611","city":"Castle Rock","state":"WA","lat":46.2783,"long":-122.9139},{"zip":"98616","city":"Cougar","state":"WA","lat":46.0515,"long":-122.2995},{"zip":"98625","city":"Kalama","state":"WA","lat":46.0112,"long":-122.8166},{"zip":"98626","city":"Kelso","state":"WA","lat":46.1485,"long":-122.887},{"zip":"98632","city":"Longview","state":"WA","lat":46.1514,"long":-122.9634},{"zip":"98645","city":"Silverlake","state":"WA","lat":46.3163,"long":-122.7649},{"zip":"98649","city":"Toutle","state":"WA","lat":46.2956,"long":-122.6477},{"zip":"98674","city":"Woodland","state":"WA","lat":45.9219,"long":-122.7126},{"zip":"98602","city":"Appleton","state":"WA","lat":45.8504,"long":-121.3129},{"zip":"98605","city":"Bingen","state":"WA","lat":45.7751,"long":-121.6328},{"zip":"98613","city":"Centerville","state":"WA","lat":45.7032,"long":-120.946},{"zip":"98617","city":"Dallesport","state":"WA","lat":45.6327,"long":-121.1717},{"zip":"98619","city":"Glenwood","state":"WA","lat":46.0071,"long":-121.2885},{"zip":"98620","city":"Goldendale","state":"WA","lat":45.832,"long":-120.813},{"zip":"98623","city":"Husum","state":"WA","lat":45.8076,"long":-121.4877},{"zip":"98628","city":"Klickitat","state":"WA","lat":45.8171,"long":-121.1526},{"zip":"98635","city":"Lyle","state":"WA","lat":45.745,"long":-121.2501},{"zip":"98650","city":"Trout Lake","state":"WA","lat":45.9828,"long":-121.5163},{"zip":"98670","city":"Wahkiacus","state":"WA","lat":45.859,"long":-121.1409},{"zip":"98672","city":"White Salmon","state":"WA","lat":45.7551,"long":-121.4795},{"zip":"98673","city":"Wishram","state":"WA","lat":45.6573,"long":-120.9667},{"zip":"98614","city":"Chinook","state":"WA","lat":46.2729,"long":-123.9454},{"zip":"98624","city":"Ilwaco","state":"WA","lat":46.3142,"long":-124.0282},{"zip":"98631","city":"Long Beach","state":"WA","lat":46.3774,"long":-124.047},{"zip":"98637","city":"Nahcotta","state":"WA","lat":46.4984,"long":-124.0335},{"zip":"98638","city":"Naselle","state":"WA","lat":46.3528,"long":-123.8044},{"zip":"98640","city":"Ocean Park","state":"WA","lat":46.5029,"long":-124.0436},{"zip":"98641","city":"Oysterville","state":"WA","lat":46.5448,"long":-124.0427},{"zip":"98644","city":"Seaview","state":"WA","lat":46.3308,"long":-124.0455},{"zip":"98610","city":"Carson","state":"WA","lat":45.7493,"long":-121.8351},{"zip":"98639","city":"North Bonneville","state":"WA","lat":45.6373,"long":-121.9712},{"zip":"98648","city":"Stevenson","state":"WA","lat":45.6882,"long":-121.9093},{"zip":"98651","city":"Underwood","state":"WA","lat":45.7409,"long":-121.5974},{"zip":"98612","city":"Cathlamet","state":"WA","lat":46.1954,"long":-123.3627},{"zip":"98621","city":"Grays River","state":"WA","lat":46.3535,"long":-123.5888},{"zip":"98643","city":"Rosburg","state":"WA","lat":46.3071,"long":-123.6571},{"zip":"98647","city":"Skamokawa","state":"WA","lat":46.2952,"long":-123.4332}]
