[{"zip":"98801","city":"Wenatchee","state":"WA","lat":47.4253,"long":-120.3273},{"zip":"98807","city":"Wenatchee","state":"WA","lat":47.4235,"long":-120.3103},{"zip":"98811","city":"Ardenvoir","state":"WA","lat":47.7373,"long":-120.369},{"zip":"98815","city":"Cashmere","state":"WA","lat":47.5173,"long":-120.5033},{"zip":"98816","city":"Chelan","state":"WA","lat":47.8483,"long":-120.0273},{"zip":"98817","city":"Chelan Falls","state":"WA","lat":47.8015,"long":-119.9859},{"zip":"98821","city":"Dryden","state":"WA","lat":47.5412,"long":-120.5609},{"zip":"98822","city":"Entiat","state":"WA","lat":47.7057,"long":-120.276},{"zip":"98826","city":"Leavenworth","state":"WA","lat":47.6438,"long":-120.6748},{"zip":"98828","city":"Malaga","state":"WA","lat":47.3553,"long":-120.2086},{"zip":"98831","city":"Manson","state":"WA","lat":47.8958,"long":-120.149},{"zip":"98836","city":"Monitor","state":"WA","lat":47.4852,"long":-120.4158},{"zip":"98847","city":"Peshastin","state":"WA","lat":47.5458,"long":-120.5961},{"zip":"98852","city":"Stehekin","state":"WA","lat":48.3093,"long":-120.6565},{"zip":"98802","city":"East Wenatchee","state":"WA","lat":47.4186,"long":-120.2731},{"zip":"98813","city":"Bridgeport","state":"WA","lat":48.0082,"long":-119.6712},{"zip":"98830","city":"Mansfield","state":"WA","lat":47.9021,"long":-119.4053},{"zip":"98843","city":"Orondo","state":"WA","lat":47.6969,"long":-120.1721},{"zip":"98845","city":"Palisades","state":"WA","lat":47.419,"long":-119.9145},{"zip":"98850","city":"Rock Island","state":"WA","lat":47.3706,"long":-120.1378},{"zip":"98858","city":"Waterville","state":"WA","lat":47.6295,"long":-119.9887},{"zip":"98823","city":"Ephrata","state":"WA","lat":47.2771,"long":-119.5336},{"zip":"98824","city":"George","state":"WA","lat":47.0792,"long":-119.8601},{"zip":"98832","city":"Marlin","state":"WA","lat":47.3014,"long":-119.064},{"zip":"98837","city":"Moses Lake","state":"WA","lat":47.1374,"long":-119.2891},{"zip":"98848","city":"Quincy","state":"WA","lat":47.1976,"long":-119.8459},{"zip":"98851","city":"Soap Lake","state":"WA","lat":47.383,"long":-119.486},{"zip":"98853","city":"Stratford","state":"WA","lat":47.4043,"long":-119.313},{"zip":"98857","city":"Warden","state":"WA","lat":46.977,"long":-119.0539},{"zip":"98860","city":"Wilson Creek","state":"WA","lat":47.4739,"long":-119.1847},{"zip":"98812","city":"Brewster","state":"WA","lat":48.1206,"long":-119.772},{"zip":"98814","city":"Carlton","state":"WA","lat":48.2526,"long":-120.1055},{"zip":"98819","city":"Conconully","state":"WA","lat":48.5469,"long":-119.7526},{"zip":"98827","city":"Loomis","state":"WA","lat":48.8696,"long":-119.6427},{"zip":"98829","city":"Malott","state":"WA","lat":48.248,"long":-119.7525},{"zip":"98833","city":"Mazama","state":"WA","lat":48.5977,"long":-120.388},{"zip":"98834","city":"Methow","state":"WA","lat":48.1171,"long":-120.0891},{"zip":"98840","city":"Okanogan","state":"WA","lat":48.3513,"long":-119.6046},{"zip":"98841","city":"Omak","state":"WA","lat":48.4143,"long":-119.5272},{"zip":"98844","city":"Oroville","state":"WA","lat":48.9397,"long":-119.4032},{"zip":"98846","city":"Pateros","state":"WA","lat":48.034,"long":-119.9785},{"zip":"98849","city":"Riverside","state":"WA","lat":48.4876,"long":-119.5803},{"zip":"98855","city":"Tonasket","state":"WA","lat":48.7194,"long":-119.3943},{"zip":"98856","city":"Twisp","state":"WA","lat":48.3632,"long":-120.135},{"zip":"98859","city":"Wauconda","state":"WA","lat":48.8224,"long":-118.9469},{"zip":"98862","city":"Winthrop","state":"WA","lat":48.4756,"long":-120.1805}]
