[{"zip":"98922","city":"Cle Elum","state":"WA","lat":47.2063,"long":-120.9685},{"zip":"98925","city":"Easton","state":"WA","lat":47.233,"long":-121.1772},{"zip":"98926","city":"Ellensburg","state":"WA","lat":46.9996,"long":-120.5163},{"zip":"98934","city":"Kittitas","state":"WA","lat":46.9806,"long":-120.4163},{"zip":"98940","city":"Ronald","state":"WA","lat":47.2503,"long":-121.0456},{"zip":"98941","city":"Roslyn","state":"WA","lat":47.2233,"long":-121.0025},{"zip":"98943","city":"South Cle Elum","state":"WA","lat":47.1886,"long":-120.9537},{"zip":"98946","city":"Thorp","state":"WA","lat":47.0679,"long":-120.6712},{"zip":"98950","city":"Vantage","state":"WA","lat":46.8714,"long":-119.9859},{"zip":"98901","city":"Yakima","state":"WA","lat":46.6021,"long":-120.5059},{"zip":"98902","city":"Yakima","state":"WA","lat":46.5934,"long":-120.5311},{"zip":"98903","city":"Yakima","state":"WA","lat":46.5445,"long":-120.7444},{"zip":"98904","city":"Yakima","state":"WA","lat":46.5645,"long":-120.6947},{"zip":"98907","city":"Yakima","state":"WA","lat":46.6288,"long":-120.574},{"zip":"98908","city":"Yakima","state":"WA","lat":46.6165,"long":-120.7094},{"zip":"98909","city":"Yakima","state":"WA","lat":46.6021,"long":-120.5059},{"zip":"98920","city":"Brownstown","state":"WA","lat":46.4043,"long":-120.607},{"zip":"98921","city":"Buena","state":"WA","lat":46.4287,"long":-120.3134},{"zip":"98923","city":"Cowiche","state":"WA","lat":46.6661,"long":-120.7149},{"zip":"98930","city":"Grandview","state":"WA","lat":46.2538,"long":-119.9157},{"zip":"98932","city":"Granger","state":"WA","lat":46.348,"long":-120.1818},{"zip":"98933","city":"Harrah","state":"WA","lat":46.4104,"long":-120.5736},{"zip":"98935","city":"Mabton","state":"WA","lat":46.2121,"long":-120.0151},{"zip":"98936","city":"Moxee","state":"WA","lat":46.5542,"long":-120.3685},{"zip":"98937","city":"Naches","state":"WA","lat":46.8058,"long":-120.9921},{"zip":"98938","city":"Outlook","state":"WA","lat":46.3525,"long":-120.097},{"zip":"98939","city":"Parker","state":"WA","lat":46.501,"long":-120.4653},{"zip":"98942","city":"Selah","state":"WA","lat":46.6767,"long":-120.5408},{"zip":"98944","city":"Sunnyside","state":"WA","lat":46.3213,"long":-120.0126},{"zip":"98947","city":"Tieton","state":"WA","lat":46.7063,"long":-120.7473},{"zip":"98948","city":"Toppenish","state":"WA","lat":46.3751,"long":-120.3305},{"zip":"98951","city":"Wapato","state":"WA","lat":46.4507,"long":-120.4265},{"zip":"98952","city":"White Swan","state":"WA","lat":46.3716,"long":-120.7453},{"zip":"98953","city":"Zillah","state":"WA","lat":46.4158,"long":-120.2662}]
