[{"zip":"99105","city":"Benge","state":"WA","lat":46.8591,"long":-118.1611},{"zip":"99169","city":"Ritzville","state":"WA","lat":47.1315,"long":-118.3958},{"zip":"99107","city":"Boyds","state":"WA","lat":48.8427,"long":-118.1828},{"zip":"99118","city":"Curlew","state":"WA","lat":48.9108,"long":-118.6452},{"zip":"99121","city":"Danville","state":"WA","lat":48.9725,"long":-118.4884},{"zip":"99138","city":"Inchelium","state":"WA","lat":48.2924,"long":-118.3552},{"zip":"99140","city":"Keller","state":"WA","lat":48.0236,"long":-118.6547},{"zip":"99146","city":"Laurier","state":"WA","lat":48.9753,"long":-118.2208},{"zip":"99150","city":"Malo","state":"WA","lat":48.811,"long":-118.6044},{"zip":"99160","city":"Orient","state":"WA","lat":48.866,"long":-118.2028},{"zip":"99166","city":"Republic","state":"WA","lat":48.6704,"long":-118.6999},{"zip":"99115","city":"Coulee City","state":"WA","lat":47.5966,"long":-119.2758},{"zip":"99123","city":"Electric City","state":"WA","lat":47.9131,"long":-119.0426},{"zip":"99133","city":"Grand Coulee","state":"WA","lat":47.9385,"long":-118.9978},{"zip":"99135","city":"Hartline","state":"WA","lat":47.6115,"long":-119.0841},{"zip":"99103","city":"Almira","state":"WA","lat":47.7632,"long":-118.9123},{"zip":"99117","city":"Creston","state":"WA","lat":47.7977,"long":-118.5307},{"zip":"99122","city":"Davenport","state":"WA","lat":47.6809,"long":-118.1667},{"zip":"99134","city":"Harrington","state":"WA","lat":47.4555,"long":-118.2778},{"zip":"99144","city":"Lamona","state":"WA","lat":47.3778,"long":-118.5043},{"zip":"99147","city":"Lincoln","state":"WA","lat":47.8396,"long":-118.4426},{"zip":"99154","city":"Mohler","state":"WA","lat":47.3897,"long":-118.3659},{"zip":"99159","city":"Odessa","state":"WA","lat":47.3395,"long":-118.6983},{"zip":"99185","city":"Wilbur","state":"WA","lat":47.741,"long":-118.7063},{"zip":"99116","city":"Coulee Dam","state":"WA","lat":48.0379,"long":-118.9419},{"zip":"99124","city":"Elmer City","state":"WA","lat":47.9979,"long":-118.9545},{"zip":"99155","city":"Nespelem","state":"WA","lat":48.1434,"long":-119.0094},{"zip":"99119","city":"Cusick","state":"WA","lat":48.3915,"long":-117.3295},{"zip":"99139","city":"Ione","state":"WA","lat":48.741,"long":-117.4172},{"zip":"99152","city":"Metaline","state":"WA","lat":48.8496,"long":-117.3963},{"zip":"99153","city":"Metaline Falls","state":"WA","lat":48.8597,"long":-117.3633},{"zip":"99156","city":"Newport","state":"WA","lat":48.1695,"long":-117.1508},{"zip":"99180","city":"Usk","state":"WA","lat":48.296,"long":-117.3189},{"zip":"99101","city":"Addy","state":"WA","lat":48.3364,"long":-117.9579},{"zip":"99109","city":"Chewelah","state":"WA","lat":48.2876,"long":-117.7754},{"zip":"99110","city":"Clayton","state":"WA","lat":48.0071,"long":-117.5579},{"zip":"99114","city":"Colville","state":"WA","lat":48.578,"long":-117.8645},{"zip":"99126","city":"Evans","state":"WA","lat":48.7458,"long":-118.0001},{"zip":"99129","city":"Fruitland","state":"WA","lat":47.9797,"long":-118.2159},{"zip":"99131","city":"Gifford","state":"WA","lat":48.2685,"long":-118.1136},{"zip":"99137","city":"Hunters","state":"WA","lat":48.1333,"long":-118.1525},{"zip":"99141","city":"Kettle Falls","state":"WA","lat":48.6364,"long":-118.0548},{"zip":"99148","city":"Loon Lake","state":"WA","lat":48.0784,"long":-117.6325},{"zip":"99151","city":"Marcus","state":"WA","lat":48.6632,"long":-118.0683},{"zip":"99157","city":"Northport","state":"WA","lat":48.9247,"long":-117.7931},{"zip":"99167","city":"Rice","state":"WA","lat":48.4062,"long":-118.1249},{"zip":"99173","city":"Springdale","state":"WA","lat":48.0022,"long":-117.829},{"zip":"99181","city":"Valley","state":"WA","lat":48.1351,"long":-117.761},{"zip":"99102","city":"Albion","state":"WA","lat":46.792,"long":-117.2503},{"zip":"99104","city":"Belmont","state":"WA","lat":47.0793,"long":-117.177},{"zip":"99111","city":"Colfax","state":"WA","lat":46.88,"long":-117.367},{"zip":"99113","city":"Colton","state":"WA","lat":46.5901,"long":-117.1692},{"zip":"99125","city":"Endicott","state":"WA","lat":46.9364,"long":-117.723},{"zip":"99128","city":"Farmington","state":"WA","lat":47.0847,"long":-117.0763},{"zip":"99130","city":"Garfield","state":"WA","lat":46.9946,"long":-117.1523},{"zip":"99136","city":"Hay","state":"WA","lat":46.6973,"long":-117.9417},{"zip":"99143","city":"Lacrosse","state":"WA","lat":46.7717,"long":-117.7703},{"zip":"99149","city":"Malden","state":"WA","lat":47.2288,"long":-117.4727},{"zip":"99158","city":"Oakesdale","state":"WA","lat":47.1282,"long":-117.2427},{"zip":"99161","city":"Palouse","state":"WA","lat":46.9076,"long":-117.0855},{"zip":"99163","city":"Pullman","state":"WA","lat":46.7352,"long":-117.1729},{"zip":"99164","city":"Pullman","state":"WA","lat":46.7313,"long":-117.1796},{"zip":"99170","city":"Rosalia","state":"WA","lat":47.2218,"long":-117.4147},{"zip":"99171","city":"Saint John","state":"WA","lat":47.0755,"long":-117.573},{"zip":"99174","city":"Steptoe","state":"WA","lat":47.006,"long":-117.356},{"zip":"99176","city":"Thornton","state":"WA","lat":47.1253,"long":-117.3864},{"zip":"99179","city":"Uniontown","state":"WA","lat":46.5258,"long":-117.0908}]
