[{"zip":"99341","city":"Lind","state":"WA","lat":46.956,"long":-118.7061},{"zip":"99344","city":"Othello","state":"WA","lat":46.8527,"long":-118.9932},{"zip":"99371","city":"Washtucna","state":"WA","lat":46.8209,"long":-118.2862},{"zip":"99320","city":"Benton City","state":"WA","lat":46.2806,"long":-119.4913},{"zip":"99336","city":"Kennewick","state":"WA","lat":46.2109,"long":-119.168},{"zip":"99337","city":"Kennewick","state":"WA","lat":46.1814,"long":-119.1383},{"zip":"99338","city":"Kennewick","state":"WA","lat":46.156,"long":-119.264},{"zip":"99345","city":"Paterson","state":"WA","lat":45.9911,"long":-119.7559},{"zip":"99346","city":"Plymouth","state":"WA","lat":45.9301,"long":-119.4023},{"zip":"99350","city":"Prosser","state":"WA","lat":46.2232,"long":-119.771},{"zip":"99352","city":"Richland","state":"WA","lat":46.2522,"long":-119.288},{"zip":"99353","city":"West Richland","state":"WA","lat":46.3153,"long":-119.3714},{"zip":"99354","city":"Richland","state":"WA","lat":46.3257,"long":-119.3067},{"zip":"99328","city":"Dayton","state":"WA","lat":46.3075,"long":-117.9738},{"zip":"99359","city":"Starbuck","state":"WA","lat":46.5128,"long":-118.1024},{"zip":"99301","city":"Pasco","state":"WA","lat":46.2492,"long":-119.1044},{"zip":"99302","city":"Pasco","state":"WA","lat":46.235,"long":-119.0943},{"zip":"99326","city":"Connell","state":"WA","lat":46.6643,"long":-118.8545},{"zip":"99330","city":"Eltopia","state":"WA","lat":46.475,"long":-119.1013},{"zip":"99335","city":"Kahlotus","state":"WA","lat":46.6779,"long":-118.5337},{"zip":"99343","city":"Mesa","state":"WA","lat":46.5782,"long":-119.1373},{"zip":"99347","city":"Pomeroy","state":"WA","lat":46.4698,"long":-117.5993},{"zip":"99321","city":"Beverly","state":"WA","lat":46.8484,"long":-119.9121},{"zip":"99349","city":"Mattawa","state":"WA","lat":46.731,"long":-119.7783},{"zip":"99357","city":"Royal City","state":"WA","lat":46.9156,"long":-119.5815},{"zip":"99322","city":"Bickleton","state":"WA","lat":45.9597,"long":-120.1042},{"zip":"99356","city":"Roosevelt","state":"WA","lat":45.8514,"long":-120.3543},{"zip":"99323","city":"Burbank","state":"WA","lat":46.1966,"long":-118.9017},{"zip":"99324","city":"College Place","state":"WA","lat":46.0471,"long":-118.4093},{"zip":"99329","city":"Dixie","state":"WA","lat":46.1408,"long":-118.1531},{"zip":"99348","city":"Prescott","state":"WA","lat":46.3539,"long":-118.4097},{"zip":"99360","city":"Touchet","state":"WA","lat":46.0903,"long":-118.663},{"zip":"99361","city":"Waitsburg","state":"WA","lat":46.2691,"long":-118.1447},{"zip":"99362","city":"Walla Walla","state":"WA","lat":46.0614,"long":-118.3315},{"zip":"99363","city":"Wallula","state":"WA","lat":46.0846,"long":-118.9061},{"zip":"99333","city":"Hooper","state":"WA","lat":46.7543,"long":-118.148}]
