[{"zip":"99553","city":"Akutan","state":"AK","lat":54.143,"long":-165.7854},{"zip":"99571","city":"Cold Bay","state":"AK","lat":55.1858,"long":-162.7211},{"zip":"99583","city":"False Pass","state":"AK","lat":54.841,"long":-163.4368},{"zip":"99546","city":"Adak","state":"AK","lat":51.88,"long":-176.6581},{"zip":"99547","city":"Atka","state":"AK","lat":52.1224,"long":-174.4301},{"zip":"99591","city":"Saint George Island","state":"AK","lat":56.5944,"long":-169.6186},{"zip":"99501","city":"Anchorage","state":"AK","lat":61.2116,"long":-149.8761},{"zip":"99502","city":"Anchorage","state":"AK","lat":61.1661,"long":-149.96},{"zip":"99503","city":"Anchorage","state":"AK","lat":61.19,"long":-149.8938},{"zip":"99504","city":"Anchorage","state":"AK","lat":61.2037,"long":-149.7447},{"zip":"99505","city":"Jber","state":"AK","lat":59.8666,"long":-158.5996},{"zip":"99506","city":"Jber","state":"AK","lat":59.8666,"long":-158.5996},{"zip":"99507","city":"Anchorage","state":"AK","lat":61.1535,"long":-149.8289},{"zip":"99508","city":"Anchorage","state":"AK","lat":61.206,"long":-149.8101},{"zip":"99509","city":"Anchorage","state":"AK","lat":61.2181,"long":-149.9003},{"zip":"99510","city":"Anchorage","state":"AK","lat":61.1446,"long":-149.8784},{"zip":"99511","city":"Anchorage","state":"AK","lat":61.0683,"long":-149.8005},{"zip":"99513","city":"Anchorage","state":"AK","lat":61.2149,"long":-149.8862},{"zip":"99514","city":"Anchorage","state":"AK","lat":61.2181,"long":-149.9003},{"zip":"99515","city":"Anchorage","state":"AK","lat":61.1194,"long":-149.8974},{"zip":"99516","city":"Anchorage","state":"AK","lat":61.1054,"long":-149.78},{"zip":"99517","city":"Anchorage","state":"AK","lat":61.1901,"long":-149.9361},{"zip":"99518","city":"Anchorage","state":"AK","lat":61.1549,"long":-149.8866},{"zip":"99519","city":"Anchorage","state":"AK","lat":61.1089,"long":-149.4403},{"zip":"99520","city":"Anchorage","state":"AK","lat":61.2181,"long":-149.9003},{"zip":"99521","city":"Anchorage","state":"AK","lat":61.2181,"long":-149.9003},{"zip":"99522","city":"Anchorage","state":"AK","lat":61.2181,"long":-149.9003},{"zip":"99523","city":"Anchorage","state":"AK","lat":61.2181,"long":-149.9003},{"zip":"99524","city":"Anchorage","state":"AK","lat":61.2181,"long":-149.9003},{"zip":"99529","city":"Anchorage","state":"AK","lat":61.1515,"long":-149.9443},{"zip":"99530","city":"Anchorage","state":"AK","lat":61.1515,"long":-149.9443},{"zip":"99540","city":"Indian","state":"AK","lat":61.1089,"long":-149.4403},{"zip":"99567","city":"Chugiak","state":"AK","lat":61.4098,"long":-149.4537},{"zip":"99577","city":"Eagle River","state":"AK","lat":61.3114,"long":-149.5085},{"zip":"99587","city":"Girdwood","state":"AK","lat":60.9577,"long":-149.1406},{"zip":"99599","city":"Anchorage","state":"AK","lat":61.1872,"long":-149.8804},{"zip":"99545","city":"Kongiganak","state":"AK","lat":59.9599,"long":-162.8919},{"zip":"99551","city":"Akiachak","state":"AK","lat":60.9094,"long":-161.4314},{"zip":"99552","city":"Akiak","state":"AK","lat":60.9122,"long":-161.2139},{"zip":"99557","city":"Aniak","state":"AK","lat":61.5783,"long":-159.5222},{"zip":"99559","city":"Bethel","state":"AK","lat":60.7922,"long":-161.7558},{"zip":"99561","city":"Chefornak","state":"AK","lat":60.1537,"long":-164.2103},{"zip":"99575","city":"Crooked Creek","state":"AK","lat":61.8181,"long":-158.0025},{"zip":"99578","city":"Eek","state":"AK","lat":60.2151,"long":-162.0323},{"zip":"99589","city":"Goodnews Bay","state":"AK","lat":59.1189,"long":-161.5875},{"zip":"99555","city":"Aleknagik","state":"AK","lat":59.2697,"long":-158.6199},{"zip":"99569","city":"Clarks Point","state":"AK","lat":58.8173,"long":-158.5299},{"zip":"99576","city":"Dillingham","state":"AK","lat":59.0402,"long":-158.5231},{"zip":"99580","city":"Ekwok","state":"AK","lat":59.3628,"long":-157.4782},{"zip":"99556","city":"Anchor Point","state":"AK","lat":59.8371,"long":-151.7078},{"zip":"99568","city":"Clam Gulch","state":"AK","lat":60.2311,"long":-151.3936},{"zip":"99572","city":"Cooper Landing","state":"AK","lat":60.4767,"long":-149.8235},{"zip":"99550","city":"Port Lions","state":"AK","lat":57.8675,"long":-152.8822},{"zip":"99548","city":"Chignik Lake","state":"AK","lat":56.2448,"long":-158.7578},{"zip":"99549","city":"Port Heiden","state":"AK","lat":56.9643,"long":-158.5664},{"zip":"99564","city":"Chignik","state":"AK","lat":56.3016,"long":-158.4157},{"zip":"99565","city":"Chignik Lagoon","state":"AK","lat":58.2687,"long":-156.6484},{"zip":"99579","city":"Egegik","state":"AK","lat":58.2062,"long":-157.3422},{"zip":"99566","city":"Chitina","state":"AK","lat":61.471,"long":-144.991},{"zip":"99573","city":"Copper Center","state":"AK","lat":61.977,"long":-145.3297},{"zip":"99574","city":"Cordova","state":"AK","lat":60.5362,"long":-145.7534},{"zip":"99586","city":"Gakona","state":"AK","lat":62.6682,"long":-144.1105},{"zip":"99588","city":"Glennallen","state":"AK","lat":62.1039,"long":-145.6617},{"zip":"99554","city":"Alakanuk","state":"AK","lat":62.6944,"long":-164.6475},{"zip":"99563","city":"Chevak","state":"AK","lat":61.529,"long":-165.5905},{"zip":"99581","city":"Emmonak","state":"AK","lat":62.7818,"long":-164.5335},{"zip":"99585","city":"Marshall","state":"AK","lat":61.9287,"long":-162.268},{"zip":"99558","city":"Anvik","state":"AK","lat":62.6561,"long":-160.2067},{"zip":"99590","city":"Grayling","state":"AK","lat":62.9036,"long":-160.0647}]
