[{"zip":"99612","city":"King Cove","state":"AK","lat":55.0628,"long":-162.3056},{"zip":"99661","city":"Sand Point","state":"Alaska","lat":55.3192,"long":-160.4914},{"zip":"99638","city":"Nikolski","state":"AK","lat":52.9883,"long":-168.7884},{"zip":"99660","city":"Saint Paul Island","state":"AK","lat":57.1842,"long":-170.2764},{"zip":"99685","city":"Unalaska","state":"AK","lat":53.8871,"long":-166.5199},{"zip":"99692","city":"Dutch Harbor","state":"AK","lat":53.8898,"long":-166.5422},{"zip":"99695","city":"Anchorage","state":"AK","lat":61.1089,"long":-149.4403},{"zip":"99607","city":"Kalskag","state":"AK","lat":61.541,"long":-160.3261},{"zip":"99609","city":"Kasigluk","state":"AK","lat":60.8956,"long":-162.5181},{"zip":"99614","city":"Kipnuk","state":"AK","lat":59.9232,"long":-164.101},{"zip":"99621","city":"Kwethluk","state":"AK","lat":60.8122,"long":-161.4358},{"zip":"99622","city":"Kwigillingok","state":"AK","lat":59.8644,"long":-163.1342},{"zip":"99626","city":"Lower Kalskag","state":"AK","lat":61.5138,"long":-160.36},{"zip":"99630","city":"Mekoryuk","state":"AK","lat":60.3657,"long":-166.2836},{"zip":"99634","city":"Napakiak","state":"AK","lat":60.6967,"long":-161.9519},{"zip":"99637","city":"Toksook Bay","state":"AK","lat":60.5338,"long":-165.1037},{"zip":"99641","city":"Nunapitchuk","state":"AK","lat":60.8969,"long":-162.4594},{"zip":"99651","city":"Platinum","state":"AK","lat":59.0131,"long":-161.8164},{"zip":"99655","city":"Quinhagak","state":"AK","lat":59.7381,"long":-161.8749},{"zip":"99656","city":"Red Devil","state":"AK","lat":61.7611,"long":-157.3125},{"zip":"99668","city":"Sleetmute","state":"AK","lat":61.6346,"long":-157.1183},{"zip":"99679","city":"Tuluksak","state":"AK","lat":61.1088,"long":-160.9389},{"zip":"99680","city":"Tuntutuliak","state":"AK","lat":60.3431,"long":-162.6631},{"zip":"99681","city":"Tununak","state":"AK","lat":60.5856,"long":-165.2558},{"zip":"99690","city":"Nightmute","state":"AK","lat":60.4794,"long":-164.7239},{"zip":"99613","city":"King Salmon","state":"AK","lat":58.6883,"long":-156.6614},{"zip":"99633","city":"Naknek","state":"AK","lat":58.783,"long":-156.8992},{"zip":"99670","city":"South Naknek","state":"AK","lat":58.6639,"long":-156.9756},{"zip":"99628","city":"Manokotak","state":"AK","lat":59.0096,"long":-158.9897},{"zip":"99636","city":"New Stuyahok","state":"AK","lat":59.4882,"long":-157.2905},{"zip":"99678","city":"Togiak","state":"AK","lat":59.0619,"long":-160.3764},{"zip":"99603","city":"Homer","state":"AK","lat":59.5374,"long":-151.2356},{"zip":"99605","city":"Hope","state":"AK","lat":60.8726,"long":-149.4683},{"zip":"99610","city":"Kasilof","state":"AK","lat":60.3164,"long":-151.2896},{"zip":"99611","city":"Kenai","state":"AK","lat":60.6145,"long":-151.2546},{"zip":"99631","city":"Moose Pass","state":"AK","lat":60.6148,"long":-149.4056},{"zip":"99635","city":"Nikiski","state":"AK","lat":60.7007,"long":-151.2766},{"zip":"99639","city":"Ninilchik","state":"AK","lat":60.0108,"long":-151.6396},{"zip":"99663","city":"Seldovia","state":"AK","lat":59.4495,"long":-151.7009},{"zip":"99664","city":"Seward","state":"AK","lat":60.1329,"long":-149.3985},{"zip":"99669","city":"Soldotna","state":"AK","lat":60.4818,"long":-151.1358},{"zip":"99672","city":"Sterling","state":"AK","lat":60.5136,"long":-150.8532},{"zip":"99682","city":"Tyonek","state":"AK","lat":61.0681,"long":-151.1369},{"zip":"99608","city":"Karluk","state":"AK","lat":57.5689,"long":-154.4551},{"zip":"99615","city":"Kodiak","state":"AK","lat":57.6036,"long":-153.3751},{"zip":"99619","city":"Kodiak","state":"AK","lat":57.79,"long":-152.4072},{"zip":"99624","city":"Larsen Bay","state":"AK","lat":57.54,"long":-153.9786},{"zip":"99643","city":"Old Harbor","state":"AK","lat":57.2028,"long":-153.3039},{"zip":"99644","city":"Ouzinkie","state":"AK","lat":57.9236,"long":-152.5022},{"zip":"99697","city":"Kodiak","state":"AK","lat":57.79,"long":-152.4072},{"zip":"99606","city":"Iliamna","state":"AK","lat":59.7525,"long":-154.8236},{"zip":"99625","city":"Levelock","state":"AK","lat":59.2905,"long":-156.6503},{"zip":"99640","city":"Nondalton","state":"AK","lat":59.9736,"long":-154.8458},{"zip":"99647","city":"Pedro Bay","state":"AK","lat":59.8681,"long":-154.0757},{"zip":"99648","city":"Perryville","state":"AK","lat":55.9453,"long":-159.2593},{"zip":"99649","city":"Pilot Point","state":"AK","lat":57.5952,"long":-157.4493},{"zip":"99653","city":"Port Alsworth","state":"AK","lat":60.2025,"long":-154.3128},{"zip":"99623","city":"Wasilla","state":"AK","lat":61.5463,"long":-149.5901},{"zip":"99629","city":"Wasilla","state":"AK","lat":61.5841,"long":-149.4436},{"zip":"99645","city":"Palmer","state":"AK","lat":61.6303,"long":-148.9872},{"zip":"99652","city":"Big Lake","state":"AK","lat":61.523,"long":-149.7288},{"zip":"99654","city":"Wasilla","state":"AK","lat":61.5923,"long":-149.3959},{"zip":"99667","city":"Skwentna","state":"AK","lat":61.9903,"long":-151.3978},{"zip":"99674","city":"Sutton","state":"AK","lat":61.7327,"long":-148.7837},{"zip":"99676","city":"Talkeetna","state":"AK","lat":62.2605,"long":-150.1101},{"zip":"99683","city":"Trapper Creek","state":"AK","lat":62.3167,"long":-150.2314},{"zip":"99687","city":"Wasilla","state":"AK","lat":61.5313,"long":-149.4784},{"zip":"99688","city":"Willow","state":"AK","lat":61.8966,"long":-150.0038},{"zip":"99694","city":"Houston","state":"AK","lat":61.6303,"long":-149.8181},{"zip":"99659","city":"Saint Michael","state":"AK","lat":63.4776,"long":-162.1091},{"zip":"99671","city":"Stebbins","state":"AK","lat":63.5222,"long":-162.2881},{"zip":"99684","city":"Unalakleet","state":"AK","lat":63.8835,"long":-160.7884},{"zip":"99689","city":"Yakutat","state":"AK","lat":59.812,"long":-139.5505},{"zip":"99677","city":"Tatitlek","state":"AK","lat":60.8906,"long":-146.6703},{"zip":"99686","city":"Valdez","state":"AK","lat":61.101,"long":-146.9},{"zip":"99693","city":"Whittier","state":"AK","lat":60.7734,"long":-148.6839},{"zip":"99604","city":"Hooper Bay","state":"AK","lat":61.527,"long":-166.1151},{"zip":"99620","city":"Kotlik","state":"AK","lat":63.0295,"long":-163.5542},{"zip":"99632","city":"Mountain Village","state":"AK","lat":62.1123,"long":-163.6644},{"zip":"99650","city":"Pilot Station","state":"AK","lat":61.9462,"long":-162.8747},{"zip":"99657","city":"Russian Mission","state":"AK","lat":61.7744,"long":-161.3939},{"zip":"99658","city":"Saint Marys","state":"AK","lat":62.1172,"long":-163.2376},{"zip":"99662","city":"Scammon Bay","state":"AK","lat":61.845,"long":-165.5819},{"zip":"99666","city":"Nunam Iqua","state":"AK","lat":59.4381,"long":-151.7114},{"zip":"99602","city":"Holy Cross","state":"AK","lat":62.1926,"long":-159.8251},{"zip":"99627","city":"Mc Grath","state":"AK","lat":62.9457,"long":-155.5712},{"zip":"99665","city":"Shageluk","state":"AK","lat":62.6822,"long":-159.5619},{"zip":"99675","city":"Takotna","state":"AK","lat":62.9886,"long":-156.0642},{"zip":"99691","city":"Nikolai","state":"AK","lat":63.0133,"long":-154.375}]
