[{"zip":"99704","city":"Clear","state":"AK","lat":64.2966,"long":-149.1608},{"zip":"99729","city":"Cantwell","state":"AK","lat":63.3955,"long":-148.8973},{"zip":"99743","city":"Healy","state":"AK","lat":63.9171,"long":-149.0111},{"zip":"99744","city":"Anderson","state":"AK","lat":64.3442,"long":-149.1869},{"zip":"99755","city":"Denali National Park","state":"AK","lat":63.5436,"long":-149.9867},{"zip":"99701","city":"Fairbanks","state":"AK","lat":64.8378,"long":-147.7164},{"zip":"99702","city":"Eielson Afb","state":"AK","lat":64.6735,"long":-147.0805},{"zip":"99703","city":"Fort Wainwright","state":"AK","lat":64.8283,"long":-147.6557},{"zip":"99705","city":"North Pole","state":"AK","lat":64.7805,"long":-147.3694},{"zip":"99706","city":"Fairbanks","state":"AK","lat":64.8521,"long":-147.9377},{"zip":"99707","city":"Fairbanks","state":"AK","lat":64.8378,"long":-147.7164},{"zip":"99708","city":"Fairbanks","state":"AK","lat":64.9475,"long":-147.8564},{"zip":"99709","city":"Fairbanks","state":"AK","lat":64.8544,"long":-147.8469},{"zip":"99710","city":"Fairbanks","state":"AK","lat":64.8378,"long":-147.7164},{"zip":"99711","city":"Fairbanks","state":"AK","lat":64.8378,"long":-147.7164},{"zip":"99712","city":"Fairbanks","state":"AK","lat":64.9109,"long":-147.5105},{"zip":"99714","city":"Salcha","state":"AK","lat":64.5091,"long":-146.953},{"zip":"99716","city":"Two Rivers","state":"AK","lat":64.8746,"long":-146.8982},{"zip":"99725","city":"Ester","state":"AK","lat":64.871,"long":-148.0949},{"zip":"99775","city":"Fairbanks","state":"AK","lat":64.8591,"long":-147.8267},{"zip":"99790","city":"Fairbanks","state":"AK","lat":64.8378,"long":-147.7164},{"zip":"99739","city":"Elim","state":"AK","lat":64.6217,"long":-162.2604},{"zip":"99742","city":"Gambell","state":"AK","lat":63.7766,"long":-171.7017},{"zip":"99753","city":"Koyuk","state":"AK","lat":64.9319,"long":-161.1569},{"zip":"99762","city":"Nome","state":"AK","lat":64.5011,"long":-165.4064},{"zip":"99769","city":"Savoonga","state":"AK","lat":63.6797,"long":-170.4709},{"zip":"99771","city":"Shaktoolik","state":"AK","lat":64.3755,"long":-161.1746},{"zip":"99772","city":"Shishmaref","state":"AK","lat":66.2306,"long":-166.1373},{"zip":"99778","city":"Teller","state":"AK","lat":65.2402,"long":-166.3833},{"zip":"99783","city":"Wales","state":"AK","lat":65.6092,"long":-168.0875},{"zip":"99784","city":"White Mountain","state":"AK","lat":64.7028,"long":-163.4219},{"zip":"99785","city":"Brevig Mission","state":"AK","lat":65.3342,"long":-166.4786},{"zip":"99721","city":"Anaktuvuk Pass","state":"AK","lat":68.1433,"long":-151.7358},{"zip":"99723","city":"Barrow","state":"AK","lat":71.2346,"long":-156.8174},{"zip":"99734","city":"Prudhoe Bay","state":"AK","lat":70.2922,"long":-148.6694},{"zip":"99747","city":"Kaktovik","state":"AK","lat":70.1319,"long":-143.6239},{"zip":"99759","city":"Point Lay","state":"AK","lat":69.7439,"long":-163.0084},{"zip":"99766","city":"Point Hope","state":"AK","lat":68.3486,"long":-166.7347},{"zip":"99782","city":"Wainwright","state":"AK","lat":70.6369,"long":-160.0383},{"zip":"99789","city":"Nuiqsut","state":"AK","lat":70.1927,"long":-150.9971},{"zip":"99791","city":"Atqasuk","state":"AK","lat":70.4947,"long":-157.4411},{"zip":"99727","city":"Buckland","state":"AK","lat":65.9789,"long":-161.1262},{"zip":"99736","city":"Deering","state":"AK","lat":66.0737,"long":-162.714},{"zip":"99749","city":"Kiana","state":"AK","lat":66.975,"long":-160.4228},{"zip":"99750","city":"Kivalina","state":"AK","lat":67.7269,"long":-164.5333},{"zip":"99751","city":"Kobuk","state":"AK","lat":66.9072,"long":-156.8811},{"zip":"99752","city":"Kotzebue","state":"AK","lat":66.8985,"long":-162.5981},{"zip":"99761","city":"Noatak","state":"AK","lat":67.5711,"long":-162.9653},{"zip":"99763","city":"Noorvik","state":"AK","lat":66.8364,"long":-161.0441},{"zip":"99770","city":"Selawik","state":"AK","lat":66.6039,"long":-160.0069},{"zip":"99773","city":"Shungnak","state":"AK","lat":66.8881,"long":-157.1364},{"zip":"99786","city":"Ambler","state":"AK","lat":67.0861,"long":-157.8514},{"zip":"99731","city":"Fort Greely","state":"AK","lat":63.952,"long":-146.451},{"zip":"99732","city":"Chicken","state":"AK","lat":64.0733,"long":-141.9361},{"zip":"99737","city":"Delta Junction","state":"AK","lat":64.0378,"long":-145.7322},{"zip":"99738","city":"Eagle","state":"AK","lat":64.7881,"long":-141.2},{"zip":"99764","city":"Northway","state":"AK","lat":62.9617,"long":-141.9372},{"zip":"99776","city":"Tanacross","state":"AK","lat":63.3853,"long":-143.3464},{"zip":"99780","city":"Tok","state":"AK","lat":63.3367,"long":-142.9856},{"zip":"99720","city":"Allakaket","state":"AK","lat":66.5432,"long":-152.7122},{"zip":"99722","city":"Arctic Village","state":"AK","lat":68.1269,"long":-145.5378},{"zip":"99724","city":"Beaver","state":"AK","lat":66.3594,"long":-147.3964},{"zip":"99726","city":"Bettles Field","state":"AK","lat":65.2264,"long":-151.0251},{"zip":"99730","city":"Central","state":"AK","lat":65.4681,"long":-144.7489},{"zip":"99733","city":"Circle","state":"AK","lat":65.8245,"long":-144.0826},{"zip":"99740","city":"Fort Yukon","state":"AK","lat":66.5647,"long":-145.2739},{"zip":"99741","city":"Galena","state":"AK","lat":64.7333,"long":-156.9275},{"zip":"99745","city":"Hughes","state":"AK","lat":66.0382,"long":-154.2644},{"zip":"99746","city":"Huslia","state":"AK","lat":65.6899,"long":-156.292},{"zip":"99748","city":"Kaltag","state":"AK","lat":64.3305,"long":-158.7243},{"zip":"99754","city":"Koyukuk","state":"AK","lat":64.8803,"long":-157.7008},{"zip":"99756","city":"Manley Hot Springs","state":"AK","lat":65.0011,"long":-150.6339},{"zip":"99757","city":"Lake Minchumina","state":"AK","lat":63.8828,"long":-152.3122},{"zip":"99758","city":"Minto","state":"AK","lat":65.0584,"long":-149.6912},{"zip":"99760","city":"Nenana","state":"AK","lat":64.5577,"long":-149.0867},{"zip":"99765","city":"Nulato","state":"AK","lat":64.7194,"long":-158.1031},{"zip":"99767","city":"Rampart","state":"AK","lat":65.509,"long":-150.1619},{"zip":"99768","city":"Ruby","state":"AK","lat":64.7201,"long":-155.5039},{"zip":"99774","city":"Stevens Village","state":"AK","lat":66.0064,"long":-149.0908},{"zip":"99777","city":"Tanana","state":"AK","lat":65.1719,"long":-152.0789},{"zip":"99781","city":"Venetie","state":"AK","lat":67.0104,"long":-146.4137},{"zip":"99788","city":"Chalkyitsik","state":"AK","lat":66.6544,"long":-143.7222}]
