[{"zip":"99827","city":"Haines","state":"AK","lat":59.2519,"long":-135.542},{"zip":"99801","city":"Juneau","state":"AK","lat":58.3628,"long":-134.5294},{"zip":"99802","city":"Juneau","state":"AK","lat":58.3019,"long":-134.4197},{"zip":"99803","city":"Juneau","state":"AK","lat":58.3019,"long":-134.4197},{"zip":"99811","city":"Juneau","state":"AK","lat":58.3019,"long":-134.4197},{"zip":"99812","city":"Juneau","state":"AK","lat":58.3271,"long":-134.4742},{"zip":"99821","city":"Auke Bay","state":"AK","lat":58.4494,"long":-134.7003},{"zip":"99824","city":"Douglas","state":"AK","lat":58.2756,"long":-134.395},{"zip":"99850","city":"Juneau","state":"AK","lat":58.3019,"long":-134.4197},{"zip":"99835","city":"Sitka","state":"AK","lat":57.0514,"long":-135.3166},{"zip":"99820","city":"Angoon","state":"AK","lat":57.5005,"long":-134.586},{"zip":"99825","city":"Elfin Cove","state":"AK","lat":58.1944,"long":-136.3433},{"zip":"99826","city":"Gustavus","state":"AK","lat":58.4284,"long":-135.7615},{"zip":"99829","city":"Hoonah","state":"AK","lat":58.0977,"long":-135.4316},{"zip":"99832","city":"Pelican","state":"AK","lat":57.9608,"long":-136.2275},{"zip":"99840","city":"Skagway","state":"AK","lat":59.4685,"long":-135.3018},{"zip":"99841","city":"Tenakee Springs","state":"AK","lat":57.7808,"long":-135.2189},{"zip":"99830","city":"Kake","state":"AK","lat":56.9736,"long":-133.936},{"zip":"99833","city":"Petersburg","state":"AK","lat":56.8271,"long":-133.1607},{"zip":"99836","city":"Port Alexander","state":"AK","lat":56.2497,"long":-134.6444}]
