[{"zip":"99901","city":"Ketchikan","state":"AK","lat":55.372,"long":-131.6832},{"zip":"99928","city":"Ward Cove","state":"AK","lat":55.3954,"long":-131.6754},{"zip":"99950","city":"Ketchikan","state":"AK","lat":55.3422,"long":-131.6478},{"zip":"99903","city":"Meyers Chuck","state":"AK","lat":55.7408,"long":-132.2564},{"zip":"99918","city":"Coffman Cove","state":"AK","lat":55.9524,"long":-132.7503},{"zip":"99919","city":"Thorne Bay","state":"AK","lat":55.6609,"long":-132.5138},{"zip":"99921","city":"Craig","state":"AK","lat":55.4732,"long":-133.1171},{"zip":"99922","city":"Hydaburg","state":"AK","lat":55.2087,"long":-132.8259},{"zip":"99923","city":"Hyder","state":"AK","lat":55.9169,"long":-130.0247},{"zip":"99925","city":"Klawock","state":"AK","lat":55.5526,"long":-133.0555},{"zip":"99926","city":"Metlakatla","state":"AK","lat":55.1215,"long":-131.579},{"zip":"99927","city":"Point Baker","state":"AK","lat":56.3528,"long":-133.6211},{"zip":"99929","city":"Wrangell","state":"AK","lat":56.4335,"long":-132.3529}]
